{"type":"FeatureCollection","metadata":{"gemeente":"Abbateggio","slug":"abbateggio","generated_at":"2026-09-26T14:26:49.662827Z","total_points":1,"providers":["PosteItaliane"],"bounds":[14.00939741,42.22479641,14.00939741,42.22479641]},"features":[{"type":"Feature","geometry":{"type":"Point","coordinates":[14.00939741,42.22479641]},"properties":{"type":"pakketpunt","locatieNaam":"Abbateggio","straatNaam":"Via Madonna Dell'elcina","straatNr":"16","vervoerder":"PosteItaliane","puntType":"postkantoor","bezettingsgraad":50,"latitude":42.22479641,"longitude":14.00939741,"canPickup":true,"canDropoff":true,"openingstijden":{"za":"gesloten","zo":"gesloten","ma":"08:20 - 13:45","di":"gesloten","wo":"08:20 - 13:45","do":"gesloten","vr":"08:20 - 13:45"}}},{"type":"Feature","geometry":{"type":"Polygon","coordinates":[[[14.0018705,42.2305976],[14.0049711,42.2344076],[14.0143951,42.237809],[14.0244625,42.2404379],[14.0257827,42.2404993],[14.0297855,42.2402919],[14.0311486,42.2396966],[14.0321966,42.2307749],[14.0314587,42.2307803],[14.0278,42.2299193],[14.0265786,42.2289737],[14.0264452,42.2281243],[14.0271673,42.226058],[14.0266674,42.2215426],[14.0241941,42.2200443],[14.0233377,42.2175161],[14.0232318,42.2133255],[14.023424,42.2127724],[14.024231,42.2121743],[14.0246153,42.2115812],[14.0247099,42.2109244],[14.0246391,42.2077691],[14.0239358,42.201456],[14.0274349,42.1896664],[14.030165,42.1877188],[14.0336609,42.185661],[14.0431093,42.1805501],[14.043815,42.1803209],[14.0444212,42.1803617],[14.0464006,42.1807561],[14.0474242,42.181089],[14.0487889,42.1813349],[14.0533988,42.1807353],[14.0544314,42.1805277],[14.0566808,42.1799061],[14.0614323,42.1795385],[14.063228,42.1800847],[14.0654555,42.1809404],[14.066281,42.1808769],[14.0671939,42.1805619],[14.0697053,42.1785015],[14.0766884,42.1737311],[14.0774441,42.1733825],[14.0780424,42.1732119],[14.080737,42.1734524],[14.0820193,42.173445],[14.084212,42.1721907],[14.0844251,42.1719157],[14.0845724,42.1714141],[14.0811474,42.1730516],[14.0807026,42.1730308],[14.0798254,42.1726556],[14.0751533,42.1695815],[14.0725923,42.1707619],[14.0715292,42.1713806],[14.0709894,42.1718457],[14.0702321,42.1723159],[14.0693689,42.1725522],[14.0665813,42.1727837],[14.0585293,42.1720326],[14.0414461,42.1736643],[14.0404124,42.1739439],[14.0287641,42.1788092],[14.0250445,42.1797784],[14.0203586,42.181312],[14.0165791,42.1829722],[14.0147532,42.1843711],[14.0152512,42.1858437],[14.011845,42.1907419],[14.0097806,42.1934521],[14.0052828,42.1975922],[14.004484,42.2014217],[14.0029889,42.2056058],[14.000729,42.2090896],[13.997764,42.2128473],[13.9972486,42.2132209],[13.9961183,42.2134188],[13.9955264,42.2140794],[13.9947387,42.2201861],[13.9957084,42.2232227],[13.9962963,42.2236021],[13.9971874,42.2239098],[14.0003234,42.2248711],[14.0024354,42.2253865],[14.003412,42.2257309],[14.0036095,42.2262174],[14.003186,42.2277349],[14.0018705,42.2305976]]]},"properties":{"type":"boundary","gemeente":"Abbateggio"}}]}