{"type":"FeatureCollection","metadata":{"gemeente":"Acerra","slug":"acerra","generated_at":"2026-09-26T13:09:29.908214Z","total_points":72,"providers":["PosteItaliane","DPD","InPost","GLS","DHL","Amazon"],"bounds":[14.36041,40.9362,14.41381019,40.9754]},"features":[{"type":"Feature","geometry":{"type":"Point","coordinates":[14.41381019,40.97539968]},"properties":{"type":"pakketpunt","locatieNaam":"Tabaccheria N. 10","straatNaam":"Via Dei Sanniti","straatNr":"185","vervoerder":"PosteItaliane","puntType":"servicepunt","bezettingsgraad":50,"latitude":40.97539968,"longitude":14.41381019,"canPickup":true,"canDropoff":true,"openingstijden":{"za":"06:00 - 20:30","zo":"08:00 - 13:00","ma":"06:00 - 20:30","di":"06:00 - 20:30","wo":"06:00 - 20:30","do":"06:00 - 20:30","vr":"06:00 - 20:30"}}},{"type":"Feature","geometry":{"type":"Point","coordinates":[14.38362202,40.94370219]},"properties":{"type":"pakketpunt","locatieNaam":"Tabaccheria N. 20","straatNaam":"Via Yasser Arafat","straatNr":"52","vervoerder":"PosteItaliane","puntType":"servicepunt","bezettingsgraad":50,"latitude":40.94370219,"longitude":14.38362202,"canPickup":true,"canDropoff":true,"openingstijden":{"za":"08:00 - 13:00, 16:00 - 20:00","zo":"gesloten","ma":"08:00 - 13:00, 16:00 - 20:00","di":"08:00 - 13:00, 16:00 - 20:00","wo":"08:00 - 13:00, 16:00 - 20:00","do":"08:00 - 13:00, 16:00 - 20:00","vr":"08:00 - 13:00, 16:00 - 20:00"}}},{"type":"Feature","geometry":{"type":"Point","coordinates":[14.41317286,40.97458164]},"properties":{"type":"pakketpunt","locatieNaam":"Acerra 3","straatNaam":"Via Dei Sanniti","straatNr":"173","vervoerder":"PosteItaliane","puntType":"postkantoor","bezettingsgraad":50,"latitude":40.97458164,"longitude":14.41317286,"canPickup":true,"canDropoff":true,"openingstijden":{"za":"08:30 - 12:35","zo":"gesloten","ma":"08:30 - 13:35","di":"08:30 - 13:35","wo":"08:30 - 13:35","do":"08:30 - 13:35","vr":"08:30 - 13:35"}}},{"type":"Feature","geometry":{"type":"Point","coordinates":[14.37065703,40.9405403]},"properties":{"type":"pakketpunt","locatieNaam":"Acerra","straatNaam":"Piazza Falcone E Borsellino","straatNr":"3","vervoerder":"PosteItaliane","puntType":"postkantoor","bezettingsgraad":50,"latitude":40.9405403,"longitude":14.37065703,"canPickup":true,"canDropoff":true,"openingstijden":{"za":"08:20 - 12:35","zo":"gesloten","ma":"08:20 - 19:05","di":"08:20 - 19:05","wo":"08:20 - 19:05","do":"08:20 - 19:05","vr":"08:20 - 19:05"}}},{"type":"Feature","geometry":{"type":"Point","coordinates":[14.36575343,40.94840318]},"properties":{"type":"pakketpunt","locatieNaam":"Acerra 2","straatNaam":"Corso Resistenza","straatNr":"209","vervoerder":"PosteItaliane","puntType":"postkantoor","bezettingsgraad":50,"latitude":40.94840318,"longitude":14.36575343,"canPickup":true,"canDropoff":true,"openingstijden":{"za":"08:20 - 12:35","zo":"gesloten","ma":"08:20 - 19:05","di":"08:20 - 19:05","wo":"08:20 - 19:05","do":"08:20 - 19:05","vr":"08:20 - 19:05"}}},{"type":"Feature","geometry":{"type":"Point","coordinates":[14.38400318,40.9502001]},"properties":{"type":"pakketpunt","locatieNaam":"Acerra 1","straatNaam":"Corso Vittorio Emanuele Ii","straatNr":"187","vervoerder":"PosteItaliane","puntType":"postkantoor","bezettingsgraad":50,"latitude":40.9502001,"longitude":14.38400318,"canPickup":true,"canDropoff":true,"openingstijden":{"za":"08:30 - 12:35","zo":"gesloten","ma":"08:30 - 13:35","di":"08:30 - 13:35","wo":"08:30 - 13:35","do":"08:30 - 12:35","vr":"08:30 - 13:35"}}},{"type":"Feature","geometry":{"type":"Point","coordinates":[14.37395213,40.940622]},"properties":{"type":"pakketpunt","locatieNaam":"Globo Express Acerra","straatNaam":"Corso Giuseppe Garibaldi","straatNr":"62","vervoerder":"PosteItaliane","puntType":"servicepunt","bezettingsgraad":50,"latitude":40.940622,"longitude":14.37395213,"canPickup":true,"canDropoff":true,"openingstijden":{"za":"09:00 - 13:00","zo":"gesloten","ma":"09:00 - 19:00","di":"09:00 - 19:00","wo":"09:00 - 19:00","do":"09:00 - 19:00","vr":"09:00 - 19:00"}}},{"type":"Feature","geometry":{"type":"Point","coordinates":[14.37025907,40.94040749]},"properties":{"type":"pakketpunt","locatieNaam":"Ufficio Postale Acerra","straatNaam":"Piazza Falcone E Borsellino Snc","straatNr":"1","vervoerder":"PosteItaliane","puntType":"automaat","bezettingsgraad":50,"latitude":40.94040749,"longitude":14.37025907,"canPickup":true,"canDropoff":true,"openingstijden":{"za":"08:20 - 12:35","zo":"gesloten","ma":"08:20 - 19:05","di":"08:20 - 19:05","wo":"08:20 - 19:05","do":"08:20 - 19:05","vr":"08:20 - 19:05"}}},{"type":"Feature","geometry":{"type":"Point","coordinates":[14.376619,40.93743161]},"properties":{"type":"pakketpunt","locatieNaam":"Tabaccheria N. 13","straatNaam":"Via Armando Diaz","straatNr":"41","vervoerder":"PosteItaliane","puntType":"servicepunt","bezettingsgraad":50,"latitude":40.93743161,"longitude":14.376619,"canPickup":true,"canDropoff":true,"openingstijden":{"za":"07:00 - 13:00, 15:00 - 20:00","zo":"gesloten","ma":"07:00 - 13:00, 15:00 - 20:00","di":"07:00 - 13:00, 15:00 - 20:00","wo":"07:00 - 13:00, 15:00 - 20:00","do":"07:00 - 13:00, 15:00 - 20:00","vr":"07:00 - 13:00, 15:00 - 20:00"}}},{"type":"Feature","geometry":{"type":"Point","coordinates":[14.36697282,40.94989669]},"properties":{"type":"pakketpunt","locatieNaam":"Daniele Barbato Fotografo","straatNaam":"Via Stendardo","straatNr":"56","vervoerder":"PosteItaliane","puntType":"servicepunt","bezettingsgraad":50,"latitude":40.94989669,"longitude":14.36697282,"canPickup":true,"canDropoff":true,"openingstijden":{"za":"09:00 - 13:00, 16:00 - 20:00","zo":"gesloten","ma":"09:00 - 13:00, 16:00 - 20:00","di":"09:00 - 13:00, 16:00 - 20:00","wo":"09:00 - 13:00, 16:00 - 20:00","do":"09:00 - 13:00, 16:00 - 20:00","vr":"09:00 - 13:00, 16:00 - 20:00"}}},{"type":"Feature","geometry":{"type":"Point","coordinates":[14.37785,40.947265]},"properties":{"type":"pakketpunt","locatieNaam":"Non Solo Libri","straatNaam":"Corso Vittorio Emanuele Ii","straatNr":"93","vervoerder":"PosteItaliane","puntType":"servicepunt","bezettingsgraad":50,"latitude":40.947265,"longitude":14.37785,"canPickup":true,"canDropoff":true,"openingstijden":{"za":"08:00 - 13:00, 16:00 - 20:00","zo":"gesloten","ma":"08:00 - 13:00, 16:00 - 20:00","di":"08:00 - 13:00, 16:00 - 20:00","wo":"08:00 - 13:00, 16:00 - 20:00","do":"08:00 - 13:00, 16:00 - 20:00","vr":"08:00 - 13:00, 16:00 - 20:00"}}},{"type":"Feature","geometry":{"type":"Point","coordinates":[14.37872,40.94057]},"properties":{"type":"pakketpunt","locatieNaam":"Tabaccheria N. 4","straatNaam":"Via Giovanni Paolo Ii","straatNr":"34","vervoerder":"PosteItaliane","puntType":"servicepunt","bezettingsgraad":50,"latitude":40.94057,"longitude":14.37872,"canPickup":true,"canDropoff":true,"openingstijden":{"za":"06:30 - 21:00","zo":"07:00 - 13:30","ma":"06:30 - 21:00","di":"06:30 - 21:00","wo":"06:30 - 21:00","do":"06:30 - 21:00","vr":"06:30 - 21:00"}}},{"type":"Feature","geometry":{"type":"Point","coordinates":[14.36489084,40.95008119]},"properties":{"type":"pakketpunt","locatieNaam":"Bar L'incontro","straatNaam":"Via Alcide De Gasperi","straatNr":"41","vervoerder":"PosteItaliane","puntType":"servicepunt","bezettingsgraad":50,"latitude":40.95008119,"longitude":14.36489084,"canPickup":true,"canDropoff":true,"openingstijden":{"za":"05:00 - 21:00","zo":"05:00 - 21:00","ma":"05:00 - 21:00","di":"05:00 - 21:00","wo":"05:00 - 21:00","do":"05:00 - 21:00","vr":"05:00 - 21:00"}}},{"type":"Feature","geometry":{"type":"Point","coordinates":[14.36582876,40.94828852]},"properties":{"type":"pakketpunt","locatieNaam":"Tabaccheria N. 15","straatNaam":"Corso Resistenza","straatNr":"186","vervoerder":"PosteItaliane","puntType":"servicepunt","bezettingsgraad":50,"latitude":40.94828852,"longitude":14.36582876,"canPickup":true,"canDropoff":true,"openingstijden":{"za":"06:00 - 22:00","zo":"07:30 - 14:00","ma":"06:00 - 22:00","di":"06:00 - 22:00","wo":"06:00 - 22:00","do":"06:00 - 22:00","vr":"06:00 - 22:00"}}},{"type":"Feature","geometry":{"type":"Point","coordinates":[14.37354743,40.94803609]},"properties":{"type":"pakketpunt","locatieNaam":"Wonderbook Cartolibreria","straatNaam":"Piazzale San Giuseppe","straatNr":"10","vervoerder":"PosteItaliane","puntType":"servicepunt","bezettingsgraad":50,"latitude":40.94803609,"longitude":14.37354743,"canPickup":true,"canDropoff":true,"openingstijden":{"za":"09:00 - 13:00, 16:30 - 19:30","zo":"gesloten","ma":"08:00 - 13:00, 16:00 - 20:00","di":"08:00 - 13:00, 16:00 - 20:00","wo":"08:00 - 13:00, 16:00 - 20:00","do":"08:00 - 13:00, 16:00 - 20:00","vr":"08:00 - 13:00, 16:00 - 20:00"}}},{"type":"Feature","geometry":{"type":"Point","coordinates":[14.37126467,40.94448519]},"properties":{"type":"pakketpunt","locatieNaam":"Centro Multiservizi","straatNaam":"Via Trieste E Trento","straatNr":"16","vervoerder":"PosteItaliane","puntType":"servicepunt","bezettingsgraad":50,"latitude":40.94448519,"longitude":14.37126467,"canPickup":true,"canDropoff":true,"openingstijden":{"za":"08:30 - 10:42","zo":"gesloten","ma":"08:30 - 12:30, 14:30 - 18:30","di":"08:30 - 12:30, 14:30 - 18:30","wo":"08:30 - 12:30","do":"08:30 - 12:30, 14:30 - 18:30","vr":"08:30 - 12:30, 14:30 - 18:30"}}},{"type":"Feature","geometry":{"type":"Point","coordinates":[14.37303523,40.94028008]},"properties":{"type":"pakketpunt","locatieNaam":"Tabaccheria N. 27","straatNaam":"Piazzale Sottotenente Raffaele Russo Spena","straatNr":"10","vervoerder":"PosteItaliane","puntType":"servicepunt","bezettingsgraad":50,"latitude":40.94028008,"longitude":14.37303523,"canPickup":true,"canDropoff":true,"openingstijden":{"za":"06:20 - 21:00","zo":"09:00 - 13:00","ma":"06:20 - 21:00","di":"06:20 - 21:00","wo":"06:20 - 21:00","do":"06:20 - 21:00","vr":"06:20 - 21:00"}}},{"type":"Feature","geometry":{"type":"Point","coordinates":[14.3713719798,40.9406171567]},"properties":{"type":"pakketpunt","locatieNaam":"Mail Express Poste Private - Acerra","straatNaam":"VIA ZARA","straatNr":"27","vervoerder":"DPD","puntType":"pickup_point","bezettingsgraad":50,"latitude":40.9406171567,"longitude":14.3713719798,"canPickup":true,"canDropoff":true,"openingstijden":{"ma":"08:30 - 13:00, 15:00 - 18:30","di":"08:30 - 13:00, 15:00 - 18:30","wo":"08:30 - 13:00, 15:00 - 18:30","do":"08:30 - 13:00, 15:00 - 18:30","vr":"08:30 - 13:00, 15:00 - 18:30","za":"08:30 - 13:00","zo":"gesloten"}}},{"type":"Feature","geometry":{"type":"Point","coordinates":[14.3727386,40.9449025]},"properties":{"type":"pakketpunt","locatieNaam":"Punto Focale","straatNaam":"VIA ROMA","straatNr":"61","vervoerder":"DPD","puntType":"pickup_point","bezettingsgraad":50,"latitude":40.9449025,"longitude":14.3727386,"canPickup":true,"canDropoff":true,"openingstijden":{"ma":"09:00 - 13:00, 16:30 - 19:30","di":"gesloten","wo":"09:00 - 13:00, 16:30 - 19:30","do":"09:00 - 13:00, 16:30 - 19:30","vr":"09:00 - 13:00, 16:30 - 19:30","za":"09:00 - 13:00, 16:30 - 19:30","zo":"gesloten"}}},{"type":"Feature","geometry":{"type":"Point","coordinates":[14.3734516,40.9411774]},"properties":{"type":"pakketpunt","locatieNaam":"Globo Express - Acerra","straatNaam":"CORSO GARIBALDI","straatNr":"62","vervoerder":"DPD","puntType":"pickup_point","bezettingsgraad":50,"latitude":40.9411774,"longitude":14.3734516,"canPickup":true,"canDropoff":true,"openingstijden":{"ma":"09:00 - 19:00","di":"09:00 - 19:00","wo":"09:00 - 19:00","do":"09:00 - 19:00","vr":"09:00 - 19:00","za":"09:00 - 13:00","zo":"gesloten"}}},{"type":"Feature","geometry":{"type":"Point","coordinates":[14.3685502,40.9504768]},"properties":{"type":"pakketpunt","locatieNaam":"Daniele Barbato Fotografo","straatNaam":"VIA STENDARDO","straatNr":"56","vervoerder":"DPD","puntType":"pickup_point","bezettingsgraad":50,"latitude":40.9504768,"longitude":14.3685502,"canPickup":true,"canDropoff":true,"openingstijden":{"ma":"09:00 - 13:00, 16:00 - 20:00","di":"09:00 - 13:00, 16:00 - 20:00","wo":"09:00 - 13:00, 16:00 - 20:00","do":"09:00 - 13:00, 16:00 - 20:00","vr":"09:00 - 13:00, 16:00 - 20:00","za":"09:00 - 13:00, 16:00 - 20:00","zo":"gesloten"}}},{"type":"Feature","geometry":{"type":"Point","coordinates":[14.3766922,40.9480986]},"properties":{"type":"pakketpunt","locatieNaam":"CityPoste Multishop","straatNaam":"VIA V. VENETO","straatNr":"31-33","vervoerder":"DPD","puntType":"pickup_point","bezettingsgraad":50,"latitude":40.9480986,"longitude":14.3766922,"canPickup":true,"canDropoff":true,"openingstijden":{"ma":"09:00 - 12:30, 15:00 - 18:00","di":"09:00 - 12:30, 15:00 - 18:00","wo":"09:00 - 12:30, 15:00 - 18:00","do":"09:00 - 12:30, 15:00 - 18:00","vr":"09:00 - 12:30, 15:00 - 18:00","za":"gesloten","zo":"gesloten"}}},{"type":"Feature","geometry":{"type":"Point","coordinates":[14.38360685,40.94371705]},"properties":{"type":"pakketpunt","locatieNaam":"Tabaccheria Amoroso","straatNaam":"VIA YASSER ARAFAT","straatNr":"52","vervoerder":"DPD","puntType":"pickup_point","bezettingsgraad":50,"latitude":40.94371705,"longitude":14.38360685,"canPickup":true,"canDropoff":true,"openingstijden":{"ma":"08:00 - 13:30, 15:30 - 20:00","di":"08:00 - 13:30, 15:30 - 20:00","wo":"08:00 - 13:30, 15:30 - 20:00","do":"08:00 - 13:30, 15:30 - 20:00","vr":"08:00 - 13:30, 15:30 - 20:00","za":"08:00 - 13:30, 15:30 - 20:00","zo":"gesloten"}}},{"type":"Feature","geometry":{"type":"Point","coordinates":[14.3685243,40.9446006]},"properties":{"type":"pakketpunt","locatieNaam":"SgS Poste Acerra","straatNaam":"C.SO DELLA RESISTENZA","straatNr":"67","vervoerder":"DPD","puntType":"pickup_point","bezettingsgraad":50,"latitude":40.9446006,"longitude":14.3685243,"canPickup":true,"canDropoff":true,"openingstijden":{"ma":"08:30 - 13:00, 15:30 - 18:30","di":"08:30 - 13:00, 15:30 - 18:30","wo":"08:30 - 13:00, 15:30 - 18:30","do":"08:30 - 13:00, 15:30 - 18:30","vr":"08:30 - 13:00, 15:30 - 18:30","za":"08:30 - 13:00","zo":"gesloten"}}},{"type":"Feature","geometry":{"type":"Point","coordinates":[14.38035493,40.94970024]},"properties":{"type":"pakketpunt","locatieNaam":"Lady Beauty","straatNaam":"VIA MADONNELLA","straatNr":"20","vervoerder":"DPD","puntType":"pickup_point","bezettingsgraad":50,"latitude":40.94970024,"longitude":14.38035493,"canPickup":true,"canDropoff":true,"openingstijden":{"ma":"08:30 - 13:15, 16:00 - 20:00","di":"08:30 - 13:15, 16:00 - 20:00","wo":"08:30 - 13:15, 16:00 - 20:00","do":"08:30 - 13:15, 16:00 - 20:00","vr":"08:30 - 13:15, 16:00 - 20:00","za":"08:30 - 13:15, 16:00 - 20:00","zo":"gesloten"}}},{"type":"Feature","geometry":{"type":"Point","coordinates":[14.364688,40.9508591]},"properties":{"type":"pakketpunt","locatieNaam":"Caf Patronato Epac","straatNaam":"VIA ALCIDE DE GASPERI","straatNr":"32","vervoerder":"DPD","puntType":"pickup_point","bezettingsgraad":50,"latitude":40.9508591,"longitude":14.364688,"canPickup":true,"canDropoff":true,"openingstijden":{"ma":"09:00 - 13:30, 16:00 - 19:30","di":"09:00 - 13:30, 16:00 - 19:30","wo":"09:00 - 13:30, 16:00 - 19:30","do":"09:00 - 13:30, 16:00 - 19:30","vr":"09:00 - 13:30, 16:00 - 19:30","za":"09:30 - 12:30","zo":"gesloten"}}},{"type":"Feature","geometry":{"type":"Point","coordinates":[14.3656985,40.9430375]},"properties":{"type":"pakketpunt","locatieNaam":"Posta Express Acerra","straatNaam":"VIA BASILICATA","straatNr":"42","vervoerder":"DPD","puntType":"pickup_point","bezettingsgraad":50,"latitude":40.9430375,"longitude":14.3656985,"canPickup":true,"canDropoff":true,"openingstijden":{"ma":"08:30 - 13:30, 16:00 - 19:30","di":"08:30 - 13:30, 16:00 - 19:30","wo":"08:30 - 13:30, 16:00 - 19:30","do":"08:30 - 13:30, 16:00 - 19:30","vr":"08:30 - 13:30, 16:00 - 19:30","za":"09:00 - 13:30","zo":"gesloten"}}},{"type":"Feature","geometry":{"type":"Point","coordinates":[14.3710319,40.9446358]},"properties":{"type":"pakketpunt","locatieNaam":"Multiservizi di Scarano","straatNaam":"VIA TRIESTE E TRENTO","straatNr":"16","vervoerder":"DPD","puntType":"pickup_point","bezettingsgraad":50,"latitude":40.9446358,"longitude":14.3710319,"canPickup":true,"canDropoff":true,"openingstijden":{"ma":"09:00 - 13:00, 15:30 - 19:00","di":"09:00 - 13:00, 15:30 - 19:00","wo":"09:00 - 13:00","do":"09:00 - 13:00, 15:30 - 19:00","vr":"09:00 - 13:00, 15:30 - 19:00","za":"gesloten","zo":"gesloten"}}},{"type":"Feature","geometry":{"type":"Point","coordinates":[14.3735766,40.9476271]},"properties":{"type":"pakketpunt","locatieNaam":"Wonderbook","straatNaam":"P.LE SAN GIUSEPPE","straatNr":"10","vervoerder":"DPD","puntType":"pickup_point","bezettingsgraad":50,"latitude":40.9476271,"longitude":14.3735766,"canPickup":true,"canDropoff":true,"openingstijden":{"ma":"08:00 - 13:00, 16:30 - 19:30","di":"08:00 - 13:00, 16:30 - 19:30","wo":"08:00 - 13:00, 16:30 - 19:30","do":"08:00 - 13:00, 16:30 - 19:30","vr":"08:00 - 13:00, 16:30 - 19:30","za":"08:00 - 13:00","zo":"gesloten"}}},{"type":"Feature","geometry":{"type":"Point","coordinates":[14.37345,40.94133]},"properties":{"type":"pakketpunt","locatieNaam":"InPost Point","straatNaam":"C.so Giuseppe Garibaldi","straatNr":"62","vervoerder":"InPost","puntType":"servicepunt","bezettingsgraad":50,"latitude":40.94133,"longitude":14.37345,"canPickup":true,"canDropoff":true,"openingstijden":"Lun-Ven: 9:00 - 19:00"}},{"type":"Feature","geometry":{"type":"Point","coordinates":[14.36525,40.9362]},"properties":{"type":"pakketpunt","locatieNaam":"InPost Locker","straatNaam":"Corso Italia","straatNr":"236","vervoerder":"InPost","puntType":"automaat","bezettingsgraad":50,"latitude":40.9362,"longitude":14.36525,"canPickup":true,"canDropoff":true,"openingstijden":null}},{"type":"Feature","geometry":{"type":"Point","coordinates":[14.37935,40.94891]},"properties":{"type":"pakketpunt","locatieNaam":"InPost Locker","straatNaam":"Via Madonnella","straatNr":"8","vervoerder":"InPost","puntType":"automaat","bezettingsgraad":50,"latitude":40.94891,"longitude":14.37935,"canPickup":true,"canDropoff":true,"openingstijden":null}},{"type":"Feature","geometry":{"type":"Point","coordinates":[14.37105,40.941]},"properties":{"type":"pakketpunt","locatieNaam":"InPost Point","straatNaam":"Via Zara","straatNr":"27","vervoerder":"InPost","puntType":"servicepunt","bezettingsgraad":50,"latitude":40.941,"longitude":14.37105,"canPickup":true,"canDropoff":true,"openingstijden":"Lun-Ven: 08:30 - 13:00 - 15:00 - 18:00 Sab: 08:30 - 13:00"}},{"type":"Feature","geometry":{"type":"Point","coordinates":[14.38351,40.94399]},"properties":{"type":"pakketpunt","locatieNaam":"InPost Point","straatNaam":"Via Yasser Arafat","straatNr":"52","vervoerder":"InPost","puntType":"servicepunt","bezettingsgraad":50,"latitude":40.94399,"longitude":14.38351,"canPickup":true,"canDropoff":true,"openingstijden":"Lun-Sab: 08:00 - 13:30 - 15:30 - 20:00"}},{"type":"Feature","geometry":{"type":"Point","coordinates":[14.371,40.94483]},"properties":{"type":"pakketpunt","locatieNaam":"InPost Point","straatNaam":"Via Trieste e Trento","straatNr":"16","vervoerder":"InPost","puntType":"servicepunt","bezettingsgraad":50,"latitude":40.94483,"longitude":14.371,"canPickup":true,"canDropoff":true,"openingstijden":"Lun-Mar: 09:30 - 12:30 - 15:30 - 19:00 Mer: 09:30 - 12:30 Gio-Ven: 09:30 - 12:30 - 15:30 - 19:00"}},{"type":"Feature","geometry":{"type":"Point","coordinates":[14.37771,40.9473]},"properties":{"type":"pakketpunt","locatieNaam":"InPost Point","straatNaam":"Corso Vittorio Emanuele II","straatNr":"93","vervoerder":"InPost","puntType":"servicepunt","bezettingsgraad":50,"latitude":40.9473,"longitude":14.37771,"canPickup":true,"canDropoff":true,"openingstijden":"Lun-Ven 09:00-13:00, 16:00-20:00; Sab 09:00-13:00"}},{"type":"Feature","geometry":{"type":"Point","coordinates":[14.3749043,40.937682]},"properties":{"type":"pakketpunt","locatieNaam":"Bar Kairos","straatNaam":"Via Giuseppe Di Vittorio","straatNr":"21/23","vervoerder":"GLS","puntType":"parcel_shop","bezettingsgraad":50,"latitude":40.937682,"longitude":14.3749043,"canPickup":true,"canDropoff":true,"openingstijden":"za: 06:30 - 14:00; zo: 07:30 - 13:30"}},{"type":"Feature","geometry":{"type":"Point","coordinates":[14.3710505,40.9409846]},"properties":{"type":"pakketpunt","locatieNaam":"Mail Express","straatNaam":"Via Zara","straatNr":"27","vervoerder":"GLS","puntType":"parcel_shop","bezettingsgraad":50,"latitude":40.9409846,"longitude":14.3710505,"canPickup":true,"canDropoff":true,"openingstijden":"za: 08:30 - 13:00; ma: 08:30 - 13:00, 15:00 - 18:30"}},{"type":"Feature","geometry":{"type":"Point","coordinates":[14.3734516,40.9411774]},"properties":{"type":"pakketpunt","locatieNaam":"GLOBO EXPRESS","straatNaam":"Corso Garibaldi","straatNr":"62","vervoerder":"GLS","puntType":"parcel_shop","bezettingsgraad":50,"latitude":40.9411774,"longitude":14.3734516,"canPickup":true,"canDropoff":true,"openingstijden":"za: 09:00 - 13:00; ma: 09:00 - 19:00"}},{"type":"Feature","geometry":{"type":"Point","coordinates":[14.3693988,40.9411813]},"properties":{"type":"pakketpunt","locatieNaam":"Assicurazioni","straatNaam":"Gennaro Calzolaio","straatNr":"97","vervoerder":"GLS","puntType":"parcel_shop","bezettingsgraad":50,"latitude":40.9411813,"longitude":14.3693988,"canPickup":true,"canDropoff":true,"openingstijden":"ma: 09:00 - 13:00, 15:30 - 19:00; di: 09:30 - 13:00, 15:30 - 19:00"}},{"type":"Feature","geometry":{"type":"Point","coordinates":[14.370807,40.9413358]},"properties":{"type":"pakketpunt","locatieNaam":"Cartoleria Punto & Virgola","straatNaam":"Via Zara","straatNr":"7/9","vervoerder":"GLS","puntType":"parcel_shop","bezettingsgraad":50,"latitude":40.9413358,"longitude":14.370807,"canPickup":true,"canDropoff":true,"openingstijden":"za: 09:00 - 13:00; ma: 08:00 - 13:00, 16:30 - 19:30"}},{"type":"Feature","geometry":{"type":"Point","coordinates":[14.3656985,40.9430375]},"properties":{"type":"pakketpunt","locatieNaam":"Posta Privata Nazionale","straatNaam":"Via Basilicata","straatNr":"42","vervoerder":"GLS","puntType":"parcel_shop","bezettingsgraad":50,"latitude":40.9430375,"longitude":14.3656985,"canPickup":true,"canDropoff":true,"openingstijden":"za: 09:00 - 13:00; ma: 09:00 - 13:00, 15:30 - 19:00"}},{"type":"Feature","geometry":{"type":"Point","coordinates":[14.3685243,40.9446006]},"properties":{"type":"pakketpunt","locatieNaam":"Sgs poste","straatNaam":"Corso Della Resistenza","straatNr":"67","vervoerder":"GLS","puntType":"parcel_shop","bezettingsgraad":50,"latitude":40.9446006,"longitude":14.3685243,"canPickup":true,"canDropoff":true,"openingstijden":"za: 09:00 - 13:00; ma: 09:00 - 13:00, 15:00 - 19:00"}},{"type":"Feature","geometry":{"type":"Point","coordinates":[14.3710319,40.9446358]},"properties":{"type":"pakketpunt","locatieNaam":"Multiservizi","straatNaam":"Via Trieste E Trento","straatNr":"16","vervoerder":"GLS","puntType":"parcel_shop","bezettingsgraad":50,"latitude":40.9446358,"longitude":14.3710319,"canPickup":true,"canDropoff":true,"openingstijden":"ma: 09:30 - 13:00, 15:30 - 19:00; di: 09:30 - 13:00, 15:30 - 19:00"}},{"type":"Feature","geometry":{"type":"Point","coordinates":[14.3697057,40.9468336]},"properties":{"type":"pakketpunt","locatieNaam":"Bandiera blu","straatNaam":"Via Leonardo Da Vinci","straatNr":"8","vervoerder":"GLS","puntType":"parcel_shop","bezettingsgraad":50,"latitude":40.9468336,"longitude":14.3697057,"canPickup":true,"canDropoff":true,"openingstijden":"za: 07:00 - 12:00, 16:00 - 20:00; zo: 07:30 - 12:30, 17:00 - 20:00"}},{"type":"Feature","geometry":{"type":"Point","coordinates":[14.36852,40.9469706]},"properties":{"type":"pakketpunt","locatieNaam":"FOTO E STAMPA","straatNaam":"Via Conte Di Lemos","straatNr":"16","vervoerder":"GLS","puntType":"parcel_shop","bezettingsgraad":50,"latitude":40.9469706,"longitude":14.36852,"canPickup":true,"canDropoff":true,"openingstijden":"za: 16:30 - 19:30; ma: 08:00 - 13:00, 16:30 - 19:30"}},{"type":"Feature","geometry":{"type":"Point","coordinates":[14.3735766,40.9476271]},"properties":{"type":"pakketpunt","locatieNaam":"Wonderbook Cartolibreria","straatNaam":"Piazzale San Giuseppe","straatNr":"10","vervoerder":"GLS","puntType":"parcel_shop","bezettingsgraad":50,"latitude":40.9476271,"longitude":14.3735766,"canPickup":true,"canDropoff":true,"openingstijden":"za: 08:00 - 13:00, 16:00 - 20:00; zo: 08:00 - 13:00, 16:00 - 20:00"}},{"type":"Feature","geometry":{"type":"Point","coordinates":[14.3766922,40.9480986]},"properties":{"type":"pakketpunt","locatieNaam":"Cityposte","straatNaam":"Via Vittorio Veneto","straatNr":"31/33","vervoerder":"GLS","puntType":"parcel_shop","bezettingsgraad":50,"latitude":40.9480986,"longitude":14.3766922,"canPickup":true,"canDropoff":true,"openingstijden":"za: 09:00 - 12:00; ma: 09:30 - 12:30, 15:00 - 18:00"}},{"type":"Feature","geometry":{"type":"Point","coordinates":[14.3797855,40.9492159]},"properties":{"type":"pakketpunt","locatieNaam":"DROP SHOP","straatNaam":"Via Madonnella","straatNr":"8","vervoerder":"GLS","puntType":"parcel_shop","bezettingsgraad":50,"latitude":40.9492159,"longitude":14.3797855,"canPickup":true,"canDropoff":true,"openingstijden":"za: 08:30 - 13:00, 16:00 - 19:30; ma: 08:30 - 13:00, 16:00 - 19:30"}},{"type":"Feature","geometry":{"type":"Point","coordinates":[14.36041,40.94946]},"properties":{"type":"pakketpunt","locatieNaam":"MEMPHIS BAR","straatNaam":"Via Grazia Deledda","straatNr":"4","vervoerder":"GLS","puntType":"parcel_shop","bezettingsgraad":50,"latitude":40.94946,"longitude":14.36041,"canPickup":true,"canDropoff":true,"openingstijden":"za: 07:00 - 21:00; zo: 08:00 - 13:00"}},{"type":"Feature","geometry":{"type":"Point","coordinates":[14.3651335,40.9497545]},"properties":{"type":"pakketpunt","locatieNaam":"IL MASTINO STORE","straatNaam":"Via Alcide De Gasperi","straatNr":"19","vervoerder":"GLS","puntType":"parcel_shop","bezettingsgraad":50,"latitude":40.9497545,"longitude":14.3651335,"canPickup":true,"canDropoff":true,"openingstijden":"za: 09:30 - 13:00, 16:00 - 19:30; zo: 09:30 - 13:00, 16:00 - 19:30"}},{"type":"Feature","geometry":{"type":"Point","coordinates":[14.3647743,40.950097]},"properties":{"type":"pakketpunt","locatieNaam":"Bar L’incontro","straatNaam":"Via Alcide De Gasperi","straatNr":"41","vervoerder":"GLS","puntType":"parcel_shop","bezettingsgraad":50,"latitude":40.950097,"longitude":14.3647743,"canPickup":true,"canDropoff":true,"openingstijden":"za: 05:00 - 21:00; zo: 05:00 - 21:00"}},{"type":"Feature","geometry":{"type":"Point","coordinates":[14.3685502,40.9504768]},"properties":{"type":"pakketpunt","locatieNaam":"Daniele Barbato Fotografo","straatNaam":"Via Stendardo","straatNr":"56","vervoerder":"GLS","puntType":"parcel_shop","bezettingsgraad":50,"latitude":40.9504768,"longitude":14.3685502,"canPickup":true,"canDropoff":true,"openingstijden":"za: 09:00 - 13:00, 16:00 - 19:30; ma: 09:00 - 13:00, 16:00 - 19:30"}},{"type":"Feature","geometry":{"type":"Point","coordinates":[14.364688,40.9508591]},"properties":{"type":"pakketpunt","locatieNaam":"CAF PATRONATO EPAC","straatNaam":"Via Alcide De Gasperi","straatNr":"32","vervoerder":"GLS","puntType":"parcel_shop","bezettingsgraad":50,"latitude":40.9508591,"longitude":14.364688,"canPickup":true,"canDropoff":true,"openingstijden":"ma: 09:00 - 13:00, 16:00 - 19:00; di: 09:00 - 13:00, 16:00 - 19:00"}},{"type":"Feature","geometry":{"type":"Point","coordinates":[14.376619,40.937432]},"properties":{"type":"pakketpunt","locatieNaam":"TABACCHERIA N. 13","straatNaam":"VIA ARMANDO DIAZ 41","straatNr":"","vervoerder":"DHL","puntType":"parcelShop","bezettingsgraad":50,"latitude":40.937432,"longitude":14.376619,"canPickup":true,"canDropoff":true,"openingstijden":{"ma":"07:00 - 13:00, 15:00 - 20:00","di":"07:00 - 13:00, 15:00 - 20:00","wo":"07:00 - 13:00, 15:00 - 20:00","do":"07:00 - 13:00, 15:00 - 20:00","vr":"07:00 - 13:00, 15:00 - 20:00","za":"07:00 - 13:00, 15:00 - 20:00","zo":"gesloten"}}},{"type":"Feature","geometry":{"type":"Point","coordinates":[14.37872,40.94057]},"properties":{"type":"pakketpunt","locatieNaam":"TABACCHERIA N. 4","straatNaam":"VIA GIOVANNI PAOLO II 34","straatNr":"","vervoerder":"DHL","puntType":"parcelShop","bezettingsgraad":50,"latitude":40.94057,"longitude":14.37872,"canPickup":true,"canDropoff":true,"openingstijden":{"ma":"06:30 - 21:00","di":"06:30 - 21:00","wo":"06:30 - 21:00","do":"06:30 - 21:00","vr":"06:30 - 21:00","za":"06:30 - 21:00","zo":"07:00 - 13:30"}}},{"type":"Feature","geometry":{"type":"Point","coordinates":[14.373952,40.940622]},"properties":{"type":"pakketpunt","locatieNaam":"GLOBO EXPRESS ACERRA","straatNaam":"CORSO GIUSEPPE GARIBALDI 62","straatNr":"","vervoerder":"DHL","puntType":"parcelShop","bezettingsgraad":50,"latitude":40.940622,"longitude":14.373952,"canPickup":true,"canDropoff":true,"openingstijden":{"ma":"09:00 - 19:00","di":"09:00 - 19:00","wo":"09:00 - 19:00","do":"09:00 - 19:00","vr":"09:00 - 19:00","za":"09:00 - 13:00","zo":"gesloten"}}},{"type":"Feature","geometry":{"type":"Point","coordinates":[14.383622,40.943702]},"properties":{"type":"pakketpunt","locatieNaam":"TABACCHERIA N. 20","straatNaam":"VIA YASSER ARAFAT 52","straatNr":"","vervoerder":"DHL","puntType":"parcelShop","bezettingsgraad":50,"latitude":40.943702,"longitude":14.383622,"canPickup":true,"canDropoff":true,"openingstijden":{"ma":"08:00 - 13:00, 16:00 - 20:00","di":"08:00 - 13:00, 16:00 - 20:00","wo":"08:00 - 13:00, 16:00 - 20:00","do":"08:00 - 13:00, 16:00 - 20:00","vr":"08:00 - 13:00, 16:00 - 20:00","za":"08:00 - 13:00, 16:00 - 20:00","zo":"gesloten"}}},{"type":"Feature","geometry":{"type":"Point","coordinates":[14.38362,40.94372]},"properties":{"type":"pakketpunt","locatieNaam":"TABACCHERIA AMOROSO","straatNaam":"Via Yasser Arafat 52","straatNr":"","vervoerder":"DHL","puntType":"parcelShop","bezettingsgraad":50,"latitude":40.94372,"longitude":14.38362,"canPickup":false,"canDropoff":true,"openingstijden":{"ma":"08:00 - 20:00","di":"08:00 - 20:00","wo":"08:00 - 20:00","do":"08:00 - 20:00","vr":"08:00 - 20:00","za":"08:00 - 20:00","zo":"gesloten"}}},{"type":"Feature","geometry":{"type":"Point","coordinates":[14.370657,40.94054]},"properties":{"type":"pakketpunt","locatieNaam":"Ufficio Postale ACERRA","straatNaam":"PIAZZA FALCONE E BORSELLINO 3","straatNr":"","vervoerder":"DHL","puntType":"postOffice","bezettingsgraad":50,"latitude":40.94054,"longitude":14.370657,"canPickup":true,"canDropoff":true,"openingstijden":{"ma":"08:20 - 19:05","di":"08:20 - 19:05","wo":"08:20 - 19:05","do":"08:20 - 19:05","vr":"08:20 - 19:05","za":"08:20 - 12:35","zo":"gesloten"}}},{"type":"Feature","geometry":{"type":"Point","coordinates":[14.370259,40.940407]},"properties":{"type":"pakketpunt","locatieNaam":"UFFICIO POSTALE ACERRA","straatNaam":"PIAZZA FALCONE E BORSELLINO SNC 1","straatNr":"","vervoerder":"DHL","puntType":"packStation","bezettingsgraad":50,"latitude":40.940407,"longitude":14.370259,"canPickup":true,"canDropoff":true,"openingstijden":{"ma":"08:20 - 19:05","di":"08:20 - 19:05","wo":"08:20 - 19:05","do":"08:20 - 19:05","vr":"08:20 - 19:05","za":"08:20 - 12:35","zo":"gesloten"}}},{"type":"Feature","geometry":{"type":"Point","coordinates":[14.371265,40.944485]},"properties":{"type":"pakketpunt","locatieNaam":"CENTRO MULTISERVIZI","straatNaam":"VIA TRIESTE E TRENTO 16","straatNr":"","vervoerder":"DHL","puntType":"parcelShop","bezettingsgraad":50,"latitude":40.944485,"longitude":14.371265,"canPickup":true,"canDropoff":true,"openingstijden":{"ma":"08:30 - 12:30, 14:30 - 18:30","di":"08:30 - 12:30, 14:30 - 18:30","wo":"08:30 - 12:30","do":"08:30 - 12:30, 14:30 - 18:30","vr":"08:30 - 12:30, 14:30 - 18:30","za":"08:30 - 10:42","zo":"gesloten"}}},{"type":"Feature","geometry":{"type":"Point","coordinates":[14.37785,40.947265]},"properties":{"type":"pakketpunt","locatieNaam":"NON SOLO LIBRI","straatNaam":"CORSO VITTORIO EMANUELE II 93","straatNr":"","vervoerder":"DHL","puntType":"parcelShop","bezettingsgraad":50,"latitude":40.947265,"longitude":14.37785,"canPickup":true,"canDropoff":true,"openingstijden":{"ma":"08:00 - 13:00, 16:00 - 20:00","di":"08:00 - 13:00, 16:00 - 20:00","wo":"08:00 - 13:00, 16:00 - 20:00","do":"08:00 - 13:00, 16:00 - 20:00","vr":"08:00 - 13:00, 16:00 - 20:00","za":"08:00 - 13:00, 16:00 - 20:00","zo":"gesloten"}}},{"type":"Feature","geometry":{"type":"Point","coordinates":[14.373547,40.948036]},"properties":{"type":"pakketpunt","locatieNaam":"WONDERBOOK CARTOLIBRERIA","straatNaam":"PIAZZALE SAN GIUSEPPE 10","straatNr":"","vervoerder":"DHL","puntType":"parcelShop","bezettingsgraad":50,"latitude":40.948036,"longitude":14.373547,"canPickup":true,"canDropoff":true,"openingstijden":{"ma":"08:00 - 13:00, 16:00 - 20:00","di":"08:00 - 13:00, 16:00 - 20:00","wo":"08:00 - 13:00, 16:00 - 20:00","do":"08:00 - 13:00, 16:00 - 20:00","vr":"08:00 - 13:00, 16:00 - 20:00","za":"09:00 - 13:00, 16:30 - 19:30","zo":"gesloten"}}},{"type":"Feature","geometry":{"type":"Point","coordinates":[14.365829,40.948289]},"properties":{"type":"pakketpunt","locatieNaam":"TABACCHERIA N. 15","straatNaam":"CORSO RESISTENZA 186","straatNr":"","vervoerder":"DHL","puntType":"parcelShop","bezettingsgraad":50,"latitude":40.948289,"longitude":14.365829,"canPickup":true,"canDropoff":true,"openingstijden":{"ma":"06:00 - 22:00","di":"06:00 - 22:00","wo":"06:00 - 22:00","do":"06:00 - 22:00","vr":"06:00 - 22:00","za":"06:00 - 22:00","zo":"07:30 - 14:00"}}},{"type":"Feature","geometry":{"type":"Point","coordinates":[14.365753,40.948403]},"properties":{"type":"pakketpunt","locatieNaam":"Ufficio Postale ACERRA 2","straatNaam":"CORSO RESISTENZA 209","straatNr":"","vervoerder":"DHL","puntType":"postOffice","bezettingsgraad":50,"latitude":40.948403,"longitude":14.365753,"canPickup":true,"canDropoff":true,"openingstijden":{"ma":"08:20 - 19:05","di":"08:20 - 19:05","wo":"08:20 - 19:05","do":"08:20 - 19:05","vr":"08:20 - 19:05","za":"08:20 - 12:35","zo":"gesloten"}}},{"type":"Feature","geometry":{"type":"Point","coordinates":[14.366973,40.949897]},"properties":{"type":"pakketpunt","locatieNaam":"DANIELE BARBATO FOTOGRAFO","straatNaam":"VIA STENDARDO 56","straatNr":"","vervoerder":"DHL","puntType":"parcelShop","bezettingsgraad":50,"latitude":40.949897,"longitude":14.366973,"canPickup":true,"canDropoff":true,"openingstijden":{"ma":"09:00 - 13:00, 16:00 - 20:00","di":"09:00 - 13:00, 16:00 - 20:00","wo":"09:00 - 13:00, 16:00 - 20:00","do":"09:00 - 13:00, 16:00 - 20:00","vr":"09:00 - 13:00, 16:00 - 20:00","za":"09:00 - 13:00, 16:00 - 20:00","zo":"gesloten"}}},{"type":"Feature","geometry":{"type":"Point","coordinates":[14.364891,40.950081]},"properties":{"type":"pakketpunt","locatieNaam":"BAR L'INCONTRO","straatNaam":"VIA ALCIDE DE GASPERI 41","straatNr":"","vervoerder":"DHL","puntType":"parcelShop","bezettingsgraad":50,"latitude":40.950081,"longitude":14.364891,"canPickup":true,"canDropoff":true,"openingstijden":{"ma":"05:00 - 21:00","di":"05:00 - 21:00","wo":"05:00 - 21:00","do":"05:00 - 21:00","vr":"05:00 - 21:00","za":"05:00 - 21:00","zo":"05:00 - 21:00"}}},{"type":"Feature","geometry":{"type":"Point","coordinates":[14.413173,40.974582]},"properties":{"type":"pakketpunt","locatieNaam":"Ufficio Postale ACERRA 3","straatNaam":"VIA DEI SANNITI 173","straatNr":"","vervoerder":"DHL","puntType":"postOffice","bezettingsgraad":50,"latitude":40.974582,"longitude":14.413173,"canPickup":true,"canDropoff":true,"openingstijden":{"ma":"08:30 - 13:35","di":"08:30 - 13:35","wo":"08:30 - 13:35","do":"08:30 - 13:35","vr":"08:30 - 13:35","za":"08:30 - 12:35","zo":"gesloten"}}},{"type":"Feature","geometry":{"type":"Point","coordinates":[14.41381,40.9754]},"properties":{"type":"pakketpunt","locatieNaam":"TABACCHERIA N. 10","straatNaam":"VIA DEI SANNITI 185","straatNr":"","vervoerder":"DHL","puntType":"parcelShop","bezettingsgraad":50,"latitude":40.9754,"longitude":14.41381,"canPickup":true,"canDropoff":true,"openingstijden":{"ma":"06:00 - 20:30","di":"06:00 - 20:30","wo":"06:00 - 20:30","do":"06:00 - 20:30","vr":"06:00 - 20:30","za":"06:00 - 20:30","zo":"08:00 - 13:00"}}},{"type":"Feature","geometry":{"type":"Point","coordinates":[14.4131,40.9745]},"properties":{"type":"pakketpunt","locatieNaam":"Ufficio Postale ACERRA 3","straatNaam":"VIA DEI SANNITI 173","straatNr":"","vervoerder":"Amazon","puntType":"3p","bezettingsgraad":50,"latitude":40.9745,"longitude":14.4131,"canPickup":true,"canDropoff":false,"openingstijden":null}},{"type":"Feature","geometry":{"type":"Point","coordinates":[14.4138,40.9753]},"properties":{"type":"pakketpunt","locatieNaam":"PuntoPoste TABACCHERIA N. 10","straatNaam":"VIA DEI SANNITI 185","straatNr":"","vervoerder":"Amazon","puntType":"3p","bezettingsgraad":50,"latitude":40.9753,"longitude":14.4138,"canPickup":true,"canDropoff":false,"openingstijden":null}},{"type":"Feature","geometry":{"type":"Polygon","coordinates":[[[14.3358921,41.0028221],[14.3565461,41.0012639],[14.3574525,41.0008653],[14.3593469,41.0005339],[14.3606563,41.0003243],[14.3633443,41.0001719],[14.3710604,41.0001761],[14.3868084,41.0009245],[14.408485,41.0009597],[14.4144755,40.997071],[14.4063024,40.9870949],[14.4058355,40.9860636],[14.4056975,40.985575],[14.4193365,40.9810796],[14.4204914,40.9808225],[14.4255588,40.9803358],[14.4271163,40.9804244],[14.427838,40.9807504],[14.4285682,40.9815036],[14.4288197,40.9827386],[14.4292644,40.9835773],[14.4354958,40.9846286],[14.4364122,40.9844232],[14.449131,40.9831637],[14.4530505,40.9829869],[14.455476,40.9728924],[14.4539366,40.9712829],[14.4428577,40.961748],[14.439419,40.9594126],[14.4382579,40.959076],[14.4350028,40.9589419],[14.4299949,40.9582153],[14.4187568,40.956459],[14.4183551,40.9562484],[14.4156673,40.95254],[14.4147787,40.9503321],[14.4148697,40.9498453],[14.4147708,40.9491942],[14.4145059,40.9488851],[14.4144526,40.9487069],[14.413938,40.9481805],[14.4136905,40.9476689],[14.4133192,40.9474032],[14.4131564,40.9471179],[14.4131369,40.9468424],[14.4135408,40.9461752],[14.4142381,40.9458349],[14.4151608,40.9448705],[14.4152788,40.9446598],[14.4153279,40.943732],[14.4150587,40.9425589],[14.4139594,40.94048],[14.4133216,40.9398743],[14.4127959,40.9395051],[14.411669,40.9390131],[14.411174,40.9384866],[14.4108158,40.9382455],[14.4103794,40.9381077],[14.4095652,40.9380585],[14.4034165,40.9347077],[14.4033123,40.9345207],[14.4032602,40.9333102],[14.4021594,40.9297869],[14.4017946,40.9293194],[14.3996062,40.9345911],[14.3990475,40.9339345],[14.3980965,40.9313729],[14.3961811,40.9266918],[14.3883239,40.9259127],[14.3854358,40.9257427],[14.3866988,40.9211163],[14.3848578,40.9208881],[14.3785077,40.9208846],[14.3758318,40.9207316],[14.3746368,40.920564],[14.3727094,40.9206157],[14.3707042,40.9212258],[14.3684295,40.9216275],[14.3654039,40.9223515],[14.3635759,40.9226233],[14.362485,40.9227546],[14.3588246,40.9229277],[14.3554122,40.922993],[14.3551693,40.9230972],[14.3553448,40.9233854],[14.3555702,40.9240539],[14.3560741,40.9247148],[14.361987,40.9304428],[14.3608118,40.9323578],[14.3599613,40.9331629],[14.3581583,40.9363638],[14.3575758,40.9368784],[14.3567268,40.9371841],[14.3555773,40.9420945],[14.3529574,40.9453664],[14.3518504,40.9453113],[14.3501822,40.9460007],[14.3468049,40.9475667],[14.3447389,40.9486126],[14.3389909,40.9533269],[14.3395363,40.9605081],[14.3443391,40.9625986],[14.3488896,40.9687472],[14.3531321,40.978529],[14.3531761,40.978806],[14.3500923,40.9830232],[14.336576,41.0009904],[14.336168,41.0016755],[14.3358921,41.0028221]]]},"properties":{"type":"boundary","gemeente":"Acerra"}}]}