{"type":"FeatureCollection","metadata":{"gemeente":"Albissola Marina","slug":"albissola-marina","generated_at":"2026-09-26T14:26:51.081630Z","total_points":23,"providers":["PosteItaliane","DPD","InPost","GLS","DHL","Amazon","FedEx"],"bounds":[8.49333,44.3234,8.505112574554241,44.3375271]},"features":[{"type":"Feature","geometry":{"type":"Point","coordinates":[8.50167953,44.32767913]},"properties":{"type":"pakketpunt","locatieNaam":"Albissola Marina","straatNaam":"Via Dell' Oratorio","straatNr":"24","vervoerder":"PosteItaliane","puntType":"postkantoor","bezettingsgraad":50,"latitude":44.32767913,"longitude":8.50167953,"canPickup":true,"canDropoff":true,"openingstijden":{"za":"08:20 - 12:35","zo":"gesloten","ma":"08:20 - 13:35","di":"08:20 - 13:35","wo":"08:20 - 13:35","do":"08:20 - 13:35","vr":"08:20 - 13:35"}}},{"type":"Feature","geometry":{"type":"Point","coordinates":[8.50259406,44.32750522]},"properties":{"type":"pakketpunt","locatieNaam":"Tabaccheria N. 1","straatNaam":"Via Colombo","straatNr":"12","vervoerder":"PosteItaliane","puntType":"servicepunt","bezettingsgraad":50,"latitude":44.32750522,"longitude":8.50259406,"canPickup":true,"canDropoff":true,"openingstijden":{"za":"07:00 - 12:30, 15:00 - 19:00","zo":"gesloten","ma":"gesloten","di":"07:00 - 12:30, 15:00 - 19:00","wo":"07:00 - 12:30, 15:00 - 19:00","do":"07:00 - 12:30, 15:00 - 19:00","vr":"07:00 - 12:30, 15:00 - 19:00"}}},{"type":"Feature","geometry":{"type":"Point","coordinates":[8.50505788,44.32882591]},"properties":{"type":"pakketpunt","locatieNaam":"Tabaccheria N. 4","straatNaam":"Viale Liguria","straatNr":"10","vervoerder":"PosteItaliane","puntType":"servicepunt","bezettingsgraad":50,"latitude":44.32882591,"longitude":8.50505788,"canPickup":true,"canDropoff":true,"openingstijden":{"za":"07:00 - 19:30","zo":"07:00 - 19:30","ma":"07:00 - 19:30","di":"07:00 - 19:30","wo":"07:00 - 19:30","do":"07:00 - 19:30","vr":"07:00 - 19:30"}}},{"type":"Feature","geometry":{"type":"Point","coordinates":[8.49333975,44.32341025]},"properties":{"type":"pakketpunt","locatieNaam":"Tabaccheria N. 66","straatNaam":"Via Genova","straatNr":"28-r","vervoerder":"PosteItaliane","puntType":"servicepunt","bezettingsgraad":50,"latitude":44.32341025,"longitude":8.49333975,"canPickup":true,"canDropoff":true,"openingstijden":{"za":"07:30 - 13:00, 15:45 - 19:30","zo":"07:30 - 13:00","ma":"07:30 - 13:00, 16:00 - 19:30","di":"07:30 - 13:00, 16:00 - 19:30","wo":"07:30 - 13:00, 15:45 - 19:30","do":"07:30 - 13:00, 15:45 - 19:30","vr":"07:30 - 13:00, 15:45 - 19:30"}}},{"type":"Feature","geometry":{"type":"Point","coordinates":[8.5036383375,44.3291928279]},"properties":{"type":"pakketpunt","locatieNaam":"Nilde la Cartolibreria","straatNaam":"VIA SALOMONI","straatNr":"8/R","vervoerder":"DPD","puntType":"pickup_point","bezettingsgraad":50,"latitude":44.3291928279,"longitude":8.5036383375,"canPickup":true,"canDropoff":true,"openingstijden":{"ma":"09:00 - 13:00, 16:00 - 19:00","di":"09:00 - 13:00, 16:00 - 19:00","wo":"09:00 - 12:30, 16:00 - 19:00","do":"09:00 - 12:30, 16:00 - 19:00","vr":"09:00 - 13:00, 16:00 - 19:00","za":"09:00 - 13:00","zo":"gesloten"}}},{"type":"Feature","geometry":{"type":"Point","coordinates":[8.5028,44.3275]},"properties":{"type":"pakketpunt","locatieNaam":"InPost Point","straatNaam":"Piazza del Popolo","straatNr":"6","vervoerder":"InPost","puntType":"servicepunt","bezettingsgraad":50,"latitude":44.3275,"longitude":8.5028,"canPickup":true,"canDropoff":true,"openingstijden":"Lun: 07:00 - 13:00 Mar-Mer: 07:00 - 13:00 - 16:00 - 20:00 Gio: 07:00 - 13:00 Ven-Sab: 07:00 - 13:00 - 16:00 - 20:00 Dom: 07:00 - 13:00"}},{"type":"Feature","geometry":{"type":"Point","coordinates":[8.5036838,44.3291949]},"properties":{"type":"pakketpunt","locatieNaam":"Nilde La Cartolbireria","straatNaam":"Via Salomoni","straatNr":"8R","vervoerder":"GLS","puntType":"parcel_shop","bezettingsgraad":50,"latitude":44.3291949,"longitude":8.5036838,"canPickup":true,"canDropoff":true,"openingstijden":"za: 09:00 - 12:30; ma: 08:00 - 13:00, 16:00 - 19:00"}},{"type":"Feature","geometry":{"type":"Point","coordinates":[8.49334,44.32341]},"properties":{"type":"pakketpunt","locatieNaam":"TABACCHERIA N. 66","straatNaam":"VIA GENOVA 28-R","straatNr":"","vervoerder":"DHL","puntType":"parcelShop","bezettingsgraad":50,"latitude":44.32341,"longitude":8.49334,"canPickup":true,"canDropoff":true,"openingstijden":{"ma":"07:30 - 13:00, 16:00 - 19:30","di":"07:30 - 13:00, 16:00 - 19:30","wo":"07:30 - 13:00, 15:45 - 19:30","do":"07:30 - 13:00, 15:45 - 19:30","vr":"07:30 - 13:00, 15:45 - 19:30","za":"07:30 - 13:00, 15:45 - 19:30","zo":"07:30 - 13:00"}}},{"type":"Feature","geometry":{"type":"Point","coordinates":[8.50168,44.327679]},"properties":{"type":"pakketpunt","locatieNaam":"Ufficio Postale ALBISSOLA MARINA","straatNaam":"VIA DELL ORATORIO 24","straatNr":"","vervoerder":"DHL","puntType":"postOffice","bezettingsgraad":50,"latitude":44.327679,"longitude":8.50168,"canPickup":true,"canDropoff":true,"openingstijden":{"ma":"08:20 - 13:35","di":"08:20 - 13:35","wo":"08:20 - 13:35","do":"08:20 - 13:35","vr":"08:20 - 13:35","za":"08:20 - 12:35","zo":"gesloten"}}},{"type":"Feature","geometry":{"type":"Point","coordinates":[8.502594,44.327505]},"properties":{"type":"pakketpunt","locatieNaam":"TABACCHERIA N. 1","straatNaam":"VIA COLOMBO 12","straatNr":"","vervoerder":"DHL","puntType":"parcelShop","bezettingsgraad":50,"latitude":44.327505,"longitude":8.502594,"canPickup":true,"canDropoff":true,"openingstijden":{"ma":"gesloten","di":"07:00 - 12:30, 15:00 - 19:00","wo":"07:00 - 12:30, 15:00 - 19:00","do":"07:00 - 12:30, 15:00 - 19:00","vr":"07:00 - 12:30, 15:00 - 19:00","za":"07:00 - 12:30, 15:00 - 19:00","zo":"gesloten"}}},{"type":"Feature","geometry":{"type":"Point","coordinates":[8.504799,44.328736]},"properties":{"type":"pakketpunt","locatieNaam":"EDICOLA MI.RA","straatNaam":"Via Cilea 4","straatNr":"","vervoerder":"DHL","puntType":"parcelShop","bezettingsgraad":50,"latitude":44.328736,"longitude":8.504799,"canPickup":false,"canDropoff":true,"openingstijden":{"ma":"06:00 - 18:30","di":"06:00 - 18:30","wo":"06:00 - 18:30","do":"06:00 - 18:30","vr":"06:00 - 18:30","za":"gesloten","zo":"gesloten"}}},{"type":"Feature","geometry":{"type":"Point","coordinates":[8.505058,44.328826]},"properties":{"type":"pakketpunt","locatieNaam":"TABACCHERIA N. 4","straatNaam":"VIALE LIGURIA 10","straatNr":"","vervoerder":"DHL","puntType":"parcelShop","bezettingsgraad":50,"latitude":44.328826,"longitude":8.505058,"canPickup":true,"canDropoff":true,"openingstijden":{"ma":"07:00 - 19:30","di":"07:00 - 19:30","wo":"07:00 - 19:30","do":"07:00 - 19:30","vr":"07:00 - 19:30","za":"07:00 - 19:30","zo":"07:00 - 19:30"}}},{"type":"Feature","geometry":{"type":"Point","coordinates":[8.501139,44.3375271]},"properties":{"type":"pakketpunt","locatieNaam":"Amazon Locker - alvezio","straatNaam":"Fermopoint / Conad - Albissola Marina","straatNr":"","vervoerder":"Amazon","puntType":"locker","bezettingsgraad":50,"latitude":44.3375271,"longitude":8.501139,"canPickup":true,"canDropoff":false,"openingstijden":null}},{"type":"Feature","geometry":{"type":"Point","coordinates":[8.505025,44.328537]},"properties":{"type":"pakketpunt","locatieNaam":"Amazon Counter - PRIMAEDICOLA","straatNaam":"MIRA S.N.C","straatNr":"","vervoerder":"Amazon","puntType":"helix","bezettingsgraad":50,"latitude":44.328537,"longitude":8.505025,"canPickup":true,"canDropoff":false,"openingstijden":null}},{"type":"Feature","geometry":{"type":"Point","coordinates":[8.5028401,44.3273123]},"properties":{"type":"pakketpunt","locatieNaam":"Amazon Counter - PRIMAEDICOLA","straatNaam":"CORTILI FABIO","straatNr":"","vervoerder":"Amazon","puntType":"helix","bezettingsgraad":50,"latitude":44.3273123,"longitude":8.5028401,"canPickup":true,"canDropoff":false,"openingstijden":null}},{"type":"Feature","geometry":{"type":"Point","coordinates":[8.50155,44.32697]},"properties":{"type":"pakketpunt","locatieNaam":"Amazon Counter - PRIMAEDICOLA","straatNaam":"VASCONI ROBERTO","straatNr":"","vervoerder":"Amazon","puntType":"helix","bezettingsgraad":50,"latitude":44.32697,"longitude":8.50155,"canPickup":true,"canDropoff":false,"openingstijden":null}},{"type":"Feature","geometry":{"type":"Point","coordinates":[8.50167,44.3276]},"properties":{"type":"pakketpunt","locatieNaam":"Ufficio Postale ALBISSOLA MARINA","straatNaam":"VIA DELL ORATORIO 24","straatNr":"","vervoerder":"Amazon","puntType":"3p","bezettingsgraad":50,"latitude":44.3276,"longitude":8.50167,"canPickup":true,"canDropoff":false,"openingstijden":null}},{"type":"Feature","geometry":{"type":"Point","coordinates":[8.5036016,44.329202]},"properties":{"type":"pakketpunt","locatieNaam":"Amazon Counter","straatNaam":"Nilde la Cartolibreria (fermopoint)","straatNr":"","vervoerder":"Amazon","puntType":"helix","bezettingsgraad":50,"latitude":44.329202,"longitude":8.5036016,"canPickup":true,"canDropoff":false,"openingstijden":null}},{"type":"Feature","geometry":{"type":"Point","coordinates":[8.500912,44.327019]},"properties":{"type":"pakketpunt","locatieNaam":"Amazon Locker - loggia","straatNaam":"Gulliver Albissola Marina","straatNr":"","vervoerder":"Amazon","puntType":"locker","bezettingsgraad":50,"latitude":44.327019,"longitude":8.500912,"canPickup":true,"canDropoff":false,"openingstijden":null}},{"type":"Feature","geometry":{"type":"Point","coordinates":[8.50259,44.3275]},"properties":{"type":"pakketpunt","locatieNaam":"PuntoPoste TABACCHERIA N. 1","straatNaam":"VIA COLOMBO 12","straatNr":"","vervoerder":"Amazon","puntType":"3p","bezettingsgraad":50,"latitude":44.3275,"longitude":8.50259,"canPickup":true,"canDropoff":false,"openingstijden":null}},{"type":"Feature","geometry":{"type":"Point","coordinates":[8.49333,44.3234]},"properties":{"type":"pakketpunt","locatieNaam":"PuntoPoste TABACCHERIA N. 66","straatNaam":"VIA GENOVA 28-R","straatNr":"","vervoerder":"Amazon","puntType":"3p","bezettingsgraad":50,"latitude":44.3234,"longitude":8.49333,"canPickup":true,"canDropoff":false,"openingstijden":null}},{"type":"Feature","geometry":{"type":"Point","coordinates":[8.50379364944659,44.32924885701569]},"properties":{"type":"pakketpunt","locatieNaam":"FedEx OnSite","straatNaam":"via Salomoni, 8R","straatNr":"","vervoerder":"FedEx","puntType":"servicepunt","bezettingsgraad":50,"latitude":44.32924885701569,"longitude":8.50379364944659,"canPickup":true,"canDropoff":true,"openingstijden":{"ma":"08:00 - 13:00, 16:00 - 19:00","di":"08:00 - 13:00, 16:00 - 19:00","wo":"08:00 - 13:00, 16:00 - 19:00","do":"08:00 - 13:00, 16:00 - 19:00","vr":"08:00 - 13:00, 16:00 - 19:00","za":"09:00 - 12:30","zo":"gesloten"}}},{"type":"Feature","geometry":{"type":"Point","coordinates":[8.505112574554241,44.32871644958899]},"properties":{"type":"pakketpunt","locatieNaam":"FedEx OnSite","straatNaam":"VIALE LIGURIA 10","straatNr":"","vervoerder":"FedEx","puntType":"servicepunt","bezettingsgraad":50,"latitude":44.32871644958899,"longitude":8.505112574554241,"canPickup":true,"canDropoff":true,"openingstijden":{"ma":"07:00 - 19:30","di":"07:00 - 19:30","wo":"07:00 - 19:30","do":"07:00 - 19:30","vr":"07:00 - 19:30","za":"07:00 - 19:30","zo":"gesloten"}}},{"type":"Feature","geometry":{"type":"Polygon","coordinates":[[[8.4716947,44.3431346],[8.4722969,44.3424089],[8.4724574,44.3412318],[8.4728127,44.3406912],[8.4729953,44.3400444],[8.4734966,44.3396473],[8.4742087,44.3392453],[8.4750027,44.338311],[8.4765425,44.3385092],[8.4774084,44.3383361],[8.4786061,44.3376317],[8.4791821,44.3369426],[8.4799155,44.3365392],[8.4798276,44.3357516],[8.4798736,44.3355268],[8.4799992,44.3353749],[8.4807444,44.3350182],[8.4812975,44.3343951],[8.4815495,44.3338631],[8.4815663,44.3334734],[8.4819436,44.3327258],[8.4822147,44.3326863],[8.482387,44.3323925],[8.483773,44.3314067],[8.4848699,44.3310157],[8.4848341,44.3298954],[8.4849805,44.3296262],[8.4855306,44.3289774],[8.4863149,44.3284257],[8.4867647,44.3278395],[8.485502,44.3283162],[8.4852963,44.3283151],[8.4852029,44.3281335],[8.4850398,44.3280293],[8.484963,44.3279168],[8.4850957,44.3277459],[8.4852814,44.3271269],[8.4856273,44.3264498],[8.4862869,44.3258443],[8.4866191,44.3257068],[8.4867394,44.3254946],[8.4878863,44.3249231],[8.488392,44.3247788],[8.4889361,44.3241511],[8.4895544,44.3236459],[8.4899685,44.3236216],[8.4911697,44.3239163],[8.4917102,44.323732],[8.4923927,44.3237007],[8.4927743,44.3235883],[8.4931871,44.3232563],[8.4932624,44.3229924],[8.493443,44.3229184],[8.4937993,44.3228648],[8.494092,44.3229714],[8.4951293,44.3228721],[8.4953609,44.3226493],[8.4952195,44.3220609],[8.4952962,44.321507],[8.4958218,44.321021],[8.49627,44.3209049],[8.496661,44.3213579],[8.4973633,44.3216132],[8.4976092,44.321899],[8.4981253,44.3221787],[8.4983363,44.32238],[8.4986853,44.3225057],[8.4987417,44.322608],[8.4986011,44.3225963],[8.4986567,44.3227775],[8.4992584,44.3231836],[8.4997394,44.3237303],[8.4996203,44.3238131],[8.4999866,44.3242128],[8.5001072,44.3241932],[8.5000886,44.3242633],[8.5015557,44.3253709],[8.5035762,44.3265363],[8.5051762,44.3272275],[8.5059222,44.327467],[8.5062922,44.3274653],[8.5062206,44.3273833],[8.5062622,44.3272945],[8.5063945,44.3272064],[8.5065372,44.3272234],[8.5066299,44.3273152],[8.5065656,44.3274824],[8.507793,44.3278845],[8.508433,44.327904],[8.508602,44.3274983],[8.5087771,44.3274353],[8.5088145,44.3275287],[8.5086189,44.3279971],[8.5089955,44.3281845],[8.5066316,44.3324264],[8.50349,44.33923],[8.5023351,44.3389128],[8.5011247,44.3383147],[8.4989646,44.3377905],[8.4979788,44.3378624],[8.4976915,44.3379701],[8.4968006,44.3378199],[8.4956849,44.3379815],[8.4945904,44.3380204],[8.4942369,44.3381791],[8.493852,44.3382249],[8.4936817,44.3383731],[8.4923949,44.3384695],[8.4914361,44.3384035],[8.4903119,44.33855],[8.4893266,44.3389204],[8.4886456,44.3386583],[8.4879956,44.3386123],[8.4875315,44.3384736],[8.4854884,44.339201],[8.485309,44.3393959],[8.4850202,44.3395413],[8.4834508,44.3399295],[8.4828628,44.3403207],[8.4815541,44.340338],[8.4806897,44.3410121],[8.4796589,44.3409417],[8.4793011,44.3412283],[8.478876,44.3414098],[8.4773994,44.3414693],[8.4765987,44.3416895],[8.4760373,44.341934],[8.4754599,44.3423512],[8.4745766,44.3428284],[8.4742014,44.3428267],[8.4731725,44.3430807],[8.4733864,44.3437197],[8.4716947,44.3431346]]]},"properties":{"type":"boundary","gemeente":"Albissola Marina"}}]}