{"type":"FeatureCollection","metadata":{"gemeente":"Alta Valle Intelvi","slug":"alta-valle-intelvi","generated_at":"2026-09-26T14:26:51.590962Z","total_points":11,"providers":["PosteItaliane","DPD","GLS","DHL","Amazon","FedEx"],"bounds":[9.021197,45.9789478,9.0654398,45.99040619]},"features":[{"type":"Feature","geometry":{"type":"Point","coordinates":[9.05728297,45.97955576]},"properties":{"type":"pakketpunt","locatieNaam":"Tabaccheria N. 6","straatNaam":"Piazza Venti Settembre","straatNr":"17","vervoerder":"PosteItaliane","puntType":"servicepunt","bezettingsgraad":50,"latitude":45.97955576,"longitude":9.05728297,"canPickup":true,"canDropoff":true,"openingstijden":{"za":"07:00 - 22:00","zo":"07:00 - 22:00","ma":"07:00 - 22:00","di":"07:00 - 22:00","wo":"gesloten","do":"07:00 - 22:00","vr":"07:00 - 22:00"}}},{"type":"Feature","geometry":{"type":"Point","coordinates":[9.06496356,45.98076127]},"properties":{"type":"pakketpunt","locatieNaam":"Pellio Intelvi","straatNaam":"Via Per Ramponio Pellio Intelvi","straatNr":"2","vervoerder":"PosteItaliane","puntType":"postkantoor","bezettingsgraad":50,"latitude":45.98076127,"longitude":9.06496356,"canPickup":true,"canDropoff":true,"openingstijden":{"za":"08:20 - 12:45","zo":"gesloten","ma":"08:20 - 13:45","di":"gesloten","wo":"08:20 - 13:45","do":"08:20 - 13:45","vr":"08:20 - 13:45"}}},{"type":"Feature","geometry":{"type":"Point","coordinates":[9.02488133,45.98112653]},"properties":{"type":"pakketpunt","locatieNaam":"Lanzo D'intelvi","straatNaam":"Via Provinciale Lanzo D'intelvi","straatNr":"12/a","vervoerder":"PosteItaliane","puntType":"postkantoor","bezettingsgraad":50,"latitude":45.98112653,"longitude":9.02488133,"canPickup":true,"canDropoff":true,"openingstijden":{"za":"08:20 - 12:45","zo":"gesloten","ma":"gesloten","di":"08:20 - 13:45","wo":"gesloten","do":"08:20 - 13:45","vr":"gesloten"}}},{"type":"Feature","geometry":{"type":"Point","coordinates":[9.0654398,45.99040619]},"properties":{"type":"pakketpunt","locatieNaam":"Ramponio Verna","straatNaam":"Via Galileo Galilei","straatNr":"1","vervoerder":"PosteItaliane","puntType":"postkantoor","bezettingsgraad":50,"latitude":45.99040619,"longitude":9.0654398,"canPickup":true,"canDropoff":true,"openingstijden":{"za":"08:20 - 12:45","zo":"gesloten","ma":"gesloten","di":"08:20 - 13:45","wo":"gesloten","do":"08:20 - 13:45","vr":"gesloten"}}},{"type":"Feature","geometry":{"type":"Point","coordinates":[9.0214349116,45.9789976552]},"properties":{"type":"pakketpunt","locatieNaam":"Miscela 1320%","straatNaam":"PIAZZA MATTEOTTI","straatNr":"3","vervoerder":"DPD","puntType":"pickup_point","bezettingsgraad":50,"latitude":45.9789976552,"longitude":9.0214349116,"canPickup":true,"canDropoff":true,"openingstijden":{"ma":"10:00 - 12:30, 16:00 - 18:30","di":"gesloten","wo":"10:00 - 12:30, 16:00 - 18:30","do":"10:00 - 12:30, 16:00 - 18:30","vr":"10:00 - 12:30, 16:00 - 18:30","za":"10:00 - 12:30, 16:00 - 18:30","zo":"gesloten"}}},{"type":"Feature","geometry":{"type":"Point","coordinates":[9.0211973,45.9789478]},"properties":{"type":"pakketpunt","locatieNaam":"miscela 1320%","straatNaam":"Piazza G. Matteotti","straatNr":"1-3","vervoerder":"GLS","puntType":"parcel_shop","bezettingsgraad":50,"latitude":45.9789478,"longitude":9.0211973,"canPickup":true,"canDropoff":true,"openingstijden":"za: 09:30 - 12:30, 15:30 - 18:30; ma: 09:30 - 12:30, 15:30 - 18:30"}},{"type":"Feature","geometry":{"type":"Point","coordinates":[9.057283,45.979556]},"properties":{"type":"pakketpunt","locatieNaam":"TABACCHERIA N. 6","straatNaam":"PIAZZA VENTI SETTEMBRE 17","straatNr":"","vervoerder":"DHL","puntType":"parcelShop","bezettingsgraad":50,"latitude":45.979556,"longitude":9.057283,"canPickup":true,"canDropoff":true,"openingstijden":{"ma":"07:00 - 22:00","di":"07:00 - 22:00","wo":"gesloten","do":"07:00 - 22:00","vr":"07:00 - 22:00","za":"07:00 - 22:00","zo":"07:00 - 22:00"}}},{"type":"Feature","geometry":{"type":"Point","coordinates":[9.02143491163521,45.9789976551825]},"properties":{"type":"pakketpunt","locatieNaam":"Amazon Counter (fermopoint)","straatNaam":"Miscela 1320%","straatNr":"","vervoerder":"Amazon","puntType":"helix","bezettingsgraad":50,"latitude":45.9789976551825,"longitude":9.02143491163521,"canPickup":true,"canDropoff":false,"openingstijden":null}},{"type":"Feature","geometry":{"type":"Point","coordinates":[9.05728,45.9795]},"properties":{"type":"pakketpunt","locatieNaam":"PuntoPoste TABACCHERIA N. 6","straatNaam":"PIAZZA VENTI SETTEMBRE 17","straatNr":"","vervoerder":"Amazon","puntType":"3p","bezettingsgraad":50,"latitude":45.9795,"longitude":9.05728,"canPickup":true,"canDropoff":false,"openingstijden":null}},{"type":"Feature","geometry":{"type":"Point","coordinates":[9.021197,45.978948]},"properties":{"type":"pakketpunt","locatieNaam":"FedEx OnSite","straatNaam":"piazza g. matteotti, 1-3","straatNr":"","vervoerder":"FedEx","puntType":"servicepunt","bezettingsgraad":50,"latitude":45.978948,"longitude":9.021197,"canPickup":true,"canDropoff":true,"openingstijden":{"ma":"09:30 - 12:30, 15:30 - 18:30","di":"gesloten","wo":"09:30 - 12:30, 15:30 - 18:30","do":"09:30 - 12:30, 15:30 - 18:30","vr":"09:30 - 12:30, 15:30 - 18:30","za":"09:30 - 12:30, 15:30 - 18:30","zo":"gesloten"}}},{"type":"Feature","geometry":{"type":"Point","coordinates":[9.021215,45.979117]},"properties":{"type":"pakketpunt","locatieNaam":"FedEx OnSite","straatNaam":"PIAZZA GIACOMO MATTEOTTI 3 1","straatNr":"","vervoerder":"FedEx","puntType":"servicepunt","bezettingsgraad":50,"latitude":45.979117,"longitude":9.021215,"canPickup":true,"canDropoff":true,"openingstijden":{"ma":"10:00 - 12:30, 16:00 - 18:30","di":"gesloten","wo":"10:00 - 12:30, 16:00 - 18:30","do":"10:00 - 12:30, 16:00 - 18:30","vr":"10:00 - 12:30, 16:00 - 18:30","za":"09:30 - 12:30, 16:00 - 18:30","zo":"gesloten"}}},{"type":"Feature","geometry":{"type":"Polygon","coordinates":[[[8.9909613,45.9716807],[8.9923454,45.9725568],[8.9928598,45.9721107],[8.9933061,45.9719246],[8.9942014,45.9716423],[8.9946517,45.9716394],[8.9950276,45.9721078],[8.9958224,45.9728346],[8.9960554,45.9733082],[8.9960687,45.9737759],[8.9963183,45.9743842],[8.996197,45.9746559],[8.9958316,45.9750795],[8.9960967,45.9756649],[8.9960652,45.9759173],[8.9951827,45.9766492],[8.9950601,45.9768758],[8.9951044,45.9770732],[8.9953953,45.9773211],[8.9954701,45.9776799],[8.9953307,45.9782217],[8.9960201,45.9787544],[8.9954516,45.9797736],[8.9952919,45.9804895],[9.0010941,45.9803644],[9.001822,45.9801828],[9.0021128,45.979591],[9.0022971,45.9794928],[9.0037634,45.9797693],[9.0046576,45.9797661],[9.0049631,45.9802024],[9.0052637,45.9803331],[9.0073475,45.9803002],[9.0077488,45.9805864],[9.0080463,45.9806093],[9.0083345,45.9807581],[9.0083797,45.9809825],[9.0087172,45.9814996],[9.0086604,45.9817704],[9.008759,45.9820569],[9.0106929,45.9828846],[9.0111529,45.983175],[9.0111612,45.9834629],[9.0109365,45.9841008],[9.0108389,45.9853049],[9.0115769,45.9866962],[9.0113594,45.9879046],[9.0126815,45.9883003],[9.0132234,45.9887575],[9.0142311,45.9883236],[9.0158954,45.9878503],[9.0168652,45.9879087],[9.0180799,45.9876531],[9.0225036,45.9895435],[9.0228918,45.9927561],[9.0284607,45.9936259],[9.0289322,45.9931394],[9.0296939,45.9928872],[9.0306934,45.9935215],[9.0320548,45.9946326],[9.0322679,45.994691],[9.0328585,45.9944524],[9.0363154,45.9958283],[9.0369436,45.9962871],[9.0378705,45.9967773],[9.0395453,45.9978747],[9.040792,45.9985718],[9.0415981,45.9993275],[9.043413,46.0018468],[9.0445563,46.0022784],[9.0452246,46.0022106],[9.0468264,46.0024979],[9.0482325,46.0025153],[9.0492336,46.0026769],[9.049563,46.0027983],[9.0502627,46.003509],[9.0515224,46.0040169],[9.05213,46.0045926],[9.052316,46.004939],[9.0513923,46.0064155],[9.0513007,46.0068746],[9.0516819,46.0070769],[9.0525975,46.0072475],[9.054543,46.0072465],[9.0563412,46.0068541],[9.0572872,46.0067681],[9.0588546,46.0064883],[9.0605848,46.0059474],[9.0623158,46.0061489],[9.0640007,46.005653],[9.0656678,46.0050445],[9.068322,46.0050519],[9.0712066,46.0047666],[9.0731207,46.0042478],[9.0733642,46.0039957],[9.0734911,46.0035636],[9.0737023,46.0033384],[9.0749519,46.0033871],[9.0751759,46.003099],[9.0752322,46.0028874],[9.0751553,46.0021494],[9.0751566,46.0007409],[9.0763549,45.9987826],[9.076432,45.998463],[9.0764202,45.9981075],[9.076289,45.9977926],[9.0758155,45.9973969],[9.076312,45.9969196],[9.0768119,45.9965817],[9.0768682,45.9964647],[9.0758302,45.9952279],[9.076073,45.9945347],[9.0760726,45.9942962],[9.0744455,45.9930957],[9.0740188,45.9926055],[9.0736272,45.9918948],[9.0734413,45.9917194],[9.0731701,45.9916476],[9.0731651,45.9915216],[9.0734746,45.9912469],[9.0732532,45.991067],[9.0733626,45.9907699],[9.0728199,45.9904688],[9.0728842,45.9903247],[9.0732486,45.990032],[9.0732516,45.9898475],[9.0730932,45.9897216],[9.0715995,45.9891285],[9.0713986,45.9885706],[9.0713966,45.9882871],[9.0711978,45.9880803],[9.0708442,45.9879455],[9.0700486,45.987973],[9.0694575,45.9876673],[9.0693547,45.9868034],[9.0694511,45.9864568],[9.0699301,45.9862315],[9.0703492,45.9857948],[9.070405,45.9852727],[9.0705273,45.9849756],[9.0702216,45.9845123],[9.0701694,45.9840578],[9.0704911,45.9832521],[9.070383,45.9819607],[9.0705246,45.9816546],[9.0703963,45.9810156],[9.0705926,45.9806105],[9.0704711,45.9802371],[9.0697815,45.9797965],[9.0697798,45.9797155],[9.0702999,45.9788871],[9.0702476,45.9783652],[9.0709522,45.9779282],[9.0709581,45.9774602],[9.071179,45.9773115],[9.0712382,45.976965],[9.0720841,45.9759834],[9.0722614,45.9758078],[9.072442,45.9757717],[9.0713429,45.9756014],[9.0688715,45.9748424],[9.0672894,45.9741819],[9.0665013,45.9749654],[9.0663481,45.9749925],[9.0664151,45.9744029],[9.066149,45.9739749],[9.0652972,45.9733326],[9.0648819,45.9728108],[9.0642958,45.9724196],[9.0637583,45.9722939],[9.0629153,45.9716554],[9.0623557,45.9719122],[9.0621137,45.9719258],[9.0612373,45.9716698],[9.0599931,45.9715085],[9.059199,45.9712524],[9.0588304,45.9706406],[9.0583966,45.9692908],[9.0584349,45.9688768],[9.0583482,45.9678508],[9.0578752,45.966006],[9.0579504,45.9654389],[9.0591902,45.9631927],[9.0592044,45.9628867],[9.05566,45.962848],[9.0554696,45.9627311],[9.0550155,45.9619843],[9.0544117,45.9615796],[9.0529312,45.9603293],[9.0521509,45.9591642],[9.0515777,45.9585389],[9.0496024,45.9577073],[9.0483197,45.9573208],[9.0454959,45.9562645],[9.0442679,45.955698],[9.0427878,45.9545511],[9.0423182,45.9542812],[9.0416096,45.9535975],[9.0407249,45.9526168],[9.0394689,45.9510287],[9.0389747,45.9500479],[9.0385726,45.9494675],[9.0359809,45.9472183],[9.0331132,45.9443931],[9.0297356,45.9434401],[9.0274467,45.9424507],[9.0263949,45.9417309],[9.0260367,45.9413215],[9.0231925,45.9387031],[9.0222683,45.9381407],[9.02194,45.9380805],[9.0205259,45.9382354],[9.0202467,45.9383922],[9.0199551,45.9394581],[9.0197688,45.9397037],[9.0190258,45.9398761],[9.0170864,45.9405962],[9.0152132,45.9404876],[9.0149592,45.9406261],[9.0149104,45.9411666],[9.0148138,45.9413928],[9.0145606,45.9415585],[9.0141112,45.9416278],[9.0135678,45.9415106],[9.0130491,45.9428123],[9.0130766,45.942907],[9.0126787,45.9433844],[9.0121988,45.9437844],[9.0124058,45.9437923],[9.0130429,45.9441023],[9.013711,45.944522],[9.0145023,45.9456317],[9.0164763,45.947997],[9.0171246,45.9490095],[9.0165712,45.9496642],[9.0163952,45.9501703],[9.0153244,45.9508088],[9.0139638,45.9605478],[9.0092149,45.9623845],[9.0008414,45.9647362],[8.9940255,45.9665515],[8.9918213,45.9682418],[8.990112,45.9694044],[8.9889923,45.9703426],[8.9889541,45.9708871],[8.9888345,45.9712216],[8.9882589,45.9723093],[8.9882936,45.9726237],[8.9884735,45.9728336],[8.9890504,45.9720104],[8.9897186,45.9714613],[8.9904958,45.9712293],[8.9909613,45.9716807]]]},"properties":{"type":"boundary","gemeente":"Alta Valle Intelvi"}}]}