{"type":"FeatureCollection","metadata":{"gemeente":"Altopascio","slug":"altopascio","generated_at":"2026-09-26T14:26:51.791925Z","total_points":43,"providers":["PosteItaliane","DPD","InPost","GLS","DHL","Amazon","FedEx"],"bounds":[10.64152,43.80729282,10.71437244,43.83788]},"features":[{"type":"Feature","geometry":{"type":"Point","coordinates":[10.67549045,43.81207524]},"properties":{"type":"pakketpunt","locatieNaam":"Altopascio","straatNaam":"Via Leonardo Da Vinci","straatNr":"21","vervoerder":"PosteItaliane","puntType":"postkantoor","bezettingsgraad":50,"latitude":43.81207524,"longitude":10.67549045,"canPickup":true,"canDropoff":true,"openingstijden":{"za":"08:20 - 12:35","zo":"gesloten","ma":"08:20 - 19:05","di":"08:20 - 19:05","wo":"08:20 - 19:05","do":"08:20 - 19:05","vr":"08:20 - 19:05"}}},{"type":"Feature","geometry":{"type":"Point","coordinates":[10.69127378,43.83787996]},"properties":{"type":"pakketpunt","locatieNaam":"Marginone","straatNaam":"Via Antonio Gramsci","straatNr":"3","vervoerder":"PosteItaliane","puntType":"postkantoor","bezettingsgraad":50,"latitude":43.83787996,"longitude":10.69127378,"canPickup":true,"canDropoff":true,"openingstijden":{"za":"08:20 - 12:45","zo":"gesloten","ma":"08:20 - 13:45","di":"08:20 - 13:45","wo":"08:20 - 13:45","do":"08:20 - 13:45","vr":"08:20 - 13:45"}}},{"type":"Feature","geometry":{"type":"Point","coordinates":[10.71437244,43.80729282]},"properties":{"type":"pakketpunt","locatieNaam":"Spianate","straatNaam":"Via Bruno Nardi","straatNr":"35","vervoerder":"PosteItaliane","puntType":"postkantoor","bezettingsgraad":50,"latitude":43.80729282,"longitude":10.71437244,"canPickup":true,"canDropoff":true,"openingstijden":{"za":"08:20 - 12:45","zo":"gesloten","ma":"08:20 - 13:45","di":"08:20 - 13:45","wo":"08:20 - 13:45","do":"08:20 - 13:45","vr":"08:20 - 13:45"}}},{"type":"Feature","geometry":{"type":"Point","coordinates":[10.65555522,43.81928166]},"properties":{"type":"pakketpunt","locatieNaam":"Badia Pozzeveri","straatNaam":"Via Quattro Novembre","straatNr":"13","vervoerder":"PosteItaliane","puntType":"postkantoor","bezettingsgraad":50,"latitude":43.81928166,"longitude":10.65555522,"canPickup":true,"canDropoff":true,"openingstijden":{"za":"gesloten","zo":"gesloten","ma":"gesloten","di":"08:20 - 13:45","wo":"08:20 - 13:45","do":"08:20 - 13:45","vr":"08:20 - 13:45"}}},{"type":"Feature","geometry":{"type":"Point","coordinates":[10.69085885,43.83733895]},"properties":{"type":"pakketpunt","locatieNaam":"Tabaccheria N. 3","straatNaam":"Piazza Vittorio Emanuele Iii","straatNr":"4","vervoerder":"PosteItaliane","puntType":"servicepunt","bezettingsgraad":50,"latitude":43.83733895,"longitude":10.69085885,"canPickup":true,"canDropoff":true,"openingstijden":{"za":"08:00 - 13:00, 16:00 - 19:30","zo":"gesloten","ma":"08:00 - 13:00, 16:00 - 19:30","di":"08:00 - 13:00, 16:00 - 19:30","wo":"08:00 - 13:00, 16:00 - 19:30","do":"08:00 - 13:00, 16:00 - 19:30","vr":"08:00 - 13:00, 16:00 - 19:30"}}},{"type":"Feature","geometry":{"type":"Point","coordinates":[10.66801985,43.81306194]},"properties":{"type":"pakketpunt","locatieNaam":"Tabaccheria N. 1","straatNaam":"Via Bientina","straatNr":"34","vervoerder":"PosteItaliane","puntType":"servicepunt","bezettingsgraad":50,"latitude":43.81306194,"longitude":10.66801985,"canPickup":true,"canDropoff":true,"openingstijden":{"za":"00:01 - 23:59","zo":"00:01 - 23:59","ma":"00:01 - 23:59","di":"00:01 - 23:59","wo":"00:01 - 23:59","do":"00:01 - 23:59","vr":"00:01 - 23:59"}}},{"type":"Feature","geometry":{"type":"Point","coordinates":[10.67549045,43.81207524]},"properties":{"type":"pakketpunt","locatieNaam":"Ufficio Postale Altopascio","straatNaam":"Via Leonardo Da Vinci","straatNr":"21","vervoerder":"PosteItaliane","puntType":"automaat","bezettingsgraad":50,"latitude":43.81207524,"longitude":10.67549045,"canPickup":true,"canDropoff":true,"openingstijden":{"za":"08:20 - 19:05","zo":"08:20 - 12:35","ma":"08:20 - 19:05","di":"08:20 - 19:05","wo":"08:20 - 19:05","do":"08:20 - 19:05","vr":"08:20 - 19:05"}}},{"type":"Feature","geometry":{"type":"Point","coordinates":[10.66682349,43.81927882]},"properties":{"type":"pakketpunt","locatieNaam":"Tabaccheria N. 15","straatNaam":"Via Francesca Romea","straatNr":"89","vervoerder":"PosteItaliane","puntType":"servicepunt","bezettingsgraad":50,"latitude":43.81927882,"longitude":10.66682349,"canPickup":true,"canDropoff":true,"openingstijden":{"za":"07:00 - 20:00","zo":"gesloten","ma":"07:00 - 20:00","di":"07:00 - 20:00","wo":"07:00 - 20:00","do":"07:00 - 20:00","vr":"07:00 - 20:00"}}},{"type":"Feature","geometry":{"type":"Point","coordinates":[10.69368087,43.82328889]},"properties":{"type":"pakketpunt","locatieNaam":"Panza S.r.l. - Impresa Edile","straatNaam":"Via Dei Sandroni","straatNr":"43","vervoerder":"PosteItaliane","puntType":"automaat","bezettingsgraad":50,"latitude":43.82328889,"longitude":10.69368087,"canPickup":true,"canDropoff":true,"openingstijden":{"za":"00:01 - 23:59","zo":"00:01 - 23:59","ma":"00:01 - 23:59","di":"00:01 - 23:59","wo":"00:01 - 23:59","do":"00:01 - 23:59","vr":"00:01 - 23:59"}}},{"type":"Feature","geometry":{"type":"Point","coordinates":[10.64949771,43.82133747]},"properties":{"type":"pakketpunt","locatieNaam":"Tabaccheria N. 18","straatNaam":"Via Alfredo Catalani","straatNr":"48","vervoerder":"PosteItaliane","puntType":"servicepunt","bezettingsgraad":50,"latitude":43.82133747,"longitude":10.64949771,"canPickup":true,"canDropoff":true,"openingstijden":{"za":"06:30 - 23:30","zo":"06:30 - 23:30","ma":"gesloten","di":"06:30 - 23:30","wo":"06:30 - 23:30","do":"06:30 - 23:30","vr":"06:30 - 23:30"}}},{"type":"Feature","geometry":{"type":"Point","coordinates":[10.67358981,43.81515814]},"properties":{"type":"pakketpunt","locatieNaam":"Pc Arte","straatNaam":"Via Cavour","straatNr":"171","vervoerder":"PosteItaliane","puntType":"servicepunt","bezettingsgraad":50,"latitude":43.81515814,"longitude":10.67358981,"canPickup":true,"canDropoff":true,"openingstijden":{"za":"09:00 - 13:00, 16:00 - 20:00","zo":"gesloten","ma":"09:00 - 13:00, 16:00 - 20:00","di":"09:00 - 13:00, 16:00 - 20:00","wo":"09:00 - 13:00, 16:00 - 20:00","do":"09:00 - 13:00, 16:00 - 20:00","vr":"09:00 - 13:00, 16:00 - 20:00"}}},{"type":"Feature","geometry":{"type":"Point","coordinates":[10.68868926,43.81905783]},"properties":{"type":"pakketpunt","locatieNaam":"Tabaccheria N. 19","straatNaam":"Via Delle Cerbaie","straatNr":"90","vervoerder":"PosteItaliane","puntType":"servicepunt","bezettingsgraad":50,"latitude":43.81905783,"longitude":10.68868926,"canPickup":true,"canDropoff":true,"openingstijden":{"za":"07:00 - 20:00","zo":"gesloten","ma":"07:00 - 20:00","di":"07:00 - 20:00","wo":"07:00 - 20:00","do":"07:00 - 20:00","vr":"07:00 - 20:00"}}},{"type":"Feature","geometry":{"type":"Point","coordinates":[10.67684602,43.81350517]},"properties":{"type":"pakketpunt","locatieNaam":"Tabaccheria N. 13","straatNaam":"Via Firenze","straatNr":"3","vervoerder":"PosteItaliane","puntType":"servicepunt","bezettingsgraad":50,"latitude":43.81350517,"longitude":10.67684602,"canPickup":true,"canDropoff":true,"openingstijden":{"za":"07:30 - 12:30, 15:00 - 19:30","zo":"gesloten","ma":"07:30 - 12:30, 15:00 - 19:30","di":"07:30 - 12:30, 15:00 - 19:30","wo":"07:30 - 12:15, 15:00 - 19:30","do":"07:30 - 12:30, 15:00 - 19:30","vr":"07:30 - 12:30, 15:00 - 19:30"}}},{"type":"Feature","geometry":{"type":"Point","coordinates":[10.6771031,43.8172296]},"properties":{"type":"pakketpunt","locatieNaam":"Edicola Regoli","straatNaam":"VIA GAVINANA","straatNr":"61","vervoerder":"DPD","puntType":"pickup_point","bezettingsgraad":50,"latitude":43.8172296,"longitude":10.6771031,"canPickup":true,"canDropoff":true,"openingstijden":{"ma":"05:00 - 20:00","di":"05:00 - 20:00","wo":"05:00 - 20:00","do":"05:00 - 20:00","vr":"05:00 - 20:00","za":"05:00 - 20:00","zo":"05:00 - 13:00"}}},{"type":"Feature","geometry":{"type":"Point","coordinates":[10.68704511,43.81839318]},"properties":{"type":"pakketpunt","locatieNaam":"Nkd-Altopascio","straatNaam":"VIA DELLE CERBAIE","straatNr":"38","vervoerder":"DPD","puntType":"pickup_point","bezettingsgraad":50,"latitude":43.81839318,"longitude":10.68704511,"canPickup":true,"canDropoff":true,"openingstijden":{"ma":"09:00 - 13:00, 15:30 - 19:30","di":"09:00 - 13:00, 15:30 - 19:30","wo":"09:00 - 13:00, 15:30 - 19:30","do":"09:00 - 13:00, 15:30 - 19:30","vr":"09:00 - 13:00, 15:30 - 19:30","za":"09:00 - 13:00, 15:30 - 19:30","zo":"10:00 - 13:00, 15:30 - 19:30"}}},{"type":"Feature","geometry":{"type":"Point","coordinates":[10.68983,43.821877]},"properties":{"type":"pakketpunt","locatieNaam":"BRT LOCKER - Panza Via delle Cerbai","straatNaam":"VIA DELLE CERBAIE","straatNr":"","vervoerder":"DPD","puntType":"dpd_box","bezettingsgraad":50,"latitude":43.821877,"longitude":10.68983,"canPickup":true,"canDropoff":true,"openingstijden":{"ma":"00:00 - 23:45","di":"00:00 - 23:45","wo":"00:00 - 23:45","do":"00:00 - 23:45","vr":"00:00 - 23:45","za":"00:00 - 23:45","zo":"00:00 - 23:45"}}},{"type":"Feature","geometry":{"type":"Point","coordinates":[10.6680251,43.8129164]},"properties":{"type":"pakketpunt","locatieNaam":"H 24 - Altopascio","straatNaam":"VIA BIENTINA","straatNr":"34","vervoerder":"DPD","puntType":"pickup_point","bezettingsgraad":50,"latitude":43.8129164,"longitude":10.6680251,"canPickup":true,"canDropoff":true,"openingstijden":{"ma":"00:00 - 23:45","di":"00:00 - 23:45","wo":"00:00 - 23:45","do":"00:00 - 23:45","vr":"00:00 - 23:45","za":"00:00 - 23:45","zo":"00:00 - 23:45"}}},{"type":"Feature","geometry":{"type":"Point","coordinates":[10.71215,43.81012]},"properties":{"type":"pakketpunt","locatieNaam":"InPost Locker 24/7","straatNaam":"SC delle Spianate o dei Riatri Loc.Spianate","straatNr":"1","vervoerder":"InPost","puntType":"automaat","bezettingsgraad":50,"latitude":43.81012,"longitude":10.71215,"canPickup":true,"canDropoff":true,"openingstijden":null}},{"type":"Feature","geometry":{"type":"Point","coordinates":[10.67565,43.81317]},"properties":{"type":"pakketpunt","locatieNaam":"Perna Informatica","straatNaam":"Via Regina Margherita","straatNr":"23","vervoerder":"InPost","puntType":"automaat","bezettingsgraad":50,"latitude":43.81317,"longitude":10.67565,"canPickup":true,"canDropoff":true,"openingstijden":null}},{"type":"Feature","geometry":{"type":"Point","coordinates":[10.6736,43.81507]},"properties":{"type":"pakketpunt","locatieNaam":"InPost Point","straatNaam":"Via Cavour, 171, Altopascio, Province of Lucca, Italy","straatNr":"171","vervoerder":"InPost","puntType":"servicepunt","bezettingsgraad":50,"latitude":43.81507,"longitude":10.6736,"canPickup":true,"canDropoff":true,"openingstijden":"Lun-Sab 09:00-13:00, 16:00-20:00"}},{"type":"Feature","geometry":{"type":"Point","coordinates":[10.676518,43.812302]},"properties":{"type":"pakketpunt","locatieNaam":"CAF E SERVIZI DI PATRONATO-ALBA ENERGIA","straatNaam":"Via Guglielmo Marconi","straatNr":"1","vervoerder":"GLS","puntType":"parcel_shop","bezettingsgraad":50,"latitude":43.812302,"longitude":10.676518,"canPickup":true,"canDropoff":true,"openingstijden":"ma: 09:30 - 15:00; di: 09:30 - 15:00"}},{"type":"Feature","geometry":{"type":"Point","coordinates":[10.6735983,43.8150663]},"properties":{"type":"pakketpunt","locatieNaam":"PC ARTE","straatNaam":"Via Cavour","straatNr":"171","vervoerder":"GLS","puntType":"parcel_shop","bezettingsgraad":50,"latitude":43.8150663,"longitude":10.6735983,"canPickup":true,"canDropoff":true,"openingstijden":"za: 09:00 - 13:00, 15:30 - 19:30; ma: 09:00 - 13:00, 15:30 - 19:30"}},{"type":"Feature","geometry":{"type":"Point","coordinates":[10.66802,43.813062]},"properties":{"type":"pakketpunt","locatieNaam":"TABACCHERIA N. 1","straatNaam":"VIA BIENTINA 34","straatNr":"","vervoerder":"DHL","puntType":"parcelShop","bezettingsgraad":50,"latitude":43.813062,"longitude":10.66802,"canPickup":true,"canDropoff":true,"openingstijden":{"ma":"00:01 - 23:59","di":"00:01 - 23:59","wo":"00:01 - 23:59","do":"00:01 - 23:59","vr":"00:01 - 23:59","za":"00:01 - 23:59","zo":"00:01 - 23:59"}}},{"type":"Feature","geometry":{"type":"Point","coordinates":[10.666823,43.819279]},"properties":{"type":"pakketpunt","locatieNaam":"TABACCHERIA N. 15","straatNaam":"VIA FRANCESCA ROMEA 89","straatNr":"","vervoerder":"DHL","puntType":"parcelShop","bezettingsgraad":50,"latitude":43.819279,"longitude":10.666823,"canPickup":true,"canDropoff":true,"openingstijden":{"ma":"07:00 - 20:00","di":"07:00 - 20:00","wo":"07:00 - 20:00","do":"07:00 - 20:00","vr":"07:00 - 20:00","za":"07:00 - 20:00","zo":"gesloten"}}},{"type":"Feature","geometry":{"type":"Point","coordinates":[10.67359,43.815158]},"properties":{"type":"pakketpunt","locatieNaam":"PC ARTE","straatNaam":"VIA CAVOUR 171","straatNr":"","vervoerder":"DHL","puntType":"parcelShop","bezettingsgraad":50,"latitude":43.815158,"longitude":10.67359,"canPickup":true,"canDropoff":true,"openingstijden":{"ma":"09:00 - 13:00, 16:00 - 20:00","di":"09:00 - 13:00, 16:00 - 20:00","wo":"09:00 - 13:00, 16:00 - 20:00","do":"09:00 - 13:00, 16:00 - 20:00","vr":"09:00 - 13:00, 16:00 - 20:00","za":"09:00 - 13:00, 16:00 - 20:00","zo":"gesloten"}}},{"type":"Feature","geometry":{"type":"Point","coordinates":[10.673701,43.815106]},"properties":{"type":"pakketpunt","locatieNaam":"PC ARTE DI BERNARDELLO","straatNaam":"Via Cavour 171","straatNr":"","vervoerder":"DHL","puntType":"parcelShop","bezettingsgraad":50,"latitude":43.815106,"longitude":10.673701,"canPickup":false,"canDropoff":true,"openingstijden":{"ma":"09:00 - 20:00","di":"09:00 - 20:00","wo":"09:00 - 20:00","do":"09:00 - 20:00","vr":"09:00 - 20:00","za":"09:00 - 20:00","zo":"gesloten"}}},{"type":"Feature","geometry":{"type":"Point","coordinates":[10.67549,43.812075]},"properties":{"type":"pakketpunt","locatieNaam":"Ufficio Postale ALTOPASCIO","straatNaam":"VIA DA VINCI LEONARDO 21","straatNr":"","vervoerder":"DHL","puntType":"postOffice","bezettingsgraad":50,"latitude":43.812075,"longitude":10.67549,"canPickup":true,"canDropoff":true,"openingstijden":{"ma":"08:20 - 19:05","di":"08:20 - 19:05","wo":"08:20 - 19:05","do":"08:20 - 19:05","vr":"08:20 - 19:05","za":"08:20 - 12:35","zo":"gesloten"}}},{"type":"Feature","geometry":{"type":"Point","coordinates":[10.67549,43.812075]},"properties":{"type":"pakketpunt","locatieNaam":"UFFICIO POSTALE ALTOPASCIO","straatNaam":"VIA LEONARDO DA VINCI 21","straatNr":"","vervoerder":"DHL","puntType":"packStation","bezettingsgraad":50,"latitude":43.812075,"longitude":10.67549,"canPickup":true,"canDropoff":true,"openingstijden":{"ma":"08:20 - 19:05","di":"08:20 - 19:05","wo":"08:20 - 19:05","do":"08:20 - 19:05","vr":"08:20 - 19:05","za":"08:20 - 19:05","zo":"08:20 - 12:35"}}},{"type":"Feature","geometry":{"type":"Point","coordinates":[10.676846,43.813505]},"properties":{"type":"pakketpunt","locatieNaam":"TABACCHERIA N. 13","straatNaam":"VIA FIRENZE 3","straatNr":"","vervoerder":"DHL","puntType":"parcelShop","bezettingsgraad":50,"latitude":43.813505,"longitude":10.676846,"canPickup":true,"canDropoff":true,"openingstijden":{"ma":"07:30 - 12:30, 15:00 - 19:30","di":"07:30 - 12:30, 15:00 - 19:30","wo":"07:30 - 12:15, 15:00 - 19:30","do":"07:30 - 12:30, 15:00 - 19:30","vr":"07:30 - 12:30, 15:00 - 19:30","za":"07:30 - 12:30, 15:00 - 19:30","zo":"gesloten"}}},{"type":"Feature","geometry":{"type":"Point","coordinates":[10.649498,43.821337]},"properties":{"type":"pakketpunt","locatieNaam":"TABACCHERIA N. 18","straatNaam":"VIA ALFREDO CATALANI 48","straatNr":"","vervoerder":"DHL","puntType":"parcelShop","bezettingsgraad":50,"latitude":43.821337,"longitude":10.649498,"canPickup":true,"canDropoff":true,"openingstijden":{"ma":"gesloten","di":"06:30 - 23:30","wo":"06:30 - 23:30","do":"06:30 - 23:30","vr":"06:30 - 23:30","za":"06:30 - 23:30","zo":"06:30 - 23:30"}}},{"type":"Feature","geometry":{"type":"Point","coordinates":[10.688689,43.819058]},"properties":{"type":"pakketpunt","locatieNaam":"TABACCHERIA N. 19","straatNaam":"VIA DELLE CERBAIE 90","straatNr":"","vervoerder":"DHL","puntType":"parcelShop","bezettingsgraad":50,"latitude":43.819058,"longitude":10.688689,"canPickup":true,"canDropoff":true,"openingstijden":{"ma":"07:00 - 20:00","di":"07:00 - 20:00","wo":"07:00 - 20:00","do":"07:00 - 20:00","vr":"07:00 - 20:00","za":"07:00 - 20:00","zo":"gesloten"}}},{"type":"Feature","geometry":{"type":"Point","coordinates":[10.693681,43.823289]},"properties":{"type":"pakketpunt","locatieNaam":"PANZA S.R.L. - IMPRESA EDIL","straatNaam":"VIA DEI SANDRONI 43","straatNr":"","vervoerder":"DHL","puntType":"packStation","bezettingsgraad":50,"latitude":43.823289,"longitude":10.693681,"canPickup":true,"canDropoff":true,"openingstijden":{"ma":"00:01 - 23:59","di":"00:01 - 23:59","wo":"00:01 - 23:59","do":"00:01 - 23:59","vr":"00:01 - 23:59","za":"00:01 - 23:59","zo":"00:01 - 23:59"}}},{"type":"Feature","geometry":{"type":"Point","coordinates":[10.690859,43.837339]},"properties":{"type":"pakketpunt","locatieNaam":"TABACCHERIA N. 3","straatNaam":"PIAZZA VITTORIO EMANUELE III 4","straatNr":"","vervoerder":"DHL","puntType":"parcelShop","bezettingsgraad":50,"latitude":43.837339,"longitude":10.690859,"canPickup":true,"canDropoff":true,"openingstijden":{"ma":"08:00 - 13:00, 16:00 - 19:30","di":"08:00 - 13:00, 16:00 - 19:30","wo":"08:00 - 13:00, 16:00 - 19:30","do":"08:00 - 13:00, 16:00 - 19:30","vr":"08:00 - 13:00, 16:00 - 19:30","za":"08:00 - 13:00, 16:00 - 19:30","zo":"gesloten"}}},{"type":"Feature","geometry":{"type":"Point","coordinates":[10.691274,43.83788]},"properties":{"type":"pakketpunt","locatieNaam":"Ufficio Postale MARGINONE","straatNaam":"VIA ANTONIO GRAMSCI 3","straatNr":"","vervoerder":"DHL","puntType":"postOffice","bezettingsgraad":50,"latitude":43.83788,"longitude":10.691274,"canPickup":true,"canDropoff":true,"openingstijden":{"ma":"08:20 - 13:45","di":"08:20 - 13:45","wo":"08:20 - 13:45","do":"08:20 - 13:45","vr":"08:20 - 13:45","za":"08:20 - 12:45","zo":"gesloten"}}},{"type":"Feature","geometry":{"type":"Point","coordinates":[10.714372,43.807293]},"properties":{"type":"pakketpunt","locatieNaam":"Ufficio Postale SPIANATE","straatNaam":"VIA BRUNO NARDI 35","straatNr":"","vervoerder":"DHL","puntType":"postOffice","bezettingsgraad":50,"latitude":43.807293,"longitude":10.714372,"canPickup":true,"canDropoff":true,"openingstijden":{"ma":"08:20 - 13:45","di":"08:20 - 13:45","wo":"08:20 - 13:45","do":"08:20 - 13:45","vr":"08:20 - 13:45","za":"08:20 - 12:45","zo":"gesloten"}}},{"type":"Feature","geometry":{"type":"Point","coordinates":[10.69179,43.809065]},"properties":{"type":"pakketpunt","locatieNaam":"Amazon Counter - Enilive Station (n.15102)","straatNaam":"VIA DELLA GALEOTTA 23","straatNr":"","vervoerder":"Amazon","puntType":"helix","bezettingsgraad":50,"latitude":43.809065,"longitude":10.69179,"canPickup":true,"canDropoff":false,"openingstijden":null}},{"type":"Feature","geometry":{"type":"Point","coordinates":[10.6912,43.8378]},"properties":{"type":"pakketpunt","locatieNaam":"Ufficio Postale MARGINONE","straatNaam":"VIA ANTONIO GRAMSCI 3","straatNr":"","vervoerder":"Amazon","puntType":"3p","bezettingsgraad":50,"latitude":43.8378,"longitude":10.6912,"canPickup":true,"canDropoff":false,"openingstijden":null}},{"type":"Feature","geometry":{"type":"Point","coordinates":[10.6908948,43.8363304]},"properties":{"type":"pakketpunt","locatieNaam":"Amazon Locker - lampo","straatNaam":"Aquila Altopascio","straatNr":"","vervoerder":"Amazon","puntType":"locker","bezettingsgraad":50,"latitude":43.8363304,"longitude":10.6908948,"canPickup":true,"canDropoff":false,"openingstijden":null}},{"type":"Feature","geometry":{"type":"Point","coordinates":[10.64152,43.828737]},"properties":{"type":"pakketpunt","locatieNaam":"Amazon Locker - orio","straatNaam":"PAM Altopascio","straatNr":"","vervoerder":"Amazon","puntType":"locker","bezettingsgraad":50,"latitude":43.828737,"longitude":10.64152,"canPickup":true,"canDropoff":false,"openingstijden":null}},{"type":"Feature","geometry":{"type":"Point","coordinates":[10.708789,43.835084]},"properties":{"type":"pakketpunt","locatieNaam":"Amazon Locker - provvido","straatNaam":"Distributore carburanti MAC via Ponte alla Ciliegia 14 Marginone","straatNr":"","vervoerder":"Amazon","puntType":"locker","bezettingsgraad":50,"latitude":43.835084,"longitude":10.708789,"canPickup":true,"canDropoff":false,"openingstijden":null}},{"type":"Feature","geometry":{"type":"Point","coordinates":[10.6908,43.8373]},"properties":{"type":"pakketpunt","locatieNaam":"PuntoPoste TABACCHERIA N. 3","straatNaam":"PIAZZA VITTORIO EMANUELE III 4","straatNr":"","vervoerder":"Amazon","puntType":"3p","bezettingsgraad":50,"latitude":43.8373,"longitude":10.6908,"canPickup":true,"canDropoff":false,"openingstijden":null}},{"type":"Feature","geometry":{"type":"Point","coordinates":[10.676520682209025,43.81230296775655]},"properties":{"type":"pakketpunt","locatieNaam":"FedEx OnSite","straatNaam":"VIA GUGLIELMO MARCONI, 1","straatNr":"","vervoerder":"FedEx","puntType":"servicepunt","bezettingsgraad":50,"latitude":43.81230296775655,"longitude":10.676520682209025,"canPickup":true,"canDropoff":true,"openingstijden":{"ma":"09:30 - 15:00","di":"09:30 - 15:00","wo":"09:30 - 15:00","do":"09:30 - 15:00","vr":"09:30 - 15:00","za":"gesloten","zo":"gesloten"}}},{"type":"Feature","geometry":{"type":"Point","coordinates":[10.673608415137288,43.81510740639633]},"properties":{"type":"pakketpunt","locatieNaam":"FedEx OnSite","straatNaam":"VIA CAVOUR, 171","straatNr":"","vervoerder":"FedEx","puntType":"servicepunt","bezettingsgraad":50,"latitude":43.81510740639633,"longitude":10.673608415137288,"canPickup":true,"canDropoff":true,"openingstijden":{"ma":"09:00 - 13:00, 15:30 - 19:30","di":"09:00 - 13:00, 15:30 - 19:30","wo":"09:00 - 13:00, 15:30 - 19:30","do":"09:00 - 13:00, 15:30 - 19:30","vr":"09:00 - 13:00, 15:30 - 19:30","za":"09:00 - 13:00, 15:30 - 19:30","zo":"gesloten"}}},{"type":"Feature","geometry":{"type":"Polygon","coordinates":[[[10.6297699,43.8004476],[10.6303742,43.8025703],[10.6306778,43.805085],[10.6312676,43.8123477],[10.6323343,43.8231616],[10.6323839,43.824355],[10.6329681,43.8254727],[10.6364545,43.8313017],[10.6404949,43.8303381],[10.641364,43.8299229],[10.6421783,43.8292764],[10.6426072,43.8290606],[10.6427791,43.8288548],[10.6492658,43.8279142],[10.6497342,43.8277721],[10.6511103,43.8278268],[10.6535997,43.8270285],[10.6542474,43.8263897],[10.6563256,43.8253483],[10.6578486,43.8238319],[10.659158,43.8230811],[10.6631907,43.8214817],[10.6632285,43.8215297],[10.6637392,43.8214447],[10.6639651,43.8216773],[10.6625349,43.8235885],[10.6626776,43.8244531],[10.6629763,43.8250951],[10.6652636,43.825049],[10.6651115,43.8266312],[10.6645954,43.8278511],[10.6640627,43.8294877],[10.6641537,43.8298484],[10.6645981,43.8307452],[10.6660534,43.8293623],[10.6670856,43.8285655],[10.6689824,43.8275585],[10.6692109,43.8278751],[10.6745764,43.826622],[10.6749927,43.8280974],[10.6758301,43.8291692],[10.6761836,43.8298561],[10.6765913,43.8317396],[10.6764958,43.8330866],[10.6769121,43.8332406],[10.6772431,43.8336171],[10.6773091,43.8345598],[10.6774767,43.8348715],[10.6782543,43.8357502],[10.6788237,43.8357924],[10.6786952,43.8370782],[10.6784356,43.8379916],[10.6795267,43.8385525],[10.6807428,43.8386571],[10.6815057,43.839075],[10.6821164,43.8392797],[10.6831474,43.8393107],[10.6834993,43.8394298],[10.683137,43.8399767],[10.6831531,43.8402741],[10.6829366,43.8409891],[10.6829205,43.842583],[10.68231,43.8433504],[10.6841777,43.8440846],[10.6839612,43.8444602],[10.6861612,43.8450013],[10.6869288,43.8454776],[10.6867934,43.8456078],[10.6865841,43.846403],[10.6863181,43.8478847],[10.6864844,43.8479238],[10.6878622,43.8480205],[10.6894707,43.8479654],[10.6897939,43.8478372],[10.6901512,43.8479039],[10.6913166,43.8476861],[10.6915688,43.8475197],[10.6919223,43.8468783],[10.6923246,43.8466535],[10.692673,43.8465992],[10.6937422,43.8461556],[10.6941869,43.8458146],[10.6950935,43.8447663],[10.6954534,43.8444991],[10.6960129,43.8443612],[10.6992171,43.8440966],[10.7006977,43.8433924],[10.7019752,43.8426428],[10.7021418,43.8422508],[10.702087,43.8419806],[10.7034507,43.8421653],[10.7064012,43.8428981],[10.7066552,43.8423362],[10.7074708,43.8415688],[10.7077181,43.8412092],[10.709212,43.839605],[10.7108369,43.8389187],[10.7121432,43.8376321],[10.712905,43.8371805],[10.7134196,43.8367398],[10.7136346,43.8362963],[10.714083,43.8361821],[10.7159788,43.8361595],[10.717063,43.8349868],[10.7175559,43.8346408],[10.7184356,43.834259],[10.7188513,43.8331234],[10.7193053,43.8328604],[10.7199946,43.8327114],[10.7204632,43.8321369],[10.7211169,43.8310963],[10.7211531,43.8305912],[10.7210645,43.8292498],[10.7208478,43.828476],[10.7212004,43.8277436],[10.7217376,43.8271831],[10.7225632,43.8267866],[10.723406,43.8256453],[10.7245212,43.8238783],[10.7247984,43.8229883],[10.725007,43.8228609],[10.7253211,43.8228386],[10.7261976,43.820155],[10.726442,43.8186974],[10.7275757,43.8148465],[10.7278995,43.8133808],[10.7279184,43.812854],[10.7278453,43.8124822],[10.7273121,43.8111506],[10.7212708,43.8034717],[10.7209365,43.8031352],[10.7195835,43.8021487],[10.7174152,43.7983455],[10.7169346,43.7981447],[10.7159513,43.7980086],[10.7152968,43.7974987],[10.7144061,43.7959257],[10.7144814,43.7956771],[10.715363,43.7942676],[10.7152922,43.7937994],[10.7144176,43.7921342],[10.7141333,43.791387],[10.7111211,43.786485],[10.709876,43.78767],[10.7069728,43.790172],[10.7046946,43.7918333],[10.7037968,43.7927129],[10.6996729,43.7962672],[10.6985437,43.7970406],[10.6946454,43.7991679],[10.6933518,43.8000152],[10.6882287,43.8053976],[10.687864,43.8051262],[10.6876767,43.804879],[10.686363,43.8025481],[10.6853864,43.8012147],[10.6853918,43.8009671],[10.6856503,43.8004063],[10.6855468,43.8003757],[10.684656,43.8009673],[10.6832739,43.8021598],[10.68191,43.8029268],[10.6814959,43.803003],[10.68071,43.8030005],[10.6801092,43.803198],[10.6779881,43.8036401],[10.6767926,43.8033298],[10.675912,43.8032789],[10.6743108,43.8035536],[10.6718032,43.8036167],[10.6706989,43.8037748],[10.6697169,43.8040807],[10.6688069,43.8045993],[10.663625,43.8055796],[10.6616986,43.8061921],[10.661495,43.8059706],[10.6612332,43.8060409],[10.6598117,43.805227],[10.6564094,43.8035816],[10.6548822,43.802649],[10.6484795,43.797603],[10.6480552,43.7974052],[10.6456409,43.7958318],[10.6453766,43.7950911],[10.6389551,43.7993166],[10.6358979,43.8018948],[10.6334764,43.8014378],[10.6297699,43.8004476]]]},"properties":{"type":"boundary","gemeente":"Altopascio"}}]}