{"type":"FeatureCollection","metadata":{"gemeente":"Anagni","slug":"anagni","generated_at":"2026-09-26T13:09:31.962831Z","total_points":47,"providers":["PosteItaliane","DPD","InPost","GLS","DHL","Amazon"],"bounds":[13.0908945,41.711698,13.1788164,41.7877593]},"features":[{"type":"Feature","geometry":{"type":"Point","coordinates":[13.15258623,41.74413856]},"properties":{"type":"pakketpunt","locatieNaam":"Anagni","straatNaam":"Via Della Peschiera","straatNr":"7","vervoerder":"PosteItaliane","puntType":"postkantoor","bezettingsgraad":50,"latitude":41.74413856,"longitude":13.15258623,"canPickup":true,"canDropoff":true,"openingstijden":{"za":"08:20 - 12:35","zo":"gesloten","ma":"08:20 - 19:05","di":"08:20 - 19:05","wo":"08:20 - 19:05","do":"08:20 - 19:05","vr":"08:20 - 19:05"}}},{"type":"Feature","geometry":{"type":"Point","coordinates":[13.14645505,41.73600221]},"properties":{"type":"pakketpunt","locatieNaam":"Osteria Della Fontana","straatNaam":"Via Rotabile San Francesco","straatNr":"64/a","vervoerder":"PosteItaliane","puntType":"postkantoor","bezettingsgraad":50,"latitude":41.73600221,"longitude":13.14645505,"canPickup":true,"canDropoff":true,"openingstijden":{"za":"08:20 - 12:35","zo":"gesloten","ma":"08:20 - 13:35","di":"08:20 - 13:35","wo":"08:20 - 13:35","do":"08:20 - 13:35","vr":"08:20 - 13:35"}}},{"type":"Feature","geometry":{"type":"Point","coordinates":[13.15430923,41.74137434]},"properties":{"type":"pakketpunt","locatieNaam":"Tabaccheria N. 15","straatNaam":"Circonvallazione Sotto Le Mura","straatNr":"19","vervoerder":"PosteItaliane","puntType":"servicepunt","bezettingsgraad":50,"latitude":41.74137434,"longitude":13.15430923,"canPickup":true,"canDropoff":true,"openingstijden":{"za":"05:30 - 20:30","zo":"05:30 - 14:00","ma":"05:30 - 20:30","di":"05:30 - 20:30","wo":"05:30 - 20:30","do":"05:30 - 20:30","vr":"05:30 - 20:30"}}},{"type":"Feature","geometry":{"type":"Point","coordinates":[13.1683779,41.7172136]},"properties":{"type":"pakketpunt","locatieNaam":"Tabaccheria N. 30","straatNaam":"Via Ponte Spallato Fosso Del Lupo","straatNr":"23","vervoerder":"PosteItaliane","puntType":"servicepunt","bezettingsgraad":50,"latitude":41.7172136,"longitude":13.1683779,"canPickup":true,"canDropoff":true,"openingstijden":{"za":"06:00 - 13:00, 16:00 - 22:00","zo":"06:00 - 13:30, 17:00 - 23:00","ma":"gesloten","di":"06:00 - 13:00, 16:00 - 22:00","wo":"06:00 - 13:00, 16:00 - 22:00","do":"06:00 - 13:00, 16:00 - 22:00","vr":"06:00 - 13:00, 16:00 - 22:00"}}},{"type":"Feature","geometry":{"type":"Point","coordinates":[13.15866807,41.72556268]},"properties":{"type":"pakketpunt","locatieNaam":"Tabaccheria N. 25","straatNaam":"Via Casilina Km","straatNr":"63,300","vervoerder":"PosteItaliane","puntType":"servicepunt","bezettingsgraad":50,"latitude":41.72556268,"longitude":13.15866807,"canPickup":true,"canDropoff":true,"openingstijden":{"za":"08:00 - 13:00, 15:30 - 20:00","zo":"gesloten","ma":"08:00 - 13:00, 15:30 - 20:00","di":"08:00 - 13:00, 15:30 - 20:00","wo":"08:00 - 13:00, 15:30 - 20:00","do":"08:00 - 13:00, 15:30 - 20:00","vr":"08:00 - 13:00, 15:30 - 20:00"}}},{"type":"Feature","geometry":{"type":"Point","coordinates":[13.16634285,41.74137786]},"properties":{"type":"pakketpunt","locatieNaam":"Tabaccheria N. 20","straatNaam":"Via Della Sanita'","straatNr":"2","vervoerder":"PosteItaliane","puntType":"servicepunt","bezettingsgraad":50,"latitude":41.74137786,"longitude":13.16634285,"canPickup":true,"canDropoff":true,"openingstijden":{"za":"07:00 - 20:00","zo":"07:00 - 13:00","ma":"07:30 - 20:00","di":"07:00 - 20:00","wo":"07:00 - 20:00","do":"07:00 - 20:00","vr":"07:00 - 20:00"}}},{"type":"Feature","geometry":{"type":"Point","coordinates":[13.14970178,41.74723177]},"properties":{"type":"pakketpunt","locatieNaam":"Tabaccheria N. 5","straatNaam":"Piazza Bonghi","straatNr":"3","vervoerder":"PosteItaliane","puntType":"servicepunt","bezettingsgraad":50,"latitude":41.74723177,"longitude":13.14970178,"canPickup":true,"canDropoff":true,"openingstijden":{"za":"08:00 - 13:00, 16:30 - 20:30","zo":"gesloten","ma":"07:30 - 13:30, 16:30 - 20:00","di":"07:30 - 13:30, 16:30 - 20:00","wo":"07:30 - 13:30, 16:30 - 20:00","do":"07:30 - 13:30, 16:30 - 20:00","vr":"07:30 - 13:30, 16:30 - 20:00"}}},{"type":"Feature","geometry":{"type":"Point","coordinates":[13.09478064,41.71173424]},"properties":{"type":"pakketpunt","locatieNaam":"Tabaccheria N. 11","straatNaam":"Via Anagni Gavignano","straatNr":"3","vervoerder":"PosteItaliane","puntType":"servicepunt","bezettingsgraad":50,"latitude":41.71173424,"longitude":13.09478064,"canPickup":true,"canDropoff":true,"openingstijden":{"za":"06:00 - 13:00, 14:00 - 19:00","zo":"gesloten","ma":"06:00 - 20:00","di":"06:00 - 20:00","wo":"06:00 - 20:00","do":"06:00 - 20:00","vr":"06:00 - 20:00"}}},{"type":"Feature","geometry":{"type":"Point","coordinates":[13.14439214,41.76905651]},"properties":{"type":"pakketpunt","locatieNaam":"Tabaccheria N. 8","straatNaam":"Via San Filippo","straatNr":"45","vervoerder":"PosteItaliane","puntType":"servicepunt","bezettingsgraad":50,"latitude":41.76905651,"longitude":13.14439214,"canPickup":true,"canDropoff":true,"openingstijden":{"za":"06:30 - 12:45, 13:05 - 23:59","zo":"06:30 - 12:45, 13:05 - 23:59","ma":"06:30 - 12:45, 13:05 - 23:59","di":"06:30 - 12:45, 13:05 - 23:59","wo":"06:30 - 12:45, 13:05 - 23:59","do":"06:30 - 12:45, 13:05 - 23:59","vr":"06:30 - 12:45, 13:05 - 23:59"}}},{"type":"Feature","geometry":{"type":"Point","coordinates":[13.146394,41.728799]},"properties":{"type":"pakketpunt","locatieNaam":"Newton","straatNaam":"VIA CASILINA KM 62.975 C/O CENTRO C","straatNr":"snc","vervoerder":"DPD","puntType":"pickup_point","bezettingsgraad":50,"latitude":41.728799,"longitude":13.146394,"canPickup":true,"canDropoff":true,"openingstijden":{"ma":"09:00 - 19:30","di":"09:00 - 12:30, 16:00 - 19:30","wo":"09:00 - 19:30","do":"09:00 - 12:30, 16:00 - 19:30","vr":"09:00 - 12:30, 16:00 - 19:30","za":"09:30 - 12:30","zo":"gesloten"}}},{"type":"Feature","geometry":{"type":"Point","coordinates":[13.11734671,41.73717259]},"properties":{"type":"pakketpunt","locatieNaam":"Leone Srl","straatNaam":"VIA ANTICOLANA","straatNr":"53","vervoerder":"DPD","puntType":"pickup_point","bezettingsgraad":50,"latitude":41.73717259,"longitude":13.11734671,"canPickup":true,"canDropoff":true,"openingstijden":{"ma":"09:00 - 13:00, 14:00 - 18:00","di":"09:00 - 13:00, 14:00 - 18:00","wo":"09:00 - 13:00, 14:00 - 18:00","do":"09:00 - 13:00, 14:00 - 18:00","vr":"09:00 - 13:00, 14:00 - 18:00","za":"09:00 - 13:00","zo":"gesloten"}}},{"type":"Feature","geometry":{"type":"Point","coordinates":[13.1449708988,41.7279059022]},"properties":{"type":"pakketpunt","locatieNaam":"Spazio Musica di Pica Simone","straatNaam":"VIA CASILINA KM 62","straatNr":"800","vervoerder":"DPD","puntType":"pickup_point","bezettingsgraad":50,"latitude":41.7279059022,"longitude":13.1449708988,"canPickup":true,"canDropoff":true,"openingstijden":{"ma":"09:00 - 13:00, 16:00 - 19:30","di":"09:00 - 13:00, 16:00 - 19:30","wo":"09:00 - 13:00, 16:00 - 19:30","do":"09:00 - 13:00, 16:00 - 19:30","vr":"09:00 - 13:00, 16:00 - 19:30","za":"09:00 - 13:00, 16:00 - 19:30","zo":"gesloten"}}},{"type":"Feature","geometry":{"type":"Point","coordinates":[13.1570421,41.7430307]},"properties":{"type":"pakketpunt","locatieNaam":"Ferramenta Bruni","straatNaam":"VIA PISCINA","straatNr":"2","vervoerder":"DPD","puntType":"pickup_point","bezettingsgraad":50,"latitude":41.7430307,"longitude":13.1570421,"canPickup":true,"canDropoff":true,"openingstijden":{"ma":"08:00 - 13:00, 15:30 - 19:30","di":"08:00 - 13:00, 15:30 - 19:30","wo":"08:00 - 13:00, 15:30 - 19:30","do":"08:00 - 13:00, 15:30 - 19:30","vr":"08:00 - 13:00, 15:30 - 19:30","za":"08:00 - 13:00","zo":"gesloten"}}},{"type":"Feature","geometry":{"type":"Point","coordinates":[13.15440862,41.74136373]},"properties":{"type":"pakketpunt","locatieNaam":"Caffé del Borgo","straatNaam":"BORGO S. F. D' ASSISI","straatNr":"3","vervoerder":"DPD","puntType":"pickup_point","bezettingsgraad":50,"latitude":41.74136373,"longitude":13.15440862,"canPickup":true,"canDropoff":true,"openingstijden":{"ma":"05:30 - 20:30","di":"05:30 - 20:30","wo":"05:30 - 20:30","do":"05:30 - 20:30","vr":"05:30 - 20:30","za":"05:30 - 20:30","zo":"06:00 - 14:00"}}},{"type":"Feature","geometry":{"type":"Point","coordinates":[13.14941632,41.7469266]},"properties":{"type":"pakketpunt","locatieNaam":"Tabacchi di Frattale Iacopo","straatNaam":"P.ZZA R. BONGHI","straatNr":"3","vervoerder":"DPD","puntType":"pickup_point","bezettingsgraad":50,"latitude":41.7469266,"longitude":13.14941632,"canPickup":true,"canDropoff":true,"openingstijden":{"ma":"07:30 - 13:00, 16:30 - 20:00","di":"07:30 - 13:00, 16:30 - 20:00","wo":"07:30 - 13:00, 16:30 - 20:00","do":"07:30 - 13:00, 16:30 - 20:00","vr":"07:30 - 13:00, 16:30 - 20:00","za":"07:30 - 13:00, 16:30 - 20:00","zo":"gesloten"}}},{"type":"Feature","geometry":{"type":"Point","coordinates":[13.166375,41.74134]},"properties":{"type":"pakketpunt","locatieNaam":"Tabaccheria Lanotte","straatNaam":"VIA DELLA SANITA","straatNr":"12","vervoerder":"DPD","puntType":"pickup_point","bezettingsgraad":50,"latitude":41.74134,"longitude":13.166375,"canPickup":true,"canDropoff":true,"openingstijden":{"ma":"07:00 - 20:00","di":"07:00 - 20:00","wo":"07:00 - 20:00","do":"07:00 - 20:00","vr":"07:00 - 20:00","za":"07:00 - 20:00","zo":"07:00 - 13:00"}}},{"type":"Feature","geometry":{"type":"Point","coordinates":[13.14431,41.72849]},"properties":{"type":"pakketpunt","locatieNaam":"InPost Locker 24/7","straatNaam":"Via Casilina","straatNr":"Km 62","vervoerder":"InPost","puntType":"automaat","bezettingsgraad":50,"latitude":41.72849,"longitude":13.14431,"canPickup":true,"canDropoff":true,"openingstijden":null}},{"type":"Feature","geometry":{"type":"Point","coordinates":[13.14506,41.72793]},"properties":{"type":"pakketpunt","locatieNaam":"InPost Point","straatNaam":"Via Casilina","straatNr":"snc","vervoerder":"InPost","puntType":"servicepunt","bezettingsgraad":50,"latitude":41.72793,"longitude":13.14506,"canPickup":true,"canDropoff":true,"openingstijden":"Lun-Ven: 09:00 - 13:00 - 16:00 - 19:30 Sab: 09:00 - 13:00- 16:00-19:30"}},{"type":"Feature","geometry":{"type":"Point","coordinates":[13.14959,41.74691]},"properties":{"type":"pakketpunt","locatieNaam":"InPost Point","straatNaam":"Piazza Bonghi, 3, Anagni, Province of Frosinone, Italy","straatNr":"3","vervoerder":"InPost","puntType":"servicepunt","bezettingsgraad":50,"latitude":41.74691,"longitude":13.14959,"canPickup":true,"canDropoff":true,"openingstijden":"Lun-Gio 07:30-13:30, 16:30-20:00; Ven 07:30-13:00, 16:30-20:00; Sab 07:30-13:30, 16:30-20:00"}},{"type":"Feature","geometry":{"type":"Point","coordinates":[13.11751,41.73717]},"properties":{"type":"pakketpunt","locatieNaam":"InPost Point","straatNaam":"Via Anticolana","straatNr":"53","vervoerder":"InPost","puntType":"servicepunt","bezettingsgraad":50,"latitude":41.73717,"longitude":13.11751,"canPickup":true,"canDropoff":true,"openingstijden":"Lun-Ven: 09:00 - 13:00 - 14:00 - 18:00 Sab: 09:30 - 13:00"}},{"type":"Feature","geometry":{"type":"Point","coordinates":[13.1788164,41.7234911]},"properties":{"type":"pakketpunt","locatieNaam":"EFFE 2 CART SAS","straatNaam":"Via Casilina","straatNr":"SNC","vervoerder":"GLS","puntType":"parcel_shop","bezettingsgraad":50,"latitude":41.7234911,"longitude":13.1788164,"canPickup":true,"canDropoff":true,"openingstijden":"ma: 09:00 - 13:00, 15:30 - 19:00; di: 09:00 - 13:00, 15:30 - 19:00"}},{"type":"Feature","geometry":{"type":"Point","coordinates":[13.0908945,41.7311742]},"properties":{"type":"pakketpunt","locatieNaam":"Tag Camici Italia","straatNaam":"Traversa Terza Di Via Cangiano San Bartolomeo","straatNr":"11A","vervoerder":"GLS","puntType":"parcel_shop","bezettingsgraad":50,"latitude":41.7311742,"longitude":13.0908945,"canPickup":true,"canDropoff":true,"openingstijden":"za: 08:30 - 13:00, 14:30 - 20:00; ma: 08:30 - 13:00, 14:30 - 20:00"}},{"type":"Feature","geometry":{"type":"Point","coordinates":[13.1173447,41.7371801]},"properties":{"type":"pakketpunt","locatieNaam":"LEONE SRL","straatNaam":"Via Anticolana","straatNr":"53","vervoerder":"GLS","puntType":"parcel_shop","bezettingsgraad":50,"latitude":41.7371801,"longitude":13.1173447,"canPickup":true,"canDropoff":true,"openingstijden":"za: 09:00 - 13:00; ma: 09:00 - 13:00, 14:00 - 18:00"}},{"type":"Feature","geometry":{"type":"Point","coordinates":[13.1539218,41.7413137]},"properties":{"type":"pakketpunt","locatieNaam":"Caffe del borgo","straatNaam":"Borgo S. Francesco D'Assisi","straatNr":"3","vervoerder":"GLS","puntType":"parcel_shop","bezettingsgraad":50,"latitude":41.7413137,"longitude":13.1539218,"canPickup":true,"canDropoff":true,"openingstijden":"za: 05:30 - 20:30; zo: 05:30 - 14:00"}},{"type":"Feature","geometry":{"type":"Point","coordinates":[13.166375,41.74134]},"properties":{"type":"pakketpunt","locatieNaam":"tabacchi lanotte","straatNaam":"Via Della Sanita'","straatNr":"12","vervoerder":"GLS","puntType":"parcel_shop","bezettingsgraad":50,"latitude":41.74134,"longitude":13.166375,"canPickup":true,"canDropoff":true,"openingstijden":"za: 07:00 - 20:00; zo: 07:00 - 13:00"}},{"type":"Feature","geometry":{"type":"Point","coordinates":[13.1570421,41.7430307]},"properties":{"type":"pakketpunt","locatieNaam":"Ferramenta Bruni","straatNaam":"Via Piscina","straatNr":"2","vervoerder":"GLS","puntType":"parcel_shop","bezettingsgraad":50,"latitude":41.7430307,"longitude":13.1570421,"canPickup":true,"canDropoff":true,"openingstijden":"za: 08:00 - 13:00; ma: 08:00 - 13:00, 15:30 - 19:30"}},{"type":"Feature","geometry":{"type":"Point","coordinates":[13.1518199,41.7455871]},"properties":{"type":"pakketpunt","locatieNaam":"Gamemania","straatNaam":"Viale Regina Margherita","straatNr":"22","vervoerder":"GLS","puntType":"parcel_shop","bezettingsgraad":50,"latitude":41.7455871,"longitude":13.1518199,"canPickup":true,"canDropoff":true,"openingstijden":"za: 10:00 - 12:30, 17:00 - 20:00; ma: 10:00 - 12:30, 17:00 - 19:30"}},{"type":"Feature","geometry":{"type":"Point","coordinates":[13.094781,41.711734]},"properties":{"type":"pakketpunt","locatieNaam":"TABACCHERIA N. 11","straatNaam":"VIA ANAGNI GAVIGNANO 3","straatNr":"","vervoerder":"DHL","puntType":"parcelShop","bezettingsgraad":50,"latitude":41.711734,"longitude":13.094781,"canPickup":true,"canDropoff":true,"openingstijden":{"ma":"06:00 - 20:00","di":"06:00 - 20:00","wo":"06:00 - 20:00","do":"06:00 - 20:00","vr":"06:00 - 20:00","za":"06:00 - 13:00, 14:00 - 19:00","zo":"gesloten"}}},{"type":"Feature","geometry":{"type":"Point","coordinates":[13.158668,41.725563]},"properties":{"type":"pakketpunt","locatieNaam":"TABACCHERIA N. 25","straatNaam":"VIA CASILINA Km 63,300","straatNr":"","vervoerder":"DHL","puntType":"parcelShop","bezettingsgraad":50,"latitude":41.725563,"longitude":13.158668,"canPickup":true,"canDropoff":true,"openingstijden":{"ma":"08:00 - 13:00, 15:30 - 20:00","di":"08:00 - 13:00, 15:30 - 20:00","wo":"08:00 - 13:00, 15:30 - 20:00","do":"08:00 - 13:00, 15:30 - 20:00","vr":"08:00 - 13:00, 15:30 - 20:00","za":"08:00 - 13:00, 15:30 - 20:00","zo":"gesloten"}}},{"type":"Feature","geometry":{"type":"Point","coordinates":[13.146455,41.736002]},"properties":{"type":"pakketpunt","locatieNaam":"Ufficio Postale OSTERIA DELLA FONTA","straatNaam":"VIA ROTABILE SAN FRANCESCO 64-A","straatNr":"","vervoerder":"DHL","puntType":"postOffice","bezettingsgraad":50,"latitude":41.736002,"longitude":13.146455,"canPickup":true,"canDropoff":true,"openingstijden":{"ma":"08:20 - 13:35","di":"08:20 - 13:35","wo":"08:20 - 13:35","do":"08:20 - 13:35","vr":"08:20 - 13:35","za":"08:20 - 12:35","zo":"gesloten"}}},{"type":"Feature","geometry":{"type":"Point","coordinates":[13.144392,41.769057]},"properties":{"type":"pakketpunt","locatieNaam":"TABACCHERIA N. 8","straatNaam":"VIA SAN FILIPPO 45","straatNr":"","vervoerder":"DHL","puntType":"parcelShop","bezettingsgraad":50,"latitude":41.769057,"longitude":13.144392,"canPickup":true,"canDropoff":true,"openingstijden":{"ma":"06:30 - 12:45, 13:05 - 23:59","di":"06:30 - 12:45, 13:05 - 23:59","wo":"06:30 - 12:45, 13:05 - 23:59","do":"06:30 - 12:45, 13:05 - 23:59","vr":"06:30 - 12:45, 13:05 - 23:59","za":"06:30 - 12:45, 13:05 - 23:59","zo":"06:30 - 12:45, 13:05 - 23:59"}}},{"type":"Feature","geometry":{"type":"Point","coordinates":[13.149702,41.747232]},"properties":{"type":"pakketpunt","locatieNaam":"TABACCHERIA N. 5","straatNaam":"PIAZZA BONGHI 3","straatNr":"","vervoerder":"DHL","puntType":"parcelShop","bezettingsgraad":50,"latitude":41.747232,"longitude":13.149702,"canPickup":true,"canDropoff":true,"openingstijden":{"ma":"07:30 - 13:30, 16:30 - 20:00","di":"07:30 - 13:30, 16:30 - 20:00","wo":"07:30 - 13:30, 16:30 - 20:00","do":"07:30 - 13:30, 16:30 - 20:00","vr":"07:30 - 13:30, 16:30 - 20:00","za":"08:00 - 13:00, 16:30 - 20:30","zo":"gesloten"}}},{"type":"Feature","geometry":{"type":"Point","coordinates":[13.152586,41.744139]},"properties":{"type":"pakketpunt","locatieNaam":"Ufficio Postale ANAGNI","straatNaam":"VIA DELLA PESCHIERA 7","straatNr":"","vervoerder":"DHL","puntType":"postOffice","bezettingsgraad":50,"latitude":41.744139,"longitude":13.152586,"canPickup":true,"canDropoff":true,"openingstijden":{"ma":"08:20 - 19:05","di":"08:20 - 19:05","wo":"08:20 - 19:05","do":"08:20 - 19:05","vr":"08:20 - 19:05","za":"08:20 - 12:35","zo":"gesloten"}}},{"type":"Feature","geometry":{"type":"Point","coordinates":[13.15751,41.742928]},"properties":{"type":"pakketpunt","locatieNaam":"FREE BAND","straatNaam":"Via Piscina 68","straatNr":"","vervoerder":"DHL","puntType":"parcelShop","bezettingsgraad":50,"latitude":41.742928,"longitude":13.15751,"canPickup":false,"canDropoff":true,"openingstijden":{"ma":"09:00 - 20:00","di":"09:00 - 20:00","wo":"09:00 - 20:00","do":"09:00 - 20:00","vr":"09:00 - 20:00","za":"09:00 - 13:00","zo":"gesloten"}}},{"type":"Feature","geometry":{"type":"Point","coordinates":[13.154309,41.741374]},"properties":{"type":"pakketpunt","locatieNaam":"TABACCHERIA N. 15","straatNaam":"CIRCONVALLAZIONE SOTTO LE MURA 19","straatNr":"","vervoerder":"DHL","puntType":"parcelShop","bezettingsgraad":50,"latitude":41.741374,"longitude":13.154309,"canPickup":true,"canDropoff":true,"openingstijden":{"ma":"05:30 - 20:30","di":"05:30 - 20:30","wo":"05:30 - 20:30","do":"05:30 - 20:30","vr":"05:30 - 20:30","za":"05:30 - 20:30","zo":"05:30 - 14:00"}}},{"type":"Feature","geometry":{"type":"Point","coordinates":[13.166343,41.741378]},"properties":{"type":"pakketpunt","locatieNaam":"TABACCHERIA N. 20","straatNaam":"VIA DELLA SANITA 2","straatNr":"","vervoerder":"DHL","puntType":"parcelShop","bezettingsgraad":50,"latitude":41.741378,"longitude":13.166343,"canPickup":true,"canDropoff":true,"openingstijden":{"ma":"07:30 - 20:00","di":"07:00 - 20:00","wo":"07:00 - 20:00","do":"07:00 - 20:00","vr":"07:00 - 20:00","za":"07:00 - 20:00","zo":"07:00 - 13:00"}}},{"type":"Feature","geometry":{"type":"Point","coordinates":[13.115113,41.728822]},"properties":{"type":"pakketpunt","locatieNaam":"Amazon Locker - bennato","straatNaam":"Tigre Anagni","straatNr":"","vervoerder":"Amazon","puntType":"locker","bezettingsgraad":50,"latitude":41.728822,"longitude":13.115113,"canPickup":true,"canDropoff":false,"openingstijden":null}},{"type":"Feature","geometry":{"type":"Point","coordinates":[13.14804,41.728303]},"properties":{"type":"pakketpunt","locatieNaam":"Amazon Locker - ermellina","straatNaam":"Conad Anagni","straatNr":"","vervoerder":"Amazon","puntType":"locker","bezettingsgraad":50,"latitude":41.728303,"longitude":13.14804,"canPickup":true,"canDropoff":false,"openingstijden":null}},{"type":"Feature","geometry":{"type":"Point","coordinates":[13.144094,41.736422]},"properties":{"type":"pakketpunt","locatieNaam":"Amazon Counter - NO GLUTEN ANAGNI","straatNaam":"Via Rotabile S. Francesco, 28","straatNr":"","vervoerder":"Amazon","puntType":"helix","bezettingsgraad":50,"latitude":41.736422,"longitude":13.144094,"canPickup":true,"canDropoff":false,"openingstijden":null}},{"type":"Feature","geometry":{"type":"Point","coordinates":[13.094894,41.711698]},"properties":{"type":"pakketpunt","locatieNaam":"Amazon Counter - BAR SCAPPATICCI","straatNaam":"PROVINCIALE ANAGNI GAVIGNANO 3","straatNr":"","vervoerder":"Amazon","puntType":"helix","bezettingsgraad":50,"latitude":41.711698,"longitude":13.094894,"canPickup":true,"canDropoff":false,"openingstijden":null}},{"type":"Feature","geometry":{"type":"Point","coordinates":[13.1494163162552,41.7469265964508]},"properties":{"type":"pakketpunt","locatieNaam":"Amazon Counter","straatNaam":"Tabacchi di Frattale Iacopo (fermopoint)","straatNr":"","vervoerder":"Amazon","puntType":"helix","bezettingsgraad":50,"latitude":41.7469265964508,"longitude":13.1494163162552,"canPickup":true,"canDropoff":false,"openingstijden":null}},{"type":"Feature","geometry":{"type":"Point","coordinates":[13.0947,41.7117]},"properties":{"type":"pakketpunt","locatieNaam":"PuntoPoste TABACCHERIA N. 11","straatNaam":"VIA ANAGNI GAVIGNANO 3","straatNr":"","vervoerder":"Amazon","puntType":"3p","bezettingsgraad":50,"latitude":41.7117,"longitude":13.0947,"canPickup":true,"canDropoff":false,"openingstijden":null}},{"type":"Feature","geometry":{"type":"Point","coordinates":[13.157036,41.742857]},"properties":{"type":"pakketpunt","locatieNaam":"Amazon Counter (fermopoint)","straatNaam":"Ferramenta Bruni","straatNr":"","vervoerder":"Amazon","puntType":"helix","bezettingsgraad":50,"latitude":41.742857,"longitude":13.157036,"canPickup":true,"canDropoff":false,"openingstijden":null}},{"type":"Feature","geometry":{"type":"Point","coordinates":[13.1683,41.7172]},"properties":{"type":"pakketpunt","locatieNaam":"PuntoPoste TABACCHERIA N. 30","straatNaam":"VIA PONTE SPALLATO FOSSO DEL LUPO 23","straatNr":"","vervoerder":"Amazon","puntType":"3p","bezettingsgraad":50,"latitude":41.7172,"longitude":13.1683,"canPickup":true,"canDropoff":false,"openingstijden":null}},{"type":"Feature","geometry":{"type":"Point","coordinates":[13.1663,41.7413]},"properties":{"type":"pakketpunt","locatieNaam":"PuntoPoste TABACCHERIA N. 20","straatNaam":"VIA DELLA SANITA' 2","straatNr":"","vervoerder":"Amazon","puntType":"3p","bezettingsgraad":50,"latitude":41.7413,"longitude":13.1663,"canPickup":true,"canDropoff":false,"openingstijden":null}},{"type":"Feature","geometry":{"type":"Point","coordinates":[13.1577504,41.7423976]},"properties":{"type":"pakketpunt","locatieNaam":"Amazon Counter - PRIMAEDICOLA","straatNaam":"ED. PAOLA DI ROMEI CRISTINA ?","straatNr":"","vervoerder":"Amazon","puntType":"helix","bezettingsgraad":50,"latitude":41.7423976,"longitude":13.1577504,"canPickup":true,"canDropoff":false,"openingstijden":null}},{"type":"Feature","geometry":{"type":"Point","coordinates":[13.1269156,41.7877593]},"properties":{"type":"pakketpunt","locatieNaam":"Amazon Counter (fermopoint)","straatNaam":"Leone Srl","straatNr":"","vervoerder":"Amazon","puntType":"helix","bezettingsgraad":50,"latitude":41.7877593,"longitude":13.1269156,"canPickup":true,"canDropoff":false,"openingstijden":null}},{"type":"Feature","geometry":{"type":"Polygon","coordinates":[[[13.0868225,41.7188022],[13.08701,41.7193538],[13.0866885,41.7196624],[13.086016,41.7200736],[13.0856501,41.7206629],[13.085071,41.7211022],[13.0846999,41.7218718],[13.0839001,41.7225261],[13.0827156,41.7231085],[13.0823602,41.7237245],[13.0824317,41.7245908],[13.0823992,41.7256545],[13.0820688,41.7262966],[13.0821281,41.7271364],[13.0827157,41.7283581],[13.0828083,41.7296874],[13.0831615,41.7303412],[13.084048,41.7308499],[13.0855973,41.731326],[13.086629,41.7318025],[13.0872073,41.7322859],[13.0869453,41.7345105],[13.0863387,41.7347077],[13.0855434,41.7351998],[13.0857511,41.7358677],[13.0867499,41.7366515],[13.0865886,41.7384311],[13.0863217,41.7389134],[13.0857045,41.7394531],[13.0858115,41.7403092],[13.0853294,41.7407406],[13.0831661,41.7419117],[13.0810119,41.7427672],[13.0800618,41.7435799],[13.0797563,41.7441895],[13.0797755,41.7447291],[13.0791496,41.7451341],[13.0781752,41.7455514],[13.0762573,41.7461553],[13.0750795,41.7461386],[13.0753933,41.7444842],[13.0752452,41.7438186],[13.0744456,41.7431897],[13.07347,41.7428417],[13.0726198,41.7423496],[13.0708325,41.7417602],[13.0692012,41.7408231],[13.0673504,41.7407852],[13.0656992,41.7409113],[13.0640891,41.74127],[13.0629841,41.742061],[13.0625436,41.7430806],[13.0636214,41.7468558],[13.064577,41.7482311],[13.065833,41.7496858],[13.0668958,41.7507107],[13.0669921,41.751117],[13.067332,41.7514291],[13.0681909,41.7516777],[13.069849,41.7517045],[13.0702649,41.7522795],[13.070317,41.7529485],[13.0723768,41.7540369],[13.0729708,41.7539123],[13.0738282,41.7534226],[13.0744746,41.7534942],[13.0751048,41.7537374],[13.0772887,41.753903],[13.0775628,41.7540058],[13.0782257,41.7539462],[13.0790781,41.7539969],[13.0815267,41.7553595],[13.0821074,41.7560637],[13.0826674,41.7570198],[13.0833844,41.7571903],[13.0838171,41.7573901],[13.085528,41.7586427],[13.0874421,41.7589891],[13.088373,41.7598743],[13.0884993,41.7602348],[13.0879528,41.7623596],[13.0875821,41.7628192],[13.086648,41.7633926],[13.0873912,41.7636376],[13.0881739,41.764469],[13.0891882,41.7650198],[13.0901625,41.7657048],[13.0908006,41.766294],[13.0913676,41.7664972],[13.0933962,41.7658856],[13.0949684,41.7659435],[13.0949906,41.7661846],[13.0947607,41.7672556],[13.0951266,41.7683236],[13.0961883,41.7686716],[13.0981197,41.7688387],[13.098516,41.7689598],[13.0999812,41.7687781],[13.1003442,41.7688531],[13.10064,41.7691996],[13.1008829,41.7697538],[13.1005133,41.7702373],[13.0996554,41.7705929],[13.0995459,41.7717157],[13.0986986,41.7738163],[13.0984275,41.774152],[13.0980966,41.774408],[13.0976799,41.774576],[13.0961731,41.7750213],[13.0958469,41.7754748],[13.0955764,41.77567],[13.0931557,41.7762638],[13.0899529,41.7767988],[13.0881983,41.7773616],[13.087579,41.7779985],[13.0867805,41.7780386],[13.0864958,41.7781781],[13.0867146,41.7794126],[13.0870096,41.7801851],[13.0878255,41.7810722],[13.0886632,41.78167],[13.0904318,41.7824749],[13.0909602,41.7824763],[13.0920417,41.7822984],[13.0927876,41.7820233],[13.0931353,41.7815561],[13.0939186,41.7819043],[13.0951035,41.781368],[13.0951474,41.7820747],[13.0958193,41.7845554],[13.0962397,41.7853597],[13.0980559,41.7874379],[13.0989023,41.7881055],[13.101189,41.7889197],[13.1031959,41.7890235],[13.1048472,41.7893779],[13.1062193,41.7893566],[13.1068749,41.7898496],[13.1067147,41.7914964],[13.1075956,41.7920445],[13.1087676,41.7922861],[13.1109888,41.7920715],[13.1123021,41.7924161],[13.1130602,41.7924294],[13.1163042,41.7909714],[13.118976,41.7901506],[13.1205667,41.7904716],[13.1221372,41.7906763],[13.1227559,41.7901228],[13.1232808,41.7890324],[13.1241685,41.787902],[13.1252334,41.7876836],[13.126571,41.7880317],[13.1282132,41.7882652],[13.1267543,41.7871157],[13.1333804,41.7872687],[13.1344036,41.7868447],[13.1356047,41.7853066],[13.1358648,41.7833658],[13.1360919,41.7829704],[13.1371656,41.782468],[13.1383434,41.7833485],[13.1391275,41.7836848],[13.1406571,41.7840618],[13.141825,41.7840647],[13.1434117,41.7836832],[13.146053,41.7826558],[13.1474136,41.7822194],[13.1486354,41.7819861],[13.1535262,41.7834614],[13.1547692,41.7833353],[13.1562483,41.7829531],[13.1579383,41.7827748],[13.161395,41.7826404],[13.1650022,41.7819151],[13.1662762,41.7815492],[13.167371,41.7811223],[13.168808,41.7809395],[13.1700712,41.7809521],[13.1732476,41.7818045],[13.1740702,41.781644],[13.1773886,41.7804922],[13.1788882,41.7801989],[13.1839819,41.7796305],[13.184978,41.779306],[13.1875649,41.778023],[13.1890702,41.7775404],[13.1904361,41.7773194],[13.1921479,41.7772028],[13.1931737,41.7766881],[13.1932819,41.7764244],[13.1950694,41.7751511],[13.1955979,41.7743214],[13.1957856,41.7736392],[13.196237,41.7734021],[13.1933664,41.7715306],[13.1922859,41.7705932],[13.1916337,41.7698381],[13.1912249,41.7681108],[13.1913952,41.7654663],[13.1935756,41.7606459],[13.1941417,41.7597608],[13.1951178,41.7583969],[13.1982349,41.7553385],[13.201102,41.7534957],[13.202408,41.7523088],[13.2036928,41.7515909],[13.2055445,41.7506946],[13.2070881,41.7501203],[13.2107191,41.7501851],[13.2148174,41.7481257],[13.2166208,41.7468168],[13.2186436,41.7450047],[13.2189734,41.743939],[13.2224553,41.7432706],[13.2264045,41.742684],[13.2302043,41.7422377],[13.2318882,41.7418155],[13.2345588,41.7408345],[13.2358332,41.7404588],[13.2364017,41.739929],[13.2383698,41.7387353],[13.2400885,41.7378974],[13.2411192,41.7371075],[13.2409338,41.7359708],[13.2416834,41.7345429],[13.242223,41.7337126],[13.2430328,41.7330388],[13.2452417,41.7323358],[13.2461338,41.7322488],[13.2446777,41.7318479],[13.2431173,41.7317346],[13.2385705,41.7318127],[13.2349938,41.7337906],[13.2335187,41.7331923],[13.2330227,41.7324363],[13.2326426,41.7313518],[13.2316279,41.7302817],[13.2305219,41.7293996],[13.2302581,41.7289185],[13.2300444,41.7283637],[13.2301772,41.7274584],[13.2298825,41.7268029],[13.2304165,41.7248473],[13.2304436,41.7243106],[13.2291432,41.7240119],[13.2277152,41.7243211],[13.2266518,41.72364],[13.2262899,41.7236308],[13.2252188,41.7241925],[13.2239522,41.7247299],[13.2214427,41.7246197],[13.2218259,41.7242769],[13.221679,41.7230668],[13.2219743,41.7223581],[13.2217046,41.7221294],[13.2169423,41.724344],[13.2162123,41.7242313],[13.2158667,41.7232445],[13.2153231,41.7229043],[13.2147843,41.7228431],[13.2138382,41.7231705],[13.212349,41.7204789],[13.2112039,41.7210027],[13.2095964,41.7187161],[13.2088277,41.7190909],[13.2080935,41.7178663],[13.2070455,41.7179678],[13.2063692,41.7172272],[13.2051758,41.7164696],[13.2050065,41.7160976],[13.2053033,41.7153169],[13.2053658,41.7135362],[13.2058093,41.7131283],[13.2063013,41.7123359],[13.2076038,41.7121305],[13.2074728,41.7116311],[13.2070583,41.7114257],[13.2061648,41.7111883],[13.2060241,41.7109774],[13.2061303,41.7102352],[13.2060781,41.7095392],[13.2051732,41.7082983],[13.2064801,41.7066792],[13.2092522,41.7060147],[13.2099383,41.7055393],[13.2100053,41.7048525],[13.2099324,41.7040583],[13.2102706,41.7034877],[13.2112696,41.7021814],[13.213949,41.6991521],[13.209286,41.6974414],[13.2094496,41.6966926],[13.2086968,41.6961799],[13.2089257,41.6957303],[13.2092455,41.6946021],[13.2088496,41.6945761],[13.2079995,41.6948504],[13.207657,41.6946649],[13.2077438,41.6941529],[13.2070375,41.6935935],[13.2060119,41.6924786],[13.2069244,41.6907569],[13.2071145,41.6891021],[13.206643,41.688309],[13.2023064,41.6839658],[13.2012262,41.6835056],[13.2011148,41.6831901],[13.2014471,41.6828988],[13.2021298,41.6829953],[13.20461,41.6823597],[13.2035872,41.6815147],[13.2033551,41.6808209],[13.2032838,41.6799456],[13.203003,41.6792311],[13.201155,41.6783353],[13.1990084,41.6777521],[13.1982265,41.677353],[13.1979753,41.6768714],[13.1974357,41.6746941],[13.1965845,41.6737708],[13.1955221,41.6739402],[13.1927801,41.6753596],[13.1913189,41.6756066],[13.1896981,41.6760305],[13.1863081,41.6777975],[13.184581,41.6785628],[13.1819937,41.680431],[13.1807181,41.6809503],[13.177515,41.6811705],[13.1764665,41.6817309],[13.1746071,41.6820687],[13.1736096,41.6824652],[13.1721134,41.6827312],[13.1709698,41.6827863],[13.1701075,41.6831148],[13.1674362,41.6849812],[13.1659235,41.6857475],[13.1669186,41.687089],[13.1667521,41.6887068],[13.1673454,41.6907067],[13.1674523,41.691977],[13.1659403,41.6919553],[13.1644554,41.6917616],[13.1634112,41.6917185],[13.1605433,41.6919666],[13.1591749,41.691494],[13.1580223,41.6909203],[13.1551796,41.690036],[13.153192,41.6902295],[13.1526345,41.6895248],[13.1527377,41.6888773],[13.1530626,41.6884783],[13.1523422,41.6880182],[13.151456,41.6878972],[13.1503064,41.6882089],[13.1492709,41.6882644],[13.1487805,41.6877599],[13.1487522,41.6870765],[13.148143,41.686977],[13.1477238,41.687744],[13.1469138,41.6887593],[13.1452105,41.6895232],[13.1435024,41.6899901],[13.1410497,41.6900156],[13.1396009,41.6902885],[13.1385069,41.6907197],[13.1383171,41.691419],[13.1390417,41.6926048],[13.1394991,41.6937994],[13.1389294,41.6943647],[13.1370717,41.6946433],[13.1352066,41.6947376],[13.1337833,41.6949059],[13.1321271,41.6952492],[13.1311127,41.6950156],[13.1302352,41.6941873],[13.1295626,41.6937568],[13.1279925,41.6936377],[13.1264493,41.6937878],[13.124997,41.6941596],[13.1245267,41.6942036],[13.1243835,41.693772],[13.123932,41.6935451],[13.1237658,41.6931189],[13.1229447,41.6928197],[13.1194387,41.6927071],[13.1176468,41.6923617],[13.1161827,41.6918785],[13.1154208,41.691235],[13.1143817,41.6885529],[13.1140514,41.6874842],[13.1145114,41.684915],[13.1149986,41.6839161],[13.1160841,41.6829271],[13.11664,41.6820158],[13.1167489,41.6811339],[13.1166325,41.6801701],[13.1161475,41.679134],[13.1159889,41.6783653],[13.1159885,41.677537],[13.1163458,41.6768308],[13.1166913,41.6756929],[13.116367,41.6744349],[13.1162749,41.6734972],[13.1163481,41.6717973],[13.1162785,41.671318],[13.115409,41.6714663],[13.1119323,41.6732928],[13.1101296,41.6741452],[13.1088824,41.6748922],[13.1075853,41.6761047],[13.1061477,41.6772232],[13.1037667,41.6792894],[13.1027169,41.6798852],[13.1014433,41.6802684],[13.10058,41.6802092],[13.0999362,41.6797055],[13.0995326,41.6790851],[13.0991467,41.6788237],[13.0988638,41.6789559],[13.0987667,41.6798013],[13.0980152,41.6824934],[13.0975605,41.6860889],[13.097575,41.6868358],[13.0966884,41.6875698],[13.0958053,41.6881461],[13.0948483,41.6884459],[13.0937066,41.6880589],[13.0915363,41.6870693],[13.0912229,41.6873955],[13.0913018,41.6877035],[13.0908402,41.6894803],[13.0910986,41.6909253],[13.0911311,41.692644],[13.0916208,41.6951657],[13.0920835,41.6970132],[13.0931598,41.6988387],[13.0933157,41.6996255],[13.0938186,41.700544],[13.0947965,41.7015401],[13.0958041,41.7037102],[13.0963648,41.704226],[13.0975615,41.7044443],[13.0984827,41.7049247],[13.0987764,41.7055985],[13.0978834,41.705716],[13.0961684,41.7056016],[13.0947371,41.7056392],[13.0937469,41.7061518],[13.0918699,41.7091047],[13.0915119,41.710243],[13.0912268,41.7125538],[13.0906837,41.7130729],[13.0881901,41.7139947],[13.0869961,41.7153834],[13.0860629,41.7160424],[13.0854587,41.7169599],[13.0858272,41.7175231],[13.0865619,41.7178796],[13.0868608,41.7183417],[13.0868225,41.7188022]]]},"properties":{"type":"boundary","gemeente":"Anagni"}}]}