{"type":"FeatureCollection","metadata":{"gemeente":"Ancarano","slug":"ancarano","generated_at":"2026-09-26T13:09:31.973116Z","total_points":9,"providers":["PosteItaliane","DPD","GLS","DHL","Amazon"],"bounds":[13.7397283,42.8358378,13.74159045,42.83756402]},"features":[{"type":"Feature","geometry":{"type":"Point","coordinates":[13.74098675,42.83730578]},"properties":{"type":"pakketpunt","locatieNaam":"Ancarano","straatNaam":"Via Quattro Novembre","straatNr":"8","vervoerder":"PosteItaliane","puntType":"postkantoor","bezettingsgraad":50,"latitude":42.83730578,"longitude":13.74098675,"canPickup":true,"canDropoff":true,"openingstijden":{"za":"08:20 - 12:45","zo":"gesloten","ma":"08:20 - 13:45","di":"08:20 - 13:45","wo":"08:20 - 13:45","do":"08:20 - 13:45","vr":"08:20 - 13:45"}}},{"type":"Feature","geometry":{"type":"Point","coordinates":[13.74098963,42.83756402]},"properties":{"type":"pakketpunt","locatieNaam":"Centro Servizi 24 - Ancarano","straatNaam":"Via Madonna Della Misericordia","straatNr":"17","vervoerder":"PosteItaliane","puntType":"servicepunt","bezettingsgraad":50,"latitude":42.83756402,"longitude":13.74098963,"canPickup":true,"canDropoff":true,"openingstijden":{"za":"08:30 - 12:30","zo":"gesloten","ma":"07:30 - 12:30, 17:00 - 19:00","di":"07:30 - 12:30, 17:00 - 19:00","wo":"07:30 - 12:30, 17:00 - 19:00","do":"07:30 - 12:30, 17:00 - 19:00","vr":"07:30 - 12:30, 17:00 - 19:00"}}},{"type":"Feature","geometry":{"type":"Point","coordinates":[13.74159045,42.8372513]},"properties":{"type":"pakketpunt","locatieNaam":"Tabaccheria N. 2","straatNaam":"Via Madonna Della Misericordia","straatNr":"23/25","vervoerder":"PosteItaliane","puntType":"servicepunt","bezettingsgraad":50,"latitude":42.8372513,"longitude":13.74159045,"canPickup":true,"canDropoff":true,"openingstijden":{"za":"07:00 - 20:00","zo":"gesloten","ma":"07:00 - 20:00","di":"07:00 - 20:00","wo":"07:00 - 20:00","do":"07:00 - 20:00","vr":"07:00 - 20:00"}}},{"type":"Feature","geometry":{"type":"Point","coordinates":[13.7397283,42.8358378]},"properties":{"type":"pakketpunt","locatieNaam":"Centro Servizi 24-Ancarano","straatNaam":"VIA MADONNA DELLA MISERICORDIA 17C","straatNr":"17","vervoerder":"DPD","puntType":"pickup_point","bezettingsgraad":50,"latitude":42.8358378,"longitude":13.7397283,"canPickup":true,"canDropoff":true,"openingstijden":{"ma":"07:30 - 12:30, 17:00 - 19:00","di":"07:30 - 12:30, 17:00 - 19:00","wo":"07:30 - 12:30, 17:00 - 19:00","do":"07:30 - 12:30, 17:00 - 19:00","vr":"07:30 - 12:30, 17:00 - 19:00","za":"07:30 - 12:30, 17:00 - 19:00","zo":"gesloten"}}},{"type":"Feature","geometry":{"type":"Point","coordinates":[13.7397283,42.8358378]},"properties":{"type":"pakketpunt","locatieNaam":"centro servizi 24","straatNaam":"Viale Madonna Della Misericordia","straatNr":"17 c","vervoerder":"GLS","puntType":"parcel_shop","bezettingsgraad":50,"latitude":42.8358378,"longitude":13.7397283,"canPickup":true,"canDropoff":true,"openingstijden":"za: 08:30 - 12:30; ma: 07:30 - 12:30, 17:00 - 19:00"}},{"type":"Feature","geometry":{"type":"Point","coordinates":[13.74099,42.837564]},"properties":{"type":"pakketpunt","locatieNaam":"CENTRO SERVIZI 24 - ANCARANO","straatNaam":"VIA MADONNA DELLA MISERICORDIA 17","straatNr":"","vervoerder":"DHL","puntType":"parcelShop","bezettingsgraad":50,"latitude":42.837564,"longitude":13.74099,"canPickup":true,"canDropoff":true,"openingstijden":{"ma":"07:30 - 12:30, 17:00 - 19:00","di":"07:30 - 12:30, 17:00 - 19:00","wo":"07:30 - 12:30, 17:00 - 19:00","do":"07:30 - 12:30, 17:00 - 19:00","vr":"07:30 - 12:30, 17:00 - 19:00","za":"08:30 - 12:30","zo":"gesloten"}}},{"type":"Feature","geometry":{"type":"Point","coordinates":[13.740987,42.837306]},"properties":{"type":"pakketpunt","locatieNaam":"Ufficio Postale ANCARANO","straatNaam":"VIA QUATTRO NOVEMBRE 8","straatNr":"","vervoerder":"DHL","puntType":"postOffice","bezettingsgraad":50,"latitude":42.837306,"longitude":13.740987,"canPickup":true,"canDropoff":true,"openingstijden":{"ma":"08:20 - 13:45","di":"08:20 - 13:45","wo":"08:20 - 13:45","do":"08:20 - 13:45","vr":"08:20 - 13:45","za":"08:20 - 12:45","zo":"gesloten"}}},{"type":"Feature","geometry":{"type":"Point","coordinates":[13.739761,42.835958]},"properties":{"type":"pakketpunt","locatieNaam":"Amazon Counter","straatNaam":"Centro Servizi 24-Ancarano (fermopoint)","straatNr":"","vervoerder":"Amazon","puntType":"helix","bezettingsgraad":50,"latitude":42.835958,"longitude":13.739761,"canPickup":true,"canDropoff":false,"openingstijden":null}},{"type":"Feature","geometry":{"type":"Point","coordinates":[13.741428,42.836714]},"properties":{"type":"pakketpunt","locatieNaam":"Amazon Counter - PANICHI ROSITE","straatNaam":"VIA SAN ROCCO 2","straatNr":"","vervoerder":"Amazon","puntType":"helix","bezettingsgraad":50,"latitude":42.836714,"longitude":13.741428,"canPickup":true,"canDropoff":false,"openingstijden":null}},{"type":"Feature","geometry":{"type":"Polygon","coordinates":[[[13.7216157,42.8543454],[13.7222146,42.854651],[13.7224783,42.8553536],[13.7236142,42.8554664],[13.7248559,42.8557223],[13.7259214,42.8557536],[13.7291504,42.8551934],[13.7307424,42.8557892],[13.7319897,42.8558377],[13.7328854,42.85575],[13.734901,42.8553158],[13.7364453,42.855257],[13.7393223,42.8557937],[13.7404823,42.8558856],[13.7419845,42.8558419],[13.7429247,42.8559154],[13.7450833,42.8562984],[13.7473343,42.8563501],[13.7479054,42.8565368],[13.7482883,42.8569811],[13.748615,42.8571926],[13.7510389,42.8577423],[13.7534713,42.8585605],[13.7541047,42.8587019],[13.7558616,42.858434],[13.7565934,42.8585217],[13.757322,42.8588459],[13.7579789,42.8590335],[13.7597283,42.8591058],[13.7615484,42.8586653],[13.7629292,42.858679],[13.7644769,42.8584363],[13.7657398,42.858369],[13.7677073,42.8585524],[13.7694641,42.8589323],[13.769527,42.8584898],[13.7693804,42.854102],[13.7694437,42.8533823],[13.769744,42.8530524],[13.7702515,42.8527607],[13.7737262,42.8509609],[13.7764483,42.8488379],[13.7766033,42.8484253],[13.7765424,42.8477943],[13.7761662,42.8463945],[13.7759181,42.8459416],[13.7727195,42.8424675],[13.7727011,42.8409275],[13.7722726,42.8403196],[13.7699798,42.8374674],[13.768217,42.8356655],[13.7594542,42.8253773],[13.7536036,42.8163989],[13.751867,42.814561],[13.7510874,42.8143994],[13.7501707,42.8143714],[13.7488453,42.814591],[13.7480041,42.8150591],[13.7285814,42.8323416],[13.7257264,42.8361279],[13.7217939,42.8446748],[13.7230865,42.8539232],[13.7216157,42.8543454]]]},"properties":{"type":"boundary","gemeente":"Ancarano"}}]}