{"type":"FeatureCollection","metadata":{"gemeente":"Annone di Brianza","slug":"annone-di-brianza","generated_at":"2026-09-26T14:26:52.391025Z","total_points":1,"providers":["PosteItaliane"],"bounds":[9.33213386,45.80401105,9.33213386,45.80401105]},"features":[{"type":"Feature","geometry":{"type":"Point","coordinates":[9.33213386,45.80401105]},"properties":{"type":"pakketpunt","locatieNaam":"Annone Brianza","straatNaam":"Via Sant'antonio","straatNr":"4","vervoerder":"PosteItaliane","puntType":"postkantoor","bezettingsgraad":50,"latitude":45.80401105,"longitude":9.33213386,"canPickup":true,"canDropoff":true,"openingstijden":{"za":"gesloten","zo":"gesloten","ma":"08:20 - 13:45","di":"gesloten","wo":"08:20 - 13:45","do":"gesloten","vr":"08:20 - 13:45"}}},{"type":"Feature","geometry":{"type":"Polygon","coordinates":[[[9.3105466,45.7946697],[9.3110227,45.7955369],[9.3135174,45.8038251],[9.3152131,45.8054822],[9.3124982,45.8070879],[9.3130287,45.8076355],[9.3142032,45.807262],[9.3145136,45.8070634],[9.3149364,45.8065508],[9.3154592,45.8062236],[9.3158247,45.8066302],[9.3153078,45.8068547],[9.3152797,45.8070079],[9.3153657,45.8070975],[9.315762,45.8071582],[9.3146296,45.8078659],[9.3151753,45.8081282],[9.3151539,45.8083047],[9.3156719,45.8088464],[9.3156386,45.8091052],[9.3157243,45.809196],[9.3148439,45.8103187],[9.3159198,45.8109099],[9.316399,45.810738],[9.316374,45.8104282],[9.316622,45.8104616],[9.3169311,45.8103413],[9.3170637,45.8105087],[9.3173307,45.810471],[9.3174675,45.8106924],[9.3179294,45.8108958],[9.3175447,45.8113348],[9.3183987,45.8117106],[9.3189374,45.8111034],[9.3190728,45.811243],[9.319277,45.8112751],[9.319137,45.8114389],[9.3190325,45.8113439],[9.3188246,45.8113226],[9.3188816,45.8115513],[9.319216,45.8116349],[9.3196202,45.811601],[9.3195874,45.8117074],[9.3197511,45.811775],[9.3194659,45.8118576],[9.3193443,45.8120105],[9.3197892,45.8119493],[9.3199203,45.8121696],[9.3201427,45.8121281],[9.3202682,45.8120079],[9.3201471,45.8122534],[9.3201959,45.8123568],[9.3204557,45.8123533],[9.3205236,45.8125629],[9.3207493,45.8124506],[9.3206989,45.8127068],[9.3212917,45.8125717],[9.3214156,45.8128111],[9.3217167,45.812911],[9.3217711,45.8126929],[9.3218268,45.8127064],[9.3219176,45.8130058],[9.3225652,45.8130755],[9.3224788,45.8131526],[9.3238889,45.813399],[9.3237897,45.8136728],[9.323916,45.8137534],[9.3322913,45.8157455],[9.3324682,45.8138419],[9.3357859,45.8146001],[9.341068,45.8128583],[9.3425018,45.8119822],[9.3516822,45.809561],[9.3511804,45.8077358],[9.347805,45.8023608],[9.3490879,45.7998622],[9.3437745,45.7966403],[9.3416822,45.7955937],[9.3409387,45.7949407],[9.3408531,45.7949868],[9.3404224,45.7946096],[9.3401251,45.7949044],[9.3396051,45.7951009],[9.3390433,45.7954713],[9.3386233,45.795144],[9.3380067,45.7953469],[9.3384455,45.7957637],[9.338257,45.7960811],[9.3374901,45.7958229],[9.3373085,45.7960977],[9.3376346,45.7963919],[9.3372643,45.7966004],[9.3364914,45.7967481],[9.3360925,45.7970689],[9.3354716,45.7966871],[9.3367164,45.7956404],[9.3360775,45.7951682],[9.335897,45.7952739],[9.3349112,45.7944492],[9.3353045,45.7941605],[9.3338142,45.7939317],[9.3328183,45.79351],[9.3323751,45.7939057],[9.3315799,45.7934433],[9.3314587,45.7935394],[9.3308994,45.7931778],[9.3292555,45.7942046],[9.3257089,45.7932642],[9.3211454,45.7922025],[9.3105745,45.7895298],[9.3093971,45.7915676],[9.3127683,45.7944701],[9.3121036,45.7949624],[9.3111804,45.7943934],[9.3108406,45.7946104],[9.3105466,45.7946697]]]},"properties":{"type":"boundary","gemeente":"Annone di Brianza"}}]}