{"type":"FeatureCollection","metadata":{"gemeente":"Anzio","slug":"anzio","generated_at":"2026-09-26T14:26:52.619805Z","total_points":122,"providers":["PosteItaliane","DPD","InPost","GLS","DHL","Amazon","FedEx"],"bounds":[12.56269,41.445856,12.632182,41.53571]},"features":[{"type":"Feature","geometry":{"type":"Point","coordinates":[12.60245203,41.50148498]},"properties":{"type":"pakketpunt","locatieNaam":"Tabaccheria N. 21","straatNaam":"Piazzale Consorzio Snc","straatNr":"1","vervoerder":"PosteItaliane","puntType":"servicepunt","bezettingsgraad":50,"latitude":41.50148498,"longitude":12.60245203,"canPickup":true,"canDropoff":true,"openingstijden":{"za":"08:30 - 13:00, 16:00 - 19:30","zo":"09:00 - 13:00","ma":"08:30 - 13:00, 16:00 - 19:30","di":"08:30 - 13:00, 16:00 - 19:30","wo":"08:30 - 13:00, 16:00 - 19:30","do":"08:30 - 13:00, 16:00 - 19:30","vr":"08:30 - 13:00, 16:00 - 19:30"}}},{"type":"Feature","geometry":{"type":"Point","coordinates":[12.63106733,41.4862073]},"properties":{"type":"pakketpunt","locatieNaam":"Tabaccheria N. 35","straatNaam":"Via Del Melograno","straatNr":"29/b","vervoerder":"PosteItaliane","puntType":"servicepunt","bezettingsgraad":50,"latitude":41.4862073,"longitude":12.63106733,"canPickup":true,"canDropoff":true,"openingstijden":{"za":"08:00 - 13:00, 15:30 - 19:30","zo":"gesloten","ma":"08:00 - 13:00, 15:30 - 19:30","di":"08:00 - 13:00, 15:30 - 19:30","wo":"08:00 - 13:00, 15:30 - 19:30","do":"08:00 - 13:00, 15:30 - 19:30","vr":"08:00 - 13:00, 15:30 - 19:30"}}},{"type":"Feature","geometry":{"type":"Point","coordinates":[12.62395317,41.50080638]},"properties":{"type":"pakketpunt","locatieNaam":"Lavinio 1","straatNaam":"Via Carlo Goldoni","straatNr":"9","vervoerder":"PosteItaliane","puntType":"postkantoor","bezettingsgraad":50,"latitude":41.50080638,"longitude":12.62395317,"canPickup":true,"canDropoff":true,"openingstijden":{"za":"08:20 - 12:35","zo":"gesloten","ma":"08:20 - 13:35","di":"08:20 - 13:35","wo":"08:20 - 13:35","do":"08:20 - 13:35","vr":"08:20 - 13:35"}}},{"type":"Feature","geometry":{"type":"Point","coordinates":[12.62719106,41.44585643]},"properties":{"type":"pakketpunt","locatieNaam":"Anzio","straatNaam":"Piazzale Orazio","straatNr":"1","vervoerder":"PosteItaliane","puntType":"postkantoor","bezettingsgraad":50,"latitude":41.44585643,"longitude":12.62719106,"canPickup":true,"canDropoff":true,"openingstijden":{"za":"08:20 - 12:35","zo":"gesloten","ma":"08:20 - 19:05","di":"08:20 - 19:05","wo":"08:20 - 19:05","do":"08:20 - 19:05","vr":"08:20 - 19:05"}}},{"type":"Feature","geometry":{"type":"Point","coordinates":[12.58443204,41.50157423]},"properties":{"type":"pakketpunt","locatieNaam":"Lavinio Lido Di Enea","straatNaam":"Corso San Francesco","straatNr":"52","vervoerder":"PosteItaliane","puntType":"postkantoor","bezettingsgraad":50,"latitude":41.50157423,"longitude":12.58443204,"canPickup":true,"canDropoff":true,"openingstijden":{"za":"08:20 - 12:35","zo":"gesloten","ma":"08:20 - 13:35","di":"08:20 - 13:35","wo":"08:20 - 13:35","do":"08:20 - 13:35","vr":"08:20 - 13:35"}}},{"type":"Feature","geometry":{"type":"Point","coordinates":[12.61617927,41.46003674]},"properties":{"type":"pakketpunt","locatieNaam":"Colonia Di Anzio","straatNaam":"Viale Marconi","straatNr":"86","vervoerder":"PosteItaliane","puntType":"postkantoor","bezettingsgraad":50,"latitude":41.46003674,"longitude":12.61617927,"canPickup":true,"canDropoff":true,"openingstijden":{"za":"08:20 - 12:35","zo":"gesloten","ma":"08:20 - 13:35","di":"08:20 - 13:35","wo":"08:20 - 13:35","do":"08:20 - 13:35","vr":"08:20 - 13:35"}}},{"type":"Feature","geometry":{"type":"Point","coordinates":[12.56302103,41.53557745]},"properties":{"type":"pakketpunt","locatieNaam":"Tabaccheria N. 20","straatNaam":"Via Ardeatina","straatNr":"559","vervoerder":"PosteItaliane","puntType":"servicepunt","bezettingsgraad":50,"latitude":41.53557745,"longitude":12.56302103,"canPickup":true,"canDropoff":true,"openingstijden":{"za":"06:30 - 13:00, 15:30 - 20:00","zo":"06:30 - 13:00","ma":"06:30 - 13:00, 15:30 - 20:00","di":"06:30 - 13:00, 15:30 - 20:00","wo":"06:30 - 13:00, 15:30 - 20:00","do":"06:30 - 13:00, 15:30 - 20:00","vr":"06:30 - 13:00, 15:30 - 20:00"}}},{"type":"Feature","geometry":{"type":"Point","coordinates":[12.61516885,41.46128153]},"properties":{"type":"pakketpunt","locatieNaam":"Tabaccheria N. 49","straatNaam":"Viale Marconi","straatNr":"120","vervoerder":"PosteItaliane","puntType":"servicepunt","bezettingsgraad":50,"latitude":41.46128153,"longitude":12.61516885,"canPickup":true,"canDropoff":true,"openingstijden":{"za":"08:30 - 13:00, 16:30 - 20:00","zo":"09:30 - 13:00","ma":"08:30 - 13:00, 16:30 - 20:00","di":"08:30 - 13:00, 16:30 - 20:00","wo":"08:30 - 13:00, 16:30 - 20:00","do":"08:30 - 13:00, 16:30 - 20:00","vr":"08:30 - 13:00, 16:30 - 20:00"}}},{"type":"Feature","geometry":{"type":"Point","coordinates":[12.62419882,41.45162281]},"properties":{"type":"pakketpunt","locatieNaam":"Tabaccheria N. 7","straatNaam":"Via Roma","straatNr":"61","vervoerder":"PosteItaliane","puntType":"servicepunt","bezettingsgraad":50,"latitude":41.45162281,"longitude":12.62419882,"canPickup":true,"canDropoff":true,"openingstijden":{"za":"08:30 - 13:00, 16:30 - 19:30","zo":"gesloten","ma":"08:30 - 13:00, 16:30 - 19:30","di":"08:30 - 13:00, 16:30 - 19:30","wo":"08:30 - 13:00, 16:30 - 19:30","do":"08:30 - 13:00, 16:30 - 19:30","vr":"08:30 - 13:00, 16:30 - 19:30"}}},{"type":"Feature","geometry":{"type":"Point","coordinates":[12.59073734,41.50085584]},"properties":{"type":"pakketpunt","locatieNaam":"Tabaccheria N. 45","straatNaam":"Viale Alla Marina","straatNr":"45","vervoerder":"PosteItaliane","puntType":"servicepunt","bezettingsgraad":50,"latitude":41.50085584,"longitude":12.59073734,"canPickup":true,"canDropoff":true,"openingstijden":{"za":"08:00 - 13:30, 16:00 - 19:30","zo":"09:00 - 13:00","ma":"08:00 - 13:30, 16:00 - 19:30","di":"08:00 - 13:30, 16:00 - 19:30","wo":"08:00 - 13:30, 16:00 - 19:30","do":"08:00 - 13:30, 16:00 - 19:30","vr":"08:00 - 13:30, 16:00 - 19:30"}}},{"type":"Feature","geometry":{"type":"Point","coordinates":[12.60950948,41.47127805]},"properties":{"type":"pakketpunt","locatieNaam":"Tabaccheria N. 34","straatNaam":"Via Alcione","straatNr":"21","vervoerder":"PosteItaliane","puntType":"servicepunt","bezettingsgraad":50,"latitude":41.47127805,"longitude":12.60950948,"canPickup":true,"canDropoff":true,"openingstijden":{"za":"06:00 - 19:30","zo":"gesloten","ma":"06:00 - 19:30","di":"06:00 - 19:30","wo":"06:00 - 19:30","do":"gesloten","vr":"gesloten"}}},{"type":"Feature","geometry":{"type":"Point","coordinates":[12.62764087,41.46254794]},"properties":{"type":"pakketpunt","locatieNaam":"Casalinghi Cinese","straatNaam":"Viale Antium","straatNr":"6","vervoerder":"PosteItaliane","puntType":"servicepunt","bezettingsgraad":50,"latitude":41.46254794,"longitude":12.62764087,"canPickup":true,"canDropoff":true,"openingstijden":{"za":"09:00 - 19:30","zo":"09:00 - 13:00","ma":"09:00 - 19:30","di":"09:00 - 19:30","wo":"09:00 - 19:30","do":"09:00 - 19:30","vr":"09:00 - 19:30"}}},{"type":"Feature","geometry":{"type":"Point","coordinates":[12.62518072,41.48720683]},"properties":{"type":"pakketpunt","locatieNaam":"Stazione Di Servizio Ip","straatNaam":"Via Nettunense Km","straatNr":"33,460","vervoerder":"PosteItaliane","puntType":"automaat","bezettingsgraad":50,"latitude":41.48720683,"longitude":12.62518072,"canPickup":true,"canDropoff":true,"openingstijden":{"za":"00:01 - 23:59","zo":"00:01 - 23:59","ma":"00:01 - 23:59","di":"00:01 - 23:59","wo":"00:01 - 23:59","do":"00:01 - 23:59","vr":"00:01 - 23:59"}}},{"type":"Feature","geometry":{"type":"Point","coordinates":[12.62838196,41.44629271]},"properties":{"type":"pakketpunt","locatieNaam":"Tabaccheria N. 2","straatNaam":"Via Venti Settembre","straatNr":"22","vervoerder":"PosteItaliane","puntType":"servicepunt","bezettingsgraad":50,"latitude":41.44629271,"longitude":12.62838196,"canPickup":true,"canDropoff":true,"openingstijden":{"za":"08:00 - 13:00, 16:00 - 19:30","zo":"08:00 - 13:00, 16:00 - 19:30","ma":"08:00 - 13:00, 16:00 - 19:30","di":"08:00 - 13:00, 16:00 - 19:30","wo":"08:00 - 13:00, 16:00 - 19:30","do":"08:00 - 13:00, 16:00 - 19:30","vr":"08:00 - 13:00, 16:00 - 19:30"}}},{"type":"Feature","geometry":{"type":"Point","coordinates":[12.62293326,41.50032611]},"properties":{"type":"pakketpunt","locatieNaam":"2r Tradings","straatNaam":"Via Di Valle Schioia","straatNr":"53","vervoerder":"PosteItaliane","puntType":"servicepunt","bezettingsgraad":50,"latitude":41.50032611,"longitude":12.62293326,"canPickup":true,"canDropoff":true,"openingstijden":{"za":"09:00 - 14:00, 15:00 - 21:00","zo":"09:00 - 14:00, 15:00 - 21:00","ma":"09:00 - 14:00, 15:00 - 21:00","di":"09:00 - 14:00, 15:00 - 21:00","wo":"09:00 - 14:00, 15:00 - 21:00","do":"09:00 - 14:00, 15:00 - 21:00","vr":"09:00 - 13:00, 16:00 - 21:00"}}},{"type":"Feature","geometry":{"type":"Point","coordinates":[12.63021276,41.44873122]},"properties":{"type":"pakketpunt","locatieNaam":"Blow Up Videonoleggio","straatNaam":"Vicolo Dei Fabbri","straatNr":"22","vervoerder":"PosteItaliane","puntType":"servicepunt","bezettingsgraad":50,"latitude":41.44873122,"longitude":12.63021276,"canPickup":true,"canDropoff":true,"openingstijden":{"za":"09:30 - 13:00, 16:30 - 19:30","zo":"gesloten","ma":"09:30 - 13:00, 16:30 - 19:30","di":"09:30 - 13:00, 16:30 - 19:30","wo":"09:30 - 13:00, 16:30 - 19:30","do":"09:30 - 13:00, 16:30 - 16:35","vr":"09:30 - 13:00, 16:30 - 19:30"}}},{"type":"Feature","geometry":{"type":"Point","coordinates":[12.62293326,41.50032611]},"properties":{"type":"pakketpunt","locatieNaam":"2r Tradings - Caf","straatNaam":"Via Di Valle Schioia","straatNr":"53","vervoerder":"PosteItaliane","puntType":"automaat","bezettingsgraad":50,"latitude":41.50032611,"longitude":12.62293326,"canPickup":true,"canDropoff":true,"openingstijden":{"za":"08:00 - 20:00","zo":"08:00 - 20:00","ma":"08:00 - 20:00","di":"08:00 - 20:00","wo":"08:00 - 20:00","do":"08:00 - 20:00","vr":"08:00 - 20:00"}}},{"type":"Feature","geometry":{"type":"Point","coordinates":[12.5847562,41.5051487]},"properties":{"type":"pakketpunt","locatieNaam":"Tabaccheria N. 50","straatNaam":"Via Ardeatina","straatNr":"590","vervoerder":"PosteItaliane","puntType":"servicepunt","bezettingsgraad":50,"latitude":41.5051487,"longitude":12.5847562,"canPickup":true,"canDropoff":true,"openingstijden":{"za":"08:30 - 12:30, 16:00 - 18:00","zo":"gesloten","ma":"08:30 - 12:30, 16:00 - 18:00","di":"08:30 - 12:30, 16:00 - 18:00","wo":"08:30 - 12:30, 16:00 - 18:00","do":"08:30 - 12:30, 16:00 - 18:00","vr":"08:30 - 12:30, 16:00 - 18:00"}}},{"type":"Feature","geometry":{"type":"Point","coordinates":[12.59638909,41.49070161]},"properties":{"type":"pakketpunt","locatieNaam":"Tabaccheria N. 12","straatNaam":"Via Ardeatina","straatNr":"380","vervoerder":"PosteItaliane","puntType":"servicepunt","bezettingsgraad":50,"latitude":41.49070161,"longitude":12.59638909,"canPickup":true,"canDropoff":true,"openingstijden":{"za":"05:00 - 20:00","zo":"05:00 - 20:00","ma":"05:00 - 20:00","di":"05:00 - 20:00","wo":"05:00 - 20:00","do":"05:00 - 20:00","vr":"05:00 - 20:00"}}},{"type":"Feature","geometry":{"type":"Point","coordinates":[12.6124981,41.46430111]},"properties":{"type":"pakketpunt","locatieNaam":"Tabaccheria N. 28","straatNaam":"Viale Marconi","straatNr":"207","vervoerder":"PosteItaliane","puntType":"servicepunt","bezettingsgraad":50,"latitude":41.46430111,"longitude":12.6124981,"canPickup":true,"canDropoff":true,"openingstijden":{"za":"08:00 - 13:00, 16:00 - 19:30","zo":"gesloten","ma":"08:00 - 13:00, 16:00 - 19:30","di":"08:00 - 13:00, 16:00 - 19:30","wo":"08:00 - 13:00, 16:00 - 19:30","do":"08:00 - 13:00, 16:00 - 19:30","vr":"08:00 - 13:00, 16:00 - 19:30"}}},{"type":"Feature","geometry":{"type":"Point","coordinates":[12.60333447,41.47831716]},"properties":{"type":"pakketpunt","locatieNaam":"Tabaccheria N. 42","straatNaam":"Via Ardeatina","straatNr":"139","vervoerder":"PosteItaliane","puntType":"servicepunt","bezettingsgraad":50,"latitude":41.47831716,"longitude":12.60333447,"canPickup":true,"canDropoff":true,"openingstijden":{"za":"07:30 - 13:00, 16:00 - 20:00","zo":"08:00 - 13:00","ma":"16:00 - 20:00","di":"07:30 - 13:00, 16:00 - 20:00","wo":"07:30 - 13:00, 16:00 - 20:00","do":"07:30 - 13:00, 16:00 - 20:00","vr":"07:30 - 13:00, 16:00 - 20:00"}}},{"type":"Feature","geometry":{"type":"Point","coordinates":[12.6300729,41.4488334]},"properties":{"type":"pakketpunt","locatieNaam":"Blow up Videonoleggio","straatNaam":"VICOLO DEI FABBRI","straatNr":"22","vervoerder":"DPD","puntType":"pickup_point","bezettingsgraad":50,"latitude":41.4488334,"longitude":12.6300729,"canPickup":true,"canDropoff":true,"openingstijden":{"ma":"09:00 - 13:00, 16:30 - 19:30","di":"09:00 - 13:00, 16:30 - 19:30","wo":"09:00 - 13:00, 16:30 - 19:30","do":"09:00 - 13:00","vr":"09:00 - 13:00, 16:30 - 19:30","za":"09:00 - 13:00, 16:30 - 19:30","zo":"gesloten"}}},{"type":"Feature","geometry":{"type":"Point","coordinates":[12.6033206448,41.4783477479]},"properties":{"type":"pakketpunt","locatieNaam":"Tabacchi Mercuri-Anzio","straatNaam":"VIA ARDEATINA","straatNr":"139","vervoerder":"DPD","puntType":"pickup_point","bezettingsgraad":50,"latitude":41.4783477479,"longitude":12.6033206448,"canPickup":true,"canDropoff":true,"openingstijden":{"ma":"16:00 - 19:30","di":"07:30 - 13:00, 16:00 - 19:30","wo":"07:30 - 13:00, 16:00 - 19:30","do":"07:30 - 13:00, 16:00 - 19:30","vr":"07:30 - 13:00, 16:00 - 19:30","za":"07:30 - 13:00, 16:00 - 19:30","zo":"08:00 - 13:00"}}},{"type":"Feature","geometry":{"type":"Point","coordinates":[12.6208362,41.4505873]},"properties":{"type":"pakketpunt","locatieNaam":"Tabaccheria Cartoleria - Anzio","straatNaam":"VIA TRIPOLI","straatNr":"39","vervoerder":"DPD","puntType":"pickup_point","bezettingsgraad":50,"latitude":41.4505873,"longitude":12.6208362,"canPickup":true,"canDropoff":true,"openingstijden":{"ma":"08:30 - 13:00, 16:30 - 19:30","di":"08:30 - 13:00, 16:30 - 19:30","wo":"08:30 - 13:00, 16:30 - 19:30","do":"08:30 - 13:00, 16:30 - 19:30","vr":"08:30 - 13:00, 16:30 - 19:30","za":"08:30 - 13:00, 16:30 - 19:30","zo":"gesloten"}}},{"type":"Feature","geometry":{"type":"Point","coordinates":[12.6024156357,41.5014786209]},"properties":{"type":"pakketpunt","locatieNaam":"Tabaccheria Di Vincenzo","straatNaam":"P.ZZA DEL CONSORZIO SNC","straatNr":"","vervoerder":"DPD","puntType":"pickup_point","bezettingsgraad":50,"latitude":41.5014786209,"longitude":12.6024156357,"canPickup":true,"canDropoff":true,"openingstijden":{"ma":"08:30 - 13:00, 16:00 - 19:30","di":"08:30 - 13:00, 16:00 - 19:30","wo":"08:30 - 13:00, 16:00 - 19:30","do":"08:30 - 13:00, 16:00 - 19:30","vr":"08:30 - 13:00, 16:00 - 19:30","za":"08:30 - 13:00, 16:00 - 19:30","zo":"09:00 - 13:00"}}},{"type":"Feature","geometry":{"type":"Point","coordinates":[12.6261287,41.4959013]},"properties":{"type":"pakketpunt","locatieNaam":"Onori F. Autoricambi","straatNaam":"VIA NETTUNENSE","straatNr":"178","vervoerder":"DPD","puntType":"pickup_point","bezettingsgraad":50,"latitude":41.4959013,"longitude":12.6261287,"canPickup":true,"canDropoff":true,"openingstijden":{"ma":"08:00 - 19:00","di":"08:00 - 19:00","wo":"08:00 - 19:00","do":"08:00 - 19:00","vr":"08:00 - 19:00","za":"08:30 - 19:00","zo":"09:00 - 12:00"}}},{"type":"Feature","geometry":{"type":"Point","coordinates":[12.58793,41.50264]},"properties":{"type":"pakketpunt","locatieNaam":"BRT LOCKER - Libreria il Gabbiano V","straatNaam":"VIA DI VALLE DI SCHIOIA","straatNr":"288","vervoerder":"DPD","puntType":"dpd_box","bezettingsgraad":50,"latitude":41.50264,"longitude":12.58793,"canPickup":true,"canDropoff":true,"openingstijden":{"ma":"08:00 - 13:00, 16:00 - 20:00","di":"08:00 - 13:00, 16:00 - 20:00","wo":"08:00 - 13:00, 16:00 - 20:00","do":"08:00 - 13:00, 16:00 - 20:00","vr":"08:00 - 13:00, 16:00 - 20:00","za":"08:00 - 13:00, 16:00 - 20:00","zo":"08:00 - 13:00"}}},{"type":"Feature","geometry":{"type":"Point","coordinates":[12.62211139,41.50078873]},"properties":{"type":"pakketpunt","locatieNaam":"Brother Service Point","straatNaam":"VIA DI V. SCHIOIA","straatNr":"84","vervoerder":"DPD","puntType":"pickup_point","bezettingsgraad":50,"latitude":41.50078873,"longitude":12.62211139,"canPickup":true,"canDropoff":true,"openingstijden":{"ma":"09:30 - 13:00, 14:30 - 20:00","di":"09:30 - 13:00, 14:30 - 20:00","wo":"09:30 - 13:00, 14:30 - 20:00","do":"09:30 - 13:00, 14:30 - 20:00","vr":"09:30 - 13:00, 14:30 - 20:00","za":"09:30 - 13:00, 14:30 - 20:00","zo":"09:30 - 13:00, 14:30 - 20:00"}}},{"type":"Feature","geometry":{"type":"Point","coordinates":[12.62349207,41.45220035]},"properties":{"type":"pakketpunt","locatieNaam":"Mail Boxes Etc 376-Anzio","straatNaam":"VIA ROMA","straatNr":"54","vervoerder":"DPD","puntType":"pickup_point","bezettingsgraad":50,"latitude":41.45220035,"longitude":12.62349207,"canPickup":true,"canDropoff":true,"openingstijden":{"ma":"09:00 - 13:00, 15:30 - 18:00","di":"09:00 - 13:00, 15:30 - 18:00","wo":"09:00 - 13:00, 15:30 - 18:00","do":"09:00 - 13:00, 15:30 - 18:00","vr":"09:00 - 13:00, 15:30 - 18:00","za":"gesloten","zo":"gesloten"}}},{"type":"Feature","geometry":{"type":"Point","coordinates":[12.618832,41.48459]},"properties":{"type":"pakketpunt","locatieNaam":"Cambatech","straatNaam":"VIA DI V. CLAUDIA","straatNr":"36A","vervoerder":"DPD","puntType":"pickup_point","bezettingsgraad":50,"latitude":41.48459,"longitude":12.618832,"canPickup":true,"canDropoff":true,"openingstijden":{"ma":"09:00 - 13:00, 16:00 - 19:30","di":"09:00 - 13:00, 16:00 - 19:30","wo":"09:00 - 13:00, 16:00 - 19:30","do":"09:00 - 13:00, 16:00 - 19:30","vr":"09:00 - 13:00, 16:00 - 19:30","za":"09:00 - 13:00","zo":"gesloten"}}},{"type":"Feature","geometry":{"type":"Point","coordinates":[12.632182,41.4737019]},"properties":{"type":"pakketpunt","locatieNaam":"Paradise Vape","straatNaam":"VIA DELLA CANNUCCIA","straatNr":"115","vervoerder":"DPD","puntType":"pickup_point","bezettingsgraad":50,"latitude":41.4737019,"longitude":12.632182,"canPickup":true,"canDropoff":true,"openingstijden":{"ma":"09:00 - 19:30","di":"09:00 - 19:30","wo":"09:00 - 19:30","do":"09:00 - 19:30","vr":"09:00 - 19:30","za":"09:00 - 19:30","zo":"gesloten"}}},{"type":"Feature","geometry":{"type":"Point","coordinates":[12.6282428,41.4479358]},"properties":{"type":"pakketpunt","locatieNaam":"Mercatuno-Piccoli Prezzi","straatNaam":"VIA FILIBECK","straatNr":"23","vervoerder":"DPD","puntType":"pickup_point","bezettingsgraad":50,"latitude":41.4479358,"longitude":12.6282428,"canPickup":true,"canDropoff":true,"openingstijden":{"ma":"08:30 - 20:00","di":"08:30 - 20:00","wo":"08:30 - 20:00","do":"08:30 - 20:00","vr":"08:30 - 20:00","za":"08:30 - 20:00","zo":"08:30 - 20:00"}}},{"type":"Feature","geometry":{"type":"Point","coordinates":[12.6275006,41.46278064]},"properties":{"type":"pakketpunt","locatieNaam":"C.C Anteo Casalinghi Cinesi","straatNaam":"VIALE ANTIUM","straatNr":"6","vervoerder":"DPD","puntType":"pickup_point","bezettingsgraad":50,"latitude":41.46278064,"longitude":12.6275006,"canPickup":true,"canDropoff":true,"openingstijden":{"ma":"08:30 - 20:00","di":"08:30 - 20:00","wo":"08:30 - 20:00","do":"08:30 - 20:00","vr":"08:30 - 20:00","za":"08:30 - 20:00","zo":"08:30 - 13:00"}}},{"type":"Feature","geometry":{"type":"Point","coordinates":[12.58491632,41.5050318]},"properties":{"type":"pakketpunt","locatieNaam":"Cost.Arte","straatNaam":"VIA ARDEATINA","straatNr":"576","vervoerder":"DPD","puntType":"pickup_point","bezettingsgraad":50,"latitude":41.5050318,"longitude":12.58491632,"canPickup":true,"canDropoff":true,"openingstijden":{"ma":"gesloten","di":"09:00 - 13:00, 16:00 - 19:00","wo":"09:00 - 13:00, 16:00 - 19:00","do":"09:00 - 13:00, 16:00 - 19:00","vr":"09:00 - 13:00, 16:00 - 19:00","za":"09:00 - 13:00, 16:00 - 19:00","zo":"09:00 - 13:00"}}},{"type":"Feature","geometry":{"type":"Point","coordinates":[12.6281459,41.50082848]},"properties":{"type":"pakketpunt","locatieNaam":"BRT LOCKER - CC ZODIACO Via Nettune","straatNaam":"VIA NETTUNENSE ANGOLO. VIA DELLA FO","straatNr":"","vervoerder":"DPD","puntType":"dpd_box","bezettingsgraad":50,"latitude":41.50082848,"longitude":12.6281459,"canPickup":true,"canDropoff":true,"openingstijden":{"ma":"09:00 - 20:00","di":"09:00 - 20:00","wo":"09:00 - 20:00","do":"09:00 - 20:00","vr":"09:00 - 20:00","za":"09:00 - 20:00","zo":"10:00 - 20:00"}}},{"type":"Feature","geometry":{"type":"Point","coordinates":[12.60325,41.47851]},"properties":{"type":"pakketpunt","locatieNaam":"InPost Point","straatNaam":"Via Ardeatina","straatNr":"139","vervoerder":"InPost","puntType":"servicepunt","bezettingsgraad":50,"latitude":41.47851,"longitude":12.60325,"canPickup":true,"canDropoff":true,"openingstijden":"Lun:16:00 - 19:30 Mar-Sab: 7:30 - 13:00 - 16:00 - 19:30 Dom: 8:00 - 13:00"}},{"type":"Feature","geometry":{"type":"Point","coordinates":[12.6278,41.50568]},"properties":{"type":"pakketpunt","locatieNaam":"InPost Locker 24/7","straatNaam":"Via Nettunense","straatNr":"Km 31+500","vervoerder":"InPost","puntType":"automaat","bezettingsgraad":50,"latitude":41.50568,"longitude":12.6278,"canPickup":true,"canDropoff":true,"openingstijden":null}},{"type":"Feature","geometry":{"type":"Point","coordinates":[12.6227,41.50037]},"properties":{"type":"pakketpunt","locatieNaam":"2R Trading","straatNaam":"Via Di Valle Schioia","straatNr":"53","vervoerder":"InPost","puntType":"automaat","bezettingsgraad":50,"latitude":41.50037,"longitude":12.6227,"canPickup":true,"canDropoff":true,"openingstijden":null}},{"type":"Feature","geometry":{"type":"Point","coordinates":[12.62813,41.5008]},"properties":{"type":"pakketpunt","locatieNaam":"InPost Locker","straatNaam":"Via Nettunense","straatNr":"","vervoerder":"InPost","puntType":"automaat","bezettingsgraad":50,"latitude":41.5008,"longitude":12.62813,"canPickup":true,"canDropoff":true,"openingstijden":null}},{"type":"Feature","geometry":{"type":"Point","coordinates":[12.62815,41.44799]},"properties":{"type":"pakketpunt","locatieNaam":"InPost Locker","straatNaam":"Via Filibeck","straatNr":"27","vervoerder":"InPost","puntType":"automaat","bezettingsgraad":50,"latitude":41.44799,"longitude":12.62815,"canPickup":true,"canDropoff":true,"openingstijden":null}},{"type":"Feature","geometry":{"type":"Point","coordinates":[12.62913,41.46227]},"properties":{"type":"pakketpunt","locatieNaam":"InPost Locker 24/7","straatNaam":"Viale Antium","straatNr":"2","vervoerder":"InPost","puntType":"automaat","bezettingsgraad":50,"latitude":41.46227,"longitude":12.62913,"canPickup":true,"canDropoff":true,"openingstijden":"24/7"}},{"type":"Feature","geometry":{"type":"Point","coordinates":[12.62807,41.45131]},"properties":{"type":"pakketpunt","locatieNaam":"InPost Locker 24/7","straatNaam":"Viale Mencacci","straatNr":"368","vervoerder":"InPost","puntType":"automaat","bezettingsgraad":50,"latitude":41.45131,"longitude":12.62807,"canPickup":true,"canDropoff":true,"openingstijden":null}},{"type":"Feature","geometry":{"type":"Point","coordinates":[12.5888,41.4993]},"properties":{"type":"pakketpunt","locatieNaam":"InPost Locker 24/7","straatNaam":"Fraz. Lavinio - Via Ardeatina","straatNr":"3","vervoerder":"InPost","puntType":"automaat","bezettingsgraad":50,"latitude":41.4993,"longitude":12.5888,"canPickup":true,"canDropoff":true,"openingstijden":null}},{"type":"Feature","geometry":{"type":"Point","coordinates":[12.62966,41.51208]},"properties":{"type":"pakketpunt","locatieNaam":"InPost Locker 24/7","straatNaam":"Via Nettunense","straatNr":"Km 30 + 600","vervoerder":"InPost","puntType":"automaat","bezettingsgraad":50,"latitude":41.51208,"longitude":12.62966,"canPickup":true,"canDropoff":true,"openingstijden":null}},{"type":"Feature","geometry":{"type":"Point","coordinates":[12.62078,41.45076]},"properties":{"type":"pakketpunt","locatieNaam":"InPost Point","straatNaam":"Via Tripoli","straatNr":"39","vervoerder":"InPost","puntType":"servicepunt","bezettingsgraad":50,"latitude":41.45076,"longitude":12.62078,"canPickup":true,"canDropoff":true,"openingstijden":"Lun-Sab: 08:00 - 12:50 - 16:30 - 19:30"}},{"type":"Feature","geometry":{"type":"Point","coordinates":[12.56269,41.53568]},"properties":{"type":"pakketpunt","locatieNaam":"InPost Point","straatNaam":"Via Ardeatina","straatNr":"559","vervoerder":"InPost","puntType":"servicepunt","bezettingsgraad":50,"latitude":41.53568,"longitude":12.56269,"canPickup":true,"canDropoff":true,"openingstijden":"Lun-Sab 07:00 - 13:00 - 15:00 -19:00 \r\nDom:08:00-13:00"}},{"type":"Feature","geometry":{"type":"Point","coordinates":[12.60243,41.50146]},"properties":{"type":"pakketpunt","locatieNaam":"InPost Point","straatNaam":"Piazza del Consorzio","straatNr":"Snc","vervoerder":"InPost","puntType":"servicepunt","bezettingsgraad":50,"latitude":41.50146,"longitude":12.60243,"canPickup":true,"canDropoff":true,"openingstijden":"Lun-Sab: 08:30 - 13:00 - 16:00 - 19:30 Dom: 09:00 - 13:00"}},{"type":"Feature","geometry":{"type":"Point","coordinates":[12.6288392,41.4475777]},"properties":{"type":"pakketpunt","locatieNaam":"domus aurea","straatNaam":"Via Mimma Pollastrini","straatNr":"14","vervoerder":"GLS","puntType":"parcel_shop","bezettingsgraad":50,"latitude":41.4475777,"longitude":12.6288392,"canPickup":true,"canDropoff":true,"openingstijden":"ma: 10:00 - 13:00, 16:30 - 18:30; di: 10:00 - 13:00, 16:30 - 18:30"}},{"type":"Feature","geometry":{"type":"Point","coordinates":[12.6301217,41.448662]},"properties":{"type":"pakketpunt","locatieNaam":"BLOW UP VIDEONOLEGGIO","straatNaam":"Vicolo Dei Fabbri","straatNr":"22","vervoerder":"GLS","puntType":"parcel_shop","bezettingsgraad":50,"latitude":41.448662,"longitude":12.6301217,"canPickup":true,"canDropoff":true,"openingstijden":"za: 09:30 - 13:00, 16:30 - 19:30; ma: 09:30 - 13:00, 16:30 - 19:30"}},{"type":"Feature","geometry":{"type":"Point","coordinates":[12.6208192,41.4505808]},"properties":{"type":"pakketpunt","locatieNaam":"Tabaccheria Cartoleria","straatNaam":"Via Tripoli","straatNr":"39","vervoerder":"GLS","puntType":"parcel_shop","bezettingsgraad":50,"latitude":41.4505808,"longitude":12.6208192,"canPickup":true,"canDropoff":true,"openingstijden":"za: 09:00 - 13:00, 16:30 - 19:30; ma: 09:00 - 13:00, 16:30 - 19:30"}},{"type":"Feature","geometry":{"type":"Point","coordinates":[12.6275415,41.4627932]},"properties":{"type":"pakketpunt","locatieNaam":"Casalinghi Cinese C.C.Anteo","straatNaam":"Viale Antium","straatNr":"6 int42","vervoerder":"GLS","puntType":"parcel_shop","bezettingsgraad":50,"latitude":41.4627932,"longitude":12.6275415,"canPickup":true,"canDropoff":true,"openingstijden":"za: 09:00 - 19:30; zo: 09:00 - 13:00"}},{"type":"Feature","geometry":{"type":"Point","coordinates":[12.632182,41.4737019]},"properties":{"type":"pakketpunt","locatieNaam":"PARADISE VAPE","straatNaam":"Via Della Cannuccia","straatNr":"115","vervoerder":"GLS","puntType":"parcel_shop","bezettingsgraad":50,"latitude":41.4737019,"longitude":12.632182,"canPickup":true,"canDropoff":true,"openingstijden":"za: 09:00 - 19:30; ma: 09:00 - 19:30"}},{"type":"Feature","geometry":{"type":"Point","coordinates":[12.60330084,41.47850472]},"properties":{"type":"pakketpunt","locatieNaam":"Tabaccheria Mercuri","straatNaam":"Via Ardeatina","straatNr":"139","vervoerder":"GLS","puntType":"parcel_shop","bezettingsgraad":50,"latitude":41.47850472,"longitude":12.60330084,"canPickup":true,"canDropoff":true,"openingstijden":"za: 07:30 - 13:00, 16:00 - 19:30; zo: 08:00 - 13:00"}},{"type":"Feature","geometry":{"type":"Point","coordinates":[12.6226583,41.5003621]},"properties":{"type":"pakketpunt","locatieNaam":"2R TRADINGS","straatNaam":"Via Di Valle Schioia","straatNr":"53","vervoerder":"GLS","puntType":"parcel_shop","bezettingsgraad":50,"latitude":41.5003621,"longitude":12.6226583,"canPickup":true,"canDropoff":true,"openingstijden":"za: 09:00 - 14:00, 15:00 - 21:00; zo: 09:00 - 14:00, 15:00 - 21:00"}},{"type":"Feature","geometry":{"type":"Point","coordinates":[12.602563,41.5013052]},"properties":{"type":"pakketpunt","locatieNaam":"Cianfanelli","straatNaam":"Piazza Del Consorzio","straatNr":"173","vervoerder":"GLS","puntType":"parcel_shop","bezettingsgraad":50,"latitude":41.5013052,"longitude":12.602563,"canPickup":true,"canDropoff":true,"openingstijden":"za: 06:30 - 12:30, 15:30 - 18:30; zo: 06:30 - 12:00"}},{"type":"Feature","geometry":{"type":"Point","coordinates":[12.5848549,41.5051338]},"properties":{"type":"pakketpunt","locatieNaam":"COST.ARTE Antichita Restauro","straatNaam":"Via Ardeatina","straatNr":"576 /578","vervoerder":"GLS","puntType":"parcel_shop","bezettingsgraad":50,"latitude":41.5051338,"longitude":12.5848549,"canPickup":true,"canDropoff":true,"openingstijden":"za: 09:00 - 13:00, 16:00 - 19:00; zo: 09:00 - 13:00"}},{"type":"Feature","geometry":{"type":"Point","coordinates":[12.6256868,41.505539]},"properties":{"type":"pakketpunt","locatieNaam":"EUROSOFT2000","straatNaam":"Via Carlo Goldoni","straatNr":"62","vervoerder":"GLS","puntType":"parcel_shop","bezettingsgraad":50,"latitude":41.505539,"longitude":12.6256868,"canPickup":true,"canDropoff":true,"openingstijden":"za: 09:00 - 19:30; zo: 09:00 - 13:00"}},{"type":"Feature","geometry":{"type":"Point","coordinates":[12.5844519,41.5056333]},"properties":{"type":"pakketpunt","locatieNaam":"APOLLO13","straatNaam":"Via Ardeatina","straatNr":"600","vervoerder":"GLS","puntType":"parcel_shop","bezettingsgraad":50,"latitude":41.5056333,"longitude":12.5844519,"canPickup":true,"canDropoff":true,"openingstijden":"za: 06:00 - 18:00; zo: 06:00 - 18:00"}},{"type":"Feature","geometry":{"type":"Point","coordinates":[12.612498,41.464301]},"properties":{"type":"pakketpunt","locatieNaam":"TABACCHERIA N. 28","straatNaam":"VIALE MARCONI 207","straatNr":"","vervoerder":"DHL","puntType":"parcelShop","bezettingsgraad":50,"latitude":41.464301,"longitude":12.612498,"canPickup":true,"canDropoff":true,"openingstijden":{"ma":"08:00 - 13:00, 16:00 - 19:30","di":"08:00 - 13:00, 16:00 - 19:30","wo":"08:00 - 13:00, 16:00 - 19:30","do":"08:00 - 13:00, 16:00 - 19:30","vr":"08:00 - 13:00, 16:00 - 19:30","za":"08:00 - 13:00, 16:00 - 19:30","zo":"gesloten"}}},{"type":"Feature","geometry":{"type":"Point","coordinates":[12.615169,41.461282]},"properties":{"type":"pakketpunt","locatieNaam":"TABACCHERIA N. 49","straatNaam":"VIALE MARCONI 120","straatNr":"","vervoerder":"DHL","puntType":"parcelShop","bezettingsgraad":50,"latitude":41.461282,"longitude":12.615169,"canPickup":true,"canDropoff":true,"openingstijden":{"ma":"08:30 - 13:00, 16:30 - 20:00","di":"08:30 - 13:00, 16:30 - 20:00","wo":"08:30 - 13:00, 16:30 - 20:00","do":"08:30 - 13:00, 16:30 - 20:00","vr":"08:30 - 13:00, 16:30 - 20:00","za":"08:30 - 13:00, 16:30 - 20:00","zo":"09:30 - 13:00"}}},{"type":"Feature","geometry":{"type":"Point","coordinates":[12.616179,41.460037]},"properties":{"type":"pakketpunt","locatieNaam":"Ufficio Postale COLONIA DI ANZIO","straatNaam":"VIALE GUGLIELMO MARCONI 86","straatNr":"","vervoerder":"DHL","puntType":"postOffice","bezettingsgraad":50,"latitude":41.460037,"longitude":12.616179,"canPickup":true,"canDropoff":true,"openingstijden":{"ma":"08:20 - 13:35","di":"08:20 - 13:35","wo":"08:20 - 13:35","do":"08:20 - 13:35","vr":"08:20 - 13:35","za":"08:20 - 12:35","zo":"gesloten"}}},{"type":"Feature","geometry":{"type":"Point","coordinates":[12.6033,41.4783]},"properties":{"type":"pakketpunt","locatieNaam":"TABACCHERIA MERCURI MARCO","straatNaam":"Ardeatina 139 Loc.lido Delle Sirene","straatNr":"","vervoerder":"DHL","puntType":"parcelShop","bezettingsgraad":50,"latitude":41.4783,"longitude":12.6033,"canPickup":false,"canDropoff":true,"openingstijden":{"ma":"16:00 - 20:00","di":"08:00 - 20:00","wo":"08:00 - 20:00","do":"08:00 - 20:00","vr":"08:00 - 20:00","za":"08:00 - 20:00","zo":"gesloten"}}},{"type":"Feature","geometry":{"type":"Point","coordinates":[12.603334,41.478317]},"properties":{"type":"pakketpunt","locatieNaam":"TABACCHERIA n. 42","straatNaam":"VIA ARDEATINA 139","straatNr":"","vervoerder":"DHL","puntType":"parcelShop","bezettingsgraad":50,"latitude":41.478317,"longitude":12.603334,"canPickup":true,"canDropoff":true,"openingstijden":{"ma":"gesloten","di":"gesloten","wo":"07:30 - 13:00, 16:00 - 20:00","do":"07:30 - 13:00, 16:00 - 20:00","vr":"07:30 - 13:00, 16:00 - 20:00","za":"07:30 - 13:00, 16:00 - 20:00","zo":"08:00 - 13:00"}}},{"type":"Feature","geometry":{"type":"Point","coordinates":[12.624199,41.451623]},"properties":{"type":"pakketpunt","locatieNaam":"TABACCHERIA N. 7","straatNaam":"VIA ROMA 61","straatNr":"","vervoerder":"DHL","puntType":"parcelShop","bezettingsgraad":50,"latitude":41.451623,"longitude":12.624199,"canPickup":true,"canDropoff":true,"openingstijden":{"ma":"08:30 - 13:00, 16:30 - 19:30","di":"08:30 - 13:00, 16:30 - 19:30","wo":"08:30 - 13:00, 16:30 - 19:30","do":"08:30 - 13:00, 16:30 - 19:30","vr":"08:30 - 13:00, 16:30 - 19:30","za":"08:30 - 13:00, 16:30 - 19:30","zo":"gesloten"}}},{"type":"Feature","geometry":{"type":"Point","coordinates":[12.627191,41.445856]},"properties":{"type":"pakketpunt","locatieNaam":"Ufficio Postale ANZIO","straatNaam":"PIAZZALE ORAZIO 1","straatNr":"","vervoerder":"DHL","puntType":"postOffice","bezettingsgraad":50,"latitude":41.445856,"longitude":12.627191,"canPickup":true,"canDropoff":true,"openingstijden":{"ma":"08:20 - 19:05","di":"08:20 - 19:05","wo":"08:20 - 19:05","do":"08:20 - 19:05","vr":"08:20 - 19:05","za":"08:20 - 12:35","zo":"gesloten"}}},{"type":"Feature","geometry":{"type":"Point","coordinates":[12.628382,41.446293]},"properties":{"type":"pakketpunt","locatieNaam":"TABACCHERIA N. 2","straatNaam":"VIA VENTI SETTEMBRE 22","straatNr":"","vervoerder":"DHL","puntType":"parcelShop","bezettingsgraad":50,"latitude":41.446293,"longitude":12.628382,"canPickup":true,"canDropoff":true,"openingstijden":{"ma":"08:00 - 13:00, 16:00 - 19:30","di":"08:00 - 13:00, 16:00 - 19:30","wo":"08:00 - 13:00, 16:00 - 19:30","do":"08:00 - 13:00, 16:00 - 19:30","vr":"08:00 - 13:00, 16:00 - 19:30","za":"08:00 - 13:00, 16:00 - 19:30","zo":"08:00 - 13:00, 16:00 - 19:30"}}},{"type":"Feature","geometry":{"type":"Point","coordinates":[12.596389,41.490702]},"properties":{"type":"pakketpunt","locatieNaam":"TABACCHERIA N. 12","straatNaam":"VIA ARDEATINA 380","straatNr":"","vervoerder":"DHL","puntType":"parcelShop","bezettingsgraad":50,"latitude":41.490702,"longitude":12.596389,"canPickup":true,"canDropoff":true,"openingstijden":{"ma":"05:00 - 20:00","di":"05:00 - 20:00","wo":"05:00 - 20:00","do":"05:00 - 20:00","vr":"05:00 - 20:00","za":"05:00 - 20:00","zo":"05:00 - 20:00"}}},{"type":"Feature","geometry":{"type":"Point","coordinates":[12.630213,41.448731]},"properties":{"type":"pakketpunt","locatieNaam":"BLOW UP VIDEONOLEGGIO","straatNaam":"VICOLO DEI FABBRI 22","straatNr":"","vervoerder":"DHL","puntType":"parcelShop","bezettingsgraad":50,"latitude":41.448731,"longitude":12.630213,"canPickup":true,"canDropoff":true,"openingstijden":{"ma":"09:30 - 13:00, 16:30 - 19:30","di":"09:30 - 13:00, 16:30 - 19:30","wo":"09:30 - 13:00, 16:30 - 19:30","do":"09:30 - 13:00, 16:30 - 16:35","vr":"09:30 - 13:00, 16:30 - 19:30","za":"09:30 - 13:00, 16:30 - 19:30","zo":"gesloten"}}},{"type":"Feature","geometry":{"type":"Point","coordinates":[12.630252,41.448743]},"properties":{"type":"pakketpunt","locatieNaam":"BLOW UP VIDEONOLEGGIO","straatNaam":"Vicolo Dei Fabbri","straatNr":"","vervoerder":"DHL","puntType":"parcelShop","bezettingsgraad":50,"latitude":41.448743,"longitude":12.630252,"canPickup":false,"canDropoff":true,"openingstijden":{"ma":"09:00 - 19:30","di":"09:00 - 19:30","wo":"09:00 - 19:30","do":"09:00 - 13:00","vr":"09:00 - 19:30","za":"09:00 - 19:30","zo":"gesloten"}}},{"type":"Feature","geometry":{"type":"Point","coordinates":[12.627641,41.462548]},"properties":{"type":"pakketpunt","locatieNaam":"CASALINGHI CINESE","straatNaam":"VIALE ANTIUM 6","straatNr":"","vervoerder":"DHL","puntType":"parcelShop","bezettingsgraad":50,"latitude":41.462548,"longitude":12.627641,"canPickup":true,"canDropoff":true,"openingstijden":{"ma":"09:00 - 19:30","di":"09:00 - 19:30","wo":"09:00 - 19:30","do":"09:00 - 19:30","vr":"09:00 - 19:30","za":"09:00 - 19:30","zo":"09:00 - 13:00"}}},{"type":"Feature","geometry":{"type":"Point","coordinates":[12.584432,41.501574]},"properties":{"type":"pakketpunt","locatieNaam":"Ufficio Postale LAVINIO LIDO DI ENE","straatNaam":"CORSO SAN FRANCESCO 52","straatNr":"","vervoerder":"DHL","puntType":"postOffice","bezettingsgraad":50,"latitude":41.501574,"longitude":12.584432,"canPickup":true,"canDropoff":true,"openingstijden":{"ma":"08:20 - 13:35","di":"08:20 - 13:35","wo":"08:20 - 13:35","do":"08:20 - 13:35","vr":"08:20 - 13:35","za":"08:20 - 12:35","zo":"gesloten"}}},{"type":"Feature","geometry":{"type":"Point","coordinates":[12.590737,41.500856]},"properties":{"type":"pakketpunt","locatieNaam":"TABACCHERIA N. 45","straatNaam":"VIALE ALLA MARINA 45","straatNr":"","vervoerder":"DHL","puntType":"parcelShop","bezettingsgraad":50,"latitude":41.500856,"longitude":12.590737,"canPickup":true,"canDropoff":true,"openingstijden":{"ma":"08:00 - 13:30, 16:00 - 19:30","di":"08:00 - 13:30, 16:00 - 19:30","wo":"08:00 - 13:30, 16:00 - 19:30","do":"08:00 - 13:30, 16:00 - 19:30","vr":"08:00 - 13:30, 16:00 - 19:30","za":"08:00 - 13:30, 16:00 - 19:30","zo":"09:00 - 13:00"}}},{"type":"Feature","geometry":{"type":"Point","coordinates":[12.61883,41.48493]},"properties":{"type":"pakketpunt","locatieNaam":"IL GABBIANO MONDADORI POINT","straatNaam":"Valle Schioia, 288","straatNr":"","vervoerder":"DHL","puntType":"parcelShop","bezettingsgraad":50,"latitude":41.48493,"longitude":12.61883,"canPickup":false,"canDropoff":true,"openingstijden":{"ma":"07:00 - 20:00","di":"07:00 - 20:00","wo":"07:00 - 20:00","do":"07:00 - 20:00","vr":"07:00 - 20:00","za":"07:00 - 20:00","zo":"gesloten"}}},{"type":"Feature","geometry":{"type":"Point","coordinates":[12.602452,41.501485]},"properties":{"type":"pakketpunt","locatieNaam":"TABACCHERIA n. 21","straatNaam":"PIAZZALE CONSORZIO SNC 1","straatNr":"","vervoerder":"DHL","puntType":"parcelShop","bezettingsgraad":50,"latitude":41.501485,"longitude":12.602452,"canPickup":true,"canDropoff":true,"openingstijden":{"ma":"08:30 - 13:00, 16:00 - 19:30","di":"08:30 - 13:00, 16:00 - 19:30","wo":"08:30 - 13:00, 16:00 - 19:30","do":"08:30 - 13:00, 16:00 - 19:30","vr":"08:30 - 13:00, 16:00 - 19:30","za":"08:30 - 13:00, 16:00 - 19:30","zo":"09:00 - 13:00"}}},{"type":"Feature","geometry":{"type":"Point","coordinates":[12.625181,41.487207]},"properties":{"type":"pakketpunt","locatieNaam":"STAZIONE DI SERVIZIO IP","straatNaam":"VIA NETTUNENSE Km 33,460","straatNr":"","vervoerder":"DHL","puntType":"packStation","bezettingsgraad":50,"latitude":41.487207,"longitude":12.625181,"canPickup":true,"canDropoff":true,"openingstijden":{"ma":"00:01 - 23:59","di":"00:01 - 23:59","wo":"00:01 - 23:59","do":"00:01 - 23:59","vr":"00:01 - 23:59","za":"00:01 - 23:59","zo":"00:01 - 23:59"}}},{"type":"Feature","geometry":{"type":"Point","coordinates":[12.631067,41.486207]},"properties":{"type":"pakketpunt","locatieNaam":"TABACCHERIA n. 35","straatNaam":"VIA DEL MELOGRANO 29-B","straatNr":"","vervoerder":"DHL","puntType":"parcelShop","bezettingsgraad":50,"latitude":41.486207,"longitude":12.631067,"canPickup":true,"canDropoff":true,"openingstijden":{"ma":"08:00 - 13:00, 15:30 - 19:30","di":"08:00 - 13:00, 15:30 - 19:30","wo":"08:00 - 13:00, 15:30 - 19:30","do":"08:00 - 13:00, 15:30 - 19:30","vr":"08:00 - 13:00, 15:30 - 19:30","za":"08:00 - 13:00, 15:30 - 19:30","zo":"gesloten"}}},{"type":"Feature","geometry":{"type":"Point","coordinates":[12.624898,41.500609]},"properties":{"type":"pakketpunt","locatieNaam":"PHONE CENTER ANZIO","straatNaam":"Via Di Valle Schioia 16","straatNr":"","vervoerder":"DHL","puntType":"parcelShop","bezettingsgraad":50,"latitude":41.500609,"longitude":12.624898,"canPickup":false,"canDropoff":true,"openingstijden":{"ma":"09:00 - 20:00","di":"09:00 - 20:00","wo":"09:00 - 20:00","do":"09:00 - 20:00","vr":"09:00 - 20:00","za":"09:00 - 20:00","zo":"gesloten"}}},{"type":"Feature","geometry":{"type":"Point","coordinates":[12.622933,41.500326]},"properties":{"type":"pakketpunt","locatieNaam":"2R TRADINGS","straatNaam":"VIA DI VALLE SCHIOIA 53","straatNr":"","vervoerder":"DHL","puntType":"parcelShop","bezettingsgraad":50,"latitude":41.500326,"longitude":12.622933,"canPickup":true,"canDropoff":true,"openingstijden":{"ma":"09:00 - 14:00, 15:00 - 21:00","di":"09:00 - 14:00, 15:00 - 21:00","wo":"09:00 - 14:00, 15:00 - 21:00","do":"09:00 - 14:00, 15:00 - 21:00","vr":"09:00 - 13:00, 16:00 - 21:00","za":"09:00 - 14:00, 15:00 - 21:00","zo":"09:00 - 14:00, 15:00 - 21:00"}}},{"type":"Feature","geometry":{"type":"Point","coordinates":[12.622933,41.500326]},"properties":{"type":"pakketpunt","locatieNaam":"2R TRADINGS - CAF","straatNaam":"VIA DI VALLE SCHIOIA 53","straatNr":"","vervoerder":"DHL","puntType":"packStation","bezettingsgraad":50,"latitude":41.500326,"longitude":12.622933,"canPickup":true,"canDropoff":true,"openingstijden":{"ma":"08:00 - 20:00","di":"08:00 - 20:00","wo":"08:00 - 20:00","do":"08:00 - 20:00","vr":"08:00 - 20:00","za":"08:00 - 20:00","zo":"08:00 - 20:00"}}},{"type":"Feature","geometry":{"type":"Point","coordinates":[12.623953,41.500806]},"properties":{"type":"pakketpunt","locatieNaam":"Ufficio Postale LAVINIO 1","straatNaam":"VIA CARLO GOLDONI 9","straatNr":"","vervoerder":"DHL","puntType":"postOffice","bezettingsgraad":50,"latitude":41.500806,"longitude":12.623953,"canPickup":true,"canDropoff":true,"openingstijden":{"ma":"08:20 - 13:35","di":"08:20 - 13:35","wo":"08:20 - 13:35","do":"08:20 - 13:35","vr":"08:20 - 13:35","za":"08:20 - 12:35","zo":"gesloten"}}},{"type":"Feature","geometry":{"type":"Point","coordinates":[12.563021,41.535577]},"properties":{"type":"pakketpunt","locatieNaam":"TABACCHERIA N. 20","straatNaam":"VIA ARDEATINA 559","straatNr":"","vervoerder":"DHL","puntType":"parcelShop","bezettingsgraad":50,"latitude":41.535577,"longitude":12.563021,"canPickup":true,"canDropoff":true,"openingstijden":{"ma":"06:30 - 13:00, 15:30 - 20:00","di":"06:30 - 13:00, 15:30 - 20:00","wo":"06:30 - 13:00, 15:30 - 20:00","do":"06:30 - 13:00, 15:30 - 20:00","vr":"06:30 - 13:00, 15:30 - 20:00","za":"06:30 - 13:00, 15:30 - 20:00","zo":"06:30 - 13:00"}}},{"type":"Feature","geometry":{"type":"Point","coordinates":[12.625263,41.471338]},"properties":{"type":"pakketpunt","locatieNaam":"Amazon Locker - manila","straatNaam":"Emmepiu' Anzio","straatNr":"","vervoerder":"Amazon","puntType":"locker","bezettingsgraad":50,"latitude":41.471338,"longitude":12.625263,"canPickup":true,"canDropoff":false,"openingstijden":null}},{"type":"Feature","geometry":{"type":"Point","coordinates":[12.627715,41.501098]},"properties":{"type":"pakketpunt","locatieNaam":"Amazon Locker - averina","straatNaam":"CC Zodiaco","straatNr":"","vervoerder":"Amazon","puntType":"locker","bezettingsgraad":50,"latitude":41.501098,"longitude":12.627715,"canPickup":true,"canDropoff":false,"openingstijden":null}},{"type":"Feature","geometry":{"type":"Point","coordinates":[12.6282085,41.4626536]},"properties":{"type":"pakketpunt","locatieNaam":"Amazon Locker - brunellesco","straatNaam":"Conad Ipermercato Anzio Antium","straatNr":"","vervoerder":"Amazon","puntType":"locker","bezettingsgraad":50,"latitude":41.4626536,"longitude":12.6282085,"canPickup":true,"canDropoff":false,"openingstijden":null}},{"type":"Feature","geometry":{"type":"Point","coordinates":[12.589028,41.499121]},"properties":{"type":"pakketpunt","locatieNaam":"Amazon Locker - siriana","straatNaam":"Eni Station pv.7099","straatNr":"","vervoerder":"Amazon","puntType":"locker","bezettingsgraad":50,"latitude":41.499121,"longitude":12.589028,"canPickup":true,"canDropoff":false,"openingstijden":null}},{"type":"Feature","geometry":{"type":"Point","coordinates":[12.5849234,41.5051355]},"properties":{"type":"pakketpunt","locatieNaam":"Amazon Counter (fermopoint)","straatNaam":"Cost.Arte","straatNr":"","vervoerder":"Amazon","puntType":"helix","bezettingsgraad":50,"latitude":41.5051355,"longitude":12.5849234,"canPickup":true,"canDropoff":false,"openingstijden":null}},{"type":"Feature","geometry":{"type":"Point","coordinates":[12.62783,41.4627826]},"properties":{"type":"pakketpunt","locatieNaam":"Amazon Counter ( fermopoint )","straatNaam":"C.C Anteo Casalinghi Cinesi","straatNr":"","vervoerder":"Amazon","puntType":"helix","bezettingsgraad":50,"latitude":41.4627826,"longitude":12.62783,"canPickup":true,"canDropoff":false,"openingstijden":null}},{"type":"Feature","geometry":{"type":"Point","coordinates":[12.5963,41.4907]},"properties":{"type":"pakketpunt","locatieNaam":"PuntoPoste TABACCHERIA N. 12","straatNaam":"VIA ARDEATINA 380","straatNr":"","vervoerder":"Amazon","puntType":"3p","bezettingsgraad":50,"latitude":41.4907,"longitude":12.5963,"canPickup":true,"canDropoff":false,"openingstijden":null}},{"type":"Feature","geometry":{"type":"Point","coordinates":[12.6297693,41.5120068]},"properties":{"type":"pakketpunt","locatieNaam":"Amazon Locker - nandina","straatNaam":"Eni Station pv.17043","straatNr":"","vervoerder":"Amazon","puntType":"locker","bezettingsgraad":50,"latitude":41.5120068,"longitude":12.6297693,"canPickup":true,"canDropoff":false,"openingstijden":null}},{"type":"Feature","geometry":{"type":"Point","coordinates":[12.586214,41.498818]},"properties":{"type":"pakketpunt","locatieNaam":"Amazon Counter - BAR LAVINIA","straatNaam":"PIAZZA LAVINIA 15","straatNr":"","vervoerder":"Amazon","puntType":"helix","bezettingsgraad":50,"latitude":41.498818,"longitude":12.586214,"canPickup":true,"canDropoff":false,"openingstijden":null}},{"type":"Feature","geometry":{"type":"Point","coordinates":[12.5631,41.53571]},"properties":{"type":"pakketpunt","locatieNaam":"Amazon Counter - Tabaccheria n°20 Edicola","straatNaam":"Via Ardeatina, 559/A","straatNr":"","vervoerder":"Amazon","puntType":"helix","bezettingsgraad":50,"latitude":41.53571,"longitude":12.5631,"canPickup":true,"canDropoff":false,"openingstijden":null}},{"type":"Feature","geometry":{"type":"Point","coordinates":[12.6023812,41.501411]},"properties":{"type":"pakketpunt","locatieNaam":"Amazon Counter (fermopoint)","straatNaam":"Tabaccheria Di Vincenzo","straatNr":"","vervoerder":"Amazon","puntType":"helix","bezettingsgraad":50,"latitude":41.501411,"longitude":12.6023812,"canPickup":true,"canDropoff":false,"openingstijden":null}},{"type":"Feature","geometry":{"type":"Point","coordinates":[12.621082,41.48411]},"properties":{"type":"pakketpunt","locatieNaam":"Amazon Counter - NCN forniture idrauliche","straatNaam":"Via Jenne 7","straatNr":"","vervoerder":"Amazon","puntType":"helix","bezettingsgraad":50,"latitude":41.48411,"longitude":12.621082,"canPickup":true,"canDropoff":false,"openingstijden":null}},{"type":"Feature","geometry":{"type":"Point","coordinates":[12.590599,41.500861]},"properties":{"type":"pakketpunt","locatieNaam":"Amazon Counter - TABACCHI E CARTOLERIA","straatNaam":"VIA ALLA MARINA 45","straatNr":"","vervoerder":"Amazon","puntType":"helix","bezettingsgraad":50,"latitude":41.500861,"longitude":12.590599,"canPickup":true,"canDropoff":false,"openingstijden":null}},{"type":"Feature","geometry":{"type":"Point","coordinates":[12.632182,41.4737019]},"properties":{"type":"pakketpunt","locatieNaam":"Amazon Counter","straatNaam":"Paradise Vape (fermopoint)","straatNr":"","vervoerder":"Amazon","puntType":"helix","bezettingsgraad":50,"latitude":41.4737019,"longitude":12.632182,"canPickup":true,"canDropoff":false,"openingstijden":null}},{"type":"Feature","geometry":{"type":"Point","coordinates":[12.628045,41.448198]},"properties":{"type":"pakketpunt","locatieNaam":"Amazon Counter - Punto windtre sky","straatNaam":"Via Filibeck 27","straatNr":"","vervoerder":"Amazon","puntType":"helix","bezettingsgraad":50,"latitude":41.448198,"longitude":12.628045,"canPickup":true,"canDropoff":false,"openingstijden":null}},{"type":"Feature","geometry":{"type":"Point","coordinates":[12.630289,41.448693]},"properties":{"type":"pakketpunt","locatieNaam":"Amazon Counter (fermopoint)","straatNaam":"Blow up Videonoleggio","straatNr":"","vervoerder":"Amazon","puntType":"helix","bezettingsgraad":50,"latitude":41.448693,"longitude":12.630289,"canPickup":true,"canDropoff":false,"openingstijden":null}},{"type":"Feature","geometry":{"type":"Point","coordinates":[12.628341,41.446297]},"properties":{"type":"pakketpunt","locatieNaam":"Amazon Counter - TABACCHERIA CARUSO SONIA","straatNaam":"VIA XX SETTEMBRE 22","straatNr":"","vervoerder":"Amazon","puntType":"helix","bezettingsgraad":50,"latitude":41.446297,"longitude":12.628341,"canPickup":true,"canDropoff":false,"openingstijden":null}},{"type":"Feature","geometry":{"type":"Point","coordinates":[12.620717,41.450601]},"properties":{"type":"pakketpunt","locatieNaam":"Amazon Counter - TANACCHERIA RICEVITORIA","straatNaam":"VIA TRIPOLI 39","straatNr":"","vervoerder":"Amazon","puntType":"helix","bezettingsgraad":50,"latitude":41.450601,"longitude":12.620717,"canPickup":true,"canDropoff":false,"openingstijden":null}},{"type":"Feature","geometry":{"type":"Point","coordinates":[12.623062,41.452562]},"properties":{"type":"pakketpunt","locatieNaam":"Amazon Counter","straatNaam":"Mail Boxes Etc 376-Anzio (fermopoint)","straatNr":"","vervoerder":"Amazon","puntType":"helix","bezettingsgraad":50,"latitude":41.452562,"longitude":12.623062,"canPickup":true,"canDropoff":false,"openingstijden":null}},{"type":"Feature","geometry":{"type":"Point","coordinates":[12.612541,41.464165]},"properties":{"type":"pakketpunt","locatieNaam":"Amazon Counter - Tabaccheria","straatNaam":"Viale Marconi 207B","straatNr":"","vervoerder":"Amazon","puntType":"helix","bezettingsgraad":50,"latitude":41.464165,"longitude":12.612541,"canPickup":true,"canDropoff":false,"openingstijden":null}},{"type":"Feature","geometry":{"type":"Point","coordinates":[12.6294676,41.4520843]},"properties":{"type":"pakketpunt","locatieNaam":"Amazon Counter - bar tabacchi della stazione","straatNaam":"PIAZZA palomba snc","straatNr":"","vervoerder":"Amazon","puntType":"helix","bezettingsgraad":50,"latitude":41.4520843,"longitude":12.6294676,"canPickup":true,"canDropoff":false,"openingstijden":null}},{"type":"Feature","geometry":{"type":"Point","coordinates":[12.624969,41.505667]},"properties":{"type":"pakketpunt","locatieNaam":"Amazon Locker - redento","straatNaam":"PAM Anzio Lavinio","straatNr":"","vervoerder":"Amazon","puntType":"locker","bezettingsgraad":50,"latitude":41.505667,"longitude":12.624969,"canPickup":true,"canDropoff":false,"openingstijden":null}},{"type":"Feature","geometry":{"type":"Point","coordinates":[12.622849,41.500325]},"properties":{"type":"pakketpunt","locatieNaam":"Amazon Counter - 2r tradings","straatNaam":"VIA valle schioia 53","straatNr":"","vervoerder":"Amazon","puntType":"helix","bezettingsgraad":50,"latitude":41.500325,"longitude":12.622849,"canPickup":true,"canDropoff":false,"openingstijden":null}},{"type":"Feature","geometry":{"type":"Point","coordinates":[12.624152,41.500773]},"properties":{"type":"pakketpunt","locatieNaam":"Amazon Counter - SI Cartolibreria","straatNaam":"via carlo Goldoni, 6","straatNr":"","vervoerder":"Amazon","puntType":"helix","bezettingsgraad":50,"latitude":41.500773,"longitude":12.624152,"canPickup":true,"canDropoff":false,"openingstijden":null}},{"type":"Feature","geometry":{"type":"Point","coordinates":[12.622274,41.500674]},"properties":{"type":"pakketpunt","locatieNaam":"Amazon Counter (fermopoint)","straatNaam":"Brother Service Point","straatNr":"","vervoerder":"Amazon","puntType":"helix","bezettingsgraad":50,"latitude":41.500674,"longitude":12.622274,"canPickup":true,"canDropoff":false,"openingstijden":null}},{"type":"Feature","geometry":{"type":"Point","coordinates":[12.625992,41.495905]},"properties":{"type":"pakketpunt","locatieNaam":"Amazon Counter","straatNaam":"Onori F. Autoricambi (fermopoint)","straatNr":"","vervoerder":"Amazon","puntType":"helix","bezettingsgraad":50,"latitude":41.495905,"longitude":12.625992,"canPickup":true,"canDropoff":false,"openingstijden":null}},{"type":"Feature","geometry":{"type":"Point","coordinates":[12.6239,41.5008]},"properties":{"type":"pakketpunt","locatieNaam":"Ufficio Postale LAVINIO 1","straatNaam":"VIA CARLO GOLDONI 9","straatNr":"","vervoerder":"Amazon","puntType":"3p","bezettingsgraad":50,"latitude":41.5008,"longitude":12.6239,"canPickup":true,"canDropoff":false,"openingstijden":null}},{"type":"Feature","geometry":{"type":"Point","coordinates":[12.6034523,41.4784118]},"properties":{"type":"pakketpunt","locatieNaam":"Amazon Counter (fermopoint)","straatNaam":"Tabacchi Mercuri-Anzio","straatNr":"","vervoerder":"Amazon","puntType":"helix","bezettingsgraad":50,"latitude":41.4784118,"longitude":12.6034523,"canPickup":true,"canDropoff":false,"openingstijden":null}},{"type":"Feature","geometry":{"type":"Point","coordinates":[12.618859,41.484737]},"properties":{"type":"pakketpunt","locatieNaam":"Amazon Counter (fermopoint)","straatNaam":"Cambatech","straatNr":"","vervoerder":"Amazon","puntType":"helix","bezettingsgraad":50,"latitude":41.484737,"longitude":12.618859,"canPickup":true,"canDropoff":false,"openingstijden":null}},{"type":"Feature","geometry":{"type":"Point","coordinates":[12.584452,41.505633]},"properties":{"type":"pakketpunt","locatieNaam":"FedEx OnSite","straatNaam":"VIA ARDEATINA, 600","straatNr":"","vervoerder":"FedEx","puntType":"servicepunt","bezettingsgraad":50,"latitude":41.505633,"longitude":12.584452,"canPickup":true,"canDropoff":true,"openingstijden":{"ma":"06:00 - 18:00","di":"06:00 - 18:00","wo":"06:00 - 18:00","do":"06:00 - 18:00","vr":"06:00 - 18:00","za":"06:00 - 18:00","zo":"06:00 - 18:00"}}},{"type":"Feature","geometry":{"type":"Point","coordinates":[12.58488,41.50475]},"properties":{"type":"pakketpunt","locatieNaam":"FedEx OnSite","straatNaam":"Via Ardeatina 576 /578","straatNr":"","vervoerder":"FedEx","puntType":"servicepunt","bezettingsgraad":50,"latitude":41.50475,"longitude":12.58488,"canPickup":true,"canDropoff":true,"openingstijden":null}},{"type":"Feature","geometry":{"type":"Point","coordinates":[12.60325935498248,41.47828587839967]},"properties":{"type":"pakketpunt","locatieNaam":"FedEx OnSite","straatNaam":"via Ardeatina, 139","straatNr":"","vervoerder":"FedEx","puntType":"servicepunt","bezettingsgraad":50,"latitude":41.47828587839967,"longitude":12.60325935498248,"canPickup":true,"canDropoff":true,"openingstijden":{"ma":"16:00 - 19:30","di":"07:30 - 13:00, 16:00 - 19:30","wo":"07:30 - 13:00, 16:00 - 19:30","do":"07:30 - 13:00, 16:00 - 19:30","vr":"07:30 - 13:00, 16:00 - 19:30","za":"07:30 - 13:00, 16:00 - 19:30","zo":"08:00 - 13:00"}}},{"type":"Feature","geometry":{"type":"Point","coordinates":[12.602605244791988,41.50134929392155]},"properties":{"type":"pakketpunt","locatieNaam":"FedEx OnSite","straatNaam":"Piazza del consorzio, 173","straatNr":"","vervoerder":"FedEx","puntType":"servicepunt","bezettingsgraad":50,"latitude":41.50134929392155,"longitude":12.602605244791988,"canPickup":true,"canDropoff":true,"openingstijden":{"ma":"gesloten","di":"06:30 - 12:30, 15:30 - 18:30","wo":"06:30 - 12:30, 15:30 - 18:30","do":"06:30 - 12:30, 15:30 - 18:30","vr":"06:30 - 12:30, 15:30 - 18:30","za":"06:30 - 12:30, 15:30 - 18:30","zo":"06:30 - 12:00"}}},{"type":"Feature","geometry":{"type":"Point","coordinates":[12.62078474729373,41.45060398411897]},"properties":{"type":"pakketpunt","locatieNaam":"FedEx OnSite","straatNaam":"Via Tripoli, 39","straatNr":"","vervoerder":"FedEx","puntType":"servicepunt","bezettingsgraad":50,"latitude":41.45060398411897,"longitude":12.62078474729373,"canPickup":true,"canDropoff":true,"openingstijden":{"ma":"09:00 - 13:00, 16:30 - 19:30","di":"09:00 - 13:00, 16:30 - 19:30","wo":"09:00 - 13:00, 16:30 - 19:30","do":"09:00 - 13:00, 16:30 - 19:30","vr":"09:00 - 13:00, 16:30 - 19:30","za":"09:00 - 13:00, 16:30 - 19:30","zo":"gesloten"}}},{"type":"Feature","geometry":{"type":"Point","coordinates":[12.628923075068016,41.447522519900886]},"properties":{"type":"pakketpunt","locatieNaam":"FedEx OnSite","straatNaam":"via mimma pollastrini, 14","straatNr":"","vervoerder":"FedEx","puntType":"servicepunt","bezettingsgraad":50,"latitude":41.447522519900886,"longitude":12.628923075068016,"canPickup":true,"canDropoff":true,"openingstijden":{"ma":"10:00 - 13:00, 16:30 - 18:30","di":"10:00 - 13:00, 16:30 - 18:30","wo":"10:00 - 13:00, 16:30 - 18:30","do":"10:00 - 13:00, 16:30 - 18:30","vr":"10:00 - 12:30","za":"gesloten","zo":"gesloten"}}},{"type":"Feature","geometry":{"type":"Point","coordinates":[12.63020480036951,41.44868402586478]},"properties":{"type":"pakketpunt","locatieNaam":"FedEx OnSite","straatNaam":"vicolo dei fabbri, 22","straatNr":"","vervoerder":"FedEx","puntType":"servicepunt","bezettingsgraad":50,"latitude":41.44868402586478,"longitude":12.63020480036951,"canPickup":true,"canDropoff":true,"openingstijden":{"ma":"09:30 - 13:00, 16:30 - 19:30","di":"09:30 - 13:00, 16:30 - 19:30","wo":"09:30 - 13:00, 16:30 - 19:30","do":"09:30 - 13:30","vr":"09:30 - 13:00, 16:30 - 19:30","za":"09:30 - 13:00, 16:30 - 19:30","zo":"gesloten"}}},{"type":"Feature","geometry":{"type":"Point","coordinates":[12.627542,41.462793]},"properties":{"type":"pakketpunt","locatieNaam":"FedEx OnSite","straatNaam":"Viale antium, 6 int42","straatNr":"","vervoerder":"FedEx","puntType":"servicepunt","bezettingsgraad":50,"latitude":41.462793,"longitude":12.627542,"canPickup":true,"canDropoff":true,"openingstijden":{"ma":"09:00 - 19:30","di":"09:00 - 19:30","wo":"09:00 - 19:30","do":"09:00 - 19:30","vr":"09:00 - 19:30","za":"09:00 - 19:30","zo":"09:00 - 13:00"}}},{"type":"Feature","geometry":{"type":"Point","coordinates":[12.622727707118319,41.50029651243885]},"properties":{"type":"pakketpunt","locatieNaam":"FedEx OnSite","straatNaam":"VIA DI VALLE SCHIOIA, 53","straatNr":"","vervoerder":"FedEx","puntType":"servicepunt","bezettingsgraad":50,"latitude":41.50029651243885,"longitude":12.622727707118319,"canPickup":true,"canDropoff":true,"openingstijden":{"ma":"09:00 - 14:00, 15:00 - 21:00","di":"09:00 - 14:00, 15:00 - 20:00","wo":"09:00 - 14:00, 15:00 - 20:00","do":"09:00 - 14:00, 15:00 - 20:00","vr":"09:00 - 14:00, 15:00 - 20:00","za":"09:00 - 14:00, 15:00 - 21:00","zo":"09:00 - 14:00, 15:00 - 21:00"}}},{"type":"Feature","geometry":{"type":"Point","coordinates":[12.62451,41.50038]},"properties":{"type":"pakketpunt","locatieNaam":"FedEx OnSite","straatNaam":"Via Di Valle Schioia 33","straatNr":"","vervoerder":"FedEx","puntType":"servicepunt","bezettingsgraad":50,"latitude":41.50038,"longitude":12.62451,"canPickup":true,"canDropoff":true,"openingstijden":{"ma":"08:30 - 19:30","di":"08:30 - 19:30","wo":"08:30 - 19:30","do":"08:30 - 19:30","vr":"08:30 - 19:30","za":"08:30 - 19:30","zo":"08:30 - 19:30"}}},{"type":"Feature","geometry":{"type":"Point","coordinates":[12.625133828541824,41.50015433425003]},"properties":{"type":"pakketpunt","locatieNaam":"FedEx OnSite","straatNaam":"VIA DI VILLA CLAUDIA 23","straatNr":"","vervoerder":"FedEx","puntType":"servicepunt","bezettingsgraad":50,"latitude":41.50015433425003,"longitude":12.625133828541824,"canPickup":true,"canDropoff":true,"openingstijden":{"ma":"08:30 - 13:00, 16:00 - 19:30","di":"08:30 - 13:00, 16:00 - 19:30","wo":"08:30 - 13:00, 16:00 - 19:30","do":"08:30 - 13:00, 16:00 - 19:30","vr":"08:30 - 13:00, 16:00 - 19:30","za":"09:00 - 13:00","zo":"gesloten"}}},{"type":"Feature","geometry":{"type":"Point","coordinates":[12.62562264210421,41.50553773190257]},"properties":{"type":"pakketpunt","locatieNaam":"FedEx OnSite","straatNaam":"Via Carlo Goldoni, 62","straatNr":"","vervoerder":"FedEx","puntType":"servicepunt","bezettingsgraad":50,"latitude":41.50553773190257,"longitude":12.62562264210421,"canPickup":true,"canDropoff":true,"openingstijden":{"ma":"09:00 - 19:30","di":"09:00 - 19:30","wo":"09:00 - 19:30","do":"09:00 - 19:30","vr":"09:00 - 19:30","za":"09:00 - 19:30","zo":"09:00 - 13:00"}}},{"type":"Feature","geometry":{"type":"Polygon","coordinates":[[[12.5525476,41.5339645],[12.5536099,41.5344126],[12.5536998,41.5343142],[12.5569934,41.5347472],[12.5611508,41.5353617],[12.5628153,41.5357357],[12.5664964,41.5373996],[12.5729618,41.5394454],[12.5793791,41.5413184],[12.5807491,41.5420676],[12.5797525,41.5434519],[12.5844951,41.5444927],[12.5876711,41.5428032],[12.5878819,41.5421948],[12.5885176,41.5418778],[12.5903214,41.5414027],[12.5918879,41.5411736],[12.5934959,41.541452],[12.5971248,41.5433163],[12.5998677,41.5438729],[12.6011063,41.5437711],[12.6062215,41.5428946],[12.6089271,41.5426746],[12.6101506,41.5426631],[12.6109483,41.5427956],[12.6128339,41.5436819],[12.6143128,41.5442072],[12.6150183,41.544257],[12.6159793,41.5445104],[12.6168392,41.5446274],[12.6173768,41.5443538],[12.617933,41.5432467],[12.6181539,41.5419717],[12.6182957,41.5403308],[12.6190423,41.5393511],[12.6208233,41.5324806],[12.6234786,41.5298549],[12.6241992,41.5289045],[12.6252894,41.5281192],[12.6255289,41.5273724],[12.625807,41.5268161],[12.6259363,41.525996],[12.6260505,41.5257269],[12.627577,41.5242317],[12.6286539,41.5227136],[12.6289878,41.521655],[12.6291571,41.5197444],[12.6288169,41.5187897],[12.6285752,41.5175987],[12.6285494,41.5168236],[12.6288268,41.515812],[12.6292743,41.514984],[12.6299097,41.5149757],[12.6303163,41.514868],[12.6310072,41.514513],[12.631194,41.5143232],[12.6312997,41.5140469],[12.6312739,41.5137833],[12.6311881,41.5135584],[12.6308763,41.5132618],[12.632509,41.5124704],[12.6329022,41.5120567],[12.6338335,41.5107184],[12.6345491,41.5098478],[12.6348527,41.5093085],[12.6351781,41.5084645],[12.6353847,41.5082475],[12.6372151,41.5050322],[12.6386581,41.5028821],[12.6408195,41.4994034],[12.6409539,41.4984349],[12.6411484,41.497911],[12.6421221,41.4964177],[12.6430876,41.4953884],[12.6435096,41.494809],[12.6444211,41.4891596],[12.6439061,41.4883397],[12.6433016,41.4870736],[12.6430038,41.4862411],[12.6430296,41.4851021],[12.6440113,41.4835382],[12.6441213,41.4831711],[12.6443856,41.4830865],[12.6448983,41.4819641],[12.6448104,41.4797583],[12.6453014,41.4780394],[12.6455847,41.4764446],[12.6451813,41.475853],[12.643644,41.4730785],[12.6405345,41.467046],[12.6396958,41.4652772],[12.6384341,41.4635278],[12.6413346,41.4593831],[12.641326,41.4586048],[12.6372576,41.4579036],[12.6373433,41.4573687],[12.6371716,41.4544161],[12.6378154,41.4532067],[12.6374377,41.4531102],[12.6380449,41.4523315],[12.638457,41.4519771],[12.6371313,41.4512044],[12.6360252,41.4503557],[12.6346318,41.4490736],[12.6338729,41.4481902],[12.6340626,41.4480245],[12.6341555,41.4480534],[12.6350839,41.4469869],[12.6347086,41.4460048],[12.6345566,41.4461427],[12.6348309,41.4466178],[12.634754,41.4470681],[12.6338563,41.4480264],[12.6336758,41.4481167],[12.6333791,41.448132],[12.6319153,41.4470925],[12.6318349,41.4471535],[12.6333051,41.4482447],[12.6332543,41.4485391],[12.6330105,41.4487876],[12.6328603,41.4487972],[12.6325809,41.4486489],[12.6319008,41.4480999],[12.6317766,41.4482558],[12.6314116,41.4484604],[12.6313023,41.4483339],[12.6318363,41.4480488],[12.6314805,41.4476403],[12.6314569,41.4477294],[12.6313978,41.4477073],[12.6314253,41.44756],[12.6310603,41.4472063],[12.6309944,41.4472406],[12.6305441,41.4468783],[12.6305777,41.4467275],[12.6307152,41.4466154],[12.6304836,41.4464637],[12.6306317,41.4466077],[12.6302171,41.4470017],[12.6300521,41.4469533],[12.6297299,41.4466618],[12.6297122,41.446466],[12.6301651,41.4459973],[12.6304344,41.4460946],[12.6302,41.4459734],[12.6313018,41.4442103],[12.6315925,41.4440916],[12.6331049,41.4443709],[12.6338363,41.4443265],[12.6377914,41.4432817],[12.6378946,41.4435664],[12.638111,41.4436775],[12.6382286,41.4435915],[12.6382203,41.4435048],[12.6378206,41.4427573],[12.6347967,41.4435484],[12.6336189,41.443542],[12.6312214,41.4432321],[12.6304365,41.4443269],[12.6296965,41.4441369],[12.6289843,41.4441484],[12.6287106,41.4442261],[12.6282478,41.4441404],[12.6278444,41.444179],[12.627647,41.4443977],[12.625939,41.4444749],[12.6257926,41.4446289],[12.6247713,41.4446997],[12.6246343,41.4445714],[12.6246429,41.4444749],[12.6235529,41.4445328],[12.6231409,41.4444299],[12.6229602,41.4445774],[12.6223826,41.4442892],[12.6222268,41.4441315],[12.622312,41.4437618],[12.6225588,41.4433205],[12.622658,41.4432914],[12.6225664,41.4431876],[12.6223791,41.4433688],[12.6221001,41.4441177],[12.6221109,41.4444982],[12.6222711,41.4448424],[12.6218434,41.4450093],[12.6200461,41.4465022],[12.6192431,41.4465899],[12.6190187,41.4470773],[12.6187789,41.4473243],[12.6183515,41.4474537],[12.6181284,41.4472929],[12.6179052,41.4472929],[12.618094,41.4476596],[12.6183,41.4477625],[12.6182829,41.448007],[12.6184396,41.4483163],[12.6180168,41.4488047],[12.6175603,41.4506167],[12.6175442,41.4521425],[12.6176429,41.4526405],[12.6164306,41.4549457],[12.6107813,41.4619919],[12.609923,41.4628924],[12.6090101,41.4650813],[12.6080402,41.4664513],[12.6054206,41.4705512],[12.603923,41.4722252],[12.6035827,41.4724164],[12.6028285,41.4733087],[12.6024936,41.4734145],[12.6025402,41.4735428],[12.6023531,41.4738615],[12.6021773,41.4745881],[12.6019221,41.4746646],[12.601708,41.4749527],[12.600834,41.4755021],[12.6000671,41.476757],[12.5993448,41.4774279],[12.5986783,41.4787435],[12.5948778,41.4824894],[12.5921794,41.4848954],[12.5906894,41.4858563],[12.5904649,41.4858956],[12.5902622,41.4856699],[12.5901463,41.4857263],[12.5898161,41.4862992],[12.5894626,41.4865553],[12.5891403,41.4866115],[12.5888313,41.4869329],[12.5892433,41.4872737],[12.5891157,41.4881575],[12.5880996,41.490084],[12.5879281,41.4902824],[12.5877939,41.4907432],[12.5875255,41.491204],[12.5872514,41.4914679],[12.5860874,41.4930618],[12.5845726,41.4959041],[12.5839015,41.4968214],[12.5836228,41.4970575],[12.5829847,41.498258],[12.582109,41.4993032],[12.582,41.4995566],[12.5818294,41.499676],[12.5817288,41.4999818],[12.5813149,41.5006101],[12.5810073,41.5008572],[12.5802076,41.5020928],[12.579459,41.5029905],[12.5792086,41.5031426],[12.5789716,41.5034289],[12.5789213,41.5035965],[12.577955,41.5047904],[12.5778755,41.5050833],[12.5771461,41.5057454],[12.5764868,41.5065071],[12.5758201,41.5075686],[12.5751619,41.5082745],[12.5751481,41.5083656],[12.5754841,41.5084606],[12.5754461,41.5085167],[12.5751147,41.5084876],[12.574349,41.5091618],[12.5739576,41.509751],[12.5730446,41.5106642],[12.5725608,41.5114411],[12.5717301,41.5124264],[12.5715839,41.5127127],[12.5712017,41.5130411],[12.5688357,41.5157119],[12.5647411,41.520749],[12.5642494,41.5211537],[12.5632694,41.5223296],[12.5628465,41.5226688],[12.5609362,41.5249409],[12.5586342,41.5271615],[12.5587345,41.5272718],[12.5582567,41.5276709],[12.5581281,41.5279562],[12.5577853,41.5283579],[12.5573284,41.5287391],[12.5564657,41.5299768],[12.5553834,41.53114],[12.5553519,41.5312881],[12.5529542,41.5336556],[12.5525476,41.5339645]]]},"properties":{"type":"boundary","gemeente":"Anzio"}}]}