{"type":"FeatureCollection","metadata":{"gemeente":"Attigliano","slug":"attigliano","generated_at":"2026-09-26T13:09:33.763183Z","total_points":6,"providers":["PosteItaliane","DHL","Amazon"],"bounds":[12.291,42.5151,12.294527,42.51801218]},"features":[{"type":"Feature","geometry":{"type":"Point","coordinates":[12.29102444,42.51517898]},"properties":{"type":"pakketpunt","locatieNaam":"Attigliano","straatNaam":"Via Sandro Pertini","straatNr":"7","vervoerder":"PosteItaliane","puntType":"postkantoor","bezettingsgraad":50,"latitude":42.51517898,"longitude":12.29102444,"canPickup":true,"canDropoff":true,"openingstijden":{"za":"08:20 - 12:35","zo":"gesloten","ma":"08:20 - 13:35","di":"08:20 - 13:35","wo":"08:20 - 13:35","do":"08:20 - 13:35","vr":"08:20 - 13:35"}}},{"type":"Feature","geometry":{"type":"Point","coordinates":[12.29452688,42.51801218]},"properties":{"type":"pakketpunt","locatieNaam":"Tabaccheria N. 2","straatNaam":"Piazza Guglielmo Marconi","straatNr":"1","vervoerder":"PosteItaliane","puntType":"servicepunt","bezettingsgraad":50,"latitude":42.51801218,"longitude":12.29452688,"canPickup":true,"canDropoff":true,"openingstijden":{"za":"06:00 - 21:00","zo":"06:30 - 14:00","ma":"06:00 - 21:00","di":"06:00 - 21:00","wo":"06:00 - 21:00","do":"06:00 - 21:00","vr":"06:00 - 21:00"}}},{"type":"Feature","geometry":{"type":"Point","coordinates":[12.291024,42.515179]},"properties":{"type":"pakketpunt","locatieNaam":"Ufficio Postale ATTIGLIANO","straatNaam":"VIA SANDRO PERTINI 7","straatNr":"","vervoerder":"DHL","puntType":"postOffice","bezettingsgraad":50,"latitude":42.515179,"longitude":12.291024,"canPickup":true,"canDropoff":true,"openingstijden":{"ma":"08:20 - 13:35","di":"08:20 - 13:35","wo":"08:20 - 13:35","do":"08:20 - 13:35","vr":"08:20 - 13:35","za":"08:20 - 12:35","zo":"gesloten"}}},{"type":"Feature","geometry":{"type":"Point","coordinates":[12.294527,42.518012]},"properties":{"type":"pakketpunt","locatieNaam":"TABACCHERIA N. 2","straatNaam":"PIAZZA GUGLIELMO MARCONI 1","straatNr":"","vervoerder":"DHL","puntType":"parcelShop","bezettingsgraad":50,"latitude":42.518012,"longitude":12.294527,"canPickup":true,"canDropoff":true,"openingstijden":{"ma":"06:00 - 21:00","di":"06:00 - 21:00","wo":"06:00 - 21:00","do":"06:00 - 21:00","vr":"06:00 - 21:00","za":"06:00 - 21:00","zo":"06:30 - 14:00"}}},{"type":"Feature","geometry":{"type":"Point","coordinates":[12.291,42.5151]},"properties":{"type":"pakketpunt","locatieNaam":"Ufficio Postale ATTIGLIANO","straatNaam":"VIA SANDRO PERTINI 7","straatNr":"","vervoerder":"Amazon","puntType":"3p","bezettingsgraad":50,"latitude":42.5151,"longitude":12.291,"canPickup":true,"canDropoff":false,"openingstijden":null}},{"type":"Feature","geometry":{"type":"Point","coordinates":[12.2945,42.518]},"properties":{"type":"pakketpunt","locatieNaam":"PuntoPoste TABACCHERIA N. 2","straatNaam":"PIAZZA GUGLIELMO MARCONI 1","straatNr":"","vervoerder":"Amazon","puntType":"3p","bezettingsgraad":50,"latitude":42.518,"longitude":12.2945,"canPickup":true,"canDropoff":false,"openingstijden":null}},{"type":"Feature","geometry":{"type":"MultiPolygon","coordinates":[[[[12.2666131,42.536528],[12.2677866,42.5366025],[12.2707183,42.5365368],[12.2727825,42.5366309],[12.2736978,42.5365552],[12.2731487,42.5404024],[12.2775825,42.5416261],[12.2785538,42.5415578],[12.2790843,42.5416596],[12.2800564,42.5413886],[12.2806988,42.541798],[12.2813114,42.542073],[12.2820339,42.541467],[12.2824594,42.5414548],[12.2830387,42.5415733],[12.2833188,42.5418354],[12.2839067,42.5420887],[12.2848939,42.5419028],[12.2852559,42.5420724],[12.286098,42.5420933],[12.286531,42.5419908],[12.2915653,42.5422514],[12.2919637,42.5419698],[12.2919224,42.5414577],[12.2919895,42.5406364],[12.2923118,42.5402669],[12.2921747,42.5397576],[12.2924963,42.5394062],[12.2930878,42.5395243],[12.296768,42.5393508],[12.2985961,42.5391361],[12.2992098,42.5387672],[12.3003727,42.5386526],[12.3019037,42.5383473],[12.3049211,42.5375984],[12.3098229,42.53589],[12.3106228,42.5353446],[12.3106274,42.5347412],[12.3108675,42.5335682],[12.3103163,42.5319228],[12.3093161,42.5305335],[12.3098109,42.5290695],[12.3093903,42.5284964],[12.3074411,42.5273326],[12.3069308,42.5271222],[12.307047,42.5265696],[12.3066827,42.5256797],[12.3071269,42.5250996],[12.3084202,42.5249406],[12.3087637,42.5249758],[12.3091632,42.5251488],[12.3101203,42.5257379],[12.3108834,42.5256663],[12.3119581,42.5250545],[12.3125491,42.5251814],[12.3133625,42.5246942],[12.3148908,42.5245599],[12.3146547,42.5237923],[12.3138416,42.5218124],[12.3134837,42.5212464],[12.3125207,42.5207881],[12.3122502,42.5205213],[12.3116912,42.5196325],[12.3116588,42.5174363],[12.3115623,42.5169934],[12.3115448,42.5159854],[12.3113899,42.5158188],[12.3111232,42.5156374],[12.307619,42.5149824],[12.3057989,42.5148729],[12.3049997,42.5147204],[12.3046608,42.514541],[12.303661,42.5142908],[12.3016449,42.5141418],[12.3012491,42.5140362],[12.3002805,42.5129926],[12.3002229,42.5123909],[12.3004306,42.5114665],[12.2999257,42.5104455],[12.2990551,42.5080394],[12.29852,42.5071499],[12.2981862,42.5063716],[12.2982875,42.5059995],[12.2989427,42.5054989],[12.3000402,42.5052962],[12.3006791,42.5049491],[12.3009746,42.5045669],[12.3008318,42.5039497],[12.3005116,42.5036033],[12.2996123,42.5034536],[12.298626,42.5038017],[12.298213,42.5041062],[12.2978709,42.5047734],[12.2976838,42.5056567],[12.2969328,42.506894],[12.2961364,42.5074437],[12.2942713,42.5073983],[12.2934848,42.5072543],[12.2921748,42.5066572],[12.2914134,42.506526],[12.2907515,42.5066666],[12.2895242,42.5071656],[12.2891521,42.5077571],[12.289126,42.5079424],[12.2893735,42.5086872],[12.2909752,42.5099423],[12.2908951,42.5102283],[12.2903469,42.5106087],[12.2897796,42.510598],[12.2882,42.5102112],[12.2855481,42.5090762],[12.2847878,42.5085307],[12.282865,42.5076179],[12.2825927,42.5075447],[12.2824974,42.507759],[12.2825473,42.5080592],[12.2813767,42.5075795],[12.2792271,42.5065021],[12.2787418,42.5065425],[12.2780091,42.5069398],[12.2777045,42.507203],[12.2771313,42.5080388],[12.2763073,42.5084856],[12.2755842,42.5086504],[12.2749975,42.5089508],[12.2747651,42.5092051],[12.2746251,42.5095107],[12.2744966,42.5102978],[12.2744179,42.5122405],[12.2751068,42.5135174],[12.2754987,42.5155278],[12.2755042,42.5159958],[12.2871909,42.5182361],[12.2892078,42.518831],[12.2902673,42.5190437],[12.28836,42.5214351],[12.2877907,42.5219242],[12.286996,42.5221181],[12.2779305,42.5233731],[12.2766301,42.5234148],[12.2751458,42.5236779],[12.2744502,42.5238779],[12.2737968,42.5250226],[12.2733642,42.5255879],[12.27273,42.5260476],[12.2714419,42.5266607],[12.2705375,42.5273214],[12.2690109,42.529472],[12.2682035,42.5310304],[12.2671693,42.5326177],[12.266757,42.5334668],[12.2663614,42.5348828],[12.2661799,42.5360856],[12.2661987,42.5362426],[12.2666131,42.536528]]],[[[12.2998659,42.4875083],[12.2976123,42.4879019],[12.2958505,42.4884074],[12.2938411,42.4892981],[12.2914893,42.4907345],[12.290409,42.491639],[12.2895971,42.4927293],[12.289239,42.4945135],[12.2895057,42.4947129],[12.2907183,42.4946195],[12.2922476,42.4947782],[12.292892,42.4947551],[12.2938326,42.494593],[12.2969004,42.4946083],[12.2976213,42.4948982],[12.2985641,42.4951546],[12.2996181,42.4935935],[12.3006607,42.492726],[12.3029814,42.4913219],[12.3001564,42.4876665],[12.2998659,42.4875083]]]]},"properties":{"type":"boundary","gemeente":"Attigliano"}}]}