{"type":"FeatureCollection","metadata":{"gemeente":"Avezzano","slug":"avezzano","generated_at":"2026-09-26T13:09:33.961018Z","total_points":117,"providers":["PosteItaliane","DPD","InPost","GLS","DHL","Amazon"],"bounds":[13.4069,42.026735,13.471163,42.057216]},"features":[{"type":"Feature","geometry":{"type":"Point","coordinates":[13.42782587,42.03706803]},"properties":{"type":"pakketpunt","locatieNaam":"Tabaccheria N. 5","straatNaam":"Via Giuseppe Garibaldi","straatNr":"86","vervoerder":"PosteItaliane","puntType":"servicepunt","bezettingsgraad":50,"latitude":42.03706803,"longitude":13.42782587,"canPickup":true,"canDropoff":true,"openingstijden":{"za":"07:30 - 13:00, 15:00 - 20:00","zo":"gesloten","ma":"07:30 - 13:00, 15:00 - 20:00","di":"07:30 - 13:00, 15:00 - 20:00","wo":"07:30 - 13:00, 15:00 - 20:00","do":"07:30 - 13:00, 15:00 - 20:00","vr":"07:30 - 13:00, 15:00 - 20:00"}}},{"type":"Feature","geometry":{"type":"Point","coordinates":[13.4289227,42.04347775]},"properties":{"type":"pakketpunt","locatieNaam":"Avezzano","straatNaam":"Via Cavalieri Di Vittorio Veneto","straatNr":"50","vervoerder":"PosteItaliane","puntType":"postkantoor","bezettingsgraad":50,"latitude":42.04347775,"longitude":13.4289227,"canPickup":true,"canDropoff":true,"openingstijden":{"za":"08:20 - 12:35","zo":"gesloten","ma":"08:20 - 19:05","di":"08:20 - 19:05","wo":"08:20 - 19:05","do":"08:20 - 19:05","vr":"08:20 - 19:05"}}},{"type":"Feature","geometry":{"type":"Point","coordinates":[13.46072121,42.05367927]},"properties":{"type":"pakketpunt","locatieNaam":"San Pelino","straatNaam":"Corso Italia","straatNr":"19","vervoerder":"PosteItaliane","puntType":"postkantoor","bezettingsgraad":50,"latitude":42.05367927,"longitude":13.46072121,"canPickup":true,"canDropoff":true,"openingstijden":{"za":"gesloten","zo":"gesloten","ma":"08:20 - 13:45","di":"gesloten","wo":"08:20 - 13:45","do":"gesloten","vr":"08:20 - 13:45"}}},{"type":"Feature","geometry":{"type":"Point","coordinates":[13.42666861,42.0328169]},"properties":{"type":"pakketpunt","locatieNaam":"Avezzano 2","straatNaam":"Via Guglielmo Marconi","straatNr":"68","vervoerder":"PosteItaliane","puntType":"postkantoor","bezettingsgraad":50,"latitude":42.0328169,"longitude":13.42666861,"canPickup":true,"canDropoff":true,"openingstijden":{"za":"08:20 - 12:35","zo":"gesloten","ma":"08:20 - 19:05","di":"08:20 - 19:05","wo":"08:20 - 19:05","do":"08:20 - 19:05","vr":"08:20 - 19:05"}}},{"type":"Feature","geometry":{"type":"Point","coordinates":[13.47116271,42.05721596]},"properties":{"type":"pakketpunt","locatieNaam":"Paterno","straatNaam":"Via Giuseppe Fracassi","straatNr":"62","vervoerder":"PosteItaliane","puntType":"postkantoor","bezettingsgraad":50,"latitude":42.05721596,"longitude":13.47116271,"canPickup":true,"canDropoff":true,"openingstijden":{"za":"08:20 - 12:45","zo":"gesloten","ma":"08:20 - 13:45","di":"08:20 - 13:45","wo":"08:20 - 13:45","do":"08:20 - 13:45","vr":"08:20 - 13:45"}}},{"type":"Feature","geometry":{"type":"Point","coordinates":[13.42066698,42.02879326]},"properties":{"type":"pakketpunt","locatieNaam":"Avezzano 3","straatNaam":"Via America","straatNr":"63","vervoerder":"PosteItaliane","puntType":"postkantoor","bezettingsgraad":50,"latitude":42.02879326,"longitude":13.42066698,"canPickup":true,"canDropoff":true,"openingstijden":{"za":"08:20 - 12:35","zo":"gesloten","ma":"08:20 - 13:35","di":"08:20 - 13:35","wo":"08:20 - 13:35","do":"08:20 - 13:35","vr":"08:20 - 13:35"}}},{"type":"Feature","geometry":{"type":"Point","coordinates":[13.42613868,42.03913679]},"properties":{"type":"pakketpunt","locatieNaam":"Avezzano 1","straatNaam":"Piazza Giacomo Matteotti","straatNr":"1","vervoerder":"PosteItaliane","puntType":"postkantoor","bezettingsgraad":50,"latitude":42.03913679,"longitude":13.42613868,"canPickup":true,"canDropoff":true,"openingstijden":{"za":"08:20 - 12:35","zo":"gesloten","ma":"08:20 - 13:35","di":"08:20 - 13:35","wo":"08:20 - 13:35","do":"08:20 - 13:35","vr":"08:20 - 13:35"}}},{"type":"Feature","geometry":{"type":"Point","coordinates":[13.4087029,42.04438612]},"properties":{"type":"pakketpunt","locatieNaam":"Tabaccheria N. 34","straatNaam":"Via Roma","straatNr":"176","vervoerder":"PosteItaliane","puntType":"servicepunt","bezettingsgraad":50,"latitude":42.04438612,"longitude":13.4087029,"canPickup":true,"canDropoff":true,"openingstijden":{"za":"05:00 - 21:00","zo":"05:00 - 21:00","ma":"05:00 - 21:00","di":"05:00 - 21:00","wo":"05:00 - 21:00","do":"05:00 - 21:00","vr":"05:00 - 21:00"}}},{"type":"Feature","geometry":{"type":"Point","coordinates":[13.4289227,42.04347775]},"properties":{"type":"pakketpunt","locatieNaam":"Ufficio Postale Avezzano","straatNaam":"Via Cavalieri Di Vittorio Veneto","straatNr":"50","vervoerder":"PosteItaliane","puntType":"automaat","bezettingsgraad":50,"latitude":42.04347775,"longitude":13.4289227,"canPickup":true,"canDropoff":true,"openingstijden":{"za":"00:01 - 23:59","zo":"00:01 - 23:59","ma":"00:01 - 23:59","di":"00:01 - 23:59","wo":"00:01 - 23:59","do":"00:01 - 23:59","vr":"00:01 - 23:59"}}},{"type":"Feature","geometry":{"type":"Point","coordinates":[13.42038965,42.02867037]},"properties":{"type":"pakketpunt","locatieNaam":"Tabaccheria N. 39","straatNaam":"Via America","straatNr":"65","vervoerder":"PosteItaliane","puntType":"servicepunt","bezettingsgraad":50,"latitude":42.02867037,"longitude":13.42038965,"canPickup":true,"canDropoff":true,"openingstijden":{"za":"08:15 - 13:00, 16:15 - 19:30","zo":"gesloten","ma":"08:15 - 13:00, 16:15 - 19:30","di":"08:15 - 13:00, 16:15 - 19:30","wo":"08:15 - 13:00, 16:15 - 19:30","do":"08:15 - 13:00, 16:15 - 19:30","vr":"08:15 - 13:00, 16:15 - 19:30"}}},{"type":"Feature","geometry":{"type":"Point","coordinates":[13.42403007,42.02851484]},"properties":{"type":"pakketpunt","locatieNaam":"Telefonia Avezzano","straatNaam":"Piazza Torlonia","straatNr":"71","vervoerder":"PosteItaliane","puntType":"servicepunt","bezettingsgraad":50,"latitude":42.02851484,"longitude":13.42403007,"canPickup":true,"canDropoff":true,"openingstijden":{"za":"09:00 - 12:30","zo":"gesloten","ma":"09:00 - 12:30, 16:00 - 19:30","di":"09:00 - 12:30, 16:00 - 19:30","wo":"09:00 - 12:30, 16:00 - 19:30","do":"09:00 - 12:00, 16:00 - 19:30","vr":"09:00 - 12:30, 16:00 - 19:30"}}},{"type":"Feature","geometry":{"type":"Point","coordinates":[13.42975273,42.04965958]},"properties":{"type":"pakketpunt","locatieNaam":"Tabaccheria N. 26","straatNaam":"Via Piersanti Mattarella","straatNr":"8","vervoerder":"PosteItaliane","puntType":"servicepunt","bezettingsgraad":50,"latitude":42.04965958,"longitude":13.42975273,"canPickup":true,"canDropoff":true,"openingstijden":{"za":"08:00 - 13:00, 16:00 - 19:45","zo":"gesloten","ma":"08:00 - 13:00, 16:00 - 19:45","di":"08:00 - 13:00, 16:00 - 19:45","wo":"08:00 - 13:00, 16:00 - 19:45","do":"08:00 - 13:00, 16:00 - 19:45","vr":"08:00 - 13:00, 16:00 - 19:45"}}},{"type":"Feature","geometry":{"type":"Point","coordinates":[13.43333368,42.03920096]},"properties":{"type":"pakketpunt","locatieNaam":"Bar Elite","straatNaam":"Via Pescara","straatNr":"45","vervoerder":"PosteItaliane","puntType":"automaat","bezettingsgraad":50,"latitude":42.03920096,"longitude":13.43333368,"canPickup":true,"canDropoff":true,"openingstijden":{"za":"00:01 - 23:59","zo":"00:01 - 23:59","ma":"00:01 - 23:59","di":"00:01 - 23:59","wo":"00:01 - 23:59","do":"00:01 - 23:59","vr":"00:01 - 23:59"}}},{"type":"Feature","geometry":{"type":"Point","coordinates":[13.42360658,42.02958565]},"properties":{"type":"pakketpunt","locatieNaam":"Telefonia Avezzano","straatNaam":"Piazza Torlonia","straatNr":"70","vervoerder":"PosteItaliane","puntType":"automaat","bezettingsgraad":50,"latitude":42.02958565,"longitude":13.42360658,"canPickup":true,"canDropoff":true,"openingstijden":{"za":"00:01 - 23:59","zo":"00:01 - 23:59","ma":"00:01 - 23:59","di":"00:01 - 23:59","wo":"00:01 - 23:59","do":"00:01 - 23:59","vr":"00:01 - 23:59"}}},{"type":"Feature","geometry":{"type":"Point","coordinates":[13.41696111,42.03027291]},"properties":{"type":"pakketpunt","locatieNaam":"Tabaccheria N. 16","straatNaam":"Via Borgo Angizia","straatNr":"56","vervoerder":"PosteItaliane","puntType":"servicepunt","bezettingsgraad":50,"latitude":42.03027291,"longitude":13.41696111,"canPickup":true,"canDropoff":true,"openingstijden":{"za":"07:00 - 20:00","zo":"gesloten","ma":"07:00 - 13:00, 15:00 - 20:00","di":"07:00 - 13:00, 15:00 - 20:00","wo":"07:00 - 13:00, 15:00 - 20:00","do":"07:00 - 13:00, 15:00 - 20:00","vr":"07:00 - 13:00, 15:00 - 20:00"}}},{"type":"Feature","geometry":{"type":"Point","coordinates":[13.42895534,42.03431511]},"properties":{"type":"pakketpunt","locatieNaam":"Mps Multiservice Goldenergy","straatNaam":"Via Nazario Sauro","straatNr":"77","vervoerder":"PosteItaliane","puntType":"automaat","bezettingsgraad":50,"latitude":42.03431511,"longitude":13.42895534,"canPickup":true,"canDropoff":true,"openingstijden":{"za":"10:00 - 12:30","zo":"gesloten","ma":"09:30 - 12:30","di":"09:30 - 12:30","wo":"09:30 - 13:30","do":"09:30 - 13:30","vr":"09:30 - 13:30"}}},{"type":"Feature","geometry":{"type":"Point","coordinates":[13.42700701,42.03491422]},"properties":{"type":"pakketpunt","locatieNaam":"Tabaccheria N. 12","straatNaam":"Via Sergio Cataldi","straatNr":"142","vervoerder":"PosteItaliane","puntType":"servicepunt","bezettingsgraad":50,"latitude":42.03491422,"longitude":13.42700701,"canPickup":true,"canDropoff":true,"openingstijden":{"za":"07:30 - 13:00, 15:00 - 20:00","zo":"07:30 - 13:00, 15:00 - 20:00","ma":"07:30 - 13:00, 15:00 - 20:00","di":"07:30 - 13:00, 15:00 - 20:00","wo":"07:30 - 13:00, 15:00 - 20:00","do":"07:30 - 13:00, 15:00 - 20:00","vr":"07:30 - 13:00, 15:00 - 20:00"}}},{"type":"Feature","geometry":{"type":"Point","coordinates":[13.4232446,42.0461888]},"properties":{"type":"pakketpunt","locatieNaam":"Tabaccheria N. 51","straatNaam":"Via Luigi Einaudi","straatNr":"11","vervoerder":"PosteItaliane","puntType":"servicepunt","bezettingsgraad":50,"latitude":42.0461888,"longitude":13.4232446,"canPickup":true,"canDropoff":true,"openingstijden":{"za":"07:30 - 13:00, 15:30 - 19:30","zo":"gesloten","ma":"07:30 - 13:00, 15:30 - 19:30","di":"07:30 - 13:00, 15:30 - 19:30","wo":"07:30 - 13:00, 15:30 - 19:30","do":"07:30 - 13:00, 15:30 - 19:30","vr":"07:30 - 13:00, 15:30 - 19:30"}}},{"type":"Feature","geometry":{"type":"Point","coordinates":[13.42296049,42.03462087]},"properties":{"type":"pakketpunt","locatieNaam":"Tabaccheria N. 10","straatNaam":"Via Camillo Corradini","straatNr":"51","vervoerder":"PosteItaliane","puntType":"servicepunt","bezettingsgraad":50,"latitude":42.03462087,"longitude":13.42296049,"canPickup":true,"canDropoff":true,"openingstijden":{"za":"06:30 - 13:00, 15:30 - 20:00","zo":"gesloten","ma":"06:30 - 13:00, 15:30 - 20:00","di":"06:30 - 13:00, 15:30 - 20:00","wo":"06:30 - 13:00, 15:30 - 20:00","do":"06:30 - 13:00, 15:30 - 20:00","vr":"06:30 - 13:00, 15:30 - 20:00"}}},{"type":"Feature","geometry":{"type":"Point","coordinates":[13.42165313,42.03949704]},"properties":{"type":"pakketpunt","locatieNaam":"Tabaccheria N. 47","straatNaam":"Via Bruno Cassinelli","straatNr":"2","vervoerder":"PosteItaliane","puntType":"servicepunt","bezettingsgraad":50,"latitude":42.03949704,"longitude":13.42165313,"canPickup":true,"canDropoff":true,"openingstijden":{"za":"08:00 - 13:00, 15:00 - 19:30","zo":"gesloten","ma":"08:00 - 13:00, 15:00 - 19:30","di":"08:00 - 13:00, 15:00 - 19:30","wo":"08:00 - 13:00, 15:00 - 19:30","do":"08:00 - 13:00, 15:00 - 19:30","vr":"08:00 - 13:00, 15:00 - 19:30"}}},{"type":"Feature","geometry":{"type":"Point","coordinates":[13.42642708,42.03822894]},"properties":{"type":"pakketpunt","locatieNaam":"Tabaccheria N. 11","straatNaam":"Corso Della Liberta'","straatNr":"11","vervoerder":"PosteItaliane","puntType":"servicepunt","bezettingsgraad":50,"latitude":42.03822894,"longitude":13.42642708,"canPickup":true,"canDropoff":true,"openingstijden":{"za":"07:30 - 13:00, 15:30 - 20:00","zo":"gesloten","ma":"07:30 - 13:00, 15:30 - 20:00","di":"07:30 - 13:00, 15:30 - 20:00","wo":"07:30 - 13:00, 15:30 - 20:00","do":"07:30 - 13:00, 15:30 - 20:00","vr":"07:30 - 13:00, 15:30 - 20:00"}}},{"type":"Feature","geometry":{"type":"Point","coordinates":[13.428206,42.0436431]},"properties":{"type":"pakketpunt","locatieNaam":"Tabaccheria N. 31","straatNaam":"Via Cavalieri Di Vittorio Veneto","straatNr":"64","vervoerder":"PosteItaliane","puntType":"servicepunt","bezettingsgraad":50,"latitude":42.0436431,"longitude":13.428206,"canPickup":true,"canDropoff":true,"openingstijden":{"za":"07:00 - 20:00","zo":"09:00 - 13:00","ma":"07:00 - 20:00","di":"07:00 - 20:00","wo":"07:00 - 20:00","do":"07:00 - 20:00","vr":"07:00 - 20:00"}}},{"type":"Feature","geometry":{"type":"Point","coordinates":[13.42778042,42.03891535]},"properties":{"type":"pakketpunt","locatieNaam":"Rt.com Services","straatNaam":"Via Montello","straatNr":"5","vervoerder":"PosteItaliane","puntType":"servicepunt","bezettingsgraad":50,"latitude":42.03891535,"longitude":13.42778042,"canPickup":true,"canDropoff":true,"openingstijden":{"za":"09:00 - 14:00","zo":"gesloten","ma":"08:30 - 20:00","di":"08:30 - 20:00","wo":"08:30 - 20:00","do":"08:30 - 20:00","vr":"08:30 - 20:00"}}},{"type":"Feature","geometry":{"type":"Point","coordinates":[13.43272157,42.04301638]},"properties":{"type":"pakketpunt","locatieNaam":"Tabaccheria N. 38","straatNaam":"Via Massa D'albe","straatNr":"14/f","vervoerder":"PosteItaliane","puntType":"servicepunt","bezettingsgraad":50,"latitude":42.04301638,"longitude":13.43272157,"canPickup":true,"canDropoff":true,"openingstijden":{"za":"07:30 - 20:00","zo":"gesloten","ma":"07:30 - 20:00","di":"07:30 - 20:00","wo":"07:30 - 20:00","do":"07:30 - 20:00","vr":"07:30 - 20:00"}}},{"type":"Feature","geometry":{"type":"Point","coordinates":[13.42525122,42.02725394]},"properties":{"type":"pakketpunt","locatieNaam":"Tabaccheria N. 2","straatNaam":"Piazza Castello","straatNr":"35","vervoerder":"PosteItaliane","puntType":"servicepunt","bezettingsgraad":50,"latitude":42.02725394,"longitude":13.42525122,"canPickup":true,"canDropoff":true,"openingstijden":{"za":"09:00 - 20:00","zo":"09:00 - 20:00","ma":"09:00 - 20:00","di":"09:00 - 20:00","wo":"09:00 - 20:00","do":"09:00 - 20:00","vr":"09:00 - 20:00"}}},{"type":"Feature","geometry":{"type":"Point","coordinates":[13.42029905,42.03288717]},"properties":{"type":"pakketpunt","locatieNaam":"Tabaccheria N. 1","straatNaam":"Via Roma","straatNr":"28","vervoerder":"PosteItaliane","puntType":"servicepunt","bezettingsgraad":50,"latitude":42.03288717,"longitude":13.42029905,"canPickup":true,"canDropoff":true,"openingstijden":{"za":"08:00 - 13:30","zo":"gesloten","ma":"08:00 - 13:30, 15:30 - 19:30","di":"08:00 - 13:30, 15:30 - 19:30","wo":"08:00 - 13:30, 15:30 - 19:30","do":"08:00 - 13:30, 15:30 - 19:30","vr":"08:00 - 13:30, 15:30 - 19:30"}}},{"type":"Feature","geometry":{"type":"Point","coordinates":[13.4271294417,42.038676621]},"properties":{"type":"pakketpunt","locatieNaam":"Fantacarta","straatNaam":"VIA G. GARIBALDI","straatNr":"1","vervoerder":"DPD","puntType":"pickup_point","bezettingsgraad":50,"latitude":42.038676621,"longitude":13.4271294417,"canPickup":true,"canDropoff":true,"openingstijden":{"ma":"09:00 - 13:00, 16:00 - 20:00","di":"09:00 - 13:00, 16:00 - 20:00","wo":"09:00 - 13:00, 16:00 - 20:00","do":"09:00 - 13:00, 16:00 - 20:00","vr":"09:00 - 13:00, 16:00 - 20:00","za":"09:00 - 13:00, 16:00 - 20:00","zo":"gesloten"}}},{"type":"Feature","geometry":{"type":"Point","coordinates":[13.42822,42.043776]},"properties":{"type":"pakketpunt","locatieNaam":"Bar Meeting","straatNaam":"VIA CAV. DI VITTORIO VENETO","straatNr":"64","vervoerder":"DPD","puntType":"pickup_point","bezettingsgraad":50,"latitude":42.043776,"longitude":13.42822,"canPickup":true,"canDropoff":true,"openingstijden":{"ma":"07:00 - 20:00","di":"07:00 - 20:00","wo":"07:00 - 20:00","do":"07:00 - 20:00","vr":"07:00 - 20:00","za":"07:00 - 20:00","zo":"09:00 - 13:00"}}},{"type":"Feature","geometry":{"type":"Point","coordinates":[13.42244698,42.04218283]},"properties":{"type":"pakketpunt","locatieNaam":"Caffetteria al Teatro Bistrò","straatNaam":"VIA C.DI VITTORIO VENETO","straatNr":"28","vervoerder":"DPD","puntType":"pickup_point","bezettingsgraad":50,"latitude":42.04218283,"longitude":13.42244698,"canPickup":true,"canDropoff":true,"openingstijden":{"ma":"06:30 - 21:00","di":"06:30 - 21:00","wo":"06:30 - 21:00","do":"06:30 - 21:00","vr":"06:30 - 21:00","za":"06:30 - 21:00","zo":"gesloten"}}},{"type":"Feature","geometry":{"type":"Point","coordinates":[13.42681032,42.0322951]},"properties":{"type":"pakketpunt","locatieNaam":"Eco Store-Avezzano","straatNaam":"VIA G. MARCONI","straatNr":"40","vervoerder":"DPD","puntType":"pickup_point","bezettingsgraad":50,"latitude":42.0322951,"longitude":13.42681032,"canPickup":true,"canDropoff":true,"openingstijden":{"ma":"09:00 - 13:00, 16:00 - 19:30","di":"09:00 - 13:00, 16:00 - 19:30","wo":"09:00 - 13:00, 16:00 - 19:30","do":"09:00 - 13:00, 16:00 - 19:30","vr":"09:00 - 13:00, 16:00 - 19:30","za":"gesloten","zo":"gesloten"}}},{"type":"Feature","geometry":{"type":"Point","coordinates":[13.438507,42.0383489]},"properties":{"type":"pakketpunt","locatieNaam":"Ingroscart Srl","straatNaam":"VIA XX SETTEMBRE","straatNr":"374","vervoerder":"DPD","puntType":"pickup_point","bezettingsgraad":50,"latitude":42.0383489,"longitude":13.438507,"canPickup":true,"canDropoff":true,"openingstijden":{"ma":"08:00 - 13:00, 14:30 - 19:00","di":"08:00 - 13:00, 14:30 - 19:00","wo":"08:00 - 13:00, 14:30 - 19:00","do":"08:00 - 13:00, 14:30 - 19:00","vr":"08:00 - 13:00, 14:30 - 19:00","za":"08:30 - 13:00","zo":"gesloten"}}},{"type":"Feature","geometry":{"type":"Point","coordinates":[13.4333478,42.0391235]},"properties":{"type":"pakketpunt","locatieNaam":"Bar Elite","straatNaam":"VIA PESCARA","straatNr":"45","vervoerder":"DPD","puntType":"pickup_point","bezettingsgraad":50,"latitude":42.0391235,"longitude":13.4333478,"canPickup":true,"canDropoff":true,"openingstijden":{"ma":"07:30 - 21:30","di":"07:30 - 21:30","wo":"07:30 - 21:30","do":"07:30 - 21:30","vr":"07:30 - 21:30","za":"07:30 - 21:30","zo":"07:30 - 21:30"}}},{"type":"Feature","geometry":{"type":"Point","coordinates":[13.4249301,42.042219]},"properties":{"type":"pakketpunt","locatieNaam":"Libreria Mr Book","straatNaam":"VIA S. ALLENDE","straatNr":"47-49","vervoerder":"DPD","puntType":"pickup_point","bezettingsgraad":50,"latitude":42.042219,"longitude":13.4249301,"canPickup":true,"canDropoff":true,"openingstijden":{"ma":"09:00 - 13:00, 16:00 - 20:00","di":"09:00 - 13:00, 16:00 - 20:00","wo":"09:00 - 13:00, 16:00 - 20:00","do":"09:00 - 13:00, 16:00 - 20:00","vr":"09:00 - 13:00, 16:00 - 20:00","za":"09:00 - 13:00, 16:00 - 20:00","zo":"gesloten"}}},{"type":"Feature","geometry":{"type":"Point","coordinates":[13.4293192,42.0268015]},"properties":{"type":"pakketpunt","locatieNaam":"Barber Shop Mancini","straatNaam":"VIA C. MAZZARINO","straatNr":"47","vervoerder":"DPD","puntType":"pickup_point","bezettingsgraad":50,"latitude":42.0268015,"longitude":13.4293192,"canPickup":true,"canDropoff":true,"openingstijden":{"ma":"gesloten","di":"09:00 - 13:00, 15:00 - 20:00","wo":"09:00 - 13:00, 15:00 - 20:00","do":"09:00 - 13:00, 15:00 - 20:00","vr":"09:00 - 13:00, 15:00 - 20:00","za":"08:30 - 20:00","zo":"gesloten"}}},{"type":"Feature","geometry":{"type":"Point","coordinates":[13.4289476,42.0343245]},"properties":{"type":"pakketpunt","locatieNaam":"MPS Multiservice GoldEnergy","straatNaam":"VIA N. SAURO","straatNr":"77-79","vervoerder":"DPD","puntType":"pickup_point","bezettingsgraad":50,"latitude":42.0343245,"longitude":13.4289476,"canPickup":true,"canDropoff":true,"openingstijden":{"ma":"09:30 - 12:30, 15:30 - 18:30","di":"09:30 - 12:30, 15:30 - 18:30","wo":"09:30 - 12:30, 15:30 - 18:30","do":"09:30 - 12:30, 15:30 - 18:30","vr":"09:30 - 12:30, 15:30 - 18:30","za":"gesloten","zo":"gesloten"}}},{"type":"Feature","geometry":{"type":"Point","coordinates":[13.42781,42.03889]},"properties":{"type":"pakketpunt","locatieNaam":"InPost Point","straatNaam":"Via Montello","straatNr":"5","vervoerder":"InPost","puntType":"servicepunt","bezettingsgraad":50,"latitude":42.03889,"longitude":13.42781,"canPickup":true,"canDropoff":true,"openingstijden":"Lun-ven : 09:00 - 20:30 Sab: 09:00 - 14:00 - 16:00 - 20:30"}},{"type":"Feature","geometry":{"type":"Point","coordinates":[13.42824,42.04349]},"properties":{"type":"pakketpunt","locatieNaam":"InPost Point","straatNaam":"Via Cavalieri di Vittorio Veneto","straatNr":"64","vervoerder":"InPost","puntType":"servicepunt","bezettingsgraad":50,"latitude":42.04349,"longitude":13.42824,"canPickup":true,"canDropoff":true,"openingstijden":"Lun-Sab: 07:00 - 20:00  Dom: 07:00 - 13:00"}},{"type":"Feature","geometry":{"type":"Point","coordinates":[13.42681,42.03248]},"properties":{"type":"pakketpunt","locatieNaam":"InPost Point","straatNaam":"Via Guglielmo Marconi","straatNr":"40","vervoerder":"InPost","puntType":"servicepunt","bezettingsgraad":50,"latitude":42.03248,"longitude":13.42681,"canPickup":true,"canDropoff":true,"openingstijden":"Lun-Ven: 09:00 - 13:00 - 16:00 - 19:30"}},{"type":"Feature","geometry":{"type":"Point","coordinates":[13.42384,42.02923]},"properties":{"type":"pakketpunt","locatieNaam":"InPost Locker 24/7","straatNaam":"Piazza Torlonia","straatNr":"70","vervoerder":"InPost","puntType":"automaat","bezettingsgraad":50,"latitude":42.02923,"longitude":13.42384,"canPickup":true,"canDropoff":true,"openingstijden":null}},{"type":"Feature","geometry":{"type":"Point","coordinates":[13.42726,42.0487]},"properties":{"type":"pakketpunt","locatieNaam":"InPost Locker","straatNaam":"Via Adolfo Infante","straatNr":"snc","vervoerder":"InPost","puntType":"automaat","bezettingsgraad":50,"latitude":42.0487,"longitude":13.42726,"canPickup":true,"canDropoff":true,"openingstijden":null}},{"type":"Feature","geometry":{"type":"Point","coordinates":[13.42895,42.03432]},"properties":{"type":"pakketpunt","locatieNaam":"InPost Locker","straatNaam":"Via Nazario Sauro","straatNr":"77","vervoerder":"InPost","puntType":"automaat","bezettingsgraad":50,"latitude":42.03432,"longitude":13.42895,"canPickup":true,"canDropoff":true,"openingstijden":null}},{"type":"Feature","geometry":{"type":"Point","coordinates":[13.4069,42.04551]},"properties":{"type":"pakketpunt","locatieNaam":"AVEZZANO (AQ)","straatNaam":"via Tiburtina Valeria","straatNr":"","vervoerder":"InPost","puntType":"automaat","bezettingsgraad":50,"latitude":42.04551,"longitude":13.4069,"canPickup":true,"canDropoff":true,"openingstijden":"24/7"}},{"type":"Feature","geometry":{"type":"Point","coordinates":[13.4353,42.0375]},"properties":{"type":"pakketpunt","locatieNaam":"InPost Locker 24/7","straatNaam":"Via XX Settembre SS 5","straatNr":"Km 116,12","vervoerder":"InPost","puntType":"automaat","bezettingsgraad":50,"latitude":42.0375,"longitude":13.4353,"canPickup":true,"canDropoff":true,"openingstijden":null}},{"type":"Feature","geometry":{"type":"Point","coordinates":[13.4141,42.03896]},"properties":{"type":"pakketpunt","locatieNaam":"InPost Locker 24/7","straatNaam":"SS 5 Km. 113+307","straatNr":"snc","vervoerder":"InPost","puntType":"automaat","bezettingsgraad":50,"latitude":42.03896,"longitude":13.4141,"canPickup":true,"canDropoff":true,"openingstijden":null}},{"type":"Feature","geometry":{"type":"Point","coordinates":[13.4293192,42.0268015]},"properties":{"type":"pakketpunt","locatieNaam":"Barber Shop Mancini","straatNaam":"Via Mazzarino","straatNr":"47","vervoerder":"GLS","puntType":"parcel_shop","bezettingsgraad":50,"latitude":42.0268015,"longitude":13.4293192,"canPickup":true,"canDropoff":true,"openingstijden":"za: 08:30 - 20:00; di: 09:00 - 13:00, 15:00 - 20:00"}},{"type":"Feature","geometry":{"type":"Point","coordinates":[13.4237469,42.0291834]},"properties":{"type":"pakketpunt","locatieNaam":"TELEFONIA AVEZZANO","straatNaam":"Piazza Torlonia","straatNr":"71","vervoerder":"GLS","puntType":"parcel_shop","bezettingsgraad":50,"latitude":42.0291834,"longitude":13.4237469,"canPickup":true,"canDropoff":true,"openingstijden":"za: 09:30 - 12:30; ma: 09:30 - 12:30, 16:30 - 19:00"}},{"type":"Feature","geometry":{"type":"Point","coordinates":[13.4267674,42.0322961]},"properties":{"type":"pakketpunt","locatieNaam":"Eco Store Avezzano","straatNaam":"Via G. Marconi","straatNr":"40","vervoerder":"GLS","puntType":"parcel_shop","bezettingsgraad":50,"latitude":42.0322961,"longitude":13.4267674,"canPickup":true,"canDropoff":true,"openingstijden":"za: 09:00 - 13:00; ma: 09:00 - 13:00, 16:00 - 19:30"}},{"type":"Feature","geometry":{"type":"Point","coordinates":[13.4278235,42.0389018]},"properties":{"type":"pakketpunt","locatieNaam":"RT.COM SERVICES","straatNaam":"Via Montello","straatNr":"5","vervoerder":"GLS","puntType":"parcel_shop","bezettingsgraad":50,"latitude":42.0389018,"longitude":13.4278235,"canPickup":true,"canDropoff":true,"openingstijden":"za: 09:00 - 14:00, 16:00 - 20:30; ma: 09:00 - 14:00, 16:00 - 20:30"}},{"type":"Feature","geometry":{"type":"Point","coordinates":[13.4333478,42.0391235]},"properties":{"type":"pakketpunt","locatieNaam":"Bar Elite","straatNaam":"Via Pescara","straatNr":"45","vervoerder":"GLS","puntType":"parcel_shop","bezettingsgraad":50,"latitude":42.0391235,"longitude":13.4333478,"canPickup":true,"canDropoff":true,"openingstijden":"za: 07:00 - 20:00; zo: 08:00 - 19:00"}},{"type":"Feature","geometry":{"type":"Point","coordinates":[13.4224282,42.0421659]},"properties":{"type":"pakketpunt","locatieNaam":"AL TEATRO Caffetteria Bistro'","straatNaam":"Via Cavalieri Di Vittorio Veneto","straatNr":"28","vervoerder":"GLS","puntType":"parcel_shop","bezettingsgraad":50,"latitude":42.0421659,"longitude":13.4224282,"canPickup":true,"canDropoff":true,"openingstijden":"za: 06:30 - 21:30; ma: 06:30 - 21:30"}},{"type":"Feature","geometry":{"type":"Point","coordinates":[13.424428,42.042302]},"properties":{"type":"pakketpunt","locatieNaam":"Edicola","straatNaam":"Via Cavalieri Di Vittorio Veneto","straatNr":"48","vervoerder":"GLS","puntType":"parcel_shop","bezettingsgraad":50,"latitude":42.042302,"longitude":13.424428,"canPickup":true,"canDropoff":true,"openingstijden":"za: 07:00 - 13:00, 16:00 - 19:00; ma: 07:00 - 13:00, 16:00 - 19:30"}},{"type":"Feature","geometry":{"type":"Point","coordinates":[13.4281657,42.0435255]},"properties":{"type":"pakketpunt","locatieNaam":"BAR MEETING","straatNaam":"Via Cavalieri Di Vittorio Veneto","straatNr":"64","vervoerder":"GLS","puntType":"parcel_shop","bezettingsgraad":50,"latitude":42.0435255,"longitude":13.4281657,"canPickup":true,"canDropoff":true,"openingstijden":"za: 07:00 - 20:00; zo: 09:00 - 13:00"}},{"type":"Feature","geometry":{"type":"Point","coordinates":[13.4319897,42.0447718]},"properties":{"type":"pakketpunt","locatieNaam":"db ricambi","straatNaam":"P. Gobetti","straatNr":"10","vervoerder":"GLS","puntType":"parcel_shop","bezettingsgraad":50,"latitude":42.0447718,"longitude":13.4319897,"canPickup":true,"canDropoff":true,"openingstijden":"za: 09:30 - 13:00, 16:30 - 19:00; ma: 08:30 - 13:00, 15:30 - 19:00"}},{"type":"Feature","geometry":{"type":"Point","coordinates":[13.4326295,42.0461465]},"properties":{"type":"pakketpunt","locatieNaam":"EDICOLAGOSTINI","straatNaam":"Via Massa D'Albe","straatNr":"15","vervoerder":"GLS","puntType":"parcel_shop","bezettingsgraad":50,"latitude":42.0461465,"longitude":13.4326295,"canPickup":true,"canDropoff":true,"openingstijden":"za: 07:00 - 13:00, 16:00 - 19:30; zo: 07:30 - 13:00"}},{"type":"Feature","geometry":{"type":"Point","coordinates":[13.425251,42.027254]},"properties":{"type":"pakketpunt","locatieNaam":"TABACCHERIA N. 2","straatNaam":"PIAZZA CASTELLO 35","straatNr":"","vervoerder":"DHL","puntType":"parcelShop","bezettingsgraad":50,"latitude":42.027254,"longitude":13.425251,"canPickup":true,"canDropoff":true,"openingstijden":{"ma":"09:00 - 20:00","di":"09:00 - 20:00","wo":"09:00 - 20:00","do":"09:00 - 20:00","vr":"09:00 - 20:00","za":"09:00 - 20:00","zo":"09:00 - 20:00"}}},{"type":"Feature","geometry":{"type":"Point","coordinates":[13.42403,42.028515]},"properties":{"type":"pakketpunt","locatieNaam":"TELEFONIA AVEZZANO","straatNaam":"PIAZZA TORLONIA 71","straatNr":"","vervoerder":"DHL","puntType":"parcelShop","bezettingsgraad":50,"latitude":42.028515,"longitude":13.42403,"canPickup":true,"canDropoff":true,"openingstijden":{"ma":"09:00 - 12:30, 16:00 - 19:30","di":"09:00 - 12:30, 16:00 - 19:30","wo":"09:00 - 12:30, 16:00 - 19:30","do":"09:00 - 12:00, 16:00 - 19:30","vr":"09:00 - 12:30, 16:00 - 19:30","za":"09:00 - 12:30","zo":"gesloten"}}},{"type":"Feature","geometry":{"type":"Point","coordinates":[13.423607,42.029586]},"properties":{"type":"pakketpunt","locatieNaam":"TELEFONIA AVEZZANO","straatNaam":"PIAZZA TORLONIA 70","straatNr":"","vervoerder":"DHL","puntType":"packStation","bezettingsgraad":50,"latitude":42.029586,"longitude":13.423607,"canPickup":true,"canDropoff":true,"openingstijden":{"ma":"00:01 - 23:59","di":"00:01 - 23:59","wo":"00:01 - 23:59","do":"00:01 - 23:59","vr":"00:01 - 23:59","za":"00:01 - 23:59","zo":"00:01 - 23:59"}}},{"type":"Feature","geometry":{"type":"Point","coordinates":[13.42039,42.02867]},"properties":{"type":"pakketpunt","locatieNaam":"TABACCHERIA n. 39","straatNaam":"VIA AMERICA 65","straatNr":"","vervoerder":"DHL","puntType":"parcelShop","bezettingsgraad":50,"latitude":42.02867,"longitude":13.42039,"canPickup":true,"canDropoff":true,"openingstijden":{"ma":"08:15 - 13:00, 16:15 - 19:30","di":"08:15 - 13:00, 16:15 - 19:30","wo":"08:15 - 13:00, 16:15 - 19:30","do":"08:15 - 13:00, 16:15 - 19:30","vr":"08:15 - 13:00, 16:15 - 19:30","za":"08:15 - 13:00, 16:15 - 19:30","zo":"gesloten"}}},{"type":"Feature","geometry":{"type":"Point","coordinates":[13.420667,42.028793]},"properties":{"type":"pakketpunt","locatieNaam":"Ufficio Postale AVEZZANO 3","straatNaam":"VIA AMERICA 63","straatNr":"","vervoerder":"DHL","puntType":"postOffice","bezettingsgraad":50,"latitude":42.028793,"longitude":13.420667,"canPickup":true,"canDropoff":true,"openingstijden":{"ma":"08:20 - 13:35","di":"08:20 - 13:35","wo":"08:20 - 13:35","do":"08:20 - 13:35","vr":"08:20 - 13:35","za":"08:20 - 12:35","zo":"gesloten"}}},{"type":"Feature","geometry":{"type":"Point","coordinates":[13.426669,42.032817]},"properties":{"type":"pakketpunt","locatieNaam":"Ufficio Postale AVEZZANO 2","straatNaam":"VIA GUGLIELMO MARCONI 68","straatNr":"","vervoerder":"DHL","puntType":"postOffice","bezettingsgraad":50,"latitude":42.032817,"longitude":13.426669,"canPickup":true,"canDropoff":true,"openingstijden":{"ma":"08:20 - 19:05","di":"08:20 - 19:05","wo":"08:20 - 19:05","do":"08:20 - 19:05","vr":"08:20 - 19:05","za":"08:20 - 12:35","zo":"gesloten"}}},{"type":"Feature","geometry":{"type":"Point","coordinates":[13.416961,42.030273]},"properties":{"type":"pakketpunt","locatieNaam":"TABACCHERIA N. 16","straatNaam":"VIA BORGO ANGIZIA 56","straatNr":"","vervoerder":"DHL","puntType":"parcelShop","bezettingsgraad":50,"latitude":42.030273,"longitude":13.416961,"canPickup":true,"canDropoff":true,"openingstijden":{"ma":"07:00 - 13:00, 15:00 - 20:00","di":"07:00 - 13:00, 15:00 - 20:00","wo":"07:00 - 13:00, 15:00 - 20:00","do":"07:00 - 13:00, 15:00 - 20:00","vr":"07:00 - 13:00, 15:00 - 20:00","za":"07:00 - 20:00","zo":"gesloten"}}},{"type":"Feature","geometry":{"type":"Point","coordinates":[13.428955,42.034315]},"properties":{"type":"pakketpunt","locatieNaam":"MPS MULTISERVICE GOLDENERGY","straatNaam":"VIA NAZARIO SAURO 77","straatNr":"","vervoerder":"DHL","puntType":"packStation","bezettingsgraad":50,"latitude":42.034315,"longitude":13.428955,"canPickup":true,"canDropoff":true,"openingstijden":{"ma":"09:30 - 12:30, 15:30 - 18:30","di":"09:30 - 12:30, 15:30 - 18:30","wo":"09:30 - 13:30, 15:30 - 18:30","do":"09:30 - 13:30, 15:30 - 18:30","vr":"09:30 - 13:30, 15:30 - 18:30","za":"10:00 - 12:30","zo":"gesloten"}}},{"type":"Feature","geometry":{"type":"Point","coordinates":[13.431042,42.03539]},"properties":{"type":"pakketpunt","locatieNaam":"AMIR.NET SERVICES","straatNaam":"XX Settembre, 250","straatNr":"","vervoerder":"DHL","puntType":"parcelShop","bezettingsgraad":50,"latitude":42.03539,"longitude":13.431042,"canPickup":false,"canDropoff":true,"openingstijden":{"ma":"09:00 - 20:00","di":"09:00 - 20:00","wo":"09:00 - 20:00","do":"09:00 - 20:00","vr":"09:00 - 20:00","za":"09:00 - 20:00","zo":"gesloten"}}},{"type":"Feature","geometry":{"type":"Point","coordinates":[13.420299,42.032887]},"properties":{"type":"pakketpunt","locatieNaam":"TABACCHERIA N. 1","straatNaam":"VIA ROMA 28","straatNr":"","vervoerder":"DHL","puntType":"parcelShop","bezettingsgraad":50,"latitude":42.032887,"longitude":13.420299,"canPickup":true,"canDropoff":true,"openingstijden":{"ma":"08:00 - 13:30, 15:30 - 19:30","di":"08:00 - 13:30, 15:30 - 19:30","wo":"08:00 - 13:30, 15:30 - 19:30","do":"08:00 - 13:30, 15:30 - 19:30","vr":"08:00 - 13:30, 15:30 - 19:30","za":"08:00 - 13:30","zo":"gesloten"}}},{"type":"Feature","geometry":{"type":"Point","coordinates":[13.427007,42.034914]},"properties":{"type":"pakketpunt","locatieNaam":"TABACCHERIA N. 12","straatNaam":"VIA SERGIO CATALDI 142","straatNr":"","vervoerder":"DHL","puntType":"parcelShop","bezettingsgraad":50,"latitude":42.034914,"longitude":13.427007,"canPickup":true,"canDropoff":true,"openingstijden":{"ma":"07:30 - 13:00, 15:00 - 20:00","di":"07:30 - 13:00, 15:00 - 20:00","wo":"07:30 - 13:00, 15:00 - 20:00","do":"07:30 - 13:00, 15:00 - 20:00","vr":"07:30 - 13:00, 15:00 - 20:00","za":"07:30 - 13:00, 15:00 - 20:00","zo":"07:30 - 13:00, 15:00 - 20:00"}}},{"type":"Feature","geometry":{"type":"Point","coordinates":[13.42296,42.034621]},"properties":{"type":"pakketpunt","locatieNaam":"TABACCHERIA n. 10","straatNaam":"VIA CAMILLO CORRADINI 51","straatNr":"","vervoerder":"DHL","puntType":"parcelShop","bezettingsgraad":50,"latitude":42.034621,"longitude":13.42296,"canPickup":true,"canDropoff":true,"openingstijden":{"ma":"06:30 - 13:00, 15:30 - 20:00","di":"06:30 - 13:00, 15:30 - 20:00","wo":"06:30 - 13:00, 15:30 - 20:00","do":"06:30 - 13:00, 15:30 - 20:00","vr":"06:30 - 13:00, 15:30 - 20:00","za":"06:30 - 13:00, 15:30 - 20:00","zo":"gesloten"}}},{"type":"Feature","geometry":{"type":"Point","coordinates":[13.427826,42.037068]},"properties":{"type":"pakketpunt","locatieNaam":"TABACCHERIA n. 5","straatNaam":"VIA GIUSEPPE GARIBALDI 86","straatNr":"","vervoerder":"DHL","puntType":"parcelShop","bezettingsgraad":50,"latitude":42.037068,"longitude":13.427826,"canPickup":true,"canDropoff":true,"openingstijden":{"ma":"07:30 - 13:00, 15:00 - 20:00","di":"07:30 - 13:00, 15:00 - 20:00","wo":"07:30 - 13:00, 15:00 - 20:00","do":"07:30 - 13:00, 15:00 - 20:00","vr":"07:30 - 13:00, 15:00 - 20:00","za":"07:30 - 13:00, 15:00 - 20:00","zo":"gesloten"}}},{"type":"Feature","geometry":{"type":"Point","coordinates":[13.433438,42.039152]},"properties":{"type":"pakketpunt","locatieNaam":"BAR ELITE","straatNaam":"Via Pescara, 45","straatNr":"","vervoerder":"DHL","puntType":"parcelShop","bezettingsgraad":50,"latitude":42.039152,"longitude":13.433438,"canPickup":false,"canDropoff":true,"openingstijden":{"ma":"07:00 - 19:30","di":"07:00 - 19:30","wo":"07:00 - 19:30","do":"07:00 - 19:30","vr":"07:00 - 19:30","za":"07:00 - 19:30","zo":"gesloten"}}},{"type":"Feature","geometry":{"type":"Point","coordinates":[13.433334,42.039201]},"properties":{"type":"pakketpunt","locatieNaam":"BAR ELITE","straatNaam":"VIA PESCARA 45","straatNr":"","vervoerder":"DHL","puntType":"packStation","bezettingsgraad":50,"latitude":42.039201,"longitude":13.433334,"canPickup":true,"canDropoff":true,"openingstijden":{"ma":"00:01 - 23:59","di":"00:01 - 23:59","wo":"00:01 - 23:59","do":"00:01 - 23:59","vr":"00:01 - 23:59","za":"00:01 - 23:59","zo":"00:01 - 23:59"}}},{"type":"Feature","geometry":{"type":"Point","coordinates":[13.426427,42.038229]},"properties":{"type":"pakketpunt","locatieNaam":"TABACCHERIA N. 11","straatNaam":"CORSO DELLA LIBERTA 11","straatNr":"","vervoerder":"DHL","puntType":"parcelShop","bezettingsgraad":50,"latitude":42.038229,"longitude":13.426427,"canPickup":true,"canDropoff":true,"openingstijden":{"ma":"07:30 - 13:00, 15:30 - 20:00","di":"07:30 - 13:00, 15:30 - 20:00","wo":"07:30 - 13:00, 15:30 - 20:00","do":"07:30 - 13:00, 15:30 - 20:00","vr":"07:30 - 13:00, 15:30 - 20:00","za":"07:30 - 13:00, 15:30 - 20:00","zo":"gesloten"}}},{"type":"Feature","geometry":{"type":"Point","coordinates":[13.4279,42.038739]},"properties":{"type":"pakketpunt","locatieNaam":"RT. COM SERVICES Sas","straatNaam":"Montello, 5","straatNr":"","vervoerder":"DHL","puntType":"parcelShop","bezettingsgraad":50,"latitude":42.038739,"longitude":13.4279,"canPickup":false,"canDropoff":true,"openingstijden":{"ma":"09:00 - 18:00","di":"09:00 - 18:00","wo":"09:00 - 18:00","do":"09:00 - 18:00","vr":"09:00 - 18:00","za":"gesloten","zo":"gesloten"}}},{"type":"Feature","geometry":{"type":"Point","coordinates":[13.42778,42.038915]},"properties":{"type":"pakketpunt","locatieNaam":"RT.COM SERVICES","straatNaam":"VIA MONTELLO 5","straatNr":"","vervoerder":"DHL","puntType":"parcelShop","bezettingsgraad":50,"latitude":42.038915,"longitude":13.42778,"canPickup":true,"canDropoff":true,"openingstijden":{"ma":"08:30 - 20:00","di":"08:30 - 20:00","wo":"08:30 - 20:00","do":"08:30 - 20:00","vr":"08:30 - 20:00","za":"09:00 - 14:00","zo":"gesloten"}}},{"type":"Feature","geometry":{"type":"Point","coordinates":[13.426139,42.039137]},"properties":{"type":"pakketpunt","locatieNaam":"Ufficio Postale AVEZZANO 1","straatNaam":"PIAZZA GIACOMO MATTEOTTI 1","straatNr":"","vervoerder":"DHL","puntType":"postOffice","bezettingsgraad":50,"latitude":42.039137,"longitude":13.426139,"canPickup":true,"canDropoff":true,"openingstijden":{"ma":"08:20 - 13:35","di":"08:20 - 13:35","wo":"08:20 - 13:35","do":"08:20 - 13:35","vr":"08:20 - 13:35","za":"08:20 - 12:35","zo":"gesloten"}}},{"type":"Feature","geometry":{"type":"Point","coordinates":[13.421653,42.039497]},"properties":{"type":"pakketpunt","locatieNaam":"TABACCHERIA N. 47","straatNaam":"VIA BRUNO CASSINELLI 2","straatNr":"","vervoerder":"DHL","puntType":"parcelShop","bezettingsgraad":50,"latitude":42.039497,"longitude":13.421653,"canPickup":true,"canDropoff":true,"openingstijden":{"ma":"08:00 - 13:00, 15:00 - 19:30","di":"08:00 - 13:00, 15:00 - 19:30","wo":"08:00 - 13:00, 15:00 - 19:30","do":"08:00 - 13:00, 15:00 - 19:30","vr":"08:00 - 13:00, 15:00 - 19:30","za":"08:00 - 13:00, 15:00 - 19:30","zo":"gesloten"}}},{"type":"Feature","geometry":{"type":"Point","coordinates":[13.432722,42.043016]},"properties":{"type":"pakketpunt","locatieNaam":"TABACCHERIA N. 38","straatNaam":"VIA MASSA DALBE 14-F","straatNr":"","vervoerder":"DHL","puntType":"parcelShop","bezettingsgraad":50,"latitude":42.043016,"longitude":13.432722,"canPickup":true,"canDropoff":true,"openingstijden":{"ma":"07:30 - 20:00","di":"07:30 - 20:00","wo":"07:30 - 20:00","do":"07:30 - 20:00","vr":"07:30 - 20:00","za":"07:30 - 20:00","zo":"gesloten"}}},{"type":"Feature","geometry":{"type":"Point","coordinates":[13.428923,42.043478]},"properties":{"type":"pakketpunt","locatieNaam":"UFFICIO POSTALE AVEZZANO","straatNaam":"VIA CAVALIERI DI VITTORIO VENETO 50","straatNr":"","vervoerder":"DHL","puntType":"packStation","bezettingsgraad":50,"latitude":42.043478,"longitude":13.428923,"canPickup":true,"canDropoff":true,"openingstijden":{"ma":"00:01 - 23:59","di":"00:01 - 23:59","wo":"00:01 - 23:59","do":"00:01 - 23:59","vr":"00:01 - 23:59","za":"00:01 - 23:59","zo":"00:01 - 23:59"}}},{"type":"Feature","geometry":{"type":"Point","coordinates":[13.428923,42.043478]},"properties":{"type":"pakketpunt","locatieNaam":"Ufficio Postale AVEZZANO","straatNaam":"VIA CAVALIERI DI VITTORIO VENETO 50","straatNr":"","vervoerder":"DHL","puntType":"postOffice","bezettingsgraad":50,"latitude":42.043478,"longitude":13.428923,"canPickup":true,"canDropoff":true,"openingstijden":{"ma":"08:20 - 19:05","di":"08:20 - 19:05","wo":"08:20 - 19:05","do":"08:20 - 19:05","vr":"08:20 - 19:05","za":"08:20 - 12:35","zo":"gesloten"}}},{"type":"Feature","geometry":{"type":"Point","coordinates":[13.428206,42.043643]},"properties":{"type":"pakketpunt","locatieNaam":"TABACCHERIA N. 31","straatNaam":"VIA CAVALIERI DI VITTORIO VENETO 64","straatNr":"","vervoerder":"DHL","puntType":"parcelShop","bezettingsgraad":50,"latitude":42.043643,"longitude":13.428206,"canPickup":true,"canDropoff":true,"openingstijden":{"ma":"07:00 - 20:00","di":"07:00 - 20:00","wo":"07:00 - 20:00","do":"07:00 - 20:00","vr":"07:00 - 20:00","za":"07:00 - 20:00","zo":"09:00 - 13:00"}}},{"type":"Feature","geometry":{"type":"Point","coordinates":[13.423245,42.046189]},"properties":{"type":"pakketpunt","locatieNaam":"TABACCHERIA N. 51","straatNaam":"VIA LUIGI EINAUDI 11","straatNr":"","vervoerder":"DHL","puntType":"parcelShop","bezettingsgraad":50,"latitude":42.046189,"longitude":13.423245,"canPickup":true,"canDropoff":true,"openingstijden":{"ma":"07:30 - 13:00, 15:30 - 19:30","di":"07:30 - 13:00, 15:30 - 19:30","wo":"07:30 - 13:00, 15:30 - 19:30","do":"07:30 - 13:00, 15:30 - 19:30","vr":"07:30 - 13:00, 15:30 - 19:30","za":"07:30 - 13:00, 15:30 - 19:30","zo":"gesloten"}}},{"type":"Feature","geometry":{"type":"Point","coordinates":[13.429753,42.04966]},"properties":{"type":"pakketpunt","locatieNaam":"TABACCHERIA N. 26","straatNaam":"VIA PIERSANTI MATTARELLA 8","straatNr":"","vervoerder":"DHL","puntType":"parcelShop","bezettingsgraad":50,"latitude":42.04966,"longitude":13.429753,"canPickup":true,"canDropoff":true,"openingstijden":{"ma":"08:00 - 13:00, 16:00 - 19:45","di":"08:00 - 13:00, 16:00 - 19:45","wo":"08:00 - 13:00, 16:00 - 19:45","do":"08:00 - 13:00, 16:00 - 19:45","vr":"08:00 - 13:00, 16:00 - 19:45","za":"08:00 - 13:00, 16:00 - 19:45","zo":"gesloten"}}},{"type":"Feature","geometry":{"type":"Point","coordinates":[13.408703,42.044386]},"properties":{"type":"pakketpunt","locatieNaam":"TABACCHERIA N. 34","straatNaam":"VIA ROMA 176","straatNr":"","vervoerder":"DHL","puntType":"parcelShop","bezettingsgraad":50,"latitude":42.044386,"longitude":13.408703,"canPickup":true,"canDropoff":true,"openingstijden":{"ma":"05:00 - 21:00","di":"05:00 - 21:00","wo":"05:00 - 21:00","do":"05:00 - 21:00","vr":"05:00 - 21:00","za":"05:00 - 21:00","zo":"05:00 - 21:00"}}},{"type":"Feature","geometry":{"type":"Point","coordinates":[13.471163,42.057216]},"properties":{"type":"pakketpunt","locatieNaam":"Ufficio Postale PATERNO","straatNaam":"VIA GIUSEPPE FRACASSI 62","straatNr":"","vervoerder":"DHL","puntType":"postOffice","bezettingsgraad":50,"latitude":42.057216,"longitude":13.471163,"canPickup":true,"canDropoff":true,"openingstijden":{"ma":"08:20 - 13:45","di":"08:20 - 13:45","wo":"08:20 - 13:45","do":"08:20 - 13:45","vr":"08:20 - 13:45","za":"08:20 - 12:45","zo":"gesloten"}}},{"type":"Feature","geometry":{"type":"Point","coordinates":[13.423793,42.029208]},"properties":{"type":"pakketpunt","locatieNaam":"Amazon Locker - bretella","straatNaam":"Fermopoint/Telefonia Avezzano","straatNr":"","vervoerder":"Amazon","puntType":"locker","bezettingsgraad":50,"latitude":42.029208,"longitude":13.423793,"canPickup":true,"canDropoff":false,"openingstijden":null}},{"type":"Feature","geometry":{"type":"Point","coordinates":[13.423028,42.040425]},"properties":{"type":"pakketpunt","locatieNaam":"Amazon Locker - marilisa","straatNaam":"Oasi Avezzano Falcone","straatNr":"","vervoerder":"Amazon","puntType":"locker","bezettingsgraad":50,"latitude":42.040425,"longitude":13.423028,"canPickup":true,"canDropoff":false,"openingstijden":null}},{"type":"Feature","geometry":{"type":"Point","coordinates":[13.427745,42.038966]},"properties":{"type":"pakketpunt","locatieNaam":"Amazon Counter - RT.COM Services S.a.s.","straatNaam":"Via Montello 5","straatNr":"","vervoerder":"Amazon","puntType":"helix","bezettingsgraad":50,"latitude":42.038966,"longitude":13.427745,"canPickup":true,"canDropoff":false,"openingstijden":null}},{"type":"Feature","geometry":{"type":"Point","coordinates":[13.4282343,42.0435791]},"properties":{"type":"pakketpunt","locatieNaam":"Amazon Counter (fermopoint)","straatNaam":"Bar Meeting","straatNr":"","vervoerder":"Amazon","puntType":"helix","bezettingsgraad":50,"latitude":42.0435791,"longitude":13.4282343,"canPickup":true,"canDropoff":false,"openingstijden":null}},{"type":"Feature","geometry":{"type":"Point","coordinates":[13.4269279,42.0274429]},"properties":{"type":"pakketpunt","locatieNaam":"Amazon Counter - AZ SERVIZI","straatNaam":"MARCANTONIO COLONNA, 2A","straatNr":"","vervoerder":"Amazon","puntType":"helix","bezettingsgraad":50,"latitude":42.0274429,"longitude":13.4269279,"canPickup":true,"canDropoff":false,"openingstijden":null}},{"type":"Feature","geometry":{"type":"Point","coordinates":[13.419882,42.033234]},"properties":{"type":"pakketpunt","locatieNaam":"Amazon Counter - RANIERI SRL","straatNaam":"VIA ROMA 129","straatNr":"","vervoerder":"Amazon","puntType":"helix","bezettingsgraad":50,"latitude":42.033234,"longitude":13.419882,"canPickup":true,"canDropoff":false,"openingstijden":null}},{"type":"Feature","geometry":{"type":"Point","coordinates":[13.4249301,42.042219]},"properties":{"type":"pakketpunt","locatieNaam":"Amazon Counter","straatNaam":"Libreria Mr Book (fermopoint)","straatNr":"","vervoerder":"Amazon","puntType":"helix","bezettingsgraad":50,"latitude":42.042219,"longitude":13.4249301,"canPickup":true,"canDropoff":false,"openingstijden":null}},{"type":"Feature","geometry":{"type":"Point","coordinates":[13.4495225,42.0454785]},"properties":{"type":"pakketpunt","locatieNaam":"Amazon Locker - tersiglio","straatNaam":"PINGUE SUPERMERCATI SRL (Settembre)","straatNr":"","vervoerder":"Amazon","puntType":"locker","bezettingsgraad":50,"latitude":42.0454785,"longitude":13.4495225,"canPickup":true,"canDropoff":false,"openingstijden":null}},{"type":"Feature","geometry":{"type":"Point","coordinates":[13.442328,42.041773]},"properties":{"type":"pakketpunt","locatieNaam":"Amazon Locker - uva","straatNaam":"Oasi Avezzano","straatNr":"","vervoerder":"Amazon","puntType":"locker","bezettingsgraad":50,"latitude":42.041773,"longitude":13.442328,"canPickup":true,"canDropoff":false,"openingstijden":null}},{"type":"Feature","geometry":{"type":"Point","coordinates":[13.4345056,42.0403099]},"properties":{"type":"pakketpunt","locatieNaam":"Amazon Locker - gentilio","straatNaam":"Todis Avezzano - Ale.Ma Supermercati SRL","straatNr":"","vervoerder":"Amazon","puntType":"locker","bezettingsgraad":50,"latitude":42.0403099,"longitude":13.4345056,"canPickup":true,"canDropoff":false,"openingstijden":null}},{"type":"Feature","geometry":{"type":"Point","coordinates":[13.463244,42.049091]},"properties":{"type":"pakketpunt","locatieNaam":"Amazon Counter - Verde Natura di Paris Sabrina","straatNaam":"Via appennini 56","straatNr":"","vervoerder":"Amazon","puntType":"helix","bezettingsgraad":50,"latitude":42.049091,"longitude":13.463244,"canPickup":true,"canDropoff":false,"openingstijden":null}},{"type":"Feature","geometry":{"type":"Point","coordinates":[13.429078,42.026735]},"properties":{"type":"pakketpunt","locatieNaam":"Amazon Counter","straatNaam":"Barber Shop Mancini (fermopoint)","straatNr":"","vervoerder":"Amazon","puntType":"helix","bezettingsgraad":50,"latitude":42.026735,"longitude":13.429078,"canPickup":true,"canDropoff":false,"openingstijden":null}},{"type":"Feature","geometry":{"type":"Point","coordinates":[13.4711,42.0572]},"properties":{"type":"pakketpunt","locatieNaam":"Ufficio Postale PATERNO","straatNaam":"VIA GIUSEPPE FRACASSI 62","straatNr":"","vervoerder":"Amazon","puntType":"3p","bezettingsgraad":50,"latitude":42.0572,"longitude":13.4711,"canPickup":true,"canDropoff":false,"openingstijden":null}},{"type":"Feature","geometry":{"type":"Point","coordinates":[13.438507,42.0383489]},"properties":{"type":"pakketpunt","locatieNaam":"Amazon Counter","straatNaam":"Ingroscart Srl (fermopoint)","straatNr":"","vervoerder":"Amazon","puntType":"helix","bezettingsgraad":50,"latitude":42.0383489,"longitude":13.438507,"canPickup":true,"canDropoff":false,"openingstijden":null}},{"type":"Feature","geometry":{"type":"Point","coordinates":[13.43649,42.038009]},"properties":{"type":"pakketpunt","locatieNaam":"Amazon Counter - LA PREMIATA","straatNaam":"VIA XX SETTEMBRE 356","straatNr":"","vervoerder":"Amazon","puntType":"helix","bezettingsgraad":50,"latitude":42.038009,"longitude":13.43649,"canPickup":true,"canDropoff":false,"openingstijden":null}},{"type":"Feature","geometry":{"type":"Point","coordinates":[13.438397,42.038383]},"properties":{"type":"pakketpunt","locatieNaam":"Amazon Counter - Ingroscart Srl","straatNaam":"Via XX Settembre, 374","straatNr":"","vervoerder":"Amazon","puntType":"helix","bezettingsgraad":50,"latitude":42.038383,"longitude":13.438397,"canPickup":true,"canDropoff":false,"openingstijden":null}},{"type":"Feature","geometry":{"type":"Point","coordinates":[13.427022,42.038645]},"properties":{"type":"pakketpunt","locatieNaam":"Amazon Counter","straatNaam":"Fantacarta (fermopoint)","straatNr":"","vervoerder":"Amazon","puntType":"helix","bezettingsgraad":50,"latitude":42.038645,"longitude":13.427022,"canPickup":true,"canDropoff":false,"openingstijden":null}},{"type":"Feature","geometry":{"type":"Point","coordinates":[13.4229,42.0346]},"properties":{"type":"pakketpunt","locatieNaam":"PuntoPoste TABACCHERIA n. 10","straatNaam":"VIA CAMILLO CORRADINI 51","straatNr":"","vervoerder":"Amazon","puntType":"3p","bezettingsgraad":50,"latitude":42.0346,"longitude":13.4229,"canPickup":true,"canDropoff":false,"openingstijden":null}},{"type":"Feature","geometry":{"type":"Point","coordinates":[13.4142873,42.0390468]},"properties":{"type":"pakketpunt","locatieNaam":"Amazon Locker - beda","straatNaam":"Eni Station pv.6560","straatNr":"","vervoerder":"Amazon","puntType":"locker","bezettingsgraad":50,"latitude":42.0390468,"longitude":13.4142873,"canPickup":true,"canDropoff":false,"openingstijden":null}},{"type":"Feature","geometry":{"type":"Point","coordinates":[13.4252,42.0272]},"properties":{"type":"pakketpunt","locatieNaam":"PuntoPoste TABACCHERIA N. 2","straatNaam":"PIAZZA CASTELLO 35","straatNr":"","vervoerder":"Amazon","puntType":"3p","bezettingsgraad":50,"latitude":42.0272,"longitude":13.4252,"canPickup":true,"canDropoff":false,"openingstijden":null}},{"type":"Feature","geometry":{"type":"Point","coordinates":[13.4206,42.0287]},"properties":{"type":"pakketpunt","locatieNaam":"Ufficio Postale AVEZZANO 3","straatNaam":"VIA AMERICA 63","straatNr":"","vervoerder":"Amazon","puntType":"3p","bezettingsgraad":50,"latitude":42.0287,"longitude":13.4206,"canPickup":true,"canDropoff":false,"openingstijden":null}},{"type":"Feature","geometry":{"type":"Point","coordinates":[13.427,42.0349]},"properties":{"type":"pakketpunt","locatieNaam":"PuntoPoste TABACCHERIA N. 12","straatNaam":"VIA SERGIO CATALDI 142","straatNr":"","vervoerder":"Amazon","puntType":"3p","bezettingsgraad":50,"latitude":42.0349,"longitude":13.427,"canPickup":true,"canDropoff":false,"openingstijden":null}},{"type":"Feature","geometry":{"type":"Point","coordinates":[13.431048,42.046268]},"properties":{"type":"pakketpunt","locatieNaam":"Amazon Counter - Sweet Coffee","straatNaam":"Via Ugo la Malfa, 55","straatNr":"","vervoerder":"Amazon","puntType":"helix","bezettingsgraad":50,"latitude":42.046268,"longitude":13.431048,"canPickup":true,"canDropoff":false,"openingstijden":null}},{"type":"Feature","geometry":{"type":"Point","coordinates":[13.4328922,42.0456323]},"properties":{"type":"pakketpunt","locatieNaam":"Amazon Counter - PRIMAEDICOLA","straatNaam":"AGOSTINI MASSIMILIANO","straatNr":"","vervoerder":"Amazon","puntType":"helix","bezettingsgraad":50,"latitude":42.0456323,"longitude":13.4328922,"canPickup":true,"canDropoff":false,"openingstijden":null}},{"type":"Feature","geometry":{"type":"Point","coordinates":[13.4327,42.043]},"properties":{"type":"pakketpunt","locatieNaam":"PuntoPoste TABACCHERIA N. 38","straatNaam":"VIA MASSA D'ALBE 14/F","straatNr":"","vervoerder":"Amazon","puntType":"3p","bezettingsgraad":50,"latitude":42.043,"longitude":13.4327,"canPickup":true,"canDropoff":false,"openingstijden":null}},{"type":"Feature","geometry":{"type":"Point","coordinates":[13.4289,42.0434]},"properties":{"type":"pakketpunt","locatieNaam":"Ufficio Postale AVEZZANO","straatNaam":"VIA CAVALIERI DI VITTORIO VENETO 50","straatNr":"","vervoerder":"Amazon","puntType":"3p","bezettingsgraad":50,"latitude":42.0434,"longitude":13.4289,"canPickup":true,"canDropoff":false,"openingstijden":null}},{"type":"Feature","geometry":{"type":"Point","coordinates":[13.4253698,42.0430514]},"properties":{"type":"pakketpunt","locatieNaam":"Amazon Counter - PRIMAEDICOLA","straatNaam":"PALERMO STEFANIA","straatNr":"","vervoerder":"Amazon","puntType":"helix","bezettingsgraad":50,"latitude":42.0430514,"longitude":13.4253698,"canPickup":true,"canDropoff":false,"openingstijden":null}},{"type":"Feature","geometry":{"type":"Point","coordinates":[13.425622,42.03254]},"properties":{"type":"pakketpunt","locatieNaam":"Amazon Counter - PEGASO SERVIZI S.A.S. DI MANUELA","straatNaam":"VIA giuseppe mazzini 26","straatNr":"","vervoerder":"Amazon","puntType":"helix","bezettingsgraad":50,"latitude":42.03254,"longitude":13.425622,"canPickup":true,"canDropoff":false,"openingstijden":null}},{"type":"Feature","geometry":{"type":"Point","coordinates":[13.4169,42.0302]},"properties":{"type":"pakketpunt","locatieNaam":"PuntoPoste TABACCHERIA N. 16","straatNaam":"VIA BORGO ANGIZIA 56","straatNr":"","vervoerder":"Amazon","puntType":"3p","bezettingsgraad":50,"latitude":42.0302,"longitude":13.4169,"canPickup":true,"canDropoff":false,"openingstijden":null}},{"type":"Feature","geometry":{"type":"Point","coordinates":[13.426623,42.032259]},"properties":{"type":"pakketpunt","locatieNaam":"Amazon Counter","straatNaam":"Eco Store-Avezzano (fermopoint)","straatNr":"","vervoerder":"Amazon","puntType":"helix","bezettingsgraad":50,"latitude":42.032259,"longitude":13.426623,"canPickup":true,"canDropoff":false,"openingstijden":null}},{"type":"Feature","geometry":{"type":"Point","coordinates":[13.4266,42.0328]},"properties":{"type":"pakketpunt","locatieNaam":"Ufficio Postale AVEZZANO 2","straatNaam":"VIA GUGLIELMO MARCONI 68","straatNr":"","vervoerder":"Amazon","puntType":"3p","bezettingsgraad":50,"latitude":42.0328,"longitude":13.4266,"canPickup":true,"canDropoff":false,"openingstijden":null}},{"type":"Feature","geometry":{"type":"Point","coordinates":[13.422437,42.042283]},"properties":{"type":"pakketpunt","locatieNaam":"Amazon Counter (fermopoint)","straatNaam":"Caffetteria al Teatro Bistrò","straatNr":"","vervoerder":"Amazon","puntType":"helix","bezettingsgraad":50,"latitude":42.042283,"longitude":13.422437,"canPickup":true,"canDropoff":false,"openingstijden":null}},{"type":"Feature","geometry":{"type":"Point","coordinates":[13.4282,42.0436]},"properties":{"type":"pakketpunt","locatieNaam":"PuntoPoste TABACCHERIA N. 31","straatNaam":"VIA CAVALIERI DI VITTORIO VENETO 64","straatNr":"","vervoerder":"Amazon","puntType":"3p","bezettingsgraad":50,"latitude":42.0436,"longitude":13.4282,"canPickup":true,"canDropoff":false,"openingstijden":null}},{"type":"Feature","geometry":{"type":"Point","coordinates":[13.4333478,42.0391235]},"properties":{"type":"pakketpunt","locatieNaam":"Amazon Counter","straatNaam":"Bar Elite (fermopoint)","straatNr":"","vervoerder":"Amazon","puntType":"helix","bezettingsgraad":50,"latitude":42.0391235,"longitude":13.4333478,"canPickup":true,"canDropoff":false,"openingstijden":null}},{"type":"Feature","geometry":{"type":"Point","coordinates":[13.4261,42.0391]},"properties":{"type":"pakketpunt","locatieNaam":"Ufficio Postale AVEZZANO 1","straatNaam":"PIAZZA GIACOMO MATTEOTTI 1","straatNr":"","vervoerder":"Amazon","puntType":"3p","bezettingsgraad":50,"latitude":42.0391,"longitude":13.4261,"canPickup":true,"canDropoff":false,"openingstijden":null}},{"type":"Feature","geometry":{"type":"Polygon","coordinates":[[[13.3613788,42.0380662],[13.3689335,42.0428626],[13.3708104,42.0464191],[13.3690268,42.0479173],[13.3673199,42.0497837],[13.3782644,42.0500856],[13.3816772,42.048411],[13.3832535,42.0463384],[13.3849351,42.0443158],[13.3858845,42.0435546],[13.3932019,42.0399114],[13.3945983,42.0396147],[13.3972001,42.0394249],[13.3984961,42.0397848],[13.3992757,42.0405021],[13.4099288,42.0519912],[13.4098288,42.0535934],[13.4089302,42.0544871],[13.4071554,42.0544159],[13.4045861,42.0547128],[13.4026301,42.0556118],[13.3989249,42.057861],[13.3978261,42.0592672],[13.3955961,42.0625357],[13.3932396,42.0662094],[13.3914034,42.070471],[13.391298,42.0713027],[13.3919301,42.0754388],[13.396525,42.0777925],[13.4054108,42.0772935],[13.4076535,42.0760547],[13.4119833,42.0725657],[13.4260429,42.0715191],[13.4340712,42.0733919],[13.4344999,42.0736589],[13.4371383,42.0774598],[13.437397,42.078123],[13.4371774,42.0783451],[13.4359387,42.0780644],[13.4348935,42.078294],[13.4319792,42.0792982],[13.4301574,42.0811198],[13.429973,42.0818056],[13.4305969,42.084525],[13.4344454,42.0930681],[13.4350099,42.0942077],[13.4355383,42.094849],[13.4366645,42.095278],[13.4476423,42.0973057],[13.4485598,42.0973736],[13.4530396,42.097267],[13.4593208,42.0964104],[13.469697,42.0948579],[13.4842368,42.0931416],[13.4890645,42.0929704],[13.4903052,42.0931649],[13.4908646,42.0889699],[13.4909341,42.0819355],[13.4910448,42.0813324],[13.5004782,42.0678306],[13.5096813,42.0516135],[13.5098926,42.0508264],[13.51048,42.0163201],[13.5109445,42.0016802],[13.5113742,41.9956444],[13.4770266,41.9951687],[13.4774389,41.9894714],[13.4530445,41.9890626],[13.4461898,41.988361],[13.4355219,41.9847229],[13.434177,41.9839736],[13.4331789,41.983274],[13.4325561,41.9826364],[13.4294111,41.987827],[13.4120927,42.0070876],[13.4104809,42.0077934],[13.4093595,42.0082372],[13.4070301,42.0077101],[13.4022933,42.0053938],[13.4023566,42.0048241],[13.4026657,42.0040559],[13.4042269,42.0029245],[13.404275,42.0024635],[13.4033872,42.0022365],[13.3902402,42.0007197],[13.3647746,42.0219734],[13.3626577,42.024494],[13.3622343,42.0339055],[13.3613788,42.0380662]]]},"properties":{"type":"boundary","gemeente":"Avezzano"}}]}