{"type":"FeatureCollection","metadata":{"gemeente":"Badia Polesine","slug":"badia-polesine","generated_at":"2026-09-26T13:09:34.241765Z","total_points":26,"providers":["PosteItaliane","DPD","InPost","DHL","Amazon"],"bounds":[11.4415,45.082,11.51696421,45.109739]},"features":[{"type":"Feature","geometry":{"type":"Point","coordinates":[11.44154072,45.10973876]},"properties":{"type":"pakketpunt","locatieNaam":"Villa D'adige","straatNaam":"Piazza San Costanzo","straatNr":"369","vervoerder":"PosteItaliane","puntType":"postkantoor","bezettingsgraad":50,"latitude":45.10973876,"longitude":11.44154072,"canPickup":true,"canDropoff":true,"openingstijden":{"za":"08:20 - 12:45","zo":"gesloten","ma":"08:20 - 13:45","di":"08:20 - 13:45","wo":"08:20 - 13:45","do":"08:20 - 13:45","vr":"08:20 - 13:45"}}},{"type":"Feature","geometry":{"type":"Point","coordinates":[11.48954889,45.09603835]},"properties":{"type":"pakketpunt","locatieNaam":"Badia Polesine","straatNaam":"Piazza Vangadizza","straatNr":"245","vervoerder":"PosteItaliane","puntType":"postkantoor","bezettingsgraad":50,"latitude":45.09603835,"longitude":11.48954889,"canPickup":true,"canDropoff":true,"openingstijden":{"za":"08:20 - 12:35","zo":"gesloten","ma":"08:20 - 13:35","di":"08:20 - 13:35","wo":"08:20 - 13:35","do":"08:20 - 13:35","vr":"08:20 - 13:35"}}},{"type":"Feature","geometry":{"type":"Point","coordinates":[11.49049103,45.09505596]},"properties":{"type":"pakketpunt","locatieNaam":"Tabaccheria N. 2","straatNaam":"Via Degli Estensi","straatNr":"8","vervoerder":"PosteItaliane","puntType":"servicepunt","bezettingsgraad":50,"latitude":45.09505596,"longitude":11.49049103,"canPickup":true,"canDropoff":true,"openingstijden":{"za":"gesloten","zo":"gesloten","ma":"08:00 - 12:00, 16:30 - 18:30","di":"08:00 - 12:00, 16:30 - 18:30","wo":"08:00 - 12:00, 16:30 - 18:30","do":"08:00 - 12:00, 16:30 - 18:30","vr":"08:00 - 12:00, 16:30 - 18:30"}}},{"type":"Feature","geometry":{"type":"Point","coordinates":[11.46554,45.10556]},"properties":{"type":"pakketpunt","locatieNaam":"Tabaccheria N. 7","straatNaam":"Via Bovazecchino","straatNr":"1590","vervoerder":"PosteItaliane","puntType":"servicepunt","bezettingsgraad":50,"latitude":45.10556,"longitude":11.46554,"canPickup":true,"canDropoff":true,"openingstijden":{"za":"07:00 - 19:00","zo":"gesloten","ma":"07:00 - 19:00","di":"07:00 - 19:00","wo":"07:00 - 19:00","do":"07:00 - 19:00","vr":"07:00 - 19:00"}}},{"type":"Feature","geometry":{"type":"Point","coordinates":[11.50954471,45.08208349]},"properties":{"type":"pakketpunt","locatieNaam":"Tabaccheria N. 16","straatNaam":"Piazza San Valentino","straatNr":"330","vervoerder":"PosteItaliane","puntType":"servicepunt","bezettingsgraad":50,"latitude":45.08208349,"longitude":11.50954471,"canPickup":true,"canDropoff":true,"openingstijden":{"za":"09:00 - 23:59","zo":"09:00 - 23:59","ma":"09:00 - 23:59","di":"09:00 - 23:59","wo":"gesloten","do":"09:00 - 23:59","vr":"09:00 - 23:59"}}},{"type":"Feature","geometry":{"type":"Point","coordinates":[11.49246755,45.09416379]},"properties":{"type":"pakketpunt","locatieNaam":"Tabaccheria Profumeria De Marchi","straatNaam":"P.ZZA V. EMANUELE II","straatNr":"148","vervoerder":"DPD","puntType":"pickup_point","bezettingsgraad":50,"latitude":45.09416379,"longitude":11.49246755,"canPickup":true,"canDropoff":true,"openingstijden":{"ma":"08:30 - 12:30, 15:30 - 19:30","di":"08:30 - 12:30, 15:30 - 19:30","wo":"08:30 - 12:30, 15:30 - 19:30","do":"08:30 - 12:30, 15:30 - 19:30","vr":"08:30 - 12:30, 15:30 - 19:30","za":"08:30 - 12:30, 15:30 - 19:30","zo":"gesloten"}}},{"type":"Feature","geometry":{"type":"Point","coordinates":[11.51696421,45.09188322]},"properties":{"type":"pakketpunt","locatieNaam":"Home","straatNaam":"VIA CA MIGNOLA NUOVA","straatNr":"1360","vervoerder":"DPD","puntType":"pickup_point","bezettingsgraad":50,"latitude":45.09188322,"longitude":11.51696421,"canPickup":true,"canDropoff":true,"openingstijden":{"ma":"09:00 - 20:00","di":"09:00 - 20:00","wo":"09:00 - 20:00","do":"09:00 - 20:00","vr":"09:00 - 20:00","za":"09:00 - 20:00","zo":"09:00 - 20:00"}}},{"type":"Feature","geometry":{"type":"Point","coordinates":[11.50225,45.09203]},"properties":{"type":"pakketpunt","locatieNaam":"InPost Locker 24/7","straatNaam":"Via Ca' Mignola Nuova","straatNr":"254","vervoerder":"InPost","puntType":"automaat","bezettingsgraad":50,"latitude":45.09203,"longitude":11.50225,"canPickup":true,"canDropoff":true,"openingstijden":null}},{"type":"Feature","geometry":{"type":"Point","coordinates":[11.51612,45.09313]},"properties":{"type":"pakketpunt","locatieNaam":"InPost Locker 24/7","straatNaam":"Via dell'Industria","straatNr":"39","vervoerder":"InPost","puntType":"automaat","bezettingsgraad":50,"latitude":45.09313,"longitude":11.51612,"canPickup":true,"canDropoff":true,"openingstijden":null}},{"type":"Feature","geometry":{"type":"Point","coordinates":[11.49245,45.09428]},"properties":{"type":"pakketpunt","locatieNaam":"InPost Point","straatNaam":"Piazza V. Emanuele II","straatNr":"148","vervoerder":"InPost","puntType":"servicepunt","bezettingsgraad":50,"latitude":45.09428,"longitude":11.49245,"canPickup":true,"canDropoff":true,"openingstijden":"Lun-Ven: 08:30 - 12:30 - 16:00 - 19:30 Sab: 08:30 - 12:30 - 16:00 - 19:00"}},{"type":"Feature","geometry":{"type":"Point","coordinates":[11.509545,45.082083]},"properties":{"type":"pakketpunt","locatieNaam":"TABACCHERIA N. 16","straatNaam":"PIAZZA SAN VALENTINO 330","straatNr":"","vervoerder":"DHL","puntType":"parcelShop","bezettingsgraad":50,"latitude":45.082083,"longitude":11.509545,"canPickup":true,"canDropoff":true,"openingstijden":{"ma":"09:00 - 23:59","di":"09:00 - 23:59","wo":"gesloten","do":"09:00 - 23:59","vr":"09:00 - 23:59","za":"09:00 - 23:59","zo":"09:00 - 23:59"}}},{"type":"Feature","geometry":{"type":"Point","coordinates":[11.441541,45.109739]},"properties":{"type":"pakketpunt","locatieNaam":"Ufficio Postale VILLA D'ADIGE","straatNaam":"PIAZZA SAN COSTANZO 369","straatNr":"","vervoerder":"DHL","puntType":"postOffice","bezettingsgraad":50,"latitude":45.109739,"longitude":11.441541,"canPickup":true,"canDropoff":true,"openingstijden":{"ma":"08:20 - 13:45","di":"08:20 - 13:45","wo":"08:20 - 13:45","do":"08:20 - 13:45","vr":"08:20 - 13:45","za":"08:20 - 12:45","zo":"gesloten"}}},{"type":"Feature","geometry":{"type":"Point","coordinates":[11.46554,45.10556]},"properties":{"type":"pakketpunt","locatieNaam":"TABACCHERIA N. 7","straatNaam":"VIA BOVAZECCHINO 1590","straatNr":"","vervoerder":"DHL","puntType":"parcelShop","bezettingsgraad":50,"latitude":45.10556,"longitude":11.46554,"canPickup":true,"canDropoff":true,"openingstijden":{"ma":"07:00 - 19:00","di":"07:00 - 19:00","wo":"07:00 - 19:00","do":"07:00 - 19:00","vr":"07:00 - 19:00","za":"07:00 - 19:00","zo":"gesloten"}}},{"type":"Feature","geometry":{"type":"Point","coordinates":[11.489549,45.096038]},"properties":{"type":"pakketpunt","locatieNaam":"Ufficio Postale BADIA POLESINE","straatNaam":"PIAZZA VANGADIZZA 245","straatNr":"","vervoerder":"DHL","puntType":"postOffice","bezettingsgraad":50,"latitude":45.096038,"longitude":11.489549,"canPickup":true,"canDropoff":true,"openingstijden":{"ma":"08:20 - 13:35","di":"08:20 - 13:35","wo":"08:20 - 13:35","do":"08:20 - 13:35","vr":"08:20 - 13:35","za":"08:20 - 12:35","zo":"gesloten"}}},{"type":"Feature","geometry":{"type":"Point","coordinates":[11.490491,45.095056]},"properties":{"type":"pakketpunt","locatieNaam":"TABACCHERIA N. 2","straatNaam":"VIA DEGLI ESTENSI 8","straatNr":"","vervoerder":"DHL","puntType":"parcelShop","bezettingsgraad":50,"latitude":45.095056,"longitude":11.490491,"canPickup":true,"canDropoff":true,"openingstijden":{"ma":"08:00 - 12:00, 16:30 - 18:30","di":"08:00 - 12:00, 16:30 - 18:30","wo":"08:00 - 12:00, 16:30 - 18:30","do":"08:00 - 12:00, 16:30 - 18:30","vr":"08:00 - 12:00, 16:30 - 18:30","za":"gesloten","zo":"gesloten"}}},{"type":"Feature","geometry":{"type":"Point","coordinates":[11.491201,45.094302]},"properties":{"type":"pakketpunt","locatieNaam":"TABACCHERIA DE MARCHI","straatNaam":"Vittorio Emanuele II, 148","straatNr":"","vervoerder":"DHL","puntType":"parcelShop","bezettingsgraad":50,"latitude":45.094302,"longitude":11.491201,"canPickup":false,"canDropoff":true,"openingstijden":{"ma":"09:00 - 19:00","di":"09:00 - 19:00","wo":"09:00 - 19:00","do":"09:00 - 19:00","vr":"09:00 - 19:00","za":"gesloten","zo":"gesloten"}}},{"type":"Feature","geometry":{"type":"Point","coordinates":[11.5021735,45.0918432]},"properties":{"type":"pakketpunt","locatieNaam":"Amazon Locker - alaghiero","straatNaam":"Eni Station Pv.3401","straatNr":"","vervoerder":"Amazon","puntType":"locker","bezettingsgraad":50,"latitude":45.0918432,"longitude":11.5021735,"canPickup":true,"canDropoff":false,"openingstijden":null}},{"type":"Feature","geometry":{"type":"Point","coordinates":[11.490053,45.094677]},"properties":{"type":"pakketpunt","locatieNaam":"Amazon Counter - AAYAN ALIMENTARI","straatNaam":"VIA GIOSUE' CARDUCCI 40","straatNr":"","vervoerder":"Amazon","puntType":"helix","bezettingsgraad":50,"latitude":45.094677,"longitude":11.490053,"canPickup":true,"canDropoff":false,"openingstijden":null}},{"type":"Feature","geometry":{"type":"Point","coordinates":[11.49243,45.09416]},"properties":{"type":"pakketpunt","locatieNaam":"Amazon Counter - Tabacheria De Marchi","straatNaam":"Piazza V. Emanuele II , 148","straatNr":"","vervoerder":"Amazon","puntType":"helix","bezettingsgraad":50,"latitude":45.09416,"longitude":11.49243,"canPickup":true,"canDropoff":false,"openingstijden":null}},{"type":"Feature","geometry":{"type":"Point","coordinates":[11.4932797,45.0911218]},"properties":{"type":"pakketpunt","locatieNaam":"Amazon Counter - EDICOLA GALVAN","straatNaam":"VIA XX SETTEMBRE 177","straatNr":"","vervoerder":"Amazon","puntType":"helix","bezettingsgraad":50,"latitude":45.0911218,"longitude":11.4932797,"canPickup":true,"canDropoff":false,"openingstijden":null}},{"type":"Feature","geometry":{"type":"Point","coordinates":[11.48764,45.09203]},"properties":{"type":"pakketpunt","locatieNaam":"Amazon Locker - tetto","straatNaam":"Lavapiu - Badia Polesine (RO)","straatNr":"","vervoerder":"Amazon","puntType":"locker","bezettingsgraad":50,"latitude":45.09203,"longitude":11.48764,"canPickup":true,"canDropoff":false,"openingstijden":null}},{"type":"Feature","geometry":{"type":"Point","coordinates":[11.5168436,45.0921154]},"properties":{"type":"pakketpunt","locatieNaam":"Amazon Counter (fermopoint)","straatNaam":"Home","straatNr":"","vervoerder":"Amazon","puntType":"helix","bezettingsgraad":50,"latitude":45.0921154,"longitude":11.5168436,"canPickup":true,"canDropoff":false,"openingstijden":null}},{"type":"Feature","geometry":{"type":"Point","coordinates":[11.4415,45.1097]},"properties":{"type":"pakketpunt","locatieNaam":"Ufficio Postale VILLA D'ADIGE","straatNaam":"PIAZZA SAN COSTANZO 369","straatNr":"","vervoerder":"Amazon","puntType":"3p","bezettingsgraad":50,"latitude":45.1097,"longitude":11.4415,"canPickup":true,"canDropoff":false,"openingstijden":null}},{"type":"Feature","geometry":{"type":"Point","coordinates":[11.4655,45.1055]},"properties":{"type":"pakketpunt","locatieNaam":"PuntoPoste TABACCHERIA N. 7","straatNaam":"VIA BOVAZECCHINO 1590","straatNr":"","vervoerder":"Amazon","puntType":"3p","bezettingsgraad":50,"latitude":45.1055,"longitude":11.4655,"canPickup":true,"canDropoff":false,"openingstijden":null}},{"type":"Feature","geometry":{"type":"Point","coordinates":[11.4895,45.096]},"properties":{"type":"pakketpunt","locatieNaam":"Ufficio Postale BADIA POLESINE","straatNaam":"PIAZZA VANGADIZZA 245","straatNr":"","vervoerder":"Amazon","puntType":"3p","bezettingsgraad":50,"latitude":45.096,"longitude":11.4895,"canPickup":true,"canDropoff":false,"openingstijden":null}},{"type":"Feature","geometry":{"type":"Point","coordinates":[11.5095,45.082]},"properties":{"type":"pakketpunt","locatieNaam":"PuntoPoste TABACCHERIA N. 16","straatNaam":"PIAZZA SAN VALENTINO 330","straatNr":"","vervoerder":"Amazon","puntType":"3p","bezettingsgraad":50,"latitude":45.082,"longitude":11.5095,"canPickup":true,"canDropoff":false,"openingstijden":null}},{"type":"Feature","geometry":{"type":"Polygon","coordinates":[[[11.4113655,45.1318947],[11.4096908,45.1313328],[11.4094201,45.1300819],[11.4098057,45.1265634],[11.4096487,45.1259854],[11.4097337,45.1250183],[11.4106254,45.1225531],[11.4111892,45.1215395],[11.4126112,45.1204362],[11.413588,45.1199325],[11.4146772,45.1197734],[11.4165237,45.1192351],[11.4164991,45.1191015],[11.4168116,45.1189584],[11.4190049,45.1183911],[11.4196135,45.1181456],[11.4201286,45.117929],[11.420773,45.1175134],[11.4216489,45.1167654],[11.4232981,45.1149953],[11.4235537,45.1150659],[11.4248038,45.1131925],[11.4256383,45.1122056],[11.426187,45.1111105],[11.4265144,45.1095966],[11.4270487,45.1081989],[11.4281346,45.106444],[11.4285922,45.1060286],[11.4286465,45.1058217],[11.4292509,45.1051828],[11.4294838,45.1050168],[11.4297832,45.10493],[11.4305807,45.1048996],[11.4340523,45.1041995],[11.4346505,45.10416],[11.4349918,45.1040185],[11.4359919,45.1031118],[11.4362498,45.1027172],[11.4361181,45.1013293],[11.4361704,45.1009257],[11.4360641,45.100208],[11.4359574,45.1000001],[11.4360804,45.0997739],[11.436552,45.0994329],[11.437478,45.0990867],[11.4381876,45.0989195],[11.4386086,45.0990223],[11.438974,45.0989794],[11.4390831,45.0988959],[11.4391038,45.0986405],[11.4407997,45.0979827],[11.4416315,45.0974608],[11.4420044,45.0970715],[11.4420612,45.0969227],[11.4418884,45.0967207],[11.4411622,45.0960521],[11.4408314,45.0958445],[11.4405887,45.0951878],[11.4406063,45.0949326],[11.441151,45.0937031],[11.4412001,45.0924246],[11.4414302,45.0918965],[11.4417454,45.0915901],[11.4415882,45.0914381],[11.4416589,45.0911179],[11.4416014,45.0909537],[11.441299,45.0905219],[11.4406367,45.089984],[11.4391383,45.088927],[11.438478,45.0886907],[11.438239,45.0877477],[11.4382762,45.0867676],[11.4384449,45.0859859],[11.4386776,45.0857539],[11.4392952,45.0854222],[11.4396137,45.0854914],[11.4402798,45.0851239],[11.4402917,45.0849582],[11.4410952,45.0846302],[11.4416186,45.0843227],[11.4420216,45.0839675],[11.442106,45.0837254],[11.4430435,45.0825983],[11.4438352,45.0819764],[11.44421,45.0824221],[11.4444813,45.0829455],[11.4459659,45.0843881],[11.4462879,45.0856792],[11.4468754,45.0869394],[11.447206,45.0880161],[11.4484361,45.0905731],[11.448393,45.0908134],[11.4477509,45.0920244],[11.4475435,45.0925833],[11.4475748,45.0928977],[11.4476916,45.0931346],[11.448353,45.0940403],[11.4503379,45.0951067],[11.4515326,45.0955851],[11.452179,45.0961383],[11.4557327,45.0981034],[11.4563738,45.0985306],[11.4570521,45.0992028],[11.4577416,45.0995156],[11.460158,45.0998421],[11.4603227,45.0998372],[11.4606608,45.0994281],[11.4652987,45.0993093],[11.4654523,45.0990983],[11.4668492,45.0982262],[11.4670514,45.0978764],[11.4669976,45.0969598],[11.4670542,45.0966766],[11.4684384,45.0951018],[11.4694531,45.0931013],[11.4697161,45.0921504],[11.4700009,45.0917166],[11.4707039,45.0909703],[11.4715698,45.0903364],[11.4717699,45.0899686],[11.4725242,45.0891725],[11.4727279,45.0885646],[11.4727061,45.0881111],[11.472278,45.0875629],[11.4721908,45.0872683],[11.4713748,45.0863788],[11.4701836,45.0848485],[11.4689356,45.0831219],[11.468733,45.0825698],[11.4686532,45.0812504],[11.4688999,45.0810941],[11.4691575,45.080697],[11.4701372,45.0780529],[11.4698868,45.0778453],[11.4714779,45.070482],[11.4688185,45.0692341],[11.46874,45.0690985],[11.4679133,45.0687557],[11.467569,45.0655428],[11.4685084,45.063161],[11.459772,45.0628773],[11.4557523,45.0621414],[11.4558854,45.0619148],[11.4559193,45.0614476],[11.4556705,45.0601413],[11.4577114,45.0599436],[11.4596549,45.0594884],[11.4590608,45.0580746],[11.4599354,45.0579046],[11.4597192,45.0573396],[11.4598666,45.0572961],[11.4596203,45.0568578],[11.4688051,45.0562764],[11.4685415,45.0546136],[11.4736002,45.0530221],[11.4737675,45.0529429],[11.4737637,45.0527724],[11.4750007,45.0535916],[11.4751051,45.0539786],[11.474888,45.0551281],[11.4753785,45.0557271],[11.4764176,45.0564964],[11.4763512,45.0567421],[11.4845804,45.0590997],[11.484975,45.0581938],[11.4879144,45.058407],[11.4879172,45.0591278],[11.49007,45.0594034],[11.4899088,45.0596237],[11.4923731,45.0598673],[11.4923108,45.0606906],[11.4932764,45.0606858],[11.4943083,45.0611467],[11.495342,45.0618249],[11.4955251,45.0621578],[11.4961379,45.0626768],[11.4966111,45.0626284],[11.497075,45.0623683],[11.4975877,45.0623462],[11.4983858,45.0623668],[11.4987807,45.0624559],[11.4992737,45.0623499],[11.5001337,45.0627533],[11.5011377,45.0626877],[11.5017613,45.0623828],[11.5025862,45.062452],[11.502789,45.0623894],[11.5043925,45.0614658],[11.5047196,45.0614296],[11.5054675,45.0616171],[11.5062624,45.0614685],[11.5067451,45.0612322],[11.5073929,45.0614801],[11.5080574,45.0621063],[11.5082816,45.0630042],[11.5084708,45.0631019],[11.5093169,45.0631853],[11.5107726,45.0626436],[11.511071,45.0624186],[11.5115406,45.06235],[11.5127929,45.0618565],[11.5135075,45.0617533],[11.5149034,45.0617226],[11.5162756,45.0611535],[11.5166342,45.0613641],[11.5174129,45.0613177],[11.5179876,45.061771],[11.518613,45.0624417],[11.5189799,45.0633074],[11.5196546,45.0641662],[11.5199464,45.0647277],[11.5205461,45.0652824],[11.5209002,45.0653911],[11.5213152,45.0652559],[11.5216656,45.0650392],[11.5219332,45.0645819],[11.5221718,45.0644018],[11.5228628,45.0642264],[11.5238488,45.0637532],[11.5263571,45.062853],[11.526717,45.0626267],[11.5267271,45.0623934],[11.5265367,45.0618006],[11.5266747,45.0616664],[11.5270596,45.0615414],[11.5277375,45.061541],[11.5283078,45.0614264],[11.5286863,45.0611559],[11.5292296,45.0604303],[11.5306157,45.0598839],[11.530948,45.0593292],[11.5312258,45.0591045],[11.5328173,45.0583093],[11.5329884,45.0580752],[11.5331717,45.0575761],[11.5334482,45.0573223],[11.5342724,45.0569108],[11.5353249,45.0565301],[11.53577,45.055931],[11.5362297,45.0547122],[11.536265,45.0545803],[11.5360826,45.0537106],[11.5361154,45.0535206],[11.5363744,45.05334],[11.5399973,45.0516431],[11.5412197,45.051412],[11.5421323,45.051144],[11.5431392,45.0511508],[11.5438223,45.0512666],[11.5440627,45.0511302],[11.5443912,45.0511229],[11.5457123,45.0512681],[11.5464568,45.0509166],[11.5467621,45.0508515],[11.5470687,45.0508156],[11.5475061,45.0509515],[11.547814,45.0509446],[11.5482409,45.0508181],[11.549212,45.0522403],[11.5491509,45.0540411],[11.5457588,45.0542224],[11.5410422,45.0553468],[11.5390679,45.0562281],[11.537893,45.0575357],[11.5452343,45.0609182],[11.5482067,45.0639974],[11.5473579,45.0638561],[11.5469187,45.0639168],[11.545761,45.0642194],[11.5449893,45.0646589],[11.5440688,45.065677],[11.5434305,45.0668052],[11.5421628,45.0683406],[11.5414107,45.0687578],[11.5402776,45.0689507],[11.5389149,45.0689198],[11.5373316,45.0687788],[11.5348241,45.0683147],[11.5345441,45.0689544],[11.5344593,45.0705401],[11.5346682,45.0712963],[11.5351902,45.0725215],[11.5351407,45.0725886],[11.5325805,45.0728863],[11.5327287,45.0734509],[11.5309091,45.0738991],[11.5309756,45.0742398],[11.5296289,45.0745334],[11.5294953,45.0740759],[11.5284978,45.0742215],[11.5285751,45.0750859],[11.528441,45.0754902],[11.5284032,45.0768597],[11.5284475,45.0769942],[11.5289019,45.0773567],[11.5282694,45.0774236],[11.5285461,45.0785678],[11.5292124,45.0797536],[11.5307401,45.0812425],[11.5314113,45.081767],[11.5312839,45.082371],[11.5313838,45.0831569],[11.5307948,45.0833948],[11.5301666,45.0847794],[11.5300461,45.0852198],[11.5292871,45.0862771],[11.5287699,45.0866672],[11.5284221,45.086704],[11.5279552,45.0866052],[11.5274742,45.0864192],[11.5263657,45.0856463],[11.5255214,45.0855351],[11.5244564,45.0851228],[11.5236546,45.0843878],[11.5234084,45.0842651],[11.522777,45.0841048],[11.5224126,45.0841259],[11.5202445,45.0848471],[11.5186591,45.0857277],[11.5163221,45.0864153],[11.5162754,45.0871521],[11.5169529,45.0878623],[11.5176843,45.0884195],[11.5177565,45.0893688],[11.5177052,45.0902976],[11.5177479,45.0906398],[11.5178919,45.0908033],[11.5189916,45.0912668],[11.520892,45.0917054],[11.5214264,45.0919339],[11.5226619,45.0926785],[11.5234836,45.0927674],[11.5243307,45.0927275],[11.5256154,45.0932234],[11.5269711,45.0930334],[11.5270828,45.0931187],[11.5273368,45.0944052],[11.5274031,45.095259],[11.5278399,45.0959672],[11.5303767,45.0972236],[11.5313256,45.0975199],[11.5318651,45.097522],[11.5328058,45.0971672],[11.5333554,45.0971053],[11.5341865,45.0972198],[11.5349602,45.0974874],[11.5372219,45.0976421],[11.5386888,45.0981282],[11.5400914,45.0980003],[11.5416516,45.0983081],[11.5430588,45.097585],[11.5446034,45.0971793],[11.5446897,45.097039],[11.5445987,45.0966114],[11.5448807,45.0959857],[11.544143,45.0955599],[11.5441335,45.0951655],[11.5445731,45.094646],[11.5460148,45.0942424],[11.5463342,45.0942572],[11.5466559,45.0945558],[11.5472321,45.0947979],[11.5491296,45.0951633],[11.5499865,45.0959378],[11.5503399,45.0960245],[11.5510257,45.0959582],[11.5517553,45.0961822],[11.5518832,45.0965143],[11.5522858,45.096782],[11.5527126,45.0966705],[11.5538035,45.0960053],[11.5541532,45.0960121],[11.5546658,45.0961542],[11.5553672,45.0960286],[11.555497,45.0959456],[11.5557725,45.095437],[11.5561054,45.0950655],[11.5573942,45.0942284],[11.5579403,45.0942497],[11.5583147,45.0943534],[11.5611061,45.0952745],[11.5612053,45.0953248],[11.5610803,45.0954684],[11.5613887,45.0961475],[11.5615178,45.0968307],[11.561425,45.0983636],[11.5618119,45.0991178],[11.5618777,45.0994751],[11.5615845,45.1002693],[11.5617923,45.1004582],[11.5626263,45.1008784],[11.5628102,45.1010567],[11.5627848,45.101471],[11.5627196,45.1016994],[11.5624907,45.101918],[11.5609916,45.1023944],[11.5589892,45.1031688],[11.5595934,45.103629],[11.5619341,45.1050383],[11.5620289,45.1052479],[11.5617492,45.1063127],[11.5620219,45.106613],[11.5621851,45.1072106],[11.5616856,45.1077558],[11.5613219,45.1090326],[11.5615054,45.1094535],[11.56223,45.1098049],[11.561964,45.1107941],[11.5635269,45.1116764],[11.5635921,45.1120238],[11.5681681,45.1116729],[11.5702238,45.1113961],[11.5714016,45.1126586],[11.5746937,45.1155786],[11.5742206,45.1164563],[11.5740336,45.1170452],[11.573669,45.1174869],[11.5736711,45.1181674],[11.572675,45.1188149],[11.5717995,45.1189757],[11.5714111,45.1192063],[11.570899,45.1192178],[11.5709411,45.1195193],[11.570098,45.1204053],[11.5698334,45.1208548],[11.5698677,45.1226516],[11.5641301,45.1212267],[11.5630502,45.1208432],[11.5606134,45.1195398],[11.559202,45.1189975],[11.5580344,45.1189582],[11.5541151,45.1198456],[11.5526769,45.11999],[11.5488348,45.1205869],[11.5454769,45.1206264],[11.5423591,45.1203584],[11.5330752,45.1204511],[11.5292074,45.1208656],[11.5260334,45.1207301],[11.5245951,45.1205694],[11.5224413,45.1202262],[11.5187941,45.118866],[11.5130086,45.1155255],[11.5059133,45.1110173],[11.5008837,45.1071959],[11.4990067,45.1056519],[11.497462,45.1048973],[11.4925563,45.1034906],[11.4915365,45.1034081],[11.4908399,45.1035002],[11.4891073,45.1039293],[11.4815871,45.1054516],[11.4763334,45.1066051],[11.4735549,45.1073803],[11.4703198,45.108396],[11.4637228,45.1105723],[11.4622068,45.1111727],[11.45879,45.1129129],[11.4573434,45.1140084],[11.4561406,45.1147542],[11.454323,45.1156698],[11.4495757,45.1174935],[11.441526,45.1196471],[11.4386801,45.1205263],[11.432035,45.122828],[11.4293308,45.1239276],[11.4238952,45.1263909],[11.4210583,45.1275407],[11.4176413,45.1288579],[11.4156976,45.1294312],[11.4148907,45.1297703],[11.413218,45.1306285],[11.4113655,45.1318947]]]},"properties":{"type":"boundary","gemeente":"Badia Polesine"}}]}