{"type":"FeatureCollection","metadata":{"gemeente":"Barbarano Mossano","slug":"barbarano-mossano","generated_at":"2026-09-26T14:26:55.431229Z","total_points":16,"providers":["PosteItaliane","DPD","GLS","DHL","Amazon","FedEx"],"bounds":[11.54058585,45.390417,11.58825733,45.40926928]},"features":[{"type":"Feature","geometry":{"type":"Point","coordinates":[11.57787846,45.39345462]},"properties":{"type":"pakketpunt","locatieNaam":"Ponte Di Barbarano","straatNaam":"Via Papa Giovanni Xxiii","straatNr":"10","vervoerder":"PosteItaliane","puntType":"postkantoor","bezettingsgraad":50,"latitude":45.39345462,"longitude":11.57787846,"canPickup":true,"canDropoff":true,"openingstijden":{"za":"08:20 - 12:45","zo":"gesloten","ma":"08:20 - 13:45","di":"08:20 - 13:45","wo":"08:20 - 13:45","do":"08:20 - 13:45","vr":"08:20 - 13:45"}}},{"type":"Feature","geometry":{"type":"Point","coordinates":[11.58825733,45.40920279]},"properties":{"type":"pakketpunt","locatieNaam":"Mossano","straatNaam":"Via Guglielmo Marconi","straatNr":"9","vervoerder":"PosteItaliane","puntType":"postkantoor","bezettingsgraad":50,"latitude":45.40920279,"longitude":11.58825733,"canPickup":true,"canDropoff":true,"openingstijden":{"za":"08:20 - 12:45","zo":"gesloten","ma":"gesloten","di":"08:20 - 13:45","wo":"gesloten","do":"08:20 - 13:45","vr":"08:20 - 13:45"}}},{"type":"Feature","geometry":{"type":"Point","coordinates":[11.54058585,45.40926928]},"properties":{"type":"pakketpunt","locatieNaam":"Barbarano Vicentino","straatNaam":"Via Quattro Novembre","straatNr":"24","vervoerder":"PosteItaliane","puntType":"postkantoor","bezettingsgraad":50,"latitude":45.40926928,"longitude":11.54058585,"canPickup":true,"canDropoff":true,"openingstijden":{"za":"08:20 - 12:45","zo":"gesloten","ma":"08:20 - 13:45","di":"08:20 - 13:45","wo":"08:20 - 13:45","do":"08:20 - 13:45","vr":"08:20 - 13:45"}}},{"type":"Feature","geometry":{"type":"Point","coordinates":[11.58059725,45.39804983]},"properties":{"type":"pakketpunt","locatieNaam":"Tabaccheria N. 3","straatNaam":"Via Del Commercio","straatNr":"14","vervoerder":"PosteItaliane","puntType":"servicepunt","bezettingsgraad":50,"latitude":45.39804983,"longitude":11.58059725,"canPickup":true,"canDropoff":true,"openingstijden":{"za":"08:30 - 13:30, 15:00 - 20:00","zo":"08:30 - 13:30","ma":"08:30 - 13:30, 15:00 - 20:00","di":"08:30 - 13:30, 15:00 - 20:00","wo":"08:30 - 13:30, 15:00 - 20:00","do":"08:30 - 13:30, 15:00 - 20:00","vr":"08:30 - 13:30, 15:00 - 20:00"}}},{"type":"Feature","geometry":{"type":"Point","coordinates":[11.54190013,45.40911864]},"properties":{"type":"pakketpunt","locatieNaam":"Tabaccheria N. 2","straatNaam":"Via Quattro Novembre","straatNr":"36","vervoerder":"PosteItaliane","puntType":"servicepunt","bezettingsgraad":50,"latitude":45.40911864,"longitude":11.54190013,"canPickup":true,"canDropoff":true,"openingstijden":{"za":"08:30 - 12:30, 15:30 - 19:30","zo":"gesloten","ma":"08:30 - 12:30, 15:30 - 19:30","di":"08:30 - 12:30, 15:30 - 19:30","wo":"08:30 - 12:30, 15:30 - 19:30","do":"08:30 - 12:30, 15:30 - 19:30","vr":"08:30 - 12:30, 15:30 - 19:30"}}},{"type":"Feature","geometry":{"type":"Point","coordinates":[11.57700467,45.3922839]},"properties":{"type":"pakketpunt","locatieNaam":"Cartolibreria Berica-Barbaranno","straatNaam":"VIALE CRISPI","straatNr":"6","vervoerder":"DPD","puntType":"pickup_point","bezettingsgraad":50,"latitude":45.3922839,"longitude":11.57700467,"canPickup":true,"canDropoff":true,"openingstijden":{"ma":"07:30 - 12:30, 16:00 - 19:00","di":"07:30 - 12:30, 16:00 - 19:00","wo":"07:30 - 12:30, 16:00 - 19:00","do":"07:30 - 12:30, 16:00 - 19:00","vr":"07:30 - 12:30, 16:00 - 19:00","za":"07:30 - 12:30","zo":"gesloten"}}},{"type":"Feature","geometry":{"type":"Point","coordinates":[11.57712,45.39225]},"properties":{"type":"pakketpunt","locatieNaam":"CARTOLIBRERIA BERICA SNC","straatNaam":"Viale Crispi","straatNr":"6","vervoerder":"GLS","puntType":"parcel_shop","bezettingsgraad":50,"latitude":45.39225,"longitude":11.57712,"canPickup":true,"canDropoff":true,"openingstijden":"za: 07:00 - 12:30; ma: 07:30 - 12:30, 15:30 - 19:00"}},{"type":"Feature","geometry":{"type":"Point","coordinates":[11.57694,45.3927]},"properties":{"type":"pakketpunt","locatieNaam":"CARTOLIBRERIA BERICA BARBARANO","straatNaam":"Viale Crispi 6","straatNr":"","vervoerder":"DHL","puntType":"parcelShop","bezettingsgraad":50,"latitude":45.3927,"longitude":11.57694,"canPickup":false,"canDropoff":true,"openingstijden":{"ma":"07:30 - 19:00","di":"07:30 - 19:00","wo":"07:30 - 19:00","do":"07:30 - 19:00","vr":"07:30 - 19:00","za":"07:30 - 19:00","zo":"gesloten"}}},{"type":"Feature","geometry":{"type":"Point","coordinates":[11.577878,45.393455]},"properties":{"type":"pakketpunt","locatieNaam":"Ufficio Postale PONTE DI BARBARANO","straatNaam":"VIA PAPA GIOVANNI XXIII 10","straatNr":"","vervoerder":"DHL","puntType":"postOffice","bezettingsgraad":50,"latitude":45.393455,"longitude":11.577878,"canPickup":true,"canDropoff":true,"openingstijden":{"ma":"08:20 - 13:45","di":"08:20 - 13:45","wo":"08:20 - 13:45","do":"08:20 - 13:45","vr":"08:20 - 13:45","za":"08:20 - 12:45","zo":"gesloten"}}},{"type":"Feature","geometry":{"type":"Point","coordinates":[11.580597,45.39805]},"properties":{"type":"pakketpunt","locatieNaam":"TABACCHERIA N. 3","straatNaam":"VIA DEL COMMERCIO 14","straatNr":"","vervoerder":"DHL","puntType":"parcelShop","bezettingsgraad":50,"latitude":45.39805,"longitude":11.580597,"canPickup":true,"canDropoff":true,"openingstijden":{"ma":"08:30 - 13:30, 15:00 - 20:00","di":"08:30 - 13:30, 15:00 - 20:00","wo":"08:30 - 13:30, 15:00 - 20:00","do":"08:30 - 13:30, 15:00 - 20:00","vr":"08:30 - 13:30, 15:00 - 20:00","za":"08:30 - 13:30, 15:00 - 20:00","zo":"08:30 - 13:30"}}},{"type":"Feature","geometry":{"type":"Point","coordinates":[11.5419,45.409119]},"properties":{"type":"pakketpunt","locatieNaam":"TABACCHERIA N. 2","straatNaam":"VIA QUATTRO NOVEMBRE 36","straatNr":"","vervoerder":"DHL","puntType":"parcelShop","bezettingsgraad":50,"latitude":45.409119,"longitude":11.5419,"canPickup":true,"canDropoff":true,"openingstijden":{"ma":"08:30 - 12:30, 15:30 - 19:30","di":"08:30 - 12:30, 15:30 - 19:30","wo":"08:30 - 12:30, 15:30 - 19:30","do":"08:30 - 12:30, 15:30 - 19:30","vr":"08:30 - 12:30, 15:30 - 19:30","za":"08:30 - 12:30, 15:30 - 19:30","zo":"gesloten"}}},{"type":"Feature","geometry":{"type":"Point","coordinates":[11.540586,45.409269]},"properties":{"type":"pakketpunt","locatieNaam":"Ufficio Postale BARBARANO VICENTINO","straatNaam":"VIA 4 NOVEMBRE 24","straatNr":"","vervoerder":"DHL","puntType":"postOffice","bezettingsgraad":50,"latitude":45.409269,"longitude":11.540586,"canPickup":true,"canDropoff":true,"openingstijden":{"ma":"08:20 - 13:45","di":"08:20 - 13:45","wo":"08:20 - 13:45","do":"08:20 - 13:45","vr":"08:20 - 13:45","za":"08:20 - 12:45","zo":"gesloten"}}},{"type":"Feature","geometry":{"type":"Point","coordinates":[11.574632,45.390417]},"properties":{"type":"pakketpunt","locatieNaam":"Amazon Locker - radamisto","straatNaam":"Stazione Tamoil - PV 6261","straatNr":"","vervoerder":"Amazon","puntType":"locker","bezettingsgraad":50,"latitude":45.390417,"longitude":11.574632,"canPickup":true,"canDropoff":false,"openingstijden":null}},{"type":"Feature","geometry":{"type":"Point","coordinates":[11.5778,45.3934]},"properties":{"type":"pakketpunt","locatieNaam":"Ufficio Postale PONTE DI BARBARANO","straatNaam":"VIA PAPA GIOVANNI XXIII 10","straatNr":"","vervoerder":"Amazon","puntType":"3p","bezettingsgraad":50,"latitude":45.3934,"longitude":11.5778,"canPickup":true,"canDropoff":false,"openingstijden":null}},{"type":"Feature","geometry":{"type":"Point","coordinates":[11.57716,45.392207]},"properties":{"type":"pakketpunt","locatieNaam":"Amazon Counter - PRIMAEDICOLA","straatNaam":"CARTOLIBRERIA BERICA SNC","straatNr":"","vervoerder":"Amazon","puntType":"helix","bezettingsgraad":50,"latitude":45.392207,"longitude":11.57716,"canPickup":true,"canDropoff":false,"openingstijden":null}},{"type":"Feature","geometry":{"type":"Point","coordinates":[11.576996863832697,45.39247429211959]},"properties":{"type":"pakketpunt","locatieNaam":"FedEx OnSite","straatNaam":"VIALE CRISPI, 6","straatNr":"","vervoerder":"FedEx","puntType":"servicepunt","bezettingsgraad":50,"latitude":45.39247429211959,"longitude":11.576996863832697,"canPickup":true,"canDropoff":true,"openingstijden":{"ma":"07:30 - 12:30, 15:30 - 19:00","di":"07:30 - 12:30, 15:30 - 19:00","wo":"07:30 - 12:30, 15:30 - 19:00","do":"07:30 - 12:30, 15:30 - 19:00","vr":"07:30 - 12:30, 15:30 - 19:00","za":"07:00 - 12:30","zo":"gesloten"}}},{"type":"Feature","geometry":{"type":"Polygon","coordinates":[[[11.5074167,45.4237478],[11.5074297,45.4238689],[11.5083591,45.4240847],[11.5086854,45.4243205],[11.5088868,45.4246203],[11.5088382,45.4248685],[11.5083276,45.4254272],[11.5075746,45.4260603],[11.5073217,45.4266453],[11.5076049,45.4267191],[11.5077149,45.4268461],[11.5078814,45.4271854],[11.507891,45.4274581],[11.5080142,45.4276006],[11.508396,45.4277492],[11.5090625,45.4279192],[11.5096723,45.4279705],[11.5098444,45.4282993],[11.5098394,45.4285289],[11.5097196,45.4287777],[11.5099128,45.4294438],[11.5110601,45.4296216],[11.5114154,45.4297918],[11.5117195,45.4298322],[11.5121901,45.4301319],[11.5119004,45.4307173],[11.5113107,45.4310251],[11.5104595,45.4317505],[11.5102093,45.4322177],[11.5097008,45.4327058],[11.5096734,45.4328808],[11.5079646,45.4336996],[11.5079797,45.4344022],[11.5081688,45.4346005],[11.5079854,45.4346286],[11.5077682,45.4349582],[11.5085053,45.4350702],[11.5112464,45.4352202],[11.5114354,45.4353201],[11.5112966,45.436214],[11.5113132,45.4366778],[11.5122881,45.4373435],[11.5123606,45.4377841],[11.5122681,45.4384421],[11.5126337,45.4388982],[11.5130145,45.4396175],[11.5129288,45.4400408],[11.5124508,45.4408384],[11.5114945,45.4421073],[11.5117076,45.4424713],[11.5121442,45.442847],[11.5122809,45.4431441],[11.5123396,45.4436216],[11.5126965,45.4439477],[11.5128235,45.4441712],[11.5129137,45.4446324],[11.5131796,45.4445386],[11.5147925,45.4444308],[11.5153507,45.4440312],[11.5159449,45.4438067],[11.516768,45.4438385],[11.5171192,45.4437636],[11.5172885,45.4436829],[11.5178247,45.4430866],[11.5187067,45.4427442],[11.5187752,45.4423492],[11.5191385,45.4419537],[11.5198065,45.4416797],[11.5200198,45.4413785],[11.5217012,45.4418035],[11.5215847,45.4420895],[11.5221533,45.4420926],[11.5245741,45.4416625],[11.5253177,45.4409847],[11.5258324,45.4412663],[11.5261787,45.441149],[11.526604,45.4408416],[11.5267095,45.4404865],[11.5268772,45.4404806],[11.5268832,45.4406142],[11.5274345,45.4411081],[11.5279668,45.441219],[11.5284621,45.4415122],[11.529656,45.4413701],[11.5307867,45.4407245],[11.532087,45.4412882],[11.5321434,45.4414377],[11.5332619,45.4413959],[11.5336117,45.4417538],[11.5341376,45.4408894],[11.5346608,45.4403591],[11.535076,45.4405352],[11.5352144,45.4403164],[11.5367815,45.440632],[11.5369911,45.440552],[11.5379196,45.4406287],[11.5385087,45.4405563],[11.5390487,45.4406589],[11.5394542,45.4403727],[11.5396555,45.440112],[11.5386545,45.439841],[11.5392961,45.4394941],[11.5397325,45.4396197],[11.5399442,45.439418],[11.5406749,45.4391319],[11.5415165,45.4390379],[11.5415373,45.4388],[11.5427621,45.4384917],[11.543468,45.4380028],[11.5441742,45.4377043],[11.544084,45.4375618],[11.5455092,45.4370577],[11.5460359,45.4367359],[11.5464194,45.4363577],[11.5462884,45.4359827],[11.5470253,45.4352382],[11.5479955,45.4345713],[11.5484473,45.4344272],[11.5484905,45.434266],[11.5484329,45.4341465],[11.5492195,45.4337972],[11.5500308,45.4328738],[11.5510025,45.4325379],[11.5515702,45.4319313],[11.5525964,45.4315662],[11.5530162,45.431676],[11.5534292,45.4319935],[11.5550454,45.431527],[11.555313,45.4318184],[11.5556306,45.4316896],[11.5555637,45.4315763],[11.5562712,45.4312179],[11.5562731,45.4305286],[11.5571847,45.4300493],[11.5588954,45.4295716],[11.5588573,45.4293389],[11.5596607,45.4290777],[11.5612122,45.4287705],[11.5628608,45.428967],[11.5631865,45.4288365],[11.5648223,45.4275984],[11.5671615,45.426657],[11.5695366,45.4253878],[11.5700886,45.4252078],[11.5715474,45.4241145],[11.5716854,45.4238739],[11.5713414,45.4235361],[11.5713797,45.4233081],[11.5724443,45.4222907],[11.573189,45.4223392],[11.5732297,45.4226872],[11.573344,45.4226942],[11.5733497,45.4224905],[11.5735032,45.4222854],[11.5746084,45.4216806],[11.5748227,45.4222165],[11.5753566,45.4219338],[11.5753183,45.4217431],[11.575478,45.4213608],[11.576271,45.420761],[11.579165,45.4203228],[11.5802078,45.4200686],[11.5839434,45.4188871],[11.5835213,45.4194041],[11.5888666,45.4179618],[11.5893626,45.4178712],[11.5896731,45.4182712],[11.5906627,45.41741],[11.5914498,45.4168763],[11.5927158,45.4162125],[11.5947347,45.4149986],[11.5976313,45.4134359],[11.600619,45.4120887],[11.6024141,45.4110358],[11.6026271,45.4105256],[11.6037742,45.4088593],[11.6053079,45.408929],[11.6053738,45.4085238],[11.6067168,45.4085024],[11.6080787,45.4087497],[11.6096075,45.4087244],[11.6109489,45.4088616],[11.6109864,45.4089714],[11.6114907,45.4090212],[11.6128993,45.4090299],[11.6130296,45.4073918],[11.6143657,45.4074991],[11.6156353,45.4071698],[11.6159816,45.4071583],[11.6170365,45.4071733],[11.6175578,45.40736],[11.6176814,45.4070572],[11.6197747,45.4071704],[11.6198652,45.4068827],[11.6199702,45.4067936],[11.6206867,45.4067119],[11.6204849,45.4060445],[11.623888,45.4054549],[11.6238653,45.4043618],[11.6236579,45.4028799],[11.6246693,45.4028329],[11.624693,45.4021493],[11.6276752,45.402062],[11.6290711,45.4017141],[11.630673,45.4009794],[11.6311421,45.4008544],[11.6324614,45.4009631],[11.6335148,45.4012881],[11.6341852,45.4013999],[11.634499,45.4013245],[11.6348408,45.4011049],[11.6290308,45.3970855],[11.6236904,45.3935499],[11.6206531,45.3913947],[11.6172745,45.3894859],[11.6170327,45.3891104],[11.6165188,45.3886454],[11.6165101,45.3884806],[11.6160411,45.3879975],[11.615654,45.3874178],[11.6151945,45.3879359],[11.6149967,45.3879983],[11.6121133,45.3879508],[11.6093733,45.3882204],[11.607606,45.3881196],[11.6070804,45.3883629],[11.6069668,45.3885786],[11.6067478,45.3887306],[11.6064885,45.3885497],[11.6060959,45.3884889],[11.6058013,45.3882865],[11.6046877,45.3880738],[11.6043057,45.3881033],[11.603744,45.3879239],[11.6032382,45.3878997],[11.6027949,45.3876207],[11.6021001,45.3879106],[11.6009912,45.3877841],[11.6006967,45.3879717],[11.6001969,45.3879736],[11.5999384,45.3889293],[11.5950926,45.3887971],[11.5950456,45.3886584],[11.5951255,45.3881792],[11.595951,45.3840761],[11.595869,45.3829648],[11.5959837,45.3812319],[11.5961612,45.3803609],[11.5961038,45.3791053],[11.5953927,45.3791987],[11.5941575,45.379157],[11.594138,45.3790871],[11.5939666,45.379098],[11.5939445,45.378996],[11.5930942,45.3791691],[11.5921312,45.3792427],[11.5921154,45.3814484],[11.5871412,45.3812771],[11.5855023,45.3806904],[11.5847115,45.3805374],[11.5838238,45.3800615],[11.5823434,45.3798282],[11.5817191,45.3796518],[11.5807214,45.3792114],[11.5808784,45.378944],[11.580296,45.3788392],[11.5802345,45.3774719],[11.5750617,45.3772257],[11.5750026,45.3768617],[11.5749193,45.3767776],[11.574223,45.3767647],[11.5730268,45.3761372],[11.5726531,45.3757018],[11.5725011,45.3751242],[11.571849,45.3746943],[11.5715031,45.3743317],[11.5703957,45.3741129],[11.5694987,45.373639],[11.5690973,45.3732952],[11.5683359,45.3732222],[11.5677322,45.3730706],[11.5666802,45.3732911],[11.5660534,45.3733161],[11.5672846,45.3756992],[11.5668963,45.3757714],[11.5662866,45.37575],[11.5659089,45.3754962],[11.5648222,45.3751993],[11.5647537,45.3751437],[11.5648201,45.3750909],[11.5631497,45.3754349],[11.5621549,45.373662],[11.5613757,45.3746112],[11.5613752,45.3792924],[11.5610886,45.3794688],[11.5603841,45.3816799],[11.5596468,45.3815469],[11.5592854,45.3822423],[11.5591722,45.3822218],[11.5590949,45.3824402],[11.5599107,45.3827325],[11.5596468,45.3830964],[11.5594038,45.3833823],[11.558547,45.3828315],[11.5580402,45.3831806],[11.5578902,45.3834837],[11.5578782,45.3838349],[11.5575998,45.3839067],[11.5563342,45.384822],[11.5554317,45.3843395],[11.5542962,45.3854945],[11.5528424,45.3861245],[11.552711,45.3871851],[11.5536023,45.3870518],[11.5540049,45.3868877],[11.5543655,45.3874095],[11.554624,45.387646],[11.5537079,45.3877474],[11.5540918,45.3885955],[11.5534325,45.3885666],[11.5531898,45.389634],[11.5529117,45.3896791],[11.5517224,45.3894783],[11.5515641,45.3905671],[11.5507892,45.3911568],[11.550673,45.3920646],[11.5515056,45.3938657],[11.5514024,45.3943094],[11.5514821,45.3945353],[11.5514614,45.3948185],[11.5511073,45.3953325],[11.5516547,45.3956637],[11.5504659,45.3974475],[11.5498858,45.3989318],[11.548749,45.4011244],[11.5483428,45.401562],[11.5477498,45.4018273],[11.5472413,45.4021812],[11.5475575,45.4027383],[11.5464909,45.4031719],[11.5457531,45.403701],[11.5459162,45.4043597],[11.5455684,45.4045224],[11.5450517,45.4046065],[11.5432196,45.4044783],[11.5421832,45.4045884],[11.5418219,45.4047738],[11.5413988,45.405524],[11.5409143,45.4057735],[11.5391631,45.4060148],[11.5383866,45.4063215],[11.5382969,45.4062474],[11.5382849,45.4058277],[11.5381566,45.4057656],[11.5377431,45.4058666],[11.5377555,45.4062432],[11.5375784,45.4066408],[11.5376071,45.4068447],[11.5383229,45.4073551],[11.5375374,45.4072672],[11.5363397,45.4073038],[11.5353585,45.4069942],[11.5350817,45.4073909],[11.5352187,45.4081452],[11.5349826,45.4082911],[11.5345479,45.4083806],[11.5338659,45.4086585],[11.5324367,45.4089295],[11.5301477,45.4087404],[11.5298156,45.4089473],[11.5294054,45.4094982],[11.5289893,45.4098779],[11.5256753,45.4111197],[11.5252173,45.4119083],[11.524866,45.4128552],[11.5247245,45.4129263],[11.5239636,45.4130971],[11.5234213,45.4133158],[11.5221861,45.4134043],[11.5214655,45.413552],[11.5211975,45.4139157],[11.5208397,45.4141562],[11.5202997,45.4138562],[11.520115,45.4134945],[11.5193188,45.4135431],[11.5195903,45.4129886],[11.5196131,45.4128545],[11.5194914,45.4127062],[11.5190477,45.412795],[11.518677,45.4131003],[11.5179675,45.4134439],[11.5175674,45.4133436],[11.5172696,45.4137526],[11.5168654,45.4136534],[11.5164418,45.4137254],[11.5160441,45.4142095],[11.5155016,45.4145379],[11.5157396,45.4147764],[11.5161547,45.4149969],[11.5164989,45.4156392],[11.5168077,45.4157202],[11.5174981,45.4157353],[11.5173878,45.4158188],[11.5164271,45.4163074],[11.5162465,45.416271],[11.5160297,45.4160625],[11.5157503,45.4159439],[11.5153401,45.4161819],[11.5148304,45.4167179],[11.5139234,45.4169212],[11.5131148,45.417286],[11.512497,45.4172246],[11.5114812,45.4174999],[11.5108807,45.4180676],[11.5101273,45.4182332],[11.5092961,45.4182804],[11.5093,45.4184602],[11.5095873,45.4187175],[11.5096224,45.4188482],[11.5092773,45.4196581],[11.509815,45.4207501],[11.5078185,45.4221248],[11.5082594,45.4221468],[11.5083427,45.4222139],[11.5085781,45.4233351],[11.5083342,45.4234426],[11.507695,45.4233648],[11.5074167,45.4237478]]]},"properties":{"type":"boundary","gemeente":"Barbarano Mossano"}}]}