{"type":"FeatureCollection","metadata":{"gemeente":"Barlassina","slug":"barlassina","generated_at":"2026-09-26T14:26:55.784545Z","total_points":13,"providers":["PosteItaliane","DPD","InPost","GLS","DHL","Amazon","FedEx"],"bounds":[9.1267454,45.65197663,9.131929,45.6600913]},"features":[{"type":"Feature","geometry":{"type":"Point","coordinates":[9.1307217,45.6554355]},"properties":{"type":"pakketpunt","locatieNaam":"Barlassina","straatNaam":"Via Piave","straatNr":"27","vervoerder":"PosteItaliane","puntType":"postkantoor","bezettingsgraad":50,"latitude":45.6554355,"longitude":9.1307217,"canPickup":true,"canDropoff":true,"openingstijden":{"za":"08:20 - 12:45","zo":"gesloten","ma":"08:20 - 12:00","di":"08:20 - 13:45","wo":"08:20 - 13:45","do":"08:20 - 13:45","vr":"08:20 - 13:45"}}},{"type":"Feature","geometry":{"type":"Point","coordinates":[9.13192855,45.65197663]},"properties":{"type":"pakketpunt","locatieNaam":"Stazione Di Servizio Eni","straatNaam":"Via Nazionale Dei Giovi","straatNr":"30","vervoerder":"PosteItaliane","puntType":"automaat","bezettingsgraad":50,"latitude":45.65197663,"longitude":9.13192855,"canPickup":true,"canDropoff":true,"openingstijden":{"za":"00:01 - 23:59","zo":"00:01 - 23:59","ma":"00:01 - 23:59","di":"00:01 - 23:59","wo":"00:01 - 23:59","do":"00:01 - 23:59","vr":"00:01 - 23:59"}}},{"type":"Feature","geometry":{"type":"Point","coordinates":[9.128395,45.656968]},"properties":{"type":"pakketpunt","locatieNaam":"Prima Pagina - Corso Milano","straatNaam":"CORSO MILANO","straatNr":"77","vervoerder":"DPD","puntType":"pickup_point","bezettingsgraad":50,"latitude":45.656968,"longitude":9.128395,"canPickup":true,"canDropoff":true,"openingstijden":{"ma":"07:30 - 12:30, 15:45 - 19:00","di":"07:30 - 12:30, 15:45 - 19:00","wo":"07:30 - 12:30, 15:45 - 19:00","do":"07:30 - 12:30, 15:45 - 19:00","vr":"07:30 - 12:30, 15:45 - 19:00","za":"07:30 - 12:30, 15:45 - 19:00","zo":"08:00 - 12:30"}}},{"type":"Feature","geometry":{"type":"Point","coordinates":[9.1267454,45.6600913]},"properties":{"type":"pakketpunt","locatieNaam":"Idea Moda","straatNaam":"CORSO MILANO","straatNr":"142","vervoerder":"DPD","puntType":"pickup_point","bezettingsgraad":50,"latitude":45.6600913,"longitude":9.1267454,"canPickup":true,"canDropoff":true,"openingstijden":{"ma":"09:00 - 20:00","di":"09:00 - 20:00","wo":"09:00 - 20:00","do":"09:00 - 20:00","vr":"09:00 - 20:00","za":"09:00 - 20:00","zo":"09:00 - 20:00"}}},{"type":"Feature","geometry":{"type":"Point","coordinates":[9.13003,45.65491]},"properties":{"type":"pakketpunt","locatieNaam":"InPost Locker 24/7","straatNaam":"Corso Milano","straatNr":"Snc","vervoerder":"InPost","puntType":"automaat","bezettingsgraad":50,"latitude":45.65491,"longitude":9.13003,"canPickup":true,"canDropoff":true,"openingstijden":null}},{"type":"Feature","geometry":{"type":"Point","coordinates":[9.12849,45.65702]},"properties":{"type":"pakketpunt","locatieNaam":"InPost Point","straatNaam":"Corso Milano","straatNr":"75","vervoerder":"InPost","puntType":"servicepunt","bezettingsgraad":50,"latitude":45.65702,"longitude":9.12849,"canPickup":true,"canDropoff":true,"openingstijden":"Lun-Sab: 08:00 - 12:00 - 16:00 - 19:00 Dom: 08:00 - 12:00"}},{"type":"Feature","geometry":{"type":"Point","coordinates":[9.1284912,45.6568643]},"properties":{"type":"pakketpunt","locatieNaam":"PRIMA PAGINA DI ZACCARA DARIO & B: SNC","straatNaam":"Corso Milano","straatNr":"77","vervoerder":"GLS","puntType":"parcel_shop","bezettingsgraad":50,"latitude":45.6568643,"longitude":9.1284912,"canPickup":true,"canDropoff":true,"openingstijden":"za: 07:30 - 12:30, 16:00 - 19:00; zo: 09:00 - 12:00"}},{"type":"Feature","geometry":{"type":"Point","coordinates":[9.129,45.6565]},"properties":{"type":"pakketpunt","locatieNaam":"DUEBI SERVICE","straatNaam":"Corso Milano 44","straatNr":"","vervoerder":"DHL","puntType":"parcelShop","bezettingsgraad":50,"latitude":45.6565,"longitude":9.129,"canPickup":false,"canDropoff":true,"openingstijden":{"ma":"08:30 - 19:00","di":"08:30 - 19:00","wo":"08:30 - 19:00","do":"08:30 - 19:00","vr":"08:30 - 19:00","za":"gesloten","zo":"gesloten"}}},{"type":"Feature","geometry":{"type":"Point","coordinates":[9.130722,45.655436]},"properties":{"type":"pakketpunt","locatieNaam":"Ufficio Postale BARLASSINA","straatNaam":"VIA PIAVE 27","straatNr":"","vervoerder":"DHL","puntType":"postOffice","bezettingsgraad":50,"latitude":45.655436,"longitude":9.130722,"canPickup":true,"canDropoff":true,"openingstijden":{"ma":"08:20 - 13:45","di":"08:20 - 13:45","wo":"08:20 - 13:45","do":"08:20 - 13:45","vr":"08:20 - 13:45","za":"08:20 - 12:45","zo":"gesloten"}}},{"type":"Feature","geometry":{"type":"Point","coordinates":[9.131929,45.651977]},"properties":{"type":"pakketpunt","locatieNaam":"STAZIONE DI SERVIZIO ENI","straatNaam":"VIA NAZIONALE DEI GIOVI 30","straatNr":"","vervoerder":"DHL","puntType":"packStation","bezettingsgraad":50,"latitude":45.651977,"longitude":9.131929,"canPickup":true,"canDropoff":true,"openingstijden":{"ma":"00:01 - 23:59","di":"00:01 - 23:59","wo":"00:01 - 23:59","do":"00:01 - 23:59","vr":"00:01 - 23:59","za":"00:01 - 23:59","zo":"00:01 - 23:59"}}},{"type":"Feature","geometry":{"type":"Point","coordinates":[9.1312926,45.6523406]},"properties":{"type":"pakketpunt","locatieNaam":"Amazon Locker - gioina","straatNaam":"ENI Station pv.52003","straatNr":"","vervoerder":"Amazon","puntType":"locker","bezettingsgraad":50,"latitude":45.6523406,"longitude":9.1312926,"canPickup":true,"canDropoff":false,"openingstijden":null}},{"type":"Feature","geometry":{"type":"Point","coordinates":[9.128487,45.65693]},"properties":{"type":"pakketpunt","locatieNaam":"Amazon Counter","straatNaam":"Prima Pagina - Corso Milano (fermopoint)","straatNr":"","vervoerder":"Amazon","puntType":"helix","bezettingsgraad":50,"latitude":45.65693,"longitude":9.128487,"canPickup":true,"canDropoff":false,"openingstijden":null}},{"type":"Feature","geometry":{"type":"Point","coordinates":[9.128474641116457,45.65686713840971]},"properties":{"type":"pakketpunt","locatieNaam":"FedEx OnSite","straatNaam":"CORSO MILANO, 77","straatNr":"","vervoerder":"FedEx","puntType":"servicepunt","bezettingsgraad":50,"latitude":45.65686713840971,"longitude":9.128474641116457,"canPickup":true,"canDropoff":true,"openingstijden":{"ma":"07:30 - 12:30, 16:00 - 19:00","di":"07:30 - 12:30, 16:00 - 19:00","wo":"07:30 - 12:30, 16:00 - 19:00","do":"07:30 - 12:30, 16:00 - 19:00","vr":"07:30 - 12:30, 16:00 - 19:00","za":"07:30 - 12:30, 16:00 - 19:00","zo":"09:00 - 12:00"}}},{"type":"Feature","geometry":{"type":"Polygon","coordinates":[[[9.1075879,45.6442645],[9.1089421,45.6444567],[9.1103478,45.6447613],[9.1164671,45.6469514],[9.1172726,45.64628],[9.1206384,45.6471945],[9.1209376,45.6468387],[9.1223638,45.6469181],[9.1237422,45.6471282],[9.1240747,45.6473213],[9.1244499,45.647793],[9.1249489,45.6481567],[9.1269856,45.6487298],[9.1278476,45.6493854],[9.1296378,45.6500962],[9.1300011,45.6504225],[9.1301471,45.6507231],[9.1307755,45.6508905],[9.1316155,45.6513044],[9.1338471,45.6519067],[9.1348509,45.651971],[9.1361823,45.6515834],[9.1367684,45.6519421],[9.1369769,45.6519148],[9.1370155,45.6519778],[9.136854,45.652158],[9.1375236,45.6524362],[9.1375824,45.6528412],[9.1381416,45.653196],[9.1382899,45.6535064],[9.1384506,45.6536232],[9.1390562,45.6545405],[9.1389808,45.6552247],[9.1386838,45.6557876],[9.1391303,45.6559536],[9.1395828,45.6559935],[9.1409145,45.6566579],[9.1428877,45.6570015],[9.1436476,45.6573073],[9.1430501,45.6575993],[9.1426303,45.6581769],[9.1413639,45.6589407],[9.1400115,45.6599751],[9.1402665,45.6601132],[9.1403599,45.6602592],[9.1391672,45.6630417],[9.1385961,45.6631099],[9.1367792,45.6635622],[9.1364764,45.663738],[9.1332585,45.6641379],[9.1315119,45.6637935],[9.1303389,45.6638218],[9.1300369,45.6636512],[9.1292101,45.6634811],[9.1287812,45.6632611],[9.1284639,45.6627484],[9.1293514,45.6614287],[9.1283744,45.6611587],[9.1282276,45.6609094],[9.1255185,45.6601639],[9.1238208,45.6594052],[9.1225283,45.6589701],[9.1221137,45.6587095],[9.1215161,45.6576301],[9.1218971,45.6565136],[9.1207263,45.6559298],[9.1199518,45.6554085],[9.1208533,45.6548118],[9.1193849,45.654113],[9.1169415,45.6532913],[9.1129531,45.6517919],[9.112577,45.6508752],[9.1101905,45.6512061],[9.1058664,45.6491626],[9.1067753,45.6479871],[9.1070503,45.6474738],[9.107101,45.6471677],[9.1070021,45.6466457],[9.1071123,45.6463441],[9.1070053,45.6458042],[9.1075879,45.6442645]]]},"properties":{"type":"boundary","gemeente":"Barlassina"}}]}