{"type":"FeatureCollection","metadata":{"gemeente":"Beinette","slug":"beinette","generated_at":"2026-09-26T13:09:35.645961Z","total_points":2,"providers":["PosteItaliane","DHL"],"bounds":[7.6457699,44.36564568,7.64577,44.365646]},"features":[{"type":"Feature","geometry":{"type":"Point","coordinates":[7.6457699,44.36564568]},"properties":{"type":"pakketpunt","locatieNaam":"Beinette","straatNaam":"Via Vittorio Veneto","straatNr":"7","vervoerder":"PosteItaliane","puntType":"postkantoor","bezettingsgraad":50,"latitude":44.36564568,"longitude":7.6457699,"canPickup":true,"canDropoff":true,"openingstijden":{"za":"08:20 - 12:45","zo":"gesloten","ma":"08:20 - 13:45","di":"08:20 - 13:45","wo":"08:20 - 13:45","do":"08:20 - 13:45","vr":"08:20 - 13:45"}}},{"type":"Feature","geometry":{"type":"Point","coordinates":[7.64577,44.365646]},"properties":{"type":"pakketpunt","locatieNaam":"Ufficio Postale BEINETTE","straatNaam":"VIA VITTORIO VENETO 7","straatNr":"","vervoerder":"DHL","puntType":"postOffice","bezettingsgraad":50,"latitude":44.365646,"longitude":7.64577,"canPickup":true,"canDropoff":true,"openingstijden":{"ma":"08:20 - 13:45","di":"08:20 - 13:45","wo":"08:20 - 13:45","do":"08:20 - 13:45","vr":"08:20 - 13:45","za":"08:20 - 12:45","zo":"gesloten"}}},{"type":"Feature","geometry":{"type":"Polygon","coordinates":[[[7.6040588,44.3788253],[7.6049834,44.3790962],[7.6065186,44.3793799],[7.6120273,44.380923],[7.6283457,44.3850216],[7.6307326,44.3857014],[7.6440202,44.3891296],[7.6455747,44.3895557],[7.6464283,44.3900329],[7.6470606,44.3905536],[7.6476442,44.3904016],[7.6484776,44.3905288],[7.6492695,44.3907838],[7.650513,44.3904921],[7.6514362,44.3906996],[7.6516525,44.3904281],[7.6518523,44.3903844],[7.6529796,44.390609],[7.6545938,44.3897477],[7.6572982,44.3916862],[7.658277,44.3908706],[7.6567968,44.3897355],[7.6582821,44.3879647],[7.6595927,44.3884198],[7.661221,44.3876017],[7.6672178,44.3858668],[7.6723199,44.3851295],[7.6737928,44.3859568],[7.6765256,44.385678],[7.6783614,44.3853526],[7.6794751,44.3849199],[7.6801411,44.3844549],[7.6802286,44.3814242],[7.6817172,44.3787234],[7.6829964,44.3781145],[7.6831168,44.3778381],[7.6827131,44.3772945],[7.6818546,44.3767819],[7.6810734,44.375546],[7.6803787,44.3716812],[7.6801071,44.3709295],[7.6798549,44.3707653],[7.6729008,44.3561344],[7.6718573,44.3530119],[7.6712653,44.3504798],[7.6712681,44.3503538],[7.671503,44.3500729],[7.6717151,44.3493642],[7.6694654,44.3461421],[7.6663322,44.3435308],[7.6645927,44.3423342],[7.6612755,44.3403215],[7.6578528,44.3374137],[7.6565729,44.3397781],[7.6562419,44.3409509],[7.6554917,44.3426403],[7.6542361,44.3442212],[7.6532427,44.3489993],[7.6526598,44.3499017],[7.6518689,44.3508151],[7.6508167,44.351694],[7.649658,44.3523645],[7.646069,44.3535013],[7.6426997,44.3549152],[7.6369127,44.3586859],[7.6337257,44.3615088],[7.6315919,44.3609242],[7.6301285,44.3645293],[7.6295239,44.3652158],[7.6312207,44.3655618],[7.6303746,44.3679153],[7.6305723,44.3681525],[7.6305542,44.3685953],[7.6298848,44.3685084],[7.6291874,44.3708521],[7.6287497,44.3708351],[7.6285772,44.3709091],[7.6282805,44.3714122],[7.628039,44.3716094],[7.6277354,44.3716094],[7.6268799,44.3713924],[7.6258303,44.3714089],[7.6252587,44.3712013],[7.6248169,44.3707957],[7.6245918,44.3704026],[7.6243938,44.3702972],[7.6225952,44.3704997],[7.6221192,44.3702433],[7.6219398,44.3700361],[7.6211532,44.3697155],[7.6207807,44.3704222],[7.6200809,44.37292],[7.6096772,44.3760678],[7.6040588,44.3788253]]]},"properties":{"type":"boundary","gemeente":"Beinette"}}]}