{"type":"FeatureCollection","metadata":{"gemeente":"Binetto","slug":"binetto","generated_at":"2026-09-26T14:26:57.753130Z","total_points":7,"providers":["PosteItaliane","DPD","GLS","DHL","Amazon","FedEx"],"bounds":[16.71018597,41.02306246,16.710461,41.02511749]},"features":[{"type":"Feature","geometry":{"type":"Point","coordinates":[16.71018597,41.02306246]},"properties":{"type":"pakketpunt","locatieNaam":"Binetto","straatNaam":"Via Grumo","straatNr":"40","vervoerder":"PosteItaliane","puntType":"postkantoor","bezettingsgraad":50,"latitude":41.02306246,"longitude":16.71018597,"canPickup":true,"canDropoff":true,"openingstijden":{"ma":"gesloten","di":"gesloten","wo":"gesloten","do":"gesloten","vr":"gesloten","za":"gesloten","zo":"gesloten"}}},{"type":"Feature","geometry":{"type":"Point","coordinates":[16.71041113,41.02511749]},"properties":{"type":"pakketpunt","locatieNaam":"Tabaccheria N. 1","straatNaam":"Piazza Umberto","straatNr":"12","vervoerder":"PosteItaliane","puntType":"servicepunt","bezettingsgraad":50,"latitude":41.02511749,"longitude":16.71041113,"canPickup":true,"canDropoff":true,"openingstijden":{"za":"07:30 - 13:00, 16:00 - 20:00","zo":"07:30 - 13:00","ma":"07:30 - 13:00, 16:00 - 20:00","di":"07:30 - 13:00, 16:00 - 20:00","wo":"07:30 - 13:00, 16:00 - 20:00","do":"07:30 - 13:00, 16:00 - 20:00","vr":"07:30 - 13:00, 16:00 - 20:00"}}},{"type":"Feature","geometry":{"type":"Point","coordinates":[16.7102848,41.0247614]},"properties":{"type":"pakketpunt","locatieNaam":"Cartoleria Mondo Di Carta","straatNaam":"PIAZZA UMBERTO I","straatNr":"14","vervoerder":"DPD","puntType":"pickup_point","bezettingsgraad":50,"latitude":41.0247614,"longitude":16.7102848,"canPickup":true,"canDropoff":true,"openingstijden":{"ma":"07:00 - 12:30, 17:00 - 20:30","di":"07:00 - 12:30, 17:00 - 20:30","wo":"07:00 - 12:30, 17:00 - 20:30","do":"07:00 - 12:30, 17:00 - 20:30","vr":"07:00 - 12:30, 17:00 - 20:30","za":"07:00 - 12:30, 17:00 - 20:30","zo":"gesloten"}}},{"type":"Feature","geometry":{"type":"Point","coordinates":[16.7102848,41.0247614]},"properties":{"type":"pakketpunt","locatieNaam":"CARTOLERIA MONDO DI CARTA","straatNaam":"Piazza Umberto I","straatNr":"14","vervoerder":"GLS","puntType":"parcel_shop","bezettingsgraad":50,"latitude":41.0247614,"longitude":16.7102848,"canPickup":true,"canDropoff":true,"openingstijden":"za: 08:00 - 12:30, 17:00 - 20:00; ma: 08:00 - 12:30, 17:00 - 20:00"}},{"type":"Feature","geometry":{"type":"Point","coordinates":[16.710411,41.025117]},"properties":{"type":"pakketpunt","locatieNaam":"TABACCHERIA N. 1","straatNaam":"PIAZZA UMBERTO 12","straatNr":"","vervoerder":"DHL","puntType":"parcelShop","bezettingsgraad":50,"latitude":41.025117,"longitude":16.710411,"canPickup":true,"canDropoff":true,"openingstijden":{"ma":"07:30 - 13:00, 16:00 - 20:00","di":"07:30 - 13:00, 16:00 - 20:00","wo":"07:30 - 13:00, 16:00 - 20:00","do":"07:30 - 13:00, 16:00 - 20:00","vr":"07:30 - 13:00, 16:00 - 20:00","za":"07:30 - 13:00, 16:00 - 20:00","zo":"07:30 - 13:00"}}},{"type":"Feature","geometry":{"type":"Point","coordinates":[16.710461,41.024614]},"properties":{"type":"pakketpunt","locatieNaam":"Amazon Counter - MONDO DI CARTA","straatNaam":"PIAZZA UMBERTO I 14","straatNr":"","vervoerder":"Amazon","puntType":"helix","bezettingsgraad":50,"latitude":41.024614,"longitude":16.710461,"canPickup":true,"canDropoff":false,"openingstijden":null}},{"type":"Feature","geometry":{"type":"Point","coordinates":[16.710209072009263,41.02477041586004]},"properties":{"type":"pakketpunt","locatieNaam":"FedEx OnSite","straatNaam":"PIAZZA UMBERTO I, 14","straatNr":"","vervoerder":"FedEx","puntType":"servicepunt","bezettingsgraad":50,"latitude":41.02477041586004,"longitude":16.710209072009263,"canPickup":true,"canDropoff":true,"openingstijden":{"ma":"08:00 - 12:30, 17:00 - 20:00","di":"08:00 - 12:30, 17:00 - 20:00","wo":"08:00 - 12:30, 17:00 - 20:00","do":"08:00 - 12:30, 17:00 - 20:00","vr":"08:00 - 12:30, 17:00 - 20:00","za":"08:00 - 12:30, 17:00 - 20:00","zo":"gesloten"}}},{"type":"Feature","geometry":{"type":"MultiPolygon","coordinates":[[[[16.5642483,40.9842745],[16.5576648,40.9874665],[16.5477674,40.9981102],[16.5444483,41.0022245],[16.5452257,41.0024657],[16.5466893,41.0024908],[16.5478663,41.0024493],[16.5498665,41.0020791],[16.5513281,41.0019874],[16.5531094,41.0019824],[16.5550275,41.0021124],[16.558627,41.0024958],[16.5649121,41.0038221],[16.5717574,40.9975309],[16.5717834,40.9911277],[16.5717201,40.9904616],[16.5695085,40.9884484],[16.5658048,40.9891923],[16.5642483,40.9842745]]],[[[16.6851268,41.0174692],[16.684899,41.0179208],[16.685029,41.0197564],[16.6888094,41.0299077],[16.7245464,41.0418625],[16.7268664,41.0409278],[16.7313555,41.032024],[16.7314502,41.0315543],[16.7316331,41.0239846],[16.7310129,41.0189658],[16.7319025,41.0120638],[16.7338835,41.0104906],[16.7571575,40.9998798],[16.7608428,40.9984922],[16.7654766,40.9918805],[16.7661142,40.9756568],[16.7658941,40.974961],[16.765233,40.9741871],[16.7647613,40.9739492],[16.7643321,40.9738214],[16.7633309,40.9741227],[16.7618387,40.9752089],[16.7606261,40.9765146],[16.7598578,40.9780151],[16.7582443,40.9790555],[16.7566288,40.9799026],[16.7555993,40.9801072],[16.753332,40.9815562],[16.7530142,40.9821715],[16.752405,40.9829459],[16.7517745,40.983389],[16.7501459,40.9838365],[16.7482628,40.9840898],[16.7447183,40.9889628],[16.7436146,40.9907827],[16.7428364,40.9924052],[16.7413163,40.9946986],[16.7401418,40.9956912],[16.737353,40.9963609],[16.7325641,40.9973544],[16.7319932,40.9992552],[16.7304145,41.0002559],[16.7297132,40.9998364],[16.7292826,40.9996726],[16.7276583,40.9998324],[16.7273451,41.0000952],[16.7270491,41.0005695],[16.7269438,41.0011389],[16.7269152,41.0027782],[16.7278806,41.0037297],[16.727732,41.0045764],[16.7269997,41.00692],[16.7266007,41.0070999],[16.7254902,41.0073772],[16.7238944,41.0082],[16.7250489,41.0100655],[16.7209821,41.0128047],[16.7190689,41.0155787],[16.7152587,41.0187773],[16.7129083,41.0188142],[16.7123709,41.0187247],[16.7095949,41.0186818],[16.7070818,41.0188555],[16.7065308,41.0191174],[16.7057336,41.0200302],[16.7050325,41.0205092],[16.7029992,41.0214908],[16.7025744,41.0212277],[16.7004953,41.0188799],[16.6992806,41.017891],[16.6984325,41.0173182],[16.6926753,41.014484],[16.6912661,41.0138639],[16.6898517,41.0139043],[16.6851268,41.0174692]]],[[[16.7060333,41.018737],[16.7051827,41.0180937],[16.7038335,41.0193527],[16.7045761,41.0199717],[16.7060333,41.018737]]]]},"properties":{"type":"boundary","gemeente":"Binetto"}}]}