{"type":"FeatureCollection","metadata":{"gemeente":"Bisegna","slug":"bisegna","generated_at":"2026-09-26T14:26:57.831302Z","total_points":1,"providers":["PosteItaliane"],"bounds":[13.75725522,41.9213314,13.75725522,41.9213314]},"features":[{"type":"Feature","geometry":{"type":"Point","coordinates":[13.75725522,41.9213314]},"properties":{"type":"pakketpunt","locatieNaam":"Bisegna","straatNaam":"Via Roma Snc","straatNr":"1","vervoerder":"PosteItaliane","puntType":"postkantoor","bezettingsgraad":50,"latitude":41.9213314,"longitude":13.75725522,"canPickup":true,"canDropoff":true,"openingstijden":{"za":"gesloten","zo":"gesloten","ma":"08:20 - 13:45","di":"gesloten","wo":"08:20 - 13:45","do":"gesloten","vr":"08:20 - 13:45"}}},{"type":"Feature","geometry":{"type":"Polygon","coordinates":[[[13.7377261,41.9451319],[13.7406901,41.9502626],[13.7413976,41.9510706],[13.7423997,41.9516323],[13.7492703,41.9544358],[13.7484902,41.9622288],[13.7478911,41.9639148],[13.74677,41.9693766],[13.7467893,41.9702041],[13.7473114,41.9707047],[13.753605,41.9703986],[13.761969,41.9688322],[13.7665672,41.9656438],[13.7697679,41.9668773],[13.7733341,41.9651044],[13.7751313,41.9639356],[13.7790358,41.959568],[13.780015,41.9588438],[13.7803966,41.9583972],[13.7807602,41.9581741],[13.7808194,41.9566401],[13.7804738,41.9555821],[13.7795119,41.9545061],[13.7778515,41.9534854],[13.7770213,41.952364],[13.777716,41.9510157],[13.7776143,41.9492767],[13.7779444,41.9482433],[13.7775804,41.9464161],[13.7756753,41.9417847],[13.7749711,41.9398501],[13.7751406,41.9390435],[13.7758924,41.9379872],[13.7762473,41.9361929],[13.7775804,41.934796],[13.7790106,41.9327791],[13.7804205,41.9312684],[13.7820315,41.9306311],[13.7840892,41.9303249],[13.7880429,41.9283423],[13.790092,41.9276433],[13.7934486,41.9254485],[13.7992135,41.9205218],[13.8004539,41.9188749],[13.8011317,41.9162777],[13.8030463,41.9144621],[13.8058928,41.9126591],[13.8074685,41.9100743],[13.813907,41.9075902],[13.8156063,41.9065498],[13.8209258,41.9030443],[13.8214369,41.9025503],[13.8218259,41.9019699],[13.8232162,41.9007243],[13.8240717,41.8995799],[13.824293,41.8990986],[13.8245884,41.8987155],[13.8241394,41.8980792],[13.8238482,41.8967617],[13.8237765,41.8958716],[13.8244823,41.8949368],[13.8246319,41.894262],[13.8249971,41.8933798],[13.8268832,41.8923139],[13.83034,41.8901624],[13.8324091,41.8882883],[13.8350414,41.8862725],[13.8354178,41.885366],[13.8376156,41.8837593],[13.837149,41.8816485],[13.8367828,41.880557],[13.8177963,41.8737197],[13.7963094,41.8820938],[13.7933298,41.8809761],[13.7895807,41.8791432],[13.7887012,41.8784687],[13.7775534,41.8879868],[13.7771323,41.8879548],[13.7713372,41.8859185],[13.7661098,41.884493],[13.765137,41.8843309],[13.755744,41.885788],[13.7544723,41.8861334],[13.7407621,41.8968931],[13.7398718,41.8992708],[13.7397006,41.8999891],[13.7364633,41.9260433],[13.7367014,41.9384308],[13.7369776,41.941494],[13.7373541,41.9438778],[13.7377261,41.9451319]]]},"properties":{"type":"boundary","gemeente":"Bisegna"}}]}