{"type":"FeatureCollection","metadata":{"gemeente":"Bitzi/Bitti","slug":"bitzi-bitti","generated_at":"2026-09-26T13:09:37.034985Z","total_points":9,"providers":["PosteItaliane","GLS","DHL","Amazon"],"bounds":[9.38091,40.47608363,9.382679,40.47821525]},"features":[{"type":"Feature","geometry":{"type":"Point","coordinates":[9.38267871,40.47756272]},"properties":{"type":"pakketpunt","locatieNaam":"Bitti","straatNaam":"Corso Vittorio Veneto","straatNr":"111","vervoerder":"PosteItaliane","puntType":"postkantoor","bezettingsgraad":50,"latitude":40.47756272,"longitude":9.38267871,"canPickup":true,"canDropoff":true,"openingstijden":{"za":"08:20 - 12:35","zo":"gesloten","ma":"08:20 - 13:35","di":"08:20 - 13:35","wo":"08:20 - 13:35","do":"08:20 - 13:35","vr":"08:20 - 13:35"}}},{"type":"Feature","geometry":{"type":"Point","coordinates":[9.38194527,40.47608363]},"properties":{"type":"pakketpunt","locatieNaam":"Tabaccheria N. 2","straatNaam":"Corso Vittorio Veneto","straatNr":"20","vervoerder":"PosteItaliane","puntType":"servicepunt","bezettingsgraad":50,"latitude":40.47608363,"longitude":9.38194527,"canPickup":true,"canDropoff":true,"openingstijden":{"za":"07:01 - 20:00","zo":"gesloten","ma":"07:01 - 20:00","di":"07:01 - 20:00","wo":"07:01 - 20:00","do":"07:01 - 20:00","vr":"07:01 - 20:00"}}},{"type":"Feature","geometry":{"type":"Point","coordinates":[9.38091948,40.47821525]},"properties":{"type":"pakketpunt","locatieNaam":"Tabaccheria N. 4","straatNaam":"Corso Vittorio Veneto","straatNr":"142","vervoerder":"PosteItaliane","puntType":"servicepunt","bezettingsgraad":50,"latitude":40.47821525,"longitude":9.38091948,"canPickup":true,"canDropoff":true,"openingstijden":{"za":"09:00 - 13:00, 16:30 - 20:00","zo":"gesloten","ma":"09:00 - 13:00, 16:30 - 20:00","di":"09:00 - 13:00, 16:30 - 20:00","wo":"09:00 - 13:00, 16:30 - 20:00","do":"09:00 - 13:00, 16:30 - 20:00","vr":"09:00 - 13:00, 16:30 - 20:00"}}},{"type":"Feature","geometry":{"type":"Point","coordinates":[9.3810501,40.4782148]},"properties":{"type":"pakketpunt","locatieNaam":"Tabaccheria Orunesu Giampiera","straatNaam":"Corso Vittorio Veneto","straatNr":"142","vervoerder":"GLS","puntType":"parcel_shop","bezettingsgraad":50,"latitude":40.4782148,"longitude":9.3810501,"canPickup":true,"canDropoff":true,"openingstijden":"za: 09:00 - 13:00, 17:00 - 20:30; ma: 09:00 - 13:00, 17:00 - 20:30"}},{"type":"Feature","geometry":{"type":"Point","coordinates":[9.380919,40.478215]},"properties":{"type":"pakketpunt","locatieNaam":"TABACCHERIA N. 4","straatNaam":"CORSO VITTORIO VENETO 142","straatNr":"","vervoerder":"DHL","puntType":"parcelShop","bezettingsgraad":50,"latitude":40.478215,"longitude":9.380919,"canPickup":true,"canDropoff":true,"openingstijden":{"ma":"09:00 - 13:00, 16:30 - 20:00","di":"09:00 - 13:00, 16:30 - 20:00","wo":"09:00 - 13:00, 16:30 - 20:00","do":"09:00 - 13:00, 16:30 - 20:00","vr":"09:00 - 13:00, 16:30 - 20:00","za":"09:00 - 13:00, 16:30 - 20:00","zo":"gesloten"}}},{"type":"Feature","geometry":{"type":"Point","coordinates":[9.381945,40.476084]},"properties":{"type":"pakketpunt","locatieNaam":"TABACCHERIA N. 2","straatNaam":"CORSO VITTORIO VENETO 20","straatNr":"","vervoerder":"DHL","puntType":"parcelShop","bezettingsgraad":50,"latitude":40.476084,"longitude":9.381945,"canPickup":true,"canDropoff":true,"openingstijden":{"ma":"07:01 - 20:00","di":"07:01 - 20:00","wo":"07:01 - 20:00","do":"07:01 - 20:00","vr":"07:01 - 20:00","za":"07:01 - 20:00","zo":"gesloten"}}},{"type":"Feature","geometry":{"type":"Point","coordinates":[9.382679,40.477563]},"properties":{"type":"pakketpunt","locatieNaam":"Ufficio Postale BITTI","straatNaam":"CORSO VITTORIO VENETO 111","straatNr":"","vervoerder":"DHL","puntType":"postOffice","bezettingsgraad":50,"latitude":40.477563,"longitude":9.382679,"canPickup":true,"canDropoff":true,"openingstijden":{"ma":"08:20 - 13:35","di":"08:20 - 13:35","wo":"08:20 - 13:35","do":"08:20 - 13:35","vr":"08:20 - 13:35","za":"08:20 - 12:35","zo":"gesloten"}}},{"type":"Feature","geometry":{"type":"Point","coordinates":[9.38267,40.4775]},"properties":{"type":"pakketpunt","locatieNaam":"Ufficio Postale BITTI","straatNaam":"CORSO VITTORIO VENETO 111","straatNr":"","vervoerder":"Amazon","puntType":"3p","bezettingsgraad":50,"latitude":40.4775,"longitude":9.38267,"canPickup":true,"canDropoff":false,"openingstijden":null}},{"type":"Feature","geometry":{"type":"Point","coordinates":[9.38091,40.4782]},"properties":{"type":"pakketpunt","locatieNaam":"PuntoPoste TABACCHERIA N. 4","straatNaam":"CORSO VITTORIO VENETO 142","straatNr":"","vervoerder":"Amazon","puntType":"3p","bezettingsgraad":50,"latitude":40.4782,"longitude":9.38091,"canPickup":true,"canDropoff":false,"openingstijden":null}},{"type":"Feature","geometry":{"type":"Polygon","coordinates":[[[9.2787338,40.5101537],[9.2792065,40.5131525],[9.2793984,40.5138818],[9.2806851,40.5167165],[9.2812404,40.519661],[9.2825471,40.5216128],[9.2827855,40.5221617],[9.2835204,40.5228716],[9.2841263,40.523762],[9.285074,40.5245345],[9.286134,40.5252026],[9.2864608,40.5258328],[9.2872779,40.5264029],[9.2885592,40.5278591],[9.2890331,40.5282543],[9.2896035,40.5290997],[9.2905768,40.5302864],[9.2931041,40.5331449],[9.2945854,40.5343843],[9.2961273,40.5359569],[9.2975496,40.5371605],[9.300698,40.538837],[9.3033126,40.5399292],[9.3080079,40.5415204],[9.3122767,40.5427702],[9.3128572,40.543183],[9.3134507,40.54383],[9.3136423,40.5444061],[9.3137156,40.5449194],[9.3136951,40.5455951],[9.3128284,40.547138],[9.3128183,40.5475164],[9.313057,40.5480563],[9.3139576,40.5487024],[9.3144073,40.5488994],[9.315235,40.5490954],[9.3173143,40.5492608],[9.3178455,40.5492053],[9.3194845,40.5486513],[9.3214551,40.5482944],[9.322601,40.5483723],[9.3241981,40.5489354],[9.3245763,40.5489884],[9.3271027,40.5488011],[9.3286654,40.5495714],[9.3293646,40.5500649],[9.3312463,40.5508343],[9.3350668,40.5519944],[9.3355877,40.5522452],[9.3391225,40.5552528],[9.3402608,40.5561323],[9.3410205,40.5568778],[9.3420309,40.5581361],[9.3428972,40.5589353],[9.3439047,40.559617],[9.3442275,40.5603637],[9.3445006,40.5606332],[9.344891,40.5607672],[9.3458598,40.5607913],[9.3464847,40.5605822],[9.3470042,40.5605356],[9.3493451,40.560943],[9.3498189,40.5611938],[9.3499272,40.5615628],[9.3494586,40.562321],[9.349462,40.5629786],[9.3500199,40.5634814],[9.3501973,40.5641036],[9.3508663,40.5649653],[9.3515181,40.5653597],[9.3519913,40.5654934],[9.3530071,40.5654633],[9.3541657,40.5656489],[9.3544855,40.5658101],[9.3548788,40.5664575],[9.3553651,40.5668434],[9.355933,40.5669948],[9.3569283,40.5675593],[9.357569,40.5680888],[9.3577955,40.5684665],[9.3581986,40.5687355],[9.3596063,40.5690915],[9.3633613,40.5687644],[9.3661981,40.5690528],[9.3680547,40.5693802],[9.3709909,40.5705509],[9.3722238,40.5713127],[9.3723916,40.5717446],[9.3722094,40.5729884],[9.3724012,40.5734743],[9.3731974,40.5743095],[9.3737126,40.5756051],[9.37413,40.5763064],[9.3743222,40.5768734],[9.3743598,40.5772516],[9.3739293,40.5784512],[9.3739222,40.579289],[9.3749336,40.580565],[9.3754843,40.5818515],[9.3761502,40.582606],[9.3770048,40.5832789],[9.3773127,40.583413],[9.3780933,40.5835456],[9.3784843,40.5837245],[9.3809232,40.5852609],[9.3815304,40.5853721],[9.3827348,40.585215],[9.3833735,40.58533],[9.3844725,40.5853353],[9.3848156,40.5854153],[9.3851004,40.5856125],[9.385799,40.5858624],[9.3864984,40.5862565],[9.386441,40.5865449],[9.3865035,40.5871303],[9.3867539,40.5875258],[9.3873717,40.5881093],[9.3877654,40.5887476],[9.3883831,40.5893041],[9.3903973,40.5902072],[9.390517,40.5904681],[9.3910516,40.5909617],[9.3917977,40.5912295],[9.3922467,40.5912189],[9.3935751,40.5920432],[9.3937426,40.592403],[9.3936625,40.5928447],[9.394178,40.5940862],[9.3940739,40.5944829],[9.3936739,40.5947906],[9.3931429,40.5949275],[9.3928958,40.5951175],[9.3923335,40.5959663],[9.3919108,40.5964271],[9.3918338,40.5974184],[9.3916506,40.598428],[9.3920216,40.5992105],[9.391906,40.5996523],[9.3918515,40.6004452],[9.3896214,40.6010834],[9.3894814,40.6014082],[9.3893787,40.6020301],[9.389121,40.6024454],[9.3891119,40.6029139],[9.3887587,40.6031403],[9.3878604,40.6031433],[9.3875894,40.6032974],[9.3871522,40.6033169],[9.3868434,40.6030476],[9.3862634,40.6029054],[9.3858929,40.604258],[9.3859087,40.6049426],[9.385958,40.6052938],[9.3862438,40.6056622],[9.3866344,40.60576],[9.3868373,40.6061016],[9.3869244,40.6068491],[9.386715,40.6074443],[9.3862319,40.6076982],[9.3849564,40.6078916],[9.3833477,40.6077078],[9.3826507,40.6077822],[9.3823562,40.6079453],[9.3820747,40.6083426],[9.3817845,40.6092625],[9.380853,40.609689],[9.3798615,40.6099355],[9.3796976,40.6102153],[9.3791567,40.6107306],[9.3791481,40.6112981],[9.3792803,40.6116761],[9.3798275,40.6122779],[9.379652,40.6126118],[9.3797253,40.6130169],[9.3800476,40.6135654],[9.3799437,40.6140072],[9.379685,40.6142603],[9.3792368,40.6144329],[9.3789779,40.6146409],[9.3787447,40.6152093],[9.3785617,40.6162999],[9.3789783,40.616812],[9.3793693,40.6169639],[9.3801975,40.6170783],[9.3814735,40.616948],[9.3819215,40.6167303],[9.3826866,40.6161332],[9.3846463,40.6156672],[9.387851,40.6158367],[9.3882887,40.6158893],[9.3891773,40.6162106],[9.3909917,40.6171864],[9.3922476,40.6176596],[9.3941764,40.6179683],[9.3950176,40.6182718],[9.3953741,40.6185768],[9.3955414,40.6188916],[9.395592,40.6194409],[9.3951809,40.6198928],[9.3948269,40.6200201],[9.3939502,40.6197078],[9.3933707,40.6196737],[9.3931836,40.6200167],[9.3933151,40.6202775],[9.3939933,40.6210049],[9.394292,40.6215354],[9.3947673,40.6219482],[9.3955087,40.623369],[9.3956771,40.6238549],[9.3968007,40.6239141],[9.3971194,40.6238229],[9.39884,40.6228801],[9.3991466,40.6227439],[9.3995129,40.6227156],[9.4007472,40.6235041],[9.400997,40.6237555],[9.4018987,40.6242749],[9.4025141,40.6243718],[9.4035063,40.6242062],[9.4040148,40.6242314],[9.4044413,40.6243741],[9.4053575,40.6253348],[9.4050278,40.6255522],[9.4046023,40.6255807],[9.404405,40.626194],[9.4040064,40.6267539],[9.4040315,40.6270061],[9.4048978,40.6275165],[9.4057492,40.6275316],[9.4066456,40.6271681],[9.4067771,40.6274018],[9.4068298,40.6283025],[9.4069875,40.6289506],[9.4072959,40.6291207],[9.4080394,40.6288838],[9.4090206,40.6288443],[9.4092709,40.6291677],[9.4089807,40.6300516],[9.409009,40.6308263],[9.4093914,40.6314735],[9.4099025,40.6319041],[9.4107958,40.632964],[9.4115539,40.6331775],[9.4129981,40.6334246],[9.41378,40.633665],[9.4157375,40.634685],[9.4165675,40.6350513],[9.4174442,40.6353094],[9.4175406,40.6356064],[9.417412,40.635832],[9.4171192,40.6362925],[9.4160041,40.6376299],[9.4157704,40.6380811],[9.4158804,40.6386573],[9.4161433,40.6391068],[9.4169165,40.6398247],[9.4173195,40.6399674],[9.4175453,40.6401557],[9.4176778,40.6405426],[9.4175851,40.6408493],[9.4173971,40.6410481],[9.4169961,40.6412207],[9.4157482,40.6421351],[9.4154202,40.6426408],[9.4153403,40.6431095],[9.4153897,40.6434517],[9.4155213,40.6436944],[9.4160315,40.6439539],[9.4165291,40.6440872],[9.4171202,40.644049],[9.4175818,40.6441194],[9.4177383,40.6445513],[9.4177044,40.6448126],[9.4172921,40.6450754],[9.4164537,40.6452856],[9.4162069,40.6455387],[9.4165554,40.6464294],[9.4167705,40.6467709],[9.4168688,40.6473741],[9.4167086,40.6482395],[9.4169584,40.6484548],[9.4178123,40.6488391],[9.418288,40.6492518],[9.4178511,40.6493705],[9.4176517,40.6496325],[9.4174557,40.650444],[9.4171527,40.6511748],[9.4172876,40.651949],[9.4179419,40.6525412],[9.4180509,40.6529552],[9.4179942,40.6533428],[9.4180557,40.653721],[9.4178799,40.6539828],[9.417561,40.6540561],[9.4171721,40.6542827],[9.4177026,40.6558933],[9.4179413,40.6562348],[9.4184401,40.6565573],[9.4196714,40.656724],[9.4200749,40.6569297],[9.420136,40.6572448],[9.4200198,40.6575875],[9.4200457,40.6579388],[9.4201776,40.6582266],[9.4205933,40.6584863],[9.4213398,40.6586818],[9.4222743,40.6586784],[9.4229128,40.65864],[9.423858,40.6584564],[9.4242947,40.6582926],[9.4245295,40.6580125],[9.4244569,40.6577605],[9.4241475,40.6574644],[9.423812,40.6567989],[9.4239496,40.6561048],[9.424256,40.6559325],[9.4248731,40.6562365],[9.4252297,40.6565145],[9.4253977,40.6568922],[9.4256302,40.6581075],[9.4260339,40.6583493],[9.426508,40.6584826],[9.4268631,40.6585264],[9.4275606,40.6584517],[9.4281033,40.6582335],[9.4285972,40.6577722],[9.4302606,40.6570724],[9.4322014,40.6571913],[9.4336552,40.6570146],[9.4347915,40.6571185],[9.4354312,40.6572602],[9.4368026,40.6589577],[9.4371598,40.6593076],[9.4375983,40.6594321],[9.4390393,40.6591023],[9.4394626,40.6587043],[9.4396968,40.6583431],[9.4401328,40.6580802],[9.4408736,40.6574107],[9.4419932,40.6567848],[9.4423476,40.6567114],[9.4429158,40.6567633],[9.4432954,40.656933],[9.4437363,40.6574178],[9.4441167,40.6576956],[9.4446136,40.6577117],[9.4450742,40.6576018],[9.4453331,40.6574026],[9.4454657,40.6559877],[9.4456837,40.6549689],[9.4462455,40.6540839],[9.4464924,40.6538487],[9.4469645,40.6536937],[9.4479505,40.6543295],[9.4484358,40.6543817],[9.4495343,40.6541432],[9.4520342,40.6532191],[9.4531117,40.6531563],[9.4537875,40.6533879],[9.4544763,40.6537996],[9.4549146,40.6538879],[9.4554336,40.6536787],[9.4564332,40.6528189],[9.4570574,40.6524291],[9.4576473,40.6522105],[9.4582153,40.6522443],[9.4584423,40.6525677],[9.4585465,40.6539726],[9.4587381,40.6543052],[9.4591766,40.6544386],[9.4596608,40.6543196],[9.4599664,40.6540301],[9.4618348,40.6539686],[9.4631806,40.6535758],[9.4636767,40.6534837],[9.4643511,40.653499],[9.4646838,40.6537229],[9.4648308,40.654443],[9.4648733,40.6554518],[9.4650573,40.655769],[9.465716,40.6558718],[9.4663067,40.6557613],[9.4666134,40.655634],[9.4669072,40.6553625],[9.4677468,40.6553231],[9.4686904,40.6547247],[9.4691916,40.6538758],[9.4690399,40.6524801],[9.4689667,40.6521741],[9.4687891,40.6519271],[9.4687828,40.651238],[9.4690814,40.651016],[9.4698748,40.6501074],[9.4701177,40.6499443],[9.4719835,40.649734],[9.4730755,40.6509097],[9.4732331,40.6516522],[9.4738324,40.6527668],[9.4743073,40.6530261],[9.4748745,40.6529427],[9.4755346,40.6526247],[9.4766166,40.6517464],[9.4768258,40.651232],[9.4765212,40.6501838],[9.4767183,40.6494172],[9.4790558,40.6488085],[9.4802591,40.6483621],[9.482912,40.6472159],[9.4839013,40.6466352],[9.4846099,40.6464881],[9.4855059,40.646097],[9.4860594,40.6457703],[9.4868074,40.6451501],[9.4874737,40.644886],[9.4889151,40.6448799],[9.4902523,40.6449779],[9.4906671,40.6451022],[9.4911609,40.645501],[9.4920771,40.6470601],[9.4921743,40.64742],[9.4921796,40.6481317],[9.4919392,40.6488264],[9.4919412,40.6490967],[9.4917752,40.6494397],[9.4917655,40.649728],[9.491949,40.6501506],[9.4924268,40.6505945],[9.493685,40.6507873],[9.4940672,40.6506911],[9.4957833,40.6508279],[9.496459,40.6510322],[9.4969847,40.6513407],[9.4973074,40.6513934],[9.4977697,40.6513283],[9.4985062,40.6513612],[9.4993463,40.6511999],[9.5003284,40.6512587],[9.5009731,40.6514586],[9.5020232,40.6515025],[9.5024669,40.6515197],[9.5028962,40.6514007],[9.5034637,40.6513712],[9.503925,40.6515674],[9.5050429,40.6523688],[9.505343,40.6527594],[9.505831,40.6531536],[9.5062467,40.653377],[9.5073243,40.6535344],[9.5079617,40.6533605],[9.5082205,40.6531791],[9.5087362,40.6525463],[9.5090069,40.6523739],[9.5092646,40.6520394],[9.5094386,40.6515882],[9.5102247,40.650756],[9.510503,40.6500251],[9.5114646,40.6489398],[9.5129062,40.6487622],[9.5134722,40.6485255],[9.5145301,40.6476739],[9.5156378,40.6471465],[9.5167823,40.646781],[9.5173344,40.6462921],[9.5174863,40.6460572],[9.5181565,40.6455407],[9.5186593,40.6447997],[9.518946,40.6436453],[9.5189188,40.643186],[9.5186994,40.6423492],[9.5186694,40.6415295],[9.518909,40.6403934],[9.519191,40.6401579],[9.5195809,40.6401111],[9.5207287,40.640196],[9.52125,40.6403198],[9.5216664,40.6406422],[9.5240365,40.6412531],[9.5247098,40.6411599],[9.5250043,40.6410054],[9.5257837,40.6408667],[9.5263378,40.640639],[9.5269967,40.6402126],[9.5273597,40.6397605],[9.5275793,40.6391109],[9.5275651,40.6388137],[9.5274078,40.6383549],[9.5267278,40.6376013],[9.5260279,40.6373252],[9.5250295,40.6366721],[9.5247787,40.636358],[9.5247375,40.6356375],[9.524628,40.6352416],[9.5242593,40.634973],[9.5234777,40.6348234],[9.5230165,40.6348255],[9.522402,40.6348733],[9.5218358,40.635056],[9.52083,40.6349705],[9.5204389,40.6348642],[9.5207533,40.6342321],[9.5217617,40.6331285],[9.5229387,40.6324295],[9.5249653,40.6315015],[9.5265068,40.632053],[9.5269503,40.6328077],[9.5274005,40.6329227],[9.5277309,40.6328311],[9.5283749,40.6320174],[9.5285348,40.631305],[9.5284124,40.630774],[9.527405,40.6289769],[9.5274132,40.6285174],[9.5276446,40.6278768],[9.5279748,40.6277672],[9.5284128,40.6278372],[9.5288376,40.6277272],[9.5288591,40.6274478],[9.5286082,40.6271246],[9.528144,40.6267304],[9.5271703,40.6262033],[9.5261469,40.6253702],[9.5244489,40.624441],[9.5237267,40.6243182],[9.5218,40.6243809],[9.521269,40.6245185],[9.5208103,40.6248268],[9.5199537,40.6256685],[9.519553,40.6258324],[9.5192343,40.6258969],[9.5182999,40.6258561],[9.5177893,40.6255701],[9.5171572,40.6248703],[9.5167377,40.6241334],[9.5166411,40.6238726],[9.5166739,40.6235211],[9.5168482,40.623133],[9.5174344,40.6224817],[9.5187442,40.6221515],[9.5194947,40.6213644],[9.5206263,40.6209179],[9.5209557,40.6207092],[9.5209054,40.6203311],[9.5202509,40.6197755],[9.5194926,40.6195627],[9.5163708,40.6194776],[9.5145323,40.618693],[9.5133709,40.6183198],[9.5131315,40.6179425],[9.5132596,40.6176897],[9.5139662,40.6173262],[9.5144469,40.6168106],[9.516362,40.616802],[9.5169331,40.6172769],[9.5174523,40.6171395],[9.5177929,40.6168587],[9.5180859,40.616524],[9.5182955,40.6145862],[9.5182893,40.6137755],[9.5178413,40.6124082],[9.5182475,40.6114334],[9.5196936,40.6104089],[9.5210745,40.6101324],[9.5222682,40.6085866],[9.522301,40.6082531],[9.5221911,40.6078031],[9.5214756,40.6069866],[9.5206909,40.6064046],[9.5196713,40.6060038],[9.5180377,40.6056868],[9.5174916,40.6053829],[9.5173244,40.6051585],[9.5171802,40.6048528],[9.5171663,40.6045826],[9.5173652,40.6043205],[9.5182947,40.6037668],[9.5184823,40.6035677],[9.5185868,40.603333],[9.5183134,40.6031271],[9.5168469,40.6030165],[9.5164078,40.6027843],[9.5161932,40.602542],[9.51573,40.6022558],[9.5150323,40.6022048],[9.5147854,40.6023771],[9.5146928,40.6026298],[9.514454,40.603856],[9.5137498,40.6045168],[9.512843,40.6049442],[9.5124063,40.6050362],[9.5118388,40.6050117],[9.5113645,40.6048156],[9.5098304,40.6035882],[9.5081124,40.6030373],[9.5076038,40.6029854],[9.5071316,40.6030686],[9.506188,40.603325],[9.5051746,40.6037438],[9.5046665,40.6037641],[9.5042982,40.6035044],[9.5042713,40.6030721],[9.5051871,40.6022573],[9.5053622,40.6019683],[9.5056825,40.6005525],[9.5059389,40.6000829],[9.5063845,40.5996125],[9.506536,40.5993236],[9.5065214,40.5989633],[9.5063652,40.5986217],[9.505852,40.5979573],[9.5052122,40.5977438],[9.5042432,40.5977571],[9.5029565,40.5979609],[9.5019988,40.59792],[9.5010383,40.5974918],[9.4999756,40.5976135],[9.4989116,40.597582],[9.4963486,40.5962057],[9.493117,40.5954989],[9.4916817,40.5947753],[9.491241,40.5942997],[9.4907863,40.5935359],[9.4899163,40.5925306],[9.489167,40.5918761],[9.4887396,40.5916167],[9.4878407,40.5915034],[9.4870499,40.5916419],[9.4856058,40.5913146],[9.4850624,40.5913439],[9.4849277,40.5906869],[9.4845601,40.5905172],[9.4828683,40.5902541],[9.4822868,40.5899141],[9.4819088,40.5899337],[9.4813001,40.5901165],[9.4813263,40.5894497],[9.4809238,40.5893523],[9.4805824,40.5895339],[9.4797217,40.5897987],[9.4791098,40.5901706],[9.478272,40.5903452],[9.4781993,40.5900843],[9.4793967,40.5889803],[9.4793121,40.5887103],[9.4782947,40.5885524],[9.4775951,40.588222],[9.4773136,40.5885114],[9.4769598,40.588612],[9.47671,40.5883878],[9.4765167,40.587785],[9.4761734,40.5876963],[9.47603,40.5874717],[9.4760747,40.5871112],[9.4758002,40.5867249],[9.4753844,40.5864113],[9.4734082,40.5860231],[9.4728652,40.5860974],[9.4721832,40.5865686],[9.4717108,40.5866066],[9.4703824,40.5863327],[9.4714277,40.5850042],[9.4715554,40.5846793],[9.4713056,40.5844461],[9.4706415,40.5841065],[9.470497,40.5837107],[9.4698694,40.5835241],[9.469421,40.583616],[9.4682623,40.5835126],[9.4678258,40.5836044],[9.4674237,40.583552],[9.4671026,40.583256],[9.4667604,40.5833295],[9.4664781,40.5835198],[9.4662873,40.5832593],[9.4658491,40.5831169],[9.4646704,40.5835451],[9.4639348,40.5831066],[9.4635089,40.5830273],[9.462493,40.5830674],[9.4617475,40.5829082],[9.4602869,40.58186],[9.4589132,40.581406],[9.4576354,40.5811588],[9.45703,40.5807468],[9.4559985,40.5802374],[9.4554546,40.5801675],[9.4542259,40.5801903],[9.451865,40.5805239],[9.4478618,40.5790891],[9.4444347,40.5790032],[9.4430625,40.5787472],[9.4421643,40.5787146],[9.4412324,40.5789434],[9.4410806,40.5792143],[9.4409776,40.5797282],[9.4379262,40.5792623],[9.4363542,40.5791872],[9.435217,40.578732],[9.4347653,40.5783193],[9.4305652,40.5774252],[9.4297953,40.5771307],[9.4284826,40.5769284],[9.4266392,40.5768992],[9.4256458,40.5767497],[9.4241506,40.5757102],[9.4215322,40.5745396],[9.4206686,40.5743716],[9.420137,40.5743735],[9.4189142,40.5739448],[9.4184636,40.5739652],[9.4165368,40.5729902],[9.4148331,40.5726],[9.4134715,40.5721184],[9.4122533,40.5718885],[9.4111548,40.5719375],[9.4101618,40.5718239],[9.4096764,40.5716634],[9.4092611,40.5713676],[9.4089609,40.5705669],[9.4089495,40.5687021],[9.4085562,40.5681269],[9.4084226,40.5675328],[9.4084317,40.5670914],[9.4086961,40.5658833],[9.4087723,40.5648109],[9.4086378,40.5640637],[9.4083519,40.5636773],[9.4073207,40.5630954],[9.4065259,40.5625396],[9.4063472,40.562288],[9.4064635,40.5619813],[9.4072618,40.5611767],[9.4073417,40.560717],[9.4073043,40.5603928],[9.4069574,40.5596733],[9.4066707,40.5591428],[9.4058371,40.5580196],[9.4055714,40.5570566],[9.4052258,40.5565443],[9.4052242,40.5562831],[9.4053755,40.5559042],[9.4059493,40.5550824],[9.406018,40.5547308],[9.4059337,40.5544608],[9.4056726,40.5542455],[9.4031964,40.5529659],[9.4028632,40.5525437],[9.4028141,40.5522466],[9.402975,40.5514893],[9.4028788,40.5512103],[9.4025932,40.550851],[9.4030601,40.5499304],[9.4042226,40.5488093],[9.4048348,40.5485008],[9.4054364,40.5483816],[9.4059666,40.5481725],[9.4061064,40.5478567],[9.4061047,40.5475775],[9.4059332,40.5465511],[9.4060023,40.5462535],[9.4064126,40.5457566],[9.4073555,40.545447],[9.4085193,40.544578],[9.4089313,40.5443604],[9.4093325,40.5442959],[9.4106557,40.5443993],[9.4120127,40.5442143],[9.4124605,40.5440595],[9.4130132,40.5436792],[9.4132002,40.5433722],[9.4131818,40.5423002],[9.4133894,40.5414797],[9.4134441,40.5407768],[9.4133243,40.540507],[9.4123889,40.5400959],[9.4121366,40.5393941],[9.4113062,40.5387664],[9.4110324,40.5383981],[9.4110068,40.5380828],[9.4111223,40.53765],[9.4118625,40.5370528],[9.4122945,40.5362495],[9.4126358,40.5360681],[9.4129207,40.5363193],[9.4135948,40.5364881],[9.4141855,40.53654],[9.4146448,40.5363311],[9.4151481,40.5356176],[9.415383,40.5354096],[9.4157247,40.5352912],[9.4174252,40.5353302],[9.4177682,40.535419],[9.4181705,40.5355617],[9.4187997,40.5360999],[9.4191071,40.5361709],[9.4199328,40.5360328],[9.4207059,40.535039],[9.4219298,40.5343859],[9.4220698,40.5341151],[9.421844,40.5338817],[9.4210747,40.5335872],[9.4210611,40.533299],[9.421307,40.5329738],[9.4220594,40.5324485],[9.4230022,40.5321748],[9.4226351,40.531996],[9.4220794,40.5318809],[9.4220537,40.5315386],[9.4226662,40.5313112],[9.4228058,40.5309773],[9.4222728,40.530718],[9.4214594,40.5309102],[9.4206904,40.5306697],[9.4202283,40.5304102],[9.4205333,40.5300937],[9.4214175,40.5298743],[9.4215671,40.5292612],[9.4213061,40.5290639],[9.4207393,40.529048],[9.4204662,40.5287967],[9.4203808,40.5283556],[9.4199901,40.5281858],[9.4191527,40.528324],[9.4188204,40.528055],[9.4183824,40.5278584],[9.4171876,40.5274843],[9.4172537,40.5267183],[9.4171209,40.5262413],[9.4172487,40.5259165],[9.4169755,40.5256382],[9.4163796,40.5247305],[9.415493,40.5245535],[9.4150517,40.5238254],[9.4147325,40.5237545],[9.4144122,40.5235034],[9.4144438,40.5228726],[9.4146523,40.5222322],[9.4143641,40.5214405],[9.4143007,40.520729],[9.4149123,40.5203665],[9.4160218,40.5203265],[9.4167906,40.5205759],[9.417214,40.5203222],[9.4173535,40.5199613],[9.4176586,40.5196719],[9.4179198,40.5199052],[9.4180279,40.5202021],[9.4186067,40.5202721],[9.4194087,40.520152],[9.4196794,40.5200159],[9.4199833,40.5195284],[9.4200521,40.5192038],[9.4203343,40.5190316],[9.4204379,40.5186078],[9.420318,40.5183019],[9.4194641,40.5176654],[9.4188208,40.5167308],[9.4185129,40.5165698],[9.4176035,40.516501],[9.4176011,40.5161136],[9.4179615,40.5152204],[9.4176981,40.5146178],[9.4178497,40.514329],[9.4187237,40.5144069],[9.4189705,40.5142348],[9.4190392,40.5138922],[9.4188484,40.5135866],[9.4180791,40.5132471],[9.4178057,40.5129417],[9.417968,40.5124637],[9.4205266,40.512013],[9.4213374,40.5114334],[9.4217028,40.51136],[9.4221757,40.5114664],[9.4224256,40.5117898],[9.4234058,40.5118763],[9.4234544,40.5102185],[9.423028,40.5099858],[9.4227547,40.5096896],[9.4228452,40.5090676],[9.4216737,40.5085854],[9.4213249,40.5075507],[9.4209347,40.507444],[9.4202481,40.5071041],[9.4195426,40.5056473],[9.4191852,40.505117],[9.4190873,40.5045588],[9.4192616,40.5041168],[9.4196615,40.5038901],[9.421501,40.5036221],[9.4223728,40.5033757],[9.4226902,40.5031854],[9.4242027,40.5016033],[9.4246263,40.5014035],[9.4256684,40.5000934],[9.4254665,40.4998959],[9.4250403,40.4996813],[9.424696,40.4993492],[9.4243291,40.4991794],[9.4235846,40.49902],[9.4228058,40.4990318],[9.4224276,40.4989521],[9.4222375,40.4987456],[9.422496,40.4985645],[9.4229914,40.4985267],[9.4232856,40.4983905],[9.4238725,40.4978838],[9.4240833,40.4976308],[9.4240541,40.496739],[9.424288,40.4964048],[9.4246179,40.4963225],[9.4250883,40.4960595],[9.4258627,40.495354],[9.4258007,40.4948858],[9.425633,40.49449],[9.4255924,40.4936703],[9.4252849,40.4935634],[9.4250117,40.4932761],[9.4246513,40.4922594],[9.4246731,40.491971],[9.4254406,40.4920583],[9.4261593,40.4918755],[9.4264991,40.4915048],[9.4269988,40.4902868],[9.4281376,40.4893817],[9.4285242,40.4889298],[9.4282744,40.4886244],[9.4276344,40.4881764],[9.4276561,40.48787],[9.4280329,40.4877515],[9.4283228,40.4869576],[9.4282242,40.4862913],[9.4276538,40.4856628],[9.4265181,40.4851805],[9.4256755,40.4844089],[9.4250955,40.4841227],[9.4247524,40.4839618],[9.4235118,40.4836871],[9.4228003,40.4831131],[9.4223958,40.4825831],[9.4222709,40.4814754],[9.4220062,40.4806566],[9.4215286,40.4797484],[9.4215859,40.4794869],[9.4239504,40.4783882],[9.4251488,40.477609],[9.4257585,40.4770032],[9.4248103,40.476304],[9.4237894,40.4753078],[9.4230917,40.47504],[9.4227951,40.4747709],[9.4226722,40.4739785],[9.4232316,40.4728864],[9.4232059,40.4725532],[9.4224627,40.4725469],[9.4213023,40.4718664],[9.4209241,40.4717507],[9.4193669,40.4717383],[9.4184591,40.4718227],[9.4186924,40.4714074],[9.4190866,40.4702979],[9.4184844,40.470201],[9.4184345,40.4697597],[9.4188442,40.4692537],[9.4195999,40.4693681],[9.4200468,40.4691503],[9.4201624,40.4687805],[9.4207113,40.4678956],[9.4210417,40.4660296],[9.4210144,40.4654351],[9.4200113,40.4653486],[9.4188505,40.4645781],[9.4184609,40.4645164],[9.4188809,40.4637762],[9.4188538,40.4631997],[9.4186108,40.4620564],[9.4187149,40.4617317],[9.419662,40.460395],[9.419743,40.4601514],[9.4197271,40.4594938],[9.4195709,40.4590259],[9.4192849,40.4585495],[9.419942,40.4580156],[9.4209757,40.4573452],[9.4212331,40.4570109],[9.4185107,40.4554262],[9.4177882,40.4549423],[9.4173967,40.4545564],[9.416414,40.4539473],[9.4161771,40.453768],[9.4160069,40.4529488],[9.4157814,40.4527153],[9.4146348,40.452278],[9.4142914,40.452054],[9.4141717,40.4517662],[9.4138865,40.4514158],[9.4130225,40.4509054],[9.4130886,40.4501484],[9.4125265,40.4488621],[9.4122882,40.4484576],[9.4116117,40.4477483],[9.4111506,40.4475607],[9.410706,40.4481299],[9.4103422,40.4484285],[9.4099539,40.448565],[9.4082925,40.4487871],[9.4021123,40.4506196],[9.401523,40.4506667],[9.4002359,40.4503828],[9.3989146,40.4503063],[9.3985014,40.4502267],[9.3975672,40.4497974],[9.3960516,40.4487396],[9.3955549,40.4485071],[9.3913416,40.4458818],[9.3908799,40.445568],[9.3903813,40.4450021],[9.3893161,40.444321],[9.3887487,40.4440707],[9.3875677,40.4437503],[9.3863411,40.4437094],[9.3843941,40.4434726],[9.3839807,40.4433389],[9.3834832,40.4429441],[9.3817599,40.4426525],[9.3814406,40.4424824],[9.3770944,40.4433435],[9.3760103,40.4434732],[9.3751044,40.4438545],[9.3736258,40.4451386],[9.3726732,40.4456011],[9.371778,40.4457842],[9.3713788,40.4460918],[9.3708025,40.4463639],[9.3643145,40.4481142],[9.3630531,40.4481993],[9.3611292,40.447872],[9.3600005,40.4485061],[9.3596956,40.4488224],[9.3591539,40.4489682],[9.3584223,40.4488804],[9.3558722,40.4483297],[9.3552106,40.4480885],[9.3535544,40.4470936],[9.3532604,40.4472386],[9.3528149,40.4477355],[9.3523326,40.4479622],[9.3504597,40.4483643],[9.349495,40.4488176],[9.3491082,40.4492603],[9.3486755,40.4499643],[9.3479709,40.450552],[9.3480096,40.4511915],[9.3475877,40.4516973],[9.3471287,40.4518788],[9.3467985,40.4518888],[9.3461628,40.4520979],[9.3451646,40.4529207],[9.3435051,40.4535923],[9.3429276,40.4536661],[9.342066,40.4535336],[9.3414742,40.4531029],[9.3399094,40.4515039],[9.3396468,40.450874],[9.338822,40.4510206],[9.3383295,40.4515716],[9.3379761,40.4516447],[9.3374806,40.4516191],[9.3365234,40.4512255],[9.3365575,40.4509641],[9.336898,40.4506749],[9.3370377,40.4503051],[9.3368002,40.4499815],[9.3366212,40.4495405],[9.3367021,40.449216],[9.3372892,40.4487188],[9.3370054,40.4485484],[9.3365807,40.4485316],[9.3357422,40.4482728],[9.3345752,40.4483663],[9.3335638,40.4489278],[9.3327743,40.4490382],[9.3324331,40.4492103],[9.3324699,40.4494895],[9.3339365,40.4503681],[9.3338911,40.4507196],[9.3335154,40.451063],[9.3328679,40.4512811],[9.3324455,40.4517238],[9.3321415,40.4522562],[9.3304305,40.4520539],[9.3304082,40.4523152],[9.3299378,40.4525958],[9.3294659,40.4525431],[9.3290519,40.4523011],[9.3282859,40.4524114],[9.327663,40.4528546],[9.32619,40.4530839],[9.3260826,40.452823],[9.3247239,40.4523133],[9.3231395,40.4514619],[9.3225374,40.4513194],[9.3218299,40.4513484],[9.3208881,40.4516934],[9.3199923,40.451786],[9.3179321,40.4525484],[9.317801,40.4522515],[9.317505,40.452],[9.3170175,40.4511635],[9.3166857,40.4508131],[9.3163312,40.4506609],[9.3158711,40.4506171],[9.3144564,40.4507291],[9.3135529,40.4517045],[9.3128829,40.4521838],[9.3122373,40.4528252],[9.3110967,40.453558],[9.3078881,40.455963],[9.3071943,40.4564063],[9.3061466,40.4568505],[9.2989494,40.4615179],[9.2978196,40.4620794],[9.2970085,40.4627031],[9.2951841,40.4635727],[9.2934429,40.4646131],[9.2929495,40.4650738],[9.2923492,40.4653727],[9.2919486,40.4654547],[9.2912424,40.4658259],[9.290973,40.466259],[9.2903508,40.4669453],[9.290305,40.4672787],[9.2904259,40.4679541],[9.2903101,40.4684499],[9.2900169,40.468856],[9.2896055,40.4691904],[9.2887803,40.4693095],[9.2874848,40.4698083],[9.2864291,40.4711983],[9.2859871,40.4726858],[9.2856012,40.4734886],[9.2852056,40.4747869],[9.2850323,40.4756431],[9.2845168,40.4765003],[9.2834704,40.4773317],[9.2829182,40.4778826],[9.2827075,40.4782885],[9.2826032,40.4787212],[9.2826522,40.4791715],[9.2833759,40.4801157],[9.2838648,40.4813487],[9.2840898,40.4815463],[9.2845031,40.4816354],[9.2848345,40.4818778],[9.2849064,40.4821479],[9.2848152,40.4828959],[9.2846173,40.483527],[9.2845004,40.4837976],[9.2839607,40.4845106],[9.283608,40.4847997],[9.2823003,40.4852714],[9.2823133,40.4855687],[9.2829117,40.4875672],[9.2828685,40.4885222],[9.2826032,40.4899823],[9.2825254,40.4911267],[9.2823259,40.4913884],[9.2819375,40.4916326],[9.2815145,40.4920571],[9.2803405,40.4934923],[9.279024,40.4947568],[9.2783789,40.4956862],[9.2780983,40.4963266],[9.2783135,40.4970107],[9.2781862,40.4976146],[9.2777633,40.4980931],[9.277174,40.4982657],[9.2773528,40.4986977],[9.2776847,40.4990482],[9.2778995,40.4996243],[9.277843,40.500228],[9.2770957,40.5021758],[9.2774642,40.5028235],[9.2775484,40.5032017],[9.2775159,40.5039225],[9.2765157,40.5046456],[9.2762457,40.5049886],[9.2761525,40.5052861],[9.2761429,40.5058266],[9.2762514,40.5063939],[9.2764892,40.5068168],[9.2769985,40.507248],[9.2774953,40.5074991],[9.2777914,40.5077596],[9.2779835,40.5085429],[9.2781854,40.5088578],[9.2787338,40.5101537]]]},"properties":{"type":"boundary","gemeente":"Bitzi/Bitti"}}]}