{"type":"FeatureCollection","metadata":{"gemeente":"Borgo San Lorenzo","slug":"borgo-san-lorenzo","generated_at":"2026-09-26T13:09:37.916394Z","total_points":43,"providers":["PosteItaliane","DPD","InPost","GLS","DHL","Amazon"],"bounds":[11.364766,43.94892,11.42858832,44.003498]},"features":[{"type":"Feature","geometry":{"type":"Point","coordinates":[11.38773839,43.95249782]},"properties":{"type":"pakketpunt","locatieNaam":"Tabaccheria N. 3","straatNaam":"Via Del Canto","straatNr":"2","vervoerder":"PosteItaliane","puntType":"servicepunt","bezettingsgraad":50,"latitude":43.95249782,"longitude":11.38773839,"canPickup":true,"canDropoff":true,"openingstijden":{"za":"07:30 - 13:00, 15:30 - 19:30","zo":"09:00 - 13:30","ma":"07:30 - 13:00, 15:30 - 19:30","di":"07:30 - 13:00, 15:30 - 19:30","wo":"07:30 - 13:00, 15:30 - 19:30","do":"07:30 - 13:00, 15:30 - 19:30","vr":"07:30 - 13:00, 15:30 - 19:30"}}},{"type":"Feature","geometry":{"type":"Point","coordinates":[11.39227486,43.99663735]},"properties":{"type":"pakketpunt","locatieNaam":"Luco Di Mugello","straatNaam":"Via Don Lorenzo Milani Snc","straatNr":"","vervoerder":"PosteItaliane","puntType":"postkantoor","bezettingsgraad":50,"latitude":43.99663735,"longitude":11.39227486,"canPickup":true,"canDropoff":true,"openingstijden":{"za":"08:20 - 12:45","zo":"gesloten","ma":"08:20 - 13:45","di":"08:20 - 13:45","wo":"08:20 - 13:45","do":"08:20 - 13:45","vr":"08:20 - 13:45"}}},{"type":"Feature","geometry":{"type":"Point","coordinates":[11.40569699,43.98349918]},"properties":{"type":"pakketpunt","locatieNaam":"Panicaglia","straatNaam":"Via Del Cantone","straatNr":"17","vervoerder":"PosteItaliane","puntType":"postkantoor","bezettingsgraad":50,"latitude":43.98349918,"longitude":11.40569699,"canPickup":true,"canDropoff":true,"openingstijden":{"za":"08:20 - 12:45","zo":"gesloten","ma":"08:20 - 13:45","di":"gesloten","wo":"08:20 - 13:45","do":"08:20 - 13:45","vr":"08:20 - 13:45"}}},{"type":"Feature","geometry":{"type":"Point","coordinates":[11.38321419,43.95291881]},"properties":{"type":"pakketpunt","locatieNaam":"Borgo San Lorenzo","straatNaam":"Via Sacco E Vanzetti Snc","straatNr":"","vervoerder":"PosteItaliane","puntType":"postkantoor","bezettingsgraad":50,"latitude":43.95291881,"longitude":11.38321419,"canPickup":true,"canDropoff":true,"openingstijden":{"za":"08:20 - 12:35","zo":"gesloten","ma":"08:20 - 19:05","di":"08:20 - 19:05","wo":"08:20 - 19:05","do":"08:20 - 19:05","vr":"08:20 - 19:05"}}},{"type":"Feature","geometry":{"type":"Point","coordinates":[11.42858832,44.00349768]},"properties":{"type":"pakketpunt","locatieNaam":"Ronta","straatNaam":"Via Faentina Ronta","straatNr":"50","vervoerder":"PosteItaliane","puntType":"postkantoor","bezettingsgraad":50,"latitude":44.00349768,"longitude":11.42858832,"canPickup":true,"canDropoff":true,"openingstijden":{"za":"08:20 - 12:45","zo":"gesloten","ma":"08:20 - 13:45","di":"08:20 - 13:45","wo":"08:20 - 13:45","do":"08:20 - 13:45","vr":"08:20 - 13:45"}}},{"type":"Feature","geometry":{"type":"Point","coordinates":[11.3883303,43.95406672]},"properties":{"type":"pakketpunt","locatieNaam":"Tabaccheria N. 2","straatNaam":"Piazza Camillo Cavour","straatNr":"2","vervoerder":"PosteItaliane","puntType":"servicepunt","bezettingsgraad":50,"latitude":43.95406672,"longitude":11.3883303,"canPickup":true,"canDropoff":true,"openingstijden":{"za":"08:00 - 13:00, 15:00 - 19:30","zo":"gesloten","ma":"08:00 - 13:00, 15:00 - 19:30","di":"08:00 - 13:00, 15:00 - 19:30","wo":"08:00 - 13:00, 15:00 - 19:30","do":"08:00 - 13:00, 15:00 - 19:30","vr":"08:00 - 13:00, 15:00 - 19:30"}}},{"type":"Feature","geometry":{"type":"Point","coordinates":[11.38448136,43.95788421]},"properties":{"type":"pakketpunt","locatieNaam":"Tabaccheria N. 11","straatNaam":"Viale Della Resistenza","straatNr":"3","vervoerder":"PosteItaliane","puntType":"servicepunt","bezettingsgraad":50,"latitude":43.95788421,"longitude":11.38448136,"canPickup":true,"canDropoff":true,"openingstijden":{"za":"08:00 - 13:00, 15:30 - 19:30","zo":"gesloten","ma":"07:30 - 13:00, 15:30 - 19:30","di":"07:30 - 13:00, 15:30 - 19:30","wo":"07:30 - 13:00, 15:30 - 19:30","do":"07:30 - 13:00, 15:30 - 19:30","vr":"07:30 - 13:00, 15:30 - 19:30"}}},{"type":"Feature","geometry":{"type":"Point","coordinates":[11.38785496,43.95392346]},"properties":{"type":"pakketpunt","locatieNaam":"Tabaccheria N. 1","straatNaam":"Corso Giacomo Matteotti","straatNr":"86","vervoerder":"PosteItaliane","puntType":"servicepunt","bezettingsgraad":50,"latitude":43.95392346,"longitude":11.38785496,"canPickup":true,"canDropoff":true,"openingstijden":{"za":"09:00 - 12:30, 16:00 - 19:00","zo":"gesloten","ma":"09:00 - 12:30, 16:00 - 19:00","di":"09:00 - 12:30, 16:00 - 19:00","wo":"09:00 - 12:30, 16:00 - 19:00","do":"09:00 - 12:30, 16:00 - 19:00","vr":"09:00 - 12:30, 16:00 - 19:00"}}},{"type":"Feature","geometry":{"type":"Point","coordinates":[11.39091187,43.95615505]},"properties":{"type":"pakketpunt","locatieNaam":"Non Solo 3","straatNaam":"Viale Quattro Novembre","straatNr":"48","vervoerder":"PosteItaliane","puntType":"servicepunt","bezettingsgraad":50,"latitude":43.95615505,"longitude":11.39091187,"canPickup":true,"canDropoff":true,"openingstijden":{"za":"10:00 - 13:00, 16:00 - 19:00","zo":"gesloten","ma":"16:00 - 19:00","di":"10:00 - 13:00, 16:00 - 19:00","wo":"10:00 - 13:00, 16:00 - 19:00","do":"10:00 - 13:00, 16:00 - 19:00","vr":"10:00 - 13:00, 16:00 - 19:00"}}},{"type":"Feature","geometry":{"type":"Point","coordinates":[11.36766981,43.9584324]},"properties":{"type":"pakketpunt","locatieNaam":"Stazione Di Servizio Eni","straatNaam":"Viale Giovanni Xxiii","straatNr":"40","vervoerder":"PosteItaliane","puntType":"automaat","bezettingsgraad":50,"latitude":43.9584324,"longitude":11.36766981,"canPickup":true,"canDropoff":true,"openingstijden":{"za":"00:01 - 23:59","zo":"00:01 - 23:59","ma":"00:01 - 23:59","di":"00:01 - 23:59","wo":"00:01 - 23:59","do":"00:01 - 23:59","vr":"00:01 - 23:59"}}},{"type":"Feature","geometry":{"type":"Point","coordinates":[11.3907836,43.9561178]},"properties":{"type":"pakketpunt","locatieNaam":"Non Solo 3","straatNaam":"V.LE IV NOVEMBRE","straatNr":"48","vervoerder":"DPD","puntType":"pickup_point","bezettingsgraad":50,"latitude":43.9561178,"longitude":11.3907836,"canPickup":true,"canDropoff":true,"openingstijden":{"ma":"16:00 - 19:00","di":"10:00 - 13:00, 16:00 - 19:00","wo":"10:00 - 13:00, 16:00 - 19:00","do":"10:00 - 13:00, 16:00 - 19:00","vr":"10:00 - 13:00, 16:00 - 19:00","za":"10:00 - 13:00, 16:00 - 19:00","zo":"gesloten"}}},{"type":"Feature","geometry":{"type":"Point","coordinates":[11.3880326,43.95451604]},"properties":{"type":"pakketpunt","locatieNaam":"Nkd-Borgo San Lorenzo","straatNaam":"VIA GIOVANNI DELLA CASA","straatNr":"12","vervoerder":"DPD","puntType":"pickup_point","bezettingsgraad":50,"latitude":43.95451604,"longitude":11.3880326,"canPickup":true,"canDropoff":true,"openingstijden":{"ma":"09:00 - 13:00, 15:30 - 19:30","di":"09:00 - 13:00, 15:30 - 19:30","wo":"09:00 - 13:00, 15:30 - 19:30","do":"09:00 - 13:00, 15:30 - 19:30","vr":"09:00 - 13:00, 15:30 - 19:30","za":"09:00 - 13:00, 15:30 - 19:30","zo":"gesloten"}}},{"type":"Feature","geometry":{"type":"Point","coordinates":[11.3877313,43.9524907]},"properties":{"type":"pakketpunt","locatieNaam":"Tabacchi 92 di Cantini","straatNaam":"VIA DEL CANTO","straatNr":"2","vervoerder":"DPD","puntType":"pickup_point","bezettingsgraad":50,"latitude":43.9524907,"longitude":11.3877313,"canPickup":true,"canDropoff":true,"openingstijden":{"ma":"07:30 - 12:45, 15:00 - 19:00","di":"07:30 - 12:45, 15:00 - 19:00","wo":"07:30 - 12:45, 15:00 - 19:00","do":"07:30 - 12:45, 15:00 - 19:00","vr":"07:30 - 12:45, 15:00 - 19:00","za":"07:30 - 12:45, 15:00 - 19:00","zo":"gesloten"}}},{"type":"Feature","geometry":{"type":"Point","coordinates":[11.40011,43.94892]},"properties":{"type":"pakketpunt","locatieNaam":"InPost Locker 24/7","straatNaam":"Via Caiani","straatNr":"60","vervoerder":"InPost","puntType":"automaat","bezettingsgraad":50,"latitude":43.94892,"longitude":11.40011,"canPickup":true,"canDropoff":true,"openingstijden":null}},{"type":"Feature","geometry":{"type":"Point","coordinates":[11.38378,43.95802]},"properties":{"type":"pakketpunt","locatieNaam":"InPost Point","straatNaam":"Viale della Resistenza","straatNr":"3","vervoerder":"InPost","puntType":"servicepunt","bezettingsgraad":50,"latitude":43.95802,"longitude":11.38378,"canPickup":true,"canDropoff":true,"openingstijden":"Lun-Ven: 07:30 - 13:00 - 15:30 - 19:30 Sab: 08:00 - 13:00 - 15:30 - 19:30"}},{"type":"Feature","geometry":{"type":"Point","coordinates":[11.39099,43.95333]},"properties":{"type":"pakketpunt","locatieNaam":"InPost Point","straatNaam":"Via Leonardo Da Vinci, 28/32, 50032 Borgo San Lorenzo, FI, Italy","straatNr":"28","vervoerder":"InPost","puntType":"servicepunt","bezettingsgraad":50,"latitude":43.95333,"longitude":11.39099,"canPickup":true,"canDropoff":true,"openingstijden":"Lun-Ven 08:00-12:30, 14:00-17:30"}},{"type":"Feature","geometry":{"type":"Point","coordinates":[11.3878306,43.9524707]},"properties":{"type":"pakketpunt","locatieNaam":"tabacchi 92","straatNaam":"Via Del Canto","straatNr":"6","vervoerder":"GLS","puntType":"parcel_shop","bezettingsgraad":50,"latitude":43.9524707,"longitude":11.3878306,"canPickup":true,"canDropoff":true,"openingstijden":"za: 07:30 - 13:00, 15:30 - 19:30; zo: 09:00 - 12:30"}},{"type":"Feature","geometry":{"type":"Point","coordinates":[11.3907836,43.9561178]},"properties":{"type":"pakketpunt","locatieNaam":"Negozio Non Solo 3","straatNaam":"Viale Iv Novembre","straatNr":"48","vervoerder":"GLS","puntType":"parcel_shop","bezettingsgraad":50,"latitude":43.9561178,"longitude":11.3907836,"canPickup":true,"canDropoff":true,"openingstijden":"za: 10:00 - 13:00, 16:00 - 20:00; ma: 16:00 - 19:00"}},{"type":"Feature","geometry":{"type":"Point","coordinates":[11.36767,43.958432]},"properties":{"type":"pakketpunt","locatieNaam":"STAZIONE DI SERVIZIO ENI","straatNaam":"VIALE GIOVANNI XXIII 40","straatNr":"","vervoerder":"DHL","puntType":"packStation","bezettingsgraad":50,"latitude":43.958432,"longitude":11.36767,"canPickup":true,"canDropoff":true,"openingstijden":{"ma":"00:01 - 23:59","di":"00:01 - 23:59","wo":"00:01 - 23:59","do":"00:01 - 23:59","vr":"00:01 - 23:59","za":"00:01 - 23:59","zo":"00:01 - 23:59"}}},{"type":"Feature","geometry":{"type":"Point","coordinates":[11.383214,43.952919]},"properties":{"type":"pakketpunt","locatieNaam":"Ufficio Postale BORGO SAN LORENZO","straatNaam":"VIA SACCO E VANZETTI SNC","straatNr":"","vervoerder":"DHL","puntType":"postOffice","bezettingsgraad":50,"latitude":43.952919,"longitude":11.383214,"canPickup":true,"canDropoff":true,"openingstijden":{"ma":"08:20 - 19:05","di":"08:20 - 19:05","wo":"08:20 - 19:05","do":"08:20 - 19:05","vr":"08:20 - 19:05","za":"08:20 - 12:35","zo":"gesloten"}}},{"type":"Feature","geometry":{"type":"Point","coordinates":[11.383487,43.954552]},"properties":{"type":"pakketpunt","locatieNaam":"MUGEL TRAVEL - PROMO VACANZE","straatNaam":"Sacco e Vanzetti, 6","straatNr":"","vervoerder":"DHL","puntType":"parcelShop","bezettingsgraad":50,"latitude":43.954552,"longitude":11.383487,"canPickup":false,"canDropoff":true,"openingstijden":{"ma":"09:00 - 19:00","di":"09:00 - 19:00","wo":"09:00 - 19:00","do":"09:00 - 19:00","vr":"09:00 - 19:00","za":"gesloten","zo":"gesloten"}}},{"type":"Feature","geometry":{"type":"Point","coordinates":[11.384481,43.957884]},"properties":{"type":"pakketpunt","locatieNaam":"TABACCHERIA n. 11","straatNaam":"VIALE DELLA RESISTENZA 3","straatNr":"","vervoerder":"DHL","puntType":"parcelShop","bezettingsgraad":50,"latitude":43.957884,"longitude":11.384481,"canPickup":true,"canDropoff":true,"openingstijden":{"ma":"07:30 - 13:00, 15:30 - 19:30","di":"07:30 - 13:00, 15:30 - 19:30","wo":"07:30 - 13:00, 15:30 - 19:30","do":"07:30 - 13:00, 15:30 - 19:30","vr":"07:30 - 13:00, 15:30 - 19:30","za":"08:00 - 13:00, 15:30 - 19:30","zo":"gesloten"}}},{"type":"Feature","geometry":{"type":"Point","coordinates":[11.387738,43.952498]},"properties":{"type":"pakketpunt","locatieNaam":"TABACCHERIA N. 3","straatNaam":"VIA DEL CANTO 2","straatNr":"","vervoerder":"DHL","puntType":"parcelShop","bezettingsgraad":50,"latitude":43.952498,"longitude":11.387738,"canPickup":true,"canDropoff":true,"openingstijden":{"ma":"07:30 - 13:00, 15:30 - 19:30","di":"07:30 - 13:00, 15:30 - 19:30","wo":"07:30 - 13:00, 15:30 - 19:30","do":"07:30 - 13:00, 15:30 - 19:30","vr":"07:30 - 13:00, 15:30 - 19:30","za":"07:30 - 13:00, 15:30 - 19:30","zo":"09:00 - 13:30"}}},{"type":"Feature","geometry":{"type":"Point","coordinates":[11.387855,43.953923]},"properties":{"type":"pakketpunt","locatieNaam":"TABACCHERIA N. 1","straatNaam":"CORSO GIACOMO MATTEOTTI 86","straatNr":"","vervoerder":"DHL","puntType":"parcelShop","bezettingsgraad":50,"latitude":43.953923,"longitude":11.387855,"canPickup":true,"canDropoff":true,"openingstijden":{"ma":"09:00 - 12:30, 16:00 - 19:00","di":"09:00 - 12:30, 16:00 - 19:00","wo":"09:00 - 12:30, 16:00 - 19:00","do":"09:00 - 12:30, 16:00 - 19:00","vr":"09:00 - 12:30, 16:00 - 19:00","za":"09:00 - 12:30, 16:00 - 19:00","zo":"gesloten"}}},{"type":"Feature","geometry":{"type":"Point","coordinates":[11.38833,43.954067]},"properties":{"type":"pakketpunt","locatieNaam":"TABACCHERIA N. 2","straatNaam":"PIAZZA CAMILLO CAVOUR 2","straatNr":"","vervoerder":"DHL","puntType":"parcelShop","bezettingsgraad":50,"latitude":43.954067,"longitude":11.38833,"canPickup":true,"canDropoff":true,"openingstijden":{"ma":"08:00 - 13:00, 15:00 - 19:30","di":"08:00 - 13:00, 15:00 - 19:30","wo":"08:00 - 13:00, 15:00 - 19:30","do":"08:00 - 13:00, 15:00 - 19:30","vr":"08:00 - 13:00, 15:00 - 19:30","za":"08:00 - 13:00, 15:00 - 19:30","zo":"gesloten"}}},{"type":"Feature","geometry":{"type":"Point","coordinates":[11.390912,43.956155]},"properties":{"type":"pakketpunt","locatieNaam":"NON SOLO 3","straatNaam":"VIALE QUATTRO NOVEMBRE 48","straatNr":"","vervoerder":"DHL","puntType":"parcelShop","bezettingsgraad":50,"latitude":43.956155,"longitude":11.390912,"canPickup":true,"canDropoff":true,"openingstijden":{"ma":"16:00 - 19:00","di":"10:00 - 13:00, 16:00 - 19:00","wo":"10:00 - 13:00, 16:00 - 19:00","do":"10:00 - 13:00, 16:00 - 19:00","vr":"10:00 - 13:00, 16:00 - 19:00","za":"10:00 - 13:00, 16:00 - 19:00","zo":"gesloten"}}},{"type":"Feature","geometry":{"type":"Point","coordinates":[11.390827,43.95614]},"properties":{"type":"pakketpunt","locatieNaam":"FIORENZA SERVIZI","straatNaam":"Viale Iv Novembre 48","straatNr":"","vervoerder":"DHL","puntType":"parcelShop","bezettingsgraad":50,"latitude":43.95614,"longitude":11.390827,"canPickup":false,"canDropoff":true,"openingstijden":{"ma":"16:00 - 19:00","di":"10:00 - 19:00","wo":"10:00 - 19:00","do":"10:00 - 19:00","vr":"10:00 - 19:00","za":"10:00 - 19:00","zo":"gesloten"}}},{"type":"Feature","geometry":{"type":"Point","coordinates":[11.405697,43.983499]},"properties":{"type":"pakketpunt","locatieNaam":"Ufficio Postale PANICAGLIA","straatNaam":"VIA DEL CANTONE 17","straatNr":"","vervoerder":"DHL","puntType":"postOffice","bezettingsgraad":50,"latitude":43.983499,"longitude":11.405697,"canPickup":true,"canDropoff":true,"openingstijden":{"ma":"08:20 - 13:45","di":"gesloten","wo":"08:20 - 13:45","do":"08:20 - 13:45","vr":"08:20 - 13:45","za":"08:20 - 12:45","zo":"gesloten"}}},{"type":"Feature","geometry":{"type":"Point","coordinates":[11.392275,43.996637]},"properties":{"type":"pakketpunt","locatieNaam":"Ufficio Postale LUCO DI MUGELLO","straatNaam":"VIA DON LORENZO MILANI SNC","straatNr":"","vervoerder":"DHL","puntType":"postOffice","bezettingsgraad":50,"latitude":43.996637,"longitude":11.392275,"canPickup":true,"canDropoff":true,"openingstijden":{"ma":"08:20 - 13:45","di":"08:20 - 13:45","wo":"08:20 - 13:45","do":"08:20 - 13:45","vr":"08:20 - 13:45","za":"08:20 - 12:45","zo":"gesloten"}}},{"type":"Feature","geometry":{"type":"Point","coordinates":[11.428588,44.003498]},"properties":{"type":"pakketpunt","locatieNaam":"Ufficio Postale RONTA","straatNaam":"VIA FAENTINA 50","straatNr":"","vervoerder":"DHL","puntType":"postOffice","bezettingsgraad":50,"latitude":44.003498,"longitude":11.428588,"canPickup":true,"canDropoff":true,"openingstijden":{"ma":"08:20 - 13:45","di":"08:20 - 13:45","wo":"08:20 - 13:45","do":"08:20 - 13:45","vr":"08:20 - 13:45","za":"08:20 - 12:45","zo":"gesloten"}}},{"type":"Feature","geometry":{"type":"Point","coordinates":[11.389255,43.953979]},"properties":{"type":"pakketpunt","locatieNaam":"Amazon Locker - evo","straatNaam":"PAM Borgo San Lorenzo","straatNr":"","vervoerder":"Amazon","puntType":"locker","bezettingsgraad":50,"latitude":43.953979,"longitude":11.389255,"canPickup":true,"canDropoff":false,"openingstijden":null}},{"type":"Feature","geometry":{"type":"Point","coordinates":[11.38883,43.95445]},"properties":{"type":"pakketpunt","locatieNaam":"Amazon Counter - PRIMAEDICOLA","straatNaam":"ANTICA EDICOLA DI FABIO RONTIN","straatNr":"","vervoerder":"Amazon","puntType":"helix","bezettingsgraad":50,"latitude":43.95445,"longitude":11.38883,"canPickup":true,"canDropoff":false,"openingstijden":null}},{"type":"Feature","geometry":{"type":"Point","coordinates":[11.3909,43.9561]},"properties":{"type":"pakketpunt","locatieNaam":"PuntoPoste NON SOLO 3","straatNaam":"VIALE QUATTRO NOVEMBRE 48","straatNr":"","vervoerder":"Amazon","puntType":"3p","bezettingsgraad":50,"latitude":43.9561,"longitude":11.3909,"canPickup":true,"canDropoff":false,"openingstijden":null}},{"type":"Feature","geometry":{"type":"Point","coordinates":[11.3878,43.9539]},"properties":{"type":"pakketpunt","locatieNaam":"PuntoPoste TABACCHERIA N. 1","straatNaam":"CORSO GIACOMO MATTEOTTI 86","straatNr":"","vervoerder":"Amazon","puntType":"3p","bezettingsgraad":50,"latitude":43.9539,"longitude":11.3878,"canPickup":true,"canDropoff":false,"openingstijden":null}},{"type":"Feature","geometry":{"type":"Point","coordinates":[11.3883,43.954]},"properties":{"type":"pakketpunt","locatieNaam":"PuntoPoste TABACCHERIA N. 2","straatNaam":"PIAZZA CAMILLO CAVOUR 2","straatNr":"","vervoerder":"Amazon","puntType":"3p","bezettingsgraad":50,"latitude":43.954,"longitude":11.3883,"canPickup":true,"canDropoff":false,"openingstijden":null}},{"type":"Feature","geometry":{"type":"Point","coordinates":[11.3877,43.9524]},"properties":{"type":"pakketpunt","locatieNaam":"PuntoPoste TABACCHERIA N. 3","straatNaam":"VIA DEL CANTO 2","straatNr":"","vervoerder":"Amazon","puntType":"3p","bezettingsgraad":50,"latitude":43.9524,"longitude":11.3877,"canPickup":true,"canDropoff":false,"openingstijden":null}},{"type":"Feature","geometry":{"type":"Point","coordinates":[11.364766,43.959167]},"properties":{"type":"pakketpunt","locatieNaam":"Amazon Locker - mirto","straatNaam":"Stazione Tamoil - PV 3905","straatNr":"","vervoerder":"Amazon","puntType":"locker","bezettingsgraad":50,"latitude":43.959167,"longitude":11.364766,"canPickup":true,"canDropoff":false,"openingstijden":null}},{"type":"Feature","geometry":{"type":"Point","coordinates":[11.37421,43.9571017]},"properties":{"type":"pakketpunt","locatieNaam":"Amazon Locker - ortenzio","straatNaam":"ENI Station pv.14735","straatNr":"","vervoerder":"Amazon","puntType":"locker","bezettingsgraad":50,"latitude":43.9571017,"longitude":11.37421,"canPickup":true,"canDropoff":false,"openingstijden":null}},{"type":"Feature","geometry":{"type":"Point","coordinates":[11.3922,43.9966]},"properties":{"type":"pakketpunt","locatieNaam":"Ufficio Postale LUCO DI MUGELLO","straatNaam":"VIA DON LORENZO MILANI SNC","straatNr":"","vervoerder":"Amazon","puntType":"3p","bezettingsgraad":50,"latitude":43.9966,"longitude":11.3922,"canPickup":true,"canDropoff":false,"openingstijden":null}},{"type":"Feature","geometry":{"type":"Point","coordinates":[11.37621,43.957555]},"properties":{"type":"pakketpunt","locatieNaam":"Amazon Counter - PRIMAEDICOLA","straatNaam":"L'EDICOLA DI CORRENTE SALVATOR","straatNr":"","vervoerder":"Amazon","puntType":"helix","bezettingsgraad":50,"latitude":43.957555,"longitude":11.37621,"canPickup":true,"canDropoff":false,"openingstijden":null}},{"type":"Feature","geometry":{"type":"Point","coordinates":[11.3832,43.9529]},"properties":{"type":"pakketpunt","locatieNaam":"Ufficio Postale BORGO SAN LORENZO","straatNaam":"VIA SACCO E VANZETTI SNC","straatNr":"","vervoerder":"Amazon","puntType":"3p","bezettingsgraad":50,"latitude":43.9529,"longitude":11.3832,"canPickup":true,"canDropoff":false,"openingstijden":null}},{"type":"Feature","geometry":{"type":"Point","coordinates":[11.4056,43.9834]},"properties":{"type":"pakketpunt","locatieNaam":"Ufficio Postale PANICAGLIA","straatNaam":"VIA DEL CANTONE 17","straatNr":"","vervoerder":"Amazon","puntType":"3p","bezettingsgraad":50,"latitude":43.9834,"longitude":11.4056,"canPickup":true,"canDropoff":false,"openingstijden":null}},{"type":"Feature","geometry":{"type":"Point","coordinates":[11.4285,44.0034]},"properties":{"type":"pakketpunt","locatieNaam":"Ufficio Postale RONTA","straatNaam":"VIA FAENTINA 50","straatNr":"","vervoerder":"Amazon","puntType":"3p","bezettingsgraad":50,"latitude":44.0034,"longitude":11.4285,"canPickup":true,"canDropoff":false,"openingstijden":null}},{"type":"Feature","geometry":{"type":"Polygon","coordinates":[[[11.3100924,43.9201029],[11.3106887,43.9230005],[11.3103886,43.9239256],[11.3104579,43.9254477],[11.3110099,43.9271675],[11.3107679,43.9274842],[11.3102909,43.9277023],[11.3100469,43.927921],[11.3089816,43.9282788],[11.3086127,43.9285031],[11.3083948,43.9287484],[11.3083808,43.9289906],[11.3081187,43.9292321],[11.3073652,43.9296691],[11.3068627,43.930221],[11.3078867,43.9302935],[11.3096266,43.9309079],[11.3100945,43.9307755],[11.3109658,43.9301492],[11.3112272,43.9300405],[11.3144206,43.9303937],[11.3173205,43.933212],[11.3178603,43.9339566],[11.3182299,43.9346486],[11.3185354,43.934959],[11.3188425,43.9351994],[11.3192328,43.9353617],[11.320163,43.9354561],[11.3204491,43.9358892],[11.3206883,43.9365037],[11.3208321,43.9371547],[11.3211186,43.9376246],[11.321922,43.9385433],[11.3226165,43.9389954],[11.323035,43.9395035],[11.3230627,43.9397076],[11.3228214,43.9405712],[11.3230309,43.9412144],[11.323351,43.9415813],[11.3250703,43.9427287],[11.3257885,43.9433678],[11.3271292,43.9439246],[11.3280655,43.944419],[11.3287558,43.9445901],[11.3298349,43.945147],[11.3319028,43.9459093],[11.332555,43.9462887],[11.3329885,43.9469336],[11.3335414,43.9474436],[11.3336745,43.9476703],[11.3336512,43.9482257],[11.3340627,43.9488482],[11.3358833,43.9493128],[11.3364888,43.9496219],[11.3371287,43.9495629],[11.3376862,43.9497286],[11.3378691,43.9496856],[11.3397497,43.9505962],[11.3408698,43.9510386],[11.3410652,43.9511849],[11.3411458,43.9515199],[11.3418471,43.9517051],[11.3423052,43.9523185],[11.3435098,43.9527655],[11.3440714,43.9533361],[11.3447899,43.9538781],[11.3453138,43.9544837],[11.3477082,43.9563307],[11.3483227,43.9570741],[11.349322,43.9566248],[11.3493414,43.9570333],[11.3503609,43.9587779],[11.3510626,43.9611229],[11.351417,43.9609846],[11.3522538,43.9608816],[11.3535595,43.960936],[11.3545208,43.9610856],[11.3549844,43.96101],[11.3550031,43.9610673],[11.3554584,43.9611044],[11.3555337,43.9611854],[11.3570098,43.961065],[11.3609555,43.9609626],[11.361241,43.9613957],[11.3617368,43.9616768],[11.3644146,43.9636954],[11.3646202,43.9641381],[11.3670266,43.9641351],[11.367108,43.9635227],[11.3686027,43.9635335],[11.3686097,43.9616269],[11.3696982,43.9615366],[11.3694096,43.9619019],[11.3694898,43.9621007],[11.3717519,43.9630358],[11.3722609,43.9633152],[11.3723788,43.9634919],[11.3724501,43.9638575],[11.3724512,43.9649817],[11.3732499,43.9648087],[11.3750915,43.9641236],[11.3751906,43.9643284],[11.3752222,43.9648297],[11.3753486,43.9649373],[11.3751527,43.9657059],[11.3753465,43.966526],[11.3763092,43.9674095],[11.3764449,43.9676427],[11.376543,43.9683373],[11.3768881,43.9688145],[11.3773452,43.9690159],[11.3775299,43.9694247],[11.3778234,43.9698069],[11.3786571,43.9716171],[11.3786857,43.9718872],[11.378582,43.9723294],[11.378983,43.9734372],[11.3777638,43.9736888],[11.3760162,43.9742419],[11.3760035,43.9746445],[11.3760816,43.9747995],[11.3762912,43.9750085],[11.3769803,43.9754141],[11.3770711,43.9758552],[11.3759287,43.9762492],[11.3757305,43.9758351],[11.3714558,43.9775862],[11.3720066,43.9783264],[11.3726068,43.9793693],[11.3730306,43.9798237],[11.3729646,43.9798498],[11.3747863,43.9818451],[11.3758392,43.9833296],[11.3765021,43.9839906],[11.37573,43.9844308],[11.3750351,43.9836676],[11.3747949,43.9837954],[11.3743397,43.9835545],[11.3733085,43.9841712],[11.373545,43.9845403],[11.3744406,43.9849484],[11.3756305,43.9850779],[11.376892,43.9854566],[11.3771029,43.9855878],[11.3772556,43.9859474],[11.3770185,43.9867781],[11.376909,43.9876886],[11.3771056,43.9883681],[11.3775586,43.98863],[11.3778784,43.9886624],[11.3797429,43.9885215],[11.3800398,43.9885707],[11.3818574,43.9906103],[11.3824542,43.9917589],[11.3828118,43.9927566],[11.3830258,43.9929763],[11.3847365,43.9936164],[11.3866891,43.9946714],[11.3869002,43.9948008],[11.3869915,43.9949567],[11.387006,43.9953615],[11.3867482,43.9961048],[11.3867208,43.996562],[11.3865341,43.9968544],[11.3863686,43.9974017],[11.3858783,43.9983072],[11.3855031,43.998776],[11.3851851,43.9994601],[11.3848568,43.9997612],[11.3848908,43.9999363],[11.3842103,44.0001395],[11.3842198,44.0003278],[11.3845962,44.0009903],[11.3849115,44.0017944],[11.3848016,44.0024152],[11.3846437,44.0025333],[11.3840538,44.002649],[11.3839734,44.0030304],[11.3847867,44.0048953],[11.3847526,44.005027],[11.3845479,44.0051698],[11.3844737,44.0053229],[11.3839311,44.0055937],[11.3837095,44.0057918],[11.3835026,44.0066647],[11.383776,44.0074141],[11.3835622,44.0082304],[11.3835897,44.0089377],[11.3837012,44.0091802],[11.3835601,44.0098272],[11.3836511,44.010195],[11.3832856,44.010722],[11.3827109,44.0109439],[11.3825555,44.0110766],[11.3824822,44.011293],[11.3825237,44.011507],[11.3830782,44.0120488],[11.3832218,44.0127967],[11.3831958,44.0129391],[11.3828232,44.0130854],[11.3827788,44.0132529],[11.3829245,44.0136722],[11.3827384,44.0138652],[11.3825779,44.0142688],[11.3827022,44.014922],[11.3826966,44.0157464],[11.3830889,44.0165809],[11.3828538,44.016858],[11.3828508,44.0169684],[11.3830112,44.017162],[11.383792,44.0176428],[11.3837939,44.0177677],[11.3828766,44.0180929],[11.3827438,44.0182432],[11.3827651,44.0184623],[11.3831342,44.0189333],[11.3837014,44.0194206],[11.3842121,44.0197364],[11.3844853,44.0204177],[11.3844436,44.0206354],[11.3841931,44.021035],[11.3843942,44.0212493],[11.3849299,44.0214285],[11.3852826,44.021851],[11.3854545,44.0226741],[11.3848311,44.02295],[11.3848544,44.0231542],[11.3855738,44.0234279],[11.3857071,44.0236184],[11.3858013,44.0236247],[11.3861469,44.0256991],[11.3861568,44.0263833],[11.386362,44.0270438],[11.3872044,44.0289244],[11.3871876,44.0291411],[11.3868363,44.0299706],[11.3890174,44.031196],[11.389271,44.0342494],[11.3900131,44.0353579],[11.3908356,44.0355401],[11.3904683,44.0357547],[11.3898866,44.036464],[11.3895987,44.0372913],[11.3898622,44.0378618],[11.3898097,44.0385112],[11.3900086,44.038816],[11.3899634,44.038882],[11.390169,44.0397076],[11.3906156,44.0408463],[11.3905466,44.0415377],[11.3908835,44.0417794],[11.3909784,44.042099],[11.3912061,44.0422141],[11.390884,44.0427272],[11.3907332,44.0434212],[11.3921358,44.0446806],[11.3929403,44.0451522],[11.3976865,44.0459088],[11.3979907,44.0462423],[11.4010527,44.0456774],[11.4015943,44.0452875],[11.4020671,44.0447387],[11.4032075,44.0443151],[11.4036985,44.044257],[11.404271,44.0446487],[11.4054949,44.0449482],[11.4057609,44.045471],[11.4073199,44.0458778],[11.4081381,44.0465127],[11.4084954,44.046575],[11.4099838,44.0473582],[11.4108805,44.0474026],[11.41152,44.0472009],[11.4121667,44.0471255],[11.4129009,44.0474345],[11.4134996,44.0477951],[11.4139982,44.0482467],[11.4145301,44.0485836],[11.4150366,44.0493784],[11.4164612,44.0497249],[11.4177593,44.0502169],[11.418543,44.0499839],[11.4189755,44.0499445],[11.4194761,44.049737],[11.4203093,44.0498765],[11.4215812,44.0496839],[11.4233594,44.0491412],[11.4237524,44.048944],[11.4238685,44.0486501],[11.4248171,44.0477065],[11.4252914,44.0473848],[11.4257079,44.046979],[11.4260663,44.0470357],[11.4261078,44.0473289],[11.4283219,44.048481],[11.4294073,44.0494403],[11.4298327,44.0495797],[11.4308629,44.0493598],[11.4320904,44.0494684],[11.4331577,44.0493419],[11.4334298,44.0493732],[11.4338026,44.049447],[11.4352579,44.0503563],[11.4356802,44.0500722],[11.437209,44.049819],[11.4380903,44.0493268],[11.4385013,44.0496275],[11.4394692,44.0500392],[11.4400725,44.0504374],[11.4404882,44.0505306],[11.4442247,44.0505817],[11.4448203,44.0504022],[11.4473403,44.0501137],[11.4479318,44.0500674],[11.4485008,44.0501719],[11.4486631,44.0502369],[11.4488983,44.0505213],[11.4493443,44.0507362],[11.4501632,44.0515178],[11.450414,44.0514163],[11.4513058,44.0513171],[11.4513283,44.0516941],[11.4510808,44.0520964],[11.4505833,44.0523035],[11.4503999,44.052512],[11.4505046,44.0527577],[11.4510632,44.053033],[11.4511029,44.0531713],[11.4510469,44.0533775],[11.4503803,44.054107],[11.4501819,44.0551061],[11.4504052,44.0555154],[11.4503948,44.0558835],[11.4504731,44.0560246],[11.4509752,44.056389],[11.4515604,44.0573044],[11.4518913,44.0575755],[11.4522096,44.0584642],[11.452503,44.0588139],[11.4531787,44.0592305],[11.4538279,44.0598325],[11.4549378,44.0603915],[11.4550364,44.0606777],[11.454934,44.0609269],[11.4549797,44.0610358],[11.455644,44.0611569],[11.4562283,44.0611227],[11.4563824,44.0611958],[11.4565089,44.0616285],[11.4567916,44.061847],[11.4568043,44.061981],[11.4566829,44.062198],[11.4571959,44.0623825],[11.4577631,44.0631251],[11.4578472,44.0635629],[11.4585521,44.0635405],[11.4606471,44.0632671],[11.4613384,44.0628811],[11.4623879,44.06258],[11.463221,44.0621461],[11.4634602,44.0617417],[11.4640252,44.0612497],[11.464417,44.0605961],[11.4654177,44.060258],[11.4658822,44.0602267],[11.4661671,44.0604689],[11.4661837,44.0608171],[11.4660445,44.0612623],[11.4661749,44.0616532],[11.4670799,44.0615788],[11.4675743,44.0616541],[11.4693818,44.0610871],[11.4696076,44.0611274],[11.4702709,44.0615362],[11.4709753,44.0617605],[11.4714354,44.0615595],[11.4714577,44.0613583],[11.471312,44.0609254],[11.4714599,44.0606578],[11.4724177,44.0600355],[11.4731639,44.0598043],[11.4740765,44.0598441],[11.4748409,44.0600566],[11.4755415,44.0599691],[11.4762937,44.0587282],[11.4764945,44.0584518],[11.4767521,44.0582877],[11.477034,44.0581405],[11.4784179,44.0578542],[11.4788953,44.057306],[11.4808887,44.0565842],[11.4811729,44.0565931],[11.481879,44.0569937],[11.4827616,44.0569567],[11.4840208,44.057179],[11.4853012,44.0566024],[11.4863372,44.0565845],[11.4864766,44.0565252],[11.4869924,44.0561526],[11.4872721,44.0557161],[11.4878201,44.0555021],[11.4882511,44.0551492],[11.4890179,44.0549477],[11.489651,44.054937],[11.4910181,44.0543343],[11.491538,44.0537555],[11.4922589,44.0536849],[11.4925348,44.0535434],[11.4929834,44.0531789],[11.4935763,44.0520891],[11.4942083,44.0513282],[11.4950557,44.0509156],[11.4955894,44.0505196],[11.4964322,44.0502383],[11.4966379,44.0497779],[11.4968446,44.0496086],[11.497939,44.0479971],[11.4984891,44.0475376],[11.4996908,44.0469422],[11.4997979,44.0467733],[11.4997452,44.0465866],[11.4999394,44.0464021],[11.4987451,44.0443092],[11.4996713,44.0437321],[11.50211,44.043674],[11.5024768,44.0435037],[11.5031884,44.04353],[11.504105,44.0434347],[11.5050864,44.0429394],[11.5063761,44.0430252],[11.5087422,44.0425388],[11.5092589,44.0423786],[11.5101611,44.0419239],[11.5110627,44.0420403],[11.5119695,44.0418463],[11.5152305,44.0405433],[11.5156717,44.0404881],[11.5162575,44.0405601],[11.5166443,44.0404773],[11.5169667,44.0401564],[11.5175542,44.0398925],[11.5180102,44.039747],[11.5188772,44.0397625],[11.5195853,44.039402],[11.5198273,44.0390762],[11.5206485,44.0385446],[11.5215102,44.0383314],[11.5220852,44.0379793],[11.5232078,44.0379384],[11.5234876,44.0380003],[11.5242541,44.0378023],[11.5255477,44.0378666],[11.5256376,44.0373955],[11.5258218,44.0372385],[11.5271742,44.0370315],[11.5271708,44.036694],[11.5274951,44.0363451],[11.5275328,44.0361694],[11.5281286,44.0358241],[11.5282884,44.0355707],[11.5285612,44.0353991],[11.5284663,44.0352676],[11.5291417,44.0347854],[11.5294929,44.0338691],[11.5301436,44.0326916],[11.530382,44.0326254],[11.5310623,44.0327368],[11.5321941,44.0315614],[11.5321223,44.0314145],[11.5322072,44.0310958],[11.5321243,44.03094],[11.5321465,44.0303508],[11.5325097,44.0298132],[11.5325335,44.0294254],[11.5326742,44.0292453],[11.5328318,44.0292193],[11.5330082,44.0288266],[11.5335887,44.0286779],[11.5344399,44.0274729],[11.5344468,44.0271388],[11.5337819,44.0269352],[11.5330906,44.0264923],[11.532567,44.0264982],[11.5321877,44.0262785],[11.5314451,44.0262169],[11.5309298,44.0258819],[11.5305403,44.0254785],[11.5296247,44.024913],[11.5294249,44.0243171],[11.5280354,44.0231494],[11.5277909,44.0228022],[11.527933,44.0225597],[11.5273575,44.0222494],[11.5256856,44.0219418],[11.5246241,44.0215513],[11.5243347,44.0208061],[11.5237508,44.0202658],[11.5235319,44.0199548],[11.5231972,44.0197379],[11.523063,44.0193395],[11.5225759,44.0186338],[11.5218808,44.0187191],[11.5214681,44.0192546],[11.5207029,44.0196716],[11.5171329,44.0205413],[11.5151499,44.0206389],[11.511762,44.0219934],[11.5097193,44.0225983],[11.507959,44.0228719],[11.5059036,44.0239092],[11.505792,44.0241564],[11.5049018,44.0245058],[11.5038463,44.0246647],[11.5027588,44.0249758],[11.5024213,44.0256103],[11.5018836,44.0260449],[11.5016163,44.0263719],[11.5010939,44.0266687],[11.500041,44.0270903],[11.4996202,44.0274845],[11.4993353,44.0276148],[11.4990305,44.0279537],[11.4988142,44.0280188],[11.4984299,44.0287369],[11.4970778,44.0299597],[11.4958819,44.030105],[11.4953014,44.0303435],[11.4952173,44.0307716],[11.4932919,44.0316823],[11.4924083,44.0316209],[11.4881865,44.0304063],[11.4868618,44.0308447],[11.4859202,44.0314781],[11.4853029,44.0295755],[11.4847933,44.0292832],[11.4847713,44.0288466],[11.4845883,44.0283606],[11.4846045,44.0281726],[11.4853327,44.0278138],[11.4855997,44.027239],[11.4855031,44.0270711],[11.4852313,44.0270258],[11.4843752,44.0272038],[11.4835796,44.027126],[11.4828881,44.0268706],[11.4825327,44.0264577],[11.4819362,44.0262951],[11.4814822,44.0263607],[11.480942,44.026326],[11.47966,44.0258894],[11.4792382,44.0258374],[11.4789385,44.0256291],[11.4784659,44.0256334],[11.4772433,44.0251279],[11.477097,44.0249755],[11.476665,44.0249483],[11.4770347,44.0246913],[11.4772347,44.0243642],[11.4766104,44.023779],[11.4763975,44.0237467],[11.47681,44.0226588],[11.4724832,44.0163581],[11.4713703,44.01537],[11.4705816,44.0149078],[11.4694331,44.0125698],[11.4653964,44.0114386],[11.4642061,44.0102683],[11.4592258,44.0083989],[11.4588076,44.0069281],[11.453946,44.0045566],[11.4520628,44.0033953],[11.4517007,44.0029857],[11.4512529,44.0021671],[11.4489403,44.0011148],[11.4485899,44.0008158],[11.4486518,44.0004386],[11.4485711,44.0003021],[11.4481428,44.0001467],[11.4477129,43.9997363],[11.4472633,43.9995586],[11.4467043,43.9990767],[11.4459379,43.9986828],[11.4454727,43.9980925],[11.4454664,43.9977265],[11.4453519,43.9975208],[11.4453061,43.9971075],[11.444987,43.9967718],[11.444871,43.9964348],[11.444882,43.9961562],[11.4450259,43.9958319],[11.4460762,43.9947996],[11.4462142,43.9945139],[11.4462945,43.9938385],[11.4465585,43.9934554],[11.4466018,43.9931837],[11.4465117,43.9928649],[11.4461555,43.9925568],[11.4461027,43.9918534],[11.4453515,43.9912779],[11.4452243,43.991013],[11.4443711,43.9901933],[11.4441107,43.9898015],[11.4435598,43.9894291],[11.4432783,43.9890465],[11.4422408,43.9881402],[11.4416161,43.9878481],[11.4410301,43.9873349],[11.4406349,43.987167],[11.4387531,43.9873122],[11.4381954,43.98717],[11.4375637,43.9871955],[11.4366874,43.9873315],[11.4358666,43.9876361],[11.4343277,43.9876732],[11.4343848,43.9876482],[11.4345168,43.9867077],[11.4354813,43.9860053],[11.4369926,43.9851479],[11.436045,43.9850277],[11.4364382,43.9842506],[11.4369741,43.9836943],[11.4370275,43.983374],[11.4373963,43.9830947],[11.4377742,43.9829335],[11.4371839,43.9826738],[11.43588,43.9818879],[11.4348765,43.9809617],[11.4351902,43.9808859],[11.435714,43.9809157],[11.4362099,43.9813769],[11.4376213,43.9802894],[11.4381306,43.9801197],[11.4377685,43.9796208],[11.4364156,43.9783573],[11.4369069,43.978],[11.4372263,43.9779062],[11.4373968,43.9777424],[11.4374231,43.9775771],[11.4363066,43.9764841],[11.4363,43.9760376],[11.4361651,43.9757599],[11.4361884,43.9756076],[11.4353922,43.9750321],[11.4341364,43.9738616],[11.4330197,43.9722685],[11.4314691,43.9698339],[11.4304438,43.9689116],[11.4298794,43.9682468],[11.4269561,43.968351],[11.4253898,43.9685101],[11.4244327,43.9681536],[11.4241656,43.9681216],[11.4232692,43.9682892],[11.4226424,43.9685329],[11.4227259,43.9683279],[11.4208242,43.9684316],[11.4208328,43.9673525],[11.420095,43.9674114],[11.4198237,43.9665705],[11.4210942,43.9663675],[11.4207221,43.9652742],[11.421033,43.9652347],[11.4208867,43.9646136],[11.4210009,43.9646016],[11.4208693,43.9634344],[11.4195993,43.9634141],[11.4191708,43.9613868],[11.4172553,43.96176],[11.416367,43.9603214],[11.4177546,43.9599399],[11.4175004,43.9594799],[11.4186989,43.95916],[11.4181311,43.958034],[11.4187828,43.9578464],[11.4198315,43.9573309],[11.4207655,43.9571657],[11.4199677,43.9560135],[11.4194166,43.9545287],[11.4195083,43.9543521],[11.4201832,43.95419],[11.4201933,43.9539084],[11.4199715,43.9531533],[11.4200858,43.9530625],[11.4209347,43.9528843],[11.4211092,43.9518959],[11.4209186,43.9514137],[11.4204863,43.9508545],[11.4194614,43.9498585],[11.4192271,43.9478496],[11.4195575,43.9477805],[11.4196132,43.9475977],[11.419316,43.9459937],[11.4187628,43.9439098],[11.4185653,43.943603],[11.4178127,43.9410608],[11.4177387,43.9410468],[11.4176381,43.9408161],[11.417752,43.9403689],[11.4173297,43.9396583],[11.4171159,43.93912],[11.4169295,43.9390129],[11.4165539,43.9389645],[11.4164325,43.9386457],[11.4164595,43.9385807],[11.4172648,43.9384092],[11.4175206,43.9382455],[11.4177706,43.9379779],[11.4190132,43.9360488],[11.4203146,43.9349653],[11.4207741,43.9347473],[11.4212017,43.9340962],[11.4214122,43.9341425],[11.4218079,43.9344171],[11.4219949,43.9342906],[11.4222643,43.9338691],[11.4226377,43.9335269],[11.4229985,43.9334165],[11.4232689,43.9325103],[11.4241578,43.9315432],[11.4242689,43.9313237],[11.4240994,43.9311033],[11.4236126,43.9307922],[11.4229879,43.9299619],[11.4226997,43.9292199],[11.4224841,43.9289927],[11.420728,43.9279032],[11.4200093,43.927748],[11.4197009,43.9275703],[11.4187999,43.9264671],[11.418675,43.9259296],[11.4181177,43.9255132],[11.4177013,43.9244779],[11.4187235,43.9242324],[11.4191238,43.9240377],[11.4194631,43.9236731],[11.4199277,43.922919],[11.4203321,43.9224953],[11.4206861,43.9219137],[11.4212988,43.9212197],[11.4218577,43.9206521],[11.4225355,43.9201776],[11.4225846,43.9198065],[11.4229424,43.9192264],[11.4231387,43.9190766],[11.4234631,43.9184257],[11.4234347,43.9179951],[11.423533,43.9174928],[11.4234755,43.9172661],[11.4236406,43.9168054],[11.4236074,43.9161948],[11.4238819,43.9153551],[11.4238551,43.9150725],[11.4244392,43.9142248],[11.4244564,43.9138814],[11.4245415,43.9137333],[11.4256382,43.9132657],[11.4266621,43.9124246],[11.4267708,43.9112899],[11.4270401,43.9109529],[11.4268277,43.9106191],[11.4269218,43.9102089],[11.427645,43.9096984],[11.4277,43.9094679],[11.4280476,43.9091277],[11.4281804,43.908594],[11.4282859,43.9084873],[11.4291626,43.9083643],[11.4298132,43.9077894],[11.429866,43.9068041],[11.430041,43.9060932],[11.4300202,43.9056826],[11.42969,43.9056215],[11.4292268,43.905033],[11.429081,43.9046655],[11.4291041,43.9044685],[11.4288711,43.9035258],[11.4286084,43.9030985],[11.4285099,43.9022467],[11.4284014,43.9021473],[11.4286488,43.9015129],[11.4295363,43.9007894],[11.4299059,43.9001824],[11.4300259,43.8997573],[11.4301516,43.8996439],[11.4317676,43.8984721],[11.4322836,43.8983102],[11.4330378,43.8982253],[11.4338241,43.8978196],[11.433911,43.897707],[11.4339488,43.8973513],[11.4343055,43.8970495],[11.434346,43.8963996],[11.4356509,43.8950479],[11.4359418,43.8940129],[11.4359434,43.8935071],[11.4364381,43.8926077],[11.4365488,43.8921331],[11.4364403,43.891752],[11.4361676,43.8914011],[11.4362321,43.8911145],[11.4361271,43.8909488],[11.436181,43.890703],[11.4358929,43.8903409],[11.435623,43.8902277],[11.435334,43.8895579],[11.4353071,43.8892835],[11.4357107,43.8881927],[11.4362437,43.8877547],[11.4372405,43.8875592],[11.4374065,43.8873529],[11.4374433,43.887056],[11.4379292,43.8867063],[11.4384554,43.8865495],[11.4389188,43.8865288],[11.439854,43.885998],[11.4400106,43.8859815],[11.4401632,43.8861937],[11.4403777,43.8862549],[11.4410892,43.8862377],[11.4419327,43.8855457],[11.4421298,43.8856862],[11.4425217,43.8866698],[11.4425668,43.886263],[11.4427515,43.8860272],[11.4426519,43.8857498],[11.4428271,43.8852868],[11.4428453,43.8850118],[11.4428295,43.8848993],[11.4426218,43.8847765],[11.4424359,43.8844787],[11.4426366,43.884078],[11.442422,43.8838322],[11.4423072,43.8826984],[11.4425241,43.8822201],[11.4424942,43.8817542],[11.4423703,43.881664],[11.4424118,43.8812001],[11.4357323,43.8797539],[11.4349375,43.8790152],[11.4328619,43.8776495],[11.4308101,43.8761086],[11.4301031,43.8757594],[11.4296595,43.8752899],[11.4296385,43.8748166],[11.4262724,43.8724109],[11.4095312,43.8740835],[11.4054531,43.8739198],[11.4007309,43.8703775],[11.4003064,43.8699403],[11.3907572,43.871431],[11.3897938,43.8717249],[11.3865928,43.8722868],[11.3807079,43.8729196],[11.3466997,43.8700308],[11.3447053,43.8701701],[11.3447009,43.8708697],[11.3445447,43.8712899],[11.3444936,43.872094],[11.3441139,43.8730154],[11.3436117,43.8735256],[11.3435551,43.8737564],[11.343589,43.874426],[11.3434682,43.8749333],[11.3436063,43.8753074],[11.3441234,43.8760545],[11.3447791,43.8763732],[11.3446441,43.8771502],[11.3449807,43.8779401],[11.3448597,43.878431],[11.3448892,43.8787464],[11.3452324,43.8791485],[11.3457865,43.8794981],[11.3462914,43.8799445],[11.3465071,43.8802558],[11.3467254,43.8808863],[11.3472628,43.8815027],[11.3477175,43.8817484],[11.3483003,43.8818004],[11.3487046,43.8819588],[11.3485977,43.8820445],[11.3495936,43.8827472],[11.3499446,43.8833096],[11.3500398,43.8839473],[11.3508519,43.8847154],[11.351604,43.8858463],[11.3516744,43.8860856],[11.3516435,43.8863884],[11.3520847,43.8869718],[11.3518273,43.8879311],[11.3518718,43.8882499],[11.3521907,43.8886385],[11.352792,43.8889411],[11.3534586,43.8896112],[11.353672,43.8899598],[11.3538227,43.8907807],[11.3540897,43.891008],[11.3530677,43.8915144],[11.3525465,43.8916219],[11.3500002,43.8917331],[11.3480206,43.8916907],[11.3476291,43.8918215],[11.3471926,43.8918543],[11.3449504,43.8917691],[11.3442793,43.8921798],[11.3434476,43.8920547],[11.3425372,43.8929287],[11.3416236,43.8924662],[11.3400319,43.8931818],[11.338951,43.8933835],[11.3384676,43.8932951],[11.3378406,43.8934525],[11.3359865,43.893582],[11.3354357,43.8939478],[11.3349406,43.894161],[11.3355175,43.8945572],[11.3351332,43.8956117],[11.3347337,43.8961757],[11.3347928,43.8966375],[11.3342242,43.8969452],[11.3324809,43.8982042],[11.3326262,43.8984927],[11.3302669,43.8993298],[11.3299909,43.8998906],[11.3290772,43.9007268],[11.328987,43.901056],[11.3272897,43.9024449],[11.326348,43.9025048],[11.3252089,43.902824],[11.3228839,43.903859],[11.3217765,43.9041704],[11.3212837,43.9047179],[11.3210554,43.9047551],[11.3205861,43.9046378],[11.320191,43.904723],[11.318626,43.905458],[11.3183593,43.9057534],[11.3179949,43.9059737],[11.3178049,43.9063332],[11.3178117,43.9065962],[11.3176832,43.9066337],[11.3172123,43.9071491],[11.3164952,43.9074527],[11.3164039,43.9077435],[11.3165837,43.908329],[11.3165181,43.9090261],[11.3168894,43.9094732],[11.3174176,43.9105181],[11.3155862,43.9111047],[11.3146898,43.9112415],[11.312673,43.9122764],[11.3109029,43.912158],[11.3111349,43.9125103],[11.3114985,43.9126835],[11.3115966,43.912966],[11.3114106,43.9137419],[11.3111519,43.9140131],[11.3108194,43.9146262],[11.3108451,43.9150186],[11.3113085,43.9157623],[11.3100924,43.9201029]]]},"properties":{"type":"boundary","gemeente":"Borgo San Lorenzo"}}]}