{"type":"FeatureCollection","metadata":{"gemeente":"Borgo Veneto","slug":"borgo-veneto","generated_at":"2026-09-26T13:09:38.003019Z","total_points":13,"providers":["PosteItaliane","DPD","DHL","Amazon"],"bounds":[11.5091189,45.2154,11.55681009,45.22766214]},"features":[{"type":"Feature","geometry":{"type":"Point","coordinates":[11.53197343,45.22766214]},"properties":{"type":"pakketpunt","locatieNaam":"Saletto","straatNaam":"Via Roma Saletto","straatNr":"33","vervoerder":"PosteItaliane","puntType":"postkantoor","bezettingsgraad":50,"latitude":45.22766214,"longitude":11.53197343,"canPickup":true,"canDropoff":true,"openingstijden":{"za":"08:20 - 12:45","zo":"gesloten","ma":"08:20 - 13:45","di":"08:20 - 13:45","wo":"08:20 - 13:45","do":"08:20 - 13:45","vr":"08:20 - 13:45"}}},{"type":"Feature","geometry":{"type":"Point","coordinates":[11.55681009,45.21545882]},"properties":{"type":"pakketpunt","locatieNaam":"Santa Margherita D'adige","straatNaam":"Via Umberto I Santa Margherita D'adige Km.1","straatNr":"214","vervoerder":"PosteItaliane","puntType":"postkantoor","bezettingsgraad":50,"latitude":45.21545882,"longitude":11.55681009,"canPickup":true,"canDropoff":true,"openingstijden":{"za":"08:20 - 12:45","zo":"gesloten","ma":"08:20 - 13:45","di":"08:20 - 13:45","wo":"08:20 - 13:45","do":"08:20 - 13:45","vr":"08:20 - 13:45"}}},{"type":"Feature","geometry":{"type":"Point","coordinates":[11.51621926,45.21784526]},"properties":{"type":"pakketpunt","locatieNaam":"Megliadino San Fidenzio","straatNaam":"Via Giacomo Matteotti Megliadino San Fidenzio","straatNr":"13/a","vervoerder":"PosteItaliane","puntType":"postkantoor","bezettingsgraad":50,"latitude":45.21784526,"longitude":11.51621926,"canPickup":true,"canDropoff":true,"openingstijden":{"za":"08:20 - 12:45","zo":"gesloten","ma":"08:20 - 13:45","di":"08:20 - 13:45","wo":"08:20 - 13:45","do":"08:20 - 13:45","vr":"08:20 - 13:45"}}},{"type":"Feature","geometry":{"type":"Point","coordinates":[11.52435897,45.22753959]},"properties":{"type":"pakketpunt","locatieNaam":"Centro Commerciale Megliadino","straatNaam":"Via Vallesella","straatNr":"1","vervoerder":"PosteItaliane","puntType":"automaat","bezettingsgraad":50,"latitude":45.22753959,"longitude":11.52435897,"canPickup":true,"canDropoff":true,"openingstijden":{"za":"00:01 - 23:59","zo":"00:01 - 23:59","ma":"00:01 - 23:59","di":"00:01 - 23:59","wo":"00:01 - 23:59","do":"00:01 - 23:59","vr":"00:01 - 23:59"}}},{"type":"Feature","geometry":{"type":"Point","coordinates":[11.5238,45.22681]},"properties":{"type":"pakketpunt","locatieNaam":"BRT LOCKER - C C Megliadino Via Val","straatNaam":"VIA VALLESELLA","straatNr":"1","vervoerder":"DPD","puntType":"dpd_box","bezettingsgraad":50,"latitude":45.22681,"longitude":11.5238,"canPickup":true,"canDropoff":true,"openingstijden":{"ma":"08:00 - 20:00","di":"08:00 - 20:00","wo":"08:00 - 20:00","do":"08:00 - 20:00","vr":"08:00 - 20:00","za":"08:00 - 20:00","zo":"08:00 - 20:00"}}},{"type":"Feature","geometry":{"type":"Point","coordinates":[11.531973,45.227662]},"properties":{"type":"pakketpunt","locatieNaam":"Ufficio Postale SALETTO","straatNaam":"VIA ROMA 33","straatNr":"","vervoerder":"DHL","puntType":"postOffice","bezettingsgraad":50,"latitude":45.227662,"longitude":11.531973,"canPickup":true,"canDropoff":true,"openingstijden":{"ma":"08:20 - 13:45","di":"08:20 - 13:45","wo":"08:20 - 13:45","do":"08:20 - 13:45","vr":"08:20 - 13:45","za":"08:20 - 12:45","zo":"gesloten"}}},{"type":"Feature","geometry":{"type":"Point","coordinates":[11.524359,45.22754]},"properties":{"type":"pakketpunt","locatieNaam":"CENTRO COMMERCIALE MEGLIADI","straatNaam":"VIA VALLESELLA 1","straatNr":"","vervoerder":"DHL","puntType":"packStation","bezettingsgraad":50,"latitude":45.22754,"longitude":11.524359,"canPickup":true,"canDropoff":true,"openingstijden":{"ma":"00:01 - 23:59","di":"00:01 - 23:59","wo":"00:01 - 23:59","do":"00:01 - 23:59","vr":"00:01 - 23:59","za":"00:01 - 23:59","zo":"00:01 - 23:59"}}},{"type":"Feature","geometry":{"type":"Point","coordinates":[11.516219,45.217845]},"properties":{"type":"pakketpunt","locatieNaam":"Ufficio Postale MEGLIADINO SAN FIDE","straatNaam":"VIA MATTEOTTI GIACOMO 13-A","straatNr":"","vervoerder":"DHL","puntType":"postOffice","bezettingsgraad":50,"latitude":45.217845,"longitude":11.516219,"canPickup":true,"canDropoff":true,"openingstijden":{"ma":"08:20 - 13:45","di":"08:20 - 13:45","wo":"08:20 - 13:45","do":"08:20 - 13:45","vr":"08:20 - 13:45","za":"08:20 - 12:45","zo":"gesloten"}}},{"type":"Feature","geometry":{"type":"Point","coordinates":[11.55681,45.215459]},"properties":{"type":"pakketpunt","locatieNaam":"Ufficio Postale SANTA MARGHERITA D'","straatNaam":"VIA UMBERTO I KM 1214","straatNr":"","vervoerder":"DHL","puntType":"postOffice","bezettingsgraad":50,"latitude":45.215459,"longitude":11.55681,"canPickup":true,"canDropoff":true,"openingstijden":{"ma":"08:20 - 13:45","di":"08:20 - 13:45","wo":"08:20 - 13:45","do":"08:20 - 13:45","vr":"08:20 - 13:45","za":"08:20 - 12:45","zo":"gesloten"}}},{"type":"Feature","geometry":{"type":"Point","coordinates":[11.5091189,45.2236954]},"properties":{"type":"pakketpunt","locatieNaam":"Amazon Locker - ciana","straatNaam":"Fermopoint / Centro Commerciale Donatello","straatNr":"","vervoerder":"Amazon","puntType":"locker","bezettingsgraad":50,"latitude":45.2236954,"longitude":11.5091189,"canPickup":true,"canDropoff":false,"openingstijden":null}},{"type":"Feature","geometry":{"type":"Point","coordinates":[11.5162,45.2178]},"properties":{"type":"pakketpunt","locatieNaam":"Ufficio Postale MEGLIADINO SAN FIDENZIO","straatNaam":"VIA MATTEOTTI GIACOMO 13-A","straatNr":"","vervoerder":"Amazon","puntType":"3p","bezettingsgraad":50,"latitude":45.2178,"longitude":11.5162,"canPickup":true,"canDropoff":false,"openingstijden":null}},{"type":"Feature","geometry":{"type":"Point","coordinates":[11.5319,45.2276]},"properties":{"type":"pakketpunt","locatieNaam":"Ufficio Postale SALETTO","straatNaam":"VIA ROMA 33","straatNr":"","vervoerder":"Amazon","puntType":"3p","bezettingsgraad":50,"latitude":45.2276,"longitude":11.5319,"canPickup":true,"canDropoff":false,"openingstijden":null}},{"type":"Feature","geometry":{"type":"Point","coordinates":[11.5568,45.2154]},"properties":{"type":"pakketpunt","locatieNaam":"Ufficio Postale SANTA MARGHERITA D'ADIGE","straatNaam":"VIA UMBERTO I KM 1214","straatNr":"","vervoerder":"Amazon","puntType":"3p","bezettingsgraad":50,"latitude":45.2154,"longitude":11.5568,"canPickup":true,"canDropoff":false,"openingstijden":null}},{"type":"Feature","geometry":{"type":"Polygon","coordinates":[[[11.5007502,45.2042222],[11.5029421,45.1946097],[11.5098237,45.1956817],[11.5092528,45.2010143],[11.5089068,45.2057878],[11.5102024,45.2050878],[11.5111402,45.2047509],[11.5124463,45.2039198],[11.5131057,45.2033271],[11.5136297,45.2027089],[11.5138084,45.2026923],[11.5143706,45.2028844],[11.5145691,45.2028579],[11.5151723,45.2024007],[11.515783,45.2020608],[11.5159642,45.2030597],[11.5170252,45.2029584],[11.5179274,45.2027461],[11.5184389,45.2037278],[11.5191729,45.2034299],[11.5194774,45.2031063],[11.5198011,45.2024331],[11.519995,45.2022101],[11.5223633,45.2014581],[11.5247298,45.201284],[11.5249163,45.2017493],[11.5253933,45.2016161],[11.525347,45.2014197],[11.5267323,45.2011864],[11.5266939,45.2015126],[11.5271765,45.2023554],[11.5282441,45.2021023],[11.5283266,45.2024312],[11.5291292,45.2021574],[11.5295061,45.2021491],[11.5315941,45.2012547],[11.5324654,45.2007853],[11.5339943,45.2025223],[11.5359479,45.2017768],[11.5394298,45.2030488],[11.5439796,45.2042981],[11.5438616,45.2027794],[11.5434541,45.2027778],[11.5425278,45.1999321],[11.5425192,45.1993065],[11.5427099,45.1992158],[11.5423084,45.1982168],[11.5423727,45.1978291],[11.5423063,45.1977377],[11.5409399,45.197065],[11.5403294,45.1969781],[11.5395619,45.1965974],[11.5388115,45.1964536],[11.5384298,45.1962361],[11.5378842,45.1960817],[11.5388565,45.1936922],[11.5390099,45.1934652],[11.5404,45.1923008],[11.5406786,45.191771],[11.5414253,45.1899353],[11.5413462,45.1893822],[11.5415251,45.1885072],[11.5416814,45.1881162],[11.5435779,45.1870417],[11.5474001,45.1826144],[11.5462339,45.1799746],[11.5463048,45.1799009],[11.5457186,45.1785537],[11.5455763,45.1780128],[11.5457701,45.1770054],[11.5456308,45.1757532],[11.5460519,45.1732952],[11.5461593,45.173106],[11.547024,45.1725459],[11.5544949,45.168477],[11.5617624,45.1650437],[11.5634379,45.1647646],[11.5636306,45.1648088],[11.5644016,45.1655088],[11.5646603,45.166634],[11.564752,45.1667544],[11.5689656,45.1696434],[11.5712856,45.1705396],[11.5713704,45.1706209],[11.5718352,45.1721612],[11.5719913,45.1723134],[11.571731,45.1732763],[11.5715851,45.1735365],[11.5716103,45.1744181],[11.5714417,45.1746084],[11.5714232,45.1748736],[11.5710493,45.1753776],[11.5707413,45.1755738],[11.5705392,45.1760904],[11.5704686,45.1769052],[11.571005,45.1775007],[11.5592514,45.1820888],[11.5661389,45.1890355],[11.5666621,45.1887925],[11.5670817,45.1906098],[11.5679653,45.192802],[11.5681164,45.1937389],[11.5700143,45.19328],[11.5702198,45.1937301],[11.5706745,45.1936582],[11.5711676,45.1949266],[11.5719026,45.1947867],[11.5727136,45.196333],[11.5730487,45.1962657],[11.5730829,45.1975117],[11.5751405,45.1974499],[11.5754229,45.1988771],[11.5754887,45.2001073],[11.576485,45.2002407],[11.5771839,45.200549],[11.5787808,45.2018991],[11.5791917,45.2024323],[11.5804185,45.2033985],[11.5767911,45.2072018],[11.5760075,45.2062811],[11.5741478,45.2069023],[11.5750067,45.2102519],[11.575716,45.2117125],[11.5758465,45.212342],[11.5762818,45.2128014],[11.5764064,45.2132845],[11.5764933,45.2138938],[11.5763516,45.2139677],[11.576309,45.214365],[11.5764842,45.2162027],[11.576499,45.2182475],[11.576635,45.2188733],[11.5765758,45.2192662],[11.5750727,45.2196224],[11.574315,45.219578],[11.5740943,45.2205209],[11.5739297,45.2204856],[11.5736264,45.2226593],[11.5740154,45.2245824],[11.5729167,45.2246679],[11.5728623,45.2252012],[11.5737745,45.2273657],[11.5737819,45.2282196],[11.5739711,45.2289502],[11.5740092,45.2295563],[11.5739701,45.2308732],[11.573386,45.2324585],[11.5731948,45.2345954],[11.5744137,45.2344726],[11.5750267,45.2362187],[11.5760508,45.2406393],[11.5761377,45.2412971],[11.5760588,45.2414488],[11.5761258,45.2438129],[11.5734181,45.2442508],[11.5717987,45.244614],[11.5668166,45.2453119],[11.5673907,45.2480803],[11.5661182,45.2489123],[11.5660428,45.2491459],[11.5658322,45.2514198],[11.5649255,45.2572364],[11.5643239,45.2605147],[11.5666217,45.2610791],[11.5659634,45.2626912],[11.565562,45.2630005],[11.5641517,45.2624692],[11.5618363,45.2620573],[11.5619015,45.2600928],[11.5471684,45.2564974],[11.541562,45.2549972],[11.5371688,45.254083],[11.5358184,45.2536314],[11.5350485,45.2534739],[11.5342846,45.2534188],[11.5263853,45.2535119],[11.5262441,45.2520038],[11.5263084,45.250557],[11.5236771,45.2501883],[11.5227906,45.2502079],[11.5220414,45.250373],[11.5204384,45.2503096],[11.5200871,45.2496187],[11.5204129,45.2495917],[11.5196713,45.2465131],[11.5185453,45.2465555],[11.5158467,45.2462542],[11.5155949,45.2460799],[11.5149988,45.2450745],[11.5137374,45.2451729],[11.5121764,45.2456956],[11.5115438,45.2457624],[11.509273,45.245613],[11.5053462,45.2450315],[11.5055542,45.2418938],[11.5060295,45.237282],[11.5058909,45.2371899],[11.506077,45.2345706],[11.5046121,45.2345786],[11.5045584,45.233329],[11.5047037,45.2315429],[11.5038057,45.2315447],[11.5040259,45.2304465],[11.5017434,45.2302175],[11.5006445,45.2299643],[11.5004934,45.2285951],[11.4996358,45.2285092],[11.4986986,45.22711],[11.4990731,45.2251661],[11.4993418,45.225126],[11.4994228,45.2233281],[11.4995019,45.2233249],[11.4990819,45.2216203],[11.4995294,45.2217223],[11.500055,45.2205036],[11.4990118,45.2201132],[11.4990118,45.2198175],[11.5021968,45.216481],[11.5052223,45.2161426],[11.5058212,45.2143141],[11.5065916,45.2136852],[11.507252,45.2129986],[11.5061703,45.2124242],[11.5057616,45.2120011],[11.5013521,45.2053784],[11.5007502,45.2042222]]]},"properties":{"type":"boundary","gemeente":"Borgo Veneto"}}]}