{"type":"FeatureCollection","metadata":{"gemeente":"Borgarello","slug":"borgarello","generated_at":"2026-09-26T14:26:58.626416Z","total_points":5,"providers":["PosteItaliane","DHL","Amazon"],"bounds":[9.14143,45.2399,9.14185344,45.240035]},"features":[{"type":"Feature","geometry":{"type":"Point","coordinates":[9.14185344,45.24003473]},"properties":{"type":"pakketpunt","locatieNaam":"Borgarello","straatNaam":"Via Pavia","straatNr":"2","vervoerder":"PosteItaliane","puntType":"postkantoor","bezettingsgraad":50,"latitude":45.24003473,"longitude":9.14185344,"canPickup":true,"canDropoff":true,"openingstijden":{"za":"08:20 - 12:45","zo":"gesloten","ma":"08:20 - 13:45","di":"08:20 - 13:45","wo":"08:20 - 13:45","do":"08:20 - 13:45","vr":"08:20 - 13:45"}}},{"type":"Feature","geometry":{"type":"Point","coordinates":[9.1414392,45.239933]},"properties":{"type":"pakketpunt","locatieNaam":"Tabaccheria N. 1","straatNaam":"Via Pavia","straatNr":"6","vervoerder":"PosteItaliane","puntType":"servicepunt","bezettingsgraad":50,"latitude":45.239933,"longitude":9.1414392,"canPickup":true,"canDropoff":true,"openingstijden":{"za":"06:00 - 21:00","zo":"06:00 - 21:00","ma":"06:00 - 21:00","di":"06:00 - 21:00","wo":"06:00 - 21:00","do":"06:00 - 21:00","vr":"06:00 - 21:00"}}},{"type":"Feature","geometry":{"type":"Point","coordinates":[9.141439,45.239933]},"properties":{"type":"pakketpunt","locatieNaam":"TABACCHERIA N. 1","straatNaam":"VIA PAVIA 6","straatNr":"","vervoerder":"DHL","puntType":"parcelShop","bezettingsgraad":50,"latitude":45.239933,"longitude":9.141439,"canPickup":true,"canDropoff":true,"openingstijden":{"ma":"06:00 - 21:00","di":"06:00 - 21:00","wo":"06:00 - 21:00","do":"06:00 - 21:00","vr":"06:00 - 21:00","za":"06:00 - 21:00","zo":"06:00 - 21:00"}}},{"type":"Feature","geometry":{"type":"Point","coordinates":[9.141853,45.240035]},"properties":{"type":"pakketpunt","locatieNaam":"Ufficio Postale BORGARELLO","straatNaam":"VIA PAVIA 2","straatNr":"","vervoerder":"DHL","puntType":"postOffice","bezettingsgraad":50,"latitude":45.240035,"longitude":9.141853,"canPickup":true,"canDropoff":true,"openingstijden":{"ma":"08:20 - 13:45","di":"08:20 - 13:45","wo":"08:20 - 13:45","do":"08:20 - 13:45","vr":"08:20 - 13:45","za":"08:20 - 12:45","zo":"gesloten"}}},{"type":"Feature","geometry":{"type":"Point","coordinates":[9.14143,45.2399]},"properties":{"type":"pakketpunt","locatieNaam":"PuntoPoste TABACCHERIA N. 1","straatNaam":"VIA PAVIA 6","straatNr":"","vervoerder":"Amazon","puntType":"3p","bezettingsgraad":50,"latitude":45.2399,"longitude":9.14143,"canPickup":true,"canDropoff":false,"openingstijden":null}},{"type":"Feature","geometry":{"type":"Polygon","coordinates":[[[9.1336723,45.2295497],[9.1328092,45.2329533],[9.1325609,45.2348351],[9.1367022,45.2358399],[9.1356027,45.2384363],[9.1348451,45.2406696],[9.1342004,45.2421556],[9.1338335,45.2432407],[9.1333754,45.2441909],[9.1325286,45.2464827],[9.1337958,45.2468593],[9.1343514,45.246062],[9.1361535,45.2470095],[9.1366589,45.2471889],[9.1372563,45.2472152],[9.1374486,45.2470709],[9.1375452,45.2468323],[9.1378426,45.2453287],[9.1384447,45.245337],[9.1385958,45.2452288],[9.1392137,45.24521],[9.1400995,45.2452944],[9.1404613,45.2479584],[9.141476,45.2479931],[9.1412963,45.2500232],[9.1436297,45.2499437],[9.1435144,45.2496693],[9.1435159,45.2490392],[9.1465302,45.2492379],[9.1458848,45.2522452],[9.1459,45.2525602],[9.1459799,45.2526727],[9.1602696,45.2500475],[9.1651778,45.2490728],[9.1654323,45.248951],[9.1662364,45.2477526],[9.1666893,45.2479365],[9.1665185,45.2483463],[9.1669578,45.2482466],[9.1674697,45.2479218],[9.1676838,45.2475974],[9.1677919,45.2469717],[9.168455,45.2460616],[9.16866,45.2458947],[9.1675036,45.245883],[9.1677762,45.2454325],[9.1681399,45.2450674],[9.1673209,45.2449696],[9.1667133,45.2447049],[9.1683923,45.2437213],[9.1696614,45.2420182],[9.1689159,45.2419563],[9.168214,45.2421328],[9.1679486,45.2423222],[9.1652287,45.2419347],[9.1640047,45.2416484],[9.1637281,45.2418243],[9.1634217,45.2427339],[9.1620387,45.2425289],[9.1620376,45.2421553],[9.1623492,45.2402781],[9.162226,45.2401027],[9.1569867,45.2397005],[9.1570897,45.2395113],[9.1575904,45.2391506],[9.158762,45.2378077],[9.1593627,45.2362182],[9.159481,45.2352143],[9.1594436,45.2349533],[9.1588834,45.2339325],[9.1588108,45.233613],[9.1588189,45.2330729],[9.1590563,45.2319789],[9.1587541,45.2315291],[9.1397744,45.2289798],[9.1396233,45.2297001],[9.1341367,45.2286265],[9.1336723,45.2295497]]]},"properties":{"type":"boundary","gemeente":"Borgarello"}}]}