{"type":"FeatureCollection","metadata":{"gemeente":"Borghetto Santo Spirito","slug":"borghetto-santo-spirito","generated_at":"2026-09-26T13:09:37.753358Z","total_points":12,"providers":["PosteItaliane","InPost","GLS","DHL","Amazon"],"bounds":[8.236163,44.1119828839,8.247847,44.116167]},"features":[{"type":"Feature","geometry":{"type":"Point","coordinates":[8.24141144,44.11271594]},"properties":{"type":"pakketpunt","locatieNaam":"Borghetto Santo Spirito","straatNaam":"Via Trilussa Snc","straatNr":"","vervoerder":"PosteItaliane","puntType":"postkantoor","bezettingsgraad":50,"latitude":44.11271594,"longitude":8.24141144,"canPickup":true,"canDropoff":true,"openingstijden":{"za":"08:20 - 12:35","zo":"gesloten","ma":"08:20 - 13:35","di":"08:20 - 13:35","wo":"08:20 - 13:35","do":"08:20 - 13:35","vr":"08:20 - 13:35"}}},{"type":"Feature","geometry":{"type":"Point","coordinates":[8.24525835,44.11354781]},"properties":{"type":"pakketpunt","locatieNaam":"Tabaccheria N. 2","straatNaam":"Corso Europa","straatNr":"13/r","vervoerder":"PosteItaliane","puntType":"servicepunt","bezettingsgraad":50,"latitude":44.11354781,"longitude":8.24525835,"canPickup":true,"canDropoff":true,"openingstijden":{"za":"08:00 - 12:30, 15:30 - 19:30","zo":"gesloten","ma":"gesloten","di":"gesloten","wo":"gesloten","do":"gesloten","vr":"gesloten"}}},{"type":"Feature","geometry":{"type":"Point","coordinates":[8.23616911,44.11220131]},"properties":{"type":"pakketpunt","locatieNaam":"Tabaccheria N. 7","straatNaam":"Via Michelangelo","straatNr":"24/r","vervoerder":"PosteItaliane","puntType":"servicepunt","bezettingsgraad":50,"latitude":44.11220131,"longitude":8.23616911,"canPickup":true,"canDropoff":true,"openingstijden":{"za":"05:30 - 20:00","zo":"gesloten","ma":"05:30 - 20:00","di":"05:30 - 20:00","wo":"05:30 - 20:00","do":"05:30 - 20:00","vr":"05:30 - 20:00"}}},{"type":"Feature","geometry":{"type":"Point","coordinates":[8.23618,44.11226]},"properties":{"type":"pakketpunt","locatieNaam":"InPost Locker 24/7","straatNaam":"Via Michelangelo","straatNr":"24R","vervoerder":"InPost","puntType":"automaat","bezettingsgraad":50,"latitude":44.11226,"longitude":8.23618,"canPickup":true,"canDropoff":true,"openingstijden":null}},{"type":"Feature","geometry":{"type":"Point","coordinates":[8.2421703669,44.1119828839]},"properties":{"type":"pakketpunt","locatieNaam":"CARTOLANDIA","straatNaam":"Via Dante ","straatNr":"9","vervoerder":"GLS","puntType":"parcel_shop","bezettingsgraad":50,"latitude":44.1119828839,"longitude":8.2421703669,"canPickup":true,"canDropoff":true,"openingstijden":"za: 07:00 - 12:30, 16:00 - 19:00; zo: 07:00 - 12:30"}},{"type":"Feature","geometry":{"type":"Point","coordinates":[8.244738,44.113137]},"properties":{"type":"pakketpunt","locatieNaam":"RIVENDITA TABACCHI 2","straatNaam":"Corso Europa 13/r","straatNr":"","vervoerder":"DHL","puntType":"parcelShop","bezettingsgraad":50,"latitude":44.113137,"longitude":8.244738,"canPickup":false,"canDropoff":true,"openingstijden":{"ma":"08:00 - 19:30","di":"08:00 - 19:30","wo":"08:00 - 19:30","do":"08:00 - 19:30","vr":"08:00 - 19:30","za":"08:00 - 19:30","zo":"gesloten"}}},{"type":"Feature","geometry":{"type":"Point","coordinates":[8.241411,44.112716]},"properties":{"type":"pakketpunt","locatieNaam":"Ufficio Postale BORGHETTO SANTO SPI","straatNaam":"VIA TRILUSSA SNC","straatNr":"","vervoerder":"DHL","puntType":"postOffice","bezettingsgraad":50,"latitude":44.112716,"longitude":8.241411,"canPickup":true,"canDropoff":true,"openingstijden":{"ma":"gesloten","di":"08:20 - 13:35","wo":"08:20 - 13:35","do":"08:20 - 13:35","vr":"08:20 - 13:35","za":"08:20 - 12:35","zo":"gesloten"}}},{"type":"Feature","geometry":{"type":"Point","coordinates":[8.236169,44.112201]},"properties":{"type":"pakketpunt","locatieNaam":"TABACCHERIA N. 7","straatNaam":"VIA MICHELANGELO 24-R","straatNr":"","vervoerder":"DHL","puntType":"parcelShop","bezettingsgraad":50,"latitude":44.112201,"longitude":8.236169,"canPickup":true,"canDropoff":true,"openingstijden":{"ma":"05:30 - 20:00","di":"05:30 - 20:00","wo":"05:30 - 20:00","do":"05:30 - 20:00","vr":"05:30 - 20:00","za":"05:30 - 20:00","zo":"gesloten"}}},{"type":"Feature","geometry":{"type":"Point","coordinates":[8.244733,44.113126]},"properties":{"type":"pakketpunt","locatieNaam":"Amazon Locker - crispolto","straatNaam":"Fermopoint / Tabacchi - Borghetto S.Spirito","straatNr":"","vervoerder":"Amazon","puntType":"locker","bezettingsgraad":50,"latitude":44.113126,"longitude":8.244733,"canPickup":true,"canDropoff":false,"openingstijden":null}},{"type":"Feature","geometry":{"type":"Point","coordinates":[8.24141,44.1127]},"properties":{"type":"pakketpunt","locatieNaam":"Ufficio Postale BORGHETTO SANTO SPIRITO","straatNaam":"VIA TRILUSSA SNC","straatNr":"","vervoerder":"Amazon","puntType":"3p","bezettingsgraad":50,"latitude":44.1127,"longitude":8.24141,"canPickup":true,"canDropoff":false,"openingstijden":null}},{"type":"Feature","geometry":{"type":"Point","coordinates":[8.247847,44.116167]},"properties":{"type":"pakketpunt","locatieNaam":"Amazon Counter - PRIMAEDICOLA","straatNaam":"ALESSI MASSIMO","straatNr":"","vervoerder":"Amazon","puntType":"helix","bezettingsgraad":50,"latitude":44.116167,"longitude":8.247847,"canPickup":true,"canDropoff":false,"openingstijden":null}},{"type":"Feature","geometry":{"type":"Point","coordinates":[8.236163,44.112199]},"properties":{"type":"pakketpunt","locatieNaam":"Amazon Counter - BAR DEL TOGN","straatNaam":"VIA MICHELANGELO 24","straatNr":"","vervoerder":"Amazon","puntType":"helix","bezettingsgraad":50,"latitude":44.112199,"longitude":8.236163,"canPickup":true,"canDropoff":false,"openingstijden":null}},{"type":"Feature","geometry":{"type":"Polygon","coordinates":[[[8.1977326,44.1095245],[8.1978138,44.1093111],[8.1988195,44.1085152],[8.1997453,44.1083665],[8.1999388,44.1082569],[8.2016405,44.1081809],[8.2031421,44.1082549],[8.205116,44.1081355],[8.2056178,44.1080253],[8.2075276,44.1079566],[8.2082042,44.1077155],[8.2089517,44.107263],[8.2093706,44.1071323],[8.210982,44.1068862],[8.2117695,44.1069184],[8.2139057,44.1074833],[8.2148085,44.1076064],[8.2154475,44.108858],[8.2166935,44.1105943],[8.2171587,44.111458],[8.2172239,44.1114475],[8.2173198,44.1106428],[8.2174431,44.1104053],[8.2176656,44.110337],[8.2177742,44.1101629],[8.2182372,44.1102207],[8.218411,44.1100415],[8.2194581,44.1100653],[8.2211024,44.1099469],[8.222158,44.1100243],[8.2224275,44.1099693],[8.224324,44.1088792],[8.2259403,44.1082984],[8.226589,44.107962],[8.2279086,44.1068628],[8.2292467,44.1062438],[8.2299746,44.106287],[8.2306452,44.1061971],[8.2359213,44.1034333],[8.2363774,44.1029963],[8.2377249,44.1024312],[8.2380132,44.1028083],[8.2382169,44.1029491],[8.2384169,44.1033526],[8.2386046,44.103527],[8.2387327,44.1035258],[8.238718,44.1036162],[8.2388865,44.1037724],[8.2388792,44.1038971],[8.2390727,44.1040016],[8.239052,44.1041146],[8.2392316,44.1043025],[8.2393637,44.1043203],[8.2393371,44.104387],[8.2396013,44.104628],[8.2397515,44.1048817],[8.239804,44.1051803],[8.2403954,44.1059485],[8.24057,44.1059388],[8.2404752,44.1060311],[8.2408247,44.1064999],[8.241881,44.1075894],[8.2420167,44.1076595],[8.2421922,44.1075805],[8.2423257,44.1076215],[8.2421962,44.1078612],[8.2427448,44.1084439],[8.2429428,44.1085819],[8.2432046,44.1085232],[8.2433176,44.1086082],[8.2430969,44.1087926],[8.243093,44.1089073],[8.2435159,44.1094411],[8.2440957,44.1099796],[8.2443043,44.1100849],[8.2445102,44.1100061],[8.2446718,44.1100345],[8.2446677,44.1101548],[8.2445073,44.1102338],[8.2446057,44.1104554],[8.2453318,44.1110412],[8.2456647,44.1111199],[8.2461319,44.1107699],[8.2466448,44.1111509],[8.2465928,44.1113187],[8.2462929,44.1115118],[8.2454409,44.1118103],[8.245532,44.1120151],[8.2462262,44.1118449],[8.2459941,44.1119513],[8.246034,44.11226],[8.2464276,44.1127501],[8.246781,44.1126758],[8.246579,44.1128085],[8.2465638,44.1129064],[8.24707,44.1134676],[8.2473167,44.113472],[8.2471424,44.1136714],[8.2473454,44.1139843],[8.2483774,44.1148156],[8.2487195,44.1149536],[8.248928,44.1149227],[8.2498981,44.1151925],[8.2501646,44.1153852],[8.2502962,44.1157468],[8.2502498,44.1158441],[8.2499899,44.1158374],[8.2500233,44.1156455],[8.2497876,44.1153257],[8.2490916,44.1151445],[8.2488834,44.1151988],[8.2483228,44.1156253],[8.2490366,44.116119],[8.248974,44.1162034],[8.2493143,44.1164519],[8.2496918,44.1162145],[8.2494491,44.1159722],[8.2494647,44.1157788],[8.2495686,44.1157948],[8.2495901,44.115963],[8.2498372,44.1161747],[8.2498314,44.1162495],[8.249339,44.1166175],[8.2476946,44.1174221],[8.247045,44.1178584],[8.2463196,44.1181895],[8.2455743,44.1184067],[8.2450786,44.1186529],[8.244877,44.1188779],[8.2446749,44.1194755],[8.2446937,44.119778],[8.2442602,44.1201287],[8.2444294,44.1207179],[8.2443876,44.1208323],[8.2431759,44.1214187],[8.2427482,44.1220822],[8.2424032,44.1228323],[8.2420179,44.1233212],[8.2418335,44.1237224],[8.2417809,44.1240686],[8.2416395,44.1241814],[8.2411003,44.1243375],[8.2409714,44.1244685],[8.2409614,44.1245617],[8.241316,44.1250322],[8.2413908,44.1252463],[8.2411627,44.1261408],[8.2406807,44.126388],[8.2401444,44.126425],[8.2399776,44.1265319],[8.2398402,44.1267711],[8.2398393,44.1272704],[8.2401985,44.127516],[8.2401288,44.1277277],[8.2397804,44.1281592],[8.2401697,44.1289587],[8.2400223,44.1294505],[8.2400659,44.1299493],[8.2395427,44.1301867],[8.2396628,44.1304243],[8.2393249,44.1307112],[8.2384239,44.1307216],[8.238417,44.1311022],[8.2377682,44.1307686],[8.2370509,44.1307089],[8.2357502,44.1304415],[8.2353128,44.1300114],[8.2348546,44.129763],[8.2341998,44.1292183],[8.2348123,44.1286765],[8.2334573,44.1282204],[8.2325073,44.127639],[8.2321893,44.127548],[8.2318793,44.1278673],[8.2314145,44.1277489],[8.2307007,44.1277788],[8.2302137,44.1272063],[8.229895,44.1269533],[8.2294545,44.1267434],[8.2288146,44.1256829],[8.2285842,44.1256444],[8.2283235,44.1254716],[8.2280082,44.1250627],[8.22737,44.1248089],[8.22732,44.1247161],[8.2273934,44.1244902],[8.2271715,44.1238975],[8.2269271,44.1235513],[8.2274934,44.1229054],[8.2271746,44.1213698],[8.227042,44.1209488],[8.2261983,44.1199394],[8.2261424,44.1197781],[8.2257099,44.1200143],[8.2247407,44.1202335],[8.2242649,44.1206307],[8.2240967,44.1209089],[8.2241189,44.1212816],[8.223525,44.1217828],[8.2220414,44.1222574],[8.220843,44.1228671],[8.2201075,44.12283],[8.2197069,44.1226315],[8.2193916,44.1223528],[8.2185603,44.1210478],[8.2183025,44.120353],[8.2180353,44.1199717],[8.2180831,44.1193898],[8.2178625,44.1185164],[8.2175292,44.1180703],[8.2171963,44.1179361],[8.2166167,44.1175085],[8.2162914,44.1166134],[8.216324,44.1161729],[8.2160939,44.1156856],[8.2150105,44.1149748],[8.2148545,44.1147898],[8.2147925,44.1145573],[8.2140092,44.1144826],[8.2136479,44.114347],[8.2117359,44.1140545],[8.2104264,44.1135189],[8.2096197,44.1133556],[8.2053521,44.1116395],[8.2042232,44.111614],[8.2024435,44.111823],[8.2020378,44.1117541],[8.2007935,44.1110207],[8.2005224,44.1106797],[8.2000887,44.1103767],[8.1977326,44.1095245]]]},"properties":{"type":"boundary","gemeente":"Borghetto Santo Spirito"}}]}