{"type":"FeatureCollection","metadata":{"gemeente":"Botrugno","slug":"botrugno","generated_at":"2026-09-26T14:26:59.437037Z","total_points":10,"providers":["PosteItaliane","DPD","GLS","DHL","Amazon","FedEx"],"bounds":[18.32342279,40.0633556,18.324237,40.06456535]},"features":[{"type":"Feature","geometry":{"type":"Point","coordinates":[18.32423669,40.06456535]},"properties":{"type":"pakketpunt","locatieNaam":"Botrugno","straatNaam":"Via Vittorio Veneto","straatNr":"33","vervoerder":"PosteItaliane","puntType":"postkantoor","bezettingsgraad":50,"latitude":40.06456535,"longitude":18.32423669,"canPickup":true,"canDropoff":true,"openingstijden":{"za":"08:20 - 12:35","zo":"gesloten","ma":"08:20 - 13:35","di":"08:20 - 13:35","wo":"08:20 - 13:35","do":"08:20 - 13:35","vr":"08:20 - 13:35"}}},{"type":"Feature","geometry":{"type":"Point","coordinates":[18.32342279,40.06343205]},"properties":{"type":"pakketpunt","locatieNaam":"Spedire Al Volo","straatNaam":"Via Vittorio Emanuele","straatNr":"59","vervoerder":"PosteItaliane","puntType":"servicepunt","bezettingsgraad":50,"latitude":40.06343205,"longitude":18.32342279,"canPickup":true,"canDropoff":true,"openingstijden":{"za":"gesloten","zo":"gesloten","ma":"08:00 - 16:00","di":"08:00 - 16:00","wo":"08:00 - 16:00","do":"08:00 - 16:00","vr":"08:00 - 16:00"}}},{"type":"Feature","geometry":{"type":"Point","coordinates":[18.3234443,40.0633556]},"properties":{"type":"pakketpunt","locatieNaam":"Spedirealvolo","straatNaam":"VIA VITTORIO EMANUELE","straatNr":"59","vervoerder":"DPD","puntType":"pickup_point","bezettingsgraad":50,"latitude":40.0633556,"longitude":18.3234443,"canPickup":true,"canDropoff":true,"openingstijden":{"ma":"08:00 - 16:00","di":"08:00 - 16:00","wo":"08:00 - 16:00","do":"08:00 - 16:00","vr":"08:00 - 16:00","za":"gesloten","zo":"gesloten"}}},{"type":"Feature","geometry":{"type":"Point","coordinates":[18.3234443,40.0633556]},"properties":{"type":"pakketpunt","locatieNaam":"SPEDIREALVOLO","straatNaam":"Via Vittorio Emanuele","straatNr":"59","vervoerder":"GLS","puntType":"parcel_shop","bezettingsgraad":50,"latitude":40.0633556,"longitude":18.3234443,"canPickup":true,"canDropoff":true,"openingstijden":"za: 08:00 - 18:00; zo: 08:00 - 18:00"}},{"type":"Feature","geometry":{"type":"Point","coordinates":[18.323423,40.063432]},"properties":{"type":"pakketpunt","locatieNaam":"SPEDIRE AL VOLO","straatNaam":"VIA VITTORIO EMANUELE 59","straatNr":"","vervoerder":"DHL","puntType":"parcelShop","bezettingsgraad":50,"latitude":40.063432,"longitude":18.323423,"canPickup":true,"canDropoff":true,"openingstijden":{"ma":"08:00 - 16:00","di":"08:00 - 16:00","wo":"08:00 - 16:00","do":"08:00 - 16:00","vr":"08:00 - 16:00","za":"gesloten","zo":"gesloten"}}},{"type":"Feature","geometry":{"type":"Point","coordinates":[18.324237,40.064565]},"properties":{"type":"pakketpunt","locatieNaam":"Ufficio Postale BOTRUGNO","straatNaam":"VIA VITTORIO VENETO 33","straatNr":"","vervoerder":"DHL","puntType":"postOffice","bezettingsgraad":50,"latitude":40.064565,"longitude":18.324237,"canPickup":true,"canDropoff":true,"openingstijden":{"ma":"08:20 - 13:35","di":"08:20 - 13:35","wo":"08:20 - 13:35","do":"08:20 - 13:35","vr":"08:20 - 13:35","za":"08:20 - 12:35","zo":"gesloten"}}},{"type":"Feature","geometry":{"type":"Point","coordinates":[18.3234443,40.0633556]},"properties":{"type":"pakketpunt","locatieNaam":"Amazon Counter (fermopoint)","straatNaam":"Spedirealvolo","straatNr":"","vervoerder":"Amazon","puntType":"helix","bezettingsgraad":50,"latitude":40.0633556,"longitude":18.3234443,"canPickup":true,"canDropoff":false,"openingstijden":null}},{"type":"Feature","geometry":{"type":"Point","coordinates":[18.323508,40.063607]},"properties":{"type":"pakketpunt","locatieNaam":"Amazon Counter - PRIMAEDICOLA","straatNaam":"EDICART DI","straatNr":"","vervoerder":"Amazon","puntType":"helix","bezettingsgraad":50,"latitude":40.063607,"longitude":18.323508,"canPickup":true,"canDropoff":false,"openingstijden":null}},{"type":"Feature","geometry":{"type":"Point","coordinates":[18.3242,40.0645]},"properties":{"type":"pakketpunt","locatieNaam":"Ufficio Postale BOTRUGNO","straatNaam":"VIA VITTORIO VENETO 33","straatNr":"","vervoerder":"Amazon","puntType":"3p","bezettingsgraad":50,"latitude":40.0645,"longitude":18.3242,"canPickup":true,"canDropoff":false,"openingstijden":null}},{"type":"Feature","geometry":{"type":"Point","coordinates":[18.323446692030696,40.063355838775514]},"properties":{"type":"pakketpunt","locatieNaam":"FedEx OnSite","straatNaam":"VIA VITTORIO EMANUELE, 59","straatNr":"","vervoerder":"FedEx","puntType":"servicepunt","bezettingsgraad":50,"latitude":40.063355838775514,"longitude":18.323446692030696,"canPickup":true,"canDropoff":true,"openingstijden":{"ma":"08:00 - 18:00","di":"08:00 - 18:00","wo":"08:00 - 18:00","do":"08:00 - 18:00","vr":"08:00 - 18:00","za":"08:00 - 18:00","zo":"08:00 - 18:00"}}},{"type":"Feature","geometry":{"type":"Polygon","coordinates":[[[18.268168,40.0467959],[18.2689676,40.0470152],[18.2712221,40.0479887],[18.2735998,40.048109],[18.2742605,40.0467086],[18.2748823,40.0457804],[18.2758669,40.0437594],[18.2757173,40.0437594],[18.27571,40.043135],[18.2766626,40.0432704],[18.277049,40.0432359],[18.2771602,40.0426417],[18.2774976,40.0426901],[18.2775659,40.0424966],[18.2776958,40.0424698],[18.278036,40.0421213],[18.2780584,40.0415437],[18.2782359,40.0408069],[18.278789,40.0394251],[18.2792233,40.0395729],[18.2795177,40.0397946],[18.2808932,40.0395692],[18.2811516,40.0396105],[18.281549,40.0402888],[18.2815438,40.0408228],[18.2818145,40.0408695],[18.2817121,40.0413372],[18.2829441,40.0415488],[18.2829407,40.042155],[18.2832887,40.0421941],[18.2832102,40.0431347],[18.2838733,40.0432652],[18.2835611,40.0442988],[18.2855376,40.0446079],[18.2866402,40.0445286],[18.2863134,40.0455897],[18.2893363,40.0464338],[18.2888005,40.0474474],[18.2885446,40.0473644],[18.2885445,40.0472515],[18.2877426,40.0471026],[18.2869752,40.0470013],[18.286912,40.0471138],[18.2862547,40.047019],[18.2856438,40.0482456],[18.2863508,40.0487383],[18.2879271,40.0492099],[18.2900157,40.0496763],[18.29023,40.0491825],[18.2907743,40.0493388],[18.2909381,40.0490619],[18.2919073,40.0493806],[18.2921974,40.0488764],[18.2924021,40.0489496],[18.292856,40.0482599],[18.2941412,40.0488916],[18.2951886,40.0492951],[18.2951765,40.0495001],[18.2947349,40.0497438],[18.2946342,40.0499701],[18.2986659,40.0512397],[18.2998876,40.0519137],[18.2990906,40.053568],[18.2994381,40.053664],[18.2990327,40.0545137],[18.2992933,40.0546466],[18.2986659,40.0558435],[18.2992528,40.056121],[18.3007483,40.0565569],[18.3009053,40.0562121],[18.3015468,40.0564002],[18.3016902,40.0561547],[18.3023181,40.0563793],[18.3021816,40.0565726],[18.3024205,40.0566457],[18.3027344,40.0565308],[18.3029392,40.0566823],[18.3029187,40.0568443],[18.3031232,40.0572446],[18.3030037,40.0573889],[18.3045137,40.0584499],[18.3041633,40.0590175],[18.3041993,40.0593735],[18.3066867,40.0608738],[18.3059347,40.0620264],[18.3080465,40.0629246],[18.3074458,40.063978],[18.3097013,40.0646962],[18.3095427,40.0648958],[18.310042,40.0650656],[18.3101853,40.0648321],[18.3107262,40.0652213],[18.3113642,40.0653734],[18.3127004,40.0663217],[18.3149519,40.0683703],[18.3155437,40.0687241],[18.3150998,40.069131],[18.3146421,40.0693998],[18.3145913,40.0693503],[18.313944,40.0697466],[18.3139394,40.0698209],[18.3132954,40.0696303],[18.3117598,40.0721024],[18.3123367,40.072399],[18.3123528,40.0726426],[18.3122073,40.0730105],[18.3133892,40.0735468],[18.3136203,40.073274],[18.3140824,40.0735771],[18.3143085,40.0733353],[18.3179211,40.0769967],[18.3176023,40.077364],[18.3191987,40.0781283],[18.3194146,40.0781105],[18.3199188,40.0783787],[18.3226304,40.0790425],[18.3232575,40.0790664],[18.3241714,40.0789773],[18.3248069,40.080329],[18.3253744,40.0804992],[18.3257856,40.0799804],[18.3263303,40.0794726],[18.3262329,40.0793263],[18.3264024,40.078973],[18.3266693,40.0788764],[18.3273402,40.0791441],[18.3278344,40.0786142],[18.3288441,40.0767957],[18.3277529,40.0767091],[18.3279072,40.0763807],[18.3278766,40.0762558],[18.328612,40.0751607],[18.3293916,40.0750516],[18.329412,40.0747042],[18.329486,40.0746203],[18.3297487,40.0747472],[18.3300165,40.074716],[18.3304144,40.0748643],[18.3306057,40.0751082],[18.3312238,40.0753441],[18.3314448,40.0744896],[18.3315247,40.07333],[18.333751,40.0750251],[18.3350257,40.0737737],[18.3361801,40.0721185],[18.3378634,40.0700887],[18.3379823,40.0697529],[18.3377694,40.0691567],[18.3379787,40.0688586],[18.3379029,40.0686598],[18.3382564,40.068036],[18.3386495,40.0682072],[18.3407566,40.0680672],[18.3404873,40.0671785],[18.3400381,40.0665476],[18.3383738,40.0628897],[18.3368945,40.0617745],[18.3367067,40.0615032],[18.3352404,40.0628234],[18.3342239,40.0621647],[18.3338303,40.0622211],[18.3331089,40.0625551],[18.3325501,40.0626612],[18.3321014,40.0629462],[18.3318234,40.0633522],[18.3314383,40.0635415],[18.3310154,40.0632272],[18.330416,40.0630106],[18.3303296,40.0630814],[18.3298294,40.0628475],[18.3298881,40.0626797],[18.3289465,40.0622993],[18.3282549,40.0621717],[18.3276554,40.0617985],[18.3272456,40.0614065],[18.3269808,40.0616481],[18.326541,40.0613542],[18.3271429,40.0606351],[18.3262907,40.0599454],[18.3265821,40.0596619],[18.326288,40.0594536],[18.3251858,40.059104],[18.325081,40.0592209],[18.3247099,40.0589235],[18.3247566,40.0588119],[18.3241366,40.0584543],[18.3237916,40.05806],[18.3234336,40.0578194],[18.3208314,40.0569305],[18.3200862,40.0568516],[18.3189434,40.0562674],[18.3161504,40.0552305],[18.3143213,40.0547919],[18.3146193,40.0535596],[18.3144771,40.0535054],[18.3153886,40.0511015],[18.313338,40.0505822],[18.3129431,40.0512068],[18.3125521,40.0520527],[18.311948,40.0510131],[18.311026,40.049669],[18.3094594,40.049362],[18.3073477,40.0481802],[18.3069585,40.0478466],[18.3061471,40.047546],[18.3061528,40.0457287],[18.3045821,40.0451756],[18.3046293,40.0448336],[18.3045443,40.0446804],[18.3045444,40.0443131],[18.3043321,40.0439323],[18.3043546,40.043441],[18.3041795,40.042674],[18.3044099,40.0421846],[18.3044714,40.0414435],[18.304761,40.0410418],[18.3048065,40.0406195],[18.3051773,40.0394896],[18.3056053,40.0373138],[18.305049,40.0369392],[18.3039718,40.0364928],[18.3017965,40.03585],[18.3011573,40.0355535],[18.2999637,40.0351714],[18.2969823,40.0346357],[18.2945267,40.0339901],[18.2914245,40.0329028],[18.2894395,40.0319478],[18.2879221,40.0314715],[18.2856649,40.0347754],[18.2851255,40.035772],[18.283229,40.0350444],[18.2837419,40.0343985],[18.2826738,40.0340151],[18.2804683,40.0328909],[18.2802943,40.0330673],[18.2794339,40.0326289],[18.2791648,40.0327738],[18.2791401,40.0328826],[18.2793439,40.0332797],[18.2789672,40.0331426],[18.2775599,40.0341791],[18.2774264,40.0343606],[18.2772257,40.0344315],[18.2771999,40.0349233],[18.2777618,40.035279],[18.2795207,40.0355566],[18.2795646,40.0360559],[18.2793666,40.0362835],[18.2793797,40.0363603],[18.2784017,40.0359525],[18.2784323,40.0361598],[18.2778909,40.0367314],[18.2779084,40.036942],[18.2774936,40.0368751],[18.2773102,40.0372729],[18.2771807,40.0373697],[18.2782897,40.0378042],[18.2778603,40.0381033],[18.2776944,40.0383641],[18.2779695,40.0385111],[18.2778909,40.038695],[18.2780001,40.0388287],[18.2777861,40.0390694],[18.2778385,40.0390961],[18.2773889,40.0401996],[18.2771487,40.0400057],[18.2769741,40.0401495],[18.2771487,40.0402698],[18.2769086,40.0406475],[18.2763978,40.0404871],[18.2761751,40.0411021],[18.2761009,40.0411155],[18.2759468,40.0419838],[18.2742934,40.0415946],[18.2725182,40.0413064],[18.2730318,40.0402437],[18.2676194,40.0387814],[18.2640775,40.0469458],[18.2680479,40.0464032],[18.268168,40.0467959]]]},"properties":{"type":"boundary","gemeente":"Botrugno"}}]}