{"type":"FeatureCollection","metadata":{"gemeente":"Boville Ernica","slug":"boville-ernica","generated_at":"2026-09-26T13:09:38.510070Z","total_points":25,"providers":["PosteItaliane","DPD","InPost","GLS","DHL","Amazon"],"bounds":[13.44404,41.621355,13.47372,41.6612819]},"features":[{"type":"Feature","geometry":{"type":"Point","coordinates":[13.47065436,41.64413777]},"properties":{"type":"pakketpunt","locatieNaam":"Boville Ernica","straatNaam":"Piazza San Nicola","straatNr":"1","vervoerder":"PosteItaliane","puntType":"postkantoor","bezettingsgraad":50,"latitude":41.64413777,"longitude":13.47065436,"canPickup":true,"canDropoff":true,"openingstijden":{"za":"08:20 - 12:35","zo":"gesloten","ma":"08:20 - 13:35","di":"08:20 - 13:35","wo":"08:20 - 13:35","do":"08:20 - 13:35","vr":"08:20 - 13:35"}}},{"type":"Feature","geometry":{"type":"Point","coordinates":[13.46563079,41.62153223]},"properties":{"type":"pakketpunt","locatieNaam":"Scrima","straatNaam":"Via Scrima","straatNr":"126","vervoerder":"PosteItaliane","puntType":"postkantoor","bezettingsgraad":50,"latitude":41.62153223,"longitude":13.46563079,"canPickup":true,"canDropoff":true,"openingstijden":{"za":"08:20 - 12:45","zo":"gesloten","ma":"08:20 - 13:45","di":"08:20 - 13:45","wo":"08:20 - 13:45","do":"08:20 - 13:45","vr":"08:20 - 13:45"}}},{"type":"Feature","geometry":{"type":"Point","coordinates":[13.46259913,41.62365641]},"properties":{"type":"pakketpunt","locatieNaam":"Tabaccheria N. 22","straatNaam":"Via Scrima","straatNr":"70","vervoerder":"PosteItaliane","puntType":"servicepunt","bezettingsgraad":50,"latitude":41.62365641,"longitude":13.46259913,"canPickup":true,"canDropoff":true,"openingstijden":{"za":"08:00 - 13:00, 15:00 - 20:00","zo":"gesloten","ma":"08:00 - 13:00, 15:00 - 20:00","di":"08:00 - 13:00, 15:00 - 20:00","wo":"08:00 - 13:00, 15:00 - 20:00","do":"08:00 - 13:00, 15:00 - 20:00","vr":"08:00 - 13:00, 15:00 - 20:00"}}},{"type":"Feature","geometry":{"type":"Point","coordinates":[13.44404043,41.65353128]},"properties":{"type":"pakketpunt","locatieNaam":"Tabaccheria N. 16","straatNaam":"Via Casavitola Snc","straatNr":"2","vervoerder":"PosteItaliane","puntType":"servicepunt","bezettingsgraad":50,"latitude":41.65353128,"longitude":13.44404043,"canPickup":true,"canDropoff":true,"openingstijden":{"za":"04:30 - 23:00","zo":"07:00 - 23:00","ma":"04:30 - 23:00","di":"04:30 - 23:00","wo":"04:30 - 23:00","do":"04:30 - 23:00","vr":"04:30 - 23:00"}}},{"type":"Feature","geometry":{"type":"Point","coordinates":[13.47371963,41.64975143]},"properties":{"type":"pakketpunt","locatieNaam":"Tabaccheria N. 21","straatNaam":"Via Sant'elisabetta","straatNr":"1/a","vervoerder":"PosteItaliane","puntType":"servicepunt","bezettingsgraad":50,"latitude":41.64975143,"longitude":13.47371963,"canPickup":true,"canDropoff":true,"openingstijden":{"za":"06:30 - 20:00","zo":"gesloten","ma":"06:30 - 20:00","di":"06:30 - 20:00","wo":"06:30 - 20:00","do":"06:30 - 20:00","vr":"06:30 - 20:00"}}},{"type":"Feature","geometry":{"type":"Point","coordinates":[13.44438996,41.63701599]},"properties":{"type":"pakketpunt","locatieNaam":"Tabaccheria N. 9","straatNaam":"Via Valle Paradiso","straatNr":"28","vervoerder":"PosteItaliane","puntType":"servicepunt","bezettingsgraad":50,"latitude":41.63701599,"longitude":13.44438996,"canPickup":true,"canDropoff":true,"openingstijden":{"za":"08:00 - 13:00, 16:00 - 20:00","zo":"08:00 - 13:00","ma":"08:00 - 13:00, 16:00 - 20:00","di":"08:00 - 13:00, 16:00 - 20:00","wo":"08:00 - 13:00, 16:00 - 20:00","do":"08:00 - 13:00, 16:00 - 20:00","vr":"08:00 - 13:00, 16:00 - 20:00"}}},{"type":"Feature","geometry":{"type":"Point","coordinates":[13.4636190951,41.6230336611]},"properties":{"type":"pakketpunt","locatieNaam":"Bar Dello Sport-Boville","straatNaam":"VIA SCRIMA","straatNr":"70","vervoerder":"DPD","puntType":"pickup_point","bezettingsgraad":50,"latitude":41.6230336611,"longitude":13.4636190951,"canPickup":true,"canDropoff":true,"openingstijden":{"ma":"05:30 - 23:45","di":"05:30 - 23:45","wo":"05:30 - 23:45","do":"05:30 - 23:45","vr":"05:30 - 23:45","za":"05:30 - 23:45","zo":"05:30 - 23:45"}}},{"type":"Feature","geometry":{"type":"Point","coordinates":[13.47332872,41.64787283]},"properties":{"type":"pakketpunt","locatieNaam":"Bar 21 - Tabaccheria 21","straatNaam":"VIA SANTA ELISABETTA","straatNr":"1A","vervoerder":"DPD","puntType":"pickup_point","bezettingsgraad":50,"latitude":41.64787283,"longitude":13.47332872,"canPickup":true,"canDropoff":true,"openingstijden":{"ma":"06:30 - 20:00","di":"06:30 - 20:00","wo":"06:30 - 20:00","do":"06:30 - 20:00","vr":"06:30 - 20:00","za":"06:30 - 20:00","zo":"06:30 - 13:00"}}},{"type":"Feature","geometry":{"type":"Point","coordinates":[13.47335,41.64786]},"properties":{"type":"pakketpunt","locatieNaam":"InPost Point","straatNaam":"Via Santa Elisabetta","straatNr":"1a","vervoerder":"InPost","puntType":"servicepunt","bezettingsgraad":50,"latitude":41.64786,"longitude":13.47335,"canPickup":true,"canDropoff":true,"openingstijden":"Lun-Ven: 06:30 - 20:00 Sab: 06:00 - 20:00"}},{"type":"Feature","geometry":{"type":"Point","coordinates":[13.44451,41.6529]},"properties":{"type":"pakketpunt","locatieNaam":"InPost Point","straatNaam":"Via Casavitola, 25, Boville Ernica, FR, Italy","straatNr":"25","vervoerder":"InPost","puntType":"servicepunt","bezettingsgraad":50,"latitude":41.6529,"longitude":13.44451,"canPickup":true,"canDropoff":true,"openingstijden":"Lun–Sab 08:00-13:00, 16:00-20:00"}},{"type":"Feature","geometry":{"type":"Point","coordinates":[13.4733528,41.6478593]},"properties":{"type":"pakketpunt","locatieNaam":"Tabaccheria 21","straatNaam":"Via Santa Elisabetta","straatNr":"1A","vervoerder":"GLS","puntType":"parcel_shop","bezettingsgraad":50,"latitude":41.6478593,"longitude":13.4733528,"canPickup":true,"canDropoff":true,"openingstijden":"za: 06:30 - 19:30; ma: 06:30 - 19:30"}},{"type":"Feature","geometry":{"type":"Point","coordinates":[13.4445123,41.6528956]},"properties":{"type":"pakketpunt","locatieNaam":"Cartolibreria Casavitola Diana Katia","straatNaam":"Via Casavitola","straatNr":"25","vervoerder":"GLS","puntType":"parcel_shop","bezettingsgraad":50,"latitude":41.6528956,"longitude":13.4445123,"canPickup":true,"canDropoff":true,"openingstijden":"za: 08:00 - 13:00, 16:00 - 20:00; ma: 08:00 - 13:00, 16:00 - 20:00"}},{"type":"Feature","geometry":{"type":"Point","coordinates":[13.44404,41.653531]},"properties":{"type":"pakketpunt","locatieNaam":"TABACCHERIA N. 16","straatNaam":"VIA CASAVITOLA SNC 2","straatNr":"","vervoerder":"DHL","puntType":"parcelShop","bezettingsgraad":50,"latitude":41.653531,"longitude":13.44404,"canPickup":true,"canDropoff":true,"openingstijden":{"ma":"04:30 - 23:00","di":"04:30 - 23:00","wo":"04:30 - 23:00","do":"04:30 - 23:00","vr":"04:30 - 23:00","za":"04:30 - 23:00","zo":"07:00 - 23:00"}}},{"type":"Feature","geometry":{"type":"Point","coordinates":[13.44439,41.637016]},"properties":{"type":"pakketpunt","locatieNaam":"TABACCHERIA N. 9","straatNaam":"VIA VALLE PARADISO 28","straatNr":"","vervoerder":"DHL","puntType":"parcelShop","bezettingsgraad":50,"latitude":41.637016,"longitude":13.44439,"canPickup":true,"canDropoff":true,"openingstijden":{"ma":"08:00 - 13:00, 16:00 - 20:00","di":"08:00 - 13:00, 16:00 - 20:00","wo":"08:00 - 13:00, 16:00 - 20:00","do":"08:00 - 13:00, 16:00 - 20:00","vr":"08:00 - 13:00, 16:00 - 20:00","za":"08:00 - 13:00, 16:00 - 20:00","zo":"08:00 - 13:00"}}},{"type":"Feature","geometry":{"type":"Point","coordinates":[13.470654,41.644138]},"properties":{"type":"pakketpunt","locatieNaam":"Ufficio Postale BOVILLE ERNICA","straatNaam":"PIAZZA SAN NICOLA 1","straatNr":"","vervoerder":"DHL","puntType":"postOffice","bezettingsgraad":50,"latitude":41.644138,"longitude":13.470654,"canPickup":true,"canDropoff":true,"openingstijden":{"ma":"08:20 - 13:35","di":"08:20 - 13:35","wo":"08:20 - 13:35","do":"08:20 - 13:35","vr":"08:20 - 13:35","za":"08:20 - 12:35","zo":"gesloten"}}},{"type":"Feature","geometry":{"type":"Point","coordinates":[13.473058,41.647743]},"properties":{"type":"pakketpunt","locatieNaam":"TABACCHERIA 21","straatNaam":"Via Santa Elisabetta 1/a","straatNr":"","vervoerder":"DHL","puntType":"parcelShop","bezettingsgraad":50,"latitude":41.647743,"longitude":13.473058,"canPickup":false,"canDropoff":true,"openingstijden":{"ma":"06:30 - 20:00","di":"06:30 - 20:00","wo":"06:30 - 20:00","do":"06:30 - 20:00","vr":"06:30 - 20:00","za":"06:30 - 20:00","zo":"gesloten"}}},{"type":"Feature","geometry":{"type":"Point","coordinates":[13.47372,41.649751]},"properties":{"type":"pakketpunt","locatieNaam":"TABACCHERIA N. 21","straatNaam":"VIA SANTELISABETTA 1-A","straatNr":"","vervoerder":"DHL","puntType":"parcelShop","bezettingsgraad":50,"latitude":41.649751,"longitude":13.47372,"canPickup":true,"canDropoff":true,"openingstijden":{"ma":"06:30 - 20:00","di":"06:30 - 20:00","wo":"06:30 - 20:00","do":"06:30 - 20:00","vr":"06:30 - 20:00","za":"06:30 - 20:00","zo":"gesloten"}}},{"type":"Feature","geometry":{"type":"Point","coordinates":[13.462599,41.623656]},"properties":{"type":"pakketpunt","locatieNaam":"TABACCHERIA N. 22","straatNaam":"VIA SCRIMA 70","straatNr":"","vervoerder":"DHL","puntType":"parcelShop","bezettingsgraad":50,"latitude":41.623656,"longitude":13.462599,"canPickup":true,"canDropoff":true,"openingstijden":{"ma":"08:00 - 13:00, 15:00 - 20:00","di":"08:00 - 13:00, 15:00 - 20:00","wo":"08:00 - 13:00, 15:00 - 20:00","do":"08:00 - 13:00, 15:00 - 20:00","vr":"08:00 - 13:00, 15:00 - 20:00","za":"08:00 - 13:00, 15:00 - 20:00","zo":"gesloten"}}},{"type":"Feature","geometry":{"type":"Point","coordinates":[13.465631,41.621532]},"properties":{"type":"pakketpunt","locatieNaam":"Ufficio Postale SCRIMA","straatNaam":"VIA SCRIMA 126","straatNr":"","vervoerder":"DHL","puntType":"postOffice","bezettingsgraad":50,"latitude":41.621532,"longitude":13.465631,"canPickup":true,"canDropoff":true,"openingstijden":{"ma":"08:20 - 13:45","di":"08:20 - 13:45","wo":"08:20 - 13:45","do":"08:20 - 13:45","vr":"08:20 - 13:45","za":"08:20 - 12:45","zo":"gesloten"}}},{"type":"Feature","geometry":{"type":"Point","coordinates":[13.465899,41.621355]},"properties":{"type":"pakketpunt","locatieNaam":"Amazon Locker - erasma","straatNaam":"Bar Scrima","straatNr":"","vervoerder":"Amazon","puntType":"locker","bezettingsgraad":50,"latitude":41.621355,"longitude":13.465899,"canPickup":true,"canDropoff":false,"openingstijden":null}},{"type":"Feature","geometry":{"type":"Point","coordinates":[13.463258,41.623098]},"properties":{"type":"pakketpunt","locatieNaam":"Amazon Counter (fermopoint)","straatNaam":"Bar Dello Sport-Boville","straatNr":"","vervoerder":"Amazon","puntType":"helix","bezettingsgraad":50,"latitude":41.623098,"longitude":13.463258,"canPickup":true,"canDropoff":false,"openingstijden":null}},{"type":"Feature","geometry":{"type":"Point","coordinates":[13.4656,41.6215]},"properties":{"type":"pakketpunt","locatieNaam":"Ufficio Postale SCRIMA","straatNaam":"VIA SCRIMA 126","straatNr":"","vervoerder":"Amazon","puntType":"3p","bezettingsgraad":50,"latitude":41.6215,"longitude":13.4656,"canPickup":true,"canDropoff":false,"openingstijden":null}},{"type":"Feature","geometry":{"type":"Point","coordinates":[13.4625,41.6236]},"properties":{"type":"pakketpunt","locatieNaam":"PuntoPoste TABACCHERIA N. 22","straatNaam":"VIA SCRIMA 70","straatNr":"","vervoerder":"Amazon","puntType":"3p","bezettingsgraad":50,"latitude":41.6236,"longitude":13.4625,"canPickup":true,"canDropoff":false,"openingstijden":null}},{"type":"Feature","geometry":{"type":"Point","coordinates":[13.4625526,41.6612819]},"properties":{"type":"pakketpunt","locatieNaam":"Amazon Counter - PRIMAEDICOLA","straatNaam":"MIZZONI DANIELE E SABRINA SNC","straatNr":"","vervoerder":"Amazon","puntType":"helix","bezettingsgraad":50,"latitude":41.6612819,"longitude":13.4625526,"canPickup":true,"canDropoff":false,"openingstijden":null}},{"type":"Feature","geometry":{"type":"Point","coordinates":[13.4737,41.6497]},"properties":{"type":"pakketpunt","locatieNaam":"PuntoPoste TABACCHERIA N. 21","straatNaam":"VIA SANT'ELISABETTA 1/A","straatNr":"","vervoerder":"Amazon","puntType":"3p","bezettingsgraad":50,"latitude":41.6497,"longitude":13.4737,"canPickup":true,"canDropoff":false,"openingstijden":null}},{"type":"Feature","geometry":{"type":"Polygon","coordinates":[[[13.4299304,41.6363511],[13.430008,41.6370999],[13.4302094,41.6376561],[13.4301311,41.637964],[13.4297258,41.6383443],[13.4295367,41.639207],[13.4288339,41.6399725],[13.4287181,41.6403538],[13.4289688,41.6408587],[13.430544,41.6427247],[13.4307499,41.6431444],[13.4309529,41.6436858],[13.4311199,41.6447419],[13.4314305,41.6457357],[13.4311964,41.6465729],[13.4333106,41.6484659],[13.4336142,41.6488008],[13.4339806,41.6495475],[13.4344365,41.6500566],[13.4350748,41.6504686],[13.4354146,41.6508156],[13.4359569,41.6522758],[13.4362587,41.6521696],[13.4381563,41.6522133],[13.4384253,41.6524595],[13.4388417,41.6531232],[13.4389955,41.6537025],[13.4395264,41.6545913],[13.4400382,41.6558915],[13.4401459,41.6567804],[13.4399607,41.6575755],[13.4401306,41.6581021],[13.4402295,41.6588095],[13.4404166,41.6590543],[13.4414957,41.6590756],[13.4422201,41.6594392],[13.4427744,41.6598499],[13.443208,41.6603059],[13.4433201,41.6606797],[13.4438218,41.661125],[13.4436769,41.6613578],[13.4437037,41.6616733],[13.4441254,41.6616074],[13.44458,41.6616483],[13.4452152,41.6617948],[13.4460831,41.6621483],[13.4477195,41.6630258],[13.4488375,41.6639594],[13.4492688,41.6645324],[13.4494473,41.6650746],[13.449432,41.6656695],[13.4492012,41.6663461],[13.4494374,41.667355],[13.4491658,41.6688181],[13.4494132,41.6689747],[13.4501554,41.6690945],[13.4528424,41.6692918],[13.4538117,41.6694388],[13.4562843,41.6700406],[13.4575524,41.6702209],[13.4584226,41.6705292],[13.4601442,41.6708855],[13.4614409,41.6713708],[13.4626475,41.6721792],[13.4639351,41.6735833],[13.4645966,41.6735665],[13.4658407,41.6727257],[13.4663144,41.6725542],[13.4666556,41.6723338],[13.4676593,41.6715339],[13.4700896,41.6698455],[13.471557,41.6692526],[13.4727317,41.6689187],[13.4756267,41.6673651],[13.4760293,41.6670343],[13.4766429,41.6669878],[13.4783429,41.6673672],[13.4786305,41.6673694],[13.4788402,41.6676224],[13.4797015,41.6677598],[13.4803871,41.667679],[13.4806313,41.6673903],[13.4814186,41.6673911],[13.4818193,41.6670558],[13.4824585,41.6669768],[13.4836057,41.6671886],[13.4844842,41.6671182],[13.48509,41.666937],[13.486303,41.6663583],[13.4871862,41.6661302],[13.488712,41.6655797],[13.4901142,41.6652502],[13.4911095,41.6648106],[13.4918805,41.6641997],[13.4920678,41.6638502],[13.4920715,41.6631928],[13.4927794,41.6627329],[13.4929821,41.6622702],[13.4929152,41.661557],[13.4930168,41.6613144],[13.4933713,41.6605532],[13.4938973,41.6601004],[13.4940249,41.6592716],[13.4940121,41.6587859],[13.4943391,41.6581698],[13.4942058,41.6576348],[13.494252,41.6572323],[13.4948633,41.6563125],[13.49518,41.6555707],[13.4948247,41.6548328],[13.4945,41.6543729],[13.4941521,41.653288],[13.4940205,41.6527349],[13.4940575,41.651671],[13.4935789,41.651091],[13.4934351,41.6505564],[13.4935187,41.6501074],[13.4934685,41.6496457],[13.4931916,41.6491388],[13.4928159,41.6487754],[13.4909455,41.6476331],[13.4907342,41.6474208],[13.4904672,41.6465173],[13.4904409,41.6460952],[13.4907226,41.6448281],[13.4912486,41.6444204],[13.4917347,41.6442032],[13.4920517,41.6439612],[13.4922151,41.6436577],[13.492084,41.6431001],[13.492097,41.6425323],[13.4927762,41.6422986],[13.4933502,41.6423212],[13.4936309,41.6421841],[13.4963044,41.6392296],[13.4966943,41.6389893],[13.4977856,41.6379966],[13.497688,41.6375322],[13.4972278,41.6372036],[13.4969467,41.636895],[13.4971123,41.6359881],[13.495973,41.634385],[13.4953407,41.633685],[13.4950869,41.6332402],[13.4950917,41.6325107],[13.4952429,41.6322257],[13.4955245,41.6319941],[13.4956278,41.6316794],[13.4955864,41.6313749],[13.4950872,41.6307011],[13.4940446,41.6300757],[13.4940611,41.6288685],[13.4943911,41.6280812],[13.4944986,41.6275683],[13.4941367,41.6266146],[13.494102,41.6260397],[13.4944629,41.6255033],[13.4949761,41.6250961],[13.4953415,41.6248836],[13.4967869,41.6246694],[13.4970418,41.6245289],[13.4972172,41.6242249],[13.4974126,41.6230467],[13.4973926,41.6213367],[13.4974733,41.6204287],[13.4973744,41.6195457],[13.4965807,41.6185413],[13.4956596,41.6179022],[13.4941583,41.6163943],[13.4935143,41.615177],[13.4932347,41.6148233],[13.4925639,41.6142463],[13.4906447,41.6131959],[13.4897297,41.6128041],[13.4884053,41.6124462],[13.4875685,41.6123169],[13.4871719,41.6123504],[13.4863867,41.6125432],[13.4860587,41.6127226],[13.4855769,41.6128044],[13.4847274,41.6126756],[13.4841967,41.6123001],[13.4842097,41.6117414],[13.483907,41.6113345],[13.4828021,41.6118909],[13.4816389,41.6113376],[13.4796946,41.6108193],[13.4782059,41.6093107],[13.4777193,41.6083168],[13.4771166,41.6078502],[13.4768356,41.6076967],[13.4764993,41.6077071],[13.4761864,41.608138],[13.475648,41.6078349],[13.47467,41.6070942],[13.4734793,41.6066724],[13.4727344,41.6062332],[13.4721374,41.6060899],[13.4709326,41.6070257],[13.4702392,41.6071994],[13.4691689,41.6072816],[13.4689811,41.607613],[13.4688973,41.608125],[13.4683452,41.6096502],[13.4679453,41.6103185],[13.4674275,41.6108879],[13.4664689,41.6115623],[13.4651543,41.6123445],[13.464428,41.6129045],[13.4638499,41.6134808],[13.4632767,41.6138677],[13.4628032,41.6140797],[13.4618816,41.6150025],[13.4612709,41.6154539],[13.4595904,41.6169644],[13.4593761,41.6173914],[13.4591042,41.6177216],[13.4581142,41.6185029],[13.455714,41.6197496],[13.455574,41.6202943],[13.4536446,41.619667],[13.4521437,41.6189554],[13.450616,41.6188346],[13.449708,41.6186402],[13.4480444,41.6184841],[13.4473558,41.6186458],[13.4470418,41.6192163],[13.4467926,41.6200948],[13.4456235,41.6218284],[13.4453006,41.6222371],[13.4443874,41.6227857],[13.4440546,41.6231587],[13.4435349,41.6243043],[13.4426114,41.6256637],[13.4422307,41.6270966],[13.4413589,41.6289041],[13.4410444,41.6295105],[13.4404744,41.6302529],[13.4383429,41.630529],[13.4370504,41.6308986],[13.4356549,41.6310246],[13.4354089,41.6312097],[13.4352032,41.6317759],[13.4346909,41.6326061],[13.4344395,41.6335657],[13.4341317,41.6343699],[13.4338486,41.635655],[13.4333765,41.636317],[13.4331078,41.636512],[13.4325167,41.6366203],[13.4306629,41.6363228],[13.4299304,41.6363511]]]},"properties":{"type":"boundary","gemeente":"Boville Ernica"}}]}