{"type":"FeatureCollection","metadata":{"gemeente":"Brebì/Belvì","slug":"brebi-belvi","generated_at":"2026-09-26T13:09:38.702937Z","total_points":4,"providers":["PosteItaliane","DHL"],"bounds":[9.18430665,39.96386166,9.184347,39.964077]},"features":[{"type":"Feature","geometry":{"type":"Point","coordinates":[9.18430665,39.96386166]},"properties":{"type":"pakketpunt","locatieNaam":"Tabaccheria N. 1","straatNaam":"Viale Quattro Novembre","straatNr":"58","vervoerder":"PosteItaliane","puntType":"servicepunt","bezettingsgraad":50,"latitude":39.96386166,"longitude":9.18430665,"canPickup":true,"canDropoff":true,"openingstijden":{"za":"06:00 - 23:30","zo":"06:00 - 23:30","ma":"06:00 - 23:30","di":"06:00 - 23:30","wo":"06:00 - 23:30","do":"06:00 - 23:30","vr":"06:00 - 23:30"}}},{"type":"Feature","geometry":{"type":"Point","coordinates":[9.18434665,39.96407669]},"properties":{"type":"pakketpunt","locatieNaam":"Belvi","straatNaam":"Viale Quattro Novembre","straatNr":"64","vervoerder":"PosteItaliane","puntType":"postkantoor","bezettingsgraad":50,"latitude":39.96407669,"longitude":9.18434665,"canPickup":true,"canDropoff":true,"openingstijden":{"za":"08:20 - 12:45","zo":"gesloten","ma":"gesloten","di":"08:20 - 13:45","wo":"08:20 - 13:45","do":"08:20 - 13:45","vr":"08:20 - 13:45"}}},{"type":"Feature","geometry":{"type":"Point","coordinates":[9.184307,39.963862]},"properties":{"type":"pakketpunt","locatieNaam":"TABACCHERIA N. 1","straatNaam":"VIALE QUATTRO NOVEMBRE 58","straatNr":"","vervoerder":"DHL","puntType":"parcelShop","bezettingsgraad":50,"latitude":39.963862,"longitude":9.184307,"canPickup":true,"canDropoff":true,"openingstijden":{"ma":"06:00 - 23:30","di":"06:00 - 23:30","wo":"06:00 - 23:30","do":"06:00 - 23:30","vr":"06:00 - 23:30","za":"06:00 - 23:30","zo":"06:00 - 23:30"}}},{"type":"Feature","geometry":{"type":"Point","coordinates":[9.184347,39.964077]},"properties":{"type":"pakketpunt","locatieNaam":"Ufficio Postale BELVI","straatNaam":"VIALE QUATTRO NOVEMBRE 64","straatNr":"","vervoerder":"DHL","puntType":"postOffice","bezettingsgraad":50,"latitude":39.964077,"longitude":9.184347,"canPickup":true,"canDropoff":true,"openingstijden":{"ma":"08:20 - 13:45","di":"08:20 - 13:45","wo":"08:20 - 13:45","do":"08:20 - 13:45","vr":"08:20 - 13:45","za":"08:20 - 12:45","zo":"gesloten"}}},{"type":"Feature","geometry":{"type":"Polygon","coordinates":[[[9.104221,39.9653233],[9.1051335,39.9648449],[9.1058007,39.9646551],[9.1063743,39.9646096],[9.1072176,39.9647529],[9.1082838,39.9651934],[9.1100535,39.9662279],[9.1111668,39.9667854],[9.1127367,39.9672975],[9.1131823,39.9676754],[9.1139205,39.9680081],[9.1143305,39.9680707],[9.1148222,39.9680432],[9.1182751,39.9672199],[9.1194693,39.9671015],[9.1203593,39.9671276],[9.1233577,39.967593],[9.1246808,39.9675555],[9.1278191,39.9676602],[9.1259254,39.9693832],[9.1253995,39.9699874],[9.1253182,39.9703389],[9.1322532,39.9717187],[9.1323594,39.97216],[9.1318929,39.9731696],[9.1318483,39.9743139],[9.1314741,39.9746207],[9.1306097,39.9757389],[9.1313019,39.9764318],[9.1318175,39.9765844],[9.1321688,39.976539],[9.1335861,39.9766905],[9.1345229,39.9766534],[9.1361152,39.9764443],[9.1366071,39.9764798],[9.1380486,39.9770186],[9.1434269,39.9783636],[9.1482657,39.9793305],[9.1491673,39.9792213],[9.1503138,39.9786792],[9.1510506,39.9782187],[9.151533,39.9792092],[9.152476,39.9819649],[9.1525354,39.9823613],[9.1524198,39.9830191],[9.1525273,39.983965],[9.1518295,39.9862184],[9.1517488,39.9867591],[9.1530496,39.9870727],[9.1541633,39.9875217],[9.154609,39.9878004],[9.1558881,39.9888619],[9.1566631,39.9897077],[9.1575431,39.9903372],[9.1581412,39.9906517],[9.1583293,39.9909578],[9.1582147,39.9920391],[9.1584846,39.992264],[9.1614924,39.9911426],[9.1626919,39.9882038],[9.1629489,39.9879331],[9.1637329,39.9875987],[9.1647034,39.9869036],[9.1650884,39.9862633],[9.1655571,39.9848476],[9.1658104,39.9845414],[9.1666896,39.9848555],[9.1670527,39.984882],[9.1680246,39.9847545],[9.1698503,39.9842022],[9.170741,39.9844171],[9.1719017,39.9848659],[9.1742939,39.9860246],[9.1758176,39.9864367],[9.1764033,39.9864449],[9.1777727,39.9860824],[9.1786859,39.9859368],[9.1797037,39.9854577],[9.1801023,39.9855923],[9.1804894,39.9858439],[9.1808762,39.9859514],[9.1821529,39.9859404],[9.1834893,39.9863708],[9.1858438,39.9864752],[9.1861481,39.9864026],[9.1881355,39.9850029],[9.1892818,39.9844784],[9.190182,39.9838553],[9.1904972,39.9835124],[9.1909855,39.9821962],[9.1912887,39.9817362],[9.1918986,39.9820505],[9.1926841,39.9823285],[9.1951324,39.9825226],[9.1954129,39.9822879],[9.1957625,39.9816747],[9.196382,39.9812411],[9.1971311,39.9811047],[9.1977284,39.9810947],[9.1989593,39.98148],[9.1993456,39.9814253],[9.199591,39.9812267],[9.2007604,39.980648],[9.2011811,39.9803139],[9.200489,39.9799547],[9.199773,39.9793974],[9.1991515,39.9791101],[9.1971709,39.978627],[9.1952497,39.978459],[9.19306,39.9785708],[9.1924861,39.9785357],[9.1920639,39.9783382],[9.191525,39.9782761],[9.1909162,39.9783401],[9.1898615,39.9780806],[9.1891473,39.9781718],[9.1887373,39.9781365],[9.1879286,39.9778855],[9.1869688,39.9780763],[9.1864532,39.977987],[9.1865207,39.9769598],[9.186105,39.9748251],[9.1863372,39.974095],[9.187472,39.9736787],[9.1874829,39.9733724],[9.1873067,39.9731564],[9.1873527,39.972859],[9.1881463,39.9718666],[9.1884853,39.9716679],[9.1886955,39.9714423],[9.1890197,39.9701173],[9.1889594,39.9694687],[9.1890052,39.9690812],[9.1895422,39.9685127],[9.1905714,39.9680335],[9.1906524,39.9677],[9.1901103,39.9664396],[9.1897575,39.9659176],[9.1894064,39.9659722],[9.188882,39.966865],[9.188076,39.9676051],[9.1876201,39.9678672],[9.1871867,39.9678228],[9.1871858,39.9674985],[9.187419,39.9671377],[9.187476,39.966543],[9.1871465,39.9659669],[9.187251,39.9656424],[9.1872035,39.9653902],[9.1868036,39.9647331],[9.1867082,39.9640936],[9.1867178,39.9633187],[9.1876141,39.9613982],[9.1880813,39.960992],[9.1889696,39.9604229],[9.188301,39.9599645],[9.1881598,39.9597034],[9.1881114,39.9591449],[9.1876642,39.9582897],[9.1874528,39.9580648],[9.1867612,39.9577506],[9.1861754,39.9575894],[9.1845237,39.9572676],[9.184242,39.9569978],[9.1834107,39.9569901],[9.1825115,39.9567347],[9.1821004,39.9564966],[9.1812531,39.9556961],[9.1809485,39.9556245],[9.1797003,39.9573383],[9.1790815,39.9579879],[9.1787186,39.9579975],[9.1778601,39.9565393],[9.1775786,39.9563325],[9.1770983,39.9562161],[9.1756586,39.9563534],[9.1750261,39.9562462],[9.1730109,39.9556546],[9.1708441,39.9552614],[9.1697551,39.9551819],[9.1687484,39.9552374],[9.167392,39.9559242],[9.1667019,39.9561774],[9.1662919,39.9560609],[9.1651325,39.9559454],[9.1614334,39.9561308],[9.1606486,39.9559517],[9.1600507,39.9556192],[9.158375,39.9549457],[9.1574261,39.9546677],[9.1557983,39.9544537],[9.1543224,39.9541223],[9.1526237,39.953575],[9.1514167,39.953045],[9.1493083,39.9525432],[9.147868,39.9523648],[9.1472241,39.9523746],[9.1464985,39.9524837],[9.144779,39.9531255],[9.1414075,39.9532198],[9.1403194,39.9535094],[9.1368898,39.9538199],[9.1359057,39.9534426],[9.1353432,39.953164],[9.1349445,39.9528581],[9.134429,39.9526334],[9.1336444,39.9525262],[9.1331406,39.9523196],[9.1330242,39.9526531],[9.1326502,39.9529508],[9.1321118,39.9530415],[9.1309287,39.9526555],[9.1305424,39.9526649],[9.1301913,39.9527644],[9.129724,39.9532875],[9.1293259,39.9532069],[9.1286235,39.9532527],[9.1268801,39.9537682],[9.1266112,39.9539757],[9.126495,39.9544083],[9.1256528,39.9548327],[9.1250442,39.9549054],[9.125268,39.95568],[9.1244724,39.9559512],[9.1246837,39.9562753],[9.1248015,39.9566716],[9.1245679,39.9569782],[9.124864,39.9588519],[9.1245255,39.9594018],[9.124011,39.9597718],[9.1233788,39.9597995],[9.1231558,39.9594664],[9.1232714,39.9586734],[9.1230717,39.9582862],[9.1221707,39.9585574],[9.121597,39.958567],[9.1216433,39.9582877],[9.1213966,39.9578014],[9.1209515,39.9577028],[9.1202379,39.9580008],[9.1200159,39.9582894],[9.1198644,39.9586589],[9.1195955,39.9589025],[9.1186,39.9587323],[9.11764,39.9587153],[9.117019,39.9584817],[9.1165742,39.9585362],[9.116645,39.9588334],[9.1162938,39.9588878],[9.1156387,39.9592038],[9.1149488,39.959691],[9.1148897,39.9593577],[9.114737,39.9590606],[9.1143854,39.9588447],[9.1139874,39.9589352],[9.1134729,39.9592871],[9.1126199,39.960315],[9.1122222,39.9605496],[9.1119297,39.960667],[9.1114145,39.9606946],[9.1110869,39.960803],[9.1109702,39.9610554],[9.109367,39.9615525],[9.1095664,39.9618226],[9.1094148,39.9622011],[9.1082091,39.9623374],[9.1076245,39.9628785],[9.1057044,39.9629524],[9.1054471,39.9631688],[9.1051786,39.9637007],[9.104536,39.9646292],[9.104221,39.9653233]]]},"properties":{"type":"boundary","gemeente":"Brebì/Belvì"}}]}