{"type":"FeatureCollection","metadata":{"gemeente":"Bressanvido","slug":"bressanvido","generated_at":"2026-09-26T13:09:38.908474Z","total_points":3,"providers":["PosteItaliane","DHL","Amazon"],"bounds":[11.6322,45.6448,11.63222926,45.64482235]},"features":[{"type":"Feature","geometry":{"type":"Point","coordinates":[11.63222926,45.64482235]},"properties":{"type":"pakketpunt","locatieNaam":"Bressanvido","straatNaam":"Via Roma","straatNr":"44","vervoerder":"PosteItaliane","puntType":"postkantoor","bezettingsgraad":50,"latitude":45.64482235,"longitude":11.63222926,"canPickup":true,"canDropoff":true,"openingstijden":{"za":"08:20 - 12:45","zo":"gesloten","ma":"08:20 - 13:45","di":"08:20 - 13:45","wo":"08:20 - 13:45","do":"08:20 - 13:45","vr":"08:20 - 13:45"}}},{"type":"Feature","geometry":{"type":"Point","coordinates":[11.632229,45.644822]},"properties":{"type":"pakketpunt","locatieNaam":"Ufficio Postale BRESSANVIDO","straatNaam":"VIA ROMA 44","straatNr":"","vervoerder":"DHL","puntType":"postOffice","bezettingsgraad":50,"latitude":45.644822,"longitude":11.632229,"canPickup":true,"canDropoff":true,"openingstijden":{"ma":"08:20 - 13:45","di":"08:20 - 13:45","wo":"08:20 - 13:45","do":"08:20 - 13:45","vr":"08:20 - 13:45","za":"08:20 - 12:45","zo":"gesloten"}}},{"type":"Feature","geometry":{"type":"Point","coordinates":[11.6322,45.6448]},"properties":{"type":"pakketpunt","locatieNaam":"Ufficio Postale BRESSANVIDO","straatNaam":"VIA ROMA 44","straatNr":"","vervoerder":"Amazon","puntType":"3p","bezettingsgraad":50,"latitude":45.6448,"longitude":11.6322,"canPickup":true,"canDropoff":false,"openingstijden":null}},{"type":"Feature","geometry":{"type":"Polygon","coordinates":[[[11.6206896,45.6207223],[11.6175654,45.6208436],[11.6175566,45.6213648],[11.6176093,45.6232912],[11.6185458,45.6240361],[11.6188122,45.6243439],[11.6190937,45.62503],[11.6195247,45.6257489],[11.619775,45.6266467],[11.6197535,45.6273825],[11.6194694,45.6279518],[11.6189931,45.6283495],[11.6182408,45.6286584],[11.6194755,45.6295118],[11.6198476,45.6299814],[11.6195927,45.6303227],[11.6192503,45.630547],[11.6191361,45.6310588],[11.6191769,45.6312312],[11.6189808,45.6313294],[11.6178258,45.631102],[11.6171269,45.6312659],[11.6166319,45.6310741],[11.6162946,45.6312838],[11.6163157,45.6315336],[11.6166138,45.6322277],[11.6166188,45.6325145],[11.6174911,45.6329666],[11.6178322,45.6369337],[11.6182198,45.6370918],[11.6202229,45.6368326],[11.6207611,45.6374729],[11.6221665,45.6395079],[11.6225104,45.6401224],[11.6232715,45.6411141],[11.6232338,45.6413547],[11.6222903,45.6416489],[11.6223576,45.6430884],[11.6224953,45.6433864],[11.6224939,45.6439374],[11.6226659,45.6446281],[11.6208154,45.6452743],[11.6207797,45.6455607],[11.6216031,45.6468675],[11.6222735,45.6477093],[11.6225596,45.6483517],[11.6229417,45.6488145],[11.6229785,45.6491176],[11.6235481,45.6495591],[11.62398,45.6502951],[11.6241967,45.6510014],[11.624602,45.6513551],[11.6247227,45.6517465],[11.625043,45.6522584],[11.6255506,45.6528861],[11.626181,45.6534825],[11.6264792,45.65391],[11.6287627,45.6532235],[11.6306484,45.6516506],[11.6312134,45.6526486],[11.6324477,45.6523509],[11.6327903,45.6524071],[11.632783,45.6522458],[11.6331701,45.6520454],[11.6332157,45.6519102],[11.6351826,45.651519],[11.636882,45.6537341],[11.6374713,45.6535334],[11.6376037,45.6533002],[11.6376836,45.6532867],[11.6374455,45.6537758],[11.63712,45.6541819],[11.6371032,45.6543231],[11.6376869,45.6551282],[11.6381179,45.6555738],[11.6382949,45.655721],[11.638795,45.6558659],[11.6395183,45.6558806],[11.6405618,45.6557065],[11.6414984,45.6557999],[11.641863,45.6556845],[11.6433374,45.6556181],[11.6438643,45.655499],[11.6449097,45.6554294],[11.6452112,45.6552068],[11.6455928,45.6550675],[11.6459744,45.6550383],[11.6466832,45.6548135],[11.6488188,45.6543776],[11.6524143,45.6539857],[11.6525386,45.6539838],[11.6533822,45.6555783],[11.6554785,45.6554048],[11.6566007,45.6552197],[11.6591842,45.6551338],[11.6612648,45.6552282],[11.6623357,45.655128],[11.6616181,45.6541165],[11.6607806,45.6521271],[11.6598473,45.6504227],[11.657996,45.6478185],[11.6573448,45.6465381],[11.6561573,45.6433362],[11.6560876,45.6427468],[11.6562417,45.641306],[11.6562175,45.6403586],[11.6512114,45.6397493],[11.6512516,45.6395491],[11.6511473,45.6393682],[11.6511093,45.6388067],[11.6510094,45.6386443],[11.6511051,45.638438],[11.651047,45.6382799],[11.6511446,45.6380109],[11.6509952,45.6373483],[11.6507242,45.6370647],[11.649541,45.636236],[11.648942,45.6351533],[11.6481721,45.6348054],[11.6474088,45.6347146],[11.6469747,45.634479],[11.6468335,45.6342978],[11.646939,45.6341458],[11.6468138,45.6338547],[11.6469924,45.633332],[11.647049,45.6328201],[11.646834,45.6322466],[11.6464767,45.6320508],[11.6461667,45.6319931],[11.6461143,45.6318775],[11.6461531,45.6313566],[11.6463287,45.6311552],[11.6465493,45.6303258],[11.6464996,45.6300936],[11.6463474,45.6299651],[11.6463913,45.6298333],[11.6459539,45.6296036],[11.6461683,45.6292034],[11.6459918,45.6290632],[11.6459647,45.6288689],[11.6460837,45.6286765],[11.6460468,45.6283888],[11.645869,45.6282881],[11.6459487,45.6281798],[11.6458803,45.6280809],[11.6459561,45.6279241],[11.6459323,45.6277432],[11.6461788,45.6276025],[11.646769,45.6277483],[11.6467597,45.6274489],[11.6473397,45.626746],[11.6473169,45.6264729],[11.6476517,45.6264069],[11.6481217,45.6261838],[11.6481855,45.626045],[11.6481244,45.6253935],[11.6480461,45.6253231],[11.6480966,45.6251168],[11.6484025,45.6250522],[11.6487196,45.6247139],[11.6489653,45.62459],[11.6493023,45.623812],[11.6492777,45.6236051],[11.6494954,45.6233721],[11.6494665,45.623254],[11.6492389,45.6230622],[11.6493356,45.62283],[11.6492803,45.6225552],[11.6436728,45.6229032],[11.6436996,45.6233001],[11.6427864,45.623595],[11.6378609,45.6236518],[11.6377779,45.6237254],[11.6377748,45.6242109],[11.6354363,45.6245454],[11.6327591,45.6250647],[11.6323155,45.6245818],[11.6322407,45.6242593],[11.6315885,45.6239091],[11.6314592,45.6237129],[11.6305518,45.6239743],[11.6278689,45.6237927],[11.6225289,45.6240934],[11.6224889,45.6234019],[11.6233462,45.6212088],[11.6224972,45.6211811],[11.6225159,45.621435],[11.6207325,45.6212936],[11.6206896,45.6207223]]]},"properties":{"type":"boundary","gemeente":"Bressanvido"}}]}