{"type":"FeatureCollection","metadata":{"gemeente":"Brixen - Bressanone","slug":"brixen-bressanone","generated_at":"2026-09-26T14:27:00.193712Z","total_points":22,"providers":["PosteItaliane","DPD","GLS","DHL","Amazon","FedEx"],"bounds":[11.6501,46.7098171,11.6567801,46.7209573173]},"features":[{"type":"Feature","geometry":{"type":"Point","coordinates":[11.65480755,46.71397425]},"properties":{"type":"pakketpunt","locatieNaam":"Bressanone","straatNaam":"Via San Cassiano","straatNr":"4","vervoerder":"PosteItaliane","puntType":"postkantoor","bezettingsgraad":50,"latitude":46.71397425,"longitude":11.65480755,"canPickup":true,"canDropoff":true,"openingstijden":{"za":"08:20 - 12:35","zo":"gesloten","ma":"08:20 - 19:05","di":"08:20 - 19:05","wo":"08:20 - 19:05","do":"08:20 - 19:05","vr":"08:20 - 19:05"}}},{"type":"Feature","geometry":{"type":"Point","coordinates":[11.65480755,46.71397425]},"properties":{"type":"pakketpunt","locatieNaam":"Ufficio Postale Bressanone","straatNaam":"Via San Cassiano","straatNr":"4","vervoerder":"PosteItaliane","puntType":"automaat","bezettingsgraad":50,"latitude":46.71397425,"longitude":11.65480755,"canPickup":true,"canDropoff":true,"openingstijden":{"za":"08:20 - 12:35","zo":"gesloten","ma":"08:20 - 19:05","di":"08:20 - 19:05","wo":"08:20 - 19:05","do":"08:20 - 19:05","vr":"08:20 - 19:05"}}},{"type":"Feature","geometry":{"type":"Point","coordinates":[11.65662936,46.71987679]},"properties":{"type":"pakketpunt","locatieNaam":"Tabaccheria N. 31","straatNaam":"Piazza Priel","straatNr":"11","vervoerder":"PosteItaliane","puntType":"servicepunt","bezettingsgraad":50,"latitude":46.71987679,"longitude":11.65662936,"canPickup":true,"canDropoff":true,"openingstijden":{"za":"07:15 - 12:00","zo":"gesloten","ma":"07:15 - 12:00, 14:45 - 18:15","di":"07:15 - 12:00, 14:45 - 18:15","wo":"07:15 - 12:00, 14:45 - 18:15","do":"07:15 - 12:00, 14:45 - 18:15","vr":"07:15 - 12:00, 14:45 - 18:15"}}},{"type":"Feature","geometry":{"type":"Point","coordinates":[11.65012456,46.70997245]},"properties":{"type":"pakketpunt","locatieNaam":"Tabaccheria N. 1","straatNaam":"Piazzale Della Stazione","straatNr":"21","vervoerder":"PosteItaliane","puntType":"servicepunt","bezettingsgraad":50,"latitude":46.70997245,"longitude":11.65012456,"canPickup":true,"canDropoff":true,"openingstijden":{"za":"06:00 - 18:00","zo":"06:00 - 12:00","ma":"gesloten","di":"06:00 - 19:00","wo":"06:00 - 19:00","do":"06:00 - 19:00","vr":"06:00 - 19:00"}}},{"type":"Feature","geometry":{"type":"Point","coordinates":[11.6520549,46.71337276]},"properties":{"type":"pakketpunt","locatieNaam":"Tabaccheria N. 23","straatNaam":"Viale Stazione","straatNr":"26","vervoerder":"PosteItaliane","puntType":"servicepunt","bezettingsgraad":50,"latitude":46.71337276,"longitude":11.6520549,"canPickup":true,"canDropoff":true,"openingstijden":{"za":"06:00 - 12:30, 15:00 - 19:00","zo":"gesloten","ma":"06:00 - 12:30, 15:00 - 19:00","di":"06:00 - 12:30, 15:00 - 19:00","wo":"06:00 - 12:30, 15:00 - 19:00","do":"06:00 - 12:30, 15:00 - 19:00","vr":"06:00 - 12:30, 15:00 - 19:00"}}},{"type":"Feature","geometry":{"type":"Point","coordinates":[11.6567801,46.7196561]},"properties":{"type":"pakketpunt","locatieNaam":"Edicola Tabacchi Scanzano","straatNaam":"PIAZZA PRIEL","straatNr":"11","vervoerder":"DPD","puntType":"pickup_point","bezettingsgraad":50,"latitude":46.7196561,"longitude":11.6567801,"canPickup":true,"canDropoff":true,"openingstijden":{"ma":"07:30 - 12:30, 14:30 - 18:30","di":"07:30 - 12:30, 14:30 - 18:30","wo":"07:30 - 12:30, 14:30 - 18:30","do":"07:30 - 12:30, 14:30 - 18:30","vr":"07:30 - 12:30, 14:30 - 18:30","za":"07:30 - 12:30","zo":"gesloten"}}},{"type":"Feature","geometry":{"type":"Point","coordinates":[11.6509122,46.7100076]},"properties":{"type":"pakketpunt","locatieNaam":"Khalid Shop","straatNaam":"VIALE MOZART","straatNr":"2","vervoerder":"DPD","puntType":"pickup_point","bezettingsgraad":50,"latitude":46.7100076,"longitude":11.6509122,"canPickup":true,"canDropoff":true,"openingstijden":{"ma":"10:00 - 12:30, 14:00 - 19:00","di":"10:00 - 12:30, 14:00 - 19:00","wo":"10:00 - 12:30, 14:00 - 19:00","do":"10:00 - 12:30, 14:00 - 19:00","vr":"10:00 - 12:30, 14:00 - 19:00","za":"10:00 - 12:30, 14:00 - 19:00","zo":"gesloten"}}},{"type":"Feature","geometry":{"type":"Point","coordinates":[11.6550562386,46.7209573173]},"properties":{"type":"pakketpunt","locatieNaam":"GLS SHOP ENI STATION","straatNaam":"Via Peter Mayr","straatNr":"16","vervoerder":"GLS","puntType":"parcel_shop","bezettingsgraad":50,"latitude":46.7209573173,"longitude":11.6550562386,"canPickup":true,"canDropoff":true,"openingstijden":"za: 06:00 - 13:00; ma: 06:00 - 20:00"}},{"type":"Feature","geometry":{"type":"Point","coordinates":[11.6509122,46.7100076]},"properties":{"type":"pakketpunt","locatieNaam":"KHALID SHOP","straatNaam":"Viale Mozart","straatNr":"2","vervoerder":"GLS","puntType":"parcel_shop","bezettingsgraad":50,"latitude":46.7100076,"longitude":11.6509122,"canPickup":true,"canDropoff":true,"openingstijden":"za: 10:00 - 12:30, 14:00 - 19:00; ma: 10:00 - 12:30, 14:00 - 19:00"}},{"type":"Feature","geometry":{"type":"Point","coordinates":[11.650125,46.709972]},"properties":{"type":"pakketpunt","locatieNaam":"TABACCHERIA N. 1","straatNaam":"PIAZZALE DELLA STAZIONE 21","straatNr":"","vervoerder":"DHL","puntType":"parcelShop","bezettingsgraad":50,"latitude":46.709972,"longitude":11.650125,"canPickup":true,"canDropoff":true,"openingstijden":{"ma":"gesloten","di":"06:00 - 19:00","wo":"06:00 - 19:00","do":"06:00 - 19:00","vr":"06:00 - 19:00","za":"06:00 - 18:00","zo":"06:00 - 12:00"}}},{"type":"Feature","geometry":{"type":"Point","coordinates":[11.650833,46.710329]},"properties":{"type":"pakketpunt","locatieNaam":"VODAFONE STORE BRIXEN","straatNaam":"Viale Mozart 10","straatNr":"","vervoerder":"DHL","puntType":"parcelShop","bezettingsgraad":50,"latitude":46.710329,"longitude":11.650833,"canPickup":false,"canDropoff":true,"openingstijden":{"ma":"09:00 - 18:00","di":"09:00 - 18:00","wo":"09:00 - 18:00","do":"09:00 - 18:00","vr":"09:00 - 18:00","za":"09:00 - 12:00","zo":"gesloten"}}},{"type":"Feature","geometry":{"type":"Point","coordinates":[11.652055,46.713373]},"properties":{"type":"pakketpunt","locatieNaam":"TABACCHERIA n. 23","straatNaam":"VIALE STAZIONE 26","straatNr":"","vervoerder":"DHL","puntType":"parcelShop","bezettingsgraad":50,"latitude":46.713373,"longitude":11.652055,"canPickup":true,"canDropoff":true,"openingstijden":{"ma":"06:00 - 12:30, 15:00 - 19:00","di":"06:00 - 12:30, 15:00 - 19:00","wo":"06:00 - 12:30, 15:00 - 19:00","do":"06:00 - 12:30, 15:00 - 19:00","vr":"06:00 - 12:30, 15:00 - 19:00","za":"06:00 - 12:30, 15:00 - 19:00","zo":"gesloten"}}},{"type":"Feature","geometry":{"type":"Point","coordinates":[11.654808,46.713974]},"properties":{"type":"pakketpunt","locatieNaam":"UFFICIO POSTALE BRESSANONE","straatNaam":"VIA SAN CASSIANO 4","straatNr":"","vervoerder":"DHL","puntType":"packStation","bezettingsgraad":50,"latitude":46.713974,"longitude":11.654808,"canPickup":true,"canDropoff":true,"openingstijden":{"ma":"08:20 - 19:05","di":"08:20 - 19:05","wo":"08:20 - 19:05","do":"08:20 - 19:05","vr":"08:20 - 19:05","za":"08:20 - 12:35","zo":"gesloten"}}},{"type":"Feature","geometry":{"type":"Point","coordinates":[11.654808,46.713974]},"properties":{"type":"pakketpunt","locatieNaam":"Ufficio Postale BRESSANONE","straatNaam":"VIA SAN CASSIANO 4","straatNr":"","vervoerder":"DHL","puntType":"postOffice","bezettingsgraad":50,"latitude":46.713974,"longitude":11.654808,"canPickup":true,"canDropoff":true,"openingstijden":{"ma":"08:20 - 19:05","di":"08:20 - 19:05","wo":"08:20 - 19:05","do":"08:20 - 19:05","vr":"08:20 - 19:05","za":"08:20 - 12:35","zo":"gesloten"}}},{"type":"Feature","geometry":{"type":"Point","coordinates":[11.656629,46.719877]},"properties":{"type":"pakketpunt","locatieNaam":"TABACCHERIA N. 31","straatNaam":"PIAZZA PRIEL 11","straatNr":"","vervoerder":"DHL","puntType":"parcelShop","bezettingsgraad":50,"latitude":46.719877,"longitude":11.656629,"canPickup":true,"canDropoff":true,"openingstijden":{"ma":"07:15 - 12:00, 14:45 - 18:15","di":"07:15 - 12:00, 14:45 - 18:15","wo":"07:15 - 12:00, 14:45 - 18:15","do":"07:15 - 12:00, 14:45 - 18:15","vr":"07:15 - 12:00, 14:45 - 18:15","za":"07:15 - 12:00","zo":"gesloten"}}},{"type":"Feature","geometry":{"type":"Point","coordinates":[11.6566,46.7198]},"properties":{"type":"pakketpunt","locatieNaam":"PuntoPoste TABACCHERIA N. 31","straatNaam":"PIAZZA PRIEL 11","straatNr":"","vervoerder":"Amazon","puntType":"3p","bezettingsgraad":50,"latitude":46.7198,"longitude":11.6566,"canPickup":true,"canDropoff":false,"openingstijden":null}},{"type":"Feature","geometry":{"type":"Point","coordinates":[11.6516317,46.7098171]},"properties":{"type":"pakketpunt","locatieNaam":"Amazon Counter","straatNaam":"Khalid Shop (fermopoint)","straatNr":"","vervoerder":"Amazon","puntType":"helix","bezettingsgraad":50,"latitude":46.7098171,"longitude":11.6516317,"canPickup":true,"canDropoff":false,"openingstijden":null}},{"type":"Feature","geometry":{"type":"Point","coordinates":[11.652,46.7133]},"properties":{"type":"pakketpunt","locatieNaam":"PuntoPoste TABACCHERIA n. 23","straatNaam":"VIALE STAZIONE 26","straatNr":"","vervoerder":"Amazon","puntType":"3p","bezettingsgraad":50,"latitude":46.7133,"longitude":11.652,"canPickup":true,"canDropoff":false,"openingstijden":null}},{"type":"Feature","geometry":{"type":"Point","coordinates":[11.6501,46.7099]},"properties":{"type":"pakketpunt","locatieNaam":"PuntoPoste TABACCHERIA N. 1","straatNaam":"PIAZZALE DELLA STAZIONE 21","straatNr":"","vervoerder":"Amazon","puntType":"3p","bezettingsgraad":50,"latitude":46.7099,"longitude":11.6501,"canPickup":true,"canDropoff":false,"openingstijden":null}},{"type":"Feature","geometry":{"type":"Point","coordinates":[11.6548,46.7139]},"properties":{"type":"pakketpunt","locatieNaam":"Ufficio Postale BRESSANONE","straatNaam":"VIA SAN CASSIANO 4","straatNr":"","vervoerder":"Amazon","puntType":"3p","bezettingsgraad":50,"latitude":46.7139,"longitude":11.6548,"canPickup":true,"canDropoff":false,"openingstijden":null}},{"type":"Feature","geometry":{"type":"Point","coordinates":[11.650920417429495,46.709987940823154]},"properties":{"type":"pakketpunt","locatieNaam":"FedEx OnSite","straatNaam":"Viale Mozart, 2","straatNr":"","vervoerder":"FedEx","puntType":"servicepunt","bezettingsgraad":50,"latitude":46.709987940823154,"longitude":11.650920417429495,"canPickup":true,"canDropoff":true,"openingstijden":{"ma":"10:00 - 12:30, 14:00 - 19:00","di":"10:00 - 12:30, 14:00 - 19:00","wo":"10:00 - 12:30, 14:00 - 19:00","do":"10:00 - 12:30, 14:00 - 19:00","vr":"10:00 - 12:30, 14:00 - 19:00","za":"10:00 - 12:30, 14:00 - 19:00","zo":"gesloten"}}},{"type":"Feature","geometry":{"type":"Point","coordinates":[11.654025752084113,46.718206603069476]},"properties":{"type":"pakketpunt","locatieNaam":"FedEx OnSite","straatNaam":"VIA FIENILI 13","straatNr":"","vervoerder":"FedEx","puntType":"servicepunt","bezettingsgraad":50,"latitude":46.718206603069476,"longitude":11.654025752084113,"canPickup":true,"canDropoff":true,"openingstijden":{"ma":"09:30 - 12:30, 15:00 - 18:00","di":"09:30 - 12:30, 15:00 - 18:00","wo":"09:30 - 12:30, 15:00 - 18:00","do":"09:30 - 12:30, 15:00 - 18:00","vr":"09:30 - 12:30, 15:00 - 18:00","za":"gesloten","zo":"gesloten"}}},{"type":"Feature","geometry":{"type":"Polygon","coordinates":[[[11.5842781,46.7090722],[11.5847482,46.7089934],[11.5863962,46.7107329],[11.5890907,46.7123909],[11.5890867,46.7125809],[11.5903287,46.713916],[11.5909025,46.7140197],[11.5913985,46.7139993],[11.5947373,46.7150794],[11.5964454,46.718063],[11.5979526,46.7194808],[11.5993021,46.7202206],[11.6012473,46.7206235],[11.6027004,46.7213015],[11.6039859,46.7216842],[11.6048693,46.7223164],[11.6062082,46.7216563],[11.6069347,46.7208432],[11.6074008,46.7206629],[11.6079931,46.7210689],[11.609169,46.7222312],[11.6097266,46.7229692],[11.6103416,46.7234233],[11.6127142,46.7249016],[11.6137974,46.7257125],[11.615304,46.7266513],[11.6176074,46.7277352],[11.6188899,46.728546],[11.6201599,46.7290666],[11.6203342,46.7293227],[11.6210439,46.7298347],[11.6218532,46.7305943],[11.6228867,46.7311832],[11.6240072,46.7316952],[11.6256383,46.7319854],[11.6284025,46.7312002],[11.6291495,46.7312941],[11.6300709,46.7311832],[11.6313783,46.7308333],[11.6322,46.7307906],[11.6328101,46.730654],[11.6330218,46.7305004],[11.6334451,46.7299116],[11.6343043,46.7294763],[11.6349268,46.7285119],[11.6354996,46.7282559],[11.6361719,46.7276499],[11.6379649,46.7247821],[11.6395088,46.7247565],[11.6398948,46.7246626],[11.6432317,46.7252089],[11.6433064,46.725354],[11.6437453,46.7254627],[11.6441032,46.7257039],[11.6446386,46.7258063],[11.6452612,46.7256612],[11.6455724,46.7258405],[11.6465312,46.7257551],[11.6493894,46.7251128],[11.6495817,46.7254393],[11.6495023,46.7263729],[11.6497178,46.7266527],[11.6499232,46.7271911],[11.6520879,46.7274265],[11.6519651,46.7275879],[11.6522812,46.7276467],[11.6518389,46.7283991],[11.6521318,46.7285416],[11.6536921,46.7287924],[11.6537588,46.72858],[11.6555123,46.7287917],[11.6553062,46.7296775],[11.6557966,46.729573],[11.6561087,46.7292743],[11.6562597,46.7293443],[11.6561606,46.729552],[11.6561764,46.7298618],[11.6565486,46.7303689],[11.6566507,46.7307305],[11.656696,46.731808],[11.656612,46.7320756],[11.6562663,46.7324405],[11.6560015,46.7329123],[11.6560394,46.7335178],[11.6555852,46.7338594],[11.6552715,46.734514],[11.6558262,46.7346948],[11.6559749,46.7345201],[11.656013,46.734275],[11.6567237,46.7340288],[11.6569998,46.7341416],[11.6563888,46.7351209],[11.6567738,46.7353443],[11.6566745,46.735568],[11.6572334,46.7357786],[11.6573315,46.7358936],[11.6575885,46.7366597],[11.6575087,46.7369135],[11.6577779,46.7368572],[11.658025,46.7365934],[11.6583318,46.7365139],[11.6578763,46.737137],[11.6577446,46.7376139],[11.6578072,46.7377761],[11.657593,46.7385301],[11.6580466,46.7384762],[11.6583948,46.737744],[11.658651,46.7376484],[11.6587848,46.7374915],[11.6589166,46.7368725],[11.6590933,46.7369214],[11.6593969,46.7361789],[11.659566,46.7364392],[11.6597961,46.7364511],[11.6596026,46.7377124],[11.6592774,46.7379879],[11.6593231,46.7380596],[11.6597068,46.7378916],[11.659814,46.7377524],[11.6602317,46.7377964],[11.6603779,46.7383756],[11.6600783,46.7388119],[11.659973,46.739431],[11.6602286,46.7394534],[11.6602695,46.739656],[11.6605694,46.739794],[11.6609564,46.7398043],[11.6610225,46.7390641],[11.6637453,46.7386854],[11.6639406,46.7390868],[11.6641456,46.7390427],[11.6646544,46.7410519],[11.6647895,46.7412764],[11.6654091,46.7418368],[11.6655023,46.7418329],[11.6655863,46.7420605],[11.6657196,46.7421366],[11.6664906,46.7432383],[11.6670285,46.7433],[11.6682244,46.7441275],[11.668378,46.7445395],[11.6697206,46.7448018],[11.6705279,46.7448359],[11.6709777,46.7447022],[11.6708254,46.7449943],[11.6709204,46.7452878],[11.6708764,46.74538],[11.6703613,46.7450444],[11.6701338,46.745032],[11.6702196,46.7455019],[11.6707998,46.7460705],[11.6706022,46.7461969],[11.6706129,46.7468019],[11.6707628,46.7469229],[11.6707603,46.7478321],[11.6706508,46.7480165],[11.670403,46.7481705],[11.6703849,46.7483008],[11.6705924,46.7486199],[11.6704558,46.7487869],[11.6704354,46.7492769],[11.6725435,46.7490907],[11.673025,46.7492554],[11.6730576,46.7487165],[11.6731937,46.7482037],[11.6733485,46.7482187],[11.6735515,46.7480701],[11.6720677,46.7476819],[11.672281,46.7471142],[11.6743604,46.7464919],[11.6745462,46.7461244],[11.6748564,46.7460025],[11.6747226,46.7457212],[11.6747246,46.7452588],[11.675304,46.7442098],[11.6757928,46.7446727],[11.6764072,46.7455815],[11.6764226,46.7457726],[11.6773828,46.7454515],[11.6767038,46.7445479],[11.6778939,46.7440553],[11.6786615,46.7439007],[11.6786437,46.7439892],[11.6789266,46.7439817],[11.6787292,46.7443124],[11.6789124,46.7443606],[11.6790903,46.7441914],[11.679344,46.7432985],[11.6792772,46.7431249],[11.6791616,46.7429538],[11.6785387,46.7427844],[11.6779753,46.7423586],[11.677964,46.7420298],[11.677656,46.7415971],[11.679236,46.740084],[11.6806566,46.7397081],[11.6810353,46.7394355],[11.6823801,46.739227],[11.6833578,46.740799],[11.6834878,46.7415815],[11.6836963,46.7418479],[11.684396,46.7425042],[11.6860957,46.7435237],[11.6863501,46.7438167],[11.6880328,46.7446299],[11.6889889,46.7440798],[11.69201,46.7425792],[11.6930233,46.742236],[11.6932137,46.7421727],[11.6933925,46.7423178],[11.6941743,46.7423984],[11.695256,46.7419243],[11.6955049,46.7420084],[11.695817,46.7419473],[11.6960091,46.7417487],[11.6973907,46.741329],[11.6987072,46.740398],[11.7000471,46.7399522],[11.7007312,46.7398742],[11.701147,46.7396442],[11.7036623,46.7393423],[11.7041404,46.7401919],[11.7041279,46.7407809],[11.703667,46.7413528],[11.7034553,46.7419076],[11.703688,46.7428032],[11.7046129,46.7434664],[11.7047091,46.7436835],[11.7054757,46.7444126],[11.7058519,46.7446405],[11.7073552,46.7447544],[11.7085208,46.7450038],[11.7101772,46.7449373],[11.7115852,46.7450704],[11.7121417,46.7452005],[11.7128802,46.7456778],[11.7137115,46.7458697],[11.7146635,46.7458241],[11.7152953,46.7456346],[11.7154248,46.745661],[11.7158028,46.7459836],[11.7159638,46.7456622],[11.7164206,46.7425466],[11.7167986,46.7425418],[11.7183562,46.7422191],[11.7206383,46.7424254],[11.72092,46.7423667],[11.721263,46.7422167],[11.7216743,46.7418582],[11.7222116,46.741087],[11.7224916,46.7401395],[11.7221836,46.7390193],[11.7222763,46.7383033],[11.7226036,46.7375321],[11.7224776,46.7369996],[11.7221101,46.7366278],[11.7215868,46.734777],[11.7210224,46.7341395],[11.7211475,46.7336142],[11.7215877,46.7325262],[11.7220567,46.7318299],[11.7222741,46.7307872],[11.7223717,46.7307356],[11.722615,46.7308124],[11.7233605,46.7312802],[11.7244328,46.7316014],[11.7251372,46.7317069],[11.7264494,46.7316494],[11.7271266,46.7313831],[11.7282802,46.7306048],[11.7294665,46.7296458],[11.7299749,46.7293624],[11.7302107,46.7291108],[11.7315919,46.7284363],[11.7317214,46.728131],[11.7315228,46.7273399],[11.7312577,46.726986],[11.7302995,46.7262926],[11.7296739,46.7253533],[11.7302584,46.7244121],[11.7313145,46.7235508],[11.7322823,46.7231669],[11.7335319,46.7233558],[11.735989,46.7230547],[11.7371913,46.7228009],[11.738408,46.7218948],[11.7390057,46.7211468],[11.7391872,46.7207488],[11.7395906,46.7193138],[11.7397621,46.7180426],[11.7395661,46.7176719],[11.7391155,46.7173395],[11.7390096,46.7168368],[11.7384391,46.7159525],[11.7383651,46.7151072],[11.7378939,46.7146956],[11.7367183,46.713952],[11.7367233,46.713283],[11.7400643,46.7140136],[11.7405531,46.7130968],[11.7401921,46.7129426],[11.7396502,46.7124739],[11.7411322,46.7124056],[11.7419147,46.710257],[11.7422943,46.7086642],[11.7406179,46.7081135],[11.7364461,46.7047857],[11.7373997,46.70282],[11.7355996,46.7022488],[11.7330698,46.7012759],[11.7341237,46.6995164],[11.7337395,46.6952735],[11.7386101,46.6927522],[11.7420871,46.692455],[11.7451814,46.6926303],[11.7478584,46.6931777],[11.7515327,46.6950787],[11.7530924,46.6942557],[11.7568766,46.6937339],[11.7588782,46.6939527],[11.7629974,46.6902465],[11.7642491,46.6887952],[11.7679247,46.68818],[11.7684536,46.6873936],[11.7699117,46.6865356],[11.77414,46.6859548],[11.7743706,46.6854119],[11.7762322,46.6847143],[11.777939,46.6850511],[11.779973,46.6857921],[11.7780799,46.6805914],[11.7795648,46.6797918],[11.7806726,46.6794033],[11.7829967,46.6783771],[11.7848544,46.676823],[11.7847931,46.6765841],[11.7835742,46.6756769],[11.7840747,46.6751852],[11.7853462,46.6747529],[11.7861591,46.6742756],[11.7875084,46.6738709],[11.7871724,46.6735761],[11.7880881,46.6724608],[11.7875867,46.672139],[11.7876387,46.6717109],[11.7879004,46.6711534],[11.7903347,46.6699903],[11.7912299,46.6698883],[11.7920865,46.670069],[11.793624,46.670004],[11.7931068,46.6683745],[11.7922778,46.6681389],[11.7921432,46.6677073],[11.7917619,46.6677318],[11.7916355,46.667575],[11.7913875,46.6677623],[11.7906751,46.6676513],[11.7892107,46.6682908],[11.7881292,46.6679899],[11.7873237,46.6679626],[11.7867397,46.6677885],[11.7846374,46.6675529],[11.779588,46.6677975],[11.7779324,46.6677365],[11.7773497,46.6678299],[11.7766116,46.6678056],[11.7759877,46.6676137],[11.7755423,46.6672129],[11.775012,46.6672639],[11.7742569,46.6676197],[11.774039,46.6673405],[11.7740495,46.6671393],[11.772999,46.6669925],[11.7720662,46.6669844],[11.7713797,46.6672429],[11.7690618,46.6673102],[11.7675274,46.6672603],[11.7669696,46.6672045],[11.7665264,46.6670409],[11.7663557,46.6668049],[11.7655406,46.6663554],[11.7639345,46.6660182],[11.7633889,46.6655042],[11.7626163,46.6653892],[11.7621306,46.6652268],[11.7607914,46.6651124],[11.76022,46.6652295],[11.7593327,46.665025],[11.7590079,46.6652243],[11.7587537,46.6652645],[11.7575417,46.6651438],[11.7561732,46.6655105],[11.7556975,46.6655373],[11.754922,46.6650051],[11.7540748,46.6650901],[11.7525043,46.6648978],[11.751983,46.6652511],[11.7513248,46.6653674],[11.7506601,46.6652243],[11.7492786,46.6644148],[11.7482881,46.6641465],[11.7448277,46.6643209],[11.7436026,46.6648307],[11.7426186,46.6649649],[11.7404486,46.6660963],[11.7391127,46.666633],[11.7382916,46.6667537],[11.7373662,46.6669997],[11.7362649,46.667581],[11.7345902,46.6681579],[11.7331761,46.6682518],[11.7315925,46.6693071],[11.7308236,46.6693832],[11.7293378,46.6690791],[11.7264965,46.6686587],[11.7247566,46.669012],[11.7220717,46.6691819],[11.7187939,46.669723],[11.7178751,46.6695352],[11.7169367,46.6690612],[11.7155421,46.6687079],[11.7140368,46.6686185],[11.7125836,46.6683412],[11.7099443,46.6673574],[11.7089147,46.6673619],[11.7078199,46.6669728],[11.7076831,46.6668476],[11.7076635,46.6666285],[11.7074354,46.6661768],[11.7070379,46.666226],[11.7066795,46.66615],[11.7061647,46.666463],[11.7059171,46.666472],[11.7050243,46.6659711],[11.7049656,46.6658504],[11.7047767,46.6658683],[11.7044117,46.6659801],[11.7041576,46.6661768],[11.7037927,46.6663199],[11.7024111,46.6667761],[11.7022613,46.6667448],[11.7004562,46.6658459],[11.7003389,46.6656268],[11.7001759,46.6655194],[11.6998045,46.6654524],[11.6993418,46.6655105],[11.6988205,46.6653719],[11.6986902,46.6651527],[11.6982796,46.664786],[11.6975954,46.664473],[11.6971001,46.6639452],[11.6957446,46.6631045],[11.6951125,46.6628809],[11.6940634,46.6623039],[11.6922908,46.6614989],[11.6917434,46.6614989],[11.6909093,46.6612753],[11.6903815,46.6608012],[11.6890065,46.6600856],[11.6880225,46.6599783],[11.6868886,46.6597054],[11.6866214,46.6594058],[11.6855983,46.659048],[11.6850248,46.6590122],[11.6844709,46.658717],[11.6842754,46.6587841],[11.6840538,46.6587438],[11.6839756,46.6586097],[11.6836759,46.6584173],[11.6826854,46.6582697],[11.6804958,46.65831],[11.6800787,46.6582161],[11.6792837,46.6577062],[11.6791338,46.6576883],[11.6781368,46.6579074],[11.6775698,46.6584352],[11.677055,46.6584576],[11.6762469,46.658887],[11.6754063,46.6589406],[11.6751782,46.659124],[11.6750153,46.6593968],[11.6744744,46.6596697],[11.6741942,46.6599783],[11.6728453,46.6598351],[11.6715941,46.6603092],[11.670369,46.6604389],[11.6701344,46.6605731],[11.6699845,46.6607833],[11.6692286,46.6611098],[11.6688897,46.6611143],[11.6685508,46.6612887],[11.668414,46.6616018],[11.6675733,46.6621116],[11.6672996,46.6625723],[11.667241,46.6629479],[11.6666349,46.6632521],[11.6664264,46.663261],[11.6662179,46.6634578],[11.665071,46.6635159],[11.6647777,46.6638826],[11.6643802,46.6640123],[11.6638067,46.664379],[11.6622102,46.6651661],[11.6617214,46.6652332],[11.6598381,46.6657699],[11.6586521,46.6657073],[11.6576681,46.6658817],[11.6562996,46.665904],[11.6555372,46.6659979],[11.6542404,46.666387],[11.6535952,46.6664049],[11.6515946,46.6675274],[11.6511254,46.667657],[11.6508061,46.6678449],[11.6506758,46.6680282],[11.6507018,46.6681847],[11.6503304,46.6685469],[11.6496461,46.668775],[11.6489684,46.6687616],[11.6484601,46.6691104],[11.648206,46.6693921],[11.647424,46.6697454],[11.6467528,46.6697588],[11.6464986,46.6698393],[11.6464921,46.6699868],[11.6461989,46.6701568],[11.6460946,46.6704832],[11.6453191,46.6710645],[11.6448825,46.6712613],[11.6445436,46.6715743],[11.6423932,46.6721019],[11.64195,46.6723791],[11.6410507,46.6721913],[11.640764,46.6724283],[11.6403339,46.6725938],[11.6398908,46.6724328],[11.6394933,46.672473],[11.6390827,46.6728352],[11.6388742,46.6728576],[11.6385093,46.6730678],[11.6381704,46.6735462],[11.6373949,46.6741498],[11.6361568,46.6742303],[11.6359417,46.6741275],[11.6360395,46.6728576],[11.6357136,46.6727458],[11.6358374,46.6725401],[11.6355181,46.6725625],[11.6349968,46.67233],[11.6363848,46.6716592],[11.6360916,46.6715161],[11.6357788,46.6716637],[11.6352575,46.6715385],[11.6338955,46.6716771],[11.6330092,46.6708052],[11.6323771,46.670586],[11.6320969,46.6700673],[11.6323576,46.6691909],[11.6317776,46.6692535],[11.6315365,46.6691998],[11.6305785,46.669325],[11.6302527,46.6693027],[11.6298682,46.6691417],[11.629171,46.6693429],[11.6284737,46.6693876],[11.6276005,46.6691953],[11.6268119,46.6688152],[11.6264731,46.6688242],[11.6262971,46.6690254],[11.6254565,46.6685917],[11.6251176,46.6682026],[11.6247006,46.6679924],[11.6243421,46.6679477],[11.6238013,46.6684307],[11.6221395,46.6682294],[11.6213901,46.6682965],[11.6210122,46.6682205],[11.6203866,46.6680282],[11.6198718,46.6676078],[11.6196958,46.6673574],[11.6185228,46.6668879],[11.6166982,46.6652735],[11.6156425,46.6645982],[11.6149126,46.6645177],[11.6130466,46.6647836],[11.6136892,46.6649919],[11.6150179,46.665603],[11.6156822,46.666122],[11.6167777,46.6672957],[11.6181417,46.6690271],[11.6185857,46.6693912],[11.6187071,46.6697691],[11.6187071,46.6704093],[11.6185446,46.6713647],[11.6181982,46.6725964],[11.6182548,46.673062],[11.6186152,46.6735663],[11.6189898,46.6737846],[11.6199369,46.6741143],[11.6214068,46.6742213],[11.6220571,46.6762674],[11.6225306,46.6781537],[11.6226932,46.6796132],[11.6231455,46.680549],[11.6242268,46.6812618],[11.6255031,46.6824447],[11.626022,46.6828085],[11.6284179,46.683783],[11.6292094,46.6838024],[11.6296821,46.6837271],[11.6301494,46.6840349],[11.6295996,46.6843781],[11.6274359,46.6853175],[11.6263381,46.6860614],[11.6253123,46.6866079],[11.6248329,46.68724],[11.6250207,46.687987],[11.6246847,46.6884706],[11.6244781,46.6896971],[11.6242472,46.6901215],[11.6239871,46.690924],[11.6229519,46.6913947],[11.6219479,46.6913371],[11.6206273,46.6920405],[11.6193908,46.6908919],[11.6182502,46.6914665],[11.6190493,46.6925243],[11.6190114,46.6925639],[11.6155579,46.6943812],[11.6129539,46.6955393],[11.6130882,46.6967102],[11.613525,46.6977911],[11.610608,46.6983673],[11.6098793,46.6984399],[11.6085595,46.6988892],[11.6054336,46.6992413],[11.6021949,46.7007435],[11.601658,46.7008598],[11.5995172,46.701794],[11.5982164,46.7020248],[11.5943714,46.7024049],[11.5935607,46.7025817],[11.5927327,46.7031834],[11.5918365,46.7035429],[11.5864834,46.7069459],[11.5842781,46.7090722]]]},"properties":{"type":"boundary","gemeente":"Brixen - Bressanone"}}]}