{"type":"FeatureCollection","metadata":{"gemeente":"Brugnato","slug":"brugnato","generated_at":"2026-09-26T14:27:00.358415Z","total_points":7,"providers":["PosteItaliane","DPD","InPost","DHL","Amazon"],"bounds":[9.72133,44.23027,9.72581,44.2362339]},"features":[{"type":"Feature","geometry":{"type":"Point","coordinates":[9.72133344,44.23603354]},"properties":{"type":"pakketpunt","locatieNaam":"Brugnato","straatNaam":"Via Bertucci","straatNr":"10","vervoerder":"PosteItaliane","puntType":"postkantoor","bezettingsgraad":50,"latitude":44.23603354,"longitude":9.72133344,"canPickup":true,"canDropoff":true,"openingstijden":{"za":"08:20 - 12:35","zo":"gesloten","ma":"08:20 - 13:35","di":"08:20 - 13:35","wo":"08:20 - 13:35","do":"08:20 - 13:35","vr":"08:20 - 13:35"}}},{"type":"Feature","geometry":{"type":"Point","coordinates":[9.7235218,44.2362339]},"properties":{"type":"pakketpunt","locatieNaam":"L’Erba Voglio","straatNaam":"VIA BRINIATI","straatNr":"1","vervoerder":"DPD","puntType":"pickup_point","bezettingsgraad":50,"latitude":44.2362339,"longitude":9.7235218,"canPickup":true,"canDropoff":true,"openingstijden":{"ma":"08:30 - 12:30, 15:30 - 19:30","di":"08:30 - 12:30, 15:30 - 19:30","wo":"08:30 - 12:30, 15:30 - 19:30","do":"08:30 - 12:30, 15:30 - 19:30","vr":"08:30 - 12:30, 15:30 - 19:30","za":"08:30 - 12:30, 15:30 - 19:30","zo":"gesloten"}}},{"type":"Feature","geometry":{"type":"Point","coordinates":[9.72572,44.23027]},"properties":{"type":"pakketpunt","locatieNaam":"InPost Locker 24/7","straatNaam":"Via Antica Romana","straatNr":"","vervoerder":"InPost","puntType":"automaat","bezettingsgraad":50,"latitude":44.23027,"longitude":9.72572,"canPickup":true,"canDropoff":true,"openingstijden":null}},{"type":"Feature","geometry":{"type":"Point","coordinates":[9.721333,44.236034]},"properties":{"type":"pakketpunt","locatieNaam":"Ufficio Postale BRUGNATO","straatNaam":"VIA BERTUCCI 10","straatNr":"","vervoerder":"DHL","puntType":"postOffice","bezettingsgraad":50,"latitude":44.236034,"longitude":9.721333,"canPickup":true,"canDropoff":true,"openingstijden":{"ma":"08:20 - 13:35","di":"08:20 - 13:35","wo":"08:20 - 13:35","do":"08:20 - 13:35","vr":"08:20 - 13:35","za":"08:20 - 12:35","zo":"gesloten"}}},{"type":"Feature","geometry":{"type":"Point","coordinates":[9.72581,44.230501]},"properties":{"type":"pakketpunt","locatieNaam":"Amazon Locker - anella","straatNaam":"Brugnato 5 Terre Outlet Village","straatNr":"","vervoerder":"Amazon","puntType":"locker","bezettingsgraad":50,"latitude":44.230501,"longitude":9.72581,"canPickup":true,"canDropoff":false,"openingstijden":null}},{"type":"Feature","geometry":{"type":"Point","coordinates":[9.723724,44.232578]},"properties":{"type":"pakketpunt","locatieNaam":"Giunti al Punto","straatNaam":"c/o Shopinn Brugnato 5 Terre Village","straatNr":"","vervoerder":"Amazon","puntType":"helix","bezettingsgraad":50,"latitude":44.232578,"longitude":9.723724,"canPickup":true,"canDropoff":false,"openingstijden":null}},{"type":"Feature","geometry":{"type":"Point","coordinates":[9.72133,44.236]},"properties":{"type":"pakketpunt","locatieNaam":"Ufficio Postale BRUGNATO","straatNaam":"VIA BERTUCCI 10","straatNr":"","vervoerder":"Amazon","puntType":"3p","bezettingsgraad":50,"latitude":44.236,"longitude":9.72133,"canPickup":true,"canDropoff":false,"openingstijden":null}},{"type":"Feature","geometry":{"type":"Polygon","coordinates":[[[9.6946664,44.2418727],[9.6955388,44.2420452],[9.6964439,44.2425838],[9.697381,44.2429306],[9.6976845,44.2434364],[9.6981033,44.2446284],[9.6982798,44.2446726],[9.6988437,44.2445981],[9.6999268,44.2442674],[9.7005726,44.2446331],[9.7011449,44.245139],[9.7018256,44.2455916],[9.7021452,44.2459023],[9.7023147,44.2462382],[9.7026761,44.246431],[9.7031872,44.2470531],[9.7029065,44.2478904],[9.7031447,44.2485295],[9.7042144,44.2493959],[9.7047404,44.2495218],[9.7048083,44.249623],[9.7047848,44.2499678],[9.7052446,44.2503293],[9.7055483,44.2504129],[9.7064389,44.2504063],[9.7078334,44.2507864],[9.7089285,44.2507161],[9.7104379,44.2508504],[9.7114657,44.2513073],[9.7116067,44.251728],[9.7119027,44.2516893],[9.7125229,44.2522795],[9.7125641,44.2528604],[9.7127708,44.2532046],[9.7120968,44.2539866],[9.7121386,44.2541282],[9.7119532,44.2544615],[9.7115396,44.2547042],[9.711226,44.2547888],[9.7112838,44.2549838],[9.7121487,44.2555388],[9.7125028,44.2560019],[9.7130318,44.2562316],[9.7132804,44.2562092],[9.7142848,44.2570321],[9.7145383,44.2571122],[9.7150418,44.2575923],[9.7149819,44.2577431],[9.7148328,44.2578404],[9.7150079,44.2580953],[9.7160415,44.2574823],[9.7175341,44.2571232],[9.718257,44.2570741],[9.7187965,44.2568966],[9.7189338,44.2567511],[9.7195353,44.2564999],[9.719725,44.2572273],[9.7235201,44.2548008],[9.7269039,44.2531259],[9.731465,44.2503924],[9.7323241,44.2496384],[9.7327547,44.24906],[9.7339511,44.2478732],[9.7358292,44.2482223],[9.7373663,44.248257],[9.7390794,44.2485722],[9.7419122,44.2506862],[9.7474679,44.2537396],[9.7477609,44.2533238],[9.7480982,44.252408],[9.7478296,44.2513009],[9.7477068,44.2500005],[9.7468428,44.2492754],[9.7466854,44.2482322],[9.7473737,44.2452878],[9.74772,44.2448671],[9.7484476,44.2445257],[9.7491394,44.2439828],[9.7496024,44.2435061],[9.7502266,44.2426979],[9.7506221,44.2418591],[9.7524191,44.239413],[9.7528233,44.2390386],[9.7533867,44.2387499],[9.7541111,44.2377767],[9.7541601,44.2375778],[9.7544388,44.2373316],[9.7548591,44.2371259],[9.755638,44.2370626],[9.7559069,44.2372093],[9.7561221,44.2374876],[9.7564448,44.2376567],[9.7565242,44.2378137],[9.7574226,44.2376938],[9.7578654,44.2379129],[9.7580751,44.2375242],[9.7580367,44.2374133],[9.7584799,44.2368771],[9.7591408,44.2367333],[9.7596347,44.2368441],[9.7597583,44.236795],[9.759676,44.2363336],[9.759449,44.2360561],[9.759359,44.2357774],[9.759458,44.2356163],[9.7598116,44.2354427],[9.7597938,44.2351361],[9.759991,44.2350199],[9.7600466,44.2348491],[9.7599929,44.2347543],[9.7600944,44.2346172],[9.7596583,44.2345936],[9.7593467,44.2344792],[9.7592398,44.2342962],[9.7592014,44.2340995],[9.7593079,44.2335967],[9.7595851,44.233415],[9.7595603,44.2332517],[9.759304,44.2330486],[9.7593609,44.2327634],[9.7594857,44.232647],[9.7602213,44.2325516],[9.7607853,44.2317617],[9.7624167,44.2310702],[9.7633886,44.2299798],[9.7636214,44.2297655],[9.763824,44.229696],[9.7636943,44.2295769],[9.7632617,44.2295735],[9.7621266,44.2289507],[9.7619958,44.2287884],[9.7615685,44.2285657],[9.760799,44.2277641],[9.7607572,44.2274888],[9.7605873,44.2271582],[9.7610814,44.2256509],[9.761013,44.2246961],[9.7608637,44.2243025],[9.760648,44.224026],[9.7597694,44.2231426],[9.7593205,44.2228442],[9.7593122,44.222677],[9.7596852,44.2219198],[9.7594452,44.221495],[9.7593762,44.2208128],[9.7591402,44.2204527],[9.7598749,44.2200585],[9.7599439,44.219928],[9.7594602,44.2198337],[9.7590713,44.2195417],[9.7582548,44.2195307],[9.7576138,44.2196639],[9.7570894,44.2194007],[9.7565926,44.2193142],[9.7557698,44.2194578],[9.7546322,44.219784],[9.755101,44.2209574],[9.7551024,44.2214537],[9.7553522,44.2227133],[9.7553184,44.2230437],[9.75511,44.2235958],[9.7547789,44.2239443],[9.7536475,44.2245579],[9.7533443,44.224303],[9.751939,44.2240235],[9.7508928,44.2240287],[9.7500327,44.2236934],[9.7495435,44.2235954],[9.7478822,44.2237038],[9.7453529,44.2228415],[9.7443923,44.2222565],[9.7413939,44.2216068],[9.7405503,44.2215455],[9.7399336,44.2215916],[9.7382883,44.2213385],[9.7359482,44.2212607],[9.734528,44.2209293],[9.7336237,44.2209642],[9.7324063,44.2205715],[9.7307521,44.2209558],[9.7288347,44.221633],[9.7271946,44.2222549],[9.7256843,44.2229639],[9.7248434,44.2232444],[9.7240788,44.2237245],[9.7241942,44.2246788],[9.7241766,44.2251977],[9.7236873,44.2268719],[9.7207931,44.2285056],[9.7148093,44.2321453],[9.7135162,44.2330375],[9.712714,44.2338054],[9.7109436,44.2357567],[9.7094172,44.2375813],[9.7082248,44.238512],[9.707602,44.2392913],[9.7071435,44.2400933],[9.7067401,44.240618],[9.706412,44.2414704],[9.7059243,44.2419456],[9.7054631,44.2426207],[9.7046331,44.2433476],[9.704019,44.2436948],[9.7038791,44.2437451],[9.7032344,44.2434692],[9.7023982,44.2428973],[9.7013719,44.2419755],[9.7007455,44.240983],[9.7002928,44.2405745],[9.6988373,44.2401373],[9.6967706,44.2392896],[9.6960735,44.2394749],[9.6953911,44.2400213],[9.6949901,44.2406899],[9.6946664,44.2418727]]]},"properties":{"type":"boundary","gemeente":"Brugnato"}}]}