{"type":"FeatureCollection","metadata":{"gemeente":"Brugnera","slug":"brugnera","generated_at":"2026-09-26T14:27:00.369178Z","total_points":23,"providers":["PosteItaliane","DPD","GLS","DHL","Amazon"],"bounds":[12.5244,45.8948,12.5789,45.92366813]},"features":[{"type":"Feature","geometry":{"type":"Point","coordinates":[12.55581135,45.89481143]},"properties":{"type":"pakketpunt","locatieNaam":"Maron","straatNaam":"Via Iginio Santarossa","straatNr":"24","vervoerder":"PosteItaliane","puntType":"postkantoor","bezettingsgraad":50,"latitude":45.89481143,"longitude":12.55581135,"canPickup":true,"canDropoff":true,"openingstijden":{"za":"08:20 - 12:35","zo":"gesloten","ma":"08:20 - 13:35","di":"08:20 - 13:35","wo":"08:20 - 13:35","do":"08:20 - 13:35","vr":"08:20 - 13:35"}}},{"type":"Feature","geometry":{"type":"Point","coordinates":[12.57354038,45.92267568]},"properties":{"type":"pakketpunt","locatieNaam":"Tamai","straatNaam":"Via Santa Margherita","straatNr":"11","vervoerder":"PosteItaliane","puntType":"postkantoor","bezettingsgraad":50,"latitude":45.92267568,"longitude":12.57354038,"canPickup":true,"canDropoff":true,"openingstijden":{"za":"08:20 - 12:45","zo":"gesloten","ma":"08:20 - 13:45","di":"08:20 - 13:45","wo":"08:20 - 13:45","do":"08:20 - 13:45","vr":"08:20 - 13:45"}}},{"type":"Feature","geometry":{"type":"Point","coordinates":[12.53530014,45.90079204]},"properties":{"type":"pakketpunt","locatieNaam":"Brugnera","straatNaam":"Via Ungaresca Di Brugnera","straatNr":"12/a","vervoerder":"PosteItaliane","puntType":"postkantoor","bezettingsgraad":50,"latitude":45.90079204,"longitude":12.53530014,"canPickup":true,"canDropoff":true,"openingstijden":{"za":"08:20 - 12:35","zo":"gesloten","ma":"08:20 - 13:35","di":"08:20 - 13:35","wo":"08:20 - 13:35","do":"08:20 - 13:35","vr":"08:20 - 13:35"}}},{"type":"Feature","geometry":{"type":"Point","coordinates":[12.55584841,45.89679939]},"properties":{"type":"pakketpunt","locatieNaam":"Tabaccheria N. 6","straatNaam":"Via Quattro Novembre","straatNr":"40","vervoerder":"PosteItaliane","puntType":"servicepunt","bezettingsgraad":50,"latitude":45.89679939,"longitude":12.55584841,"canPickup":true,"canDropoff":true,"openingstijden":{"za":"06:30 - 20:30","zo":"07:30 - 12:30","ma":"06:30 - 20:30","di":"06:30 - 20:30","wo":"06:30 - 20:30","do":"06:30 - 20:30","vr":"06:30 - 20:30"}}},{"type":"Feature","geometry":{"type":"Point","coordinates":[12.52444455,45.90012537]},"properties":{"type":"pakketpunt","locatieNaam":"Tabaccheria N. 1","straatNaam":"Piazza Roma","straatNr":"3","vervoerder":"PosteItaliane","puntType":"servicepunt","bezettingsgraad":50,"latitude":45.90012537,"longitude":12.52444455,"canPickup":true,"canDropoff":true,"openingstijden":{"za":"07:30 - 12:30, 15:00 - 19:30","zo":"gesloten","ma":"07:30 - 12:30, 15:00 - 19:30","di":"07:30 - 12:30, 15:00 - 19:30","wo":"07:30 - 12:30, 15:00 - 19:30","do":"07:30 - 12:30, 15:00 - 19:30","vr":"07:30 - 12:30, 15:00 - 19:30"}}},{"type":"Feature","geometry":{"type":"Point","coordinates":[12.57441145,45.92366813]},"properties":{"type":"pakketpunt","locatieNaam":"Tabaccheria N. 4","straatNaam":"Via Pordenone","straatNr":"1/h","vervoerder":"PosteItaliane","puntType":"servicepunt","bezettingsgraad":50,"latitude":45.92366813,"longitude":12.57441145,"canPickup":true,"canDropoff":true,"openingstijden":{"za":"08:10 - 12:10, 15:30 - 19:30","zo":"gesloten","ma":"08:10 - 19:00","di":"08:10 - 12:10, 15:30 - 19:30","wo":"08:10 - 12:10, 15:00 - 19:00","do":"08:10 - 12:10, 15:30 - 19:30","vr":"08:10 - 12:10, 15:00 - 19:00"}}},{"type":"Feature","geometry":{"type":"Point","coordinates":[12.53039932,45.90109359]},"properties":{"type":"pakketpunt","locatieNaam":"Eliotecnica","straatNaam":"VIA SS. TRINITA","straatNr":"36","vervoerder":"DPD","puntType":"pickup_point","bezettingsgraad":50,"latitude":45.90109359,"longitude":12.53039932,"canPickup":true,"canDropoff":true,"openingstijden":{"ma":"15:30 - 19:00","di":"07:45 - 12:30, 15:30 - 19:00","wo":"07:45 - 12:30, 15:30 - 19:00","do":"07:45 - 12:30, 15:30 - 19:00","vr":"07:45 - 12:30, 15:30 - 19:00","za":"07:45 - 12:30","zo":"gesloten"}}},{"type":"Feature","geometry":{"type":"Point","coordinates":[12.5744321,45.9235567]},"properties":{"type":"pakketpunt","locatieNaam":"Tabacchi e Servizi iSmoke tabacchi&servizi","straatNaam":"Via Pordenone","straatNr":"1H","vervoerder":"GLS","puntType":"parcel_shop","bezettingsgraad":50,"latitude":45.9235567,"longitude":12.5744321,"canPickup":true,"canDropoff":true,"openingstijden":"za: 08:00 - 12:00, 15:00 - 19:00; ma: 15:00 - 19:00"}},{"type":"Feature","geometry":{"type":"Point","coordinates":[12.524445,45.900125]},"properties":{"type":"pakketpunt","locatieNaam":"TABACCHERIA N. 1","straatNaam":"PIAZZA ROMA 3","straatNr":"","vervoerder":"DHL","puntType":"parcelShop","bezettingsgraad":50,"latitude":45.900125,"longitude":12.524445,"canPickup":true,"canDropoff":true,"openingstijden":{"ma":"07:30 - 12:30, 15:00 - 19:30","di":"07:30 - 12:30, 15:00 - 19:30","wo":"07:30 - 12:30, 15:00 - 19:30","do":"07:30 - 12:30, 15:00 - 19:30","vr":"07:30 - 12:30, 15:00 - 19:30","za":"07:30 - 12:30, 15:00 - 19:30","zo":"gesloten"}}},{"type":"Feature","geometry":{"type":"Point","coordinates":[12.5353,45.900792]},"properties":{"type":"pakketpunt","locatieNaam":"Ufficio Postale BRUGNERA","straatNaam":"VIA UNGARESCA DI BRUGNERA 12-A","straatNr":"","vervoerder":"DHL","puntType":"postOffice","bezettingsgraad":50,"latitude":45.900792,"longitude":12.5353,"canPickup":true,"canDropoff":true,"openingstijden":{"ma":"08:20 - 13:35","di":"08:20 - 13:35","wo":"08:20 - 13:35","do":"08:20 - 13:35","vr":"08:20 - 13:35","za":"08:20 - 12:35","zo":"gesloten"}}},{"type":"Feature","geometry":{"type":"Point","coordinates":[12.555811,45.894811]},"properties":{"type":"pakketpunt","locatieNaam":"Ufficio Postale MARON","straatNaam":"VIA IGINIO SANTAROSSA 24","straatNr":"","vervoerder":"DHL","puntType":"postOffice","bezettingsgraad":50,"latitude":45.894811,"longitude":12.555811,"canPickup":true,"canDropoff":true,"openingstijden":{"ma":"08:20 - 13:35","di":"08:20 - 13:35","wo":"08:20 - 13:35","do":"08:20 - 13:35","vr":"08:20 - 13:35","za":"08:20 - 12:35","zo":"gesloten"}}},{"type":"Feature","geometry":{"type":"Point","coordinates":[12.555848,45.896799]},"properties":{"type":"pakketpunt","locatieNaam":"TABACCHERIA N. 6","straatNaam":"VIA QUATTRO NOVEMBRE 40","straatNr":"","vervoerder":"DHL","puntType":"parcelShop","bezettingsgraad":50,"latitude":45.896799,"longitude":12.555848,"canPickup":true,"canDropoff":true,"openingstijden":{"ma":"06:30 - 20:30","di":"06:30 - 20:30","wo":"06:30 - 20:30","do":"06:30 - 20:30","vr":"06:30 - 20:30","za":"06:30 - 20:30","zo":"07:30 - 12:30"}}},{"type":"Feature","geometry":{"type":"Point","coordinates":[12.57354,45.922676]},"properties":{"type":"pakketpunt","locatieNaam":"Ufficio Postale TAMAI","straatNaam":"VIA SANTA MARGHERITA 11","straatNr":"","vervoerder":"DHL","puntType":"postOffice","bezettingsgraad":50,"latitude":45.922676,"longitude":12.57354,"canPickup":true,"canDropoff":true,"openingstijden":{"ma":"08:20 - 13:45","di":"08:20 - 13:45","wo":"08:20 - 13:45","do":"08:20 - 13:45","vr":"08:20 - 13:45","za":"08:20 - 12:45","zo":"gesloten"}}},{"type":"Feature","geometry":{"type":"Point","coordinates":[12.574411,45.923668]},"properties":{"type":"pakketpunt","locatieNaam":"TABACCHERIA N. 4","straatNaam":"VIA PORDENONE 1-H","straatNr":"","vervoerder":"DHL","puntType":"parcelShop","bezettingsgraad":50,"latitude":45.923668,"longitude":12.574411,"canPickup":true,"canDropoff":true,"openingstijden":{"ma":"08:10 - 19:00","di":"08:10 - 12:10, 15:30 - 19:30","wo":"08:10 - 12:10, 15:00 - 19:00","do":"08:10 - 12:10, 15:30 - 19:30","vr":"08:10 - 12:10, 15:00 - 19:00","za":"08:10 - 12:10, 15:30 - 19:30","zo":"gesloten"}}},{"type":"Feature","geometry":{"type":"Point","coordinates":[12.5789,45.9234]},"properties":{"type":"pakketpunt","locatieNaam":"ISMOKE TABACCHI & SERVIZI","straatNaam":"Via Pordenone 1/h","straatNr":"","vervoerder":"DHL","puntType":"parcelShop","bezettingsgraad":50,"latitude":45.9234,"longitude":12.5789,"canPickup":false,"canDropoff":true,"openingstijden":{"ma":"15:00 - 19:00","di":"08:00 - 19:00","wo":"08:00 - 19:00","do":"08:00 - 19:00","vr":"08:00 - 19:00","za":"08:00 - 19:00","zo":"gesloten"}}},{"type":"Feature","geometry":{"type":"Point","coordinates":[12.543175,45.90904]},"properties":{"type":"pakketpunt","locatieNaam":"Amazon Locker - salutina","straatNaam":"ENI Station pv.4247","straatNr":"","vervoerder":"Amazon","puntType":"locker","bezettingsgraad":50,"latitude":45.90904,"longitude":12.543175,"canPickup":true,"canDropoff":false,"openingstijden":null}},{"type":"Feature","geometry":{"type":"Point","coordinates":[12.530433,45.90108]},"properties":{"type":"pakketpunt","locatieNaam":"Amazon Counter","straatNaam":"Eliotecnica (fermopoint)","straatNr":"","vervoerder":"Amazon","puntType":"helix","bezettingsgraad":50,"latitude":45.90108,"longitude":12.530433,"canPickup":true,"canDropoff":false,"openingstijden":null}},{"type":"Feature","geometry":{"type":"Point","coordinates":[12.5244,45.9001]},"properties":{"type":"pakketpunt","locatieNaam":"PuntoPoste TABACCHERIA N. 1","straatNaam":"PIAZZA ROMA 3","straatNr":"","vervoerder":"Amazon","puntType":"3p","bezettingsgraad":50,"latitude":45.9001,"longitude":12.5244,"canPickup":true,"canDropoff":false,"openingstijden":null}},{"type":"Feature","geometry":{"type":"Point","coordinates":[12.5353,45.9007]},"properties":{"type":"pakketpunt","locatieNaam":"Ufficio Postale BRUGNERA","straatNaam":"VIA UNGARESCA DI BRUGNERA 12-A","straatNr":"","vervoerder":"Amazon","puntType":"3p","bezettingsgraad":50,"latitude":45.9007,"longitude":12.5353,"canPickup":true,"canDropoff":false,"openingstijden":null}},{"type":"Feature","geometry":{"type":"Point","coordinates":[12.5558,45.8967]},"properties":{"type":"pakketpunt","locatieNaam":"PuntoPoste TABACCHERIA N. 6","straatNaam":"VIA QUATTRO NOVEMBRE 40","straatNr":"","vervoerder":"Amazon","puntType":"3p","bezettingsgraad":50,"latitude":45.8967,"longitude":12.5558,"canPickup":true,"canDropoff":false,"openingstijden":null}},{"type":"Feature","geometry":{"type":"Point","coordinates":[12.5735,45.9226]},"properties":{"type":"pakketpunt","locatieNaam":"Ufficio Postale TAMAI","straatNaam":"VIA SANTA MARGHERITA 11","straatNr":"","vervoerder":"Amazon","puntType":"3p","bezettingsgraad":50,"latitude":45.9226,"longitude":12.5735,"canPickup":true,"canDropoff":false,"openingstijden":null}},{"type":"Feature","geometry":{"type":"Point","coordinates":[12.5558,45.8948]},"properties":{"type":"pakketpunt","locatieNaam":"Ufficio Postale MARON","straatNaam":"VIA IGINIO SANTAROSSA 24","straatNr":"","vervoerder":"Amazon","puntType":"3p","bezettingsgraad":50,"latitude":45.8948,"longitude":12.5558,"canPickup":true,"canDropoff":false,"openingstijden":null}},{"type":"Feature","geometry":{"type":"Point","coordinates":[12.574435,45.9236033]},"properties":{"type":"pakketpunt","locatieNaam":"Amazon Counter - I SMOKE","straatNaam":"VIA PORDENONE 1/h","straatNr":"","vervoerder":"Amazon","puntType":"helix","bezettingsgraad":50,"latitude":45.9236033,"longitude":12.574435,"canPickup":true,"canDropoff":false,"openingstijden":null}},{"type":"Feature","geometry":{"type":"Polygon","coordinates":[[[12.5217306,45.9053313],[12.5224295,45.9050472],[12.522899,45.9046696],[12.5231373,45.9044015],[12.5235967,45.9033017],[12.5215695,45.9021251],[12.5208234,45.9014462],[12.5206766,45.9011014],[12.5196312,45.9007971],[12.5181528,45.8998953],[12.5172672,45.899934],[12.5162624,45.8996513],[12.5151443,45.8995172],[12.5153498,45.8993622],[12.5128099,45.8982066],[12.5119042,45.8984629],[12.510173,45.898583],[12.5074245,45.8980064],[12.5084375,45.8972961],[12.5096466,45.8967146],[12.510588,45.8958706],[12.5115718,45.8951897],[12.5122035,45.8945292],[12.5124892,45.8943939],[12.5138474,45.8929416],[12.5141936,45.8928501],[12.5147535,45.8923502],[12.5158942,45.8917836],[12.516198,45.8912833],[12.5159197,45.8908934],[12.5160784,45.8903707],[12.5157626,45.889902],[12.5158165,45.8896881],[12.5179136,45.8897814],[12.5199576,45.8894317],[12.5203327,45.8890048],[12.5206458,45.8882979],[12.5198954,45.8876826],[12.5203133,45.8874312],[12.5206795,45.8876227],[12.5209094,45.8876525],[12.5211881,45.8873421],[12.5208798,45.8869772],[12.5212552,45.8868395],[12.5211035,45.8864803],[12.5212605,45.8862555],[12.521082,45.8855781],[12.5211441,45.885302],[12.5214353,45.8848699],[12.5213144,45.8845295],[12.5213725,45.8844503],[12.5219575,45.8842742],[12.5225061,45.8845803],[12.5228894,45.8852074],[12.5228574,45.8853925],[12.5229531,45.8855167],[12.5233095,45.8858445],[12.5239336,45.8861847],[12.5243354,45.885871],[12.526011,45.8853684],[12.5277929,45.8844854],[12.5291218,45.8842652],[12.5297486,45.8842624],[12.5305287,45.884404],[12.5331558,45.8856152],[12.5334031,45.8855951],[12.5336513,45.8853566],[12.5338041,45.8849899],[12.5336866,45.8838652],[12.533012,45.8828945],[12.5322746,45.8822169],[12.5320248,45.8814867],[12.5321758,45.8804231],[12.5327261,45.8796233],[12.5331232,45.8786608],[12.5331234,45.8784482],[12.5320388,45.8779216],[12.531808,45.8779606],[12.5308444,45.8785161],[12.5302607,45.878443],[12.5288208,45.8777515],[12.5285776,45.8773867],[12.5287145,45.8772339],[12.5290995,45.8770785],[12.529734,45.8769725],[12.5320631,45.8772027],[12.5333687,45.8774188],[12.5334573,45.8772349],[12.5346,45.8769065],[12.5350088,45.876617],[12.5351824,45.8762917],[12.5351987,45.8759218],[12.5351012,45.8754555],[12.5348601,45.8748997],[12.5341917,45.8738889],[12.5333545,45.8733654],[12.5332324,45.8732593],[12.5331726,45.8730169],[12.5335055,45.8726599],[12.5345097,45.8722892],[12.5356031,45.8715928],[12.5362607,45.8709619],[12.5363183,45.8705419],[12.5362246,45.870368],[12.5359639,45.8701687],[12.5352111,45.8699405],[12.5334367,45.8700745],[12.5331991,45.8699583],[12.5331004,45.8695851],[12.5333365,45.8692382],[12.5339458,45.8690765],[12.5346065,45.8691153],[12.5359552,45.8693554],[12.5363167,45.8692569],[12.536645,45.8690608],[12.5369044,45.8687711],[12.5369684,45.8686002],[12.5369307,45.8681762],[12.5366105,45.8679281],[12.5356346,45.8677548],[12.5354776,45.8678363],[12.5352825,45.8681129],[12.535068,45.8682214],[12.5344789,45.8683349],[12.5335754,45.8680546],[12.5323494,45.8675144],[12.5320485,45.8670569],[12.5321185,45.8669059],[12.5323127,45.8668165],[12.5339722,45.8669977],[12.5343402,45.8668432],[12.5344435,45.866737],[12.5344436,45.8665721],[12.5342997,45.8664373],[12.5338923,45.8663043],[12.5330961,45.8663068],[12.5325311,45.8661814],[12.5322703,45.8659715],[12.5316609,45.8652117],[12.5314591,45.8650902],[12.5306646,45.8648958],[12.5296028,45.8643126],[12.5293721,45.8638681],[12.5295344,45.8636902],[12.5314724,45.8626766],[12.5325566,45.8631505],[12.5326486,45.863021],[12.5335428,45.8629081],[12.5345672,45.8626643],[12.5345143,45.8623682],[12.53487,45.8619172],[12.5351071,45.8620548],[12.536415,45.8620646],[12.5366927,45.862177],[12.5386487,45.8620831],[12.5392082,45.8625217],[12.5396041,45.8620985],[12.5395952,45.8620078],[12.5401679,45.8617452],[12.5405514,45.8616592],[12.540805,45.861961],[12.541713,45.8624955],[12.5423297,45.8621582],[12.5427286,45.8627334],[12.5452818,45.8625361],[12.5459315,45.8623974],[12.5470893,45.8619963],[12.5482585,45.8611677],[12.5485769,45.8611162],[12.5487193,45.8608707],[12.5491213,45.8611156],[12.5495754,45.860975],[12.5496848,45.8608624],[12.550218,45.8612845],[12.5520602,45.8616905],[12.5522931,45.861979],[12.5519995,45.8620466],[12.5519262,45.8621356],[12.5518811,45.8628702],[12.5535714,45.8646538],[12.5548127,45.865627],[12.5568446,45.8669908],[12.5570759,45.8669827],[12.5574724,45.8671639],[12.5579384,45.8674669],[12.5583258,45.8678634],[12.5598356,45.8684951],[12.5596151,45.8689757],[12.5597212,45.8691587],[12.5608627,45.8695235],[12.5621683,45.8712695],[12.562367,45.8714253],[12.5629376,45.871613],[12.5627079,45.8717904],[12.5628653,45.8719041],[12.56358,45.8721877],[12.5633873,45.8726486],[12.5639739,45.8745797],[12.563834,45.8747369],[12.5638575,45.8749195],[12.5636163,45.8750669],[12.5639122,45.8753065],[12.5637125,45.875436],[12.5636336,45.8756193],[12.563845,45.8760913],[12.5641289,45.8763185],[12.5639198,45.8765637],[12.5637947,45.8768805],[12.5633365,45.8770937],[12.563225,45.8772673],[12.5628273,45.8774563],[12.5624942,45.8778457],[12.5625734,45.8779589],[12.5630798,45.8782113],[12.5627228,45.878465],[12.5627072,45.8785833],[12.5629349,45.8787802],[12.5640838,45.8789641],[12.5643628,45.879309],[12.5644926,45.8796736],[12.5644699,45.8798692],[12.5641354,45.8801906],[12.5640092,45.8804983],[12.5640695,45.880619],[12.5639263,45.8808077],[12.5640182,45.8809171],[12.5638196,45.8811232],[12.5641233,45.8812959],[12.5641561,45.8813552],[12.5640094,45.8814324],[12.5639834,45.8815574],[12.5641301,45.8817761],[12.5643138,45.881792],[12.5644173,45.8819483],[12.5642661,45.8821121],[12.5642562,45.8822439],[12.5644363,45.8825472],[12.5638706,45.8831146],[12.5634073,45.8830898],[12.5632616,45.8831626],[12.5639724,45.8836592],[12.5640957,45.8839472],[12.56361,45.8847279],[12.5633519,45.8854189],[12.5633892,45.8856065],[12.5637202,45.8858087],[12.564046,45.8864466],[12.5658384,45.8879383],[12.5655128,45.8884934],[12.565229,45.8888024],[12.5652966,45.8890067],[12.5654868,45.8892003],[12.5660489,45.8896093],[12.566327,45.8895491],[12.5665178,45.8896807],[12.567023,45.8897064],[12.5674259,45.890497],[12.5673876,45.8906197],[12.5696856,45.8918908],[12.5704509,45.8924363],[12.5707613,45.8924114],[12.5712865,45.8926441],[12.5711742,45.8938923],[12.5716015,45.8937524],[12.5724137,45.8936926],[12.5725068,45.8940356],[12.5732873,45.8939966],[12.5734789,45.8947748],[12.5734033,45.8949097],[12.5734739,45.8955164],[12.5726453,45.8954878],[12.5723248,45.8954054],[12.5718543,45.8964809],[12.5717288,45.8971067],[12.5716684,45.8993412],[12.5713708,45.9000293],[12.5716965,45.9010266],[12.5719229,45.9014042],[12.5702474,45.9032064],[12.5704971,45.9037058],[12.5694217,45.9037897],[12.5687494,45.9036776],[12.5686315,45.9053182],[12.5686874,45.906908],[12.568517,45.9075944],[12.5689566,45.9075772],[12.5689738,45.9079667],[12.5684903,45.9079426],[12.5686198,45.9090777],[12.5678785,45.9092566],[12.5692987,45.9102082],[12.5710037,45.9095308],[12.5715663,45.9093785],[12.5722047,45.9105282],[12.5755322,45.9098208],[12.5759672,45.9104118],[12.5765752,45.9104753],[12.5769709,45.9113203],[12.5786432,45.9110312],[12.5792496,45.9105756],[12.5811539,45.9106127],[12.5819078,45.9124758],[12.5823182,45.9130627],[12.5826614,45.9129689],[12.5831242,45.9129703],[12.583981,45.9124038],[12.5838983,45.9118373],[12.5839331,45.9112669],[12.5840169,45.9110845],[12.5841308,45.9109202],[12.5847659,45.9109642],[12.5846854,45.9105697],[12.5847097,45.9099278],[12.5845396,45.9091102],[12.5848181,45.9081546],[12.5852512,45.9078106],[12.5860375,45.9074043],[12.5865239,45.9072468],[12.5867796,45.9072578],[12.5883623,45.908735],[12.5882625,45.9088555],[12.5887565,45.9093198],[12.5900303,45.9101303],[12.5903226,45.9104447],[12.5900907,45.9107398],[12.5912526,45.9119286],[12.5909717,45.9121797],[12.5918445,45.9135007],[12.5908741,45.9136811],[12.5911974,45.9143293],[12.5911475,45.9159244],[12.5908711,45.9160039],[12.5907871,45.9166395],[12.5910237,45.9170395],[12.5911789,45.9172252],[12.5913776,45.9172514],[12.5920756,45.9171302],[12.5920966,45.9175613],[12.5922379,45.9174899],[12.592446,45.9175265],[12.5925796,45.9178519],[12.5927105,45.9179636],[12.5932858,45.9180717],[12.5936257,45.9182695],[12.5940705,45.9182197],[12.5948196,45.9186677],[12.5951643,45.9187014],[12.5952239,45.9188311],[12.5949694,45.9190691],[12.5949188,45.9191513],[12.5949786,45.9192205],[12.5953487,45.919226],[12.5958686,45.9191121],[12.5962835,45.919186],[12.5965445,45.9192897],[12.5966932,45.9197275],[12.5968398,45.9197192],[12.5971941,45.9194621],[12.5974651,45.9198754],[12.5981485,45.9194482],[12.5988618,45.9194827],[12.5990331,45.9195699],[12.5991128,45.9197803],[12.5987732,45.9202903],[12.5988676,45.9210591],[12.5986282,45.9211968],[12.5986153,45.9217275],[12.5983824,45.9218907],[12.598264,45.9221296],[12.5979281,45.9224248],[12.598028,45.9228418],[12.5985569,45.9229268],[12.5987167,45.9230595],[12.5987683,45.9232406],[12.5977927,45.9235003],[12.5980885,45.92376],[12.5977745,45.9239971],[12.5978275,45.9240773],[12.5977446,45.9241172],[12.596326,45.924414],[12.5958924,45.9246179],[12.5928709,45.9269282],[12.5921209,45.9273092],[12.5914457,45.9274013],[12.5907014,45.9272127],[12.5897255,45.9275135],[12.589419,45.9277127],[12.5886845,45.9286288],[12.588622,45.9287326],[12.588853,45.9289572],[12.5887081,45.9290193],[12.5884624,45.9289472],[12.5859823,45.9290205],[12.5858066,45.9295106],[12.5849159,45.9296276],[12.584748,45.9291013],[12.5834168,45.9294059],[12.5798354,45.9299423],[12.5786874,45.9302099],[12.5774097,45.9306813],[12.5767747,45.9307838],[12.5727853,45.9306507],[12.5716555,45.9294676],[12.5707358,45.928916],[12.5706258,45.9289268],[12.5690801,45.9337198],[12.5688351,45.9356955],[12.5688059,45.9382659],[12.5678859,45.9417875],[12.5575823,45.941916],[12.5557343,45.9418426],[12.5496771,45.9420425],[12.5490916,45.9414046],[12.5492123,45.9406528],[12.5489819,45.9400609],[12.5472658,45.9382879],[12.5456494,45.9373941],[12.5456651,45.9370948],[12.5461659,45.9355395],[12.5449094,45.9335286],[12.5434255,45.9322256],[12.543061,45.9317758],[12.5436283,45.9308094],[12.5436874,45.9305621],[12.5424741,45.9291621],[12.5420187,45.927939],[12.5415663,45.9271572],[12.5413812,45.9269411],[12.5407972,45.9267204],[12.5405491,45.9260799],[12.5392163,45.9239274],[12.537475,45.9225102],[12.5365171,45.9222796],[12.5354284,45.9214301],[12.5346295,45.9214318],[12.5341839,45.9213022],[12.5337715,45.9209219],[12.5332389,45.9207358],[12.5332636,45.9204062],[12.5329975,45.9202632],[12.5325095,45.9201353],[12.5317738,45.9201853],[12.5313449,45.9197432],[12.5308215,45.9194951],[12.5307947,45.9194],[12.5310713,45.9190617],[12.5310009,45.9189854],[12.5305112,45.9188875],[12.5304278,45.91866],[12.5304808,45.9185173],[12.5302512,45.9180894],[12.5301431,45.9176359],[12.5299562,45.9176526],[12.5295354,45.9178819],[12.5293973,45.9177712],[12.5293657,45.9175098],[12.5290605,45.9172684],[12.5275404,45.9166605],[12.5275218,45.9165372],[12.5278349,45.9161829],[12.5278074,45.9160497],[12.5277572,45.9159285],[12.5274884,45.9157736],[12.5266996,45.9149611],[12.5265876,45.9147329],[12.5265105,45.9144014],[12.5265544,45.9142838],[12.5269351,45.914022],[12.5262546,45.9124159],[12.5258123,45.9119787],[12.5257871,45.911875],[12.5260422,45.9117366],[12.5258999,45.9115121],[12.5258602,45.9111173],[12.5257087,45.9110493],[12.5254647,45.9112613],[12.5251703,45.9112355],[12.5249966,45.9113633],[12.5242301,45.9111035],[12.5233733,45.9110895],[12.5232659,45.9109409],[12.5233174,45.9108334],[12.5232141,45.9107297],[12.5230987,45.9102882],[12.522651,45.91008],[12.5222148,45.9093961],[12.5216557,45.907937],[12.5217169,45.9078464],[12.5216513,45.9077096],[12.5209798,45.9072851],[12.521254,45.9070215],[12.5213001,45.906809],[12.5215428,45.90667],[12.521657,45.9064612],[12.5213164,45.9062543],[12.5211037,45.905802],[12.5213392,45.905742],[12.5218613,45.9058062],[12.5219985,45.90574],[12.5220348,45.9057001],[12.5217306,45.9053313]]]},"properties":{"type":"boundary","gemeente":"Brugnera"}}]}