{"type":"FeatureCollection","metadata":{"gemeente":"Bruino","slug":"bruino","generated_at":"2026-09-26T13:09:39.311789Z","total_points":13,"providers":["PosteItaliane","DPD","InPost","GLS","DHL","Amazon"],"bounds":[7.46628,45.01061,7.48388318,45.02086]},"features":[{"type":"Feature","geometry":{"type":"Point","coordinates":[7.46628327,45.02054867]},"properties":{"type":"pakketpunt","locatieNaam":"Bruino","straatNaam":"Via Roma","straatNr":"22","vervoerder":"PosteItaliane","puntType":"postkantoor","bezettingsgraad":50,"latitude":45.02054867,"longitude":7.46628327,"canPickup":true,"canDropoff":true,"openingstijden":{"za":"08:20 - 12:35","zo":"gesloten","ma":"08:20 - 13:35","di":"08:20 - 13:35","wo":"08:20 - 13:35","do":"08:20 - 13:35","vr":"08:20 - 13:35"}}},{"type":"Feature","geometry":{"type":"Point","coordinates":[7.47789234,45.01078002]},"properties":{"type":"pakketpunt","locatieNaam":"Bar Trattoria Lizzi","straatNaam":"Viale Guglielmo Marconi","straatNr":"110","vervoerder":"PosteItaliane","puntType":"servicepunt","bezettingsgraad":50,"latitude":45.01078002,"longitude":7.47789234,"canPickup":true,"canDropoff":true,"openingstijden":{"za":"gesloten","zo":"gesloten","ma":"07:00 - 15:15","di":"07:00 - 15:15","wo":"07:00 - 15:15","do":"07:00 - 15:15","vr":"07:00 - 15:15"}}},{"type":"Feature","geometry":{"type":"Point","coordinates":[7.48388318,45.01814705]},"properties":{"type":"pakketpunt","locatieNaam":"Tabaccheria Il Tabacco","straatNaam":"VIA ORBASSANO","straatNr":"103","vervoerder":"DPD","puntType":"pickup_point","bezettingsgraad":50,"latitude":45.01814705,"longitude":7.48388318,"canPickup":true,"canDropoff":true,"openingstijden":{"ma":"08:00 - 12:30, 15:30 - 19:30","di":"08:00 - 12:30, 15:30 - 19:30","wo":"08:00 - 12:30, 15:30 - 19:30","do":"08:00 - 12:30, 15:30 - 19:30","vr":"08:00 - 12:30, 15:30 - 19:30","za":"08:00 - 12:30, 15:30 - 19:30","zo":"gesloten"}}},{"type":"Feature","geometry":{"type":"Point","coordinates":[7.48065,45.01173]},"properties":{"type":"pakketpunt","locatieNaam":"InPost Locker","straatNaam":"Via G. Marconi","straatNr":"79","vervoerder":"InPost","puntType":"automaat","bezettingsgraad":50,"latitude":45.01173,"longitude":7.48065,"canPickup":true,"canDropoff":true,"openingstijden":null}},{"type":"Feature","geometry":{"type":"Point","coordinates":[7.47753,45.01061]},"properties":{"type":"pakketpunt","locatieNaam":"InPost Locker 24/7","straatNaam":"Viale Guglielmo Marconi","straatNr":"110","vervoerder":"InPost","puntType":"automaat","bezettingsgraad":50,"latitude":45.01061,"longitude":7.47753,"canPickup":true,"canDropoff":true,"openingstijden":null}},{"type":"Feature","geometry":{"type":"Point","coordinates":[7.46771,45.02086]},"properties":{"type":"pakketpunt","locatieNaam":"InPost Point","straatNaam":"Piazza Municipio, 20/1, Bruino, TO, Italia","straatNr":"20/1","vervoerder":"InPost","puntType":"servicepunt","bezettingsgraad":50,"latitude":45.02086,"longitude":7.46771,"canPickup":true,"canDropoff":true,"openingstijden":"Lun–Ven 08:00-18:00; Sab 08:30-18:00; Dom 08:30-12:30"}},{"type":"Feature","geometry":{"type":"Point","coordinates":[7.4704381,45.0185768]},"properties":{"type":"pakketpunt","locatieNaam":"GOLDBET","straatNaam":"Vai Mulino","straatNr":"25","vervoerder":"GLS","puntType":"parcel_shop","bezettingsgraad":50,"latitude":45.0185768,"longitude":7.4704381,"canPickup":true,"canDropoff":true,"openingstijden":"za: 10:00 - 20:00; zo: 10:00 - 20:00"}},{"type":"Feature","geometry":{"type":"Point","coordinates":[7.466283,45.020549]},"properties":{"type":"pakketpunt","locatieNaam":"Ufficio Postale BRUINO","straatNaam":"VIA ROMA 22","straatNr":"","vervoerder":"DHL","puntType":"postOffice","bezettingsgraad":50,"latitude":45.020549,"longitude":7.466283,"canPickup":true,"canDropoff":true,"openingstijden":{"ma":"08:20 - 13:35","di":"08:20 - 13:35","wo":"08:20 - 13:35","do":"08:20 - 13:35","vr":"08:20 - 13:35","za":"08:20 - 12:35","zo":"gesloten"}}},{"type":"Feature","geometry":{"type":"Point","coordinates":[7.477892,45.01078]},"properties":{"type":"pakketpunt","locatieNaam":"BAR TRATTORIA LIZZI","straatNaam":"VIALE GUGLIELMO MARCONI 110","straatNr":"","vervoerder":"DHL","puntType":"parcelShop","bezettingsgraad":50,"latitude":45.01078,"longitude":7.477892,"canPickup":true,"canDropoff":true,"openingstijden":{"ma":"07:00 - 15:15","di":"07:00 - 15:15","wo":"07:00 - 15:15","do":"07:00 - 15:15","vr":"07:00 - 15:15","za":"gesloten","zo":"gesloten"}}},{"type":"Feature","geometry":{"type":"Point","coordinates":[7.483813,45.01812]},"properties":{"type":"pakketpunt","locatieNaam":"Amazon Counter - TABACCHERIA GUZZO ERMAN","straatNaam":"VIA ORBASSANO 103","straatNr":"","vervoerder":"Amazon","puntType":"helix","bezettingsgraad":50,"latitude":45.01812,"longitude":7.483813,"canPickup":true,"canDropoff":false,"openingstijden":null}},{"type":"Feature","geometry":{"type":"Point","coordinates":[7.46818,45.02049]},"properties":{"type":"pakketpunt","locatieNaam":"Amazon Counter - PRIMAEDICOLA","straatNaam":"LANCIOTTI MARIARITA","straatNr":"","vervoerder":"Amazon","puntType":"helix","bezettingsgraad":50,"latitude":45.02049,"longitude":7.46818,"canPickup":true,"canDropoff":false,"openingstijden":null}},{"type":"Feature","geometry":{"type":"Point","coordinates":[7.467722,45.020668]},"properties":{"type":"pakketpunt","locatieNaam":"Amazon Counter - Yodi Travel Store","straatNaam":"Piazza Municipio, 20/1","straatNr":"","vervoerder":"Amazon","puntType":"helix","bezettingsgraad":50,"latitude":45.020668,"longitude":7.467722,"canPickup":true,"canDropoff":false,"openingstijden":null}},{"type":"Feature","geometry":{"type":"Point","coordinates":[7.46628,45.0205]},"properties":{"type":"pakketpunt","locatieNaam":"Ufficio Postale BRUINO","straatNaam":"VIA ROMA 22","straatNr":"","vervoerder":"Amazon","puntType":"3p","bezettingsgraad":50,"latitude":45.0205,"longitude":7.46628,"canPickup":true,"canDropoff":false,"openingstijden":null}},{"type":"Feature","geometry":{"type":"Polygon","coordinates":[[[7.4571728,45.0126816],[7.4584449,45.0129193],[7.4576351,45.0139391],[7.4574026,45.0149756],[7.4570479,45.0160736],[7.4570262,45.0162173],[7.4575315,45.0173539],[7.4578377,45.0176056],[7.458012,45.0176124],[7.4584828,45.0180103],[7.4591778,45.0183618],[7.4621308,45.0205035],[7.4619608,45.0210008],[7.4620427,45.0214971],[7.4624043,45.0224741],[7.4624262,45.0231721],[7.4631478,45.0236589],[7.4636577,45.0244084],[7.4637867,45.0247612],[7.463217,45.0253566],[7.4630987,45.0257151],[7.4625692,45.0263786],[7.4625036,45.0268143],[7.4626508,45.0271539],[7.4628349,45.0272284],[7.4640735,45.026867],[7.4679554,45.026361],[7.4696279,45.0260279],[7.471745,45.0259977],[7.472806,45.0261064],[7.4739163,45.0258512],[7.4742729,45.0260963],[7.4750841,45.0259388],[7.4754102,45.0259522],[7.4771115,45.0264925],[7.4792831,45.026742],[7.4815508,45.0265516],[7.4822807,45.0262958],[7.4829943,45.0258597],[7.4834885,45.0250066],[7.4839203,45.0245757],[7.485271,45.0238375],[7.4869923,45.0230321],[7.4880524,45.022074],[7.4895092,45.0213056],[7.4880737,45.0173483],[7.4878688,45.0168595],[7.4877453,45.0168489],[7.4873801,45.0152057],[7.4873074,45.0132513],[7.48741,45.0131492],[7.487192,45.0110984],[7.4872665,45.0107843],[7.4891356,45.0076899],[7.4899162,45.0072141],[7.4901556,45.0068572],[7.4936173,45.0039998],[7.4915142,45.0031394],[7.4897544,45.0029001],[7.4890379,45.0028861],[7.4891237,45.0028467],[7.4889871,45.0027504],[7.4887467,45.0029228],[7.486328,45.0025577],[7.4858181,45.0025104],[7.4856492,45.0026162],[7.4853786,45.0024416],[7.4845867,45.0023023],[7.4836735,45.0031076],[7.4821592,45.0026148],[7.4819147,45.0035073],[7.4790373,45.0060795],[7.4784185,45.00739],[7.4775178,45.0085348],[7.4767707,45.0079217],[7.4752457,45.006452],[7.4736928,45.0057516],[7.4726788,45.005099],[7.4710046,45.0035957],[7.4693134,45.0023758],[7.4693946,45.0022734],[7.46701,45.0012332],[7.4670585,45.0007522],[7.4665264,45.000205],[7.4662586,44.9993192],[7.4649511,44.9991801],[7.4648489,44.9996964],[7.4645567,45.0003181],[7.4645407,45.001038],[7.4643371,45.0017419],[7.4638196,45.002176],[7.4635739,45.0026138],[7.4629499,45.0031725],[7.4623028,45.0041045],[7.4617892,45.0046287],[7.4611266,45.0055335],[7.4603141,45.0057971],[7.4602333,45.0064306],[7.4602744,45.0070883],[7.4601146,45.0071829],[7.4600773,45.0073107],[7.4603833,45.0079832],[7.4600472,45.0084355],[7.4599731,45.0088756],[7.4590207,45.0094614],[7.4589374,45.0095818],[7.4589494,45.009978],[7.4595246,45.0103256],[7.4594327,45.0107947],[7.459112,45.0112765],[7.4588525,45.0114238],[7.4585241,45.0114756],[7.4584141,45.0117487],[7.4581209,45.0120643],[7.4571728,45.0126816]]]},"properties":{"type":"boundary","gemeente":"Bruino"}}]}