{"type":"FeatureCollection","metadata":{"gemeente":"Bubbiano","slug":"bubbiano","generated_at":"2026-09-26T13:09:39.432231Z","total_points":6,"providers":["PosteItaliane","DPD","InPost","GLS","DHL"],"bounds":[9.0136873,45.32478893,9.01536827,45.32730303]},"features":[{"type":"Feature","geometry":{"type":"Point","coordinates":[9.01536827,45.32730303]},"properties":{"type":"pakketpunt","locatieNaam":"Bubbiano","straatNaam":"Via Roma","straatNr":"5","vervoerder":"PosteItaliane","puntType":"postkantoor","bezettingsgraad":50,"latitude":45.32730303,"longitude":9.01536827,"canPickup":true,"canDropoff":true,"openingstijden":{"za":"08:20 - 12:45","zo":"gesloten","ma":"gesloten","di":"08:20 - 13:45","wo":"gesloten","do":"08:20 - 13:45","vr":"gesloten"}}},{"type":"Feature","geometry":{"type":"Point","coordinates":[9.01385711,45.32478893]},"properties":{"type":"pakketpunt","locatieNaam":"Caf E Servizi - Bubbiano","straatNaam":"Via Pietro Orlandi","straatNr":"24","vervoerder":"PosteItaliane","puntType":"servicepunt","bezettingsgraad":50,"latitude":45.32478893,"longitude":9.01385711,"canPickup":true,"canDropoff":true,"openingstijden":{"za":"gesloten","zo":"gesloten","ma":"09:00 - 19:00","di":"09:00 - 19:00","wo":"09:00 - 19:00","do":"09:00 - 19:00","vr":"09:00 - 19:00"}}},{"type":"Feature","geometry":{"type":"Point","coordinates":[9.0136873,45.3249037]},"properties":{"type":"pakketpunt","locatieNaam":"Caf & Patronato-Servizi Fiscali","straatNaam":"VIA ORLANDI","straatNr":"24","vervoerder":"DPD","puntType":"pickup_point","bezettingsgraad":50,"latitude":45.3249037,"longitude":9.0136873,"canPickup":true,"canDropoff":true,"openingstijden":{"ma":"09:00 - 18:30","di":"09:00 - 19:00","wo":"09:00 - 19:00","do":"09:00 - 19:00","vr":"09:00 - 19:00","za":"gesloten","zo":"gesloten"}}},{"type":"Feature","geometry":{"type":"Point","coordinates":[9.01369,45.3249]},"properties":{"type":"pakketpunt","locatieNaam":"InPost Point","straatNaam":"Via Pietro Orlandi, 24, Bubbiano, Metropolitan City of Milan, Italy","straatNr":"24","vervoerder":"InPost","puntType":"servicepunt","bezettingsgraad":50,"latitude":45.3249,"longitude":9.01369,"canPickup":true,"canDropoff":true,"openingstijden":"Lun 10:30-18:30; Mar–Ven 10:00-18:30"}},{"type":"Feature","geometry":{"type":"Point","coordinates":[9.01389,45.32499]},"properties":{"type":"pakketpunt","locatieNaam":"CENTRO SERVIZI C.A.F. LUCE GAS OCTOPUS","straatNaam":"Via Pietro Orlandi","straatNr":"24","vervoerder":"GLS","puntType":"parcel_shop","bezettingsgraad":50,"latitude":45.32499,"longitude":9.01389,"canPickup":true,"canDropoff":true,"openingstijden":"ma: 09:00 - 19:00; di: 09:00 - 19:00"}},{"type":"Feature","geometry":{"type":"Point","coordinates":[9.013857,45.324789]},"properties":{"type":"pakketpunt","locatieNaam":"CAF E SERVIZI - BUBBIANO","straatNaam":"VIA PIETRO ORLANDI 24","straatNr":"","vervoerder":"DHL","puntType":"parcelShop","bezettingsgraad":50,"latitude":45.324789,"longitude":9.013857,"canPickup":true,"canDropoff":true,"openingstijden":{"ma":"09:00 - 19:00","di":"09:00 - 19:00","wo":"09:00 - 19:00","do":"09:00 - 19:00","vr":"09:00 - 19:00","za":"gesloten","zo":"gesloten"}}},{"type":"Feature","geometry":{"type":"Polygon","coordinates":[[[8.9919454,45.3228507],[8.9923619,45.321199],[8.9945724,45.3214827],[8.9949697,45.319912],[8.9960574,45.3209517],[8.9968516,45.3209877],[8.9979139,45.3172927],[8.9981085,45.3173512],[8.9983046,45.3175402],[8.9983892,45.3183773],[8.998933,45.3184989],[9.0002264,45.3193135],[9.0020685,45.3209292],[9.0024609,45.3203351],[9.0034114,45.3199615],[9.0042152,45.32011],[9.00363,45.3208616],[9.0075568,45.3219956],[9.0120054,45.3235074],[9.0139019,45.3237727],[9.0159739,45.324281],[9.0172484,45.3246724],[9.0186586,45.3253157],[9.0194498,45.3255361],[9.0200368,45.325599],[9.0201443,45.3274308],[9.0200711,45.3276693],[9.0195545,45.3283895],[9.0194637,45.3287361],[9.0197989,45.3294921],[9.0183762,45.3298164],[9.0177843,45.329677],[9.0165881,45.3299697],[9.0164589,45.3302308],[9.0163331,45.3308339],[9.0155467,45.3308115],[9.0154271,45.3310815],[9.015156,45.3312796],[9.0147957,45.3320538],[9.0145373,45.3322293],[9.0142726,45.3327964],[9.0140829,45.333332],[9.0141851,45.3335706],[9.0097918,45.3341426],[9.0071134,45.3345479],[9.006646,45.3346784],[9.0053076,45.3346425],[9.0044589,45.3350881],[9.0037188,45.3358128],[9.0032226,45.3361548],[9.0021213,45.3366196],[8.9996555,45.3374826],[8.9991083,45.3378651],[8.9977697,45.3383827],[8.996696,45.3390353],[8.9963641,45.3393908],[8.9959621,45.3394673],[8.9956845,45.3396293],[8.9940252,45.3401468],[8.9932498,45.3402143],[8.9928238,45.3403763],[8.9929739,45.3392466],[8.9942821,45.3393277],[8.9952491,45.337487],[8.9942951,45.3373384],[8.9951934,45.3354707],[8.9941261,45.3352906],[8.9939699,45.3347596],[8.9940943,45.33417],[8.9942539,45.3339945],[8.9945953,45.3338235],[8.9958747,45.333792],[8.9965543,45.3333329],[8.9945014,45.3314696],[8.9931775,45.3306324],[8.992876,45.3303354],[8.9929096,45.3295478],[8.993942,45.3263299],[8.9948751,45.3264739],[8.9949868,45.3259788],[8.991079,45.3252855],[8.9919454,45.3228507]]]},"properties":{"type":"boundary","gemeente":"Bubbiano"}}]}