{"type":"FeatureCollection","metadata":{"gemeente":"Buronzo","slug":"buronzo","generated_at":"2026-09-26T14:27:00.826453Z","total_points":3,"providers":["PosteItaliane","DPD","Amazon"],"bounds":[8.266231,45.48076101,8.26629446,45.4820809]},"features":[{"type":"Feature","geometry":{"type":"Point","coordinates":[8.26629446,45.48076101]},"properties":{"type":"pakketpunt","locatieNaam":"Buronzo","straatNaam":"Piazza Giuseppe Mazzini","straatNr":"1","vervoerder":"PosteItaliane","puntType":"postkantoor","bezettingsgraad":50,"latitude":45.48076101,"longitude":8.26629446,"canPickup":true,"canDropoff":true,"openingstijden":{"za":"08:20 - 12:45","zo":"gesloten","ma":"gesloten","di":"08:20 - 13:45","wo":"gesloten","do":"08:20 - 13:45","vr":"gesloten"}}},{"type":"Feature","geometry":{"type":"Point","coordinates":[8.266231,45.4820809]},"properties":{"type":"pakketpunt","locatieNaam":"Non Solo Pane","straatNaam":"VIA XX SETTEMBRE","straatNr":"2","vervoerder":"DPD","puntType":"pickup_point","bezettingsgraad":50,"latitude":45.4820809,"longitude":8.266231,"canPickup":true,"canDropoff":true,"openingstijden":{"ma":"06:00 - 13:00","di":"06:00 - 13:00","wo":"06:00 - 13:00","do":"06:00 - 13:00","vr":"06:00 - 13:00","za":"06:00 - 13:00","zo":"gesloten"}}},{"type":"Feature","geometry":{"type":"Point","coordinates":[8.266231,45.4820809]},"properties":{"type":"pakketpunt","locatieNaam":"Amazon Counter (fermopoint)","straatNaam":"Non Solo Pane","straatNr":"","vervoerder":"Amazon","puntType":"helix","bezettingsgraad":50,"latitude":45.4820809,"longitude":8.266231,"canPickup":true,"canDropoff":false,"openingstijden":null}},{"type":"Feature","geometry":{"type":"Polygon","coordinates":[[[8.2188883,45.4760423],[8.2187665,45.4748443],[8.2180491,45.4729177],[8.217779,45.4724163],[8.216276,45.4703492],[8.2173334,45.4670575],[8.2174825,45.4663115],[8.2176779,45.4646116],[8.2177237,45.461475],[8.2181576,45.4587416],[8.2184055,45.4583248],[8.220085,45.4571706],[8.2205426,45.4563591],[8.2204416,45.4563089],[8.221334,45.45636],[8.2266128,45.4563149],[8.2291808,45.4570433],[8.2298203,45.4571556],[8.2304076,45.4571146],[8.2313745,45.4567881],[8.2346882,45.4571164],[8.2346588,45.4571972],[8.2390495,45.457213],[8.2404991,45.4575467],[8.2420248,45.4577459],[8.2448068,45.4583044],[8.2454935,45.4583629],[8.2460315,45.4581504],[8.246763,45.4577232],[8.2490945,45.4576845],[8.2514679,45.4573491],[8.2547484,45.4572985],[8.256727,45.458018],[8.2592491,45.459299],[8.2615144,45.4607809],[8.2662603,45.4635433],[8.2716531,45.4663052],[8.2743779,45.4675152],[8.2748312,45.4679501],[8.2739905,45.4692274],[8.2756939,45.4699133],[8.2768122,45.470465],[8.2823499,45.4734928],[8.2827465,45.4755115],[8.2850241,45.4759984],[8.2869872,45.4773293],[8.2952588,45.4832629],[8.3032742,45.4885867],[8.309441,45.4928547],[8.3096831,45.4931397],[8.3103883,45.4936165],[8.3106509,45.4936991],[8.3091252,45.4963092],[8.308586,45.4970305],[8.3000399,45.5021991],[8.2973005,45.503942],[8.2963215,45.50444],[8.2942728,45.505962],[8.2934929,45.5066503],[8.2935684,45.5067588],[8.2934679,45.5068571],[8.2924381,45.5076384],[8.2929431,45.5086766],[8.2924958,45.5088404],[8.2922845,45.5091946],[8.2920337,45.5135736],[8.2919213,45.5177317],[8.2859539,45.5175892],[8.2797607,45.5169203],[8.2675711,45.5169147],[8.2676111,45.5137691],[8.2675006,45.5112436],[8.2651111,45.5061067],[8.2629116,45.5010924],[8.2622944,45.5010803],[8.2615365,45.5004084],[8.2615864,45.5002332],[8.2604223,45.4999962],[8.2582382,45.4990999],[8.2567096,45.4987209],[8.2562293,45.4986863],[8.2517734,45.496794],[8.2498973,45.4962101],[8.2461568,45.4941467],[8.2442457,45.4932961],[8.2449231,45.4925184],[8.2464332,45.4905166],[8.2465895,45.4905221],[8.2463641,45.4900571],[8.2459119,45.4896041],[8.2450549,45.4889728],[8.2423956,45.4860704],[8.2402183,45.4851963],[8.2379175,45.4840333],[8.236996,45.4832756],[8.236549,45.4835696],[8.2358145,45.4830066],[8.2353576,45.4824635],[8.2335195,45.4808625],[8.2318171,45.4792039],[8.2324145,45.4784023],[8.2322027,45.4782208],[8.2310415,45.477637],[8.2307215,45.4772388],[8.2299838,45.4770628],[8.2296049,45.4768172],[8.2268436,45.476533],[8.2264281,45.4763321],[8.2257694,45.4755311],[8.2255744,45.4754037],[8.2241381,45.475124],[8.2233474,45.4752311],[8.2209882,45.4759216],[8.2188883,45.4760423]]]},"properties":{"type":"boundary","gemeente":"Buronzo"}}]}