{"type":"FeatureCollection","metadata":{"gemeente":"Caggiano","slug":"caggiano","generated_at":"2026-09-26T14:27:01.256175Z","total_points":7,"providers":["PosteItaliane","DPD","GLS","DHL","Amazon","FedEx"],"bounds":[15.493,40.5654674,15.4964013,40.567248]},"features":[{"type":"Feature","geometry":{"type":"Point","coordinates":[15.49304255,40.5672479]},"properties":{"type":"pakketpunt","locatieNaam":"Caggiano","straatNaam":"Viale Principessa Elena","straatNr":"20","vervoerder":"PosteItaliane","puntType":"postkantoor","bezettingsgraad":50,"latitude":40.5672479,"longitude":15.49304255,"canPickup":true,"canDropoff":true,"openingstijden":{"za":"08:20 - 12:35","zo":"gesloten","ma":"08:20 - 13:35","di":"08:20 - 13:35","wo":"08:20 - 13:35","do":"08:20 - 13:35","vr":"08:20 - 13:35"}}},{"type":"Feature","geometry":{"type":"Point","coordinates":[15.49335526,40.56701008]},"properties":{"type":"pakketpunt","locatieNaam":"Laltrolato","straatNaam":"V.LE PRINC. ELENA","straatNr":"24","vervoerder":"DPD","puntType":"pickup_point","bezettingsgraad":50,"latitude":40.56701008,"longitude":15.49335526,"canPickup":true,"canDropoff":true,"openingstijden":{"ma":"06:00 - 23:45","di":"06:00 - 23:45","wo":"06:00 - 23:45","do":"06:00 - 23:45","vr":"06:00 - 23:45","za":"06:00 - 23:45","zo":"06:00 - 23:45"}}},{"type":"Feature","geometry":{"type":"Point","coordinates":[15.4962861,40.5654674]},"properties":{"type":"pakketpunt","locatieNaam":"COMACA","straatNaam":"Localita' Casale Area Pip","straatNr":"2","vervoerder":"GLS","puntType":"parcel_shop","bezettingsgraad":50,"latitude":40.5654674,"longitude":15.4962861,"canPickup":true,"canDropoff":true,"openingstijden":"ma: 08:00 - 13:00, 15:00 - 19:00; di: 08:00 - 13:00, 15:00 - 19:00"}},{"type":"Feature","geometry":{"type":"Point","coordinates":[15.493043,40.567248]},"properties":{"type":"pakketpunt","locatieNaam":"Ufficio Postale CAGGIANO","straatNaam":"VIALE PRINCIPESSA ELENA 20","straatNr":"","vervoerder":"DHL","puntType":"postOffice","bezettingsgraad":50,"latitude":40.567248,"longitude":15.493043,"canPickup":true,"canDropoff":true,"openingstijden":{"ma":"08:20 - 13:35","di":"08:20 - 13:35","wo":"08:20 - 13:35","do":"08:20 - 13:35","vr":"08:20 - 13:35","za":"08:20 - 12:35","zo":"gesloten"}}},{"type":"Feature","geometry":{"type":"Point","coordinates":[15.493,40.5672]},"properties":{"type":"pakketpunt","locatieNaam":"Ufficio Postale CAGGIANO","straatNaam":"VIALE PRINCIPESSA ELENA 20","straatNr":"","vervoerder":"Amazon","puntType":"3p","bezettingsgraad":50,"latitude":40.5672,"longitude":15.493,"canPickup":true,"canDropoff":false,"openingstijden":null}},{"type":"Feature","geometry":{"type":"Point","coordinates":[15.4933552588608,40.5670100765297]},"properties":{"type":"pakketpunt","locatieNaam":"Amazon Counter","straatNaam":"Laltrolato (fermopoint)","straatNr":"","vervoerder":"Amazon","puntType":"helix","bezettingsgraad":50,"latitude":40.5670100765297,"longitude":15.4933552588608,"canPickup":true,"canDropoff":false,"openingstijden":null}},{"type":"Feature","geometry":{"type":"Point","coordinates":[15.4964013,40.5663226]},"properties":{"type":"pakketpunt","locatieNaam":"FedEx OnSite","straatNaam":"Località Casale Area PIP, 2","straatNr":"","vervoerder":"FedEx","puntType":"servicepunt","bezettingsgraad":50,"latitude":40.5663226,"longitude":15.4964013,"canPickup":true,"canDropoff":true,"openingstijden":{"ma":"08:00 - 13:00, 15:00 - 19:00","di":"08:00 - 13:00, 15:00 - 19:00","wo":"08:00 - 13:00, 15:00 - 19:00","do":"08:00 - 13:00, 15:00 - 19:00","vr":"08:00 - 13:00, 15:00 - 19:00","za":"gesloten","zo":"gesloten"}}},{"type":"Feature","geometry":{"type":"Polygon","coordinates":[[[15.4450822,40.5852313],[15.4458425,40.5865441],[15.4476247,40.5860333],[15.4483524,40.5859785],[15.4487929,40.5860267],[15.4490005,40.5857351],[15.4488,40.5851215],[15.4495785,40.5848751],[15.4521856,40.5844128],[15.4528033,40.5842044],[15.4551237,40.5827546],[15.4569024,40.5820802],[15.4584534,40.5817306],[15.4600039,40.5817389],[15.4608478,40.5821608],[15.4624365,40.5824387],[15.4637709,40.5825253],[15.4671254,40.5822752],[15.4689946,40.5825426],[15.4691884,40.5831614],[15.4690496,40.5836552],[15.4689571,40.5857311],[15.4701895,40.586201],[15.4699378,40.5869073],[15.4700165,40.5871761],[15.4718885,40.5872483],[15.4720077,40.5880981],[15.4724489,40.5887949],[15.4731307,40.5888643],[15.4733669,40.5894513],[15.4733134,40.5897321],[15.4722844,40.5898819],[15.472093,40.5900929],[15.4727068,40.5906074],[15.4734026,40.5908728],[15.4743788,40.5909564],[15.4748974,40.5911841],[15.4754702,40.5912643],[15.4758513,40.5914125],[15.475667,40.591803],[15.4757147,40.5921767],[15.4753532,40.5924535],[15.4772598,40.5930662],[15.4797794,40.5935003],[15.4809473,40.593385],[15.4825195,40.5933594],[15.4837733,40.5936262],[15.4849004,40.5940171],[15.4854531,40.5936755],[15.485802,40.5930123],[15.4863532,40.5922747],[15.4866948,40.5921295],[15.4876986,40.5922393],[15.4883956,40.592137],[15.4886999,40.5917148],[15.4885271,40.5904511],[15.4885797,40.5895796],[15.488763,40.5888223],[15.4891698,40.5881333],[15.4900035,40.5873573],[15.4908749,40.5868491],[15.4932127,40.5866857],[15.4964698,40.5860967],[15.4993396,40.5857141],[15.5007215,40.585645],[15.5022011,40.5858989],[15.5056009,40.5870206],[15.5064625,40.5868819],[15.5072966,40.5865062],[15.5084559,40.5864856],[15.5101282,40.5857474],[15.5106509,40.5845389],[15.5115706,40.5843158],[15.5122971,40.5840182],[15.5125711,40.5837102],[15.5130477,40.5829227],[15.5134889,40.5817412],[15.513921,40.5811182],[15.5149534,40.5802498],[15.5157977,40.5794055],[15.515897,40.5785313],[15.5153261,40.5779877],[15.5144496,40.5777448],[15.5141044,40.5773054],[15.513886,40.5750633],[15.5141867,40.5741373],[15.5153383,40.5735095],[15.51697,40.5734486],[15.5184059,40.5726652],[15.5190243,40.5716537],[15.5198889,40.5704887],[15.5209495,40.5702306],[15.5244125,40.5704482],[15.5270097,40.5716643],[15.529922,40.572345],[15.5307048,40.5727011],[15.5334492,40.5731803],[15.5339583,40.5720039],[15.5353826,40.5712704],[15.5362985,40.5706334],[15.5363275,40.5696778],[15.5373017,40.5688979],[15.5385244,40.5683064],[15.539341,40.5680622],[15.5386125,40.5674419],[15.5377926,40.5669621],[15.5349624,40.5658674],[15.5342329,40.5649234],[15.5343439,40.5641116],[15.5356735,40.5634825],[15.5354598,40.5631977],[15.5347451,40.5626308],[15.5331687,40.5618654],[15.532646,40.5613461],[15.5326379,40.560433],[15.5325055,40.5599681],[15.5313435,40.5595031],[15.5303527,40.5598698],[15.5295283,40.5599616],[15.5293935,40.5594878],[15.529367,40.5589898],[15.5285623,40.558815],[15.5278278,40.5585282],[15.5265771,40.5573346],[15.5268928,40.5569117],[15.5308195,40.5559329],[15.531146,40.5554238],[15.5319741,40.5527264],[15.5310069,40.5513998],[15.5313688,40.5506953],[15.531884,40.5487356],[15.5331897,40.5484229],[15.5352088,40.5480922],[15.5361041,40.5475644],[15.5360402,40.5454305],[15.5363259,40.5442938],[15.5381093,40.5414745],[15.5376697,40.5395555],[15.5371189,40.5387319],[15.5362376,40.5377245],[15.535659,40.5366008],[15.5359833,40.5353764],[15.5377236,40.5344586],[15.5392048,40.5338029],[15.5419933,40.5324024],[15.5453042,40.5316561],[15.5452752,40.5311942],[15.544736,40.5300369],[15.5447403,40.5293257],[15.5437633,40.5294668],[15.543382,40.529367],[15.5429441,40.5288384],[15.5421888,40.5289398],[15.5414675,40.5288459],[15.5407954,40.5289381],[15.5397825,40.5294816],[15.5388102,40.5291274],[15.5391005,40.5285214],[15.5401391,40.5280754],[15.5407277,40.5277314],[15.5404264,40.5270016],[15.5400662,40.5263921],[15.5399561,40.5243734],[15.5397499,40.5235751],[15.5386133,40.5232437],[15.5369697,40.5229726],[15.53613,40.5227369],[15.5353071,40.5222614],[15.5336749,40.5242617],[15.5333044,40.5252997],[15.5324203,40.5255164],[15.5309814,40.5255621],[15.5295797,40.5259432],[15.5290768,40.5265162],[15.527339,40.5277308],[15.5258541,40.5281975],[15.524914,40.5286873],[15.5262373,40.5304212],[15.5270425,40.5310281],[15.5260191,40.5313291],[15.5253512,40.5318125],[15.5252169,40.5328101],[15.5248423,40.5332183],[15.5224142,40.534175],[15.5218396,40.5342256],[15.5208316,40.5336707],[15.5197315,40.5335936],[15.5172906,40.5337229],[15.5154035,40.5325428],[15.5142846,40.5328177],[15.5135199,40.5333695],[15.5124497,40.533781],[15.5105006,40.5337519],[15.5084588,40.5338764],[15.5066062,40.5342647],[15.5055587,40.5360339],[15.5047278,40.5369224],[15.5035605,40.5371864],[15.5029155,40.5378933],[15.5019928,40.537563],[15.5002013,40.5380197],[15.4989614,40.5379908],[15.4971641,40.5376738],[15.4953558,40.5374564],[15.4936587,40.5378987],[15.492282,40.5385434],[15.4890034,40.5374414],[15.4889866,40.5369788],[15.4878149,40.5365274],[15.4876426,40.5371851],[15.4872308,40.5377438],[15.487134,40.5387078],[15.487836,40.5396222],[15.4873332,40.539988],[15.4863162,40.5399014],[15.4857521,40.5402437],[15.484076,40.5402797],[15.4807804,40.5401594],[15.4798698,40.5405482],[15.4785067,40.5409534],[15.4775175,40.5414141],[15.4767074,40.5420492],[15.4729592,40.5432277],[15.4719919,40.5431066],[15.4708929,40.5432629],[15.470124,40.5431577],[15.469743,40.5426796],[15.4687615,40.5420913],[15.4689775,40.5427541],[15.4698714,40.5441304],[15.469782,40.5448149],[15.4702012,40.5456508],[15.4698818,40.5457183],[15.4686876,40.5454165],[15.4682875,40.5456414],[15.4684223,40.5460209],[15.469016,40.546388],[15.4701583,40.5479303],[15.4712986,40.5485591],[15.4709099,40.5490535],[15.4693351,40.5502401],[15.468821,40.551025],[15.4680235,40.5518303],[15.4670893,40.5531518],[15.4664632,40.5532815],[15.4663131,40.553812],[15.4659,40.5539477],[15.4652031,40.5536809],[15.4645578,40.5542076],[15.4641016,40.5551198],[15.4628718,40.5566199],[15.4624536,40.5574669],[15.4618651,40.5579634],[15.4606159,40.5582856],[15.4582956,40.5593474],[15.4565249,40.5596088],[15.4548049,40.5601733],[15.4541211,40.5602027],[15.4532768,40.559494],[15.4521755,40.5595153],[15.4483187,40.5598832],[15.4487965,40.5601205],[15.4490422,40.5603882],[15.4501309,40.5609072],[15.4507669,40.5614874],[15.4517699,40.5618744],[15.4517246,40.5622644],[15.450918,40.5633311],[15.4504954,40.5637373],[15.450425,40.5640698],[15.450811,40.5647759],[15.4503059,40.5655435],[15.4498996,40.5664167],[15.4497519,40.5671495],[15.449605,40.5703303],[15.4491606,40.5710077],[15.4477527,40.5722972],[15.4469483,40.5727741],[15.4452442,40.573409],[15.4444506,40.5734272],[15.4435571,40.5737473],[15.4428038,40.5742215],[15.4426394,40.5746765],[15.4439041,40.5763506],[15.4439176,40.5766463],[15.4435787,40.5769009],[15.4437249,40.5778542],[15.4435162,40.5783531],[15.4427154,40.5789472],[15.4432723,40.5797708],[15.4416759,40.5803867],[15.4413117,40.5807143],[15.4414672,40.5815102],[15.4420087,40.5822556],[15.4432295,40.583441],[15.4436515,40.584043],[15.4442228,40.5846299],[15.4448125,40.5848791],[15.4450822,40.5852313]]]},"properties":{"type":"boundary","gemeente":"Caggiano"}}]}