{"type":"FeatureCollection","metadata":{"gemeente":"Caiolo","slug":"caiolo","generated_at":"2026-09-26T14:27:01.337895Z","total_points":3,"providers":["PosteItaliane","DHL"],"bounds":[9.81678713,46.1504773,9.81734621,46.150685]},"features":[{"type":"Feature","geometry":{"type":"Point","coordinates":[9.81678713,46.1504773]},"properties":{"type":"pakketpunt","locatieNaam":"Caiolo","straatNaam":"Via Guglielmo Marconi","straatNr":"2","vervoerder":"PosteItaliane","puntType":"postkantoor","bezettingsgraad":50,"latitude":46.1504773,"longitude":9.81678713,"canPickup":true,"canDropoff":true,"openingstijden":{"za":"gesloten","zo":"gesloten","ma":"08:20 - 13:45","di":"gesloten","wo":"08:20 - 13:45","do":"gesloten","vr":"08:20 - 13:45"}}},{"type":"Feature","geometry":{"type":"Point","coordinates":[9.81734621,46.15068488]},"properties":{"type":"pakketpunt","locatieNaam":"Tabaccheria N. 1","straatNaam":"Via Guglielmo Marconi","straatNr":"12","vervoerder":"PosteItaliane","puntType":"servicepunt","bezettingsgraad":50,"latitude":46.15068488,"longitude":9.81734621,"canPickup":true,"canDropoff":true,"openingstijden":{"za":"06:30 - 22:00","zo":"06:30 - 22:00","ma":"06:30 - 22:00","di":"06:30 - 22:00","wo":"06:30 - 22:00","do":"06:30 - 22:00","vr":"06:30 - 22:00"}}},{"type":"Feature","geometry":{"type":"Point","coordinates":[9.817346,46.150685]},"properties":{"type":"pakketpunt","locatieNaam":"TABACCHERIA N. 1","straatNaam":"VIA GUGLIELMO MARCONI 12","straatNr":"","vervoerder":"DHL","puntType":"parcelShop","bezettingsgraad":50,"latitude":46.150685,"longitude":9.817346,"canPickup":true,"canDropoff":true,"openingstijden":{"ma":"06:30 - 22:00","di":"06:30 - 22:00","wo":"06:30 - 22:00","do":"06:30 - 22:00","vr":"06:30 - 22:00","za":"06:30 - 22:00","zo":"06:30 - 22:00"}}},{"type":"Feature","geometry":{"type":"Polygon","coordinates":[[[9.7849663,46.1563407],[9.7893387,46.157276],[9.7930225,46.1582314],[9.7953414,46.1591738],[9.7961024,46.1594025],[9.7967582,46.1597489],[9.7983656,46.1604037],[9.8003259,46.1608265],[9.8025972,46.1609276],[9.8059073,46.1608772],[9.8064964,46.1607516],[9.8109871,46.1602788],[9.8124352,46.1602235],[9.8171661,46.1605677],[9.8193937,46.1608803],[9.8204134,46.160756],[9.8220773,46.160186],[9.8227378,46.1598528],[9.8232182,46.1593903],[9.8237459,46.159166],[9.8251905,46.1590971],[9.8263175,46.1587829],[9.8273031,46.1593023],[9.8276863,46.1594161],[9.828036,46.1592942],[9.8283461,46.1587511],[9.8284543,46.1570984],[9.8277537,46.1548566],[9.8274987,46.1547576],[9.8270506,46.1540923],[9.8278583,46.1540336],[9.8283004,46.153202],[9.8285293,46.15293],[9.8289181,46.1528403],[9.8288352,46.1526546],[9.829084,46.1526044],[9.8288733,46.1523135],[9.8279587,46.1514821],[9.8277098,46.1511319],[9.8273421,46.1508819],[9.827995,46.1505936],[9.8283597,46.150603],[9.8284547,46.1505688],[9.8283685,46.1504544],[9.828993,46.1502972],[9.8284923,46.149419],[9.8283481,46.1488682],[9.8290624,46.1488278],[9.829037,46.1483065],[9.8291285,46.1480808],[9.8293647,46.1480523],[9.8298545,46.1471702],[9.8296535,46.146904],[9.8287746,46.1465003],[9.8287409,46.1462299],[9.8285965,46.1459645],[9.8286418,46.1454324],[9.828817,46.1454294],[9.8288933,46.1452305],[9.8285754,46.1452267],[9.8285021,46.1446043],[9.828568,46.1440761],[9.8289167,46.1440447],[9.8290621,46.1431508],[9.8289881,46.1431656],[9.8289678,46.1429828],[9.8290147,46.1427166],[9.8292255,46.1427652],[9.8294429,46.141992],[9.8293834,46.1413243],[9.8297263,46.1412401],[9.8296973,46.1411204],[9.8298413,46.141143],[9.8306325,46.1409023],[9.8309459,46.1406812],[9.831493,46.1396396],[9.8318489,46.1391651],[9.8322862,46.1388918],[9.8339932,46.1382327],[9.8342008,46.1380206],[9.8329665,46.137284],[9.8340703,46.1356599],[9.8357306,46.1357211],[9.8357042,46.1354631],[9.8351427,46.1345382],[9.8354835,46.1344958],[9.8353337,46.1340212],[9.8355717,46.133689],[9.8356155,46.1333039],[9.8357118,46.1332935],[9.8355961,46.1331179],[9.8356256,46.1329791],[9.8352712,46.1327045],[9.8350955,46.1323461],[9.8352783,46.1322719],[9.8351451,46.1320627],[9.8355493,46.1318687],[9.8355603,46.1317464],[9.8356829,46.1317103],[9.835657,46.1316109],[9.8357744,46.1315028],[9.8353397,46.1314915],[9.8354456,46.1313975],[9.8353699,46.1310762],[9.8354642,46.1307328],[9.8355831,46.1305911],[9.8361193,46.1304175],[9.8360066,46.1299899],[9.8363084,46.1296786],[9.8360764,46.1294773],[9.8359894,46.1292344],[9.8363715,46.1288989],[9.8364283,46.1286195],[9.8361715,46.1284455],[9.8362522,46.1279425],[9.8361276,46.1274761],[9.8361824,46.1271305],[9.8354993,46.1271012],[9.835257,46.1268547],[9.8353222,46.1267304],[9.8349825,46.1263946],[9.8352697,46.1260815],[9.8350119,46.1230542],[9.835059,46.1213433],[9.8332226,46.1193649],[9.8334836,46.1158651],[9.8340977,46.1110778],[9.8352448,46.1104861],[9.8347016,46.1088711],[9.8344491,46.1085439],[9.8352116,46.1059476],[9.8353905,46.1017038],[9.8356224,46.1009414],[9.8366316,46.1003607],[9.8395474,46.0964205],[9.8418273,46.0919352],[9.8418173,46.0878657],[9.8419019,46.0864533],[9.8423606,46.0834496],[9.8377137,46.0638444],[9.8380308,46.062159],[9.838377,46.061225],[9.8390158,46.0583763],[9.839258,46.057722],[9.8394996,46.0560705],[9.8396284,46.0558875],[9.8404197,46.0524269],[9.8410249,46.0522349],[9.8415473,46.0521884],[9.8422827,46.0516201],[9.8425133,46.0516003],[9.8455699,46.0494004],[9.849674,46.0499477],[9.8490621,46.048654],[9.8482583,46.0474405],[9.8481244,46.047032],[9.8481512,46.0468833],[9.8440742,46.045253],[9.8409767,46.0441688],[9.8381657,46.0438609],[9.8371324,46.0439045],[9.835971,46.0443495],[9.8348641,46.0449786],[9.8307384,46.0480326],[9.830442,46.0483093],[9.8301686,46.0488198],[9.8295367,46.0494589],[9.8291223,46.0497319],[9.8281953,46.0499771],[9.8276082,46.0500489],[9.8254792,46.0500868],[9.8221819,46.0500071],[9.8190009,46.0498184],[9.8170283,46.0494005],[9.8141496,46.0492186],[9.809987,46.0494888],[9.8100969,46.0505119],[9.8098096,46.0508649],[9.8092388,46.05194],[9.8083409,46.0525314],[9.8071595,46.0536197],[9.8074095,46.053924],[9.8079812,46.0542304],[9.8082734,46.0547684],[9.8086324,46.0551168],[9.808815,46.055453],[9.8090107,46.0562346],[9.8085668,46.0574888],[9.8083633,46.0578232],[9.8083685,46.0581787],[9.8081518,46.0584997],[9.8066877,46.0591671],[9.8060405,46.0595587],[9.8056575,46.0598944],[9.8046323,46.0665324],[9.8092901,46.0679113],[9.8092315,46.0682729],[9.8092986,46.0684947],[9.809397,46.0686718],[9.809744,46.0689249],[9.8099797,46.0692121],[9.8100379,46.0693729],[9.8099833,46.0696269],[9.8101898,46.0701044],[9.8109672,46.0712013],[9.8112477,46.0718159],[9.8111185,46.0730318],[9.8112077,46.0733821],[9.8109539,46.0741534],[9.8104835,46.0750343],[9.8104552,46.0753985],[9.8106315,46.0756452],[9.8114877,46.0762692],[9.8118357,46.0767392],[9.8119379,46.077094],[9.8118935,46.0778143],[9.8116423,46.0784371],[9.8111923,46.0787238],[9.8101728,46.0799775],[9.8093855,46.0805276],[9.8100144,46.0807526],[9.8102522,46.0809849],[9.8105837,46.0814326],[9.8110326,46.0823879],[9.8117462,46.0830893],[9.8118354,46.0834352],[9.8116954,46.0837017],[9.8113256,46.0839518],[9.81076,46.0846354],[9.8098615,46.0853212],[9.8091232,46.0865793],[9.8101283,46.0868719],[9.8107353,46.087358],[9.8118394,46.0880072],[9.8123855,46.0890788],[9.8124894,46.0904281],[9.8133105,46.0910703],[9.8136374,46.0917474],[9.8141816,46.0923556],[9.8144172,46.0931999],[9.8142946,46.0935518],[9.8137919,46.0943339],[9.8138963,46.0950531],[9.8140724,46.0954839],[9.8140799,46.0959923],[9.8136277,46.096693],[9.8128273,46.0973557],[9.8119872,46.0979647],[9.8108199,46.098531],[9.8102647,46.09894],[9.8101889,46.0991745],[9.8101859,46.100187],[9.8102085,46.1004029],[9.8104359,46.1007972],[9.8102568,46.1011585],[9.8102424,46.1013926],[9.810444,46.1022327],[9.8098425,46.103461],[9.8097451,46.1043167],[9.8087752,46.105903],[9.807926,46.1068901],[9.8072611,46.1074348],[9.8069577,46.1078149],[9.8068436,46.1080857],[9.8067197,46.1087931],[9.8067408,46.1097964],[9.8068327,46.1102233],[9.8074167,46.1114432],[9.8074616,46.1116363],[9.8074037,46.1117718],[9.8061861,46.1128527],[9.8027792,46.1129882],[9.7990031,46.1137023],[9.7953876,46.120782],[9.7937442,46.1242361],[9.7919795,46.1265195],[9.7896201,46.1303724],[9.7887833,46.1357804],[9.7885965,46.1361385],[9.7883281,46.1377995],[9.7881573,46.1381082],[9.7890928,46.1390444],[9.7890817,46.1394361],[9.7889091,46.1399101],[9.7891513,46.1402188],[9.7889612,46.1403478],[9.7889747,46.1404173],[9.788498,46.1409311],[9.7880267,46.1409488],[9.7881195,46.1413079],[9.7881275,46.1418706],[9.7885238,46.143031],[9.7885319,46.1438896],[9.788331,46.1441375],[9.7883866,46.1445229],[9.7883369,46.1448423],[9.7885661,46.1451105],[9.788316,46.1463044],[9.7867137,46.1477861],[9.7867382,46.1480383],[9.786574,46.1482338],[9.786648,46.1484421],[9.786395,46.1485541],[9.7859343,46.1493202],[9.7856712,46.1496062],[9.7856277,46.149769],[9.7860774,46.1496963],[9.7859996,46.150393],[9.7862492,46.1503303],[9.7859934,46.1511298],[9.7863745,46.1512171],[9.7860314,46.1520374],[9.7856949,46.1542008],[9.7849663,46.1563407]]]},"properties":{"type":"boundary","gemeente":"Caiolo"}}]}