{"type":"FeatureCollection","metadata":{"gemeente":"Cairano","slug":"cairano","generated_at":"2026-09-26T14:27:01.347312Z","total_points":1,"providers":["PosteItaliane"],"bounds":[15.36774072,40.89572826,15.36774072,40.89572826]},"features":[{"type":"Feature","geometry":{"type":"Point","coordinates":[15.36774072,40.89572826]},"properties":{"type":"pakketpunt","locatieNaam":"Cairano","straatNaam":"Via Irpino","straatNr":"38","vervoerder":"PosteItaliane","puntType":"postkantoor","bezettingsgraad":50,"latitude":40.89572826,"longitude":15.36774072,"canPickup":true,"canDropoff":true,"openingstijden":{"za":"gesloten","zo":"gesloten","ma":"08:20 - 13:45","di":"gesloten","wo":"08:20 - 13:45","do":"gesloten","vr":"08:20 - 13:45"}}},{"type":"Feature","geometry":{"type":"Polygon","coordinates":[[[15.3402378,40.9108216],[15.3462463,40.9130008],[15.3479368,40.9139245],[15.3490354,40.9151103],[15.3499522,40.9153746],[15.3517526,40.9147486],[15.3530672,40.9140143],[15.3540637,40.9136892],[15.3553677,40.9134775],[15.357803,40.9133247],[15.3586573,40.9133404],[15.3600953,40.9135353],[15.3618632,40.9135364],[15.3650747,40.9123189],[15.3653929,40.9116262],[15.3667583,40.909728],[15.3669457,40.9088715],[15.3682205,40.9076353],[15.3686695,40.9070929],[15.3692524,40.9068852],[15.3707108,40.9069166],[15.371803,40.9070631],[15.3727156,40.9067919],[15.3742037,40.9054628],[15.375116,40.9051736],[15.377812,40.9048754],[15.3793072,40.9048419],[15.3805637,40.9045786],[15.3820913,40.9040662],[15.3838268,40.9040192],[15.3852944,40.9034696],[15.3881603,40.9021537],[15.389949,40.9015907],[15.3919896,40.9011261],[15.3949838,40.8996904],[15.3970244,40.8992797],[15.3997296,40.8992415],[15.4008444,40.8991479],[15.401435,40.8984174],[15.4018204,40.8975589],[15.4016727,40.8967301],[15.4001549,40.8948346],[15.3996591,40.8933502],[15.3998869,40.8917669],[15.4004856,40.8905996],[15.4031841,40.8893466],[15.4034615,40.8881926],[15.4031077,40.8866823],[15.4033601,40.8852236],[15.4041245,40.88384],[15.404997,40.8828463],[15.4051667,40.8816128],[15.4051188,40.8807827],[15.4045103,40.88119],[15.4027343,40.881613],[15.4021282,40.8815073],[15.4014719,40.8810669],[15.4010402,40.8804654],[15.4007619,40.8794009],[15.4010996,40.878536],[15.4015846,40.878095],[15.4018789,40.8777051],[15.4018404,40.8773112],[15.4015314,40.8770854],[15.4009137,40.8768903],[15.3995133,40.8769279],[15.398518,40.8770688],[15.3976048,40.8774662],[15.3963882,40.878344],[15.3954895,40.878799],[15.3945284,40.8789651],[15.3937453,40.8787611],[15.3929776,40.8774583],[15.3926776,40.877187],[15.3914881,40.8765692],[15.3907734,40.8760599],[15.3896678,40.8757659],[15.3881117,40.8756185],[15.385881,40.8759675],[15.3851836,40.8762403],[15.3843895,40.8762439],[15.3839503,40.8763269],[15.3832769,40.8768143],[15.3819151,40.8792616],[15.3812305,40.8801546],[15.3805571,40.8804891],[15.3791914,40.8807449],[15.3785991,40.8807823],[15.3776639,40.8811673],[15.3770004,40.8815731],[15.3760806,40.8825197],[15.3759873,40.8829659],[15.3761459,40.8834926],[15.3763199,40.8847565],[15.3762616,40.8851243],[15.3760505,40.885379],[15.3752323,40.8858385],[15.3734286,40.885862],[15.3726328,40.8857217],[15.3717417,40.8853661],[15.3708114,40.8848192],[15.3701582,40.8846124],[15.3695061,40.8845991],[15.3681291,40.8849815],[15.367443,40.8849115],[15.3653593,40.8840504],[15.3633432,40.8843736],[15.3625833,40.8843212],[15.3608707,40.8836691],[15.3608213,40.8833253],[15.36109,40.8826669],[15.3607678,40.8821672],[15.359499,40.8822419],[15.3581079,40.8818689],[15.3576744,40.8827525],[15.3572593,40.883122],[15.356845,40.8833654],[15.3562638,40.8834066],[15.3541736,40.8826538],[15.3536831,40.8825551],[15.3526987,40.8824881],[15.3510619,40.8826731],[15.3510857,40.8842165],[15.3508576,40.8845295],[15.3505622,40.8846719],[15.3501968,40.8851511],[15.349939,40.8858629],[15.3496565,40.886333],[15.3497342,40.8876833],[15.3496064,40.8880818],[15.3484614,40.8891577],[15.3482742,40.8899331],[15.3486931,40.8903825],[15.3486477,40.8909205],[15.3483713,40.8923578],[15.3477125,40.8938973],[15.3478613,40.8949152],[15.3476875,40.8956448],[15.3466912,40.8981795],[15.346445,40.8990437],[15.3463673,40.899903],[15.3465037,40.900737],[15.346104,40.9014701],[15.3422006,40.9019962],[15.3413832,40.9025094],[15.3406379,40.9031806],[15.339968,40.9042436],[15.3400511,40.9045765],[15.3406364,40.9049898],[15.3405198,40.9056217],[15.3400024,40.9063343],[15.3399929,40.9070009],[15.3403325,40.9080442],[15.3406438,40.90863],[15.3407316,40.9097548],[15.3402378,40.9108216]]]},"properties":{"type":"boundary","gemeente":"Cairano"}}]}