{"type":"FeatureCollection","metadata":{"gemeente":"Calto","slug":"calto","generated_at":"2026-09-26T13:09:40.694923Z","total_points":3,"providers":["PosteItaliane","DPD","Amazon"],"bounds":[11.35596089,44.9914765,11.365832554002,44.99438804]},"features":[{"type":"Feature","geometry":{"type":"Point","coordinates":[11.35596089,44.9914765]},"properties":{"type":"pakketpunt","locatieNaam":"Calto","straatNaam":"Piazza Quattro Novembre","straatNr":"153","vervoerder":"PosteItaliane","puntType":"postkantoor","bezettingsgraad":50,"latitude":44.9914765,"longitude":11.35596089,"canPickup":true,"canDropoff":true,"openingstijden":{"za":"gesloten","zo":"gesloten","ma":"08:20 - 13:45","di":"gesloten","wo":"08:20 - 13:45","do":"gesloten","vr":"08:20 - 13:45"}}},{"type":"Feature","geometry":{"type":"Point","coordinates":[11.36583255,44.99438804]},"properties":{"type":"pakketpunt","locatieNaam":"Bar La Capannina","straatNaam":"VIA DELL'INDUSTRIA NORD","straatNr":"83","vervoerder":"DPD","puntType":"pickup_point","bezettingsgraad":50,"latitude":44.99438804,"longitude":11.36583255,"canPickup":true,"canDropoff":true,"openingstijden":{"ma":"07:00 - 20:00","di":"07:00 - 20:00","wo":"07:00 - 20:00","do":"07:00 - 20:00","vr":"07:00 - 20:00","za":"07:00 - 20:00","zo":"gesloten"}}},{"type":"Feature","geometry":{"type":"Point","coordinates":[11.365832554002,44.9943880362362]},"properties":{"type":"pakketpunt","locatieNaam":"Amazon Counter (fermopoint)","straatNaam":"Bar La Capannina","straatNr":"","vervoerder":"Amazon","puntType":"helix","bezettingsgraad":50,"latitude":44.9943880362362,"longitude":11.365832554002,"canPickup":true,"canDropoff":false,"openingstijden":null}},{"type":"Feature","geometry":{"type":"Polygon","coordinates":[[[11.3255658,44.9961465],[11.3305426,44.9994401],[11.3311292,44.9996225],[11.3313875,45.0004612],[11.3314415,45.0015942],[11.3318048,45.0018224],[11.3321943,45.0026938],[11.3335765,45.0040495],[11.3356067,45.007234],[11.3384999,45.0106655],[11.339085,45.0115105],[11.339586,45.0124705],[11.3400598,45.0136328],[11.3409854,45.0136768],[11.3412791,45.0147798],[11.3454258,45.0153877],[11.3456506,45.015673],[11.3454793,45.0158277],[11.3454427,45.0166728],[11.3432425,45.0167432],[11.3429083,45.0168257],[11.3427543,45.0191476],[11.3452842,45.0197509],[11.3460087,45.0202409],[11.3502085,45.0200873],[11.3506511,45.0199486],[11.3526724,45.0198363],[11.35674,45.0198231],[11.3572016,45.0197429],[11.3586173,45.0190423],[11.3607887,45.0177373],[11.3612046,45.0173519],[11.3608602,45.0170528],[11.3614556,45.0165929],[11.3603893,45.0156965],[11.3593983,45.0146099],[11.3548661,45.0125955],[11.3544395,45.0119095],[11.3536773,45.0111362],[11.3512566,45.0079711],[11.3477682,45.0045534],[11.3481199,45.0043377],[11.3487852,45.0045309],[11.3514282,45.0044581],[11.351879,45.0045195],[11.3522479,45.0046644],[11.3532998,45.004761],[11.3546334,45.0050847],[11.354801,45.0050552],[11.3564487,45.0035278],[11.3575655,45.0031302],[11.360982,45.0023415],[11.3618727,45.0022853],[11.3627795,45.0023629],[11.3641194,45.0026532],[11.3649818,45.0026353],[11.3672332,45.0020822],[11.3692114,45.0013463],[11.3697387,45.0012529],[11.3699607,45.0010011],[11.3700691,45.0004099],[11.3703277,45.0002397],[11.3712438,44.9999145],[11.371975,44.9995342],[11.3730154,44.9994065],[11.3738596,44.9988773],[11.3739922,44.9986477],[11.373998,44.9983578],[11.3738252,44.9980463],[11.3728718,44.9968942],[11.3721831,44.9952702],[11.3894692,44.9889867],[11.3889328,44.9888971],[11.3842802,44.9824792],[11.3832767,44.9809753],[11.3843782,44.9805616],[11.388843,44.9794727],[11.3911918,44.9791606],[11.3911115,44.9785179],[11.3912251,44.977835],[11.3910132,44.9774362],[11.3909719,44.9768699],[11.3899299,44.9757198],[11.3889632,44.9733391],[11.3785695,44.9766671],[11.3710556,44.9795218],[11.3647944,44.9814842],[11.3604208,44.9827628],[11.3541561,44.9849864],[11.3501754,44.986166],[11.342147,44.9881131],[11.3364906,44.9899709],[11.3323224,44.9917577],[11.3303864,44.992502],[11.3293719,44.9930262],[11.3263039,44.9954045],[11.3255658,44.9961465]]]},"properties":{"type":"boundary","gemeente":"Calto"}}]}