{"type":"FeatureCollection","metadata":{"gemeente":"Camposampiero","slug":"camposampiero","generated_at":"2026-09-26T14:27:02.999131Z","total_points":34,"providers":["PosteItaliane","DPD","InPost","GLS","DHL","Amazon","FedEx"],"bounds":[11.92849577,45.55602,11.97557207,45.5729374]},"features":[{"type":"Feature","geometry":{"type":"Point","coordinates":[11.92849577,45.55800556]},"properties":{"type":"pakketpunt","locatieNaam":"Tabaccheria N. 9","straatNaam":"Borgo Padova","straatNr":"44","vervoerder":"PosteItaliane","puntType":"servicepunt","bezettingsgraad":50,"latitude":45.55800556,"longitude":11.92849577,"canPickup":true,"canDropoff":true,"openingstijden":{"za":"07:30 - 13:00, 15:30 - 19:30","zo":"gesloten","ma":"07:30 - 13:00, 15:30 - 19:30","di":"07:30 - 13:00, 15:30 - 19:30","wo":"07:30 - 13:00, 15:30 - 19:30","do":"07:30 - 13:00, 15:30 - 19:30","vr":"07:30 - 13:00, 15:30 - 19:30"}}},{"type":"Feature","geometry":{"type":"Point","coordinates":[11.93227803,45.57207736]},"properties":{"type":"pakketpunt","locatieNaam":"Camposampiero","straatNaam":"Piazzetta Dante Alighieri","straatNr":"12","vervoerder":"PosteItaliane","puntType":"postkantoor","bezettingsgraad":50,"latitude":45.57207736,"longitude":11.93227803,"canPickup":true,"canDropoff":true,"openingstijden":{"za":"08:20 - 12:35","zo":"gesloten","ma":"08:20 - 19:05","di":"08:20 - 19:05","wo":"08:20 - 19:05","do":"08:20 - 19:05","vr":"08:20 - 19:05"}}},{"type":"Feature","geometry":{"type":"Point","coordinates":[11.93227803,45.57207736]},"properties":{"type":"pakketpunt","locatieNaam":"Ufficio Postale Camposampiero","straatNaam":"Piazzetta Dante Alighieri","straatNr":"12","vervoerder":"PosteItaliane","puntType":"automaat","bezettingsgraad":50,"latitude":45.57207736,"longitude":11.93227803,"canPickup":true,"canDropoff":true,"openingstijden":{"za":"00:01 - 23:59","zo":"00:01 - 23:59","ma":"00:01 - 23:59","di":"00:01 - 23:59","wo":"00:01 - 23:59","do":"00:01 - 23:59","vr":"00:01 - 23:59"}}},{"type":"Feature","geometry":{"type":"Point","coordinates":[11.93856537,45.56192507]},"properties":{"type":"pakketpunt","locatieNaam":"Tabaccheria N. 11","straatNaam":"Via Straelle San Pietro","straatNr":"12/c","vervoerder":"PosteItaliane","puntType":"servicepunt","bezettingsgraad":50,"latitude":45.56192507,"longitude":11.93856537,"canPickup":true,"canDropoff":true,"openingstijden":{"za":"08:00 - 12:30, 16:00 - 19:30","zo":"gesloten","ma":"07:30 - 12:30","di":"07:30 - 12:30, 15:30 - 19:30","wo":"07:30 - 12:30, 15:30 - 19:30","do":"07:30 - 12:30, 15:30 - 19:30","vr":"07:30 - 12:30, 15:30 - 19:30"}}},{"type":"Feature","geometry":{"type":"Point","coordinates":[11.93229574,45.57200038]},"properties":{"type":"pakketpunt","locatieNaam":"Tabaccheria N. 1","straatNaam":"Piazza Castello","straatNr":"38","vervoerder":"PosteItaliane","puntType":"servicepunt","bezettingsgraad":50,"latitude":45.57200038,"longitude":11.93229574,"canPickup":true,"canDropoff":true,"openingstijden":{"za":"08:00 - 12:30, 15:00 - 19:30","zo":"08:00 - 13:00","ma":"08:00 - 12:30, 15:00 - 19:30","di":"08:00 - 12:30, 15:00 - 19:30","wo":"08:00 - 12:30, 15:00 - 19:30","do":"08:00 - 12:30, 15:00 - 19:30","vr":"08:00 - 12:30, 15:00 - 19:30"}}},{"type":"Feature","geometry":{"type":"Point","coordinates":[11.97557207,45.56959952]},"properties":{"type":"pakketpunt","locatieNaam":"Tabaccheria N. 2","straatNaam":"Via Borgo Rustega","straatNr":"31","vervoerder":"PosteItaliane","puntType":"servicepunt","bezettingsgraad":50,"latitude":45.56959952,"longitude":11.97557207,"canPickup":true,"canDropoff":true,"openingstijden":{"za":"07:30 - 12:30","zo":"gesloten","ma":"07:30 - 12:30, 15:30 - 19:00","di":"07:30 - 12:30, 15:30 - 19:00","wo":"07:30 - 12:30","do":"07:30 - 12:30, 15:30 - 19:00","vr":"07:30 - 12:30, 15:30 - 19:00"}}},{"type":"Feature","geometry":{"type":"Point","coordinates":[11.93636634,45.5729374]},"properties":{"type":"pakketpunt","locatieNaam":"Tabaccheria N. 13","straatNaam":"Via Giorgione","straatNr":"14","vervoerder":"PosteItaliane","puntType":"servicepunt","bezettingsgraad":50,"latitude":45.5729374,"longitude":11.93636634,"canPickup":true,"canDropoff":true,"openingstijden":{"za":"07:00 - 20:00","zo":"gesloten","ma":"07:00 - 20:00","di":"07:00 - 20:00","wo":"07:00 - 20:00","do":"07:00 - 20:00","vr":"00:00 - 20:00"}}},{"type":"Feature","geometry":{"type":"Point","coordinates":[11.9330004,45.5645133]},"properties":{"type":"pakketpunt","locatieNaam":"Marianna Servizi","straatNaam":"VIA A. M. BONORA","straatNr":"33","vervoerder":"DPD","puntType":"pickup_point","bezettingsgraad":50,"latitude":45.5645133,"longitude":11.9330004,"canPickup":true,"canDropoff":true,"openingstijden":{"ma":"08:30 - 12:30, 14:30 - 18:30","di":"08:30 - 12:30, 14:30 - 18:30","wo":"08:30 - 12:30, 14:30 - 18:30","do":"08:30 - 12:30, 14:30 - 18:30","vr":"08:30 - 16:30","za":"gesloten","zo":"gesloten"}}},{"type":"Feature","geometry":{"type":"Point","coordinates":[11.9384392,45.5619049]},"properties":{"type":"pakketpunt","locatieNaam":"Tabaccheria Peter Pan","straatNaam":"VIA STRAELLE S.PIETRO","straatNr":"12/C","vervoerder":"DPD","puntType":"pickup_point","bezettingsgraad":50,"latitude":45.5619049,"longitude":11.9384392,"canPickup":true,"canDropoff":true,"openingstijden":{"ma":"07:30 - 12:30","di":"07:30 - 12:30, 15:30 - 19:30","wo":"07:30 - 12:30, 15:30 - 19:30","do":"07:30 - 12:30, 15:30 - 19:30","vr":"07:30 - 12:30, 15:30 - 19:30","za":"08:00 - 12:30, 16:00 - 19:30","zo":"gesloten"}}},{"type":"Feature","geometry":{"type":"Point","coordinates":[11.9755175,45.5695753]},"properties":{"type":"pakketpunt","locatieNaam":"Tabaccheria da Ricky","straatNaam":"VIA BORGO RUSTEGA","straatNr":"31","vervoerder":"DPD","puntType":"pickup_point","bezettingsgraad":50,"latitude":45.5695753,"longitude":11.9755175,"canPickup":true,"canDropoff":true,"openingstijden":{"ma":"07:30 - 12:30, 15:30 - 19:00","di":"07:30 - 12:30, 15:30 - 19:00","wo":"07:30 - 12:30","do":"07:30 - 12:30, 15:30 - 19:00","vr":"07:30 - 12:30, 15:30 - 19:00","za":"07:30 - 12:30","zo":"gesloten"}}},{"type":"Feature","geometry":{"type":"Point","coordinates":[11.92973,45.55602]},"properties":{"type":"pakketpunt","locatieNaam":"InPost Locker 24/7","straatNaam":"Via Antonio Meucci","straatNr":"1","vervoerder":"InPost","puntType":"automaat","bezettingsgraad":50,"latitude":45.55602,"longitude":11.92973,"canPickup":true,"canDropoff":true,"openingstijden":null}},{"type":"Feature","geometry":{"type":"Point","coordinates":[11.97552,45.56977]},"properties":{"type":"pakketpunt","locatieNaam":"InPost Point","straatNaam":"Via Borgo Rustega","straatNr":"31","vervoerder":"InPost","puntType":"servicepunt","bezettingsgraad":50,"latitude":45.56977,"longitude":11.97552,"canPickup":true,"canDropoff":true,"openingstijden":"Lun-Ven: 07:30 - 12:30 - 15:30 - 19:00 Sab: 07:30 - 12:30"}},{"type":"Feature","geometry":{"type":"Point","coordinates":[11.93839,45.56216]},"properties":{"type":"pakketpunt","locatieNaam":"InPost Point","straatNaam":"Via Straelle San Pietro","straatNr":"12c","vervoerder":"InPost","puntType":"servicepunt","bezettingsgraad":50,"latitude":45.56216,"longitude":11.93839,"canPickup":true,"canDropoff":true,"openingstijden":"Lun: 07:30 - 12:30 Mar-Ven: 07:30 - 12:30 - 15:30 - 19:30 Sab: 08:00 - 12:30 - 16:00 - 19:30"}},{"type":"Feature","geometry":{"type":"Point","coordinates":[11.933596,45.5648942]},"properties":{"type":"pakketpunt","locatieNaam":"MARIANNA SERVIZI","straatNaam":"Via Anna Moretti Bonora","straatNr":"33","vervoerder":"GLS","puntType":"parcel_shop","bezettingsgraad":50,"latitude":45.5648942,"longitude":11.933596,"canPickup":true,"canDropoff":true,"openingstijden":"ma: 08:30 - 12:30, 14:30 - 18:30; di: 08:30 - 12:30, 14:30 - 18:30"}},{"type":"Feature","geometry":{"type":"Point","coordinates":[11.9755175,45.5695753]},"properties":{"type":"pakketpunt","locatieNaam":"TABACCHERIA DA RICKY","straatNaam":"Via Borgo Rustega","straatNr":"31","vervoerder":"GLS","puntType":"parcel_shop","bezettingsgraad":50,"latitude":45.5695753,"longitude":11.9755175,"canPickup":true,"canDropoff":true,"openingstijden":"za: 07:30 - 12:30; ma: 07:30 - 12:30, 15:30 - 19:00"}},{"type":"Feature","geometry":{"type":"Point","coordinates":[11.928496,45.558006]},"properties":{"type":"pakketpunt","locatieNaam":"TABACCHERIA N. 9","straatNaam":"BORGO PADOVA 44","straatNr":"","vervoerder":"DHL","puntType":"parcelShop","bezettingsgraad":50,"latitude":45.558006,"longitude":11.928496,"canPickup":true,"canDropoff":true,"openingstijden":{"ma":"07:30 - 13:00, 15:30 - 19:30","di":"07:30 - 13:00, 15:30 - 19:30","wo":"07:30 - 13:00, 15:30 - 19:30","do":"07:30 - 13:00, 15:30 - 19:30","vr":"07:30 - 13:00, 15:30 - 19:30","za":"07:30 - 13:00, 15:30 - 19:30","zo":"gesloten"}}},{"type":"Feature","geometry":{"type":"Point","coordinates":[11.938565,45.561925]},"properties":{"type":"pakketpunt","locatieNaam":"TABACCHERIA N. 11","straatNaam":"VIA STRAELLE SAN PIETRO 12-C","straatNr":"","vervoerder":"DHL","puntType":"parcelShop","bezettingsgraad":50,"latitude":45.561925,"longitude":11.938565,"canPickup":true,"canDropoff":true,"openingstijden":{"ma":"07:30 - 12:30","di":"07:30 - 12:30, 15:30 - 19:30","wo":"07:30 - 12:30, 15:30 - 19:30","do":"07:30 - 12:30, 15:30 - 19:30","vr":"07:30 - 12:30, 15:30 - 19:30","za":"08:00 - 12:30, 16:00 - 19:30","zo":"gesloten"}}},{"type":"Feature","geometry":{"type":"Point","coordinates":[11.932296,45.572]},"properties":{"type":"pakketpunt","locatieNaam":"TABACCHERIA N. 1","straatNaam":"PIAZZA CASTELLO 38","straatNr":"","vervoerder":"DHL","puntType":"parcelShop","bezettingsgraad":50,"latitude":45.572,"longitude":11.932296,"canPickup":true,"canDropoff":true,"openingstijden":{"ma":"08:00 - 12:30, 15:00 - 19:30","di":"08:00 - 12:30, 15:00 - 19:30","wo":"08:00 - 12:30, 15:00 - 19:30","do":"08:00 - 12:30, 15:00 - 19:30","vr":"08:00 - 12:30, 15:00 - 19:30","za":"08:00 - 12:30, 15:00 - 19:30","zo":"08:00 - 13:00"}}},{"type":"Feature","geometry":{"type":"Point","coordinates":[11.932278,45.572077]},"properties":{"type":"pakketpunt","locatieNaam":"UFFICIO POSTALE CAMPOSAMPIE","straatNaam":"PIAZZETTA DANTE ALIGHIERI 12","straatNr":"","vervoerder":"DHL","puntType":"packStation","bezettingsgraad":50,"latitude":45.572077,"longitude":11.932278,"canPickup":true,"canDropoff":true,"openingstijden":{"ma":"00:01 - 23:59","di":"00:01 - 23:59","wo":"00:01 - 23:59","do":"00:01 - 23:59","vr":"00:01 - 23:59","za":"00:01 - 23:59","zo":"00:01 - 23:59"}}},{"type":"Feature","geometry":{"type":"Point","coordinates":[11.932278,45.572077]},"properties":{"type":"pakketpunt","locatieNaam":"Ufficio Postale CAMPOSAMPIERO","straatNaam":"PIAZZETTA DANTE 12","straatNr":"","vervoerder":"DHL","puntType":"postOffice","bezettingsgraad":50,"latitude":45.572077,"longitude":11.932278,"canPickup":true,"canDropoff":true,"openingstijden":{"ma":"08:20 - 19:05","di":"08:20 - 19:05","wo":"08:20 - 19:05","do":"08:20 - 19:05","vr":"08:20 - 19:05","za":"08:20 - 12:35","zo":"gesloten"}}},{"type":"Feature","geometry":{"type":"Point","coordinates":[11.9352,45.5721]},"properties":{"type":"pakketpunt","locatieNaam":"PUNTO VODAFONE","straatNaam":"Via Andrea Palladio 12","straatNr":"","vervoerder":"DHL","puntType":"parcelShop","bezettingsgraad":50,"latitude":45.5721,"longitude":11.9352,"canPickup":false,"canDropoff":true,"openingstijden":{"ma":"09:00 - 19:30","di":"09:00 - 19:30","wo":"09:00 - 19:30","do":"09:00 - 19:30","vr":"09:00 - 19:30","za":"09:00 - 12:30","zo":"gesloten"}}},{"type":"Feature","geometry":{"type":"Point","coordinates":[11.936366,45.572937]},"properties":{"type":"pakketpunt","locatieNaam":"TABACCHERIA N. 13","straatNaam":"VIA GIORGIONE 14","straatNr":"","vervoerder":"DHL","puntType":"parcelShop","bezettingsgraad":50,"latitude":45.572937,"longitude":11.936366,"canPickup":true,"canDropoff":true,"openingstijden":{"ma":"07:00 - 20:00","di":"07:00 - 20:00","wo":"07:00 - 20:00","do":"07:00 - 20:00","vr":"00:00 - 20:00","za":"07:00 - 20:00","zo":"gesloten"}}},{"type":"Feature","geometry":{"type":"Point","coordinates":[11.975572,45.5696]},"properties":{"type":"pakketpunt","locatieNaam":"TABACCHERIA N. 2","straatNaam":"VIA BORGO RUSTEGA 31","straatNr":"","vervoerder":"DHL","puntType":"parcelShop","bezettingsgraad":50,"latitude":45.5696,"longitude":11.975572,"canPickup":true,"canDropoff":true,"openingstijden":{"ma":"07:30 - 12:30, 15:30 - 19:00","di":"07:30 - 12:30, 15:30 - 19:00","wo":"07:30 - 12:30","do":"07:30 - 12:30, 15:30 - 19:00","vr":"07:30 - 12:30, 15:30 - 19:00","za":"07:30 - 12:30","zo":"gesloten"}}},{"type":"Feature","geometry":{"type":"Point","coordinates":[11.9325476,45.5707039]},"properties":{"type":"pakketpunt","locatieNaam":"Amazon Counter - SPAZIO ENEL PARTNER","straatNaam":"VIA NODARI 2","straatNr":"","vervoerder":"Amazon","puntType":"helix","bezettingsgraad":50,"latitude":45.5707039,"longitude":11.9325476,"canPickup":true,"canDropoff":false,"openingstijden":null}},{"type":"Feature","geometry":{"type":"Point","coordinates":[11.93084,45.565539]},"properties":{"type":"pakketpunt","locatieNaam":"Amazon Counter - Tabaccheria Pierazzo Beatrice","straatNaam":"BORGO Trento Trieste 53","straatNr":"","vervoerder":"Amazon","puntType":"helix","bezettingsgraad":50,"latitude":45.565539,"longitude":11.93084,"canPickup":true,"canDropoff":false,"openingstijden":null}},{"type":"Feature","geometry":{"type":"Point","coordinates":[11.936645,45.572139]},"properties":{"type":"pakketpunt","locatieNaam":"Amazon Counter - New garden snack bar","straatNaam":"Via Giorgione , 14","straatNr":"","vervoerder":"Amazon","puntType":"helix","bezettingsgraad":50,"latitude":45.572139,"longitude":11.936645,"canPickup":true,"canDropoff":false,"openingstijden":null}},{"type":"Feature","geometry":{"type":"Point","coordinates":[11.9363,45.5729]},"properties":{"type":"pakketpunt","locatieNaam":"PuntoPoste TABACCHERIA N. 13","straatNaam":"VIA GIORGIONE 14","straatNr":"","vervoerder":"Amazon","puntType":"3p","bezettingsgraad":50,"latitude":45.5729,"longitude":11.9363,"canPickup":true,"canDropoff":false,"openingstijden":null}},{"type":"Feature","geometry":{"type":"Point","coordinates":[11.933558,45.56484]},"properties":{"type":"pakketpunt","locatieNaam":"Amazon Counter","straatNaam":"Marianna Servizi (fermopoint)","straatNr":"","vervoerder":"Amazon","puntType":"helix","bezettingsgraad":50,"latitude":45.56484,"longitude":11.933558,"canPickup":true,"canDropoff":false,"openingstijden":null}},{"type":"Feature","geometry":{"type":"Point","coordinates":[11.9385,45.5619]},"properties":{"type":"pakketpunt","locatieNaam":"PuntoPoste TABACCHERIA N. 11","straatNaam":"VIA STRAELLE SAN PIETRO 12/C","straatNr":"","vervoerder":"Amazon","puntType":"3p","bezettingsgraad":50,"latitude":45.5619,"longitude":11.9385,"canPickup":true,"canDropoff":false,"openingstijden":null}},{"type":"Feature","geometry":{"type":"Point","coordinates":[11.938608,45.561912]},"properties":{"type":"pakketpunt","locatieNaam":"Amazon Counter - PRIMAEDICOLA","straatNaam":"TABACCHERIA PETER PAN","straatNr":"","vervoerder":"Amazon","puntType":"helix","bezettingsgraad":50,"latitude":45.561912,"longitude":11.938608,"canPickup":true,"canDropoff":false,"openingstijden":null}},{"type":"Feature","geometry":{"type":"Point","coordinates":[11.9322,45.572]},"properties":{"type":"pakketpunt","locatieNaam":"Ufficio Postale CAMPOSAMPIERO","straatNaam":"PIAZZETTA DANTE 12","straatNr":"","vervoerder":"Amazon","puntType":"3p","bezettingsgraad":50,"latitude":45.572,"longitude":11.9322,"canPickup":true,"canDropoff":false,"openingstijden":null}},{"type":"Feature","geometry":{"type":"Point","coordinates":[11.933483918457663,45.5649391847628]},"properties":{"type":"pakketpunt","locatieNaam":"FedEx OnSite","straatNaam":"VIA ANNA MORETTI BONORA, 33","straatNr":"","vervoerder":"FedEx","puntType":"servicepunt","bezettingsgraad":50,"latitude":45.5649391847628,"longitude":11.933483918457663,"canPickup":true,"canDropoff":true,"openingstijden":{"ma":"08:30 - 12:30, 14:30 - 18:30","di":"08:30 - 12:30, 14:30 - 18:30","wo":"08:30 - 12:30, 14:30 - 18:30","do":"08:30 - 12:30, 14:30 - 18:30","vr":"08:30 - 16:30","za":"gesloten","zo":"gesloten"}}},{"type":"Feature","geometry":{"type":"Point","coordinates":[11.934863,45.564225]},"properties":{"type":"pakketpunt","locatieNaam":"FedEx OnSite","straatNaam":"VIA BONORA 47","straatNr":"","vervoerder":"FedEx","puntType":"servicepunt","bezettingsgraad":50,"latitude":45.564225,"longitude":11.934863,"canPickup":true,"canDropoff":true,"openingstijden":{"ma":"08:30 - 12:30, 15:00 - 19:00","di":"08:30 - 12:30, 15:00 - 19:00","wo":"08:30 - 12:30, 15:00 - 19:00","do":"08:30 - 12:30, 15:00 - 19:00","vr":"08:30 - 12:30, 15:00 - 19:00","za":"gesloten","zo":"gesloten"}}},{"type":"Feature","geometry":{"type":"Point","coordinates":[11.975506168110458,45.569651106351934]},"properties":{"type":"pakketpunt","locatieNaam":"FedEx OnSite","straatNaam":"VIA BORGO RUSTEGA, 31","straatNr":"","vervoerder":"FedEx","puntType":"servicepunt","bezettingsgraad":50,"latitude":45.569651106351934,"longitude":11.975506168110458,"canPickup":true,"canDropoff":true,"openingstijden":{"ma":"07:30 - 12:30, 15:30 - 19:00","di":"07:30 - 12:30, 15:30 - 19:00","wo":"07:30 - 12:30","do":"07:30 - 12:30, 15:30 - 19:00","vr":"07:30 - 12:30, 15:30 - 19:00","za":"07:30 - 12:30","zo":"gesloten"}}},{"type":"Feature","geometry":{"type":"Polygon","coordinates":[[[11.9044636,45.6039728],[11.9062503,45.6044564],[11.9084445,45.6052365],[11.9093317,45.6000463],[11.9122321,45.5997686],[11.9174801,45.5981333],[11.91874,45.5979535],[11.9207421,45.5978157],[11.9233647,45.5972554],[11.9242167,45.5972574],[11.9251655,45.5969302],[11.9252248,45.5965988],[11.9247994,45.5962657],[11.9255582,45.5959414],[11.9259859,45.5954862],[11.9270545,45.5952173],[11.927154,45.5947613],[11.9287695,45.5937039],[11.9295762,45.5923426],[11.9295253,45.5909132],[11.9298264,45.5887212],[11.9306028,45.5876865],[11.9308213,45.5872147],[11.9311328,45.5861736],[11.9312584,45.5860076],[11.9325913,45.5851575],[11.9331811,45.5822411],[11.9333086,45.5821085],[11.9337764,45.5819909],[11.9335292,45.5811304],[11.9337268,45.5807757],[11.9337215,45.5803796],[11.9338382,45.5800296],[11.9334682,45.5795833],[11.9334938,45.5793999],[11.934032,45.5790611],[11.9342668,45.579163],[11.934795,45.5788534],[11.9348965,45.5784548],[11.9355717,45.5780839],[11.9362136,45.5774803],[11.9362475,45.5773035],[11.9369821,45.5773156],[11.9376472,45.5776077],[11.9389409,45.5791775],[11.93919,45.5796006],[11.9392173,45.580096],[11.93932,45.5802664],[11.9399172,45.5773872],[11.9401127,45.5760029],[11.9401385,45.5752133],[11.9430854,45.5747649],[11.9602635,45.5714256],[11.9657514,45.5705244],[11.9660593,45.5714966],[11.9660275,45.5718908],[11.9662582,45.5728686],[11.9660604,45.5731598],[11.9645742,45.5733249],[11.9648273,45.5745262],[11.9650636,45.5747428],[11.965291,45.5752299],[11.9654365,45.5764659],[11.9651434,45.5764583],[11.9652372,45.5795099],[11.9634977,45.5795625],[11.9632789,45.5796797],[11.9635736,45.5835699],[11.9693708,45.5832931],[11.9694434,45.5844828],[11.9697011,45.5844538],[11.9697282,45.585612],[11.973848,45.5853402],[11.9738979,45.5855196],[11.9742542,45.5855264],[11.9801515,45.5852714],[11.9805427,45.5897456],[11.9811414,45.5898562],[11.9815157,45.5898402],[11.9819737,45.5897034],[11.9830823,45.5896444],[11.9832681,45.5921071],[11.983351,45.592121],[11.9831867,45.5933915],[11.9841703,45.593053],[11.984472,45.5927947],[11.9856101,45.5922504],[11.9861894,45.5918001],[11.9864129,45.5918154],[11.9872827,45.592201],[11.9882843,45.5921808],[11.9884505,45.5919709],[11.9883656,45.5912368],[11.9878965,45.591413],[11.9873478,45.5915053],[11.9872487,45.5890033],[11.9893797,45.5890395],[11.9894716,45.5885342],[11.9893216,45.5877423],[11.9893245,45.5872663],[11.9898101,45.5872446],[11.9899299,45.5871737],[11.9899739,45.5868979],[11.9901084,45.5868056],[11.9906746,45.5867172],[11.990529,45.5848797],[11.990769,45.5848135],[11.9909014,45.584566],[11.9912995,45.5845758],[11.9915139,45.5843228],[11.9918129,45.5842809],[11.9917271,45.5839824],[11.9918501,45.5839203],[11.9918384,45.583727],[11.9919337,45.5836457],[11.9924399,45.5838243],[11.9925479,45.5837565],[11.9928688,45.583272],[11.9927499,45.5831161],[11.9928588,45.583047],[11.9932507,45.5831547],[11.9933828,45.5834787],[11.9936191,45.5833975],[11.9937345,45.5831317],[11.9939502,45.5832306],[11.9940292,45.5831923],[11.9940869,45.5830052],[11.9944188,45.5831994],[11.9946832,45.5830131],[11.9944784,45.5805806],[11.9940778,45.5792901],[11.9940958,45.5786641],[11.9938942,45.5777229],[11.9938592,45.5765265],[11.9932861,45.5755717],[11.9930825,45.5750778],[11.9924141,45.575092],[11.9923428,45.5733698],[11.9919331,45.5703672],[11.9864444,45.5706697],[11.9862472,45.570304],[11.986105,45.56958],[11.985889,45.5667664],[11.9858781,45.5642668],[11.9856142,45.5599908],[11.9852571,45.5600389],[11.9834725,45.5599452],[11.9831711,45.5600143],[11.9830847,45.5601359],[11.9831329,45.5591196],[11.9824185,45.5587683],[11.9821354,45.5587782],[11.9811433,45.5558385],[11.9805626,45.5545335],[11.9629484,45.5577946],[11.9625825,45.5567705],[11.9619852,45.5568823],[11.9621265,45.5573107],[11.9616457,45.5573643],[11.960664,45.554961],[11.9611775,45.5548519],[11.9607139,45.5537321],[11.9598012,45.5539099],[11.9595515,45.5532279],[11.9592983,45.5532761],[11.9584922,45.5512861],[11.9583695,45.5514078],[11.9579987,45.551387],[11.957583,45.5502309],[11.9573693,45.5502184],[11.957015,45.549321],[11.9569239,45.5492524],[11.9548231,45.549287],[11.9539285,45.5493862],[11.9529929,45.5493321],[11.952555,45.5484948],[11.9518924,45.5469109],[11.950774,45.5437194],[11.950788,45.5435706],[11.9504957,45.5434422],[11.9496952,45.5434884],[11.9465175,45.5439776],[11.9424458,45.5452794],[11.9402577,45.5454563],[11.9389958,45.5457872],[11.9348987,45.5463913],[11.9299976,45.5474627],[11.9273922,45.5479573],[11.9249762,45.5482974],[11.9242733,45.5485361],[11.9246788,45.5498305],[11.9248479,45.5507089],[11.9252973,45.5515317],[11.9255642,45.5524577],[11.9257416,45.5527728],[11.9260351,45.553068],[11.9262151,45.5537763],[11.9265545,45.5543962],[11.9266744,45.5548929],[11.9253253,45.555158],[11.9257028,45.5561387],[11.9254957,45.5562322],[11.9255092,45.5565528],[11.9253603,45.5565971],[11.924873,45.5563251],[11.9243295,45.5561955],[11.9240517,45.5564235],[11.924049,45.5565625],[11.9244004,45.556754],[11.9250971,45.5573729],[11.9251038,45.5575616],[11.9243476,45.5575063],[11.9231785,45.5577201],[11.9228214,45.5574873],[11.9223627,45.5574892],[11.9221615,45.5575568],[11.9220623,45.5578047],[11.9222608,45.5582742],[11.9221508,45.5585635],[11.9218209,45.5585729],[11.9216117,45.5582818],[11.9214722,45.5582724],[11.9212925,45.5586198],[11.9209836,45.5587458],[11.9202733,45.5584113],[11.9200748,45.5584433],[11.9197475,45.5585822],[11.9196295,45.5588546],[11.9193394,45.5591609],[11.9188592,45.5593792],[11.9186721,45.5598404],[11.9183378,45.5601121],[11.9175937,45.5602424],[11.9171538,45.5600753],[11.9168695,45.5601166],[11.9162258,45.5606462],[11.9161651,45.5609007],[11.9162495,45.5612548],[11.9161583,45.5613618],[11.9144824,45.5620189],[11.9142483,45.5621955],[11.9142111,45.5624247],[11.9146847,45.5626824],[11.9147795,45.5629466],[11.9143573,45.5630636],[11.914308,45.5631644],[11.9143724,45.5633898],[11.9142667,45.5635979],[11.9137246,45.5634439],[11.913578,45.56349],[11.9138693,45.5642007],[11.9138295,45.5643126],[11.9135838,45.5643493],[11.9133224,45.5641273],[11.9130688,45.5640677],[11.9128819,45.5643239],[11.912456,45.5644982],[11.9125381,45.5650159],[11.9124682,45.5651165],[11.9110702,45.5654988],[11.9110116,45.5655717],[11.91107,45.5659362],[11.9107621,45.5662214],[11.9108663,45.5664377],[11.9108637,45.5667494],[11.9104751,45.5668486],[11.9097134,45.5667322],[11.9093781,45.5668111],[11.9094667,45.5678057],[11.9088334,45.567999],[11.9086538,45.5683435],[11.908289,45.5685181],[11.9086042,45.5693696],[11.9079551,45.5696954],[11.9079927,45.5698531],[11.9083816,45.570116],[11.9085425,45.5704849],[11.9083548,45.5709543],[11.907585,45.5709647],[11.9074106,45.5711768],[11.9072255,45.5712285],[11.9063404,45.5710135],[11.9058536,45.5712332],[11.9064792,45.5727465],[11.9063988,45.5728667],[11.9057765,45.5731032],[11.9056886,45.573235],[11.9067722,45.5750412],[11.9071315,45.5762216],[11.909441,45.5776114],[11.9099855,45.5780732],[11.9114863,45.5820247],[11.9116798,45.5822369],[11.9116933,45.582495],[11.9117797,45.5826175],[11.9120248,45.5826549],[11.9125943,45.5825543],[11.9132961,45.5820942],[11.9133117,45.5819397],[11.9131784,45.5817702],[11.9131696,45.5815076],[11.9133159,45.5812664],[11.9133413,45.5809668],[11.9132336,45.5808429],[11.9150143,45.5799916],[11.9159029,45.5797643],[11.9167763,45.5797963],[11.9180907,45.5834014],[11.9180026,45.5835726],[11.9169621,45.5840831],[11.917521,45.5857321],[11.9160761,45.5864449],[11.9161597,45.5865682],[11.917125,45.5870532],[11.917257,45.5871908],[11.9181556,45.589691],[11.9182495,45.5905414],[11.9187727,45.592147],[11.9186763,45.592341],[11.9153114,45.5929799],[11.9143417,45.5930296],[11.9140466,45.5931588],[11.9138726,45.5934737],[11.9136783,45.5942739],[11.9128816,45.5952359],[11.9125698,45.5961693],[11.9100308,45.5970771],[11.9088442,45.5978809],[11.9083616,45.5984984],[11.9078911,45.5987048],[11.9076268,45.5990678],[11.9070857,45.5995814],[11.9067247,45.6004249],[11.9067688,45.6009851],[11.9064656,45.6016149],[11.9064788,45.6024637],[11.9055779,45.603208],[11.9044636,45.6039728]]]},"properties":{"type":"boundary","gemeente":"Camposampiero"}}]}