{"type":"FeatureCollection","metadata":{"gemeente":"Campotosto","slug":"campotosto","generated_at":"2026-09-26T14:27:03.046540Z","total_points":1,"providers":["PosteItaliane"],"bounds":[13.36978487,42.55734257,13.36978487,42.55734257]},"features":[{"type":"Feature","geometry":{"type":"Point","coordinates":[13.36978487,42.55734257]},"properties":{"type":"pakketpunt","locatieNaam":"Campotosto","straatNaam":"Piazza Della Chiesa","straatNr":"1","vervoerder":"PosteItaliane","puntType":"postkantoor","bezettingsgraad":50,"latitude":42.55734257,"longitude":13.36978487,"canPickup":true,"canDropoff":true,"openingstijden":{"za":"gesloten","zo":"gesloten","ma":"08:20 - 13:45","di":"gesloten","wo":"08:20 - 13:45","do":"gesloten","vr":"08:20 - 13:45"}}},{"type":"Feature","geometry":{"type":"Polygon","coordinates":[[[13.2977066,42.5725352],[13.2991643,42.572735],[13.2992253,42.572519],[13.2999948,42.572519],[13.3005766,42.572291],[13.3012288,42.5722184],[13.3033683,42.5724672],[13.3046445,42.5725018],[13.3066995,42.5734623],[13.3070045,42.5735052],[13.3067089,42.5726054],[13.3075065,42.5727298],[13.3080226,42.5729648],[13.3081634,42.573179],[13.3095616,42.5739806],[13.3106876,42.5736489],[13.3117949,42.5742985],[13.3124733,42.5743477],[13.3156798,42.5753972],[13.3163263,42.5762545],[13.3175378,42.5763369],[13.3181853,42.576565],[13.318448,42.5761849],[13.3194896,42.5766548],[13.3226801,42.5793842],[13.324193,42.5795989],[13.3256153,42.5795391],[13.3269122,42.5797158],[13.3281412,42.5795468],[13.3297599,42.5790765],[13.3310317,42.5788038],[13.3322797,42.5788314],[13.3336718,42.5785965],[13.3355762,42.5780709],[13.3364854,42.5776534],[13.336551,42.577148],[13.3377836,42.5763404],[13.3392504,42.5752128],[13.3408234,42.5747811],[13.3419919,42.5750102],[13.3422414,42.5748473],[13.3433096,42.5747681],[13.3441971,42.5755216],[13.3454264,42.5768552],[13.34598,42.5767377],[13.3481195,42.5778433],[13.3491799,42.577636],[13.3503435,42.5776429],[13.3522672,42.5764475],[13.3541721,42.576102],[13.355119,42.5773969],[13.3552348,42.5777016],[13.3552301,42.5779262],[13.3556266,42.5782924],[13.3558612,42.5781508],[13.3565087,42.5779953],[13.3576206,42.5780091],[13.3585872,42.5782095],[13.3596241,42.5782855],[13.3613976,42.5788314],[13.3623829,42.5788867],[13.3641001,42.5798748],[13.3646479,42.5803023],[13.3650456,42.5803576],[13.3652895,42.5804863],[13.3661552,42.5804534],[13.3664707,42.5805484],[13.3668695,42.5805208],[13.3671381,42.58045],[13.3673434,42.5802919],[13.3677047,42.5802392],[13.3684225,42.579721],[13.3686419,42.5796839],[13.3691873,42.5798558],[13.3694982,42.5798419],[13.3699562,42.5795971],[13.3715884,42.5808006],[13.3722359,42.5794049],[13.372808,42.5787268],[13.3736458,42.57872],[13.3739344,42.5796036],[13.3736317,42.5806279],[13.3742534,42.5809475],[13.375112,42.5808525],[13.3761489,42.5811461],[13.3765993,42.5811945],[13.3785089,42.5810857],[13.3790626,42.5812359],[13.3795693,42.581552],[13.3801277,42.5813551],[13.3805429,42.581077],[13.3813053,42.580203],[13.3817112,42.5802449],[13.3819669,42.580431],[13.3821123,42.5811427],[13.3826331,42.5819096],[13.3829827,42.5821808],[13.3835551,42.5823397],[13.3850799,42.5832036],[13.3823189,42.5847817],[13.3831868,42.5854058],[13.3841966,42.5859841],[13.3859769,42.5861607],[13.3873766,42.5863936],[13.3886857,42.5869187],[13.3892029,42.5872987],[13.3892628,42.5896753],[13.3934855,42.5908704],[13.3945565,42.5912825],[13.393552,42.5865346],[13.3935088,42.5834752],[13.3939916,42.5826959],[13.3945822,42.5820114],[13.3957968,42.5816767],[13.397508,42.5814758],[13.4010243,42.5802557],[13.4038423,42.578216],[13.4044136,42.5773117],[13.4054202,42.57468],[13.405365,42.5739393],[13.4050648,42.5732891],[13.403181,42.5625893],[13.4083519,42.5446538],[13.4102145,42.5398597],[13.4105851,42.5391702],[13.4189752,42.5290508],[13.4269699,42.5199815],[13.4258726,42.5190831],[13.4244271,42.5181297],[13.423798,42.5179932],[13.4222203,42.5184433],[13.4217469,42.5187719],[13.4172716,42.522957],[13.4143768,42.5251385],[13.4133998,42.5262174],[13.4112533,42.5274037],[13.4065538,42.5295208],[13.403471,42.531547],[13.399723,42.5301217],[13.3988939,42.5296809],[13.3954566,42.5274812],[13.3949095,42.5269485],[13.3947237,42.5261454],[13.3946448,42.5239921],[13.3945021,42.5233584],[13.3938556,42.52156],[13.3931061,42.5199097],[13.3926013,42.5191548],[13.3919326,42.5181902],[13.3910162,42.5173565],[13.3900422,42.5169392],[13.3887555,42.516759],[13.3849209,42.5172437],[13.3824955,42.5178229],[13.3814445,42.5179892],[13.3757428,42.5177078],[13.3744837,42.5174318],[13.3604841,42.5132712],[13.3589807,42.5126082],[13.3491504,42.507783],[13.3490312,42.5169394],[13.3488545,42.5181075],[13.3479588,42.5188348],[13.3435789,42.5215087],[13.3392081,42.5218727],[13.338277,42.5199092],[13.337835,42.5195794],[13.3372924,42.5194109],[13.3365035,42.5193102],[13.3311239,42.5201758],[13.3290613,42.5208301],[13.3240336,42.5267824],[13.3151371,42.5406999],[13.3152018,42.5409766],[13.3187166,42.5434234],[13.3223756,42.5454865],[13.3197688,42.5500416],[13.313899,42.5568266],[13.3070057,42.5612819],[13.3060057,42.5617698],[13.3100818,42.5642092],[13.3108345,42.5647705],[13.311252,42.5660108],[13.2977066,42.5725352]]]},"properties":{"type":"boundary","gemeente":"Campotosto"}}]}