{"type":"FeatureCollection","metadata":{"gemeente":"Campione d'Italia","slug":"campione-d-italia","generated_at":"2026-09-26T14:27:02.493825Z","total_points":1,"providers":["PosteItaliane"],"bounds":[8.97148523,45.96844779,8.97148523,45.96844779]},"features":[{"type":"Feature","geometry":{"type":"Point","coordinates":[8.97148523,45.96844779]},"properties":{"type":"pakketpunt","locatieNaam":"Campione D'italia","straatNaam":"Via Alessandro Volta","straatNr":"14","vervoerder":"PosteItaliane","puntType":"postkantoor","bezettingsgraad":50,"latitude":45.96844779,"longitude":8.97148523,"canPickup":true,"canDropoff":true,"openingstijden":{"za":"gesloten","zo":"gesloten","ma":"08:20 - 13:45","di":"gesloten","wo":"08:20 - 13:45","do":"gesloten","vr":"08:20 - 13:45"}}},{"type":"Feature","geometry":{"type":"Polygon","coordinates":[[[8.9585437,45.9648164],[8.9682473,45.9630394],[8.9689357,45.9627489],[8.9687174,45.9624454],[8.9685028,45.9619169],[8.9694232,45.9618275],[8.9696191,45.9617189],[8.9701534,45.961755],[8.9710592,45.9616284],[8.9716064,45.9618609],[8.9726072,45.9620072],[8.9741744,45.9620011],[8.9756323,45.9616322],[8.9769348,45.9637489],[8.977074,45.9660635],[8.9773661,45.9681261],[8.9782424,45.9684238],[8.9793606,45.9710383],[8.9775773,45.9716127],[8.9771695,45.97195],[8.9772015,45.9720154],[8.9773615,45.9720113],[8.9774135,45.972206],[8.9772589,45.9724606],[8.9770151,45.9732514],[8.9766264,45.9752125],[8.9763287,45.9758599],[8.9764379,45.9796251],[8.9766352,45.9798725],[8.9771152,45.9810955],[8.9770935,45.981266],[8.9773221,45.9816286],[8.9775643,45.9825653],[8.9774204,45.982877],[8.977255,45.9830369],[8.9670775,45.9841493],[8.9648824,45.9798214],[8.9641462,45.9761553],[8.9614765,45.9723636],[8.9609634,45.9701832],[8.959567,45.9679058],[8.9592381,45.9667152],[8.9585437,45.9648164]]]},"properties":{"type":"boundary","gemeente":"Campione d'Italia"}}]}