{"type":"FeatureCollection","metadata":{"gemeente":"Campora","slug":"campora","generated_at":"2026-09-26T14:27:02.929010Z","total_points":1,"providers":["PosteItaliane"],"bounds":[15.29221394,40.30685661,15.29221394,40.30685661]},"features":[{"type":"Feature","geometry":{"type":"Point","coordinates":[15.29221394,40.30685661]},"properties":{"type":"pakketpunt","locatieNaam":"Campora","straatNaam":"Via Re D'italia","straatNr":"16","vervoerder":"PosteItaliane","puntType":"postkantoor","bezettingsgraad":50,"latitude":40.30685661,"longitude":15.29221394,"canPickup":true,"canDropoff":true,"openingstijden":{"za":"08:20 - 12:45","zo":"gesloten","ma":"gesloten","di":"08:20 - 13:45","wo":"gesloten","do":"08:20 - 13:45","vr":"gesloten"}}},{"type":"Feature","geometry":{"type":"Polygon","coordinates":[[[15.2750574,40.29064],[15.2741675,40.2914355],[15.2737815,40.2924376],[15.2737679,40.2946164],[15.2739646,40.2962123],[15.2747109,40.2974452],[15.275797,40.2987451],[15.2780545,40.3010118],[15.2796239,40.3020873],[15.2802749,40.3033119],[15.2803875,40.3046108],[15.2806726,40.3055898],[15.2826581,40.3070927],[15.2829775,40.3078403],[15.282927,40.3098727],[15.2830823,40.3104672],[15.283379,40.3107661],[15.2834333,40.3124867],[15.2839467,40.3145918],[15.2840351,40.3155095],[15.2839312,40.3163837],[15.2837105,40.3170438],[15.2836084,40.3177469],[15.2841538,40.3190267],[15.2841457,40.3197292],[15.2842904,40.3205583],[15.2847936,40.322331],[15.2861452,40.3251014],[15.2860892,40.325802],[15.2857759,40.3262825],[15.286025,40.3266515],[15.2861788,40.3274981],[15.2860761,40.3282733],[15.2860994,40.3308506],[15.2857411,40.3322833],[15.2860488,40.3330855],[15.2860292,40.3336401],[15.2859356,40.3340637],[15.2856659,40.33438],[15.2855756,40.3347674],[15.2857159,40.3352008],[15.2866633,40.3365486],[15.2868307,40.3369715],[15.2871386,40.3372157],[15.2881371,40.3366347],[15.2887812,40.3361315],[15.2905595,40.3361875],[15.2912424,40.3361322],[15.2922283,40.3353853],[15.2925668,40.3350023],[15.292602,40.3345368],[15.2930087,40.3340106],[15.293094,40.3337584],[15.2934935,40.3334711],[15.2948212,40.3335201],[15.2960707,40.3334563],[15.2971523,40.3330731],[15.2984227,40.3331702],[15.2998498,40.3335602],[15.3012497,40.3333981],[15.3019409,40.3328653],[15.3029743,40.3323453],[15.3038821,40.3322821],[15.3050125,40.3325487],[15.3062384,40.3331297],[15.3064259,40.3327684],[15.3070849,40.3302797],[15.3070806,40.3292269],[15.3070065,40.3283084],[15.3068489,40.327597],[15.3057442,40.3251509],[15.3056828,40.3244387],[15.3062329,40.3239316],[15.3083726,40.3229819],[15.3096059,40.3225903],[15.3116195,40.3225566],[15.3128043,40.3219606],[15.3143295,40.3208555],[15.3143936,40.3195604],[15.3150385,40.3188816],[15.3160604,40.3186815],[15.3182766,40.3190551],[15.3191472,40.3188093],[15.3204368,40.3179285],[15.3212808,40.3172342],[15.3226062,40.3165089],[15.324955,40.3155295],[15.3250602,40.3150602],[15.3253516,40.3144997],[15.325455,40.313972],[15.3252387,40.3132323],[15.3240066,40.3117834],[15.323806,40.3112184],[15.3243312,40.3104785],[15.3235829,40.3089851],[15.3238392,40.3084265],[15.3242968,40.3078838],[15.3245389,40.3073935],[15.3249139,40.3069094],[15.3251818,40.3062872],[15.3252255,40.3056548],[15.3249991,40.3049787],[15.3249714,40.3042602],[15.3251575,40.303674],[15.3255801,40.3033852],[15.3259055,40.3027329],[15.3254767,40.3014648],[15.325568,40.3009333],[15.326049,40.3005784],[15.3260897,40.2988796],[15.3261987,40.2975641],[15.3263259,40.2970396],[15.3259444,40.295868],[15.3260124,40.2952297],[15.3274184,40.2943335],[15.3276417,40.2941142],[15.3279585,40.2935118],[15.3287326,40.2930868],[15.3300733,40.2933146],[15.3314615,40.2932654],[15.3325291,40.2927342],[15.3335708,40.2916059],[15.3338511,40.291046],[15.3342701,40.2905009],[15.3350474,40.2901567],[15.3363053,40.289831],[15.3376206,40.2896012],[15.3393564,40.2884346],[15.3399641,40.2877397],[15.3409969,40.2872239],[15.3440809,40.2877516],[15.3461616,40.287529],[15.3471835,40.2872027],[15.3482164,40.2866328],[15.3494637,40.2865011],[15.3512397,40.2866327],[15.3517803,40.2863509],[15.3521998,40.2855313],[15.3524868,40.2845839],[15.3527271,40.2829596],[15.3525834,40.282306],[15.3520837,40.2813886],[15.3514218,40.280723],[15.3509694,40.279911],[15.3507543,40.2791848],[15.3506097,40.2783017],[15.3507822,40.2778242],[15.3505777,40.276922],[15.3511632,40.2763452],[15.3521031,40.2758118],[15.3530986,40.2754015],[15.3552965,40.2748528],[15.3557885,40.2746096],[15.3560335,40.2738806],[15.3552468,40.2722139],[15.3549611,40.2714332],[15.3542741,40.2704135],[15.3537922,40.2685591],[15.3534962,40.2680039],[15.3517975,40.2667745],[15.3491858,40.2668554],[15.344959,40.2661117],[15.343961,40.2663376],[15.3430724,40.2675116],[15.3420299,40.2681089],[15.3411257,40.2681767],[15.3399959,40.2680004],[15.3390405,40.2676164],[15.3386874,40.2677663],[15.3381954,40.2681579],[15.3367763,40.269001],[15.3347931,40.2695285],[15.3335466,40.2699885],[15.3326643,40.269695],[15.3310111,40.2686023],[15.3300479,40.2685427],[15.3284499,40.269013],[15.3277347,40.2694213],[15.3273951,40.2699979],[15.3272034,40.2701705],[15.3269753,40.2702055],[15.3265844,40.270101],[15.3263014,40.269815],[15.3255406,40.2682457],[15.3253386,40.2676718],[15.3246412,40.266873],[15.3241358,40.2666037],[15.3234504,40.2664523],[15.3210055,40.2663615],[15.3204163,40.2664613],[15.3197966,40.2668778],[15.3190578,40.2679308],[15.3177807,40.2686219],[15.3170762,40.2688855],[15.3149028,40.2691801],[15.3137847,40.2692459],[15.3129388,40.2689952],[15.3107669,40.2676291],[15.3092469,40.2670958],[15.3067965,40.2663794],[15.3065388,40.266506],[15.3062125,40.2672124],[15.3039072,40.2698091],[15.3032628,40.2703799],[15.3026416,40.2706884],[15.2998224,40.2717065],[15.2989185,40.2719045],[15.2979189,40.2719816],[15.2968735,40.2722547],[15.2960064,40.2730221],[15.2942711,40.273819],[15.2926255,40.2743183],[15.2908169,40.2751506],[15.2888809,40.2762553],[15.2881882,40.2768061],[15.2876146,40.2774225],[15.2858264,40.2802606],[15.2847042,40.2816989],[15.2842115,40.2821668],[15.2832589,40.2824753],[15.282342,40.2826152],[15.2814403,40.2833529],[15.280807,40.284103],[15.2805068,40.2848079],[15.2802049,40.2858909],[15.2795828,40.2865323],[15.2791411,40.2872809],[15.2790127,40.288215],[15.2787947,40.2889919],[15.2780298,40.2895511],[15.2768919,40.2900496],[15.2750574,40.29064]]]},"properties":{"type":"boundary","gemeente":"Campora"}}]}