{"type":"FeatureCollection","metadata":{"gemeente":"Campoli del Monte Taburno","slug":"campoli-del-monte-taburno","generated_at":"2026-09-26T14:27:02.847320Z","total_points":5,"providers":["PosteItaliane","DPD","DHL","Amazon"],"bounds":[14.6444221,41.1316,14.644859,41.1333414]},"features":[{"type":"Feature","geometry":{"type":"Point","coordinates":[14.64485874,41.13168411]},"properties":{"type":"pakketpunt","locatieNaam":"Campoli Del Monte Taburno","straatNaam":"Piazza Alfonso La Marmora","straatNr":"1","vervoerder":"PosteItaliane","puntType":"postkantoor","bezettingsgraad":50,"latitude":41.13168411,"longitude":14.64485874,"canPickup":true,"canDropoff":true,"openingstijden":{"za":"08:20 - 12:45","zo":"gesloten","ma":"08:20 - 13:45","di":"08:20 - 13:45","wo":"08:20 - 13:45","do":"08:20 - 13:45","vr":"08:20 - 13:45"}}},{"type":"Feature","geometry":{"type":"Point","coordinates":[14.6444221,41.1333414]},"properties":{"type":"pakketpunt","locatieNaam":"Cierre Elettronica","straatNaam":"VIA NINO BIXIO","straatNr":"76","vervoerder":"DPD","puntType":"pickup_point","bezettingsgraad":50,"latitude":41.1333414,"longitude":14.6444221,"canPickup":true,"canDropoff":true,"openingstijden":{"ma":"08:00 - 13:00, 16:00 - 20:00","di":"08:00 - 13:00, 16:00 - 20:00","wo":"08:00 - 13:00, 16:00 - 20:00","do":"08:00 - 13:00, 16:00 - 20:00","vr":"08:00 - 13:00, 16:00 - 20:00","za":"08:00 - 13:00, 16:00 - 20:00","zo":"gesloten"}}},{"type":"Feature","geometry":{"type":"Point","coordinates":[14.644859,41.131684]},"properties":{"type":"pakketpunt","locatieNaam":"Ufficio Postale CAMPOLI DEL MONTE T","straatNaam":"PIAZZA ALFONSO LA MARMORA 1","straatNr":"","vervoerder":"DHL","puntType":"postOffice","bezettingsgraad":50,"latitude":41.131684,"longitude":14.644859,"canPickup":true,"canDropoff":true,"openingstijden":{"ma":"08:20 - 13:45","di":"08:20 - 13:45","wo":"08:20 - 13:45","do":"08:20 - 13:45","vr":"08:20 - 13:45","za":"08:20 - 12:45","zo":"gesloten"}}},{"type":"Feature","geometry":{"type":"Point","coordinates":[14.6445454,41.1333206]},"properties":{"type":"pakketpunt","locatieNaam":"Amazon Counter (fermopoint)","straatNaam":"Cierre Elettronica","straatNr":"","vervoerder":"Amazon","puntType":"helix","bezettingsgraad":50,"latitude":41.1333206,"longitude":14.6445454,"canPickup":true,"canDropoff":false,"openingstijden":null}},{"type":"Feature","geometry":{"type":"Point","coordinates":[14.6448,41.1316]},"properties":{"type":"pakketpunt","locatieNaam":"Ufficio Postale CAMPOLI DEL MONTE TABURNO","straatNaam":"PIAZZA ALFONSO LA MARMORA 1","straatNr":"","vervoerder":"Amazon","puntType":"3p","bezettingsgraad":50,"latitude":41.1316,"longitude":14.6448,"canPickup":true,"canDropoff":false,"openingstijden":null}},{"type":"Feature","geometry":{"type":"Polygon","coordinates":[[[14.6391389,41.1310251],[14.6418265,41.133627],[14.6420341,41.1336103],[14.6421409,41.1339204],[14.6420755,41.1342536],[14.6429374,41.1338719],[14.6429692,41.1346487],[14.6433481,41.1351342],[14.6441201,41.1355958],[14.6450471,41.1358788],[14.6459283,41.1359435],[14.646621,41.1355855],[14.6483942,41.1362048],[14.6488829,41.1361358],[14.6492831,41.1369263],[14.6501298,41.1368846],[14.650513,41.1365552],[14.6505173,41.1357628],[14.6511256,41.1356114],[14.6516854,41.1356378],[14.6523278,41.1358222],[14.6527088,41.1358305],[14.6533255,41.1363897],[14.6541481,41.1363582],[14.6546593,41.136558],[14.655101,41.1363698],[14.6553759,41.1363518],[14.6556835,41.1365076],[14.6561726,41.1363711],[14.6566136,41.1364349],[14.6577403,41.1375136],[14.6583115,41.1375484],[14.6588853,41.1372547],[14.6592647,41.137569],[14.6608006,41.1377003],[14.6609102,41.1372854],[14.6609269,41.1364608],[14.6607657,41.135402],[14.6603525,41.1348913],[14.659817,41.1344811],[14.6598677,41.134033],[14.6602274,41.1334661],[14.6586344,41.132865],[14.6580294,41.1322782],[14.6580585,41.1312955],[14.6591214,41.1310046],[14.6621241,41.1308341],[14.6632703,41.1302329],[14.6639295,41.1294127],[14.6652545,41.1289873],[14.6655332,41.1282758],[14.6651669,41.1274972],[14.6652891,41.1268791],[14.6657833,41.1257069],[14.6660142,41.1247098],[14.6678299,41.1238595],[14.6681201,41.1230575],[14.6678908,41.1212549],[14.6681306,41.1208605],[14.6689177,41.1206822],[14.6698685,41.1210448],[14.670726,41.1210654],[14.6713827,41.120844],[14.6721091,41.1208081],[14.6735122,41.1214049],[14.6745438,41.1222272],[14.6760908,41.1227223],[14.6765448,41.1225153],[14.6766815,41.1213428],[14.677052,41.1209464],[14.6769949,41.1205352],[14.6771395,41.1200824],[14.6780225,41.1198047],[14.6801681,41.1196491],[14.6793247,41.1190246],[14.6789691,41.1186641],[14.6785126,41.1171879],[14.6775687,41.1153306],[14.6771363,41.1134526],[14.6771888,41.1125543],[14.6765262,41.1118849],[14.6752994,41.1117115],[14.6743268,41.1107873],[14.6737844,41.1097519],[14.6738123,41.1089043],[14.6736553,41.1069226],[14.6737229,41.1051819],[14.6738226,41.1046819],[14.6737173,41.1040659],[14.6729112,41.1035431],[14.672123,41.1025769],[14.6720241,41.1021151],[14.6725103,41.1001917],[14.6723602,41.0992629],[14.6720212,41.0981094],[14.6715852,41.0969696],[14.6704403,41.0949332],[14.669186,41.0933072],[14.6683339,41.0924041],[14.6673717,41.091871],[14.666766,41.0913922],[14.6660731,41.0917955],[14.6651519,41.0927816],[14.6636357,41.0935091],[14.663016,41.0935846],[14.661982,41.0933656],[14.6600978,41.093922],[14.6595741,41.0939118],[14.6594569,41.0934495],[14.6598995,41.0930361],[14.6599372,41.0927057],[14.6600936,41.0923964],[14.6604395,41.0921813],[14.6602315,41.0909493],[14.6592592,41.090169],[14.6584619,41.0901588],[14.6578522,41.0906614],[14.6574136,41.0905075],[14.6564959,41.0904042],[14.6551501,41.090727],[14.6540596,41.0920545],[14.6524387,41.0921883],[14.6515181,41.0926367],[14.6506782,41.0928608],[14.6504138,41.0928069],[14.6496667,41.0930107],[14.6488894,41.093069],[14.6475807,41.0927463],[14.6477164,41.0930861],[14.6475454,41.0932835],[14.647272,41.0933596],[14.6473975,41.0935754],[14.6460925,41.09446],[14.6456829,41.094979],[14.644628,41.0959329],[14.6441693,41.0966959],[14.6454423,41.0982243],[14.6442279,41.098758],[14.644579,41.0994757],[14.6448057,41.0996737],[14.6449408,41.1001066],[14.6454108,41.1000953],[14.6459603,41.0997007],[14.6461623,41.0997471],[14.6463828,41.0996495],[14.6469769,41.0997444],[14.6472241,41.0996379],[14.647679,41.099713],[14.6478074,41.0995724],[14.6480954,41.0995444],[14.6481081,41.099418],[14.6481933,41.0993826],[14.6483222,41.0995317],[14.6487967,41.0995602],[14.6496674,41.0999276],[14.649708,41.1001801],[14.6500417,41.1002338],[14.6501746,41.1004242],[14.6501882,41.1009408],[14.6502558,41.1010459],[14.6506755,41.1012936],[14.6510633,41.1021348],[14.6516764,41.1024619],[14.6517654,41.1027777],[14.6520216,41.1029398],[14.6520518,41.1032607],[14.6525046,41.104024],[14.6525298,41.1041478],[14.6523572,41.1043521],[14.6525882,41.1046519],[14.652582,41.1050743],[14.6528329,41.1055654],[14.6530067,41.1056958],[14.653124,41.1061471],[14.6535058,41.1064282],[14.6535623,41.1067792],[14.6542002,41.1073812],[14.6545026,41.1074345],[14.6552699,41.1077902],[14.6553854,41.1079778],[14.6560715,41.1084804],[14.6564373,41.1084861],[14.6564954,41.1087472],[14.6568727,41.1089153],[14.6567868,41.1090388],[14.6569273,41.109242],[14.6570807,41.1092866],[14.6571343,41.1093862],[14.6569319,41.1096967],[14.6570199,41.1098748],[14.6575841,41.1103273],[14.6575655,41.1105409],[14.6576812,41.1106206],[14.6577097,41.1107917],[14.6576484,41.1109697],[14.6568189,41.1108974],[14.6558084,41.1104302],[14.6553663,41.1105634],[14.6550679,41.1105433],[14.6549541,41.110662],[14.6533929,41.1106461],[14.6530377,41.1107141],[14.6523415,41.1110607],[14.6506812,41.1109417],[14.6508512,41.1111306],[14.6515937,41.1115414],[14.6520396,41.1116614],[14.6526468,41.1121426],[14.6512304,41.1124553],[14.6511041,41.112724],[14.6512393,41.1131429],[14.651188,41.1134081],[14.6506837,41.1141058],[14.6508235,41.1146133],[14.650144,41.1143679],[14.6499803,41.114153],[14.6489938,41.1139665],[14.6487901,41.1139881],[14.6486992,41.1141161],[14.6484691,41.1141248],[14.6479797,41.1138613],[14.6478931,41.1136949],[14.6479186,41.1134677],[14.6474824,41.1133341],[14.6469712,41.1132838],[14.6468855,41.1133684],[14.6466235,41.1132936],[14.6463246,41.1135498],[14.6467788,41.1138771],[14.6465832,41.1140172],[14.6464202,41.1143559],[14.6462434,41.1145213],[14.6459938,41.1152085],[14.6462641,41.1157309],[14.6479249,41.1169365],[14.6479946,41.1172887],[14.6472214,41.1177969],[14.6467342,41.1177433],[14.646196,41.1175744],[14.6458727,41.1186437],[14.646335,41.1188103],[14.6451,41.1200106],[14.6445657,41.1198147],[14.6432227,41.119067],[14.6427746,41.1196231],[14.6427981,41.1198893],[14.6430452,41.1200817],[14.6431176,41.1203382],[14.6435288,41.1208834],[14.6435942,41.1212121],[14.6434934,41.1213492],[14.6437557,41.1216323],[14.6437626,41.1217338],[14.6432523,41.123169],[14.6428347,41.1237602],[14.6424365,41.1240345],[14.6431101,41.1245076],[14.6432308,41.1245173],[14.6435699,41.124941],[14.6442019,41.125163],[14.6437156,41.1257817],[14.6437544,41.1261172],[14.6434774,41.1269123],[14.6432392,41.127269],[14.6432944,41.1274836],[14.6431829,41.1276241],[14.6433467,41.1281412],[14.6431967,41.1280224],[14.6428806,41.1281627],[14.6424487,41.1286626],[14.6423759,41.1290562],[14.6426262,41.1297564],[14.6425156,41.129888],[14.64221,41.130073],[14.6411654,41.1296953],[14.6406647,41.129969],[14.6398228,41.1297999],[14.6391971,41.1298336],[14.6390499,41.1299543],[14.6390123,41.1301],[14.6391389,41.1310251]]]},"properties":{"type":"boundary","gemeente":"Campoli del Monte Taburno"}}]}