{"type":"FeatureCollection","metadata":{"gemeente":"Capalbio","slug":"capalbio","generated_at":"2026-09-26T14:27:03.716836Z","total_points":17,"providers":["PosteItaliane","DHL","Amazon"],"bounds":[11.3714,42.4097,11.42288333,42.45423533]},"features":[{"type":"Feature","geometry":{"type":"Point","coordinates":[11.37142962,42.41017615]},"properties":{"type":"pakketpunt","locatieNaam":"Tabaccheria N. 2","straatNaam":"Piazza Zucchi","straatNr":"4","vervoerder":"PosteItaliane","puntType":"servicepunt","bezettingsgraad":50,"latitude":42.41017615,"longitude":11.37142962,"canPickup":true,"canDropoff":true,"openingstijden":{"za":"08:00 - 19:30","zo":"gesloten","ma":"08:00 - 19:30","di":"08:00 - 19:30","wo":"08:00 - 19:30","do":"08:00 - 19:30","vr":"08:00 - 19:30"}}},{"type":"Feature","geometry":{"type":"Point","coordinates":[11.42288333,42.4537485]},"properties":{"type":"pakketpunt","locatieNaam":"Capalbio","straatNaam":"Via Giacomo Leopardi","straatNr":"83","vervoerder":"PosteItaliane","puntType":"postkantoor","bezettingsgraad":50,"latitude":42.4537485,"longitude":11.42288333,"canPickup":true,"canDropoff":true,"openingstijden":{"za":"08:20 - 12:45","zo":"gesloten","ma":"08:20 - 13:45","di":"08:20 - 13:45","wo":"08:20 - 13:45","do":"08:20 - 13:45","vr":"08:20 - 13:45"}}},{"type":"Feature","geometry":{"type":"Point","coordinates":[11.41863981,42.42536778]},"properties":{"type":"pakketpunt","locatieNaam":"Borgo Carige","straatNaam":"Piazza Repubblica","straatNr":"10","vervoerder":"PosteItaliane","puntType":"postkantoor","bezettingsgraad":50,"latitude":42.42536778,"longitude":11.41863981,"canPickup":true,"canDropoff":true,"openingstijden":{"za":"08:20 - 12:45","zo":"gesloten","ma":"08:20 - 13:45","di":"08:20 - 13:45","wo":"08:20 - 13:45","do":"08:20 - 13:45","vr":"08:20 - 13:45"}}},{"type":"Feature","geometry":{"type":"Point","coordinates":[11.37193223,42.40971843]},"properties":{"type":"pakketpunt","locatieNaam":"Capalbio Stazione","straatNaam":"Piazza Zucchi","straatNr":"10","vervoerder":"PosteItaliane","puntType":"postkantoor","bezettingsgraad":50,"latitude":42.40971843,"longitude":11.37193223,"canPickup":true,"canDropoff":true,"openingstijden":{"za":"08:20 - 12:45","zo":"gesloten","ma":"08:20 - 13:45","di":"08:20 - 13:45","wo":"08:20 - 13:45","do":"08:20 - 13:45","vr":"08:20 - 13:45"}}},{"type":"Feature","geometry":{"type":"Point","coordinates":[11.4212445,42.45423533]},"properties":{"type":"pakketpunt","locatieNaam":"Tabaccheria N. 1","straatNaam":"Via Giacomo Leopardi","straatNr":"6","vervoerder":"PosteItaliane","puntType":"servicepunt","bezettingsgraad":50,"latitude":42.45423533,"longitude":11.4212445,"canPickup":true,"canDropoff":true,"openingstijden":{"za":"07:00 - 13:00, 16:00 - 19:30","zo":"gesloten","ma":"07:00 - 13:00, 16:00 - 19:30","di":"07:00 - 13:00, 16:00 - 19:30","wo":"07:00 - 13:00","do":"07:00 - 13:00, 16:00 - 19:30","vr":"07:00 - 13:00, 16:00 - 19:30"}}},{"type":"Feature","geometry":{"type":"Point","coordinates":[11.41807988,42.42557263]},"properties":{"type":"pakketpunt","locatieNaam":"Tabaccheria N. 6","straatNaam":"Piazza Repubblica","straatNr":"3","vervoerder":"PosteItaliane","puntType":"servicepunt","bezettingsgraad":50,"latitude":42.42557263,"longitude":11.41807988,"canPickup":true,"canDropoff":true,"openingstijden":{"za":"06:00 - 22:00","zo":"06:00 - 22:00","ma":"gesloten","di":"06:00 - 22:00","wo":"06:00 - 22:00","do":"06:00 - 22:00","vr":"06:00 - 22:00"}}},{"type":"Feature","geometry":{"type":"Point","coordinates":[11.37143,42.410176]},"properties":{"type":"pakketpunt","locatieNaam":"TABACCHERIA N. 2","straatNaam":"PIAZZA ZUCCHI 4","straatNr":"","vervoerder":"DHL","puntType":"parcelShop","bezettingsgraad":50,"latitude":42.410176,"longitude":11.37143,"canPickup":true,"canDropoff":true,"openingstijden":{"ma":"08:00 - 19:30","di":"08:00 - 19:30","wo":"08:00 - 19:30","do":"08:00 - 19:30","vr":"08:00 - 19:30","za":"08:00 - 19:30","zo":"gesloten"}}},{"type":"Feature","geometry":{"type":"Point","coordinates":[11.371932,42.409718]},"properties":{"type":"pakketpunt","locatieNaam":"Ufficio Postale CAPALBIO STAZIONE","straatNaam":"PIAZZA ZUCCHI 10","straatNr":"","vervoerder":"DHL","puntType":"postOffice","bezettingsgraad":50,"latitude":42.409718,"longitude":11.371932,"canPickup":true,"canDropoff":true,"openingstijden":{"ma":"08:20 - 13:45","di":"08:20 - 13:45","wo":"08:20 - 13:45","do":"08:20 - 13:45","vr":"08:20 - 13:45","za":"08:20 - 12:45","zo":"gesloten"}}},{"type":"Feature","geometry":{"type":"Point","coordinates":[11.41808,42.425573]},"properties":{"type":"pakketpunt","locatieNaam":"TABACCHERIA N. 6","straatNaam":"PIAZZA REPUBBLICA 3","straatNr":"","vervoerder":"DHL","puntType":"parcelShop","bezettingsgraad":50,"latitude":42.425573,"longitude":11.41808,"canPickup":true,"canDropoff":true,"openingstijden":{"ma":"gesloten","di":"06:00 - 22:00","wo":"06:00 - 22:00","do":"06:00 - 22:00","vr":"06:00 - 22:00","za":"06:00 - 22:00","zo":"06:00 - 22:00"}}},{"type":"Feature","geometry":{"type":"Point","coordinates":[11.41864,42.425368]},"properties":{"type":"pakketpunt","locatieNaam":"Ufficio Postale BORGO CARIGE","straatNaam":"PIAZZA REPUBBLICA 10","straatNr":"","vervoerder":"DHL","puntType":"postOffice","bezettingsgraad":50,"latitude":42.425368,"longitude":11.41864,"canPickup":true,"canDropoff":true,"openingstijden":{"ma":"08:20 - 13:45","di":"08:20 - 13:45","wo":"08:20 - 13:45","do":"08:20 - 13:45","vr":"08:20 - 13:45","za":"08:20 - 12:45","zo":"gesloten"}}},{"type":"Feature","geometry":{"type":"Point","coordinates":[11.422883,42.453749]},"properties":{"type":"pakketpunt","locatieNaam":"Ufficio Postale CAPALBIO","straatNaam":"VIA GIACOMO LEOPARDI 83","straatNr":"","vervoerder":"DHL","puntType":"postOffice","bezettingsgraad":50,"latitude":42.453749,"longitude":11.422883,"canPickup":true,"canDropoff":true,"openingstijden":{"ma":"08:20 - 13:45","di":"08:20 - 13:45","wo":"08:20 - 13:45","do":"08:20 - 13:45","vr":"08:20 - 13:45","za":"08:20 - 12:45","zo":"gesloten"}}},{"type":"Feature","geometry":{"type":"Point","coordinates":[11.421245,42.454235]},"properties":{"type":"pakketpunt","locatieNaam":"TABACCHERIA N. 1","straatNaam":"VIA GIACOMO LEOPARDI 6","straatNr":"","vervoerder":"DHL","puntType":"parcelShop","bezettingsgraad":50,"latitude":42.454235,"longitude":11.421245,"canPickup":true,"canDropoff":true,"openingstijden":{"ma":"07:00 - 13:00, 16:00 - 19:30","di":"07:00 - 13:00, 16:00 - 19:30","wo":"07:00 - 13:00","do":"07:00 - 13:00, 16:00 - 19:30","vr":"07:00 - 13:00, 16:00 - 19:30","za":"07:00 - 13:00, 16:00 - 19:30","zo":"gesloten"}}},{"type":"Feature","geometry":{"type":"Point","coordinates":[11.3719,42.4097]},"properties":{"type":"pakketpunt","locatieNaam":"Ufficio Postale CAPALBIO STAZIONE","straatNaam":"PIAZZA ZUCCHI 10","straatNr":"","vervoerder":"Amazon","puntType":"3p","bezettingsgraad":50,"latitude":42.4097,"longitude":11.3719,"canPickup":true,"canDropoff":false,"openingstijden":null}},{"type":"Feature","geometry":{"type":"Point","coordinates":[11.4186,42.4253]},"properties":{"type":"pakketpunt","locatieNaam":"Ufficio Postale BORGO CARIGE","straatNaam":"PIAZZA REPUBBLICA 10","straatNr":"","vervoerder":"Amazon","puntType":"3p","bezettingsgraad":50,"latitude":42.4253,"longitude":11.4186,"canPickup":true,"canDropoff":false,"openingstijden":null}},{"type":"Feature","geometry":{"type":"Point","coordinates":[11.3714,42.4101]},"properties":{"type":"pakketpunt","locatieNaam":"PuntoPoste TABACCHERIA N. 2","straatNaam":"PIAZZA ZUCCHI 4","straatNr":"","vervoerder":"Amazon","puntType":"3p","bezettingsgraad":50,"latitude":42.4101,"longitude":11.3714,"canPickup":true,"canDropoff":false,"openingstijden":null}},{"type":"Feature","geometry":{"type":"Point","coordinates":[11.4228,42.4537]},"properties":{"type":"pakketpunt","locatieNaam":"Ufficio Postale CAPALBIO","straatNaam":"VIA GIACOMO LEOPARDI 83","straatNr":"","vervoerder":"Amazon","puntType":"3p","bezettingsgraad":50,"latitude":42.4537,"longitude":11.4228,"canPickup":true,"canDropoff":false,"openingstijden":null}},{"type":"Feature","geometry":{"type":"Point","coordinates":[11.4212,42.4542]},"properties":{"type":"pakketpunt","locatieNaam":"PuntoPoste TABACCHERIA N. 1","straatNaam":"VIA GIACOMO LEOPARDI 6","straatNr":"","vervoerder":"Amazon","puntType":"3p","bezettingsgraad":50,"latitude":42.4542,"longitude":11.4212,"canPickup":true,"canDropoff":false,"openingstijden":null}},{"type":"Feature","geometry":{"type":"Polygon","coordinates":[[[11.3150949,42.4057727],[11.3153684,42.4062944],[11.3159744,42.4134343],[11.3160608,42.4134468],[11.3163465,42.4142323],[11.3159043,42.4151977],[11.3159809,42.4159905],[11.313083,42.4163483],[11.3049658,42.4179775],[11.3051367,42.4181522],[11.3077911,42.4207099],[11.3086694,42.4214589],[11.3181358,42.4271158],[11.3189015,42.4274516],[11.3198775,42.4274983],[11.3351949,42.4253742],[11.3355367,42.4296534],[11.3342174,42.4317798],[11.3338184,42.4333946],[11.3335777,42.4336666],[11.3334008,42.4341309],[11.332969,42.4345167],[11.3329654,42.4348939],[11.3333338,42.4371274],[11.3328705,42.4379389],[11.3329112,42.4383967],[11.3326277,42.4391353],[11.3328155,42.4410988],[11.3324838,42.4427413],[11.3314174,42.4436019],[11.3313532,42.444418],[11.3308562,42.4456171],[11.3309426,42.4459459],[11.3313726,42.446486],[11.332053,42.4467837],[11.3321231,42.4469396],[11.3320311,42.4481045],[11.3326114,42.4489791],[11.3327103,42.4494332],[11.3325941,42.4499256],[11.3328246,42.4504106],[11.3326021,42.4510139],[11.3325972,42.4513291],[11.3332249,42.4522271],[11.3301164,42.4635356],[11.3304587,42.463934],[11.3305618,42.4649314],[11.3302818,42.4662021],[11.3320669,42.470059],[11.3323647,42.4704057],[11.333177,42.4729512],[11.332756,42.4747608],[11.3323122,42.4757386],[11.3322552,42.4760318],[11.3332871,42.4779204],[11.333357,42.4788026],[11.3315601,42.4820873],[11.3314393,42.4825961],[11.3323554,42.4831619],[11.3327958,42.4836027],[11.3418095,42.4894938],[11.343811,42.4879597],[11.3448501,42.4878108],[11.3460009,42.4878818],[11.3466725,42.4878041],[11.3489007,42.4879878],[11.349189,42.4881266],[11.3496713,42.4881792],[11.3509819,42.4898504],[11.3514892,42.4900647],[11.3520939,42.4905541],[11.3528871,42.4908247],[11.3616555,42.4923876],[11.3623576,42.4923432],[11.3643123,42.49296],[11.3652255,42.4930758],[11.3661587,42.493486],[11.3687474,42.494011],[11.3723923,42.4954395],[11.3740839,42.4958601],[11.3754362,42.4960107],[11.3759542,42.4962509],[11.3776303,42.4977327],[11.3789071,42.4986637],[11.3801005,42.4990205],[11.38073,42.4990777],[11.3810415,42.4993316],[11.3811587,42.4996011],[11.3813726,42.4998317],[11.381843,42.5014094],[11.3818202,42.501747],[11.381948,42.5024575],[11.3819061,42.503095],[11.3823636,42.5036792],[11.3830304,42.5048902],[11.383187,42.5050521],[11.384464,42.5056512],[11.3863095,42.5057446],[11.3865499,42.5058492],[11.3868869,42.5061694],[11.3878467,42.5061048],[11.3885161,42.5055593],[11.3891958,42.5055389],[11.3898255,42.5060182],[11.3903814,42.5067457],[11.3908165,42.5070849],[11.3914112,42.5078207],[11.3918432,42.5081563],[11.3924583,42.5093292],[11.3924634,42.5095843],[11.3923159,42.509846],[11.3922774,42.5101099],[11.392418,42.5103396],[11.3925443,42.510387],[11.3931439,42.5103685],[11.393817,42.5101573],[11.3944474,42.5101104],[11.3964722,42.5104774],[11.3983002,42.5105497],[11.3998392,42.5108817],[11.4007326,42.5113629],[11.4011566,42.5122855],[11.4010739,42.51305],[11.401494,42.513565],[11.4017325,42.514353],[11.4018168,42.5144365],[11.4026625,42.5146746],[11.4033404,42.5147125],[11.4035179,42.514885],[11.4036354,42.5159498],[11.403856,42.5167383],[11.4039391,42.5177372],[11.4040713,42.518308],[11.4036891,42.5199629],[11.4038837,42.5208584],[11.4051885,42.5212616],[11.4059221,42.5219427],[11.4070066,42.5224087],[11.4076111,42.5225958],[11.4081135,42.5226273],[11.4086949,42.5224915],[11.409063,42.5226628],[11.4099389,42.5234047],[11.4099639,42.5237952],[11.410137,42.5242945],[11.4101505,42.5244887],[11.4096249,42.5249056],[11.4095952,42.525057],[11.4098349,42.5251664],[11.4103209,42.5249175],[11.4106889,42.5249941],[11.4107603,42.5252248],[11.4106838,42.5255334],[11.410869,42.5257421],[11.4112757,42.5258355],[11.411399,42.525612],[11.4116688,42.5255966],[11.4118919,42.5257101],[11.4118218,42.52585],[11.4119071,42.5260894],[11.4122641,42.5260404],[11.4124235,42.5262513],[11.4126105,42.5263184],[11.4127381,42.5264806],[11.412775,42.5267208],[11.4125948,42.5269344],[11.4125961,42.527248],[11.4131465,42.5279309],[11.4132314,42.5285762],[11.4143325,42.528544],[11.4149614,42.5283293],[11.4160808,42.5281814],[11.417329,42.5276906],[11.4191787,42.5279412],[11.4207574,42.5279358],[11.4212634,42.527819],[11.4216867,42.5280106],[11.4223991,42.5280927],[11.4228577,42.5280442],[11.42423,42.5281414],[11.4244149,42.528254],[11.4244246,42.5288969],[11.4247972,42.5288092],[11.4249029,42.5289719],[11.4251074,42.5290623],[11.4255202,42.5283179],[11.4258598,42.5281225],[11.4264769,42.5281145],[11.4273023,42.5284383],[11.4280585,42.528357],[11.4281954,42.5282655],[11.4278177,42.527994],[11.4277108,42.5278106],[11.4278019,42.5276628],[11.4281226,42.5276154],[11.4282368,42.5274547],[11.4283321,42.5272721],[11.4283342,42.5270418],[11.428526,42.5267749],[11.4285878,42.5265012],[11.4294487,42.5262731],[11.4296821,42.5262821],[11.4296763,42.5267476],[11.4298074,42.5268236],[11.4303648,42.5268159],[11.4309548,42.5269125],[11.4311265,42.5268292],[11.4319657,42.5261274],[11.4321112,42.5258365],[11.4319483,42.5250385],[11.4320464,42.5249796],[11.4328673,42.5250522],[11.4338602,42.5255373],[11.434456,42.5256906],[11.4345057,42.5261705],[11.4346992,42.526313],[11.4352539,42.5263256],[11.4358445,42.5259435],[11.4363795,42.5261864],[11.4369187,42.5259468],[11.4380227,42.5262059],[11.437838,42.5258055],[11.4381452,42.5252889],[11.4388253,42.5252142],[11.439223,42.5253747],[11.4394331,42.5252864],[11.4394653,42.5251328],[11.4397263,42.524895],[11.4397162,42.5237243],[11.4395989,42.5231554],[11.4396205,42.5228547],[11.4398518,42.5225657],[11.4403154,42.5226545],[11.4403795,42.5225695],[11.4403253,42.5222173],[11.4406755,42.5218719],[11.4408799,42.5213872],[11.4411377,42.5213795],[11.4412376,42.5216811],[11.4414787,42.5216881],[11.4421067,42.5210988],[11.442461,42.5206194],[11.4429707,42.5203192],[11.4429701,42.5199747],[11.4430429,42.5198565],[11.4437006,42.5194591],[11.4442299,42.519467],[11.4445928,42.5196439],[11.4446944,42.5196035],[11.4446798,42.5191838],[11.4448933,42.5189359],[11.445069,42.5188749],[11.445428,42.5189392],[11.4455903,42.5191026],[11.4457833,42.5191349],[11.446559,42.5190128],[11.4470583,42.519116],[11.4490687,42.5183276],[11.4495512,42.5183048],[11.4498818,42.5185942],[11.450031,42.518596],[11.4501801,42.5182993],[11.4506211,42.5182677],[11.4513942,42.517758],[11.4521001,42.5175199],[11.4525418,42.5170727],[11.4527733,42.5169569],[11.4535454,42.5168726],[11.45372,42.5169382],[11.4537606,42.5170953],[11.4538928,42.5171947],[11.4544115,42.517007],[11.4545933,42.5168959],[11.4546302,42.5167558],[11.4545183,42.5164599],[11.4547091,42.5163347],[11.4551405,42.5164174],[11.4554141,42.516642],[11.4561447,42.5165326],[11.4566336,42.5169097],[11.4573428,42.5168397],[11.4578514,42.5170204],[11.4585557,42.5167603],[11.4598265,42.5160463],[11.4603679,42.5160995],[11.4609004,42.5163671],[11.4610763,42.5163623],[11.461767,42.5159395],[11.4623842,42.5152655],[11.462822,42.5149103],[11.4647988,42.5143467],[11.4656862,42.5144158],[11.4658825,42.5145149],[11.4660477,42.5148431],[11.4662071,42.5148995],[11.4668725,42.5148613],[11.4670738,42.5147679],[11.4671827,42.5145977],[11.4672076,42.5144224],[11.4670163,42.5141687],[11.4670201,42.5140303],[11.4672195,42.513878],[11.4677199,42.5137979],[11.4685519,42.5141271],[11.4687151,42.5140998],[11.4687853,42.5139915],[11.4686896,42.51378],[11.4681783,42.5134925],[11.4682399,42.5132005],[11.4684187,42.5131133],[11.471137,42.5133358],[11.4713947,42.5131813],[11.4719857,42.5123834],[11.4722663,42.5123644],[11.4724644,42.5124187],[11.472676,42.5126034],[11.4728313,42.5126141],[11.4738066,42.512003],[11.4746656,42.5119084],[11.4754198,42.5116135],[11.4765654,42.5109395],[11.4771923,42.5106762],[11.4772659,42.5104636],[11.4767172,42.5099747],[11.4767678,42.509799],[11.4769098,42.5097279],[11.4778651,42.50975],[11.4788903,42.5100239],[11.479589,42.5099164],[11.4804448,42.5093329],[11.4813661,42.5084859],[11.4815814,42.5080416],[11.4817709,42.5079696],[11.4827473,42.5079224],[11.4844076,42.5080409],[11.4859462,42.5079798],[11.4869383,42.5076585],[11.4873989,42.5070929],[11.4876112,42.5069733],[11.4884516,42.5067708],[11.4887272,42.5067731],[11.4889295,42.5068667],[11.4890825,42.5071939],[11.4892565,42.5072382],[11.491477,42.5071897],[11.4919018,42.5069315],[11.4929148,42.5066021],[11.4940232,42.5066684],[11.4947817,42.5065508],[11.4954697,42.5066642],[11.4959213,42.5064003],[11.4963133,42.5058638],[11.4965157,42.5057693],[11.4969793,42.5057472],[11.4972321,42.5055995],[11.4973291,42.5052701],[11.49727,42.5051429],[11.4973556,42.5049973],[11.4976283,42.5048445],[11.4982628,42.5042578],[11.4983483,42.5040946],[11.4981704,42.5034481],[11.4983535,42.5030677],[11.4985386,42.5028788],[11.4996159,42.5020573],[11.5008054,42.5015954],[11.5011169,42.5013374],[11.5012377,42.5001997],[11.5015437,42.4992326],[11.5028482,42.4972737],[11.5026972,42.4967322],[11.5027499,42.4965644],[11.50312,42.4961961],[11.50352,42.495548],[11.5041757,42.4949799],[11.5058562,42.4942498],[11.5068125,42.4940487],[11.5073611,42.4938476],[11.5086662,42.49286],[11.5087988,42.4926365],[11.5088061,42.4923076],[11.5105489,42.4911799],[11.5116468,42.4907191],[11.5122389,42.4907286],[11.5123631,42.4917434],[11.5125048,42.4919384],[11.5127809,42.4929454],[11.5132581,42.4936194],[11.5143854,42.4944996],[11.5182968,42.4926262],[11.5188232,42.4924796],[11.519375,42.4922063],[11.5197567,42.4921664],[11.5203682,42.4923195],[11.5206177,42.4922825],[11.5206053,42.4920892],[11.5202826,42.4917046],[11.5202883,42.4914658],[11.520549,42.4909153],[11.5206903,42.4906825],[11.5210153,42.4906709],[11.5212813,42.4904399],[11.5216252,42.4903288],[11.5219904,42.4899966],[11.5228033,42.4884613],[11.5232161,42.488101],[11.5245425,42.4873921],[11.5253491,42.4868188],[11.526307,42.4854568],[11.5265605,42.4852751],[11.5269778,42.4853306],[11.5276595,42.485066],[11.5282039,42.485134],[11.528261,42.4852343],[11.5288619,42.4854281],[11.5293303,42.4852782],[11.5299652,42.4848815],[11.5301198,42.4847565],[11.5301247,42.4846123],[11.5304159,42.4842547],[11.5303737,42.4836613],[11.5304637,42.4835152],[11.5309915,42.4831415],[11.5310101,42.4827244],[11.5308173,42.4823583],[11.5309783,42.4819381],[11.5326092,42.4807328],[11.5341738,42.4804887],[11.5348602,42.4798716],[11.5352193,42.4792344],[11.5355582,42.4788194],[11.5365128,42.4783124],[11.5365983,42.4781217],[11.5365763,42.4776283],[11.5369167,42.4773016],[11.5382435,42.4762517],[11.5393657,42.4756866],[11.5396353,42.4753969],[11.539908,42.4747335],[11.5410077,42.4742184],[11.5413325,42.4738788],[11.5399807,42.4734487],[11.5383777,42.4726873],[11.538011,42.4726054],[11.5376519,42.4726358],[11.5363542,42.4719037],[11.5356302,42.4715955],[11.5350637,42.4710858],[11.5340253,42.4696544],[11.5338493,42.467326],[11.533564,42.4670101],[11.5335068,42.4667206],[11.5326713,42.4659788],[11.5323021,42.4653431],[11.5322465,42.4649436],[11.5318312,42.4644485],[11.5313127,42.4642574],[11.5310157,42.4636381],[11.5303133,42.4631088],[11.5298901,42.4624837],[11.5299047,42.4605514],[11.5293276,42.4593575],[11.5294513,42.4585803],[11.5296835,42.4580034],[11.5299021,42.457053],[11.530014,42.455038],[11.530201,42.4547006],[11.5315094,42.4533705],[11.5319157,42.4531544],[11.5326654,42.4530883],[11.5330328,42.4525489],[11.5330318,42.4521077],[11.5326246,42.4513963],[11.5324066,42.4508158],[11.5326693,42.4497159],[11.5328388,42.4493204],[11.5327164,42.4484316],[11.5322299,42.4480912],[11.5319851,42.4476328],[11.5319085,42.4474319],[11.5319323,42.4468145],[11.5317249,42.4466841],[11.5311615,42.44662],[11.5310324,42.4464697],[11.5309091,42.4460897],[11.5303404,42.4459672],[11.5300337,42.4457129],[11.5297968,42.4451508],[11.5298266,42.4449835],[11.5302009,42.4448087],[11.5302394,42.4446322],[11.5301832,42.4444804],[11.5300092,42.4443852],[11.5296655,42.4444198],[11.5294573,42.4438886],[11.5293502,42.44304],[11.5291967,42.4427777],[11.5284612,42.4423257],[11.5276856,42.4417079],[11.5275811,42.4415662],[11.5277072,42.4412617],[11.5276709,42.4410779],[11.526907,42.4399961],[11.5260426,42.4395875],[11.5256345,42.4392633],[11.5247405,42.4390624],[11.5245296,42.4388824],[11.5244601,42.4386273],[11.5246964,42.4382664],[11.5246715,42.4379878],[11.5240632,42.4375239],[11.5236659,42.4367132],[11.5232763,42.4365462],[11.52324,42.4361328],[11.523096,42.4359919],[11.5222084,42.4357593],[11.5218539,42.4354834],[11.5212732,42.434267],[11.5207594,42.4338494],[11.5203155,42.4339461],[11.5192095,42.4339123],[11.5179667,42.4335389],[11.5165751,42.433556],[11.51563,42.433928],[11.5152288,42.434306],[11.5141978,42.4343646],[11.5131523,42.4342975],[11.5119712,42.4345441],[11.5105029,42.4352111],[11.5064509,42.4360383],[11.5035059,42.4374984],[11.5011471,42.4383874],[11.4995231,42.4391185],[11.4988824,42.4391821],[11.4983793,42.439058],[11.4965026,42.4380723],[11.4955745,42.4374419],[11.4944964,42.437301],[11.4932459,42.4374971],[11.4925381,42.4377466],[11.4888884,42.4393704],[11.4884549,42.4391311],[11.4878309,42.4386256],[11.4864759,42.4378582],[11.48444,42.4361913],[11.4819096,42.4344924],[11.4811135,42.4338571],[11.4811728,42.4331468],[11.4813944,42.4323877],[11.4814382,42.4313468],[11.4811133,42.4306303],[11.4814593,42.4302901],[11.481772,42.4295666],[11.4817507,42.4291052],[11.4814172,42.4288414],[11.4813543,42.4286654],[11.4809895,42.4283033],[11.4810103,42.427704],[11.4809305,42.427103],[11.4813029,42.4265812],[11.4810891,42.4257008],[11.4811254,42.4250085],[11.4809957,42.4248515],[11.4815884,42.4215278],[11.4820113,42.4206978],[11.4821258,42.4199275],[11.4818683,42.4196104],[11.4813155,42.4193379],[11.4810173,42.418815],[11.48039,42.4182193],[11.4798271,42.4178189],[11.479368,42.4171517],[11.4788185,42.4169875],[11.4778597,42.4162497],[11.4775911,42.4159397],[11.4776201,42.4156429],[11.4773508,42.4150837],[11.4770874,42.4147448],[11.47628,42.4130591],[11.475976,42.4127178],[11.4740024,42.4115131],[11.4724528,42.4112284],[11.4707724,42.4102585],[11.4700823,42.4097969],[11.469261,42.4087844],[11.4687115,42.4082543],[11.4675072,42.4079755],[11.4669887,42.4077747],[11.4618548,42.4044323],[11.4613527,42.4040023],[11.4610498,42.4038656],[11.4595988,42.4039836],[11.4590366,42.4038324],[11.4566696,42.4017847],[11.456484,42.4015217],[11.4562367,42.4002469],[11.4554274,42.3988171],[11.4526232,42.3961838],[11.4521544,42.3958137],[11.4508081,42.3950472],[11.4497752,42.3940614],[11.4495336,42.3936468],[11.4494573,42.3931696],[11.4495953,42.3922312],[11.4506517,42.3906383],[11.4515312,42.3901618],[11.4545305,42.3888996],[11.4549205,42.3886685],[11.4550543,42.3883797],[11.4549288,42.3877628],[11.4490125,42.3777261],[11.4487673,42.3779284],[11.4474858,42.378182],[11.4469853,42.3783605],[11.4464325,42.3786757],[11.4129937,42.3879897],[11.4031595,42.39036],[11.4020688,42.3907238],[11.3992296,42.3913447],[11.397657,42.3917852],[11.3943894,42.3924882],[11.393616,42.3925476],[11.3917351,42.3929681],[11.3906451,42.3933153],[11.388559,42.3936441],[11.3874606,42.3940227],[11.3855385,42.3944756],[11.3849436,42.3945296],[11.3829482,42.3951042],[11.3803661,42.3955421],[11.3803364,42.3956422],[11.3806522,42.396112],[11.3806148,42.396333],[11.3804371,42.3965195],[11.3797083,42.3969166],[11.3793942,42.3973658],[11.3787561,42.3976588],[11.3786996,42.3977157],[11.3787537,42.3977774],[11.3785486,42.3978768],[11.3784454,42.3977272],[11.3785644,42.3975319],[11.3792983,42.3971803],[11.3796454,42.3967384],[11.3802407,42.396409],[11.3803342,42.3962432],[11.3801285,42.3956217],[11.3749669,42.3964366],[11.3710347,42.3973208],[11.3437874,42.4020956],[11.3150949,42.4057727]]]},"properties":{"type":"boundary","gemeente":"Capalbio"}}]}