{"type":"FeatureCollection","metadata":{"gemeente":"Caposele","slug":"caposele","generated_at":"2026-09-26T14:27:03.931471Z","total_points":12,"providers":["PosteItaliane","DPD","GLS","DHL","Amazon"],"bounds":[15.2224,40.8131,15.23732967,40.81814588]},"features":[{"type":"Feature","geometry":{"type":"Point","coordinates":[15.22245006,40.81529929]},"properties":{"type":"pakketpunt","locatieNaam":"Caposele","straatNaam":"Corso Europa","straatNr":"10","vervoerder":"PosteItaliane","puntType":"postkantoor","bezettingsgraad":50,"latitude":40.81529929,"longitude":15.22245006,"canPickup":true,"canDropoff":true,"openingstijden":{"za":"08:30 - 12:35","zo":"gesloten","ma":"08:30 - 13:35","di":"08:30 - 13:35","wo":"08:30 - 13:35","do":"08:20 - 13:35","vr":"08:20 - 13:35"}}},{"type":"Feature","geometry":{"type":"Point","coordinates":[15.23732967,40.81814588]},"properties":{"type":"pakketpunt","locatieNaam":"Materdomini","straatNaam":"Via Duomo","straatNr":"35","vervoerder":"PosteItaliane","puntType":"postkantoor","bezettingsgraad":50,"latitude":40.81814588,"longitude":15.23732967,"canPickup":true,"canDropoff":true,"openingstijden":{"za":"08:20 - 12:45","zo":"gesloten","ma":"08:20 - 13:45","di":"08:20 - 13:45","wo":"08:20 - 13:45","do":"08:20 - 13:45","vr":"08:20 - 13:45"}}},{"type":"Feature","geometry":{"type":"Point","coordinates":[15.22831659,40.81318127]},"properties":{"type":"pakketpunt","locatieNaam":"Tabaccheria N. 2","straatNaam":"Via San Gerardo","straatNr":"8","vervoerder":"PosteItaliane","puntType":"servicepunt","bezettingsgraad":50,"latitude":40.81318127,"longitude":15.22831659,"canPickup":true,"canDropoff":true,"openingstijden":{"za":"08:00 - 13:00, 15:00 - 23:30","zo":"08:00 - 13:00, 15:00 - 23:30","ma":"gesloten","di":"08:00 - 13:00, 15:00 - 23:30","wo":"08:00 - 13:00, 15:00 - 23:30","do":"08:00 - 13:00, 15:00 - 23:30","vr":"08:00 - 13:00, 15:00 - 23:30"}}},{"type":"Feature","geometry":{"type":"Point","coordinates":[15.23539608,40.8163669]},"properties":{"type":"pakketpunt","locatieNaam":"Malanga Store","straatNaam":"C.SO S. ALFONSO","straatNr":"11","vervoerder":"DPD","puntType":"pickup_point","bezettingsgraad":50,"latitude":40.8163669,"longitude":15.23539608,"canPickup":true,"canDropoff":true,"openingstijden":{"ma":"08:00 - 13:00, 16:30 - 20:00","di":"08:00 - 13:00, 16:30 - 20:00","wo":"08:00 - 13:00, 16:30 - 20:00","do":"08:00 - 13:00","vr":"08:00 - 13:00, 16:30 - 20:00","za":"08:00 - 13:00, 16:30 - 20:00","zo":"08:00 - 13:00"}}},{"type":"Feature","geometry":{"type":"Point","coordinates":[15.22669586,40.81344537]},"properties":{"type":"pakketpunt","locatieNaam":"Gelomarket da Carla","straatNaam":"VIA S. GERARDO","straatNr":"108","vervoerder":"DPD","puntType":"pickup_point","bezettingsgraad":50,"latitude":40.81344537,"longitude":15.22669586,"canPickup":true,"canDropoff":true,"openingstijden":{"ma":"09:00 - 13:00, 16:00 - 20:00","di":"09:00 - 13:00, 16:00 - 20:00","wo":"09:00 - 13:00, 16:00 - 20:00","do":"09:00 - 13:00","vr":"09:00 - 13:00, 16:00 - 20:00","za":"09:00 - 13:00, 16:00 - 20:00","zo":"gesloten"}}},{"type":"Feature","geometry":{"type":"Point","coordinates":[15.2233841457,40.8147655175]},"properties":{"type":"pakketpunt","locatieNaam":"Tabaccheria Russomanno Eugenio ","straatNaam":"Piazza Xxiii Novembre","straatNr":"9","vervoerder":"GLS","puntType":"parcel_shop","bezettingsgraad":50,"latitude":40.8147655175,"longitude":15.2233841457,"canPickup":true,"canDropoff":true,"openingstijden":"za: 07:00 - 13:20, 15:00 - 20:30; ma: 07:00 - 13:20, 15:00 - 20:30"}},{"type":"Feature","geometry":{"type":"Point","coordinates":[15.22245,40.815299]},"properties":{"type":"pakketpunt","locatieNaam":"Ufficio Postale CAPOSELE","straatNaam":"CORSO EUROPA 10","straatNr":"","vervoerder":"DHL","puntType":"postOffice","bezettingsgraad":50,"latitude":40.815299,"longitude":15.22245,"canPickup":true,"canDropoff":true,"openingstijden":{"ma":"08:30 - 13:35","di":"08:30 - 13:35","wo":"08:30 - 13:35","do":"08:30 - 13:35","vr":"08:30 - 13:35","za":"08:30 - 12:35","zo":"gesloten"}}},{"type":"Feature","geometry":{"type":"Point","coordinates":[15.228317,40.813181]},"properties":{"type":"pakketpunt","locatieNaam":"TABACCHERIA N. 2","straatNaam":"VIA SAN GERARDO 8","straatNr":"","vervoerder":"DHL","puntType":"parcelShop","bezettingsgraad":50,"latitude":40.813181,"longitude":15.228317,"canPickup":true,"canDropoff":true,"openingstijden":{"ma":"gesloten","di":"08:00 - 13:00, 15:00 - 23:30","wo":"08:00 - 13:00, 15:00 - 23:30","do":"08:00 - 13:00, 15:00 - 23:30","vr":"08:00 - 13:00, 15:00 - 23:30","za":"08:00 - 13:00, 15:00 - 23:30","zo":"08:00 - 13:00, 15:00 - 23:30"}}},{"type":"Feature","geometry":{"type":"Point","coordinates":[15.2266958611297,40.8134453701664]},"properties":{"type":"pakketpunt","locatieNaam":"Amazon Counter (fermopoint)","straatNaam":"Gelomarket da Carla","straatNr":"","vervoerder":"Amazon","puntType":"helix","bezettingsgraad":50,"latitude":40.8134453701664,"longitude":15.2266958611297,"canPickup":true,"canDropoff":false,"openingstijden":null}},{"type":"Feature","geometry":{"type":"Point","coordinates":[15.2224,40.8152]},"properties":{"type":"pakketpunt","locatieNaam":"Ufficio Postale CAPOSELE","straatNaam":"CORSO EUROPA 10","straatNr":"","vervoerder":"Amazon","puntType":"3p","bezettingsgraad":50,"latitude":40.8152,"longitude":15.2224,"canPickup":true,"canDropoff":false,"openingstijden":null}},{"type":"Feature","geometry":{"type":"Point","coordinates":[15.23533,40.816043]},"properties":{"type":"pakketpunt","locatieNaam":"Amazon Counter - PRIMAEDICOLA","straatNaam":"MALANGA STORE DI MALANGA SALVA","straatNr":"","vervoerder":"Amazon","puntType":"helix","bezettingsgraad":50,"latitude":40.816043,"longitude":15.23533,"canPickup":true,"canDropoff":false,"openingstijden":null}},{"type":"Feature","geometry":{"type":"Point","coordinates":[15.2283,40.8131]},"properties":{"type":"pakketpunt","locatieNaam":"PuntoPoste TABACCHERIA N. 2","straatNaam":"VIA SAN GERARDO 8","straatNr":"","vervoerder":"Amazon","puntType":"3p","bezettingsgraad":50,"latitude":40.8131,"longitude":15.2283,"canPickup":true,"canDropoff":false,"openingstijden":null}},{"type":"Feature","geometry":{"type":"Polygon","coordinates":[[[15.1610087,40.81454],[15.1618449,40.8154673],[15.162817,40.8161758],[15.1636858,40.8171508],[15.1640197,40.8178349],[15.1651372,40.8193816],[15.1653645,40.820058],[15.1659718,40.820354],[15.1679427,40.8216478],[15.1684998,40.822248],[15.1689178,40.8228556],[15.1693688,40.823286],[15.1703101,40.8247431],[15.1707839,40.8249741],[15.1719811,40.8247479],[15.1727756,40.8247592],[15.1740666,40.8240238],[15.1748491,40.8237342],[15.1773969,40.8231293],[15.1801958,40.8235908],[15.181015,40.8236188],[15.1819276,40.8235382],[15.1826974,40.8232988],[15.1839659,40.82328],[15.1848078,40.8227396],[15.1866065,40.8219453],[15.1872476,40.8217803],[15.1877231,40.8219211],[15.1881959,40.8218508],[15.1887541,40.8222077],[15.189849,40.8231163],[15.1904056,40.8233428],[15.1907026,40.8236914],[15.1913695,40.8241504],[15.191986,40.8239868],[15.1932176,40.8238259],[15.1937065,40.8238851],[15.1944416,40.82439],[15.1953795,40.8244609],[15.1963855,40.8242852],[15.1969421,40.8239896],[15.1978326,40.8238516],[15.1983393,40.8236713],[15.1987424,40.823159],[15.1986224,40.8226434],[15.1977292,40.821643],[15.198144,40.8213911],[15.1984866,40.8210668],[15.1991063,40.8215057],[15.1993312,40.8219391],[15.1994978,40.8225419],[15.2017508,40.8213405],[15.2028741,40.8209425],[15.2042808,40.8231571],[15.2048641,40.8235262],[15.2058824,40.8235656],[15.2065927,40.8231088],[15.2072325,40.8230067],[15.2073739,40.8226571],[15.2073732,40.8223334],[15.2079667,40.822598],[15.209225,40.8229396],[15.2089673,40.8240471],[15.2093614,40.8249664],[15.20928,40.8253623],[15.2085944,40.8262184],[15.2084657,40.8265989],[15.2084877,40.8272367],[15.2068411,40.8271142],[15.205953,40.8271622],[15.2052786,40.8273786],[15.2050168,40.8276673],[15.2049238,40.8280188],[15.2050816,40.8287394],[15.2042771,40.8289673],[15.2022003,40.829219],[15.2018921,40.8297081],[15.2015044,40.8299181],[15.2006621,40.8301616],[15.2000806,40.8306115],[15.1996197,40.8311719],[15.1993384,40.8316956],[15.1992087,40.8324632],[15.199519,40.833144],[15.1985184,40.834008],[15.1981345,40.8341322],[15.19847,40.8347262],[15.1991135,40.8355241],[15.200728,40.8364406],[15.2013464,40.8369067],[15.2022,40.8370767],[15.2039106,40.8377134],[15.2040542,40.8380207],[15.2040096,40.8386444],[15.2041774,40.8399222],[15.2042737,40.8403895],[15.2045123,40.8407862],[15.2045895,40.8424967],[15.204779,40.8428824],[15.2054557,40.8429899],[15.2060841,40.8429605],[15.2066306,40.8431245],[15.2071076,40.8437964],[15.2095634,40.8440821],[15.2102642,40.8439723],[15.2106773,40.8438194],[15.2120412,40.8436467],[15.2125176,40.8445165],[15.2150096,40.8446743],[15.2246452,40.8455298],[15.2281454,40.8456867],[15.2316818,40.8463005],[15.2332018,40.846362],[15.2364847,40.8457609],[15.238999,40.8451788],[15.2392094,40.8448254],[15.239335,40.843626],[15.2392982,40.8428809],[15.2390694,40.8413947],[15.2395542,40.8412964],[15.2428044,40.8415384],[15.2438377,40.8417433],[15.2451081,40.8421287],[15.2469322,40.8415751],[15.2482127,40.8413839],[15.2503698,40.8408031],[15.2509389,40.8405156],[15.2524479,40.8382868],[15.2530864,40.8378785],[15.2540115,40.8376977],[15.2548054,40.83765],[15.2579752,40.8378419],[15.2591844,40.8381361],[15.2599808,40.8384752],[15.2630592,40.8402156],[15.2646315,40.8388968],[15.2667068,40.8388556],[15.2671995,40.8398278],[15.2690072,40.8414528],[15.2699758,40.8429301],[15.2710696,40.8436309],[15.2723037,40.8440226],[15.2737288,40.8442013],[15.2749036,40.8445917],[15.2754525,40.8452323],[15.2761165,40.845439],[15.276875,40.8453526],[15.2777049,40.8456133],[15.2778861,40.8452973],[15.2789123,40.8444942],[15.27973,40.8444],[15.2807511,40.8441372],[15.2826206,40.8430809],[15.283353,40.8427348],[15.2840296,40.8425898],[15.2848346,40.8421813],[15.2857579,40.8415682],[15.2879956,40.8404827],[15.2888332,40.8399194],[15.2893787,40.839696],[15.291062,40.8394823],[15.2936701,40.8388984],[15.2944393,40.8388158],[15.2955467,40.8381487],[15.2945749,40.8373041],[15.2933431,40.8351439],[15.2925958,40.8323901],[15.2925687,40.8315501],[15.2921248,40.8299948],[15.2914308,40.8289797],[15.2907639,40.8282422],[15.2902698,40.8265861],[15.2894716,40.8254867],[15.2880412,40.8241474],[15.2871258,40.8234505],[15.2863876,40.8221633],[15.2858589,40.8209996],[15.2838543,40.8182246],[15.2836594,40.8171597],[15.2840379,40.8138087],[15.2840574,40.8128266],[15.2849707,40.8103375],[15.2847306,40.8094911],[15.2840375,40.8084039],[15.2831557,40.8070975],[15.2824408,40.8063266],[15.2817726,40.805337],[15.2813296,40.8044027],[15.2810763,40.8035255],[15.2802871,40.801899],[15.2800676,40.8004394],[15.2803269,40.7998627],[15.2806574,40.7995386],[15.2800202,40.7977643],[15.2785944,40.7967846],[15.2773157,40.7970165],[15.2759419,40.7974155],[15.2752783,40.7969117],[15.2749174,40.7962024],[15.2718741,40.7969356],[15.2702126,40.7963827],[15.2700526,40.7952303],[15.2692328,40.794411],[15.2676879,40.7939552],[15.2666936,40.7933569],[15.2654779,40.7923656],[15.2650944,40.7918323],[15.2640249,40.7907572],[15.263095,40.7904191],[15.2618732,40.7917442],[15.2613562,40.7929335],[15.2608024,40.7935127],[15.2598183,40.7938138],[15.2584325,40.7937813],[15.2572573,40.7934943],[15.2574692,40.7931587],[15.2579418,40.7926829],[15.2590066,40.7921299],[15.2583519,40.7917067],[15.2578549,40.7919496],[15.2562234,40.7930555],[15.2555262,40.7932644],[15.2549556,40.79312],[15.2535447,40.7930978],[15.2523008,40.793296],[15.2505131,40.7937262],[15.2495561,40.7942778],[15.2494982,40.7947715],[15.2489899,40.7950962],[15.2479244,40.7955411],[15.2469892,40.7961275],[15.2458894,40.7965112],[15.244434,40.7961201],[15.2436937,40.7958205],[15.2422952,40.7958425],[15.2397127,40.7962528],[15.2392775,40.797253],[15.2385684,40.7976875],[15.2376808,40.7980327],[15.2351462,40.7988453],[15.2342827,40.7989911],[15.2325403,40.7991036],[15.2307378,40.7993949],[15.2297076,40.7996668],[15.2265456,40.8008462],[15.2259321,40.8011719],[15.2245195,40.801307],[15.2232633,40.801213],[15.2225774,40.8014751],[15.2223317,40.80206],[15.2224375,40.8024863],[15.2224399,40.8030172],[15.2218486,40.8033508],[15.2193928,40.8036412],[15.216981,40.8044962],[15.2156407,40.8046947],[15.2141465,40.804672],[15.2125093,40.80436],[15.2109916,40.8042441],[15.2100209,40.804445],[15.2086808,40.8049404],[15.2073308,40.8048198],[15.2036235,40.8022568],[15.2026878,40.8022578],[15.202204,40.8026574],[15.201836,40.8028393],[15.2004986,40.8040545],[15.2000621,40.8046046],[15.1998512,40.8052641],[15.1992959,40.8060951],[15.1987763,40.8066272],[15.1979595,40.8072743],[15.1967163,40.8078273],[15.1959452,40.8078014],[15.1950324,40.8075716],[15.194227,40.807129],[15.193133,40.8066794],[15.1882324,40.8055347],[15.1859572,40.8051442],[15.1835356,40.8045094],[15.1818972,40.8039045],[15.1809032,40.8039174],[15.1792538,40.8041096],[15.1780353,40.8040041],[15.1774281,40.8035826],[15.1771214,40.8046608],[15.1767446,40.8055361],[15.176738,40.8066976],[15.1771442,40.8083091],[15.175055,40.8076746],[15.1732756,40.8073337],[15.1719397,40.8075809],[15.1707895,40.8085878],[15.1682817,40.8099645],[15.1661844,40.8115442],[15.1617195,40.8138539],[15.1610087,40.81454]]]},"properties":{"type":"boundary","gemeente":"Caposele"}}]}