{"type":"FeatureCollection","metadata":{"gemeente":"Carapelle Calvisio","slug":"carapelle-calvisio","generated_at":"2026-09-26T13:09:42.848601Z","total_points":1,"providers":["PosteItaliane"],"bounds":[13.68310359,42.29913936,13.68310359,42.29913936]},"features":[{"type":"Feature","geometry":{"type":"Point","coordinates":[13.68310359,42.29913936]},"properties":{"type":"pakketpunt","locatieNaam":"Carapelle Calvisio","straatNaam":"Piazza Gabriele D'annunzio","straatNr":"12","vervoerder":"PosteItaliane","puntType":"postkantoor","bezettingsgraad":50,"latitude":42.29913936,"longitude":13.68310359,"canPickup":true,"canDropoff":true,"openingstijden":{"za":"gesloten","zo":"gesloten","ma":"08:20 - 13:45","di":"gesloten","wo":"08:20 - 13:45","do":"gesloten","vr":"08:20 - 13:45"}}},{"type":"Feature","geometry":{"type":"MultiPolygon","coordinates":[[[[13.6561204,42.304352],[13.6578437,42.3037507],[13.6648217,42.3025481],[13.6688941,42.3021434],[13.6727459,42.3018736],[13.6741261,42.3020153],[13.6752568,42.3024418],[13.6764971,42.303476],[13.6768294,42.3043492],[13.6773287,42.304887],[13.6782561,42.3052497],[13.6793829,42.3053252],[13.6869008,42.3054856],[13.7062349,42.3039582],[13.7071819,42.3033116],[13.7184686,42.2941542],[13.7189506,42.2936167],[13.7194774,42.2928387],[13.7206999,42.2898713],[13.720776,42.2891974],[13.7204839,42.286216],[13.7195877,42.284943],[13.7184449,42.2845265],[13.7180072,42.2839728],[13.7165732,42.2805433],[13.7167978,42.2801829],[13.7193335,42.2784038],[13.7182048,42.2777391],[13.712115,42.2749155],[13.7095993,42.2739882],[13.7013233,42.2719517],[13.6983485,42.2715292],[13.6931915,42.2717048],[13.6894865,42.2785235],[13.6887365,42.2783516],[13.6749501,42.2863613],[13.6570473,42.3024911],[13.6564045,42.303107],[13.656142,42.3039865],[13.6561204,42.304352]]],[[[13.6641909,42.3882432],[13.6617198,42.3876861],[13.6608735,42.389161],[13.659815,42.3915],[13.6576012,42.3938271],[13.6584656,42.3949851],[13.658216,42.3964877],[13.6638119,42.4176138],[13.6649103,42.4193593],[13.6679672,42.4282286],[13.6691308,42.4300008],[13.6695142,42.4348164],[13.6708172,42.437531],[13.6714896,42.4393385],[13.6761026,42.43884],[13.6754785,42.4372485],[13.674251,42.4301959],[13.6734628,42.4262666],[13.6727219,42.4201018],[13.6714153,42.4147598],[13.6695704,42.40825],[13.6641909,42.3882432]]]]},"properties":{"type":"boundary","gemeente":"Carapelle Calvisio"}}]}