{"type":"FeatureCollection","metadata":{"gemeente":"Cardito","slug":"cardito","generated_at":"2026-09-26T14:27:04.579467Z","total_points":49,"providers":["PosteItaliane","DPD","InPost","GLS","DHL","Amazon","FedEx"],"bounds":[14.28644493,40.9299461,14.304216,40.94748]},"features":[{"type":"Feature","geometry":{"type":"Point","coordinates":[14.28752658,40.9372872]},"properties":{"type":"pakketpunt","locatieNaam":"Cardito 1","straatNaam":"Viale John Fitzgerald Kennedy Snc","straatNr":"4","vervoerder":"PosteItaliane","puntType":"postkantoor","bezettingsgraad":50,"latitude":40.9372872,"longitude":14.28752658,"canPickup":true,"canDropoff":true,"openingstijden":{"za":"08:20 - 12:35","zo":"gesloten","ma":"08:20 - 13:35","di":"08:20 - 13:35","wo":"08:20 - 13:35","do":"08:20 - 13:35","vr":"08:20 - 13:35"}}},{"type":"Feature","geometry":{"type":"Point","coordinates":[14.29878499,40.94617801]},"properties":{"type":"pakketpunt","locatieNaam":"Cardito","straatNaam":"Via Sacerdote Biagio Mugione Snc","straatNr":"","vervoerder":"PosteItaliane","puntType":"postkantoor","bezettingsgraad":50,"latitude":40.94617801,"longitude":14.29878499,"canPickup":true,"canDropoff":true,"openingstijden":{"za":"08:20 - 12:35","zo":"gesloten","ma":"08:20 - 19:05","di":"08:20 - 19:05","wo":"08:20 - 19:05","do":"08:20 - 19:05","vr":"08:20 - 19:05"}}},{"type":"Feature","geometry":{"type":"Point","coordinates":[14.28820829,40.93759141]},"properties":{"type":"pakketpunt","locatieNaam":"Galaxi Giovy Telefonia","straatNaam":"Viale John Fitzgerald Kennedy","straatNr":"23","vervoerder":"PosteItaliane","puntType":"servicepunt","bezettingsgraad":50,"latitude":40.93759141,"longitude":14.28820829,"canPickup":true,"canDropoff":true,"openingstijden":{"za":"08:30 - 13:00, 16:00 - 20:00","zo":"gesloten","ma":"08:30 - 13:00, 16:00 - 20:00","di":"08:30 - 13:00, 16:00 - 20:00","wo":"08:30 - 13:00, 16:00 - 20:00","do":"08:30 - 13:00, 16:00 - 20:00","vr":"08:30 - 13:00, 16:00 - 20:00"}}},{"type":"Feature","geometry":{"type":"Point","coordinates":[14.29932674,40.94115765]},"properties":{"type":"pakketpunt","locatieNaam":"Tabaccheria N. 7","straatNaam":"Via Pietro Donadio","straatNr":"16","vervoerder":"PosteItaliane","puntType":"servicepunt","bezettingsgraad":50,"latitude":40.94115765,"longitude":14.29932674,"canPickup":true,"canDropoff":true,"openingstijden":{"za":"09:01 - 12:00","zo":"gesloten","ma":"gesloten","di":"gesloten","wo":"gesloten","do":"gesloten","vr":"gesloten"}}},{"type":"Feature","geometry":{"type":"Point","coordinates":[14.29841326,40.9418615]},"properties":{"type":"pakketpunt","locatieNaam":"Tabaccheria N. 3","straatNaam":"Via Cesare Battisti","straatNr":"156","vervoerder":"PosteItaliane","puntType":"servicepunt","bezettingsgraad":50,"latitude":40.9418615,"longitude":14.29841326,"canPickup":true,"canDropoff":true,"openingstijden":{"za":"06:45 - 20:30","zo":"gesloten","ma":"06:45 - 20:30","di":"06:45 - 20:30","wo":"06:45 - 20:30","do":"06:45 - 20:30","vr":"06:45 - 20:30"}}},{"type":"Feature","geometry":{"type":"Point","coordinates":[14.29661964,40.94073919]},"properties":{"type":"pakketpunt","locatieNaam":"Golden - Cardito","straatNaam":"Via Guglielmo Marconi","straatNr":"122","vervoerder":"PosteItaliane","puntType":"servicepunt","bezettingsgraad":50,"latitude":40.94073919,"longitude":14.29661964,"canPickup":true,"canDropoff":true,"openingstijden":{"za":"08:00 - 13:00","zo":"gesloten","ma":"08:00 - 13:00, 15:00 - 19:00","di":"08:00 - 13:00, 15:00 - 19:00","wo":"08:00 - 13:00, 15:00 - 19:00","do":"08:00 - 13:00, 15:00 - 19:00","vr":"08:00 - 13:00, 15:00 - 19:00"}}},{"type":"Feature","geometry":{"type":"Point","coordinates":[14.30082,40.94391]},"properties":{"type":"pakketpunt","locatieNaam":"Tabaccheria N. 9","straatNaam":"Via Don Gaetano Capasso Snc","straatNr":"18","vervoerder":"PosteItaliane","puntType":"servicepunt","bezettingsgraad":50,"latitude":40.94391,"longitude":14.30082,"canPickup":true,"canDropoff":true,"openingstijden":{"za":"07:30 - 22:30","zo":"07:30 - 22:30","ma":"07:30 - 22:30","di":"07:30 - 22:30","wo":"07:30 - 22:30","do":"07:30 - 22:30","vr":"07:30 - 22:30"}}},{"type":"Feature","geometry":{"type":"Point","coordinates":[14.28826397,40.93832207]},"properties":{"type":"pakketpunt","locatieNaam":"Tabaccheria N. 11","straatNaam":"Via Tiziano","straatNr":"11","vervoerder":"PosteItaliane","puntType":"servicepunt","bezettingsgraad":50,"latitude":40.93832207,"longitude":14.28826397,"canPickup":true,"canDropoff":true,"openingstijden":{"za":"06:30 - 21:00","zo":"07:00 - 14:00","ma":"06:30 - 21:00","di":"06:30 - 21:00","wo":"06:30 - 21:00","do":"06:30 - 21:00","vr":"06:30 - 21:00"}}},{"type":"Feature","geometry":{"type":"Point","coordinates":[14.28644493,40.93718272]},"properties":{"type":"pakketpunt","locatieNaam":"Tabaccheria N. 5","straatNaam":"Via Nuova Belvedere","straatNr":"5","vervoerder":"PosteItaliane","puntType":"servicepunt","bezettingsgraad":50,"latitude":40.93718272,"longitude":14.28644493,"canPickup":true,"canDropoff":true,"openingstijden":{"za":"07:30 - 13:30, 15:00 - 20:30","zo":"08:30 - 13:00","ma":"07:30 - 13:30, 15:00 - 20:30","di":"07:30 - 13:30, 15:00 - 20:30","wo":"07:30 - 13:30, 15:00 - 20:30","do":"07:30 - 13:30, 15:00 - 20:30","vr":"07:30 - 13:30, 15:00 - 20:30"}}},{"type":"Feature","geometry":{"type":"Point","coordinates":[14.2968278,40.9470487]},"properties":{"type":"pakketpunt","locatieNaam":"Babilonia","straatNaam":"VIA CAMILLO DANIELE","straatNr":"51","vervoerder":"DPD","puntType":"pickup_point","bezettingsgraad":50,"latitude":40.9470487,"longitude":14.2968278,"canPickup":true,"canDropoff":true,"openingstijden":{"ma":"09:30 - 13:00, 16:30 - 20:00","di":"09:30 - 13:00, 16:30 - 20:00","wo":"09:30 - 13:00, 16:30 - 20:00","do":"09:30 - 13:00, 16:30 - 20:00","vr":"09:30 - 13:00, 16:30 - 20:00","za":"09:30 - 13:00, 16:30 - 20:00","zo":"gesloten"}}},{"type":"Feature","geometry":{"type":"Point","coordinates":[14.2868301036,40.9369665194]},"properties":{"type":"pakketpunt","locatieNaam":"Posta Express - Cardito","straatNaam":"VIALE J.F. KENNEDY","straatNr":"2","vervoerder":"DPD","puntType":"pickup_point","bezettingsgraad":50,"latitude":40.9369665194,"longitude":14.2868301036,"canPickup":true,"canDropoff":true,"openingstijden":{"ma":"08:30 - 12:30, 16:00 - 18:30","di":"08:30 - 12:30, 16:00 - 18:30","wo":"08:30 - 12:30, 16:00 - 18:30","do":"08:30 - 12:30, 16:00 - 18:30","vr":"08:30 - 12:30, 16:00 - 18:30","za":"09:00 - 12:30","zo":"gesloten"}}},{"type":"Feature","geometry":{"type":"Point","coordinates":[14.2991260822,40.9466072185]},"properties":{"type":"pakketpunt","locatieNaam":"La Torre de Papel","straatNaam":"VIA A.GRAMSCI","straatNr":"68","vervoerder":"DPD","puntType":"pickup_point","bezettingsgraad":50,"latitude":40.9466072185,"longitude":14.2991260822,"canPickup":true,"canDropoff":true,"openingstijden":{"ma":"07:45 - 13:00, 16:30 - 19:30","di":"07:45 - 13:00, 16:30 - 19:30","wo":"07:45 - 13:00, 16:30 - 19:30","do":"07:45 - 13:00, 16:30 - 19:30","vr":"07:45 - 13:00, 16:30 - 19:30","za":"gesloten","zo":"gesloten"}}},{"type":"Feature","geometry":{"type":"Point","coordinates":[14.30122823,40.94365853]},"properties":{"type":"pakketpunt","locatieNaam":"Tabaccheria Gold","straatNaam":"VIA DON GAETANO CAPASSO","straatNr":"SNC","vervoerder":"DPD","puntType":"pickup_point","bezettingsgraad":50,"latitude":40.94365853,"longitude":14.30122823,"canPickup":true,"canDropoff":true,"openingstijden":{"ma":"07:30 - 13:30, 16:00 - 20:00","di":"07:30 - 13:30, 16:00 - 20:00","wo":"07:30 - 13:30, 16:00 - 20:00","do":"07:30 - 13:30, 16:00 - 20:00","vr":"07:30 - 13:30, 16:00 - 20:00","za":"07:30 - 13:30, 16:00 - 20:00","zo":"gesloten"}}},{"type":"Feature","geometry":{"type":"Point","coordinates":[14.2881944,40.9346036]},"properties":{"type":"pakketpunt","locatieNaam":"Centro Servizi Casaura","straatNaam":"VIA SANT'EUFEMIA","straatNr":"32","vervoerder":"DPD","puntType":"pickup_point","bezettingsgraad":50,"latitude":40.9346036,"longitude":14.2881944,"canPickup":true,"canDropoff":true,"openingstijden":{"ma":"08:30 - 13:00, 15:30 - 18:30","di":"08:30 - 13:00, 15:30 - 18:30","wo":"08:30 - 13:00, 15:30 - 18:30","do":"08:30 - 13:00, 15:30 - 18:30","vr":"08:30 - 13:00, 15:30 - 18:30","za":"gesloten","zo":"gesloten"}}},{"type":"Feature","geometry":{"type":"Point","coordinates":[14.29879801,40.94171887]},"properties":{"type":"pakketpunt","locatieNaam":"Tabacchi Persico","straatNaam":"C.SO C. BATTISTI","straatNr":"156","vervoerder":"DPD","puntType":"pickup_point","bezettingsgraad":50,"latitude":40.94171887,"longitude":14.29879801,"canPickup":true,"canDropoff":true,"openingstijden":{"ma":"07:00 - 13:30, 16:00 - 20:30","di":"07:00 - 13:30, 16:00 - 20:30","wo":"07:00 - 13:30, 16:00 - 20:30","do":"07:00 - 13:30, 16:00 - 20:30","vr":"07:00 - 13:30, 16:00 - 20:30","za":"07:00 - 13:30, 16:00 - 20:30","zo":"gesloten"}}},{"type":"Feature","geometry":{"type":"Point","coordinates":[14.29917,40.94482]},"properties":{"type":"pakketpunt","locatieNaam":"InPost Locker 24/7","straatNaam":"SS 87 Nc","straatNr":"Km 11 + 217","vervoerder":"InPost","puntType":"automaat","bezettingsgraad":50,"latitude":40.94482,"longitude":14.29917,"canPickup":true,"canDropoff":true,"openingstijden":null}},{"type":"Feature","geometry":{"type":"Point","coordinates":[14.30125,40.94383]},"properties":{"type":"pakketpunt","locatieNaam":"InPost Point","straatNaam":"Via Don Gaetano Capasso","straatNr":"snc","vervoerder":"InPost","puntType":"servicepunt","bezettingsgraad":50,"latitude":40.94383,"longitude":14.30125,"canPickup":true,"canDropoff":true,"openingstijden":"Lun-Sab: 07:30 - 13:30 - 16:00 - 20:00 Dom: 09:00 - 13:00"}},{"type":"Feature","geometry":{"type":"Point","coordinates":[14.29752,40.94748]},"properties":{"type":"pakketpunt","locatieNaam":"InPost Point","straatNaam":"C.so Camillo Daniele","straatNr":"67","vervoerder":"InPost","puntType":"servicepunt","bezettingsgraad":50,"latitude":40.94748,"longitude":14.29752,"canPickup":true,"canDropoff":true,"openingstijden":"Lun-Ven: 8:30 - 19:30"}},{"type":"Feature","geometry":{"type":"Point","coordinates":[14.28672,40.93709]},"properties":{"type":"pakketpunt","locatieNaam":"InPost Point","straatNaam":"Viale John Fitzgerald Kennedy","straatNr":"2","vervoerder":"InPost","puntType":"servicepunt","bezettingsgraad":50,"latitude":40.93709,"longitude":14.28672,"canPickup":true,"canDropoff":true,"openingstijden":"Lun-Ven: 8:00 - 12:30 - 15:30 - 18:30 Sab: 8:00 - 12:30"}},{"type":"Feature","geometry":{"type":"Point","coordinates":[14.2927789,40.9299461]},"properties":{"type":"pakketpunt","locatieNaam":"TERRAZZA DALÚ","straatNaam":"Corso Italia","straatNr":"10","vervoerder":"GLS","puntType":"parcel_shop","bezettingsgraad":50,"latitude":40.9299461,"longitude":14.2927789,"canPickup":true,"canDropoff":true,"openingstijden":"za: 06:00 - 23:30; zo: 06:00 - 23:30"}},{"type":"Feature","geometry":{"type":"Point","coordinates":[14.28680724,40.93688952]},"properties":{"type":"pakketpunt","locatieNaam":"AGENZIA POSTAEXPRESS","straatNaam":"Via John Kennedy Fitzgerald","straatNr":"2","vervoerder":"GLS","puntType":"parcel_shop","bezettingsgraad":50,"latitude":40.93688952,"longitude":14.28680724,"canPickup":true,"canDropoff":true,"openingstijden":"za: 08:30 - 12:00; ma: 08:30 - 12:30, 15:00 - 18:30"}},{"type":"Feature","geometry":{"type":"Point","coordinates":[14.2964228,40.9408518]},"properties":{"type":"pakketpunt","locatieNaam":"IXOITALIA","straatNaam":"Via Guglielmo Marconi","straatNr":"122","vervoerder":"GLS","puntType":"parcel_shop","bezettingsgraad":50,"latitude":40.9408518,"longitude":14.2964228,"canPickup":true,"canDropoff":true,"openingstijden":"za: 08:00 - 13:00; ma: 08:00 - 13:00, 15:00 - 19:00"}},{"type":"Feature","geometry":{"type":"Point","coordinates":[14.2985532,40.9422004]},"properties":{"type":"pakketpunt","locatieNaam":"Tabacchi Persico","straatNaam":"Corso Cesare Battisti","straatNr":"155","vervoerder":"GLS","puntType":"parcel_shop","bezettingsgraad":50,"latitude":40.9422004,"longitude":14.2985532,"canPickup":true,"canDropoff":true,"openingstijden":"za: 07:30 - 13:30, 16:00 - 20:30; ma: 07:30 - 13:30, 16:00 - 20:30"}},{"type":"Feature","geometry":{"type":"Point","coordinates":[14.302454,40.943695]},"properties":{"type":"pakketpunt","locatieNaam":"Tabaccheria Fll.i Ciaramella","straatNaam":"Via Don Gaetano Capasso","straatNr":"SNC","vervoerder":"GLS","puntType":"parcel_shop","bezettingsgraad":50,"latitude":40.943695,"longitude":14.302454,"canPickup":true,"canDropoff":true,"openingstijden":"za: 07:30 - 13:30, 16:00 - 20:00; zo: 09:00 - 13:00"}},{"type":"Feature","geometry":{"type":"Point","coordinates":[14.2963662,40.9452041]},"properties":{"type":"pakketpunt","locatieNaam":"Dal orto alla tavola di Palmieri Giorgio","straatNaam":"Corso Cesare Battisti","straatNr":"47 49","vervoerder":"GLS","puntType":"parcel_shop","bezettingsgraad":50,"latitude":40.9452041,"longitude":14.2963662,"canPickup":true,"canDropoff":true,"openingstijden":"za: 08:00 - 13:00, 16:30 - 19:30; ma: 08:00 - 13:00, 16:30 - 19:30"}},{"type":"Feature","geometry":{"type":"Point","coordinates":[14.2991234,40.9466214]},"properties":{"type":"pakketpunt","locatieNaam":"la torre de papel","straatNaam":"Via Antonio Gramsci","straatNr":"68","vervoerder":"GLS","puntType":"parcel_shop","bezettingsgraad":50,"latitude":40.9466214,"longitude":14.2991234,"canPickup":true,"canDropoff":true,"openingstijden":"ma: 08:00 - 13:00, 16:30 - 20:00; di: 08:00 - 13:00, 16:30 - 20:00"}},{"type":"Feature","geometry":{"type":"Point","coordinates":[14.2975388,40.9473491]},"properties":{"type":"pakketpunt","locatieNaam":"Il Papiro","straatNaam":"Via Camillo Daniele","straatNr":"67","vervoerder":"GLS","puntType":"parcel_shop","bezettingsgraad":50,"latitude":40.9473491,"longitude":14.2975388,"canPickup":true,"canDropoff":true,"openingstijden":"za: 08:30 - 13:00, 16:30 - 19:30; ma: 08:30 - 13:00, 16:30 - 19:30"}},{"type":"Feature","geometry":{"type":"Point","coordinates":[14.288208,40.937591]},"properties":{"type":"pakketpunt","locatieNaam":"GALAXI GIOVY TELEFONIA","straatNaam":"VIALE JOHN FITZGERALD KENNEDY 23","straatNr":"","vervoerder":"DHL","puntType":"parcelShop","bezettingsgraad":50,"latitude":40.937591,"longitude":14.288208,"canPickup":true,"canDropoff":true,"openingstijden":{"ma":"08:30 - 13:00, 16:00 - 20:00","di":"08:30 - 13:00, 16:00 - 20:00","wo":"08:30 - 13:00, 16:00 - 20:00","do":"08:30 - 13:00, 16:00 - 20:00","vr":"08:30 - 13:00, 16:00 - 20:00","za":"08:30 - 13:00, 16:00 - 20:00","zo":"gesloten"}}},{"type":"Feature","geometry":{"type":"Point","coordinates":[14.287527,40.937287]},"properties":{"type":"pakketpunt","locatieNaam":"Ufficio Postale CARDITO 1","straatNaam":"VIA KENNEDY JOHN FITZGERALD SNC 4","straatNr":"","vervoerder":"DHL","puntType":"postOffice","bezettingsgraad":50,"latitude":40.937287,"longitude":14.287527,"canPickup":true,"canDropoff":true,"openingstijden":{"ma":"08:20 - 13:35","di":"08:20 - 13:35","wo":"08:20 - 13:35","do":"08:20 - 13:35","vr":"08:20 - 13:35","za":"08:20 - 12:35","zo":"gesloten"}}},{"type":"Feature","geometry":{"type":"Point","coordinates":[14.288264,40.938322]},"properties":{"type":"pakketpunt","locatieNaam":"TABACCHERIA N. 11","straatNaam":"VIA TIZIANO 11","straatNr":"","vervoerder":"DHL","puntType":"parcelShop","bezettingsgraad":50,"latitude":40.938322,"longitude":14.288264,"canPickup":true,"canDropoff":true,"openingstijden":{"ma":"06:30 - 21:00","di":"06:30 - 21:00","wo":"06:30 - 21:00","do":"06:30 - 21:00","vr":"06:30 - 21:00","za":"06:30 - 21:00","zo":"07:00 - 14:00"}}},{"type":"Feature","geometry":{"type":"Point","coordinates":[14.298413,40.941862]},"properties":{"type":"pakketpunt","locatieNaam":"TABACCHERIA N. 3","straatNaam":"VIA CESARE BATTISTI 156","straatNr":"","vervoerder":"DHL","puntType":"parcelShop","bezettingsgraad":50,"latitude":40.941862,"longitude":14.298413,"canPickup":true,"canDropoff":true,"openingstijden":{"ma":"06:45 - 20:30","di":"06:45 - 20:30","wo":"06:45 - 20:30","do":"06:45 - 20:30","vr":"06:45 - 20:30","za":"06:45 - 20:30","zo":"gesloten"}}},{"type":"Feature","geometry":{"type":"Point","coordinates":[14.286445,40.937183]},"properties":{"type":"pakketpunt","locatieNaam":"TABACCHERIA N. 5","straatNaam":"VIA NUOVA BELVEDERE 5","straatNr":"","vervoerder":"DHL","puntType":"parcelShop","bezettingsgraad":50,"latitude":40.937183,"longitude":14.286445,"canPickup":true,"canDropoff":true,"openingstijden":{"ma":"07:30 - 13:30, 15:00 - 20:30","di":"07:30 - 13:30, 15:00 - 20:30","wo":"07:30 - 13:30, 15:00 - 20:30","do":"07:30 - 13:30, 15:00 - 20:30","vr":"07:30 - 13:30, 15:00 - 20:30","za":"07:30 - 13:30, 15:00 - 20:30","zo":"08:30 - 13:00"}}},{"type":"Feature","geometry":{"type":"Point","coordinates":[14.30082,40.94391]},"properties":{"type":"pakketpunt","locatieNaam":"TABACCHERIA N. 9","straatNaam":"VIA DON GAETANO CAPASSO SNC 18","straatNr":"","vervoerder":"DHL","puntType":"parcelShop","bezettingsgraad":50,"latitude":40.94391,"longitude":14.30082,"canPickup":true,"canDropoff":true,"openingstijden":{"ma":"07:30 - 22:30","di":"07:30 - 22:30","wo":"07:30 - 22:30","do":"07:30 - 22:30","vr":"07:30 - 22:30","za":"07:30 - 22:30","zo":"07:30 - 22:30"}}},{"type":"Feature","geometry":{"type":"Point","coordinates":[14.298785,40.946178]},"properties":{"type":"pakketpunt","locatieNaam":"Ufficio Postale CARDITO","straatNaam":"VIA MUGIONE BIAGIO SACERDOTE SNC","straatNr":"","vervoerder":"DHL","puntType":"postOffice","bezettingsgraad":50,"latitude":40.946178,"longitude":14.298785,"canPickup":true,"canDropoff":true,"openingstijden":{"ma":"08:20 - 19:05","di":"08:20 - 19:05","wo":"08:20 - 19:05","do":"08:20 - 19:05","vr":"08:20 - 19:05","za":"08:20 - 12:35","zo":"gesloten"}}},{"type":"Feature","geometry":{"type":"Point","coordinates":[14.299421,40.946398]},"properties":{"type":"pakketpunt","locatieNaam":"POSTA EXPRESS AG. CARDITO","straatNaam":"Viale Kennedy 2","straatNr":"","vervoerder":"DHL","puntType":"parcelShop","bezettingsgraad":50,"latitude":40.946398,"longitude":14.299421,"canPickup":false,"canDropoff":true,"openingstijden":{"ma":"08:30 - 18:30","di":"08:30 - 18:30","wo":"08:30 - 18:30","do":"08:30 - 18:30","vr":"08:30 - 18:30","za":"08:30 - 13:00","zo":"gesloten"}}},{"type":"Feature","geometry":{"type":"Point","coordinates":[14.298039,40.931067]},"properties":{"type":"pakketpunt","locatieNaam":"Amazon Locker - bosco","straatNaam":"PRO7 - Cardito","straatNr":"","vervoerder":"Amazon","puntType":"locker","bezettingsgraad":50,"latitude":40.931067,"longitude":14.298039,"canPickup":true,"canDropoff":false,"openingstijden":null}},{"type":"Feature","geometry":{"type":"Point","coordinates":[14.304216,40.942186]},"properties":{"type":"pakketpunt","locatieNaam":"Amazon Locker - redes","straatNaam":"Fermopoint / La Masseria","straatNr":"","vervoerder":"Amazon","puntType":"locker","bezettingsgraad":50,"latitude":40.942186,"longitude":14.304216,"canPickup":true,"canDropoff":false,"openingstijden":null}},{"type":"Feature","geometry":{"type":"Point","coordinates":[14.3012722,40.9438316]},"properties":{"type":"pakketpunt","locatieNaam":"Amazon Counter","straatNaam":"Tabaccheria Gold (fermopoint)","straatNr":"","vervoerder":"Amazon","puntType":"helix","bezettingsgraad":50,"latitude":40.9438316,"longitude":14.3012722,"canPickup":true,"canDropoff":false,"openingstijden":null}},{"type":"Feature","geometry":{"type":"Point","coordinates":[14.2984,40.9418]},"properties":{"type":"pakketpunt","locatieNaam":"PuntoPoste TABACCHERIA N. 3","straatNaam":"VIA CESARE BATTISTI 156","straatNr":"","vervoerder":"Amazon","puntType":"3p","bezettingsgraad":50,"latitude":40.9418,"longitude":14.2984,"canPickup":true,"canDropoff":false,"openingstijden":null}},{"type":"Feature","geometry":{"type":"Point","coordinates":[14.2963866,40.9451945]},"properties":{"type":"pakketpunt","locatieNaam":"Amazon Counter - Dal orto alla tavola ","straatNaam":"Corso Cesare Battisti , 4749","straatNr":"","vervoerder":"Amazon","puntType":"helix","bezettingsgraad":50,"latitude":40.9451945,"longitude":14.2963866,"canPickup":true,"canDropoff":false,"openingstijden":null}},{"type":"Feature","geometry":{"type":"Point","coordinates":[14.29929,40.94489]},"properties":{"type":"pakketpunt","locatieNaam":"Amazon Counter - TIGER BAR","straatNaam":"STRADA STATALE 87 KM 11,200 SNC","straatNr":"","vervoerder":"Amazon","puntType":"helix","bezettingsgraad":50,"latitude":40.94489,"longitude":14.29929,"canPickup":true,"canDropoff":false,"openingstijden":null}},{"type":"Feature","geometry":{"type":"Point","coordinates":[14.294701,40.947267]},"properties":{"type":"pakketpunt","locatieNaam":"Amazon Counter - EDICOLA IL GABIBBO","straatNaam":"VIA ALCIDE DE GASPERI 23","straatNr":"","vervoerder":"Amazon","puntType":"helix","bezettingsgraad":50,"latitude":40.947267,"longitude":14.294701,"canPickup":true,"canDropoff":false,"openingstijden":null}},{"type":"Feature","geometry":{"type":"Point","coordinates":[14.2993,40.9464]},"properties":{"type":"pakketpunt","locatieNaam":"PuntoPoste LA TORRE DE PAPEL CARTOLIBRERIA","straatNaam":"VIA ANTONIO GRAMSCI 68","straatNr":"","vervoerder":"Amazon","puntType":"3p","bezettingsgraad":50,"latitude":40.9464,"longitude":14.2993,"canPickup":true,"canDropoff":false,"openingstijden":null}},{"type":"Feature","geometry":{"type":"Point","coordinates":[14.28683848159734,40.93690887069726]},"properties":{"type":"pakketpunt","locatieNaam":"FedEx OnSite","straatNaam":"Via John Kennedy Fitzgerald, 2","straatNr":"","vervoerder":"FedEx","puntType":"servicepunt","bezettingsgraad":50,"latitude":40.93690887069726,"longitude":14.28683848159734,"canPickup":true,"canDropoff":true,"openingstijden":{"ma":"08:30 - 12:30, 15:00 - 18:30","di":"08:30 - 12:30, 15:00 - 18:30","wo":"08:30 - 12:30, 15:00 - 18:30","do":"08:30 - 12:30, 15:00 - 18:30","vr":"08:30 - 12:30, 15:00 - 18:30","za":"08:30 - 12:00","zo":"gesloten"}}},{"type":"Feature","geometry":{"type":"Point","coordinates":[14.298553,40.9422]},"properties":{"type":"pakketpunt","locatieNaam":"FedEx OnSite","straatNaam":"Corso Cesare Battisti, 155","straatNr":"","vervoerder":"FedEx","puntType":"servicepunt","bezettingsgraad":50,"latitude":40.9422,"longitude":14.298553,"canPickup":true,"canDropoff":true,"openingstijden":{"ma":"07:30 - 13:30, 16:00 - 20:30","di":"07:30 - 13:30, 16:00 - 20:30","wo":"07:30 - 13:30, 16:00 - 20:30","do":"07:30 - 13:30, 16:00 - 20:30","vr":"07:30 - 13:30, 16:00 - 20:30","za":"07:30 - 13:30, 16:00 - 20:30","zo":"gesloten"}}},{"type":"Feature","geometry":{"type":"Point","coordinates":[14.30244538613746,40.94349563141725]},"properties":{"type":"pakketpunt","locatieNaam":"FedEx OnSite","straatNaam":"Via Don Gaetano Capasso, SNC","straatNr":"","vervoerder":"FedEx","puntType":"servicepunt","bezettingsgraad":50,"latitude":40.94349563141725,"longitude":14.30244538613746,"canPickup":true,"canDropoff":true,"openingstijden":{"ma":"07:30 - 13:30, 16:00 - 20:00","di":"07:30 - 13:30, 16:00 - 20:00","wo":"07:30 - 13:30, 16:00 - 20:00","do":"07:30 - 13:30, 16:00 - 20:00","vr":"07:30 - 13:30, 16:00 - 20:00","za":"07:30 - 13:30, 16:00 - 20:00","zo":"09:00 - 13:00"}}},{"type":"Feature","geometry":{"type":"Point","coordinates":[14.29573,40.94597]},"properties":{"type":"pakketpunt","locatieNaam":"FedEx OnSite","straatNaam":"Corso Cesare Battisti 155","straatNr":"","vervoerder":"FedEx","puntType":"servicepunt","bezettingsgraad":50,"latitude":40.94597,"longitude":14.29573,"canPickup":true,"canDropoff":true,"openingstijden":{"ma":"09:00 - 13:00, 15:00 - 19:00","di":"09:00 - 13:00, 15:00 - 19:00","wo":"09:00 - 13:00, 15:00 - 19:00","do":"09:00 - 13:00, 15:00 - 19:00","vr":"09:00 - 13:00, 15:00 - 19:00","za":"09:00 - 13:00, 15:00 - 19:00","zo":"09:00 - 19:00"}}},{"type":"Feature","geometry":{"type":"Point","coordinates":[14.299212117889564,40.9464533723718]},"properties":{"type":"pakketpunt","locatieNaam":"FedEx OnSite","straatNaam":"VIA ANTONIO GRAMSCI, 68","straatNr":"","vervoerder":"FedEx","puntType":"servicepunt","bezettingsgraad":50,"latitude":40.9464533723718,"longitude":14.299212117889564,"canPickup":true,"canDropoff":true,"openingstijden":{"ma":"08:00 - 13:00, 16:30 - 20:00","di":"08:00 - 13:00, 16:30 - 20:00","wo":"08:00 - 13:00, 16:30 - 20:00","do":"08:00 - 13:00, 16:30 - 20:00","vr":"08:00 - 13:00, 16:30 - 20:00","za":"gesloten","zo":"gesloten"}}},{"type":"Feature","geometry":{"type":"Point","coordinates":[14.297539,40.947349]},"properties":{"type":"pakketpunt","locatieNaam":"FedEx OnSite","straatNaam":"via Camillo Daniele, 67","straatNr":"","vervoerder":"FedEx","puntType":"servicepunt","bezettingsgraad":50,"latitude":40.947349,"longitude":14.297539,"canPickup":true,"canDropoff":true,"openingstijden":{"ma":"08:30 - 13:00, 16:30 - 19:30","di":"08:30 - 13:00, 16:30 - 19:30","wo":"08:30 - 13:00, 16:30 - 19:30","do":"08:30 - 13:00","vr":"08:30 - 13:00, 16:30 - 19:30","za":"08:30 - 13:00, 16:30 - 19:30","zo":"gesloten"}}},{"type":"Feature","geometry":{"type":"Polygon","coordinates":[[[14.2843823,40.9394256],[14.2844833,40.9390294],[14.2842006,40.9384477],[14.2841936,40.9381178],[14.2844189,40.9373154],[14.2842211,40.9364053],[14.2844674,40.934853],[14.2861415,40.9317081],[14.286325,40.9304596],[14.2870481,40.9295803],[14.2886153,40.9273469],[14.2893686,40.9261014],[14.2912149,40.9270387],[14.2921274,40.9275889],[14.2938301,40.9281093],[14.2984114,40.9285017],[14.2982601,40.9298222],[14.2983649,40.9300206],[14.3009173,40.9318094],[14.3011308,40.9321477],[14.3012838,40.935445],[14.3009541,40.9372099],[14.3043936,40.9374442],[14.3042898,40.9401931],[14.3051104,40.9398606],[14.3059044,40.9392885],[14.3059501,40.9393776],[14.305328,40.9408238],[14.3051242,40.9417339],[14.3044528,40.9428284],[14.3042939,40.9436559],[14.3040302,40.9441991],[14.3025387,40.9463549],[14.3022935,40.9471839],[14.3019927,40.9474745],[14.301794,40.9472719],[14.3014076,40.9470938],[14.2993928,40.9463892],[14.2982354,40.9481628],[14.2979526,40.9495785],[14.2974971,40.9510859],[14.296483,40.9500706],[14.2934051,40.9490673],[14.2915252,40.9482777],[14.2919986,40.9479486],[14.2926844,40.9471415],[14.2930336,40.9465015],[14.2900225,40.9457545],[14.2899415,40.9459251],[14.2895444,40.9458181],[14.2899389,40.9448507],[14.2880942,40.9447346],[14.2862403,40.9444345],[14.2847661,40.9439751],[14.2844981,40.9430501],[14.2840277,40.9423128],[14.2839097,40.941884],[14.2843823,40.9394256]]]},"properties":{"type":"boundary","gemeente":"Cardito"}}]}