{"type":"FeatureCollection","metadata":{"gemeente":"Carpineto Sinello","slug":"carpineto-sinello","generated_at":"2026-09-26T14:27:05.128587Z","total_points":1,"providers":["PosteItaliane"],"bounds":[14.50540794,42.01247606,14.50540794,42.01247606]},"features":[{"type":"Feature","geometry":{"type":"Point","coordinates":[14.50540794,42.01247606]},"properties":{"type":"pakketpunt","locatieNaam":"Carpineto Sinello","straatNaam":"Via Madonna Dell'asilo Snc","straatNr":"1","vervoerder":"PosteItaliane","puntType":"postkantoor","bezettingsgraad":50,"latitude":42.01247606,"longitude":14.50540794,"canPickup":true,"canDropoff":true,"openingstijden":{"za":"gesloten","zo":"gesloten","ma":"08:20 - 13:45","di":"gesloten","wo":"08:20 - 13:45","do":"gesloten","vr":"08:20 - 13:45"}}},{"type":"Feature","geometry":{"type":"Polygon","coordinates":[[[14.4545214,42.0291047],[14.4595584,42.0306334],[14.4782625,42.0357529],[14.4817328,42.0384088],[14.4846914,42.0386631],[14.5044315,42.0324715],[14.5052333,42.0318568],[14.508187,42.0279698],[14.5084945,42.0273384],[14.5086102,42.0263471],[14.5092769,42.0244786],[14.5133817,42.0200814],[14.5150405,42.0209737],[14.5159891,42.0216977],[14.523997,42.0282339],[14.5274113,42.0241216],[14.5277775,42.0234558],[14.5282233,42.0172364],[14.5281448,42.0162635],[14.5278808,42.0143273],[14.5276701,42.0133607],[14.5270472,42.0112258],[14.5266306,42.0102422],[14.5264448,42.0093195],[14.5262832,42.0082831],[14.5264048,42.0065038],[14.5267614,42.0059104],[14.5294002,42.0032714],[14.5310405,42.0017923],[14.5364592,41.9987802],[14.5370173,41.9985461],[14.5382631,41.9982743],[14.5389282,41.9982241],[14.5379622,41.994562],[14.5384757,41.9836672],[14.5352378,41.9807002],[14.5324265,41.9772758],[14.5320698,41.9766584],[14.5320144,41.97595],[14.5321879,41.9752304],[14.5356904,41.9666936],[14.5250444,41.962113],[14.5195808,41.9601621],[14.5099819,41.9547102],[14.5050653,41.9552928],[14.4994519,41.9578819],[14.4892901,41.965973],[14.4889791,41.9663367],[14.488509,41.9676196],[14.4878879,41.9699404],[14.4884066,41.9729177],[14.4920725,41.9719683],[14.4930619,41.9719388],[14.4943649,41.9720518],[14.5011103,41.9736227],[14.5039261,41.9746936],[14.5084381,41.9766415],[14.5095072,41.9772427],[14.5100095,41.9777677],[14.5106072,41.9786886],[14.5105051,41.9794092],[14.5063434,41.9883145],[14.5058706,41.9887378],[14.5051198,41.9889765],[14.4995833,41.9915022],[14.4935399,41.998337],[14.4920996,42.000256],[14.4916106,42.0010672],[14.4917411,42.0014345],[14.4922092,42.0017451],[14.493623,42.0048865],[14.4937837,42.005779],[14.4931612,42.0097023],[14.4928305,42.0100782],[14.4876582,42.0135851],[14.4846175,42.0147886],[14.4790789,42.0157606],[14.4777616,42.0157652],[14.473997,42.0155042],[14.4684591,42.0133339],[14.4581903,42.0223665],[14.4545214,42.0291047]]]},"properties":{"type":"boundary","gemeente":"Carpineto Sinello"}}]}