{"type":"FeatureCollection","metadata":{"gemeente":"Carpaneto Piacentino","slug":"carpaneto-piacentino","generated_at":"2026-09-26T14:27:05.002220Z","total_points":9,"providers":["PosteItaliane","DHL","Amazon"],"bounds":[9.76249775,44.86945302,9.81617104,44.916812]},"features":[{"type":"Feature","geometry":{"type":"Point","coordinates":[9.79033587,44.91654867]},"properties":{"type":"pakketpunt","locatieNaam":"Carpaneto Piacentino","straatNaam":"Via Boccaccio","straatNr":"1","vervoerder":"PosteItaliane","puntType":"postkantoor","bezettingsgraad":50,"latitude":44.91654867,"longitude":9.79033587,"canPickup":true,"canDropoff":true,"openingstijden":{"za":"08:20 - 12:35","zo":"gesloten","ma":"08:20 - 13:35","di":"08:20 - 13:35","wo":"08:20 - 13:35","do":"08:20 - 13:35","vr":"08:20 - 13:35"}}},{"type":"Feature","geometry":{"type":"Point","coordinates":[9.81617104,44.90824171]},"properties":{"type":"pakketpunt","locatieNaam":"Tabaccheria N. 3","straatNaam":"Localita' Ciriano Snc","straatNr":"1","vervoerder":"PosteItaliane","puntType":"servicepunt","bezettingsgraad":50,"latitude":44.90824171,"longitude":9.81617104,"canPickup":true,"canDropoff":true,"openingstijden":{"za":"05:00 - 19:30","zo":"05:00 - 12:00","ma":"05:00 - 19:30","di":"05:00 - 19:30","wo":"05:00 - 19:30","do":"05:00 - 19:30","vr":"05:00 - 19:30"}}},{"type":"Feature","geometry":{"type":"Point","coordinates":[9.78201962,44.86945302]},"properties":{"type":"pakketpunt","locatieNaam":"Rezzano","straatNaam":"Frazione Rezzano Centro","straatNr":"49","vervoerder":"PosteItaliane","puntType":"postkantoor","bezettingsgraad":50,"latitude":44.86945302,"longitude":9.78201962,"canPickup":true,"canDropoff":true,"openingstijden":{"za":"gesloten","zo":"gesloten","ma":"08:20 - 13:45","di":"gesloten","wo":"08:20 - 13:45","do":"gesloten","vr":"08:20 - 13:45"}}},{"type":"Feature","geometry":{"type":"Point","coordinates":[9.78796739,44.91474662]},"properties":{"type":"pakketpunt","locatieNaam":"Tabaccheria N. 13","straatNaam":"Viale Vittoria","straatNr":"1/b","vervoerder":"PosteItaliane","puntType":"servicepunt","bezettingsgraad":50,"latitude":44.91474662,"longitude":9.78796739,"canPickup":true,"canDropoff":true,"openingstijden":{"za":"07:30 - 12:30, 15:00 - 19:30","zo":"07:30 - 12:30","ma":"07:30 - 12:30, 15:00 - 19:30","di":"07:30 - 12:30, 15:00 - 19:30","wo":"07:30 - 12:30, 15:00 - 19:30","do":"07:30 - 12:30, 15:00 - 19:30","vr":"07:30 - 12:30, 15:00 - 19:30"}}},{"type":"Feature","geometry":{"type":"Point","coordinates":[9.76249775,44.88417748]},"properties":{"type":"pakketpunt","locatieNaam":"Tabaccheria N. 7","straatNaam":"Localita' Celleri","straatNr":"19","vervoerder":"PosteItaliane","puntType":"servicepunt","bezettingsgraad":50,"latitude":44.88417748,"longitude":9.76249775,"canPickup":true,"canDropoff":true,"openingstijden":{"za":"07:00 - 12:00","zo":"gesloten","ma":"gesloten","di":"gesloten","wo":"gesloten","do":"gesloten","vr":"gesloten"}}},{"type":"Feature","geometry":{"type":"Point","coordinates":[9.787967,44.914747]},"properties":{"type":"pakketpunt","locatieNaam":"TABACCHERIA N. 13","straatNaam":"VIALE VITTORIA 1-B","straatNr":"","vervoerder":"DHL","puntType":"parcelShop","bezettingsgraad":50,"latitude":44.914747,"longitude":9.787967,"canPickup":true,"canDropoff":true,"openingstijden":{"ma":"07:30 - 12:30, 15:00 - 19:30","di":"07:30 - 12:30, 15:00 - 19:30","wo":"07:30 - 12:30, 15:00 - 19:30","do":"07:30 - 12:30, 15:00 - 19:30","vr":"07:30 - 12:30, 15:00 - 19:30","za":"07:30 - 12:30, 15:00 - 19:30","zo":"07:30 - 12:30"}}},{"type":"Feature","geometry":{"type":"Point","coordinates":[9.790336,44.916549]},"properties":{"type":"pakketpunt","locatieNaam":"Ufficio Postale CARPANETO PIACENTIN","straatNaam":"VIA GIOVANNI BOCCACCIO 1","straatNr":"","vervoerder":"DHL","puntType":"postOffice","bezettingsgraad":50,"latitude":44.916549,"longitude":9.790336,"canPickup":true,"canDropoff":true,"openingstijden":{"ma":"08:20 - 13:35","di":"08:20 - 13:35","wo":"08:20 - 13:35","do":"08:20 - 13:35","vr":"08:20 - 13:35","za":"08:20 - 12:35","zo":"gesloten"}}},{"type":"Feature","geometry":{"type":"Point","coordinates":[9.816171,44.908242]},"properties":{"type":"pakketpunt","locatieNaam":"TABACCHERIA N. 3","straatNaam":"LOCALITA CIRIANO SNC 1","straatNr":"","vervoerder":"DHL","puntType":"parcelShop","bezettingsgraad":50,"latitude":44.908242,"longitude":9.816171,"canPickup":true,"canDropoff":true,"openingstijden":{"ma":"05:00 - 19:30","di":"05:00 - 19:30","wo":"05:00 - 19:30","do":"05:00 - 19:30","vr":"05:00 - 19:30","za":"05:00 - 19:30","zo":"05:00 - 12:00"}}},{"type":"Feature","geometry":{"type":"Point","coordinates":[9.78067,44.916812]},"properties":{"type":"pakketpunt","locatieNaam":"Amazon Locker - freccia","straatNaam":"Eni Station pv. 2702","straatNr":"","vervoerder":"Amazon","puntType":"locker","bezettingsgraad":50,"latitude":44.916812,"longitude":9.78067,"canPickup":true,"canDropoff":false,"openingstijden":null}},{"type":"Feature","geometry":{"type":"Polygon","coordinates":[[[9.733113,44.8757083],[9.7378665,44.8811328],[9.7386337,44.881722],[9.7402599,44.8821525],[9.7446335,44.8835554],[9.7536169,44.8888885],[9.7542702,44.8894603],[9.7588016,44.8950924],[9.760073,44.8973884],[9.7673669,44.9163604],[9.767477,44.9170168],[9.7673483,44.91835],[9.76542,44.9214415],[9.763775,44.9254223],[9.7637712,44.9260884],[9.764028,44.927302],[9.771447,44.9306097],[9.7719674,44.9306782],[9.7726715,44.9302594],[9.7735542,44.9299383],[9.7800279,44.9307585],[9.7806643,44.9309612],[9.7808702,44.9311938],[9.7823612,44.9355404],[9.7842892,44.939389],[9.7854224,44.9407044],[9.7946076,44.9441156],[9.7954936,44.9440284],[9.7971995,44.9436474],[9.8015644,44.9430767],[9.8022122,44.9431802],[9.8080497,44.9545262],[9.8096204,44.9607443],[9.8099909,44.962749],[9.8164183,44.9608939],[9.8179192,44.9603431],[9.8191421,44.9598572],[9.8238849,44.9572756],[9.8225694,44.9548186],[9.8187036,44.9530911],[9.8154716,44.9522411],[9.8147451,44.9519672],[9.8142329,44.9516018],[9.8114985,44.9491728],[9.8100842,44.9477515],[9.8104083,44.9455618],[9.8234469,44.9461527],[9.8242272,44.9466421],[9.824907,44.9472043],[9.8256545,44.9480631],[9.8263197,44.9502547],[9.8274674,44.9516057],[9.839494,44.9513648],[9.8458798,44.9485632],[9.8446215,44.9448728],[9.8433762,44.9403271],[9.8434271,44.9394806],[9.8436871,44.9390556],[9.847469,44.935958],[9.8488183,44.9357679],[9.8482931,44.9351237],[9.8475564,44.9348784],[9.8470736,44.9331974],[9.846424,44.9303847],[9.8463145,44.9289722],[9.8472153,44.9247347],[9.8492763,44.9235852],[9.8511843,44.9223737],[9.8517326,44.9157444],[9.8514713,44.9152062],[9.8506477,44.9143392],[9.8463678,44.9101671],[9.845895,44.9098826],[9.8418944,44.9102092],[9.8412944,44.9101596],[9.8399643,44.9096698],[9.8382354,44.9088679],[9.8361319,44.907398],[9.8354366,44.9067058],[9.8353811,44.9061347],[9.8351161,44.9053847],[9.8352184,44.9043468],[9.8356738,44.9036778],[9.8356275,44.9030604],[9.8361079,44.902412],[9.8375395,44.9014555],[9.8378155,44.8987124],[9.8367355,44.8962854],[9.8363687,44.8957474],[9.8339564,44.8934396],[9.8323082,44.8897914],[9.8305943,44.8878955],[9.8280526,44.8853157],[9.8273615,44.8851742],[9.8270075,44.8843038],[9.8262297,44.8845014],[9.8259829,44.8842924],[9.826455,44.8836386],[9.8253139,44.8829881],[9.8242541,44.88282],[9.8244172,44.8822777],[9.8231044,44.8808207],[9.8228829,44.8806526],[9.8223135,44.8805518],[9.8221079,44.8800474],[9.8220288,44.8794534],[9.8222661,44.8786352],[9.822187,44.8779851],[9.8217916,44.8772902],[9.8202573,44.8751942],[9.82002,44.8740733],[9.8200626,44.8723626],[9.8191294,44.8720039],[9.8181645,44.870726],[9.8170731,44.8697396],[9.8168912,44.8690635],[9.8119545,44.8636706],[9.7986726,44.8459586],[9.7980176,44.845261],[9.7915768,44.8415431],[9.7874188,44.8400235],[9.7867968,44.8398747],[9.7837604,44.8408138],[9.7829687,44.8412153],[9.7830962,44.8422227],[9.782991,44.8428625],[9.7818495,44.8454629],[9.7810861,44.8460892],[9.777889,44.8473443],[9.76933,44.8469612],[9.7668212,44.846708],[9.7660315,44.8463172],[9.7646252,44.8452284],[9.7636647,44.8443617],[9.762314,44.8426783],[9.7571898,44.8339986],[9.7567451,44.8328853],[9.7566658,44.8316616],[9.753461,44.8323039],[9.7513929,44.8328036],[9.7508409,44.8331673],[9.7505829,44.8347264],[9.7534007,44.840298],[9.7563617,44.8441942],[9.759455,44.8465682],[9.762171,44.8471892],[9.763928,44.8480057],[9.7710503,44.8554564],[9.7717265,44.8568111],[9.7720316,44.8578622],[9.7703077,44.8643012],[9.7689871,44.8677848],[9.7686097,44.8679674],[9.7510452,44.8722521],[9.7460558,44.872109],[9.7409521,44.8699956],[9.7396011,44.8692752],[9.7391056,44.8691343],[9.7385539,44.869543],[9.7355625,44.8722178],[9.733113,44.8757083]]]},"properties":{"type":"boundary","gemeente":"Carpaneto Piacentino"}}]}