{"type":"FeatureCollection","metadata":{"gemeente":"Casatenovo","slug":"casatenovo","generated_at":"2026-09-26T13:09:44.476247Z","total_points":24,"providers":["PosteItaliane","DPD","InPost","GLS","DHL","Amazon"],"bounds":[9.30274878,45.66661,9.34320621,45.705047]},"features":[{"type":"Feature","geometry":{"type":"Point","coordinates":[9.31109849,45.69653513]},"properties":{"type":"pakketpunt","locatieNaam":"Casatenovo","straatNaam":"Via Del Lavoro","straatNr":"1","vervoerder":"PosteItaliane","puntType":"postkantoor","bezettingsgraad":50,"latitude":45.69653513,"longitude":9.31109849,"canPickup":true,"canDropoff":true,"openingstijden":{"za":"08:20 - 12:35","zo":"gesloten","ma":"08:20 - 13:35","di":"08:20 - 13:35","wo":"08:20 - 13:35","do":"08:20 - 13:35","vr":"08:20 - 13:35"}}},{"type":"Feature","geometry":{"type":"Point","coordinates":[9.3106949,45.70504663]},"properties":{"type":"pakketpunt","locatieNaam":"Tabaccheria N. 11","straatNaam":"Via Generale Giuseppe Sirtori","straatNr":"41","vervoerder":"PosteItaliane","puntType":"servicepunt","bezettingsgraad":50,"latitude":45.70504663,"longitude":9.3106949,"canPickup":true,"canDropoff":true,"openingstijden":{"za":"07:00 - 20:00","zo":"07:00 - 20:00","ma":"07:00 - 20:00","di":"07:00 - 20:00","wo":"07:00 - 20:00","do":"07:00 - 20:00","vr":"07:00 - 20:00"}}},{"type":"Feature","geometry":{"type":"Point","coordinates":[9.30274878,45.69690794]},"properties":{"type":"pakketpunt","locatieNaam":"Gallerie Bennet Casatenovo","straatNaam":"Via Francesco Casati","straatNr":"28","vervoerder":"PosteItaliane","puntType":"automaat","bezettingsgraad":50,"latitude":45.69690794,"longitude":9.30274878,"canPickup":true,"canDropoff":true,"openingstijden":{"za":"00:01 - 23:59","zo":"00:01 - 23:59","ma":"00:01 - 23:59","di":"00:01 - 23:59","wo":"00:01 - 23:59","do":"00:01 - 23:59","vr":"00:01 - 23:59"}}},{"type":"Feature","geometry":{"type":"Point","coordinates":[9.31357685,45.69372569]},"properties":{"type":"pakketpunt","locatieNaam":"Tabaccheria N. 10","straatNaam":"Via Roma","straatNr":"22","vervoerder":"PosteItaliane","puntType":"servicepunt","bezettingsgraad":50,"latitude":45.69372569,"longitude":9.31357685,"canPickup":true,"canDropoff":true,"openingstijden":{"za":"05:00 - 19:30","zo":"gesloten","ma":"05:00 - 19:30","di":"05:00 - 19:30","wo":"05:00 - 19:30","do":"05:00 - 19:30","vr":"05:00 - 19:30"}}},{"type":"Feature","geometry":{"type":"Point","coordinates":[9.34320621,45.68064061]},"properties":{"type":"pakketpunt","locatieNaam":"Tabaccheria N. 5","straatNaam":"Via Dante Alighieri","straatNr":"11","vervoerder":"PosteItaliane","puntType":"servicepunt","bezettingsgraad":50,"latitude":45.68064061,"longitude":9.34320621,"canPickup":true,"canDropoff":true,"openingstijden":{"za":"08:00 - 20:00","zo":"08:00 - 19:00","ma":"08:00 - 20:00","di":"08:00 - 20:00","wo":"08:00 - 20:00","do":"08:00 - 20:00","vr":"08:00 - 20:00"}}},{"type":"Feature","geometry":{"type":"Point","coordinates":[9.3075788,45.7000737]},"properties":{"type":"pakketpunt","locatieNaam":"Coffe Caps","straatNaam":"VIALE PARINI","straatNr":"12","vervoerder":"DPD","puntType":"pickup_point","bezettingsgraad":50,"latitude":45.7000737,"longitude":9.3075788,"canPickup":true,"canDropoff":true,"openingstijden":{"ma":"09:15 - 11:45, 15:45 - 18:45","di":"09:15 - 11:45, 15:45 - 18:45","wo":"09:15 - 11:45, 15:45 - 18:45","do":"09:15 - 11:45, 15:45 - 18:45","vr":"09:15 - 11:45, 15:45 - 18:15","za":"09:15 - 11:45, 15:45 - 18:15","zo":"gesloten"}}},{"type":"Feature","geometry":{"type":"Point","coordinates":[9.3118426,45.7039186]},"properties":{"type":"pakketpunt","locatieNaam":"Shopping Club la Perla","straatNaam":"VIA G. G. SIRTORI","straatNr":"28","vervoerder":"DPD","puntType":"pickup_point","bezettingsgraad":50,"latitude":45.7039186,"longitude":9.3118426,"canPickup":true,"canDropoff":true,"openingstijden":{"ma":"10:00 - 13:00, 15:00 - 19:00","di":"10:00 - 13:00, 15:00 - 19:00","wo":"10:00 - 13:00, 15:00 - 19:00","do":"10:00 - 13:00, 15:00 - 19:00","vr":"10:00 - 13:00, 15:00 - 19:00","za":"10:00 - 13:00, 15:00 - 19:00","zo":"gesloten"}}},{"type":"Feature","geometry":{"type":"Point","coordinates":[9.3134905,45.6936671]},"properties":{"type":"pakketpunt","locatieNaam":"Pausa Caffe Casatenovo","straatNaam":"VIA ROMA","straatNr":"22","vervoerder":"DPD","puntType":"pickup_point","bezettingsgraad":50,"latitude":45.6936671,"longitude":9.3134905,"canPickup":true,"canDropoff":true,"openingstijden":{"ma":"05:00 - 19:30","di":"05:00 - 19:30","wo":"05:00 - 19:30","do":"05:00 - 19:30","vr":"05:00 - 19:30","za":"05:00 - 19:30","zo":"gesloten"}}},{"type":"Feature","geometry":{"type":"Point","coordinates":[9.311302,45.6983204]},"properties":{"type":"pakketpunt","locatieNaam":"Riparo Express Casatenovo","straatNaam":"VIA DON GIOVENZANA","straatNr":"6","vervoerder":"DPD","puntType":"pickup_point","bezettingsgraad":50,"latitude":45.6983204,"longitude":9.311302,"canPickup":true,"canDropoff":true,"openingstijden":{"ma":"08:30 - 14:00, 15:00 - 19:00","di":"08:30 - 14:00, 15:00 - 19:00","wo":"08:30 - 14:00, 15:00 - 19:00","do":"08:30 - 14:00, 15:00 - 19:00","vr":"08:30 - 14:00, 15:00 - 19:00","za":"08:00 - 12:00","zo":"gesloten"}}},{"type":"Feature","geometry":{"type":"Point","coordinates":[9.30441,45.69815]},"properties":{"type":"pakketpunt","locatieNaam":"InPost Locker 24/7","straatNaam":"Via Francesco Casati","straatNr":"28","vervoerder":"InPost","puntType":"automaat","bezettingsgraad":50,"latitude":45.69815,"longitude":9.30441,"canPickup":true,"canDropoff":true,"openingstijden":null}},{"type":"Feature","geometry":{"type":"Point","coordinates":[9.31356,45.69385]},"properties":{"type":"pakketpunt","locatieNaam":"InPost Locker 24/7","straatNaam":"Via Roma","straatNr":"22","vervoerder":"InPost","puntType":"automaat","bezettingsgraad":50,"latitude":45.69385,"longitude":9.31356,"canPickup":true,"canDropoff":true,"openingstijden":null}},{"type":"Feature","geometry":{"type":"Point","coordinates":[9.30764,45.70047]},"properties":{"type":"pakketpunt","locatieNaam":"InPost Point","straatNaam":"Viale Giuseppe Parini","straatNr":"12","vervoerder":"InPost","puntType":"servicepunt","bezettingsgraad":50,"latitude":45.70047,"longitude":9.30764,"canPickup":true,"canDropoff":true,"openingstijden":"Lun-Sab: 09:00 - 12:00 - 15:30 - 18:30"}},{"type":"Feature","geometry":{"type":"Point","coordinates":[9.31707,45.66661]},"properties":{"type":"pakketpunt","locatieNaam":"InPost Point","straatNaam":"Via A. De Gasperi","straatNr":"31","vervoerder":"InPost","puntType":"servicepunt","bezettingsgraad":50,"latitude":45.66661,"longitude":9.31707,"canPickup":true,"canDropoff":true,"openingstijden":"Lun-Sab: 07:30 - 18:00"}},{"type":"Feature","geometry":{"type":"Point","coordinates":[9.311302,45.6983204]},"properties":{"type":"pakketpunt","locatieNaam":"Riparo Express Casatenovo","straatNaam":"Via Don Carlo Giovenzana","straatNr":"6","vervoerder":"GLS","puntType":"parcel_shop","bezettingsgraad":50,"latitude":45.6983204,"longitude":9.311302,"canPickup":true,"canDropoff":true,"openingstijden":"za: 08:00 - 14:00; ma: 08:00 - 12:00, 14:00 - 19:00"}},{"type":"Feature","geometry":{"type":"Point","coordinates":[9.3118426,45.7039186]},"properties":{"type":"pakketpunt","locatieNaam":"SHOPPING CLUB LA PERLA","straatNaam":"Via Generale G. Sirtori","straatNr":"28","vervoerder":"GLS","puntType":"parcel_shop","bezettingsgraad":50,"latitude":45.7039186,"longitude":9.3118426,"canPickup":true,"canDropoff":true,"openingstijden":"za: 10:00 - 13:00, 15:00 - 19:00; zo: 10:00 - 13:00, 15:00 - 19:00"}},{"type":"Feature","geometry":{"type":"Point","coordinates":[9.302749,45.696908]},"properties":{"type":"pakketpunt","locatieNaam":"GALLERIE BENNET CASATENOVO","straatNaam":"VIA FRANCESCO CASATI 28","straatNr":"","vervoerder":"DHL","puntType":"packStation","bezettingsgraad":50,"latitude":45.696908,"longitude":9.302749,"canPickup":true,"canDropoff":true,"openingstijden":{"ma":"00:01 - 23:59","di":"00:01 - 23:59","wo":"00:01 - 23:59","do":"00:01 - 23:59","vr":"00:01 - 23:59","za":"00:01 - 23:59","zo":"00:01 - 23:59"}}},{"type":"Feature","geometry":{"type":"Point","coordinates":[9.313463,45.693657]},"properties":{"type":"pakketpunt","locatieNaam":"PAUSA CAFFE' DI SIRONI EMANUELE","straatNaam":"Via Roma 22","straatNr":"","vervoerder":"DHL","puntType":"parcelShop","bezettingsgraad":50,"latitude":45.693657,"longitude":9.313463,"canPickup":false,"canDropoff":true,"openingstijden":{"ma":"06:00 - 19:30","di":"06:00 - 19:30","wo":"06:00 - 19:30","do":"06:00 - 19:30","vr":"06:00 - 19:30","za":"06:00 - 19:30","zo":"gesloten"}}},{"type":"Feature","geometry":{"type":"Point","coordinates":[9.313577,45.693726]},"properties":{"type":"pakketpunt","locatieNaam":"TABACCHERIA n. 10","straatNaam":"VIA ROMA 22","straatNr":"","vervoerder":"DHL","puntType":"parcelShop","bezettingsgraad":50,"latitude":45.693726,"longitude":9.313577,"canPickup":true,"canDropoff":true,"openingstijden":{"ma":"05:00 - 19:30","di":"05:00 - 19:30","wo":"05:00 - 19:30","do":"05:00 - 19:30","vr":"05:00 - 19:30","za":"05:00 - 19:30","zo":"gesloten"}}},{"type":"Feature","geometry":{"type":"Point","coordinates":[9.311098,45.696535]},"properties":{"type":"pakketpunt","locatieNaam":"Ufficio Postale CASATENOVO","straatNaam":"VIA DEL LAVORO 1","straatNr":"","vervoerder":"DHL","puntType":"postOffice","bezettingsgraad":50,"latitude":45.696535,"longitude":9.311098,"canPickup":true,"canDropoff":true,"openingstijden":{"ma":"08:20 - 13:35","di":"08:20 - 13:35","wo":"08:20 - 13:35","do":"08:20 - 13:35","vr":"08:20 - 13:35","za":"08:20 - 12:35","zo":"gesloten"}}},{"type":"Feature","geometry":{"type":"Point","coordinates":[9.310695,45.705047]},"properties":{"type":"pakketpunt","locatieNaam":"TABACCHERIA N. 11","straatNaam":"VIA GENERALE GIUSEPPE SIRTORI 41","straatNr":"","vervoerder":"DHL","puntType":"parcelShop","bezettingsgraad":50,"latitude":45.705047,"longitude":9.310695,"canPickup":true,"canDropoff":true,"openingstijden":{"ma":"07:00 - 20:00","di":"07:00 - 20:00","wo":"07:00 - 20:00","do":"07:00 - 20:00","vr":"07:00 - 20:00","za":"07:00 - 20:00","zo":"07:00 - 20:00"}}},{"type":"Feature","geometry":{"type":"Point","coordinates":[9.343206,45.680641]},"properties":{"type":"pakketpunt","locatieNaam":"TABACCHERIA N. 5","straatNaam":"VIA DANTE ALIGHIERI 11","straatNr":"","vervoerder":"DHL","puntType":"parcelShop","bezettingsgraad":50,"latitude":45.680641,"longitude":9.343206,"canPickup":true,"canDropoff":true,"openingstijden":{"ma":"08:00 - 20:00","di":"08:00 - 20:00","wo":"08:00 - 20:00","do":"08:00 - 20:00","vr":"08:00 - 20:00","za":"08:00 - 20:00","zo":"08:00 - 19:00"}}},{"type":"Feature","geometry":{"type":"Point","coordinates":[9.3039724,45.6978968]},"properties":{"type":"pakketpunt","locatieNaam":"Giunti al Punto","straatNaam":"Via Francesco Casati, 28","straatNr":"","vervoerder":"Amazon","puntType":"helix","bezettingsgraad":50,"latitude":45.6978968,"longitude":9.3039724,"canPickup":true,"canDropoff":false,"openingstijden":null}},{"type":"Feature","geometry":{"type":"Point","coordinates":[9.3074384,45.7000198]},"properties":{"type":"pakketpunt","locatieNaam":"Amazon Counter (fermopoint)","straatNaam":"Coffe Caps-Casatenovo","straatNr":"","vervoerder":"Amazon","puntType":"helix","bezettingsgraad":50,"latitude":45.7000198,"longitude":9.3074384,"canPickup":true,"canDropoff":false,"openingstijden":null}},{"type":"Feature","geometry":{"type":"Point","coordinates":[9.3317654,45.677609]},"properties":{"type":"pakketpunt","locatieNaam":"Amazon Counter - PRIMAEDICOLA","straatNaam":"RIVA CLAUDIA ANNA","straatNr":"","vervoerder":"Amazon","puntType":"helix","bezettingsgraad":50,"latitude":45.677609,"longitude":9.3317654,"canPickup":true,"canDropoff":false,"openingstijden":null}},{"type":"Feature","geometry":{"type":"Polygon","coordinates":[[[9.2991331,45.7004771],[9.2974615,45.6995499],[9.296351,45.6993638],[9.2949274,45.6988679],[9.2944295,45.6976181],[9.2946835,45.697676],[9.2946647,45.696848],[9.2954493,45.6964454],[9.2961931,45.6959124],[9.2965563,45.6953759],[9.2954017,45.6950324],[9.2944861,45.6949448],[9.2946405,45.6937833],[9.2949249,45.6938185],[9.2949778,45.6935034],[9.2956365,45.6935962],[9.295826,45.6932941],[9.2946171,45.6929913],[9.2948725,45.6924056],[9.2953523,45.6926698],[9.2952065,45.6924227],[9.2951154,45.6918919],[9.2958859,45.6918764],[9.2956224,45.6903199],[9.2952114,45.690303],[9.294889,45.6909699],[9.2944745,45.6909125],[9.2949442,45.6898672],[9.2952493,45.6898889],[9.2958598,45.6890592],[9.2961521,45.6887749],[9.2964148,45.6886842],[9.296429,45.6886302],[9.2956882,45.6884791],[9.2959704,45.6881138],[9.296311,45.6881715],[9.2975264,45.6867057],[9.2977732,45.686624],[9.2982057,45.6861548],[9.2986735,45.6859691],[9.2988451,45.6856356],[9.2991096,45.6855674],[9.2992673,45.685342],[9.2993045,45.6850944],[9.2994577,45.6849364],[9.2997114,45.6843462],[9.2995493,45.6840451],[9.2995968,45.6836265],[9.2992798,45.6831773],[9.2992432,45.6829478],[9.2996254,45.6829693],[9.3002138,45.6831388],[9.3004591,45.6833857],[9.3004177,45.6834443],[9.300563,45.6836014],[9.3005783,45.6837634],[9.3012972,45.6834329],[9.3014695,45.6829284],[9.3021512,45.6824839],[9.3033605,45.6826534],[9.303996,45.6826247],[9.3043303,45.6827183],[9.3046139,45.6829021],[9.3051842,45.6824055],[9.3055639,45.6816799],[9.3057749,45.6809458],[9.3050012,45.6806463],[9.3040493,45.6806309],[9.3042071,45.6795279],[9.3040678,45.6794455],[9.3040649,45.6793662],[9.3043604,45.6785104],[9.3043499,45.6774663],[9.3057743,45.6767109],[9.3069324,45.6768833],[9.3069942,45.6767436],[9.3076595,45.6768858],[9.3075218,45.6775343],[9.3093181,45.6778759],[9.3095431,45.6770562],[9.3100812,45.6771358],[9.3104462,45.6763922],[9.3113179,45.6758498],[9.31,45.6758129],[9.310074,45.6755562],[9.3099347,45.6747465],[9.3098714,45.6746206],[9.3093872,45.6744059],[9.3099483,45.6731398],[9.3100294,45.6725239],[9.3099436,45.6717067],[9.3097195,45.6709877],[9.3100793,45.6701033],[9.3103484,45.6697576],[9.3106044,45.6696222],[9.3112018,45.6697913],[9.3114559,45.67001],[9.3110086,45.6711425],[9.3110574,45.6713441],[9.3115867,45.6715033],[9.3116368,45.6718769],[9.3114089,45.6723543],[9.3113123,45.6728556],[9.3128714,45.6730861],[9.3135291,45.6728872],[9.3144261,45.673093],[9.3152979,45.6731812],[9.3157469,45.6730359],[9.3156314,45.6726085],[9.3147285,45.6725287],[9.3142757,45.672393],[9.3142561,45.671498],[9.3135306,45.6712294],[9.3131626,45.6714416],[9.3124559,45.6712443],[9.3124548,45.6706838],[9.3126435,45.6701258],[9.312464,45.6699732],[9.3122011,45.6695082],[9.3124552,45.6688486],[9.3141953,45.6689383],[9.3145935,45.6678391],[9.3128461,45.6676011],[9.3129823,45.6666735],[9.3133078,45.6666276],[9.313615,45.6661767],[9.3117294,45.6650118],[9.3117848,45.6645841],[9.3123362,45.6638896],[9.3147072,45.663487],[9.313671,45.6615547],[9.3134214,45.6605294],[9.3141056,45.660549],[9.314147,45.6607229],[9.3170718,45.6608252],[9.3180327,45.6599315],[9.318964,45.6583538],[9.319635,45.6575779],[9.3207538,45.6565442],[9.3213235,45.6562725],[9.3230831,45.6578876],[9.3227101,45.6583072],[9.322352,45.6585423],[9.3214851,45.6587202],[9.3208176,45.6595637],[9.3206019,45.6600098],[9.320755,45.6606934],[9.3216546,45.6617214],[9.3219233,45.6624092],[9.3245316,45.6636664],[9.3258619,45.6645131],[9.3282599,45.6654558],[9.3311477,45.6659065],[9.3363303,45.6668949],[9.3373444,45.6671574],[9.3378866,45.6673853],[9.3404655,45.6689978],[9.340979,45.6687308],[9.3419303,45.6705191],[9.3421853,45.6705003],[9.3424775,45.6723491],[9.3442184,45.6720333],[9.344596,45.6718477],[9.3451344,45.6709325],[9.3455622,45.6697746],[9.3459928,45.6695977],[9.3478796,45.6692725],[9.3485181,45.6679609],[9.3490004,45.668351],[9.3504731,45.6675184],[9.35104,45.6678407],[9.3518477,45.6679282],[9.3546338,45.6651834],[9.3552741,45.6649384],[9.3564631,45.6674549],[9.3560256,45.6675462],[9.3572638,45.6707241],[9.3578282,45.6706459],[9.3582735,45.6710225],[9.358856,45.6722673],[9.358628,45.673865],[9.3569944,45.6745323],[9.3544704,45.6761288],[9.3539292,45.6771025],[9.3544899,45.6771908],[9.3545385,45.6780187],[9.3559878,45.6785053],[9.3561525,45.6786797],[9.3533124,45.6808307],[9.3530316,45.6813582],[9.3526343,45.6814899],[9.3524238,45.6817066],[9.3517519,45.6820597],[9.3510677,45.6822508],[9.3504682,45.6818746],[9.3499563,45.6818942],[9.3486654,45.6828612],[9.3468269,45.6837939],[9.3465347,45.6840423],[9.3464072,45.6844477],[9.3444374,45.6854572],[9.3442135,45.686115],[9.34291,45.6861054],[9.3426941,45.6854625],[9.3413896,45.6852864],[9.3396966,45.6853589],[9.338414,45.6856283],[9.3387412,45.6861133],[9.337758,45.6867823],[9.3363236,45.6855579],[9.3349499,45.6866961],[9.3344421,45.6868776],[9.3351569,45.687492],[9.3341771,45.6884715],[9.3343207,45.6885836],[9.3336303,45.6893687],[9.3310307,45.6909018],[9.3290688,45.6916996],[9.3284587,45.6916923],[9.326428,45.6928278],[9.3258265,45.692906],[9.3251633,45.6931689],[9.3246345,45.693607],[9.3243968,45.6941522],[9.3233035,45.6944343],[9.3228137,45.6946922],[9.3220737,45.6955494],[9.3238793,45.6954408],[9.3234458,45.6965581],[9.3236467,45.6979841],[9.3238624,45.6989016],[9.3234578,45.6989117],[9.3223699,45.6987438],[9.3211021,45.6984545],[9.3213496,45.6994533],[9.3208823,45.6994456],[9.3205081,45.7005582],[9.3195581,45.7000839],[9.3186375,45.7002755],[9.3191535,45.7006656],[9.3192375,45.7010344],[9.3183319,45.7018785],[9.3186061,45.7020892],[9.3180094,45.7027569],[9.3170956,45.7035876],[9.3169685,45.704119],[9.3158253,45.7038431],[9.3153678,45.7038624],[9.3150619,45.7040162],[9.3148294,45.7043499],[9.3150033,45.705578],[9.3142167,45.7056207],[9.3135415,45.7057756],[9.3133451,45.7053936],[9.3127577,45.7054672],[9.3128546,45.705854],[9.3124212,45.7058687],[9.3122442,45.7055182],[9.3111114,45.7051027],[9.3101941,45.704994],[9.3102852,45.7047928],[9.309426,45.7046435],[9.3096693,45.7041492],[9.309232,45.7039732],[9.3088876,45.7039423],[9.308567,45.7046587],[9.3083998,45.7045866],[9.3079444,45.7046289],[9.3077386,45.7045216],[9.3078838,45.7043641],[9.3077896,45.7041396],[9.3081423,45.7039002],[9.308151,45.7037544],[9.3077625,45.7034962],[9.3084449,45.7029138],[9.3067217,45.702275],[9.3057845,45.7020795],[9.3055842,45.7021475],[9.3051569,45.7031499],[9.3026316,45.703105],[9.3029046,45.7010386],[9.2997644,45.6996248],[9.2991331,45.7004771]]]},"properties":{"type":"boundary","gemeente":"Casatenovo"}}]}