{"type":"FeatureCollection","metadata":{"gemeente":"Casaleone","slug":"casaleone","generated_at":"2026-09-26T14:27:05.629502Z","total_points":9,"providers":["PosteItaliane","DPD","DHL","Amazon"],"bounds":[11.1815136,45.15934355,11.2014901,45.1785248401]},"features":[{"type":"Feature","geometry":{"type":"Point","coordinates":[11.19662907,45.17164831]},"properties":{"type":"pakketpunt","locatieNaam":"Casaleone","straatNaam":"Via San Biagio","straatNr":"15","vervoerder":"PosteItaliane","puntType":"postkantoor","bezettingsgraad":50,"latitude":45.17164831,"longitude":11.19662907,"canPickup":true,"canDropoff":true,"openingstijden":{"za":"08:20 - 12:35","zo":"gesloten","ma":"08:20 - 13:35","di":"08:20 - 13:35","wo":"08:20 - 13:35","do":"08:20 - 13:35","vr":"08:20 - 13:35"}}},{"type":"Feature","geometry":{"type":"Point","coordinates":[11.1815136,45.15934355]},"properties":{"type":"pakketpunt","locatieNaam":"Tabaccheria N. 4","straatNaam":"Via San Giovanni Bosco","straatNr":"14","vervoerder":"PosteItaliane","puntType":"servicepunt","bezettingsgraad":50,"latitude":45.15934355,"longitude":11.1815136,"canPickup":true,"canDropoff":true,"openingstijden":{"za":"07:30 - 12:00, 15:30 - 19:30","zo":"07:30 - 12:00","ma":"07:30 - 12:00, 15:30 - 19:30","di":"07:30 - 12:00, 15:30 - 19:30","wo":"07:30 - 12:00, 15:30 - 19:30","do":"07:30 - 12:00, 15:30 - 19:30","vr":"07:30 - 12:00, 15:30 - 19:30"}}},{"type":"Feature","geometry":{"type":"Point","coordinates":[11.2014901,45.16884653]},"properties":{"type":"pakketpunt","locatieNaam":"Tabaccheria N. 1","straatNaam":"Via Vittorio Veneto","straatNr":"118/a","vervoerder":"PosteItaliane","puntType":"servicepunt","bezettingsgraad":50,"latitude":45.16884653,"longitude":11.2014901,"canPickup":true,"canDropoff":true,"openingstijden":{"za":"07:30 - 12:30, 15:30 - 19:30","zo":"gesloten","ma":"07:30 - 12:30, 15:30 - 19:30","di":"07:30 - 12:30, 15:30 - 19:30","wo":"07:30 - 12:30, 15:30 - 19:30","do":"07:30 - 12:30, 15:30 - 19:30","vr":"07:30 - 12:30, 15:30 - 19:30"}}},{"type":"Feature","geometry":{"type":"Point","coordinates":[11.1940100503,45.1785248401]},"properties":{"type":"pakketpunt","locatieNaam":"Bar Mirage","straatNaam":"VIA M.D. LIBERTA","straatNr":"3","vervoerder":"DPD","puntType":"pickup_point","bezettingsgraad":50,"latitude":45.1785248401,"longitude":11.1940100503,"canPickup":true,"canDropoff":true,"openingstijden":{"ma":"06:30 - 21:00","di":"06:30 - 21:00","wo":"06:30 - 21:00","do":"06:30 - 21:00","vr":"06:30 - 21:00","za":"07:30 - 18:30","zo":"08:00 - 12:00"}}},{"type":"Feature","geometry":{"type":"Point","coordinates":[11.181514,45.159344]},"properties":{"type":"pakketpunt","locatieNaam":"TABACCHERIA N. 4","straatNaam":"VIA SAN GIOVANNI BOSCO 14","straatNr":"","vervoerder":"DHL","puntType":"parcelShop","bezettingsgraad":50,"latitude":45.159344,"longitude":11.181514,"canPickup":true,"canDropoff":true,"openingstijden":{"ma":"07:30 - 12:00, 15:30 - 19:30","di":"07:30 - 12:00, 15:30 - 19:30","wo":"07:30 - 12:00, 15:30 - 19:30","do":"07:30 - 12:00, 15:30 - 19:30","vr":"07:30 - 12:00, 15:30 - 19:30","za":"07:30 - 12:00, 15:30 - 19:30","zo":"07:30 - 12:00"}}},{"type":"Feature","geometry":{"type":"Point","coordinates":[11.20149,45.168847]},"properties":{"type":"pakketpunt","locatieNaam":"TABACCHERIA N. 1","straatNaam":"VIA VITTORIO VENETO 118-A","straatNr":"","vervoerder":"DHL","puntType":"parcelShop","bezettingsgraad":50,"latitude":45.168847,"longitude":11.20149,"canPickup":true,"canDropoff":true,"openingstijden":{"ma":"07:30 - 12:30, 15:30 - 19:30","di":"07:30 - 12:30, 15:30 - 19:30","wo":"07:30 - 12:30, 15:30 - 19:30","do":"07:30 - 12:30, 15:30 - 19:30","vr":"07:30 - 12:30, 15:30 - 19:30","za":"07:30 - 12:30, 15:30 - 19:30","zo":"gesloten"}}},{"type":"Feature","geometry":{"type":"Point","coordinates":[11.196629,45.171648]},"properties":{"type":"pakketpunt","locatieNaam":"Ufficio Postale CASALEONE","straatNaam":"VIA SAN BIAGIO 15","straatNr":"","vervoerder":"DHL","puntType":"postOffice","bezettingsgraad":50,"latitude":45.171648,"longitude":11.196629,"canPickup":true,"canDropoff":true,"openingstijden":{"ma":"08:20 - 13:35","di":"08:20 - 13:35","wo":"08:20 - 13:35","do":"08:20 - 13:35","vr":"08:20 - 13:35","za":"08:20 - 12:35","zo":"gesloten"}}},{"type":"Feature","geometry":{"type":"Point","coordinates":[11.2014,45.1688]},"properties":{"type":"pakketpunt","locatieNaam":"PuntoPoste TABACCHERIA N. 1","straatNaam":"VIA VITTORIO VENETO 118/A","straatNr":"","vervoerder":"Amazon","puntType":"3p","bezettingsgraad":50,"latitude":45.1688,"longitude":11.2014,"canPickup":true,"canDropoff":false,"openingstijden":null}},{"type":"Feature","geometry":{"type":"Point","coordinates":[11.1966,45.1716]},"properties":{"type":"pakketpunt","locatieNaam":"Ufficio Postale CASALEONE","straatNaam":"VIA SAN BIAGIO 15","straatNr":"","vervoerder":"Amazon","puntType":"3p","bezettingsgraad":50,"latitude":45.1716,"longitude":11.1966,"canPickup":true,"canDropoff":false,"openingstijden":null}},{"type":"Feature","geometry":{"type":"Polygon","coordinates":[[[11.1463958,45.152646],[11.1541894,45.1559915],[11.1582003,45.156924],[11.1602969,45.1571904],[11.1605173,45.1571322],[11.1601649,45.1566843],[11.1602255,45.1565211],[11.1606909,45.1562108],[11.1605894,45.1557986],[11.1612018,45.1556745],[11.1613573,45.155541],[11.1613761,45.1553651],[11.1612457,45.1549445],[11.1613964,45.1546401],[11.1613677,45.1543436],[11.161667,45.1540589],[11.161411,45.1538072],[11.1614086,45.1536182],[11.1621326,45.1530824],[11.1622407,45.1529139],[11.1622249,45.1526674],[11.1627899,45.152689],[11.164056,45.1530316],[11.1671107,45.1532624],[11.1663372,45.1590757],[11.1660691,45.1603298],[11.1668411,45.1606461],[11.1684221,45.1610214],[11.1697068,45.1612338],[11.1730898,45.1562935],[11.1767356,45.1575578],[11.176536,45.1580342],[11.1766125,45.1584558],[11.1767682,45.1585788],[11.1779358,45.1588761],[11.1790998,45.1594165],[11.179159,45.1595909],[11.1789324,45.1601983],[11.1786961,45.1603829],[11.1783652,45.1608393],[11.1783035,45.161097],[11.1785181,45.161597],[11.1799129,45.1621374],[11.1801285,45.1622863],[11.1805851,45.1630383],[11.1806813,45.163518],[11.1804639,45.1638237],[11.1803951,45.1642706],[11.1799717,45.1647198],[11.1798815,45.164942],[11.180017,45.1652005],[11.1807169,45.1659927],[11.180823,45.1666883],[11.1805547,45.1672425],[11.1805236,45.1674727],[11.1808554,45.1675384],[11.1808585,45.1677858],[11.1803936,45.1688569],[11.1802928,45.1693449],[11.1803373,45.1696321],[11.1801816,45.1702202],[11.1800387,45.1702724],[11.1793717,45.1702176],[11.1790941,45.1701104],[11.1786685,45.1705461],[11.1780308,45.1709273],[11.1779127,45.1724193],[11.1777557,45.1725574],[11.177442,45.173297],[11.1773972,45.1747921],[11.1760633,45.1776442],[11.1783013,45.1781796],[11.1791101,45.1784466],[11.1783897,45.1792698],[11.1802982,45.1796304],[11.1800123,45.1802228],[11.1832317,45.1807986],[11.1810688,45.1832719],[11.1804092,45.1837643],[11.1799591,45.1842278],[11.1787649,45.1857312],[11.1762186,45.1884352],[11.1758602,45.1891616],[11.1757518,45.1896961],[11.1807262,45.1908026],[11.1826709,45.1913855],[11.1842945,45.1919506],[11.1857296,45.1928771],[11.1863642,45.1931511],[11.1867385,45.1932393],[11.1873452,45.1932277],[11.1880488,45.1931069],[11.1891639,45.1927807],[11.1898524,45.1912021],[11.1898524,45.1907025],[11.1896874,45.1904267],[11.1897939,45.1897585],[11.1896774,45.1884645],[11.189464,45.1882526],[11.1904835,45.1865813],[11.1910517,45.1860078],[11.1917954,45.1849448],[11.192141,45.1842496],[11.191614,45.1841157],[11.1923762,45.1825438],[11.1932824,45.1811581],[11.1938986,45.1800121],[11.19485,45.178763],[11.1956044,45.1791598],[11.1958559,45.1785342],[11.1960729,45.1782195],[11.1979726,45.1762791],[11.1989974,45.1755438],[11.2008475,45.174428],[11.203057,45.1741783],[11.2044258,45.1732472],[11.2064491,45.172173],[11.2078204,45.1719709],[11.2096499,45.171976],[11.2106279,45.1712685],[11.2142372,45.1700779],[11.2143174,45.1697648],[11.2145415,45.1694914],[11.2158095,45.1694398],[11.2176726,45.169165],[11.2181324,45.1691651],[11.2240134,45.1681956],[11.2248203,45.1679328],[11.2249978,45.1678111],[11.2254973,45.1669782],[11.2260735,45.1659791],[11.2262536,45.1654817],[11.2264475,45.1653368],[11.2265308,45.1651138],[11.2268199,45.1647936],[11.2308158,45.1609338],[11.233542,45.1584936],[11.2346074,45.1591894],[11.2385937,45.1562912],[11.2389629,45.1559547],[11.2394196,45.1557341],[11.2398349,45.1553026],[11.2404664,45.1548785],[11.2405734,45.1546412],[11.2408789,45.1543765],[11.2415556,45.1542574],[11.2420386,45.1538599],[11.2422517,45.1533618],[11.2425378,45.1530269],[11.245295,45.1521378],[11.2459398,45.1516312],[11.2482062,45.1509397],[11.2486438,45.1506606],[11.2494634,45.1498214],[11.2499577,45.1494516],[11.2501413,45.1489196],[11.2528501,45.1456889],[11.2528832,45.1455218],[11.2532298,45.1451188],[11.2532572,45.1448033],[11.2539999,45.1438434],[11.2556336,45.142614],[11.2567693,45.1412143],[11.2569972,45.1408677],[11.2571501,45.1404326],[11.2582537,45.1395106],[11.2593486,45.1382918],[11.2529922,45.1348887],[11.2515996,45.1342221],[11.243008,45.1333661],[11.2223495,45.1333245],[11.2223166,45.132254],[11.2226828,45.1272329],[11.22269,45.1249644],[11.2228739,45.1202485],[11.2175181,45.119511],[11.2153039,45.1192974],[11.2062829,45.1181354],[11.2062042,45.1181099],[11.2061462,45.117805],[11.2042727,45.1167915],[11.2041383,45.1163995],[11.2039863,45.1163325],[11.2035474,45.116519],[11.2036607,45.1136538],[11.2036463,45.1133525],[11.2034761,45.1133798],[11.2038562,45.1118353],[11.2037958,45.1117203],[11.1993622,45.1118232],[11.1880162,45.10976],[11.1876756,45.1098151],[11.187318,45.1101422],[11.1869867,45.1111581],[11.186595,45.1116703],[11.186194,45.11194],[11.181591,45.113071],[11.1755919,45.1144172],[11.1750657,45.1146249],[11.1745798,45.114935],[11.1734696,45.1160648],[11.1728276,45.1164208],[11.1721689,45.1166568],[11.1601166,45.1183571],[11.1591297,45.1186996],[11.1584951,45.1190806],[11.1535538,45.1228714],[11.1532516,45.1233214],[11.1531024,45.1238815],[11.1527177,45.1241147],[11.1510216,45.1248395],[11.1505683,45.1249459],[11.1489074,45.1249094],[11.1477366,45.1251574],[11.147268,45.1260495],[11.155892,45.1253923],[11.1555075,45.1270858],[11.1555413,45.1273027],[11.155816,45.1277962],[11.1561283,45.1279263],[11.1573402,45.128139],[11.1576171,45.1283515],[11.1575879,45.1285968],[11.1571806,45.1290033],[11.1571013,45.1292769],[11.1573277,45.1295082],[11.1574276,45.1297784],[11.1576872,45.1298731],[11.1569964,45.1302307],[11.1567856,45.130416],[11.156796,45.1313677],[11.1563677,45.1329652],[11.1584686,45.1330693],[11.1586811,45.1330158],[11.1596297,45.1319086],[11.1601019,45.1314901],[11.160442,45.1313622],[11.1624593,45.1314328],[11.1625034,45.1311661],[11.1687512,45.1318081],[11.1685341,45.1326895],[11.1683635,45.1345651],[11.1652123,45.1344025],[11.1616389,45.1393104],[11.1605939,45.1408965],[11.1626017,45.1419737],[11.1703463,45.144948],[11.1700207,45.1451825],[11.1693727,45.1453703],[11.1687361,45.1459],[11.1683267,45.1461283],[11.167619,45.1462948],[11.1670361,45.1468144],[11.1665403,45.1469048],[11.1662111,45.1471136],[11.1660537,45.1475352],[11.165996,45.1480269],[11.1654259,45.1485913],[11.1654128,45.1487895],[11.1655442,45.1488996],[11.1655695,45.1490908],[11.1653859,45.1492361],[11.1620817,45.1476148],[11.1608748,45.1492571],[11.1524117,45.1459028],[11.1512143,45.1453294],[11.1485497,45.1479379],[11.1479863,45.1491097],[11.1475657,45.1496802],[11.1463958,45.152646]]]},"properties":{"type":"boundary","gemeente":"Casaleone"}}]}