{"type":"FeatureCollection","metadata":{"gemeente":"Casalborgone","slug":"casalborgone","generated_at":"2026-09-26T13:09:43.897454Z","total_points":3,"providers":["PosteItaliane","DHL","Amazon"],"bounds":[7.9404817,45.13061595,7.94328225,45.1334383]},"features":[{"type":"Feature","geometry":{"type":"Point","coordinates":[7.94328225,45.13061595]},"properties":{"type":"pakketpunt","locatieNaam":"Casalborgone","straatNaam":"Piazza Cavour","straatNr":"10","vervoerder":"PosteItaliane","puntType":"postkantoor","bezettingsgraad":50,"latitude":45.13061595,"longitude":7.94328225,"canPickup":true,"canDropoff":true,"openingstijden":{"za":"08:20 - 12:45","zo":"gesloten","ma":"08:20 - 13:45","di":"08:20 - 13:45","wo":"08:20 - 13:45","do":"08:20 - 13:45","vr":"08:20 - 13:45"}}},{"type":"Feature","geometry":{"type":"Point","coordinates":[7.943282,45.130616]},"properties":{"type":"pakketpunt","locatieNaam":"Ufficio Postale CASALBORGONE","straatNaam":"PIAZZA CAVOUR 10","straatNr":"","vervoerder":"DHL","puntType":"postOffice","bezettingsgraad":50,"latitude":45.130616,"longitude":7.943282,"canPickup":true,"canDropoff":true,"openingstijden":{"ma":"gesloten","di":"08:20 - 13:45","wo":"08:20 - 13:45","do":"08:20 - 13:45","vr":"08:20 - 13:45","za":"08:20 - 12:45","zo":"gesloten"}}},{"type":"Feature","geometry":{"type":"Point","coordinates":[7.9404817,45.1334383]},"properties":{"type":"pakketpunt","locatieNaam":"Amazon Locker - mughetto","straatNaam":"Stazione Tamoil - PV 3860","straatNr":"","vervoerder":"Amazon","puntType":"locker","bezettingsgraad":50,"latitude":45.1334383,"longitude":7.9404817,"canPickup":true,"canDropoff":false,"openingstijden":null}},{"type":"Feature","geometry":{"type":"Polygon","coordinates":[[[7.8871881,45.141321],[7.888165,45.1420821],[7.888926,45.1428457],[7.88925,45.1430693],[7.8901762,45.1433304],[7.8916077,45.1434703],[7.8928552,45.1429873],[7.8945403,45.1430802],[7.8951068,45.1429506],[7.8959107,45.1432285],[7.8969013,45.1438637],[7.8986044,45.1444697],[7.8983096,45.1446109],[7.8972791,45.144826],[7.8966728,45.1451802],[7.8967786,45.1454017],[7.8971513,45.1456214],[7.8974261,45.1461461],[7.8975803,45.1466427],[7.8975214,45.1469347],[7.8972429,45.1471345],[7.8972773,45.1474724],[7.9003675,45.1481189],[7.9056898,45.1489981],[7.9117499,45.1519501],[7.9122439,45.1524003],[7.9133487,45.1531085],[7.9136876,45.1529722],[7.9140473,45.1531016],[7.9147078,45.1525093],[7.9150771,45.1515226],[7.9149187,45.1500561],[7.9150775,45.1500194],[7.9149404,45.1494285],[7.914972,45.1491677],[7.9151556,45.1489399],[7.9165094,45.1479806],[7.9174152,45.1465174],[7.9175788,45.1465505],[7.9176275,45.1467287],[7.9177473,45.1467816],[7.9185282,45.146888],[7.9204746,45.1459613],[7.9210471,45.1460432],[7.9212795,45.1459869],[7.9214053,45.145808],[7.9216281,45.1457111],[7.92148,45.1450526],[7.9229228,45.1435809],[7.9235956,45.1430607],[7.9246185,45.1426067],[7.9268869,45.1419485],[7.9270511,45.1417385],[7.927479,45.1414724],[7.9297618,45.1415929],[7.9334315,45.1415147],[7.9353661,45.1417488],[7.9364334,45.1419748],[7.9386643,45.1426076],[7.9398052,45.1430503],[7.9417146,45.1436351],[7.9428962,45.1441817],[7.9447685,45.1454232],[7.9457104,45.1449998],[7.9465313,45.1442198],[7.9469366,45.144102],[7.9482869,45.144425],[7.9491223,45.1447567],[7.9505519,45.1450444],[7.955611,45.1447983],[7.9562783,45.1449799],[7.9566548,45.1451724],[7.9579415,45.1463273],[7.9584145,45.1466107],[7.9585969,45.1466168],[7.9600023,45.1460355],[7.9606662,45.1461451],[7.9610876,45.1461174],[7.9614524,45.1460172],[7.9624892,45.1455046],[7.9634098,45.1453959],[7.9642326,45.1445842],[7.9656586,45.1423107],[7.9664501,45.1414447],[7.9671689,45.1408661],[7.9674042,45.1402247],[7.9675697,45.139425],[7.9678188,45.1393867],[7.9684776,45.1387356],[7.9686899,45.138643],[7.9688294,45.1382482],[7.9694372,45.1379566],[7.9695177,45.1378133],[7.9700374,45.137665],[7.9714247,45.1380285],[7.9723232,45.1379061],[7.9731628,45.1366309],[7.9745813,45.1361441],[7.9747862,45.1355068],[7.9751316,45.1336645],[7.975166,45.1328097],[7.9750804,45.1323768],[7.9750955,45.1318864],[7.9757063,45.1299115],[7.9770959,45.1294514],[7.9773038,45.1279545],[7.9774898,45.1277536],[7.9776871,45.1276293],[7.979296,45.1271891],[7.9792585,45.1267117],[7.9790753,45.1262195],[7.9790333,45.125814],[7.9797127,45.1243438],[7.9802774,45.1238313],[7.9796959,45.1234615],[7.9789619,45.123536],[7.9783358,45.1234404],[7.9773605,45.1230491],[7.9771047,45.1228667],[7.9762815,45.1226838],[7.9757481,45.1224675],[7.9747133,45.1215896],[7.9733525,45.1209877],[7.9734347,45.1205699],[7.9733867,45.1201464],[7.9730268,45.1197426],[7.9719988,45.1189322],[7.9711481,45.1184249],[7.9707354,45.1180431],[7.9694873,45.1173658],[7.9683185,45.1169636],[7.9672945,45.1167338],[7.9658637,45.1165858],[7.9607155,45.1168047],[7.9605083,45.1169198],[7.9591216,45.1167946],[7.9572648,45.1170027],[7.9557918,45.1168183],[7.9540892,45.1168522],[7.9535393,45.1167661],[7.9532779,45.1160256],[7.9529758,45.1157753],[7.9515281,45.1152489],[7.9508142,45.1151838],[7.9491619,45.1155962],[7.9490099,45.1152618],[7.9491626,45.1149481],[7.9491055,45.1147675],[7.9484379,45.1139152],[7.9482512,45.114044],[7.948126,45.1142814],[7.9464634,45.1130914],[7.9463378,45.1128382],[7.9453365,45.1124149],[7.944259,45.1116443],[7.9433063,45.1113474],[7.9407275,45.111508],[7.9401807,45.1110844],[7.940054,45.1110607],[7.9392628,45.1112289],[7.9385131,45.1112084],[7.9379415,45.1110951],[7.9377463,45.1109988],[7.9364049,45.109303],[7.9360806,45.1090501],[7.9357897,45.1092297],[7.9356895,45.1091478],[7.934784,45.1082797],[7.9342347,45.1074014],[7.9336088,45.1069679],[7.9315182,45.1066919],[7.927802,45.1042536],[7.9261911,45.104288],[7.9255671,45.1044981],[7.9251256,45.1051826],[7.9247809,45.1053684],[7.9242129,45.1059166],[7.9237607,45.1061194],[7.9233819,45.1061519],[7.9224054,45.1058591],[7.9216981,45.1057669],[7.9209738,45.1053955],[7.9205173,45.1053822],[7.9187896,45.1057034],[7.9157637,45.1068539],[7.9153832,45.1070798],[7.9151774,45.1073749],[7.9146189,45.1077927],[7.9140974,45.1083369],[7.9133079,45.1087389],[7.9135052,45.1089794],[7.9135843,45.1092907],[7.9138045,45.1092613],[7.9142318,45.1098144],[7.9146216,45.1106688],[7.9149092,45.1110271],[7.9148826,45.1112744],[7.9153295,45.1112156],[7.9223282,45.1111469],[7.9231403,45.1110555],[7.9227897,45.1119749],[7.9218915,45.112691],[7.9203988,45.1132485],[7.9200549,45.1136368],[7.9187891,45.1139984],[7.9181018,45.1140414],[7.9173195,45.1146326],[7.9169513,45.1147957],[7.9168855,45.1151686],[7.915699,45.1156389],[7.9153669,45.1158473],[7.9146947,45.1164126],[7.9143824,45.1168102],[7.9140935,45.117379],[7.9132325,45.1182395],[7.9130552,45.1185169],[7.912135,45.1191877],[7.912054,45.119664],[7.9104742,45.1203331],[7.9107657,45.1211145],[7.910751,45.1212629],[7.9102619,45.1219919],[7.9102889,45.1224107],[7.9105282,45.1228631],[7.9100022,45.1239428],[7.9100447,45.125802],[7.9099711,45.126679],[7.9098446,45.1271459],[7.9096675,45.1275807],[7.9090982,45.128489],[7.9087493,45.1288862],[7.9082554,45.1291921],[7.908002,45.1294597],[7.9078713,45.1307457],[7.9075339,45.131143],[7.9067957,45.1316941],[7.9064846,45.1322942],[7.906271,45.1325352],[7.9043311,45.1339074],[7.9036334,45.1345443],[7.9029354,45.1344881],[7.9024549,45.1343214],[7.9019073,45.1343206],[7.9010004,45.1338843],[7.899569,45.1339831],[7.8979418,45.1336793],[7.8973206,45.1343215],[7.8947407,45.1361013],[7.8943427,45.136318],[7.8934867,45.1365573],[7.8932626,45.1367216],[7.893289,45.137307],[7.8930694,45.1376289],[7.892256,45.1384402],[7.8917356,45.1388177],[7.890646,45.1392752],[7.889663,45.1394637],[7.8880298,45.1396099],[7.8868582,45.139909],[7.8871271,45.1407758],[7.8871881,45.141321]]]},"properties":{"type":"boundary","gemeente":"Casalborgone"}}]}