{"type":"FeatureCollection","metadata":{"gemeente":"Casagiove","slug":"casagiove","generated_at":"2026-09-26T13:09:43.812441Z","total_points":42,"providers":["PosteItaliane","DPD","InPost","GLS","DHL","Amazon"],"bounds":[14.303804,41.06646,14.320658,41.08431]},"features":[{"type":"Feature","geometry":{"type":"Point","coordinates":[14.30757208,41.07318756]},"properties":{"type":"pakketpunt","locatieNaam":"Tabaccheria N. 11","straatNaam":"Via Nazionale Appia","straatNr":"182","vervoerder":"PosteItaliane","puntType":"servicepunt","bezettingsgraad":50,"latitude":41.07318756,"longitude":14.30757208,"canPickup":true,"canDropoff":true,"openingstijden":{"za":"07:00 - 22:30","zo":"07:30 - 22:30","ma":"07:00 - 22:30","di":"07:00 - 22:30","wo":"07:00 - 22:30","do":"07:00 - 22:30","vr":"07:00 - 22:30"}}},{"type":"Feature","geometry":{"type":"Point","coordinates":[14.30830651,41.08082976]},"properties":{"type":"pakketpunt","locatieNaam":"Casagiove","straatNaam":"Via Egidio Sibillo","straatNr":"12","vervoerder":"PosteItaliane","puntType":"postkantoor","bezettingsgraad":50,"latitude":41.08082976,"longitude":14.30830651,"canPickup":true,"canDropoff":true,"openingstijden":{"za":"08:20 - 12:35","zo":"gesloten","ma":"08:20 - 19:05","di":"gesloten","wo":"08:20 - 19:05","do":"08:20 - 19:05","vr":"08:20 - 19:05"}}},{"type":"Feature","geometry":{"type":"Point","coordinates":[14.30380445,41.07910814]},"properties":{"type":"pakketpunt","locatieNaam":"Autolavaggio A Mano Magic","straatNaam":"Via Tifata","straatNr":"6","vervoerder":"PosteItaliane","puntType":"automaat","bezettingsgraad":50,"latitude":41.07910814,"longitude":14.30380445,"canPickup":true,"canDropoff":true,"openingstijden":{"za":"08:00 - 13:00","zo":"gesloten","ma":"08:00 - 13:00","di":"08:00 - 13:00","wo":"08:00 - 13:00","do":"08:00 - 13:00","vr":"08:00 - 13:00"}}},{"type":"Feature","geometry":{"type":"Point","coordinates":[14.3130748,41.07775048]},"properties":{"type":"pakketpunt","locatieNaam":"Tabaccheria N. 3","straatNaam":"Piazza Pasquale Silvagni","straatNr":"9","vervoerder":"PosteItaliane","puntType":"servicepunt","bezettingsgraad":50,"latitude":41.07775048,"longitude":14.3130748,"canPickup":true,"canDropoff":true,"openingstijden":{"za":"07:00 - 20:00","zo":"08:00 - 13:00","ma":"07:00 - 20:00","di":"07:00 - 20:00","wo":"07:00 - 20:00","do":"07:00 - 20:00","vr":"07:00 - 20:00"}}},{"type":"Feature","geometry":{"type":"Point","coordinates":[14.30898362,41.07875069]},"properties":{"type":"pakketpunt","locatieNaam":"Tabaccheria N. 1","straatNaam":"Via Iovara","straatNr":"93","vervoerder":"PosteItaliane","puntType":"servicepunt","bezettingsgraad":50,"latitude":41.07875069,"longitude":14.30898362,"canPickup":true,"canDropoff":true,"openingstijden":{"za":"07:30 - 13:30, 16:00 - 21:00","zo":"gesloten","ma":"07:30 - 13:30, 16:00 - 21:00","di":"07:30 - 13:30, 16:00 - 21:00","wo":"07:30 - 13:30, 16:00 - 21:00","do":"07:30 - 13:30, 16:00 - 21:00","vr":"07:30 - 13:30, 16:00 - 21:00"}}},{"type":"Feature","geometry":{"type":"Point","coordinates":[14.31877797,41.07662584]},"properties":{"type":"pakketpunt","locatieNaam":"Sky Service - Casagiove","straatNaam":"Via Sardegna","straatNr":"39","vervoerder":"PosteItaliane","puntType":"servicepunt","bezettingsgraad":50,"latitude":41.07662584,"longitude":14.31877797,"canPickup":true,"canDropoff":true,"openingstijden":{"za":"09:00 - 13:00","zo":"gesloten","ma":"09:00 - 13:00, 16:30 - 19:30","di":"09:00 - 13:00, 16:30 - 19:30","wo":"09:00 - 13:00, 16:30 - 19:30","do":"09:00 - 13:00, 16:30 - 19:30","vr":"09:00 - 13:00, 16:30 - 19:30"}}},{"type":"Feature","geometry":{"type":"Point","coordinates":[14.31608597,41.0754144]},"properties":{"type":"pakketpunt","locatieNaam":"Tabaccheria N. 5","straatNaam":"Viale Trieste","straatNr":"66","vervoerder":"PosteItaliane","puntType":"servicepunt","bezettingsgraad":50,"latitude":41.0754144,"longitude":14.31608597,"canPickup":true,"canDropoff":true,"openingstijden":{"za":"08:00 - 20:00","zo":"08:00 - 13:00, 17:00 - 20:00","ma":"08:00 - 20:00","di":"08:00 - 20:00","wo":"08:00 - 20:00","do":"08:00 - 20:00","vr":"08:00 - 20:00"}}},{"type":"Feature","geometry":{"type":"Point","coordinates":[14.30759277,41.07536212]},"properties":{"type":"pakketpunt","locatieNaam":"Agenzia Vozza","straatNaam":"Via Arcivescovo Pontillo","straatNr":"34","vervoerder":"PosteItaliane","puntType":"servicepunt","bezettingsgraad":50,"latitude":41.07536212,"longitude":14.30759277,"canPickup":true,"canDropoff":true,"openingstijden":{"za":"gesloten","zo":"gesloten","ma":"09:00 - 13:00, 15:00 - 18:30","di":"09:00 - 13:00, 15:00 - 18:30","wo":"09:00 - 13:00, 15:00 - 18:30","do":"09:00 - 13:00, 15:00 - 18:30","vr":"09:00 - 13:00, 15:00 - 21:00"}}},{"type":"Feature","geometry":{"type":"Point","coordinates":[14.32065772,41.08157877]},"properties":{"type":"pakketpunt","locatieNaam":"Tabaccheria N. 20","straatNaam":"Via Colonnello Michele Camusso","straatNr":"90","vervoerder":"PosteItaliane","puntType":"servicepunt","bezettingsgraad":50,"latitude":41.08157877,"longitude":14.32065772,"canPickup":true,"canDropoff":true,"openingstijden":{"za":"06:30 - 21:30","zo":"06:30 - 13:30, 15:30 - 21:30","ma":"06:30 - 21:30","di":"06:30 - 21:30","wo":"06:30 - 21:30","do":"06:30 - 21:30","vr":"06:30 - 21:30"}}},{"type":"Feature","geometry":{"type":"Point","coordinates":[14.312847,41.07762]},"properties":{"type":"pakketpunt","locatieNaam":"Agenzia Viaggi V.i.p. Conoscere il","straatNaam":"PIAZZA SILVAGNI","straatNr":"21","vervoerder":"DPD","puntType":"pickup_point","bezettingsgraad":50,"latitude":41.07762,"longitude":14.312847,"canPickup":true,"canDropoff":true,"openingstijden":{"ma":"09:00 - 13:30, 15:30 - 20:00","di":"09:00 - 13:30, 15:30 - 20:00","wo":"09:00 - 13:30, 15:30 - 20:00","do":"09:00 - 13:30, 15:30 - 20:00","vr":"09:00 - 13:30, 15:30 - 20:00","za":"09:00 - 13:00","zo":"gesloten"}}},{"type":"Feature","geometry":{"type":"Point","coordinates":[14.3155467,41.07578147]},"properties":{"type":"pakketpunt","locatieNaam":"Ottica Maddalena","straatNaam":"V.LE TRIESTE","straatNr":"44","vervoerder":"DPD","puntType":"pickup_point","bezettingsgraad":50,"latitude":41.07578147,"longitude":14.3155467,"canPickup":true,"canDropoff":true,"openingstijden":{"ma":"09:30 - 13:00, 16:30 - 20:00","di":"09:30 - 13:00, 16:30 - 20:00","wo":"09:30 - 13:00, 16:30 - 20:00","do":"09:30 - 13:00, 16:30 - 20:00","vr":"09:30 - 13:00, 16:30 - 20:00","za":"09:30 - 13:00, 16:30 - 20:00","zo":"gesloten"}}},{"type":"Feature","geometry":{"type":"Point","coordinates":[14.31288,41.0778]},"properties":{"type":"pakketpunt","locatieNaam":"InPost Point","straatNaam":"Piazza Silvagni","straatNr":"21","vervoerder":"InPost","puntType":"servicepunt","bezettingsgraad":50,"latitude":41.0778,"longitude":14.31288,"canPickup":true,"canDropoff":true,"openingstijden":"Lun-Ven: 09:00 - 13:30 - 15:30 - 20:00 Sab: 09:00 - 13:30"}},{"type":"Feature","geometry":{"type":"Point","coordinates":[14.31558,41.07603]},"properties":{"type":"pakketpunt","locatieNaam":"InPost Point","straatNaam":"Viale Trieste","straatNr":"44","vervoerder":"InPost","puntType":"servicepunt","bezettingsgraad":50,"latitude":41.07603,"longitude":14.31558,"canPickup":true,"canDropoff":true,"openingstijden":"Lun-Sab: 09:00 - 13:00 - 16:30 - 20:00"}},{"type":"Feature","geometry":{"type":"Point","coordinates":[14.31395,41.06646]},"properties":{"type":"pakketpunt","locatieNaam":"InPost Locker 24/7","straatNaam":"Via Ponteselice","straatNr":"","vervoerder":"InPost","puntType":"automaat","bezettingsgraad":50,"latitude":41.06646,"longitude":14.31395,"canPickup":true,"canDropoff":true,"openingstijden":null}},{"type":"Feature","geometry":{"type":"Point","coordinates":[14.31881,41.08431]},"properties":{"type":"pakketpunt","locatieNaam":"InPost Locker 24/7","straatNaam":"Via Antonio Gramsci","straatNr":"Snc","vervoerder":"InPost","puntType":"automaat","bezettingsgraad":50,"latitude":41.08431,"longitude":14.31881,"canPickup":true,"canDropoff":true,"openingstijden":null}},{"type":"Feature","geometry":{"type":"Point","coordinates":[14.30396,41.07704]},"properties":{"type":"pakketpunt","locatieNaam":"InPost Locker 24/7","straatNaam":"via Tifata","straatNr":"6","vervoerder":"InPost","puntType":"automaat","bezettingsgraad":50,"latitude":41.07704,"longitude":14.30396,"canPickup":true,"canDropoff":true,"openingstijden":null}},{"type":"Feature","geometry":{"type":"Point","coordinates":[14.3093783998,41.074236444]},"properties":{"type":"pakketpunt","locatieNaam":"Posta Privata","straatNaam":"Via Aldo Moro","straatNr":"44","vervoerder":"GLS","puntType":"parcel_shop","bezettingsgraad":50,"latitude":41.074236444,"longitude":14.3093783998,"canPickup":true,"canDropoff":true,"openingstijden":"za: 09:00 - 12:00; ma: 08:30 - 13:00, 16:00 - 19:00"}},{"type":"Feature","geometry":{"type":"Point","coordinates":[14.3075693,41.0753702]},"properties":{"type":"pakketpunt","locatieNaam":"Agenzia Vozza","straatNaam":"Via Arcivescovo Pontillo","straatNr":"34","vervoerder":"GLS","puntType":"parcel_shop","bezettingsgraad":50,"latitude":41.0753702,"longitude":14.3075693,"canPickup":true,"canDropoff":true,"openingstijden":"ma: 09:00 - 13:00, 15:00 - 19:00; di: 09:00 - 13:00, 15:00 - 19:00"}},{"type":"Feature","geometry":{"type":"Point","coordinates":[14.315475,41.0758554]},"properties":{"type":"pakketpunt","locatieNaam":"Ottica Maddalena","straatNaam":"Viale Trieste","straatNr":"44","vervoerder":"GLS","puntType":"parcel_shop","bezettingsgraad":50,"latitude":41.0758554,"longitude":14.315475,"canPickup":true,"canDropoff":true,"openingstijden":"za: 09:30 - 13:00, 16:30 - 20:00; ma: 09:30 - 13:00, 16:30 - 20:00"}},{"type":"Feature","geometry":{"type":"Point","coordinates":[14.3186462,41.0767188]},"properties":{"type":"pakketpunt","locatieNaam":"C.M. SERVICE & TECNOLOGY SRLS","straatNaam":"Via Sardegna","straatNr":"41","vervoerder":"GLS","puntType":"parcel_shop","bezettingsgraad":50,"latitude":41.0767188,"longitude":14.3186462,"canPickup":true,"canDropoff":true,"openingstijden":"za: 09:00 - 12:30; ma: 09:00 - 13:00, 16:30 - 19:30"}},{"type":"Feature","geometry":{"type":"Point","coordinates":[14.308614,41.0787356]},"properties":{"type":"pakketpunt","locatieNaam":"Gravina 1977","straatNaam":"Via Iovara","straatNr":"101-103-105","vervoerder":"GLS","puntType":"parcel_shop","bezettingsgraad":50,"latitude":41.0787356,"longitude":14.308614,"canPickup":true,"canDropoff":true,"openingstijden":"za: 07:00 - 21:00; zo: 07:30 - 14:00"}},{"type":"Feature","geometry":{"type":"Point","coordinates":[14.320658,41.081579]},"properties":{"type":"pakketpunt","locatieNaam":"TABACCHERIA N. 20","straatNaam":"VIA COLONNELLO MICHELE CAMUSSO 90","straatNr":"","vervoerder":"DHL","puntType":"parcelShop","bezettingsgraad":50,"latitude":41.081579,"longitude":14.320658,"canPickup":true,"canDropoff":true,"openingstijden":{"ma":"06:30 - 21:30","di":"06:30 - 21:30","wo":"06:30 - 21:30","do":"06:30 - 21:30","vr":"06:30 - 21:30","za":"06:30 - 21:30","zo":"06:30 - 13:30, 15:30 - 21:30"}}},{"type":"Feature","geometry":{"type":"Point","coordinates":[14.318778,41.076626]},"properties":{"type":"pakketpunt","locatieNaam":"SKY SERVICE - CASAGIOVE","straatNaam":"VIA SARDEGNA 39","straatNr":"","vervoerder":"DHL","puntType":"parcelShop","bezettingsgraad":50,"latitude":41.076626,"longitude":14.318778,"canPickup":true,"canDropoff":true,"openingstijden":{"ma":"09:00 - 13:00, 16:30 - 19:30","di":"09:00 - 13:00, 16:30 - 19:30","wo":"09:00 - 13:00, 16:30 - 19:30","do":"09:00 - 13:00, 16:30 - 19:30","vr":"09:00 - 13:00, 16:30 - 19:30","za":"09:00 - 13:00","zo":"gesloten"}}},{"type":"Feature","geometry":{"type":"Point","coordinates":[14.316086,41.075414]},"properties":{"type":"pakketpunt","locatieNaam":"TABACCHERIA N. 5","straatNaam":"VIALE TRIESTE 66","straatNr":"","vervoerder":"DHL","puntType":"parcelShop","bezettingsgraad":50,"latitude":41.075414,"longitude":14.316086,"canPickup":true,"canDropoff":true,"openingstijden":{"ma":"08:00 - 20:00","di":"08:00 - 20:00","wo":"08:00 - 20:00","do":"08:00 - 20:00","vr":"08:00 - 20:00","za":"08:00 - 20:00","zo":"08:00 - 13:00, 17:00 - 20:00"}}},{"type":"Feature","geometry":{"type":"Point","coordinates":[14.313075,41.07775]},"properties":{"type":"pakketpunt","locatieNaam":"TABACCHERIA N. 3","straatNaam":"PIAZZA PASQUALE SILVAGNI 9","straatNr":"","vervoerder":"DHL","puntType":"parcelShop","bezettingsgraad":50,"latitude":41.07775,"longitude":14.313075,"canPickup":true,"canDropoff":true,"openingstijden":{"ma":"07:00 - 20:00","di":"07:00 - 20:00","wo":"07:00 - 20:00","do":"07:00 - 20:00","vr":"07:00 - 20:00","za":"07:00 - 20:00","zo":"08:00 - 13:00"}}},{"type":"Feature","geometry":{"type":"Point","coordinates":[14.312773,41.075732]},"properties":{"type":"pakketpunt","locatieNaam":"V.I.P. CONOSCERE IL MONDO","straatNaam":"Piazza Silvagni,21","straatNr":"","vervoerder":"DHL","puntType":"parcelShop","bezettingsgraad":50,"latitude":41.075732,"longitude":14.312773,"canPickup":false,"canDropoff":true,"openingstijden":{"ma":"09:00 - 20:00","di":"09:00 - 20:00","wo":"09:00 - 20:00","do":"09:00 - 20:00","vr":"09:00 - 20:00","za":"09:00 - 20:00","zo":"gesloten"}}},{"type":"Feature","geometry":{"type":"Point","coordinates":[14.308984,41.078751]},"properties":{"type":"pakketpunt","locatieNaam":"TABACCHERIA N. 1","straatNaam":"VIA IOVARA 93","straatNr":"","vervoerder":"DHL","puntType":"parcelShop","bezettingsgraad":50,"latitude":41.078751,"longitude":14.308984,"canPickup":true,"canDropoff":true,"openingstijden":{"ma":"07:30 - 13:30, 16:00 - 21:00","di":"07:30 - 13:30, 16:00 - 21:00","wo":"07:30 - 13:30, 16:00 - 21:00","do":"07:30 - 13:30, 16:00 - 21:00","vr":"07:30 - 13:30, 16:00 - 21:00","za":"07:30 - 13:30, 16:00 - 21:00","zo":"gesloten"}}},{"type":"Feature","geometry":{"type":"Point","coordinates":[14.308307,41.08083]},"properties":{"type":"pakketpunt","locatieNaam":"Ufficio Postale CASAGIOVE","straatNaam":"VIA SIBILLO EGIDIO 12","straatNr":"","vervoerder":"DHL","puntType":"postOffice","bezettingsgraad":50,"latitude":41.08083,"longitude":14.308307,"canPickup":true,"canDropoff":true,"openingstijden":{"ma":"08:20 - 19:05","di":"08:20 - 19:05","wo":"08:20 - 19:05","do":"08:20 - 19:05","vr":"08:20 - 19:05","za":"08:20 - 12:35","zo":"gesloten"}}},{"type":"Feature","geometry":{"type":"Point","coordinates":[14.30757,41.07545]},"properties":{"type":"pakketpunt","locatieNaam":"AGENZIA VOZZA","straatNaam":"Via Arcivescovo Pontillo 34","straatNr":"","vervoerder":"DHL","puntType":"parcelShop","bezettingsgraad":50,"latitude":41.07545,"longitude":14.30757,"canPickup":false,"canDropoff":true,"openingstijden":{"ma":"09:00 - 19:00","di":"09:00 - 19:00","wo":"09:00 - 19:00","do":"09:00 - 19:00","vr":"09:00 - 19:00","za":"gesloten","zo":"gesloten"}}},{"type":"Feature","geometry":{"type":"Point","coordinates":[14.307593,41.075362]},"properties":{"type":"pakketpunt","locatieNaam":"AGENZIA VOZZA","straatNaam":"VIA ARCIVESCOVO PONTILLO 34","straatNr":"","vervoerder":"DHL","puntType":"parcelShop","bezettingsgraad":50,"latitude":41.075362,"longitude":14.307593,"canPickup":true,"canDropoff":true,"openingstijden":{"ma":"09:00 - 13:00, 15:00 - 18:30","di":"09:00 - 13:00, 15:00 - 18:30","wo":"09:00 - 13:00, 15:00 - 18:30","do":"09:00 - 13:00, 15:00 - 18:30","vr":"09:00 - 13:00, 15:00 - 21:00","za":"gesloten","zo":"gesloten"}}},{"type":"Feature","geometry":{"type":"Point","coordinates":[14.307572,41.073188]},"properties":{"type":"pakketpunt","locatieNaam":"TABACCHERIA N. 11","straatNaam":"VIA NAZIONALE APPIA 182","straatNr":"","vervoerder":"DHL","puntType":"parcelShop","bezettingsgraad":50,"latitude":41.073188,"longitude":14.307572,"canPickup":true,"canDropoff":true,"openingstijden":{"ma":"07:00 - 22:30","di":"07:00 - 22:30","wo":"07:00 - 22:30","do":"07:00 - 22:30","vr":"07:00 - 22:30","za":"07:00 - 22:30","zo":"07:30 - 22:30"}}},{"type":"Feature","geometry":{"type":"Point","coordinates":[14.303804,41.079108]},"properties":{"type":"pakketpunt","locatieNaam":"AUTOLAVAGGIO A MANO MAGIC","straatNaam":"VIA TIFATA 6","straatNr":"","vervoerder":"DHL","puntType":"packStation","bezettingsgraad":50,"latitude":41.079108,"longitude":14.303804,"canPickup":true,"canDropoff":true,"openingstijden":{"ma":"08:00 - 13:00, 14:00 - 18:30","di":"08:00 - 13:00, 14:00 - 18:30","wo":"08:00 - 13:00, 14:00 - 18:30","do":"08:00 - 13:00, 14:00 - 18:30","vr":"08:00 - 13:00, 14:00 - 18:30","za":"08:00 - 13:00, 14:00 - 18:30","zo":"gesloten"}}},{"type":"Feature","geometry":{"type":"Point","coordinates":[14.3075759,41.0753467]},"properties":{"type":"pakketpunt","locatieNaam":"Amazon Locker - feliziano","straatNaam":"RivivoNet Casagiove","straatNr":"","vervoerder":"Amazon","puntType":"locker","bezettingsgraad":50,"latitude":41.0753467,"longitude":14.3075759,"canPickup":true,"canDropoff":false,"openingstijden":null}},{"type":"Feature","geometry":{"type":"Point","coordinates":[14.3143436,41.0664998]},"properties":{"type":"pakketpunt","locatieNaam":"Amazon Locker - francescangela","straatNaam":"Poliauto Casagiove","straatNr":"","vervoerder":"Amazon","puntType":"locker","bezettingsgraad":50,"latitude":41.0664998,"longitude":14.3143436,"canPickup":true,"canDropoff":false,"openingstijden":null}},{"type":"Feature","geometry":{"type":"Point","coordinates":[14.3180754,41.0815353]},"properties":{"type":"pakketpunt","locatieNaam":"Amazon Counter - La Menasteo Market srl","straatNaam":"Viale della Libertà 90","straatNr":"","vervoerder":"Amazon","puntType":"helix","bezettingsgraad":50,"latitude":41.0815353,"longitude":14.3180754,"canPickup":true,"canDropoff":false,"openingstijden":null}},{"type":"Feature","geometry":{"type":"Point","coordinates":[14.319991,41.081505]},"properties":{"type":"pakketpunt","locatieNaam":"Amazon Counter - TABACCHI CAMPANILE","straatNaam":"VIA MICHELE CAMUSSO 90/92","straatNr":"","vervoerder":"Amazon","puntType":"helix","bezettingsgraad":50,"latitude":41.081505,"longitude":14.319991,"canPickup":true,"canDropoff":false,"openingstijden":null}},{"type":"Feature","geometry":{"type":"Point","coordinates":[14.3206,41.0815]},"properties":{"type":"pakketpunt","locatieNaam":"PuntoPoste TABACCHERIA N. 20","straatNaam":"VIA COLONNELLO MICHELE CAMUSSO 90","straatNr":"","vervoerder":"Amazon","puntType":"3p","bezettingsgraad":50,"latitude":41.0815,"longitude":14.3206,"canPickup":true,"canDropoff":false,"openingstijden":null}},{"type":"Feature","geometry":{"type":"Point","coordinates":[14.316902,41.075581]},"properties":{"type":"pakketpunt","locatieNaam":"Amazon Hub Counter - Autofficina elettrauto","straatNaam":"via San Francesco di Paola 3","straatNr":"","vervoerder":"Amazon","puntType":"helix","bezettingsgraad":50,"latitude":41.075581,"longitude":14.316902,"canPickup":true,"canDropoff":false,"openingstijden":null}},{"type":"Feature","geometry":{"type":"Point","coordinates":[14.3159688,41.0754112]},"properties":{"type":"pakketpunt","locatieNaam":"Amazon Counter - VISIONNAIRE DI VOZZA PASQUALE","straatNaam":"VIALE TRIESTE 52","straatNr":"","vervoerder":"Amazon","puntType":"helix","bezettingsgraad":50,"latitude":41.0754112,"longitude":14.3159688,"canPickup":true,"canDropoff":false,"openingstijden":null}},{"type":"Feature","geometry":{"type":"Point","coordinates":[14.315396,41.075938]},"properties":{"type":"pakketpunt","locatieNaam":"Amazon Counter - Ass. territoriale UNSIC","straatNaam":"Viale Trieste, 40","straatNr":"","vervoerder":"Amazon","puntType":"helix","bezettingsgraad":50,"latitude":41.075938,"longitude":14.315396,"canPickup":true,"canDropoff":false,"openingstijden":null}},{"type":"Feature","geometry":{"type":"Point","coordinates":[14.315524,41.075874]},"properties":{"type":"pakketpunt","locatieNaam":"Amazon Counter","straatNaam":"Ottica Maddalena (fermopoint)","straatNr":"","vervoerder":"Amazon","puntType":"helix","bezettingsgraad":50,"latitude":41.075874,"longitude":14.315524,"canPickup":true,"canDropoff":false,"openingstijden":null}},{"type":"Feature","geometry":{"type":"Point","coordinates":[14.3097563,41.0744198]},"properties":{"type":"pakketpunt","locatieNaam":"Amazon Counter (fermopoint)","straatNaam":"Tabacchi Falco","straatNr":"","vervoerder":"Amazon","puntType":"helix","bezettingsgraad":50,"latitude":41.0744198,"longitude":14.3097563,"canPickup":true,"canDropoff":false,"openingstijden":null}},{"type":"Feature","geometry":{"type":"Polygon","coordinates":[[[14.2923461,41.1085856],[14.29433,41.1078958],[14.2946917,41.1075281],[14.2950062,41.1070184],[14.2955801,41.1057946],[14.2972114,41.1001738],[14.3028753,41.0962305],[14.3100448,41.0970472],[14.3210112,41.0847718],[14.3212001,41.0844676],[14.3217941,41.0824978],[14.3210736,41.0807146],[14.3212479,41.0787487],[14.3212107,41.077458],[14.3211041,41.0763995],[14.3207893,41.0754024],[14.3161985,41.0753808],[14.3161843,41.0693737],[14.3161091,41.0671017],[14.3141169,41.0650123],[14.3124946,41.0642186],[14.311874,41.0631117],[14.3092112,41.0643188],[14.3087158,41.0648592],[14.3082331,41.0647527],[14.3051261,41.0663022],[14.3038299,41.0668424],[14.302125,41.0677655],[14.2993012,41.0690034],[14.3001279,41.0703308],[14.3004366,41.0767579],[14.3004009,41.0801355],[14.2989228,41.091583],[14.2983439,41.0933922],[14.2981367,41.0938293],[14.2971388,41.0936908],[14.2951075,41.0931633],[14.2933007,41.0939262],[14.2926421,41.0943302],[14.2900985,41.0961668],[14.2881225,41.100498],[14.2882717,41.1021026],[14.2923461,41.1085856]]]},"properties":{"type":"boundary","gemeente":"Casagiove"}}]}