{"type":"FeatureCollection","metadata":{"gemeente":"Casalromano","slug":"casalromano","generated_at":"2026-09-26T13:09:44.235656Z","total_points":5,"providers":["PosteItaliane","DHL","Amazon"],"bounds":[10.36648888,45.1988,10.37007735,45.20059786]},"features":[{"type":"Feature","geometry":{"type":"Point","coordinates":[10.36648888,45.20059786]},"properties":{"type":"pakketpunt","locatieNaam":"Casalromano","straatNaam":"Piazza Cesare Battisti","straatNr":"2","vervoerder":"PosteItaliane","puntType":"postkantoor","bezettingsgraad":50,"latitude":45.20059786,"longitude":10.36648888,"canPickup":true,"canDropoff":true,"openingstijden":{"za":"gesloten","zo":"gesloten","ma":"08:20 - 13:45","di":"08:20 - 13:45","wo":"08:20 - 13:45","do":"08:20 - 13:45","vr":"gesloten"}}},{"type":"Feature","geometry":{"type":"Point","coordinates":[10.37007735,45.1996761]},"properties":{"type":"pakketpunt","locatieNaam":"Tabaccheria N. 1","straatNaam":"Via San Rocco","straatNr":"11","vervoerder":"PosteItaliane","puntType":"servicepunt","bezettingsgraad":50,"latitude":45.1996761,"longitude":10.37007735,"canPickup":true,"canDropoff":true,"openingstijden":{"za":"07:30 - 12:30, 14:30 - 19:00","zo":"gesloten","ma":"07:30 - 12:30, 15:00 - 19:00","di":"07:30 - 12:30, 15:00 - 19:00","wo":"07:30 - 12:30, 13:00 - 15:00","do":"07:30 - 12:30, 15:00 - 19:00","vr":"07:30 - 12:30, 13:00 - 15:00"}}},{"type":"Feature","geometry":{"type":"Point","coordinates":[10.36823,45.1988]},"properties":{"type":"pakketpunt","locatieNaam":"TABACCHERIA RAZA SABINA","straatNaam":"Via San Rocco, 11","straatNr":"","vervoerder":"DHL","puntType":"parcelShop","bezettingsgraad":50,"latitude":45.1988,"longitude":10.36823,"canPickup":false,"canDropoff":true,"openingstijden":{"ma":"07:30 - 19:00","di":"07:30 - 19:00","wo":"07:30 - 19:00","do":"07:30 - 19:00","vr":"07:30 - 19:00","za":"07:30 - 19:00","zo":"gesloten"}}},{"type":"Feature","geometry":{"type":"Point","coordinates":[10.370077,45.199676]},"properties":{"type":"pakketpunt","locatieNaam":"TABACCHERIA N. 1","straatNaam":"VIA SAN ROCCO 11","straatNr":"","vervoerder":"DHL","puntType":"parcelShop","bezettingsgraad":50,"latitude":45.199676,"longitude":10.370077,"canPickup":true,"canDropoff":true,"openingstijden":{"ma":"07:30 - 12:30, 15:00 - 19:00","di":"07:30 - 12:30, 15:00 - 19:00","wo":"07:30 - 12:30, 13:00 - 15:00","do":"07:30 - 12:30, 15:00 - 19:00","vr":"07:30 - 12:30, 13:00 - 15:00","za":"07:30 - 12:30, 14:30 - 19:00","zo":"gesloten"}}},{"type":"Feature","geometry":{"type":"Point","coordinates":[10.37,45.1996]},"properties":{"type":"pakketpunt","locatieNaam":"PuntoPoste TABACCHERIA N. 1","straatNaam":"VIA SAN ROCCO 11","straatNr":"","vervoerder":"Amazon","puntType":"3p","bezettingsgraad":50,"latitude":45.1996,"longitude":10.37,"canPickup":true,"canDropoff":false,"openingstijden":null}},{"type":"Feature","geometry":{"type":"Polygon","coordinates":[[[10.3094745,45.1914092],[10.3090767,45.1919675],[10.3090587,45.1922186],[10.3091417,45.1924231],[10.3094934,45.1928968],[10.3091941,45.1931215],[10.3091892,45.1932753],[10.309258,45.1934154],[10.3096672,45.1936251],[10.3099878,45.1939013],[10.3099641,45.1940191],[10.3097234,45.1941415],[10.3097396,45.1942544],[10.3104716,45.1950638],[10.3105073,45.1953663],[10.3109378,45.1963479],[10.3109946,45.1966096],[10.3108815,45.1969112],[10.3113162,45.197181],[10.3115357,45.1979083],[10.3118174,45.1984806],[10.3118932,45.1987863],[10.3118922,45.1994373],[10.3120241,45.1995801],[10.3120609,45.2000444],[10.3123965,45.2004052],[10.3123775,45.2010365],[10.3124864,45.201851],[10.3130355,45.2020335],[10.3132031,45.2019371],[10.3136107,45.2028143],[10.3147235,45.2030814],[10.3148996,45.2048044],[10.3150483,45.2052014],[10.3164677,45.2050321],[10.3176135,45.2045878],[10.3176927,45.2049559],[10.3312737,45.2051867],[10.3379308,45.2046305],[10.340334,45.204273],[10.3404705,45.2043483],[10.3415146,45.2044509],[10.3443974,45.2042549],[10.3435123,45.2065383],[10.3435182,45.2066872],[10.3437741,45.2067872],[10.3434126,45.2077807],[10.344015,45.2107126],[10.3476152,45.211542],[10.3490985,45.2120301],[10.3505221,45.2123916],[10.3523749,45.2131781],[10.3539079,45.2140532],[10.3546121,45.2143627],[10.3586412,45.2154471],[10.3603094,45.2152604],[10.3609819,45.2152602],[10.3610629,45.2147579],[10.3613133,45.2144337],[10.3613416,45.2139884],[10.3617438,45.2131599],[10.361796,45.212888],[10.362349,45.2124042],[10.3622743,45.2121025],[10.3624866,45.211682],[10.3622869,45.2114029],[10.3624591,45.2112742],[10.3624628,45.2109305],[10.3628712,45.210114],[10.3630359,45.2095689],[10.3659058,45.2095913],[10.3671444,45.2096758],[10.3675927,45.2098771],[10.367801,45.2102246],[10.3679832,45.2103503],[10.3683664,45.2100638],[10.3696029,45.2098088],[10.3696155,45.2094083],[10.3696999,45.2092288],[10.3699624,45.2092155],[10.370134,45.2090746],[10.370181,45.207958],[10.3707173,45.2064922],[10.3707767,45.2061191],[10.3712013,45.2058681],[10.3722326,45.2056333],[10.3727762,45.2056427],[10.3731193,45.2053569],[10.3731805,45.2051698],[10.3731277,45.204993],[10.3724466,45.2046913],[10.3724224,45.2045139],[10.3729124,45.2030368],[10.3730757,45.2022575],[10.3733869,45.201746],[10.3740083,45.2014142],[10.37427,45.2010937],[10.3743488,45.2009183],[10.3741917,45.2005658],[10.3742527,45.2003746],[10.3755159,45.2000785],[10.3762254,45.1998057],[10.3767183,45.1991208],[10.3772392,45.1978492],[10.3780169,45.1979953],[10.3781709,45.1978427],[10.3786458,45.1961355],[10.3788316,45.1957801],[10.3799374,45.1949819],[10.3801637,45.1950663],[10.3804201,45.195045],[10.380499,45.1948736],[10.37985,45.1942277],[10.3792441,45.1933708],[10.3796107,45.1931047],[10.3811259,45.1926823],[10.3829921,45.192459],[10.3830817,45.1922713],[10.3829531,45.1914856],[10.3831569,45.1907216],[10.3830472,45.18993],[10.3826891,45.1889009],[10.3825404,45.1887068],[10.3824462,45.1878221],[10.382556,45.1865677],[10.3798141,45.1859969],[10.3788386,45.1857203],[10.3762673,45.1853457],[10.3734585,45.1850657],[10.3733724,45.1855866],[10.37309,45.1857447],[10.3718268,45.1856968],[10.370835,45.1857989],[10.3700807,45.1857088],[10.3698744,45.1856121],[10.3696448,45.1852713],[10.3690589,45.1853863],[10.3670502,45.1853215],[10.3657903,45.1854087],[10.3645377,45.1852705],[10.364277,45.186094],[10.3640178,45.1864487],[10.362811,45.1866254],[10.3619137,45.1869516],[10.3606671,45.1870657],[10.3604541,45.1872215],[10.3603733,45.187574],[10.3602106,45.1877022],[10.3587355,45.187855],[10.3570627,45.1882716],[10.3562857,45.1882989],[10.3556287,45.1885501],[10.3549016,45.1885317],[10.35481,45.1889655],[10.3546868,45.1891473],[10.3535356,45.1895215],[10.3527487,45.190207],[10.3522564,45.1902989],[10.3516682,45.1906731],[10.3493673,45.1911793],[10.3487355,45.1915394],[10.3479102,45.191774],[10.3467534,45.1927386],[10.3464932,45.1928084],[10.3462932,45.1926668],[10.3463392,45.1909318],[10.3464956,45.190367],[10.3468789,45.1903625],[10.3470185,45.1899504],[10.346962,45.1897167],[10.3462245,45.1897975],[10.3450309,45.18946],[10.3447902,45.189526],[10.3444922,45.189863],[10.3435846,45.1902974],[10.3420796,45.1902701],[10.3400038,45.1903667],[10.3365605,45.190317],[10.3366031,45.1899559],[10.3363707,45.1898324],[10.3351538,45.1895853],[10.3323501,45.1885364],[10.3322772,45.1884612],[10.3334693,45.1875879],[10.3326116,45.1871811],[10.3320068,45.1863949],[10.3313014,45.1862138],[10.3309632,45.1864702],[10.3305015,45.1863494],[10.3295938,45.1856929],[10.3276045,45.1840213],[10.326922,45.1842727],[10.3241716,45.1849538],[10.3126495,45.1875329],[10.3124062,45.1874529],[10.3117106,45.1874993],[10.3112711,45.1873748],[10.3109801,45.1873888],[10.3121302,45.1893909],[10.3123641,45.1900856],[10.3123019,45.190386],[10.3118012,45.1912868],[10.3111071,45.1919318],[10.3105206,45.1921338],[10.3094745,45.1914092]]]},"properties":{"type":"boundary","gemeente":"Casalromano"}}]}