{"type":"FeatureCollection","metadata":{"gemeente":"Casirate d'Adda","slug":"casirate-d-adda","generated_at":"2026-09-26T13:09:44.799319Z","total_points":4,"providers":["PosteItaliane","DHL","Amazon"],"bounds":[9.548997,45.490816,9.5696008,45.493566]},"features":[{"type":"Feature","geometry":{"type":"Point","coordinates":[9.56770167,45.49356581]},"properties":{"type":"pakketpunt","locatieNaam":"Casirate D'adda","straatNaam":"Via Bergamina","straatNr":"3","vervoerder":"PosteItaliane","puntType":"postkantoor","bezettingsgraad":50,"latitude":45.49356581,"longitude":9.56770167,"canPickup":true,"canDropoff":true,"openingstijden":{"za":"08:20 - 12:45","zo":"gesloten","ma":"08:20 - 13:45","di":"08:20 - 13:45","wo":"08:20 - 13:45","do":"08:20 - 13:45","vr":"08:20 - 13:45"}}},{"type":"Feature","geometry":{"type":"Point","coordinates":[9.567702,45.493566]},"properties":{"type":"pakketpunt","locatieNaam":"Ufficio Postale CASIRATE D'ADDA","straatNaam":"VIA BERGAMINA 3","straatNr":"","vervoerder":"DHL","puntType":"postOffice","bezettingsgraad":50,"latitude":45.493566,"longitude":9.567702,"canPickup":true,"canDropoff":true,"openingstijden":{"ma":"08:20 - 13:45","di":"08:20 - 13:45","wo":"08:20 - 13:45","do":"08:20 - 13:45","vr":"08:20 - 13:45","za":"08:20 - 12:45","zo":"gesloten"}}},{"type":"Feature","geometry":{"type":"Point","coordinates":[9.5696008,45.4935294]},"properties":{"type":"pakketpunt","locatieNaam":"Amazon Counter - PRIMAEDICOLA","straatNaam":"LA BOTTEGA DI GIANNA DI TRAVI","straatNr":"","vervoerder":"Amazon","puntType":"helix","bezettingsgraad":50,"latitude":45.4935294,"longitude":9.5696008,"canPickup":true,"canDropoff":false,"openingstijden":null}},{"type":"Feature","geometry":{"type":"Point","coordinates":[9.548997,45.490816]},"properties":{"type":"pakketpunt","locatieNaam":"Amazon Locker - goffredo","straatNaam":"Amazon LIN8","straatNr":"","vervoerder":"Amazon","puntType":"locker","bezettingsgraad":50,"latitude":45.490816,"longitude":9.548997,"canPickup":true,"canDropoff":false,"openingstijden":null}},{"type":"Feature","geometry":{"type":"Polygon","coordinates":[[[9.5184332,45.5062549],[9.520749,45.5034929],[9.5215188,45.4999401],[9.5251358,45.5006039],[9.5252833,45.4989758],[9.5255609,45.4984137],[9.5257473,45.4975451],[9.5269516,45.4969209],[9.5277241,45.4953416],[9.5279776,45.4950173],[9.5306678,45.4940387],[9.5320928,45.4933258],[9.5391153,45.4889909],[9.5392414,45.488726],[9.5396949,45.4869041],[9.5398154,45.4868645],[9.5425577,45.4875826],[9.5433828,45.4875562],[9.5444586,45.4876501],[9.5454263,45.4874745],[9.5477304,45.4882105],[9.5505103,45.4881972],[9.5532609,45.4887779],[9.5536655,45.4881144],[9.5541892,45.4876933],[9.5548438,45.4877306],[9.5551016,45.4875899],[9.55638,45.4874621],[9.5564677,45.4876012],[9.5578728,45.4875043],[9.5588589,45.4875895],[9.5590677,45.48735],[9.5598167,45.4873868],[9.561349,45.4869022],[9.5633938,45.4871217],[9.5639904,45.4856741],[9.5657796,45.4859217],[9.5656766,45.4855442],[9.5684385,45.485661],[9.5697036,45.4861228],[9.5697596,45.4853259],[9.5698498,45.4850779],[9.5708363,45.4837723],[9.5730584,45.4841302],[9.5746397,45.4842348],[9.5762301,45.4845913],[9.5809689,45.4851659],[9.5827454,45.4854269],[9.584233,45.4857388],[9.5851645,45.4857925],[9.5875407,45.486185],[9.5869631,45.4880201],[9.586805,45.4889705],[9.5865757,45.4895252],[9.5864676,45.4900614],[9.5854545,45.4926319],[9.5853975,45.4933027],[9.5847673,45.4948631],[9.5847023,45.4958491],[9.5840774,45.4979225],[9.5837371,45.499513],[9.5835057,45.4998832],[9.5832739,45.5016036],[9.5770429,45.5038855],[9.566154,45.5076484],[9.5627918,45.5088982],[9.5631767,45.5091438],[9.5637207,45.5099467],[9.5636584,45.5117157],[9.5614847,45.5116634],[9.5613473,45.5127828],[9.5609936,45.5130081],[9.5603448,45.513158],[9.5601868,45.5133024],[9.5578508,45.5128959],[9.5576283,45.5142445],[9.5569109,45.5154821],[9.5562172,45.516152],[9.554041,45.5160609],[9.5496816,45.5154532],[9.5495703,45.5158301],[9.5478307,45.5156495],[9.5478345,45.5149747],[9.5473605,45.5144995],[9.5473075,45.5141711],[9.5473294,45.5138458],[9.5474627,45.5135441],[9.5479568,45.5128339],[9.5477926,45.5122853],[9.5478863,45.51204],[9.5481604,45.5115932],[9.5488871,45.5107976],[9.549404,45.5098095],[9.55012,45.509878],[9.5501145,45.5094775],[9.5495744,45.508247],[9.5494466,45.507604],[9.547043,45.5074265],[9.5457315,45.5071538],[9.5451269,45.5071747],[9.5434123,45.5069173],[9.5409515,45.5057724],[9.5410028,45.5051106],[9.5407937,45.504495],[9.5406359,45.5033886],[9.5407905,45.5026543],[9.5412662,45.5014637],[9.5277919,45.5056521],[9.5271141,45.5059541],[9.5246772,45.5066494],[9.5244863,45.5060743],[9.5225381,45.5058042],[9.5228668,45.5069233],[9.5226652,45.5072707],[9.518902,45.5083455],[9.5183119,45.5082087],[9.5183343,45.5080331],[9.5185945,45.5077934],[9.5182652,45.5069533],[9.5182826,45.5065796],[9.5184332,45.5062549]]]},"properties":{"type":"boundary","gemeente":"Casirate d'Adda"}}]}