{"type":"FeatureCollection","metadata":{"gemeente":"Castagneto Carducci","slug":"castagneto-carducci","generated_at":"2026-09-26T13:09:45.217939Z","total_points":24,"providers":["PosteItaliane","DPD","GLS","DHL","Amazon"],"bounds":[10.5435421,43.122055,10.6093117,43.1915546]},"features":[{"type":"Feature","geometry":{"type":"Point","coordinates":[10.565874,43.166554]},"properties":{"type":"pakketpunt","locatieNaam":"Tabaccheria N. 13","straatNaam":"Via Giacomo Matteotti","straatNr":"42","vervoerder":"PosteItaliane","puntType":"servicepunt","bezettingsgraad":50,"latitude":43.166554,"longitude":10.565874,"canPickup":true,"canDropoff":true,"openingstijden":{"za":"07:00 - 13:00, 15:00 - 20:00","zo":"07:00 - 13:00","ma":"07:00 - 13:00, 15:00 - 20:00","di":"07:00 - 13:00, 15:00 - 20:00","wo":"07:00 - 13:00, 15:00 - 20:00","do":"07:00 - 13:00, 15:00 - 20:00","vr":"07:00 - 13:00, 15:00 - 20:00"}}},{"type":"Feature","geometry":{"type":"Point","coordinates":[10.56435546,43.16868722]},"properties":{"type":"pakketpunt","locatieNaam":"Tabaccheria N. 8","straatNaam":"Piazza Stazione Snc","straatNr":"1","vervoerder":"PosteItaliane","puntType":"servicepunt","bezettingsgraad":50,"latitude":43.16868722,"longitude":10.56435546,"canPickup":true,"canDropoff":true,"openingstijden":{"za":"06:00 - 13:00, 13:30 - 20:00","zo":"06:00 - 13:00, 13:30 - 20:00","ma":"06:00 - 13:00, 13:30 - 20:00","di":"06:00 - 13:00, 13:30 - 20:00","wo":"06:00 - 13:00, 13:30 - 20:00","do":"06:00 - 13:00, 13:30 - 20:00","vr":"06:00 - 13:00, 13:30 - 20:00"}}},{"type":"Feature","geometry":{"type":"Point","coordinates":[10.56454589,43.16792057]},"properties":{"type":"pakketpunt","locatieNaam":"Tabaccheria N. 3","straatNaam":"Via Aurelia","straatNr":"103","vervoerder":"PosteItaliane","puntType":"servicepunt","bezettingsgraad":50,"latitude":43.16792057,"longitude":10.56454589,"canPickup":true,"canDropoff":true,"openingstijden":{"za":"07:00 - 13:00, 14:00 - 19:30","zo":"gesloten","ma":"07:00 - 13:00, 14:00 - 19:30","di":"07:00 - 13:00, 14:00 - 19:30","wo":"07:00 - 13:00, 14:00 - 19:30","do":"07:00 - 13:00, 14:00 - 19:30","vr":"07:00 - 13:00, 14:00 - 19:30"}}},{"type":"Feature","geometry":{"type":"Point","coordinates":[10.60879556,43.15993738]},"properties":{"type":"pakketpunt","locatieNaam":"Castagneto Carducci","straatNaam":"Via Umberto I","straatNr":"14/a","vervoerder":"PosteItaliane","puntType":"postkantoor","bezettingsgraad":50,"latitude":43.15993738,"longitude":10.60879556,"canPickup":true,"canDropoff":true,"openingstijden":{"za":"08:20 - 12:45","zo":"gesloten","ma":"08:20 - 13:45","di":"08:20 - 13:45","wo":"08:20 - 13:45","do":"08:20 - 13:45","vr":"08:20 - 13:45"}}},{"type":"Feature","geometry":{"type":"Point","coordinates":[10.56720978,43.16934558]},"properties":{"type":"pakketpunt","locatieNaam":"Donoratico","straatNaam":"Via Piave","straatNr":"9","vervoerder":"PosteItaliane","puntType":"postkantoor","bezettingsgraad":50,"latitude":43.16934558,"longitude":10.56720978,"canPickup":true,"canDropoff":true,"openingstijden":{"za":"08:20 - 12:35","zo":"gesloten","ma":"08:20 - 13:35","di":"08:20 - 13:35","wo":"08:20 - 13:35","do":"08:20 - 13:35","vr":"08:20 - 13:35"}}},{"type":"Feature","geometry":{"type":"Point","coordinates":[10.5437139,43.1914516]},"properties":{"type":"pakketpunt","locatieNaam":"Free Time","straatNaam":"VIALE DELLE PALME","straatNr":"182","vervoerder":"DPD","puntType":"pickup_point","bezettingsgraad":50,"latitude":43.1914516,"longitude":10.5437139,"canPickup":true,"canDropoff":true,"openingstijden":{"ma":"10:00 - 12:30, 16:00 - 19:00","di":"10:00 - 12:30, 16:00 - 19:00","wo":"10:00 - 12:30, 16:00 - 19:00","do":"10:00 - 12:30, 16:00 - 19:00","vr":"10:00 - 12:30, 16:00 - 19:00","za":"10:00 - 12:30, 16:00 - 19:00","zo":"gesloten"}}},{"type":"Feature","geometry":{"type":"Point","coordinates":[10.56401394,43.16865639]},"properties":{"type":"pakketpunt","locatieNaam":"Tabaccheria La Stazione","straatNaam":"PIAZZA DELLA STAZIONE","straatNr":"2","vervoerder":"DPD","puntType":"pickup_point","bezettingsgraad":50,"latitude":43.16865639,"longitude":10.56401394,"canPickup":true,"canDropoff":true,"openingstijden":{"ma":"06:00 - 19:30","di":"06:00 - 19:30","wo":"06:00 - 19:30","do":"06:00 - 19:30","vr":"06:00 - 19:30","za":"06:00 - 19:30","zo":"06:00 - 12:00"}}},{"type":"Feature","geometry":{"type":"Point","coordinates":[10.564098216,43.1683045538]},"properties":{"type":"pakketpunt","locatieNaam":"Tabaccheria La Stazione","straatNaam":"Piazza Della Stazione","straatNr":"2","vervoerder":"GLS","puntType":"parcel_shop","bezettingsgraad":50,"latitude":43.1683045538,"longitude":10.564098216,"canPickup":true,"canDropoff":true,"openingstijden":"za: 10:00 - 12:00, 14:00 - 16:00; ma: 10:00 - 12:00, 14:00 - 16:00"}},{"type":"Feature","geometry":{"type":"Point","coordinates":[10.563772,43.168744]},"properties":{"type":"pakketpunt","locatieNaam":"TABACCHERIA LA STAZIONE","straatNaam":"Piazza Della Stazione 2","straatNr":"","vervoerder":"DHL","puntType":"parcelShop","bezettingsgraad":50,"latitude":43.168744,"longitude":10.563772,"canPickup":false,"canDropoff":true,"openingstijden":{"ma":"06:00 - 20:00","di":"06:00 - 20:00","wo":"06:00 - 20:00","do":"06:00 - 20:00","vr":"06:00 - 20:00","za":"06:00 - 20:00","zo":"gesloten"}}},{"type":"Feature","geometry":{"type":"Point","coordinates":[10.564355,43.168687]},"properties":{"type":"pakketpunt","locatieNaam":"TABACCHERIA N. 8","straatNaam":"PIAZZA STAZIONE SNC 1","straatNr":"","vervoerder":"DHL","puntType":"parcelShop","bezettingsgraad":50,"latitude":43.168687,"longitude":10.564355,"canPickup":true,"canDropoff":true,"openingstijden":{"ma":"06:00 - 13:00, 13:30 - 20:00","di":"06:00 - 13:00, 13:30 - 20:00","wo":"06:00 - 13:00, 13:30 - 20:00","do":"06:00 - 13:00, 13:30 - 20:00","vr":"06:00 - 13:00, 13:30 - 20:00","za":"06:00 - 13:00, 13:30 - 20:00","zo":"06:00 - 13:00, 13:30 - 20:00"}}},{"type":"Feature","geometry":{"type":"Point","coordinates":[10.564546,43.167921]},"properties":{"type":"pakketpunt","locatieNaam":"TABACCHERIA N. 3","straatNaam":"VIA AURELIA 103","straatNr":"","vervoerder":"DHL","puntType":"parcelShop","bezettingsgraad":50,"latitude":43.167921,"longitude":10.564546,"canPickup":true,"canDropoff":true,"openingstijden":{"ma":"07:00 - 13:00, 14:00 - 19:30","di":"07:00 - 13:00, 14:00 - 19:30","wo":"07:00 - 13:00, 14:00 - 19:30","do":"07:00 - 13:00, 14:00 - 19:30","vr":"07:00 - 13:00, 14:00 - 19:30","za":"07:00 - 13:00, 14:00 - 19:30","zo":"gesloten"}}},{"type":"Feature","geometry":{"type":"Point","coordinates":[10.565874,43.166554]},"properties":{"type":"pakketpunt","locatieNaam":"TABACCHERIA N. 13","straatNaam":"VIA GIACOMO MATTEOTTI 42","straatNr":"","vervoerder":"DHL","puntType":"parcelShop","bezettingsgraad":50,"latitude":43.166554,"longitude":10.565874,"canPickup":true,"canDropoff":true,"openingstijden":{"ma":"07:00 - 13:00, 15:00 - 20:00","di":"07:00 - 13:00, 15:00 - 20:00","wo":"07:00 - 13:00, 15:00 - 20:00","do":"07:00 - 13:00, 15:00 - 20:00","vr":"07:00 - 13:00, 15:00 - 20:00","za":"07:00 - 13:00, 15:00 - 20:00","zo":"07:00 - 13:00"}}},{"type":"Feature","geometry":{"type":"Point","coordinates":[10.56721,43.169346]},"properties":{"type":"pakketpunt","locatieNaam":"Ufficio Postale DONORATICO","straatNaam":"VIA PIAVE 9","straatNr":"","vervoerder":"DHL","puntType":"postOffice","bezettingsgraad":50,"latitude":43.169346,"longitude":10.56721,"canPickup":true,"canDropoff":true,"openingstijden":{"ma":"08:20 - 13:35","di":"08:20 - 13:35","wo":"08:20 - 13:35","do":"08:20 - 13:35","vr":"08:20 - 13:35","za":"08:20 - 12:35","zo":"gesloten"}}},{"type":"Feature","geometry":{"type":"Point","coordinates":[10.608796,43.159937]},"properties":{"type":"pakketpunt","locatieNaam":"Ufficio Postale CASTAGNETO CARDUCCI","straatNaam":"VIA UMBERTO I 14-A","straatNr":"","vervoerder":"DHL","puntType":"postOffice","bezettingsgraad":50,"latitude":43.159937,"longitude":10.608796,"canPickup":true,"canDropoff":true,"openingstijden":{"ma":"08:20 - 13:45","di":"08:20 - 13:45","wo":"08:20 - 13:45","do":"08:20 - 13:45","vr":"08:20 - 13:45","za":"08:20 - 12:45","zo":"gesloten"}}},{"type":"Feature","geometry":{"type":"Point","coordinates":[10.545606,43.122055]},"properties":{"type":"pakketpunt","locatieNaam":"Amazon Counter - Enilive Station (n.05098)","straatNaam":"S.S. 1 VARIANTE AURELIA KM 257+665 SNC","straatNr":"","vervoerder":"Amazon","puntType":"helix","bezettingsgraad":50,"latitude":43.122055,"longitude":10.545606,"canPickup":true,"canDropoff":false,"openingstijden":null}},{"type":"Feature","geometry":{"type":"Point","coordinates":[10.5662715,43.1733372]},"properties":{"type":"pakketpunt","locatieNaam":"Amazon Locker - Merluzzo","straatNaam":"STAZIONE TAMOIL - PV 8093","straatNr":"","vervoerder":"Amazon","puntType":"locker","bezettingsgraad":50,"latitude":43.1733372,"longitude":10.5662715,"canPickup":true,"canDropoff":false,"openingstijden":null}},{"type":"Feature","geometry":{"type":"Point","coordinates":[10.56412,43.16865]},"properties":{"type":"pakketpunt","locatieNaam":"Amazon Counter - PRIMAEDICOLA","straatNaam":"DELTA SNC DI SALVESTRINI DARIO","straatNr":"","vervoerder":"Amazon","puntType":"helix","bezettingsgraad":50,"latitude":43.16865,"longitude":10.56412,"canPickup":true,"canDropoff":false,"openingstijden":null}},{"type":"Feature","geometry":{"type":"Point","coordinates":[10.5435421,43.1915546]},"properties":{"type":"pakketpunt","locatieNaam":"Amazon Counter (fermopoint)","straatNaam":"Free Time","straatNr":"","vervoerder":"Amazon","puntType":"helix","bezettingsgraad":50,"latitude":43.1915546,"longitude":10.5435421,"canPickup":true,"canDropoff":false,"openingstijden":null}},{"type":"Feature","geometry":{"type":"Point","coordinates":[10.5642966,43.165894]},"properties":{"type":"pakketpunt","locatieNaam":"Amazon Counter - MAIELLI","straatNaam":"VIA AURELIA 191","straatNr":"","vervoerder":"Amazon","puntType":"helix","bezettingsgraad":50,"latitude":43.165894,"longitude":10.5642966,"canPickup":true,"canDropoff":false,"openingstijden":null}},{"type":"Feature","geometry":{"type":"Point","coordinates":[10.5672,43.1693]},"properties":{"type":"pakketpunt","locatieNaam":"Ufficio Postale DONORATICO","straatNaam":"VIA PIAVE 9","straatNr":"","vervoerder":"Amazon","puntType":"3p","bezettingsgraad":50,"latitude":43.1693,"longitude":10.5672,"canPickup":true,"canDropoff":false,"openingstijden":null}},{"type":"Feature","geometry":{"type":"Point","coordinates":[10.6087,43.1599]},"properties":{"type":"pakketpunt","locatieNaam":"Ufficio Postale CASTAGNETO CARDUCCI","straatNaam":"VIA UMBERTO I 14-A","straatNr":"","vervoerder":"Amazon","puntType":"3p","bezettingsgraad":50,"latitude":43.1599,"longitude":10.6087,"canPickup":true,"canDropoff":false,"openingstijden":null}},{"type":"Feature","geometry":{"type":"Point","coordinates":[10.5645,43.1679]},"properties":{"type":"pakketpunt","locatieNaam":"PuntoPoste TABACCHERIA N. 3","straatNaam":"VIA AURELIA 103","straatNr":"","vervoerder":"Amazon","puntType":"3p","bezettingsgraad":50,"latitude":43.1679,"longitude":10.5645,"canPickup":true,"canDropoff":false,"openingstijden":null}},{"type":"Feature","geometry":{"type":"Point","coordinates":[10.5643,43.1686]},"properties":{"type":"pakketpunt","locatieNaam":"PuntoPoste TABACCHERIA N. 8","straatNaam":"PIAZZA STAZIONE SNC 1","straatNr":"","vervoerder":"Amazon","puntType":"3p","bezettingsgraad":50,"latitude":43.1686,"longitude":10.5643,"canPickup":true,"canDropoff":false,"openingstijden":null}},{"type":"Feature","geometry":{"type":"Point","coordinates":[10.6093117,43.1604831]},"properties":{"type":"pakketpunt","locatieNaam":"Amazon Counter - PRIMAEDICOLA","straatNaam":"MICHELETTI ARIANNA","straatNr":"","vervoerder":"Amazon","puntType":"helix","bezettingsgraad":50,"latitude":43.1604831,"longitude":10.6093117,"canPickup":true,"canDropoff":false,"openingstijden":null}},{"type":"Feature","geometry":{"type":"Polygon","coordinates":[[[10.5279399,43.2315881],[10.5333222,43.2326585],[10.5545423,43.2377885],[10.5563045,43.2380992],[10.5640174,43.239093],[10.5699312,43.2397327],[10.5723441,43.2398726],[10.5767096,43.2398675],[10.6001851,43.2417492],[10.6035575,43.2420895],[10.6058811,43.2424178],[10.6181117,43.2435633],[10.6248499,43.2431814],[10.6261426,43.2432938],[10.6341776,43.2443521],[10.6428851,43.2469717],[10.6457368,43.2472902],[10.6513185,43.2468994],[10.6516618,43.2468139],[10.6498031,43.2440227],[10.6501684,43.2421396],[10.6488525,43.2413685],[10.64844,43.2409379],[10.6483026,43.2405948],[10.6483005,43.2402411],[10.6483761,43.2400766],[10.6477796,43.2399754],[10.6472546,43.2395402],[10.6470157,43.2394673],[10.64649,43.2394974],[10.6457476,43.2392501],[10.6445347,43.2394607],[10.6442498,43.2393575],[10.6437456,43.238742],[10.6440637,43.2388018],[10.6443142,43.2387639],[10.6443222,43.238622],[10.6448785,43.2386142],[10.6452873,43.2385201],[10.6455657,43.2380284],[10.6456317,43.2377416],[10.6457915,43.2376153],[10.6460603,43.2376232],[10.6465206,43.2373097],[10.647174,43.2371757],[10.6476031,43.2368036],[10.648087,43.2367231],[10.6483354,43.2363503],[10.6486143,43.2362248],[10.6490982,43.2361771],[10.6495482,43.2360267],[10.6501925,43.2355995],[10.6507912,43.2350027],[10.6515191,43.2346518],[10.6519923,43.2345369],[10.6524423,43.2345216],[10.6531639,43.234887],[10.6535147,43.2348495],[10.6536236,43.2347405],[10.6540849,43.2347608],[10.6546305,43.2349957],[10.6549851,43.2352712],[10.6567339,43.2356601],[10.6579784,43.2361756],[10.6589156,43.2358485],[10.6608441,43.2361685],[10.6615227,43.2359653],[10.6619492,43.235739],[10.6623054,43.2354877],[10.6624448,43.2348261],[10.6623558,43.2344243],[10.6624234,43.2338408],[10.6627849,43.2322853],[10.6630639,43.2317381],[10.6630891,43.231511],[10.662197,43.2300738],[10.6618982,43.2289939],[10.6617657,43.2287727],[10.6620479,43.2284291],[10.6621734,43.2280957],[10.6630972,43.2275297],[10.6633225,43.2269129],[10.6640536,43.2264384],[10.664493,43.2262871],[10.6647381,43.2259678],[10.6649023,43.2255061],[10.6654924,43.2253572],[10.6662117,43.2249976],[10.6664891,43.2244671],[10.6667541,43.2243268],[10.6673806,43.2243256],[10.6676478,43.2242396],[10.6689326,43.223176],[10.6703488,43.2223805],[10.6709753,43.2223653],[10.6712248,43.2221724],[10.6719479,43.2224962],[10.6742356,43.2231737],[10.6748192,43.223881],[10.6753495,43.2239007],[10.6756282,43.2241155],[10.6766927,43.2241503],[10.676755,43.2245142],[10.6770983,43.2247023],[10.6778557,43.2246665],[10.6794053,43.2250736],[10.6805543,43.2249282],[10.6811766,43.2249434],[10.6816492,43.2251193],[10.6825485,43.2250111],[10.6831231,43.2250486],[10.6838575,43.2253783],[10.6842595,43.2254747],[10.6845937,43.225269],[10.6865555,43.2250849],[10.6869495,43.2248037],[10.6879248,43.2250025],[10.6884169,43.2248895],[10.6895545,43.2242279],[10.6899101,43.2241736],[10.6895333,43.2238573],[10.6889874,43.2230241],[10.6887726,43.2224343],[10.688745,43.2216485],[10.6883853,43.2210772],[10.687726,43.2205423],[10.6874031,43.2199121],[10.6871528,43.2196977],[10.686858,43.2190964],[10.6863524,43.2183691],[10.6859399,43.2180122],[10.6853488,43.2177626],[10.6848155,43.2150158],[10.6868755,43.21274],[10.6911278,43.2096925],[10.6904841,43.2096851],[10.6902856,43.2095876],[10.6902695,43.2094265],[10.6908843,43.2088232],[10.6909272,43.2085397],[10.6908543,43.2083505],[10.6906075,43.2082269],[10.6899654,43.2082664],[10.6895765,43.2081733],[10.6893839,43.2079532],[10.6892353,43.2075157],[10.6894027,43.2067032],[10.689341,43.206476],[10.6885138,43.2060295],[10.6877113,43.2058492],[10.6875063,43.2056995],[10.6873357,43.2052404],[10.6874323,43.2049757],[10.6876989,43.2047071],[10.6881404,43.2045119],[10.6883083,43.2043321],[10.6882359,43.2040572],[10.6873905,43.2038492],[10.6872896,43.20376],[10.6873137,43.2036619],[10.6879151,43.2032442],[10.6879253,43.2030976],[10.6874178,43.2028868],[10.686295,43.2026417],[10.6859587,43.2024563],[10.6852511,43.2017751],[10.6849947,43.2013911],[10.6848971,43.2010701],[10.6846428,43.2007745],[10.6843172,43.1991559],[10.684086,43.1989682],[10.6822176,43.1981783],[10.6818758,43.1979256],[10.6809161,43.1977164],[10.6806946,43.1975303],[10.6806093,43.1970762],[10.6808545,43.1965827],[10.6807665,43.195817],[10.6799012,43.1952851],[10.6796185,43.1941252],[10.6793283,43.1939703],[10.6784405,43.1937892],[10.6782243,43.1936254],[10.6781835,43.1933981],[10.6779899,43.1933668],[10.6779271,43.1932808],[10.6776658,43.1932753],[10.6771444,43.1934552],[10.6767898,43.1934846],[10.6762609,43.193508],[10.6757379,43.1934232],[10.6752631,43.1935561],[10.6747497,43.1935632],[10.6725932,43.1939543],[10.670963,43.1947063],[10.6705768,43.1947274],[10.6699518,43.1946027],[10.6696101,43.1946496],[10.668968,43.1950489],[10.6681051,43.1950442],[10.6675512,43.1952151],[10.6630537,43.1949957],[10.6620243,43.1946261],[10.661394,43.1944955],[10.6609213,43.1944795],[10.6599413,43.1946105],[10.6590663,43.1942965],[10.6583105,43.1942832],[10.6573771,43.1940712],[10.6562634,43.1940649],[10.6558434,43.1942425],[10.6552957,43.1940548],[10.6550183,43.1940704],[10.6540941,43.1943622],[10.653379,43.1943387],[10.6524456,43.1936887],[10.6516286,43.1933747],[10.6514784,43.1932495],[10.6502794,43.1929679],[10.6476187,43.1926163],[10.6467705,43.192772],[10.6458269,43.1926402],[10.6446763,43.1920453],[10.6444413,43.1918122],[10.644451,43.191637],[10.6440653,43.1913887],[10.6440996,43.1911368],[10.6438287,43.190865],[10.6432713,43.1907551],[10.6434865,43.1906694],[10.6435616,43.1904262],[10.6431083,43.1898403],[10.6431211,43.1897053],[10.6437434,43.189254],[10.6439993,43.1888633],[10.6442391,43.1887385],[10.6445915,43.1887295],[10.6447863,43.1886122],[10.6449788,43.1883231],[10.6451902,43.1875698],[10.6452122,43.1870934],[10.644989,43.1861934],[10.6451178,43.1857491],[10.6456521,43.1850681],[10.6453737,43.1846672],[10.6454498,43.1844908],[10.645533,43.1844188],[10.6461676,43.184472],[10.6463087,43.18442],[10.6464229,43.1842702],[10.6464358,43.1840441],[10.646799,43.1838614],[10.6470162,43.1833623],[10.6471675,43.1826727],[10.6473499,43.18251],[10.6473499,43.1820339],[10.6478413,43.1815778],[10.6482184,43.1814597],[10.6486116,43.1814632],[10.6487522,43.1813685],[10.6487334,43.1810763],[10.6485687,43.1809042],[10.6487012,43.1806801],[10.6486481,43.1802866],[10.649191,43.1797698],[10.6488283,43.1793332],[10.649022,43.1789045],[10.6493004,43.1787148],[10.6494935,43.1783717],[10.6494533,43.1780584],[10.6490649,43.1777521],[10.6489158,43.1775354],[10.6488525,43.177073],[10.6490011,43.176539],[10.6477549,43.1743181],[10.6479185,43.1741452],[10.6481079,43.1734343],[10.6483434,43.1732376],[10.6484233,43.1730423],[10.6483343,43.1726984],[10.6486459,43.1725169],[10.6487538,43.1723088],[10.6487221,43.171415],[10.6489893,43.1708295],[10.6493782,43.1705612],[10.6492376,43.1704285],[10.6488187,43.1704219],[10.6486476,43.1702712],[10.6490531,43.1696453],[10.6491727,43.168826],[10.6497065,43.168315],[10.6516844,43.1670012],[10.6519917,43.1666643],[10.6530024,43.1659545],[10.6538693,43.1657566],[10.6543837,43.1653508],[10.6545017,43.1648206],[10.6544937,43.1644274],[10.6540946,43.1641383],[10.6540753,43.1638718],[10.6539798,43.1637873],[10.6541847,43.1635529],[10.6508325,43.1604773],[10.6492575,43.1596697],[10.6382588,43.1561337],[10.6374579,43.15578],[10.6333171,43.1525698],[10.6333032,43.1524535],[10.6347859,43.1492424],[10.6324465,43.1425515],[10.6331744,43.1396862],[10.6336159,43.1327093],[10.630481,43.1299532],[10.6270257,43.1283316],[10.6294547,43.1268861],[10.6312245,43.1251215],[10.6324347,43.1229787],[10.6350536,43.1190631],[10.6368989,43.1172125],[10.6388956,43.1143324],[10.6368244,43.1095915],[10.6367471,43.1096013],[10.6368212,43.1093198],[10.6337876,43.1055835],[10.6265757,43.0983755],[10.5968759,43.1011523],[10.5912848,43.101783],[10.5902409,43.1017971],[10.5899437,43.1019961],[10.5896632,43.1020729],[10.5889014,43.1020639],[10.5883119,43.1021841],[10.5867358,43.1029596],[10.5862514,43.103137],[10.5858544,43.1031218],[10.5857493,43.1035702],[10.5855546,43.103647],[10.5850836,43.1036235],[10.5842338,43.1039208],[10.5839898,43.1042599],[10.5835139,43.104587],[10.5829346,43.1054964],[10.5826374,43.1057377],[10.5820548,43.1057956],[10.5819481,43.1058896],[10.5819899,43.106015],[10.5818306,43.106098],[10.5815924,43.1060999],[10.5811643,43.1063737],[10.5800072,43.1065319],[10.578914,43.1065621],[10.5782557,43.1064129],[10.578046,43.1064838],[10.5774881,43.106765],[10.5765944,43.1070411],[10.5758654,43.1073701],[10.5751771,43.1077985],[10.5747184,43.1083378],[10.572842,43.1091465],[10.5704886,43.1092808],[10.5695547,43.1094998],[10.5691362,43.1094994],[10.5688181,43.1093831],[10.5685054,43.109004],[10.5674545,43.1085587],[10.5670151,43.1084878],[10.565085,43.1086848],[10.5628175,43.1082755],[10.5610692,43.1085364],[10.559932,43.1086209],[10.5583688,43.1089899],[10.5574134,43.1088403],[10.5570261,43.1085364],[10.5566168,43.1083542],[10.5564451,43.1083542],[10.555568,43.1086386],[10.5549656,43.1087228],[10.5461999,43.112601],[10.5436834,43.1130273],[10.5419676,43.1135089],[10.5416575,43.1134858],[10.540697,43.113692],[10.5401829,43.1135559],[10.5395686,43.1136184],[10.5388767,43.113488],[10.5390725,43.1154049],[10.5390698,43.1161646],[10.5391717,43.1166423],[10.5391046,43.1168499],[10.5392548,43.118191],[10.5391905,43.1184632],[10.5393192,43.1189761],[10.5392414,43.1192835],[10.5394962,43.1211375],[10.5393702,43.1215722],[10.5395392,43.1221125],[10.5394158,43.1234144],[10.5395552,43.1239116],[10.5394345,43.1242072],[10.5396062,43.12519],[10.5395687,43.1274667],[10.5397055,43.1284102],[10.5398047,43.1286295],[10.5396733,43.1298001],[10.539806,43.1307338],[10.5398101,43.1320746],[10.5397028,43.1325973],[10.5398369,43.1333117],[10.5398369,43.1345233],[10.5396974,43.1347523],[10.5397671,43.1357956],[10.5396894,43.1365022],[10.5398503,43.1373164],[10.5397001,43.137565],[10.5396867,43.1379388],[10.5398637,43.1386316],[10.5397296,43.1391209],[10.5397511,43.1404518],[10.539684,43.1407982],[10.5397779,43.1425342],[10.5396706,43.1431409],[10.5397081,43.1450353],[10.539566,43.1467437],[10.5396438,43.1478827],[10.539574,43.1481273],[10.5396652,43.1488474],[10.5395499,43.1492897],[10.5393863,43.1547667],[10.53922,43.1561051],[10.5392897,43.1562362],[10.5392897,43.156788],[10.5391824,43.1570951],[10.5390912,43.1587328],[10.5391476,43.1589588],[10.5388793,43.1617556],[10.5389303,43.1622428],[10.5387747,43.163131],[10.5386487,43.1661028],[10.5384314,43.1672981],[10.5383617,43.1692935],[10.5382463,43.1695478],[10.5381739,43.1708662],[10.5380318,43.171502],[10.538072,43.1717817],[10.5375811,43.1760225],[10.537616,43.1763902],[10.5370501,43.1815421],[10.5369616,43.1817553],[10.5369294,43.1828369],[10.5368274,43.1836173],[10.5367067,43.1838422],[10.5366075,43.1853989],[10.536299,43.18694],[10.5363634,43.1871121],[10.5363259,43.1876186],[10.5360737,43.1888292],[10.5359986,43.1899771],[10.5355695,43.1922142],[10.5355641,43.1926522],[10.535379,43.1932291],[10.5354193,43.1937786],[10.5351081,43.1959002],[10.5349955,43.1961779],[10.5347165,43.1983854],[10.5346253,43.1985712],[10.534687,43.1989466],[10.5338609,43.2034729],[10.5337858,43.2045502],[10.5335766,43.2050526],[10.5335578,43.2057447],[10.5330053,43.2080595],[10.5328926,43.2095726],[10.5325279,43.2107221],[10.5323642,43.2120475],[10.5321175,43.2127884],[10.5319485,43.2139418],[10.5318332,43.2141939],[10.530425,43.2211409],[10.5299529,43.2230915],[10.5299073,43.2236192],[10.5295399,43.2249502],[10.5287781,43.2285795],[10.5279399,43.2315881]]]},"properties":{"type":"boundary","gemeente":"Castagneto Carducci"}}]}