{"type":"FeatureCollection","metadata":{"gemeente":"Castagnole delle Lanze","slug":"castagnole-delle-lanze","generated_at":"2026-09-26T14:27:06.801970Z","total_points":15,"providers":["PosteItaliane","DPD","GLS","DHL","Amazon","FedEx"],"bounds":[8.14981,44.7489,8.1512573,44.75457831]},"features":[{"type":"Feature","geometry":{"type":"Point","coordinates":[8.15017351,44.74938186]},"properties":{"type":"pakketpunt","locatieNaam":"Tabaccheria N. 2","straatNaam":"Via Fratelli Vicari","straatNr":"3","vervoerder":"PosteItaliane","puntType":"servicepunt","bezettingsgraad":50,"latitude":44.74938186,"longitude":8.15017351,"canPickup":true,"canDropoff":true,"openingstijden":{"za":"07:00 - 13:00, 15:30 - 20:00","zo":"08:00 - 13:00","ma":"07:00 - 13:00, 15:30 - 20:00","di":"07:00 - 13:00, 15:30 - 20:00","wo":"07:00 - 13:00, 15:30 - 20:00","do":"07:00 - 13:00, 15:30 - 20:00","vr":"07:00 - 13:00, 15:30 - 20:00"}}},{"type":"Feature","geometry":{"type":"Point","coordinates":[8.1512573,44.74895585]},"properties":{"type":"pakketpunt","locatieNaam":"San Bartolomeo Lanze","straatNaam":"Via Luigi Tagliaferro","straatNr":"56","vervoerder":"PosteItaliane","puntType":"postkantoor","bezettingsgraad":50,"latitude":44.74895585,"longitude":8.1512573,"canPickup":true,"canDropoff":true,"openingstijden":{"za":"08:20 - 12:35","zo":"gesloten","ma":"08:20 - 13:35","di":"08:20 - 13:35","wo":"08:20 - 13:35","do":"08:20 - 13:35","vr":"08:20 - 13:35"}}},{"type":"Feature","geometry":{"type":"Point","coordinates":[8.15005945,44.75398151]},"properties":{"type":"pakketpunt","locatieNaam":"Castagnole Lanze","straatNaam":"Via Ener Bettica","straatNr":"19","vervoerder":"PosteItaliane","puntType":"postkantoor","bezettingsgraad":50,"latitude":44.75398151,"longitude":8.15005945,"canPickup":true,"canDropoff":true,"openingstijden":{"za":"gesloten","zo":"gesloten","ma":"gesloten","di":"08:20 - 13:45","wo":"gesloten","do":"08:20 - 13:45","vr":"gesloten"}}},{"type":"Feature","geometry":{"type":"Point","coordinates":[8.14981376,44.75457831]},"properties":{"type":"pakketpunt","locatieNaam":"Tabaccheria N. 1","straatNaam":"Piazza Guglielmo Marconi","straatNr":"20","vervoerder":"PosteItaliane","puntType":"servicepunt","bezettingsgraad":50,"latitude":44.75457831,"longitude":8.14981376,"canPickup":true,"canDropoff":true,"openingstijden":{"za":"07:15 - 12:30, 14:00 - 19:30","zo":"08:30 - 12:30","ma":"07:15 - 12:30, 15:30 - 19:30","di":"07:15 - 12:30, 15:30 - 19:30","wo":"07:15 - 12:30, 15:30 - 19:30","do":"07:15 - 12:30, 15:30 - 19:30","vr":"07:15 - 12:30, 15:30 - 19:30"}}},{"type":"Feature","geometry":{"type":"Point","coordinates":[8.15020567,44.74939604]},"properties":{"type":"pakketpunt","locatieNaam":"Tabaccheria Lo Scarabocchio","straatNaam":"VIA FRATELLI VICARI","straatNr":"3","vervoerder":"DPD","puntType":"pickup_point","bezettingsgraad":50,"latitude":44.74939604,"longitude":8.15020567,"canPickup":true,"canDropoff":true,"openingstijden":{"ma":"07:00 - 13:00, 15:30 - 20:00","di":"07:00 - 13:00, 15:30 - 20:00","wo":"07:00 - 13:00, 15:30 - 20:00","do":"07:00 - 13:00, 15:30 - 20:00","vr":"07:00 - 13:00, 15:30 - 20:00","za":"07:00 - 13:00, 15:30 - 20:00","zo":"08:30 - 13:00"}}},{"type":"Feature","geometry":{"type":"Point","coordinates":[8.1502057,44.7494017]},"properties":{"type":"pakketpunt","locatieNaam":"TABACCHERIA LO SCARABOCCHIO","straatNaam":"Via Fratelli Vicari","straatNr":"3","vervoerder":"GLS","puntType":"parcel_shop","bezettingsgraad":50,"latitude":44.7494017,"longitude":8.1502057,"canPickup":true,"canDropoff":true,"openingstijden":"za: 07:00 - 13:00, 15:30 - 19:30; zo: 08:30 - 12:30"}},{"type":"Feature","geometry":{"type":"Point","coordinates":[8.151257,44.748956]},"properties":{"type":"pakketpunt","locatieNaam":"Ufficio Postale SAN BARTOLOMEO LANZ","straatNaam":"VIA LUIGI TAGLIAFERRO 56","straatNr":"","vervoerder":"DHL","puntType":"postOffice","bezettingsgraad":50,"latitude":44.748956,"longitude":8.151257,"canPickup":true,"canDropoff":true,"openingstijden":{"ma":"08:20 - 13:35","di":"08:20 - 13:35","wo":"08:20 - 13:35","do":"08:20 - 13:35","vr":"08:20 - 13:35","za":"08:20 - 12:35","zo":"gesloten"}}},{"type":"Feature","geometry":{"type":"Point","coordinates":[8.150247,44.749354]},"properties":{"type":"pakketpunt","locatieNaam":"TABACCHERIA LO SCARABOCCHIO","straatNaam":"Via Fratelli Vicari 3","straatNr":"","vervoerder":"DHL","puntType":"parcelShop","bezettingsgraad":50,"latitude":44.749354,"longitude":8.150247,"canPickup":false,"canDropoff":true,"openingstijden":{"ma":"07:00 - 19:30","di":"07:00 - 19:30","wo":"07:00 - 19:30","do":"07:00 - 19:30","vr":"07:00 - 19:30","za":"07:00 - 19:30","zo":"gesloten"}}},{"type":"Feature","geometry":{"type":"Point","coordinates":[8.150174,44.749382]},"properties":{"type":"pakketpunt","locatieNaam":"TABACCHERIA n. 2","straatNaam":"VIA FRATELLI VICARI 3","straatNr":"","vervoerder":"DHL","puntType":"parcelShop","bezettingsgraad":50,"latitude":44.749382,"longitude":8.150174,"canPickup":true,"canDropoff":true,"openingstijden":{"ma":"07:00 - 13:00, 15:30 - 20:00","di":"07:00 - 13:00, 15:30 - 20:00","wo":"07:00 - 13:00, 15:30 - 20:00","do":"07:00 - 13:00, 15:30 - 20:00","vr":"07:00 - 13:00, 15:30 - 20:00","za":"07:00 - 13:00, 15:30 - 20:00","zo":"08:00 - 13:00"}}},{"type":"Feature","geometry":{"type":"Point","coordinates":[8.149814,44.754578]},"properties":{"type":"pakketpunt","locatieNaam":"TABACCHERIA N. 1","straatNaam":"PIAZZA GUGLIELMO MARCONI 20","straatNr":"","vervoerder":"DHL","puntType":"parcelShop","bezettingsgraad":50,"latitude":44.754578,"longitude":8.149814,"canPickup":true,"canDropoff":true,"openingstijden":{"ma":"07:15 - 12:30, 15:30 - 19:30","di":"07:15 - 12:30, 15:30 - 19:30","wo":"07:15 - 12:30, 15:30 - 19:30","do":"07:15 - 12:30, 15:30 - 19:30","vr":"07:15 - 12:30, 15:30 - 19:30","za":"07:15 - 12:30, 14:00 - 19:30","zo":"08:30 - 12:30"}}},{"type":"Feature","geometry":{"type":"Point","coordinates":[8.1501731,44.7493708]},"properties":{"type":"pakketpunt","locatieNaam":"Amazon Counter","straatNaam":"Tabaccheria Lo Scarabocchio (fermopoint)","straatNr":"","vervoerder":"Amazon","puntType":"helix","bezettingsgraad":50,"latitude":44.7493708,"longitude":8.1501731,"canPickup":true,"canDropoff":false,"openingstijden":null}},{"type":"Feature","geometry":{"type":"Point","coordinates":[8.14981,44.7545]},"properties":{"type":"pakketpunt","locatieNaam":"PuntoPoste TABACCHERIA N. 1","straatNaam":"PIAZZA GUGLIELMO MARCONI 20","straatNr":"","vervoerder":"Amazon","puntType":"3p","bezettingsgraad":50,"latitude":44.7545,"longitude":8.14981,"canPickup":true,"canDropoff":false,"openingstijden":null}},{"type":"Feature","geometry":{"type":"Point","coordinates":[8.15125,44.7489]},"properties":{"type":"pakketpunt","locatieNaam":"Ufficio Postale SAN BARTOLOMEO LANZE","straatNaam":"VIA LUIGI TAGLIAFERRO 56","straatNr":"","vervoerder":"Amazon","puntType":"3p","bezettingsgraad":50,"latitude":44.7489,"longitude":8.15125,"canPickup":true,"canDropoff":false,"openingstijden":null}},{"type":"Feature","geometry":{"type":"Point","coordinates":[8.15017,44.7493]},"properties":{"type":"pakketpunt","locatieNaam":"PuntoPoste TABACCHERIA n. 2","straatNaam":"VIA FRATELLI VICARI 3","straatNr":"","vervoerder":"Amazon","puntType":"3p","bezettingsgraad":50,"latitude":44.7493,"longitude":8.15017,"canPickup":true,"canDropoff":false,"openingstijden":null}},{"type":"Feature","geometry":{"type":"Point","coordinates":[8.150255236671192,44.74941004938277]},"properties":{"type":"pakketpunt","locatieNaam":"FedEx OnSite","straatNaam":"Via Fratelli Vicari, 3","straatNr":"","vervoerder":"FedEx","puntType":"servicepunt","bezettingsgraad":50,"latitude":44.74941004938277,"longitude":8.150255236671192,"canPickup":true,"canDropoff":true,"openingstijden":{"ma":"07:00 - 13:00, 15:30 - 19:30","di":"07:00 - 13:00, 15:30 - 19:30","wo":"07:00 - 13:00, 15:30 - 19:30","do":"07:00 - 13:00, 15:30 - 19:30","vr":"07:00 - 13:00, 15:30 - 19:30","za":"07:00 - 13:00, 15:30 - 19:30","zo":"08:30 - 12:30"}}},{"type":"Feature","geometry":{"type":"Polygon","coordinates":[[[8.0969739,44.7572642],[8.0981964,44.7566437],[8.0990395,44.7560517],[8.1025742,44.7542521],[8.1036599,44.7534594],[8.1089887,44.7506024],[8.1096551,44.7505761],[8.1105907,44.7501647],[8.1114061,44.7495364],[8.1116716,44.7491109],[8.1123161,44.7484497],[8.1126506,44.7483488],[8.1128934,44.7484407],[8.1140793,44.7484904],[8.1148569,44.7481319],[8.11538,44.7480009],[8.1154586,44.7477449],[8.1164838,44.7486216],[8.1172562,44.7498294],[8.117541,44.7501511],[8.1176678,44.7506923],[8.1181304,44.7517131],[8.1198769,44.7517176],[8.1206703,44.7515391],[8.1229031,44.7506921],[8.1244466,44.7496011],[8.125893,44.7479783],[8.1298391,44.7477969],[8.1305215,44.7473025],[8.1311471,44.7469967],[8.1325951,44.7468861],[8.1331959,44.7466747],[8.1333156,44.7464595],[8.1340041,44.74574],[8.1348688,44.7444593],[8.1355387,44.7439827],[8.1358482,44.743634],[8.1362053,44.7434612],[8.1364081,44.7410816],[8.1376627,44.7381968],[8.1380548,44.7383213],[8.1382773,44.7385436],[8.1389972,44.7388641],[8.140497,44.739294],[8.1410912,44.739573],[8.142598,44.7406016],[8.1455388,44.7371083],[8.1457054,44.7370555],[8.146904,44.7374606],[8.1476122,44.7376144],[8.1482619,44.7374482],[8.1492976,44.7368032],[8.1498906,44.7373838],[8.1516732,44.7384503],[8.152495,44.7391541],[8.1529403,44.7388243],[8.1535512,44.7377486],[8.153874,44.7375889],[8.154892,44.7375064],[8.1554847,44.7373488],[8.1564778,44.7369105],[8.1584676,44.7357864],[8.1588409,44.7357396],[8.1591495,44.7353593],[8.1598704,44.7351801],[8.1603004,44.7349177],[8.1612849,44.7345243],[8.1617788,44.7342174],[8.1620802,44.7338955],[8.1626992,44.7334499],[8.1629639,44.7330467],[8.163274,44.732779],[8.1635965,44.7327183],[8.1641468,44.7329834],[8.1649373,44.7330657],[8.1653545,44.7330102],[8.166822,44.7333315],[8.1670752,44.7334549],[8.167973,44.733538],[8.1687377,44.733359],[8.1692117,44.7333354],[8.1695401,44.7331623],[8.1704052,44.7325564],[8.1705626,44.7321479],[8.1711754,44.7317968],[8.171491,44.731475],[8.1718513,44.7314461],[8.1726419,44.7317399],[8.1737178,44.7324319],[8.1742945,44.7330347],[8.1751568,44.7343418],[8.1750827,44.735417],[8.175305,44.7359948],[8.175609,44.7362355],[8.1760393,44.7363962],[8.1764944,44.7364489],[8.1782144,44.7364523],[8.1785121,44.7367245],[8.178963,44.737664],[8.1795407,44.7394281],[8.1798481,44.7410012],[8.1805408,44.7427931],[8.1806429,44.7432755],[8.1806699,44.7440724],[8.1809997,44.7447319],[8.181516,44.7467206],[8.1821888,44.7480533],[8.1824436,44.7488248],[8.1821993,44.7488726],[8.182065,44.7492722],[8.1822619,44.7497867],[8.1820853,44.7501005],[8.1818387,44.7501483],[8.1817129,44.7503049],[8.1815714,44.7511997],[8.1816852,44.7524113],[8.1815838,44.7528786],[8.1813478,44.7530435],[8.1793993,44.753025],[8.1788733,44.7531428],[8.1789461,44.7533548],[8.1794823,44.7540789],[8.1793259,44.7544198],[8.179324,44.7556666],[8.1794133,44.7562749],[8.178418,44.7591935],[8.1781758,44.759239],[8.1756183,44.7590473],[8.1752612,44.7598369],[8.1755734,44.7602037],[8.1753749,44.7605084],[8.1757812,44.7609209],[8.1755051,44.761342],[8.1753137,44.7614802],[8.1746043,44.7617136],[8.1741404,44.7621244],[8.1741813,44.7621967],[8.1735744,44.7624984],[8.172494,44.7628371],[8.1716944,44.7635245],[8.1704168,44.7640644],[8.1701535,44.764472],[8.1697648,44.7645908],[8.1690318,44.7645944],[8.1682551,44.7648993],[8.1663648,44.7675052],[8.1659249,44.7677811],[8.1649556,44.767846],[8.1651874,44.7686399],[8.1651128,44.7691075],[8.1645557,44.7697245],[8.1642775,44.7702896],[8.1638061,44.7705563],[8.1639643,44.7710885],[8.1617031,44.7718957],[8.1600812,44.7726219],[8.1583896,44.7732576],[8.1580741,44.7735524],[8.1576283,44.7736841],[8.157416,44.7738356],[8.1545999,44.774868],[8.1533901,44.774526],[8.1520165,44.7745743],[8.1512872,44.7741053],[8.1505707,44.7739514],[8.1498645,44.7739507],[8.1492863,44.7740589],[8.148835,44.7742446],[8.1483105,44.7746683],[8.1472472,44.7757541],[8.1465976,44.7760913],[8.1459337,44.7770811],[8.1444586,44.7771556],[8.1438795,44.7773223],[8.14347,44.7776658],[8.1434305,44.7778771],[8.1435338,44.7782649],[8.1434668,44.778521],[8.1422499,44.7786559],[8.1426973,44.7793839],[8.1426909,44.7799195],[8.142584,44.7804228],[8.1421365,44.7807661],[8.1409263,44.7814006],[8.14046,44.7817347],[8.1397106,44.7827238],[8.1376393,44.7833785],[8.1376024,44.782996],[8.137455,44.7826033],[8.1371373,44.7821328],[8.1369174,44.781987],[8.1342896,44.781427],[8.1333597,44.7813525],[8.1321848,44.7816541],[8.1316242,44.7819289],[8.1311631,44.7818534],[8.1301427,44.7813685],[8.129751,44.7813025],[8.1275709,44.7819971],[8.1269463,44.7819355],[8.1265253,44.7815254],[8.1259779,44.780684],[8.125776,44.7800838],[8.1245389,44.7776258],[8.1255177,44.7760558],[8.1218248,44.7747512],[8.1197319,44.7734568],[8.1182583,44.7727928],[8.1157201,44.7711573],[8.1138823,44.7702428],[8.1131372,44.7699528],[8.1124845,44.7701239],[8.1117654,44.7704559],[8.1114388,44.770764],[8.1114216,44.7711419],[8.1115469,44.7717505],[8.1117454,44.7721212],[8.1116716,44.7724537],[8.1114851,44.7726908],[8.1109808,44.7730244],[8.1103828,44.7732853],[8.1070884,44.7739618],[8.1052187,44.7741227],[8.1044422,44.7739411],[8.1038326,44.7735717],[8.1029718,44.7724892],[8.1026247,44.7719013],[8.1025877,44.7712844],[8.1027176,44.7704932],[8.1040389,44.7675643],[8.105026,44.767059],[8.105741,44.7665829],[8.1060715,44.7659464],[8.1059119,44.76554],[8.1043948,44.7648215],[8.1041072,44.7645536],[8.1040989,44.7641935],[8.1043237,44.7633941],[8.104381,44.7628544],[8.1043091,44.7625747],[8.103664,44.7622591],[8.1028592,44.7605217],[8.1011388,44.7598447],[8.099825,44.7596003],[8.0975177,44.7593615],[8.0962292,44.7591397],[8.095085,44.758505],[8.0969739,44.7572642]]]},"properties":{"type":"boundary","gemeente":"Castagnole delle Lanze"}}]}