{"type":"FeatureCollection","metadata":{"gemeente":"Castiglione Messer Marino","slug":"castiglione-messer-marino","generated_at":"2026-09-26T13:09:47.355480Z","total_points":8,"providers":["PosteItaliane","DHL","Amazon"],"bounds":[14.4475,41.8655,14.45304814,41.86957738]},"features":[{"type":"Feature","geometry":{"type":"Point","coordinates":[14.45304814,41.8680924]},"properties":{"type":"pakketpunt","locatieNaam":"Castiglione Messer Marino","straatNaam":"Via Roma","straatNr":"9","vervoerder":"PosteItaliane","puntType":"postkantoor","bezettingsgraad":50,"latitude":41.8680924,"longitude":14.45304814,"canPickup":true,"canDropoff":true,"openingstijden":{"za":"08:20 - 12:35","zo":"gesloten","ma":"08:20 - 13:35","di":"08:20 - 13:35","wo":"08:20 - 13:35","do":"08:20 - 13:35","vr":"08:20 - 13:35"}}},{"type":"Feature","geometry":{"type":"Point","coordinates":[14.44804783,41.86957738]},"properties":{"type":"pakketpunt","locatieNaam":"Tabaccheria N. 3","straatNaam":"Via Istonia","straatNr":"186","vervoerder":"PosteItaliane","puntType":"servicepunt","bezettingsgraad":50,"latitude":41.86957738,"longitude":14.44804783,"canPickup":true,"canDropoff":true,"openingstijden":{"za":"07:00 - 13:00, 16:00 - 20:00","zo":"gesloten","ma":"07:00 - 13:00, 16:00 - 20:00","di":"07:00 - 13:00, 16:00 - 20:00","wo":"07:00 - 13:00, 16:00 - 20:00","do":"07:00 - 13:00, 16:00 - 20:00","vr":"07:00 - 13:00, 16:00 - 20:00"}}},{"type":"Feature","geometry":{"type":"Point","coordinates":[14.44752452,41.86551037]},"properties":{"type":"pakketpunt","locatieNaam":"Tabaccheria N. 1","straatNaam":"Piazza Della Repubblica","straatNr":"2","vervoerder":"PosteItaliane","puntType":"servicepunt","bezettingsgraad":50,"latitude":41.86551037,"longitude":14.44752452,"canPickup":true,"canDropoff":true,"openingstijden":{"za":"08:00 - 13:00, 15:00 - 20:00","zo":"09:30 - 13:00","ma":"08:00 - 13:00, 15:00 - 20:00","di":"08:00 - 13:00, 15:00 - 20:00","wo":"08:00 - 13:00, 15:00 - 20:00","do":"08:00 - 13:00, 15:00 - 20:00","vr":"08:00 - 13:00, 15:00 - 20:00"}}},{"type":"Feature","geometry":{"type":"Point","coordinates":[14.453048,41.868092]},"properties":{"type":"pakketpunt","locatieNaam":"Ufficio Postale CASTIGLIONE MESSER","straatNaam":"VIA ROMA 9","straatNr":"","vervoerder":"DHL","puntType":"postOffice","bezettingsgraad":50,"latitude":41.868092,"longitude":14.453048,"canPickup":true,"canDropoff":true,"openingstijden":{"ma":"08:20 - 13:35","di":"08:20 - 13:35","wo":"08:20 - 13:35","do":"08:20 - 13:35","vr":"08:20 - 13:35","za":"08:20 - 12:35","zo":"gesloten"}}},{"type":"Feature","geometry":{"type":"Point","coordinates":[14.448048,41.869577]},"properties":{"type":"pakketpunt","locatieNaam":"TABACCHERIA N. 3","straatNaam":"VIA ISTONIA 186","straatNr":"","vervoerder":"DHL","puntType":"parcelShop","bezettingsgraad":50,"latitude":41.869577,"longitude":14.448048,"canPickup":true,"canDropoff":true,"openingstijden":{"ma":"07:00 - 13:00, 16:00 - 20:00","di":"07:00 - 13:00, 16:00 - 20:00","wo":"07:00 - 13:00, 16:00 - 20:00","do":"07:00 - 13:00, 16:00 - 20:00","vr":"07:00 - 13:00, 16:00 - 20:00","za":"07:00 - 13:00, 16:00 - 20:00","zo":"gesloten"}}},{"type":"Feature","geometry":{"type":"Point","coordinates":[14.447525,41.86551]},"properties":{"type":"pakketpunt","locatieNaam":"TABACCHERIA N. 1","straatNaam":"PIAZZA DELLA REPUBBLICA 2","straatNr":"","vervoerder":"DHL","puntType":"parcelShop","bezettingsgraad":50,"latitude":41.86551,"longitude":14.447525,"canPickup":true,"canDropoff":true,"openingstijden":{"ma":"08:00 - 13:00, 15:00 - 20:00","di":"08:00 - 13:00, 15:00 - 20:00","wo":"08:00 - 13:00, 15:00 - 20:00","do":"08:00 - 13:00, 15:00 - 20:00","vr":"08:00 - 13:00, 15:00 - 20:00","za":"08:00 - 13:00, 15:00 - 20:00","zo":"09:30 - 13:00"}}},{"type":"Feature","geometry":{"type":"Point","coordinates":[14.4475,41.8655]},"properties":{"type":"pakketpunt","locatieNaam":"PuntoPoste TABACCHERIA N. 1","straatNaam":"PIAZZA DELLA REPUBBLICA 2","straatNr":"","vervoerder":"Amazon","puntType":"3p","bezettingsgraad":50,"latitude":41.8655,"longitude":14.4475,"canPickup":true,"canDropoff":false,"openingstijden":null}},{"type":"Feature","geometry":{"type":"Point","coordinates":[14.453,41.868]},"properties":{"type":"pakketpunt","locatieNaam":"Ufficio Postale CASTIGLIONE MESSER MARINO","straatNaam":"VIA ROMA 9","straatNr":"","vervoerder":"Amazon","puntType":"3p","bezettingsgraad":50,"latitude":41.868,"longitude":14.453,"canPickup":true,"canDropoff":false,"openingstijden":null}},{"type":"Feature","geometry":{"type":"Polygon","coordinates":[[[14.3775498,41.883863],[14.3828662,41.8837663],[14.3939556,41.8861566],[14.3970931,41.8870395],[14.3967632,41.8901248],[14.3965628,41.8909355],[14.3949251,41.8919354],[14.394436,41.8928047],[14.3930929,41.8957712],[14.3928702,41.8964163],[14.3925566,41.8989292],[14.3982538,41.8982916],[14.401781,41.89885],[14.4053855,41.9027353],[14.4060254,41.9039159],[14.4062962,41.9046413],[14.40637,41.905232],[14.4243608,41.9107366],[14.4364455,41.9021424],[14.4393234,41.8998034],[14.4403335,41.8973531],[14.4405226,41.8964259],[14.4401725,41.8950112],[14.4418963,41.8935879],[14.4450403,41.8925382],[14.4620807,41.8900791],[14.4688557,41.8897989],[14.475047,41.8862152],[14.4758156,41.8850262],[14.4760235,41.8845526],[14.4767802,41.8819778],[14.4772194,41.8798548],[14.479765,41.8794269],[14.5018521,41.8783001],[14.5035866,41.8783968],[14.5077405,41.8789802],[14.5080425,41.8789117],[14.5082776,41.8780137],[14.5147038,41.8667353],[14.5111738,41.8648573],[14.5083722,41.8625391],[14.5014023,41.8540341],[14.5005323,41.8528066],[14.5004036,41.8522637],[14.5004849,41.8512921],[14.4983986,41.8499744],[14.4931822,41.8516381],[14.4924405,41.8517221],[14.4798082,41.8488215],[14.4665398,41.8438969],[14.4630373,41.8421601],[14.4579921,41.8391014],[14.4570444,41.83862],[14.4483631,41.835545],[14.4467926,41.8343208],[14.4458481,41.8362889],[14.4457695,41.837647],[14.4449874,41.838439],[14.4440927,41.839918],[14.4432066,41.8404461],[14.4424025,41.8412334],[14.4408347,41.8413638],[14.4373088,41.841336],[14.4364763,41.8417878],[14.4341324,41.8414379],[14.432775,41.8413259],[14.4315349,41.84071],[14.4306519,41.840808],[14.4300319,41.8414379],[14.4302761,41.8426976],[14.4289234,41.8442513],[14.4266688,41.8477083],[14.4261615,41.8521588],[14.4248651,41.8534044],[14.4234184,41.854384],[14.4212765,41.8552096],[14.4184207,41.8557134],[14.4158839,41.8585552],[14.4117133,41.8601074],[14.410229,41.8611289],[14.4098532,41.8619685],[14.409609,41.8635445],[14.4080557,41.8645349],[14.4069318,41.8648695],[14.404664,41.8652333],[14.4029015,41.8665999],[14.4006608,41.8685005],[14.3991814,41.8686146],[14.3975659,41.869692],[14.3953836,41.8702643],[14.3943815,41.87025],[14.3936696,41.8705916],[14.3933252,41.8702265],[14.3928087,41.869917],[14.3906627,41.8679124],[14.3899114,41.8675634],[14.3862175,41.8671455],[14.3849462,41.867154],[14.3845078,41.8662221],[14.3791253,41.8657161],[14.3775541,41.8809078],[14.3775498,41.883863]]]},"properties":{"type":"boundary","gemeente":"Castiglione Messer Marino"}}]}