{"type":"FeatureCollection","metadata":{"gemeente":"Castellafiume","slug":"castellafiume","generated_at":"2026-09-26T14:27:07.733286Z","total_points":3,"providers":["PosteItaliane","DHL","Amazon"],"bounds":[13.3343,41.9892,13.334349,41.989286]},"features":[{"type":"Feature","geometry":{"type":"Point","coordinates":[13.33434882,41.98928553]},"properties":{"type":"pakketpunt","locatieNaam":"Castellafiume","straatNaam":"Via Roma Snc","straatNr":"1","vervoerder":"PosteItaliane","puntType":"postkantoor","bezettingsgraad":50,"latitude":41.98928553,"longitude":13.33434882,"canPickup":true,"canDropoff":true,"openingstijden":{"za":"08:20 - 12:45","zo":"gesloten","ma":"08:20 - 13:45","di":"08:20 - 13:45","wo":"08:20 - 13:45","do":"08:20 - 13:45","vr":"08:20 - 13:45"}}},{"type":"Feature","geometry":{"type":"Point","coordinates":[13.334349,41.989286]},"properties":{"type":"pakketpunt","locatieNaam":"Ufficio Postale CASTELLAFIUME","straatNaam":"VIA ROMA SNC 1","straatNr":"","vervoerder":"DHL","puntType":"postOffice","bezettingsgraad":50,"latitude":41.989286,"longitude":13.334349,"canPickup":true,"canDropoff":true,"openingstijden":{"ma":"08:20 - 13:45","di":"08:20 - 13:45","wo":"08:20 - 13:45","do":"08:20 - 13:45","vr":"08:20 - 13:45","za":"08:20 - 12:45","zo":"gesloten"}}},{"type":"Feature","geometry":{"type":"Point","coordinates":[13.3343,41.9892]},"properties":{"type":"pakketpunt","locatieNaam":"Ufficio Postale CASTELLAFIUME","straatNaam":"VIA ROMA SNC 1","straatNr":"","vervoerder":"Amazon","puntType":"3p","bezettingsgraad":50,"latitude":41.9892,"longitude":13.3343,"canPickup":true,"canDropoff":false,"openingstijden":null}},{"type":"Feature","geometry":{"type":"Polygon","coordinates":[[[13.2983202,41.9543458],[13.2986594,41.9544343],[13.300066,41.9545355],[13.3021137,41.9545924],[13.3045523,41.9554478],[13.3054411,41.9552615],[13.3061496,41.9548281],[13.3103004,41.9516197],[13.3111845,41.9510642],[13.313496,41.9503245],[13.3159782,41.9485923],[13.3182948,41.947222],[13.3204485,41.9460198],[13.3226185,41.9451591],[13.3239284,41.943543],[13.3254173,41.9419667],[13.3298258,41.9465521],[13.3377239,41.957373],[13.3404199,41.9608994],[13.3451518,41.9664059],[13.3467275,41.9679758],[13.3478874,41.9688862],[13.3492039,41.9697591],[13.3527128,41.9726826],[13.3563741,41.9762755],[13.3639362,41.984055],[13.3530247,41.9905926],[13.3461399,41.9939962],[13.3410651,41.9978576],[13.3379854,42.0006799],[13.3343782,42.004159],[13.3337886,42.0045972],[13.3319783,42.0052223],[13.3280614,42.0068638],[13.3216552,42.0091405],[13.3135567,42.0108308],[13.3116181,42.0093193],[13.3101127,42.0073321],[13.3044613,41.9959658],[13.3038123,41.9894804],[13.3039745,41.9888441],[13.3043906,41.9881802],[13.3047004,41.9874392],[13.3048892,41.9866939],[13.3048848,41.9864059],[13.3041674,41.9847491],[13.3015506,41.9819257],[13.2906319,41.9770454],[13.2957679,41.9729498],[13.2985944,41.9709935],[13.2998659,41.9699329],[13.3014461,41.9604287],[13.2994205,41.9558317],[13.2983202,41.9543458]]]},"properties":{"type":"boundary","gemeente":"Castellafiume"}}]}