{"type":"FeatureCollection","metadata":{"gemeente":"Castiglione Messer Raimondo","slug":"castiglione-messer-raimondo","generated_at":"2026-09-26T14:27:09.064716Z","total_points":8,"providers":["PosteItaliane","DPD","GLS","DHL","Amazon","FedEx"],"bounds":[13.882,42.52451218595,13.8932186494904,42.531429]},"features":[{"type":"Feature","geometry":{"type":"Point","coordinates":[13.88202018,42.53142866]},"properties":{"type":"pakketpunt","locatieNaam":"Castiglione Messer Raimondo","straatNaam":"Via Roma Snc","straatNr":"3","vervoerder":"PosteItaliane","puntType":"postkantoor","bezettingsgraad":50,"latitude":42.53142866,"longitude":13.88202018,"canPickup":true,"canDropoff":true,"openingstijden":{"za":"08:20 - 12:45","zo":"gesloten","ma":"08:20 - 13:45","di":"08:20 - 13:45","wo":"08:20 - 13:45","do":"08:20 - 13:45","vr":"08:20 - 13:45"}}},{"type":"Feature","geometry":{"type":"Point","coordinates":[13.8932085912,42.524528]},"properties":{"type":"pakketpunt","locatieNaam":"Chiodo Fisso Ferramenta","straatNaam":"FRAZIONE CESI SNC","straatNr":"","vervoerder":"DPD","puntType":"pickup_point","bezettingsgraad":50,"latitude":42.524528,"longitude":13.8932085912,"canPickup":true,"canDropoff":true,"openingstijden":{"ma":"08:00 - 13:00, 15:30 - 19:00","di":"08:00 - 13:00, 15:30 - 19:00","wo":"08:00 - 13:00, 15:30 - 19:00","do":"08:00 - 13:00, 15:30 - 19:00","vr":"08:00 - 13:00, 15:30 - 19:00","za":"08:00 - 13:00, 15:30 - 19:00","zo":"gesloten"}}},{"type":"Feature","geometry":{"type":"Point","coordinates":[13.8925388,42.5250139]},"properties":{"type":"pakketpunt","locatieNaam":"Chiodo Fisso Ferramenta","straatNaam":"Frazione Cesi","straatNr":"16","vervoerder":"GLS","puntType":"parcel_shop","bezettingsgraad":50,"latitude":42.5250139,"longitude":13.8925388,"canPickup":true,"canDropoff":true,"openingstijden":"za: 08:00 - 13:00; ma: 08:00 - 13:00, 15:30 - 19:00"}},{"type":"Feature","geometry":{"type":"Point","coordinates":[13.88202,42.531429]},"properties":{"type":"pakketpunt","locatieNaam":"Ufficio Postale CASTIGLIONE MESSER","straatNaam":"VIA ROMA SNC 3","straatNr":"","vervoerder":"DHL","puntType":"postOffice","bezettingsgraad":50,"latitude":42.531429,"longitude":13.88202,"canPickup":true,"canDropoff":true,"openingstijden":{"ma":"08:20 - 13:45","di":"08:20 - 13:45","wo":"08:20 - 13:45","do":"08:20 - 13:45","vr":"08:20 - 13:45","za":"08:20 - 12:45","zo":"gesloten"}}},{"type":"Feature","geometry":{"type":"Point","coordinates":[13.892563,42.524985]},"properties":{"type":"pakketpunt","locatieNaam":"Amazon Locker - veneto","straatNaam":"Todis Castiglione Messer Raimondo - Ipermercato De Sanctis SNC","straatNr":"","vervoerder":"Amazon","puntType":"locker","bezettingsgraad":50,"latitude":42.524985,"longitude":13.892563,"canPickup":true,"canDropoff":false,"openingstijden":null}},{"type":"Feature","geometry":{"type":"Point","coordinates":[13.8932186494904,42.52451218595]},"properties":{"type":"pakketpunt","locatieNaam":"Amazon Counter (fermopoint)","straatNaam":"Chiodo Fisso Ferramenta","straatNr":"","vervoerder":"Amazon","puntType":"helix","bezettingsgraad":50,"latitude":42.52451218595,"longitude":13.8932186494904,"canPickup":true,"canDropoff":false,"openingstijden":null}},{"type":"Feature","geometry":{"type":"Point","coordinates":[13.882,42.5314]},"properties":{"type":"pakketpunt","locatieNaam":"Ufficio Postale CASTIGLIONE MESSER RAIMONDO","straatNaam":"VIA ROMA SNC 3","straatNr":"","vervoerder":"Amazon","puntType":"3p","bezettingsgraad":50,"latitude":42.5314,"longitude":13.882,"canPickup":true,"canDropoff":false,"openingstijden":null}},{"type":"Feature","geometry":{"type":"Point","coordinates":[13.892713954409754,42.52490613326134]},"properties":{"type":"pakketpunt","locatieNaam":"FedEx OnSite","straatNaam":"frazione Cesi, 16","straatNr":"","vervoerder":"FedEx","puntType":"servicepunt","bezettingsgraad":50,"latitude":42.52490613326134,"longitude":13.892713954409754,"canPickup":true,"canDropoff":true,"openingstijden":{"ma":"08:00 - 13:00, 15:30 - 19:00","di":"08:00 - 13:00, 15:30 - 19:00","wo":"08:00 - 13:00, 15:30 - 19:00","do":"08:00 - 13:00, 15:30 - 19:00","vr":"08:00 - 13:00, 15:30 - 19:00","za":"08:00 - 13:00","zo":"gesloten"}}},{"type":"Feature","geometry":{"type":"Polygon","coordinates":[[[13.828253,42.5468702],[13.8295193,42.5468832],[13.8303453,42.5469997],[13.8319999,42.547746],[13.8360916,42.5517005],[13.8364807,42.5523933],[13.8476363,42.5544422],[13.8530324,42.5517677],[13.8560315,42.552275],[13.8622078,42.5455104],[13.8739994,42.5406109],[13.8822139,42.5388633],[13.8943168,42.5410069],[13.9005269,42.5396528],[13.9040411,42.5308882],[13.9060694,42.5262968],[13.9125519,42.5224682],[13.9153608,42.5219545],[13.9163971,42.5218652],[13.9207961,42.519858],[13.9213452,42.5194264],[13.9229743,42.5146238],[13.9208452,42.5110306],[13.9189673,42.5091128],[13.9162775,42.5076711],[13.914216,42.5072465],[13.9131577,42.50722],[13.9116828,42.5073509],[13.8998176,42.5100072],[13.8994607,42.5102386],[13.8990363,42.5108104],[13.8984935,42.51195],[13.8980733,42.5123146],[13.8961288,42.5129381],[13.8934096,42.5130995],[13.8855129,42.5101963],[13.8849256,42.5096587],[13.8826717,42.5063474],[13.8820512,42.504992],[13.8817122,42.503512],[13.8819157,42.5016848],[13.8835124,42.4946935],[13.8839155,42.4939155],[13.8849892,42.4903406],[13.8843465,42.4902195],[13.8647467,42.4887279],[13.8585565,42.4899004],[13.8507033,42.4928582],[13.8387512,42.4989058],[13.8381312,42.5001607],[13.8376019,42.5077109],[13.8378348,42.5082806],[13.8389243,42.5092552],[13.8435183,42.5155695],[13.8441912,42.5167019],[13.8388314,42.5339922],[13.828253,42.5468702]]]},"properties":{"type":"boundary","gemeente":"Castiglione Messer Raimondo"}}]}