{"type":"FeatureCollection","metadata":{"gemeente":"Castellina Marittima","slug":"castellina-marittima","generated_at":"2026-09-26T13:09:46.426110Z","total_points":4,"providers":["PosteItaliane","DHL","Amazon"],"bounds":[10.57588018,43.4125,10.5764873,43.41276139]},"features":[{"type":"Feature","geometry":{"type":"Point","coordinates":[10.57588018,43.41276139]},"properties":{"type":"pakketpunt","locatieNaam":"Castellina Marittima","straatNaam":"Piazza Guerrazzi","straatNr":"12","vervoerder":"PosteItaliane","puntType":"postkantoor","bezettingsgraad":50,"latitude":43.41276139,"longitude":10.57588018,"canPickup":true,"canDropoff":true,"openingstijden":{"za":"gesloten","zo":"gesloten","ma":"08:20 - 13:45","di":"gesloten","wo":"08:20 - 13:45","do":"gesloten","vr":"08:20 - 13:45"}}},{"type":"Feature","geometry":{"type":"Point","coordinates":[10.5764873,43.41258558]},"properties":{"type":"pakketpunt","locatieNaam":"Tabaccheria N. 1","straatNaam":"Piazza Fulvio Giaconi","straatNr":"10","vervoerder":"PosteItaliane","puntType":"servicepunt","bezettingsgraad":50,"latitude":43.41258558,"longitude":10.5764873,"canPickup":true,"canDropoff":true,"openingstijden":{"za":"08:00 - 13:00, 16:30 - 19:30","zo":"gesloten","ma":"08:00 - 13:00, 16:30 - 19:30","di":"08:00 - 13:00, 16:30 - 19:30","wo":"08:00 - 13:00, 16:30 - 19:30","do":"08:00 - 13:00, 16:30 - 19:30","vr":"08:00 - 13:00, 16:30 - 19:30"}}},{"type":"Feature","geometry":{"type":"Point","coordinates":[10.576487,43.412586]},"properties":{"type":"pakketpunt","locatieNaam":"TABACCHERIA N. 1","straatNaam":"PIAZZA FULVIO GIACONI 10","straatNr":"","vervoerder":"DHL","puntType":"parcelShop","bezettingsgraad":50,"latitude":43.412586,"longitude":10.576487,"canPickup":true,"canDropoff":true,"openingstijden":{"ma":"08:00 - 13:00, 16:30 - 19:30","di":"08:00 - 13:00, 16:30 - 19:30","wo":"08:00 - 13:00, 16:30 - 19:30","do":"08:00 - 13:00, 16:30 - 19:30","vr":"08:00 - 13:00, 16:30 - 19:30","za":"08:00 - 13:00, 16:30 - 19:30","zo":"gesloten"}}},{"type":"Feature","geometry":{"type":"Point","coordinates":[10.5764,43.4125]},"properties":{"type":"pakketpunt","locatieNaam":"PuntoPoste TABACCHERIA N. 1","straatNaam":"PIAZZA FULVIO GIACONI 10","straatNr":"","vervoerder":"Amazon","puntType":"3p","bezettingsgraad":50,"latitude":43.4125,"longitude":10.5764,"canPickup":true,"canDropoff":false,"openingstijden":null}},{"type":"Feature","geometry":{"type":"Polygon","coordinates":[[[10.5021385,43.4196557],[10.5038014,43.4199639],[10.5054231,43.4207975],[10.5059475,43.4209927],[10.5069619,43.4210827],[10.5076845,43.4209814],[10.5079696,43.4211647],[10.5085269,43.4213353],[10.5088778,43.4212419],[10.5093748,43.4208174],[10.5100987,43.4205368],[10.5104764,43.4204523],[10.5110748,43.4205495],[10.5115259,43.4205218],[10.512804,43.4203354],[10.5130714,43.420544],[10.5134247,43.420682],[10.513875,43.4212259],[10.5150979,43.4221046],[10.515851,43.4223207],[10.5160334,43.4225718],[10.5162354,43.4226952],[10.5174226,43.423049],[10.5183674,43.4228198],[10.518946,43.4227924],[10.5195889,43.4225516],[10.5210118,43.4223881],[10.5215955,43.4224181],[10.5221813,43.4226013],[10.523748,43.4213056],[10.5244016,43.4205598],[10.5250987,43.4187741],[10.5257685,43.4179348],[10.5258449,43.4177197],[10.5257596,43.4173936],[10.5258862,43.4165667],[10.5260109,43.4160493],[10.5261606,43.4157948],[10.5264503,43.4158737],[10.5268472,43.4161231],[10.5273597,43.4159729],[10.528247,43.4165627],[10.5281409,43.4169936],[10.5281807,43.417138],[10.5288381,43.4174632],[10.5292561,43.4174451],[10.5297278,43.4176496],[10.5309404,43.4176633],[10.5318687,43.417967],[10.5320216,43.4181822],[10.5320059,43.4185771],[10.5321687,43.4187978],[10.5323936,43.4188385],[10.5333889,43.4185991],[10.53365,43.4183257],[10.5338695,43.418303],[10.5345699,43.4186924],[10.5348835,43.4187738],[10.5359536,43.4194996],[10.5360765,43.4201472],[10.5362755,43.4205275],[10.5364125,43.4206393],[10.5379194,43.4208016],[10.5390781,43.4211016],[10.541314,43.4213436],[10.5419384,43.4216991],[10.5436389,43.422056],[10.5450165,43.4229328],[10.5466572,43.4230887],[10.5476985,43.4233071],[10.5490355,43.4237276],[10.5495991,43.4240082],[10.5504928,43.4240469],[10.5510148,43.4244911],[10.5513838,43.4246485],[10.5529395,43.4246672],[10.5533206,43.4247646],[10.553889,43.4251228],[10.5540169,43.4253264],[10.5544378,43.4256453],[10.5548088,43.4256503],[10.5556818,43.425299],[10.5560965,43.4254975],[10.5565455,43.4259728],[10.5571412,43.4262469],[10.5576576,43.4263983],[10.558654,43.4263204],[10.5591001,43.4266504],[10.5596306,43.4272125],[10.5608277,43.4275273],[10.5612936,43.428323],[10.5617005,43.428615],[10.5619577,43.4287239],[10.5629292,43.4286304],[10.5631389,43.4287539],[10.5633581,43.4294721],[10.563505,43.4296546],[10.5643132,43.4293669],[10.5646455,43.4294324],[10.5652965,43.4300475],[10.5677099,43.4314585],[10.5681168,43.4315162],[10.5685564,43.4313654],[10.5688518,43.4313578],[10.5691728,43.4315754],[10.5695025,43.432016],[10.5697801,43.432164],[10.5704066,43.4322306],[10.5715278,43.4321449],[10.5720645,43.4320302],[10.5727316,43.4316841],[10.5736805,43.4316997],[10.5743082,43.4314435],[10.5771679,43.4315941],[10.5776988,43.4320119],[10.577901,43.4323195],[10.5788894,43.4326083],[10.579167,43.4327937],[10.5794256,43.4328095],[10.5800808,43.4324753],[10.5806218,43.4324402],[10.5811738,43.4325296],[10.5815934,43.4324198],[10.581629,43.4321167],[10.5815563,43.4319963],[10.5818658,43.4318004],[10.5818878,43.4310697],[10.5821762,43.4307836],[10.5832236,43.4306204],[10.5837222,43.4300867],[10.5841127,43.4300869],[10.5846658,43.4302271],[10.5853801,43.4299382],[10.5859216,43.4298884],[10.5863956,43.4294763],[10.586421,43.428885],[10.5861707,43.4282588],[10.5861864,43.4279738],[10.5863659,43.4272441],[10.5868729,43.4263084],[10.586801,43.4260849],[10.586407,43.4255271],[10.586529,43.4247809],[10.5867567,43.4244007],[10.5874782,43.4239534],[10.5881807,43.4236721],[10.5888545,43.4229706],[10.5889457,43.4226217],[10.589007,43.421574],[10.58894,43.4208412],[10.5891843,43.4204897],[10.5898021,43.419918],[10.5899532,43.4196613],[10.5899723,43.4193789],[10.5898816,43.4191614],[10.5899627,43.4182872],[10.5899093,43.4180725],[10.5903994,43.4171181],[10.5913525,43.4167654],[10.5916839,43.4163786],[10.5917673,43.4161053],[10.5919157,43.4159416],[10.5923703,43.4157551],[10.5930933,43.4157044],[10.5940265,43.4151718],[10.5950364,43.4143837],[10.5959084,43.4143658],[10.5962107,43.4142563],[10.596866,43.4136587],[10.5997066,43.4124328],[10.6006189,43.4119446],[10.6010076,43.4115854],[10.601361,43.4109274],[10.6018787,43.4107227],[10.6021553,43.4104991],[10.6023697,43.4102093],[10.6025509,43.4097249],[10.6044348,43.4083399],[10.6048145,43.4078803],[10.6057084,43.4073523],[10.6060735,43.4072482],[10.60653,43.4068919],[10.6074844,43.4064188],[10.6082165,43.4053792],[10.6086405,43.4050524],[10.6099298,43.4046894],[10.610079,43.4047189],[10.6104661,43.4050189],[10.6107824,43.4041983],[10.611041,43.403899],[10.6110457,43.4036685],[10.6108007,43.4030139],[10.6105546,43.4013904],[10.6101167,43.4009475],[10.6100543,43.4006374],[10.6096471,43.4000497],[10.6095599,43.3996923],[10.6091865,43.3992524],[10.6090401,43.3989125],[10.6088942,43.398792],[10.6083147,43.3986014],[10.6077327,43.3993293],[10.6072657,43.3995641],[10.606282,43.3995537],[10.6058476,43.3991286],[10.6056622,43.3992522],[10.6051932,43.3992441],[10.6044622,43.399539],[10.603263,43.3997712],[10.6006823,43.3997202],[10.5996085,43.3998319],[10.5976968,43.4002433],[10.5968897,43.3979479],[10.5941742,43.3923652],[10.5938597,43.391879],[10.5923805,43.3911225],[10.5906175,43.3903642],[10.5899709,43.3899914],[10.5893875,43.3892819],[10.586357,43.3860913],[10.5832643,43.3840952],[10.5830428,43.3837788],[10.5825833,43.3834686],[10.5782069,43.3808421],[10.5723725,43.377621],[10.5671373,43.3748934],[10.5538775,43.3711392],[10.5473251,43.3702076],[10.5471437,43.3711362],[10.5462134,43.3711849],[10.5458158,43.3711267],[10.5450576,43.3707252],[10.5444654,43.3702936],[10.543228,43.3697027],[10.5422141,43.3695076],[10.5418331,43.3692557],[10.5415634,43.3689361],[10.540667,43.3686157],[10.5406007,43.3685065],[10.5406815,43.3683749],[10.5406937,43.368064],[10.5405824,43.3677624],[10.5306066,43.367989],[10.5299258,43.3673212],[10.5287916,43.3665777],[10.5278385,43.3662649],[10.5265925,43.3661273],[10.5259482,43.3663959],[10.5256365,43.3664282],[10.5229676,43.3654326],[10.5220788,43.364867],[10.5198782,43.364459],[10.5190572,43.3645109],[10.5179091,43.363918],[10.5157977,43.3626221],[10.5146956,43.3621588],[10.5128357,43.362193],[10.5097947,43.3624119],[10.5080661,43.3646038],[10.5076327,43.3653391],[10.5071443,43.3669427],[10.5066505,43.3678365],[10.5062481,43.3689043],[10.5056366,43.3709827],[10.5053142,43.3718217],[10.5035485,43.3737554],[10.5029807,43.3745244],[10.5028621,43.3751013],[10.5027331,43.3771899],[10.5022238,43.378259],[10.5019936,43.3785826],[10.4997253,43.38075],[10.4979971,43.3821959],[10.4976602,43.382649],[10.497509,43.3830002],[10.4974355,43.3832728],[10.4974561,43.3838075],[10.4975586,43.3844587],[10.4976608,43.3846416],[10.4981637,43.3849496],[10.4992838,43.3850264],[10.4997357,43.385296],[10.4997958,43.3854753],[10.4994724,43.3899675],[10.4995466,43.3901495],[10.5002625,43.3908896],[10.5005455,43.3913705],[10.5007649,43.3933418],[10.500729,43.3935811],[10.5004825,43.3939625],[10.498636,43.3954241],[10.4982592,43.3955806],[10.4966568,43.3957552],[10.4964039,43.3958486],[10.4960667,43.3961222],[10.496114,43.398203],[10.4959055,43.3988822],[10.4956258,43.3993069],[10.4948278,43.3999775],[10.4907064,43.4027097],[10.4904829,43.4029347],[10.4903915,43.4031571],[10.4902075,43.4039239],[10.4901603,43.4044945],[10.4902608,43.4049819],[10.4906044,43.4058268],[10.4903485,43.4060176],[10.4912921,43.4064507],[10.4926113,43.4068015],[10.4928701,43.4069416],[10.4930831,43.4072964],[10.493524,43.4073122],[10.4942211,43.4080511],[10.4963336,43.4096495],[10.5004602,43.4126301],[10.5010012,43.4129225],[10.5013241,43.4138381],[10.5015709,43.4150242],[10.5012922,43.4162357],[10.5010133,43.4165702],[10.5009151,43.4168545],[10.5008188,43.4175333],[10.5011351,43.417911],[10.5012595,43.4185497],[10.5013987,43.4186677],[10.5018488,43.4194688],[10.5021385,43.4196557]]]},"properties":{"type":"boundary","gemeente":"Castellina Marittima"}}]}