{"type":"FeatureCollection","metadata":{"gemeente":"Castelnovo del Friuli / Cjastelgnûf","slug":"castelnovo-del-friuli-cjastelgnuf","generated_at":"2026-09-26T13:09:46.682775Z","total_points":1,"providers":["PosteItaliane"],"bounds":[12.9023477,46.20042769,12.9023477,46.20042769]},"features":[{"type":"Feature","geometry":{"type":"Point","coordinates":[12.9023477,46.20042769]},"properties":{"type":"pakketpunt","locatieNaam":"Castelnovo Del Friuli","straatNaam":"Localita' Paludea","straatNr":"35","vervoerder":"PosteItaliane","puntType":"postkantoor","bezettingsgraad":50,"latitude":46.20042769,"longitude":12.9023477,"canPickup":true,"canDropoff":true,"openingstijden":{"za":"gesloten","zo":"gesloten","ma":"08:20 - 13:45","di":"gesloten","wo":"08:20 - 13:45","do":"gesloten","vr":"08:20 - 13:45"}}},{"type":"Feature","geometry":{"type":"Polygon","coordinates":[[[12.8405091,46.2493101],[12.8421734,46.24715],[12.8511722,46.2341705],[12.855692,46.2328215],[12.8568353,46.230584],[12.8573775,46.2308865],[12.8576643,46.2315248],[12.858526,46.2322218],[12.8589646,46.2331152],[12.8592202,46.2333683],[12.8599628,46.2337145],[12.8604767,46.2337081],[12.8629881,46.2322011],[12.8636914,46.2313291],[12.8636827,46.2299191],[12.8634462,46.2297665],[12.8633132,46.2294757],[12.8619035,46.2286242],[12.8607318,46.2272926],[12.8602358,46.2268388],[12.859852,46.2263189],[12.860152,46.2261723],[12.8596061,46.2253691],[12.8597019,46.2251345],[12.8597077,46.2248343],[12.8594077,46.2243881],[12.8592318,46.2238682],[12.8599221,46.2225834],[12.8592646,46.2219824],[12.8587302,46.2217761],[12.8593631,46.2206344],[12.8607466,46.2185896],[12.8618218,46.2167553],[12.8629497,46.2150462],[12.8637223,46.2141674],[12.8639235,46.2141872],[12.8659059,46.2111202],[12.8694652,46.2090358],[12.8730174,46.2075799],[12.8733653,46.2075344],[12.8738173,46.2082317],[12.8742044,46.2086634],[12.8751087,46.2079513],[12.875172,46.2075079],[12.8755534,46.2070423],[12.8772803,46.2065287],[12.8791096,46.2056355],[12.8796933,46.2046961],[12.8797077,46.2043238],[12.8794454,46.2040947],[12.879295,46.2036553],[12.8789893,46.2035055],[12.8791203,46.2027989],[12.8807665,46.2015398],[12.8825418,46.2012764],[12.8831079,46.2011026],[12.8841171,46.2011092],[12.8846541,46.200943],[12.8845165,46.20062],[12.8846905,46.2005951],[12.8845175,46.1999952],[12.8851442,46.1998947],[12.8849492,46.1992662],[12.8839591,46.1993275],[12.8838757,46.1986817],[12.8836716,46.1984376],[12.8837371,46.1982345],[12.8841433,46.1977214],[12.8845011,46.1968147],[12.8843701,46.1960193],[12.883906,46.1957904],[12.883252,46.1946449],[12.8831315,46.194178],[12.8832989,46.1938767],[12.8835474,46.1928119],[12.8833995,46.1924567],[12.8834343,46.1918526],[12.8832566,46.1915209],[12.8831922,46.1912473],[12.883244,46.1911001],[12.8831108,46.1909655],[12.8827002,46.1908417],[12.8823759,46.1905754],[12.8816968,46.1903905],[12.881407,46.1901288],[12.8811266,46.1900716],[12.8807993,46.1898853],[12.8811761,46.1893836],[12.8818555,46.1888114],[12.882279,46.188595],[12.8827183,46.188567],[12.883226,46.1884123],[12.8828494,46.1880088],[12.8829167,46.1877577],[12.8827374,46.18747],[12.8829632,46.1872939],[12.8836287,46.1873863],[12.8840144,46.1871012],[12.8842635,46.1867733],[12.8843716,46.1851573],[12.8848805,46.1834644],[12.8852699,46.1815812],[12.8855255,46.1812294],[12.885666,46.1808755],[12.8856673,46.1797901],[12.8857885,46.1796362],[12.8860191,46.1794842],[12.8866223,46.1793913],[12.8874366,46.1795104],[12.8879988,46.1797332],[12.8882402,46.1797536],[12.8889798,46.179563],[12.8901435,46.1795893],[12.8904833,46.1794506],[12.8907091,46.1791223],[12.8908746,46.1790172],[12.8916015,46.1788544],[12.8917733,46.1787334],[12.8912794,46.1780794],[12.8912196,46.177834],[12.8916223,46.1763475],[12.8913883,46.1762871],[12.8907492,46.17521],[12.8926126,46.1748682],[12.8931252,46.1749508],[12.89377,46.1752016],[12.8940523,46.1752183],[12.8941826,46.1752901],[12.8944274,46.1757068],[12.8951713,46.1759786],[12.8947948,46.1763955],[12.8950843,46.1768054],[12.8958468,46.1770236],[12.8990302,46.1765851],[12.899851,46.1765887],[12.9007427,46.1767669],[12.9013308,46.176612],[12.9024411,46.1767287],[12.9040323,46.1773281],[12.9043057,46.1771596],[12.9046965,46.1771274],[12.9048865,46.1767598],[12.9048515,46.1765235],[12.9049543,46.1762983],[12.9051992,46.1761369],[12.9061475,46.1758268],[12.9076944,46.1754666],[12.909244,46.1755386],[12.9124024,46.1767707],[12.9139226,46.1771215],[12.9161339,46.1785296],[12.916538,46.1786702],[12.9166403,46.1804747],[12.9171079,46.1805887],[12.9170901,46.1808404],[12.9172932,46.1809454],[12.9183628,46.1813077],[12.9186984,46.1812122],[12.9189399,46.1813105],[12.9194187,46.1807763],[12.9196409,46.1806504],[12.9201934,46.1807551],[12.9210995,46.1805082],[12.9213731,46.1805794],[12.9214771,46.1802436],[12.9217621,46.1798983],[12.9225081,46.1796813],[12.9224968,46.1795306],[12.9228175,46.1791444],[12.9233512,46.1790383],[12.9237381,46.1788004],[12.9245467,46.1784775],[12.926871,46.1790766],[12.927266,46.1794418],[12.9291129,46.1795436],[12.9291025,46.180094],[12.929181,46.180469],[12.9291249,46.1806345],[12.9287462,46.1811019],[12.9284405,46.1813417],[12.9282857,46.1815981],[12.9282336,46.1818815],[12.9284034,46.1830186],[12.9280726,46.1838227],[12.927949,46.18449],[12.9273591,46.1852478],[12.9274785,46.1854816],[12.9274266,46.1857265],[12.9270113,46.1861767],[12.9261753,46.1861287],[12.9259962,46.186251],[12.9256304,46.1866044],[12.9254092,46.1869748],[12.925013,46.1873096],[12.9247841,46.1881587],[12.92478,46.1882738],[12.9261029,46.1887019],[12.92662,46.1903527],[12.926968,46.1909037],[12.9266789,46.1914227],[12.9265381,46.1923294],[12.9270669,46.1927208],[12.9270514,46.1931015],[12.9274761,46.1936525],[12.9278499,46.1948644],[12.9281369,46.1950711],[12.9272335,46.1957638],[12.9263034,46.196328],[12.9259381,46.1963409],[12.9255189,46.1961821],[12.924835,46.1963101],[12.9247179,46.196254],[12.9246369,46.1968897],[12.9247632,46.197252],[12.9245698,46.1974321],[12.9242518,46.1983048],[12.923884,46.1987121],[12.9236993,46.1990723],[12.9232205,46.1994921],[12.9228621,46.2006101],[12.9228123,46.2011682],[12.9230851,46.2015591],[12.922893,46.2023341],[12.9230025,46.203241],[12.9209398,46.2030505],[12.9200453,46.2028812],[12.9182061,46.202861],[12.918055,46.2035636],[12.9190053,46.2045391],[12.9193425,46.2049976],[12.9206757,46.2059867],[12.9215174,46.2070467],[12.9226247,46.2079252],[12.9229366,46.2082968],[12.9230148,46.2085112],[12.9230113,46.20911],[12.922753,46.2090826],[12.9221688,46.209232],[12.9216296,46.2092661],[12.9210604,46.2096167],[12.9183621,46.2109295],[12.9173321,46.2110034],[12.9168839,46.2109643],[12.9165084,46.2108321],[12.9162819,46.2110198],[12.9158942,46.2110612],[12.9157995,46.2112942],[12.9155053,46.2113789],[12.9152104,46.2116916],[12.9146716,46.2117001],[12.9146715,46.2117704],[12.9133152,46.2125518],[12.9125678,46.2135403],[12.9087814,46.2125652],[12.9081447,46.2131309],[12.9079006,46.2135935],[12.9075816,46.2138926],[12.9063554,46.2138679],[12.9054947,46.2134766],[12.9046042,46.2134251],[12.9041933,46.2131976],[12.9039479,46.2134865],[12.9039447,46.2138649],[12.9033577,46.2138191],[12.9023028,46.2135113],[12.9020541,46.2138999],[12.9023194,46.2142985],[12.902281,46.2143993],[12.9026392,46.2145876],[12.9028607,46.214896],[12.9032952,46.2151705],[12.902179,46.2158097],[12.9017642,46.2158787],[12.9006061,46.2154494],[12.8992496,46.215149],[12.8987089,46.2151423],[12.8979279,46.2148832],[12.8973003,46.2145372],[12.8970491,46.2146546],[12.8965494,46.2147252],[12.8964069,46.214915],[12.8963744,46.2155879],[12.8961229,46.2164211],[12.8960412,46.2165253],[12.8955245,46.2166847],[12.8954243,46.2168307],[12.8946247,46.2173205],[12.8944484,46.2175074],[12.894425,46.2186545],[12.893943,46.2210019],[12.8936904,46.2216848],[12.8930824,46.2221993],[12.8929003,46.2224518],[12.8929808,46.2229086],[12.8928497,46.2231526],[12.8923843,46.223564],[12.8919498,46.223786],[12.8918655,46.2239581],[12.8918839,46.2241837],[12.8917627,46.2243458],[12.8913156,46.2246309],[12.8905764,46.2253941],[12.8899933,46.2256086],[12.8898698,46.2258316],[12.8893835,46.2262765],[12.8877956,46.2262939],[12.8868569,46.226831],[12.8861314,46.227084],[12.8849022,46.2280261],[12.8845154,46.2285085],[12.8834372,46.2291618],[12.8833239,46.2294117],[12.8833112,46.2297426],[12.8830249,46.2300361],[12.8828331,46.2304394],[12.8822875,46.2307317],[12.881411,46.2308631],[12.8812973,46.2309869],[12.8812076,46.2312949],[12.8801738,46.2316033],[12.8801177,46.2317139],[12.8802587,46.2319577],[12.8802973,46.232304],[12.879995,46.2327448],[12.8798792,46.2331927],[12.8801059,46.2341761],[12.8798055,46.2345665],[12.8796488,46.2354024],[12.8789399,46.2354901],[12.8784162,46.2357504],[12.8778138,46.2365744],[12.8777191,46.2368786],[12.8773993,46.2370995],[12.8770465,46.2375034],[12.87639,46.2377108],[12.8760749,46.2379425],[12.8760327,46.2384997],[12.8756446,46.2395473],[12.8756663,46.2397925],[12.8759086,46.2403694],[12.8759109,46.2408483],[12.875637,46.241358],[12.8749829,46.2421739],[12.8738631,46.243359],[12.8723655,46.2442492],[12.8713456,46.2451302],[12.8702037,46.2456742],[12.8686654,46.2462719],[12.867835,46.2464112],[12.8674705,46.2465772],[12.8671169,46.2465958],[12.8665079,46.2469121],[12.8658984,46.2471095],[12.8654811,46.2475661],[12.8653065,46.2476528],[12.8644362,46.2478814],[12.8642413,46.2484934],[12.863933,46.2489484],[12.8637036,46.2491097],[12.8634734,46.2494258],[12.8631991,46.2495395],[12.8631498,46.2497402],[12.8627761,46.2498772],[12.8626249,46.2501624],[12.8622891,46.2505233],[12.8621458,46.2514062],[12.8625731,46.2522962],[12.8622882,46.2528041],[12.8611654,46.2525006],[12.8612765,46.252363],[12.8583784,46.2517162],[12.8581981,46.2521363],[12.8567504,46.2516251],[12.85545,46.2515192],[12.8539327,46.2497495],[12.8468829,46.2514919],[12.8405091,46.2493101]]]},"properties":{"type":"boundary","gemeente":"Castelnovo del Friuli / Cjastelgnûf"}}]}