{"type":"FeatureCollection","metadata":{"gemeente":"Castelmarte","slug":"castelmarte","generated_at":"2026-09-26T14:27:08.271892Z","total_points":2,"providers":["PosteItaliane","Amazon"],"bounds":[9.2323601,45.8327252,9.23368177,45.835189]},"features":[{"type":"Feature","geometry":{"type":"Point","coordinates":[9.23368177,45.8327252]},"properties":{"type":"pakketpunt","locatieNaam":"Castelmarte","straatNaam":"Via Roma","straatNr":"60","vervoerder":"PosteItaliane","puntType":"postkantoor","bezettingsgraad":50,"latitude":45.8327252,"longitude":9.23368177,"canPickup":true,"canDropoff":true,"openingstijden":{"za":"08:20 - 12:45","zo":"gesloten","ma":"gesloten","di":"08:20 - 13:45","wo":"gesloten","do":"08:20 - 13:45","vr":"gesloten"}}},{"type":"Feature","geometry":{"type":"Point","coordinates":[9.2323601,45.835189]},"properties":{"type":"pakketpunt","locatieNaam":"Amazon Locker - monir","straatNaam":"Ferrovienord / Caslino d'Erba","straatNr":"","vervoerder":"Amazon","puntType":"locker","bezettingsgraad":50,"latitude":45.835189,"longitude":9.2323601,"canPickup":true,"canDropoff":false,"openingstijden":null}},{"type":"Feature","geometry":{"type":"Polygon","coordinates":[[[9.2288372,45.8347951],[9.2361812,45.8358691],[9.2364534,45.835936],[9.2369217,45.8362861],[9.2372877,45.8364293],[9.2381267,45.836522],[9.2386038,45.836692],[9.2399289,45.8375353],[9.2414321,45.8378561],[9.2415772,45.8379188],[9.2415748,45.8384678],[9.2429798,45.8391578],[9.2433237,45.8394001],[9.2433767,45.839742],[9.2433053,45.8399807],[9.243129,45.8401521],[9.2437713,45.8405197],[9.2444117,45.8404733],[9.2446526,45.8407068],[9.2447774,45.8412646],[9.2446613,45.8415798],[9.2446724,45.8418993],[9.2460867,45.8424948],[9.2485814,45.8424038],[9.2490809,45.8428708],[9.2515887,45.8438958],[9.2530896,45.845076],[9.2538351,45.8451193],[9.2543951,45.8454151],[9.2545494,45.8453742],[9.2541457,45.8443941],[9.2543529,45.8442901],[9.2540517,45.8439128],[9.2539787,45.8434314],[9.2556964,45.8444986],[9.2561183,45.8448801],[9.2569834,45.8453642],[9.257821,45.8447638],[9.256498,45.8437812],[9.2567949,45.843236],[9.2581198,45.843611],[9.2586918,45.8430291],[9.2579514,45.8427977],[9.2581944,45.8419863],[9.2571188,45.8422678],[9.2560478,45.8424328],[9.2561109,45.8419705],[9.2565254,45.8406625],[9.2566775,45.8404912],[9.25613,45.8401353],[9.2545938,45.8399694],[9.2576419,45.8381129],[9.2574769,45.8379287],[9.2566828,45.8374625],[9.2539897,45.8363571],[9.2517704,45.8353405],[9.2500504,45.8344127],[9.2491404,45.8335552],[9.2487905,45.833403],[9.2473828,45.833172],[9.2462651,45.8326569],[9.2424868,45.831702],[9.2420449,45.831496],[9.2404127,45.8303294],[9.2400427,45.8299837],[9.2399268,45.8296149],[9.2401659,45.8287053],[9.2393629,45.8283335],[9.2391447,45.8281314],[9.2392203,45.8277488],[9.2396132,45.8274329],[9.2398749,45.8269148],[9.2391581,45.8267543],[9.2383638,45.826357],[9.2385981,45.8271159],[9.2385499,45.8273846],[9.2375637,45.8276037],[9.2374896,45.827731],[9.2376916,45.8280455],[9.2370264,45.8282217],[9.236666,45.8284292],[9.2356226,45.8282128],[9.2336168,45.828161],[9.2329739,45.8283513],[9.2315641,45.8283452],[9.2312409,45.8284134],[9.231042,45.8285668],[9.2309371,45.828873],[9.2312778,45.8291514],[9.2313336,45.8293988],[9.2308716,45.8293907],[9.230921,45.8296381],[9.2312261,45.8298625],[9.2312012,45.8300696],[9.231353,45.8301998],[9.2320247,45.8303514],[9.232154,45.8300946],[9.2344917,45.8302968],[9.2349783,45.8304308],[9.2333784,45.8303936],[9.2333626,45.8304702],[9.2340054,45.8306173],[9.2339206,45.8307345],[9.2337421,45.8307619],[9.2323457,45.8305263],[9.2322027,45.8305625],[9.2324835,45.83076],[9.2324951,45.8308365],[9.2323632,45.8308502],[9.2314619,45.8304561],[9.2301639,45.8303547],[9.2302649,45.8304848],[9.2302421,45.8309609],[9.2297619,45.8311166],[9.229768,45.8314226],[9.2293263,45.8316305],[9.2295718,45.831837],[9.2298794,45.8318859],[9.2299951,45.8322457],[9.2285223,45.8325952],[9.2283104,45.8327306],[9.2282341,45.8329513],[9.2284593,45.8333108],[9.2291972,45.8338944],[9.2291949,45.8341194],[9.2290628,45.8344572],[9.2288372,45.8347951]]]},"properties":{"type":"boundary","gemeente":"Castelmarte"}}]}