{"type":"FeatureCollection","metadata":{"gemeente":"Castel Goffredo","slug":"castel-goffredo","generated_at":"2026-09-26T14:27:07.169329Z","total_points":35,"providers":["PosteItaliane","DPD","InPost","GLS","DHL","Amazon","FedEx"],"bounds":[10.434363,45.283,10.4914862,45.302938]},"features":[{"type":"Feature","geometry":{"type":"Point","coordinates":[10.473465,45.299085]},"properties":{"type":"pakketpunt","locatieNaam":"Castel Goffredo","straatNaam":"Piazza Martiri Della Liberazione","straatNr":"19","vervoerder":"PosteItaliane","puntType":"postkantoor","bezettingsgraad":50,"latitude":45.299085,"longitude":10.473465,"canPickup":true,"canDropoff":true,"openingstijden":{"za":"08:20 - 12:35","zo":"gesloten","ma":"08:20 - 13:35","di":"08:20 - 13:35","wo":"08:20 - 13:35","do":"08:20 - 13:35","vr":"08:20 - 13:35"}}},{"type":"Feature","geometry":{"type":"Point","coordinates":[10.47312044,45.30221892]},"properties":{"type":"pakketpunt","locatieNaam":"Centro Commerciale Il Ponte","straatNaam":"Via Castiglione Delle Stiviere","straatNr":"5","vervoerder":"PosteItaliane","puntType":"automaat","bezettingsgraad":50,"latitude":45.30221892,"longitude":10.47312044,"canPickup":true,"canDropoff":true,"openingstijden":{"za":"00:01 - 23:59","zo":"00:01 - 23:59","ma":"00:01 - 23:59","di":"00:01 - 23:59","wo":"00:01 - 23:59","do":"00:01 - 23:59","vr":"00:01 - 23:59"}}},{"type":"Feature","geometry":{"type":"Point","coordinates":[10.47622707,45.29776956]},"properties":{"type":"pakketpunt","locatieNaam":"Tabaccheria N. 3","straatNaam":"Via Mantova","straatNr":"8","vervoerder":"PosteItaliane","puntType":"servicepunt","bezettingsgraad":50,"latitude":45.29776956,"longitude":10.47622707,"canPickup":true,"canDropoff":true,"openingstijden":{"za":"06:30 - 12:30, 13:30 - 19:00","zo":"gesloten","ma":"08:30 - 12:00, 15:00 - 18:00","di":"06:30 - 12:30, 13:30 - 19:00","wo":"06:30 - 12:30, 13:30 - 19:00","do":"06:30 - 12:30, 13:30 - 19:00","vr":"06:30 - 12:30, 13:30 - 19:00"}}},{"type":"Feature","geometry":{"type":"Point","coordinates":[10.47069708,45.29606944]},"properties":{"type":"pakketpunt","locatieNaam":"Tabaccheria N. 5","straatNaam":"Via Francesco Bonfiglio","straatNr":"41","vervoerder":"PosteItaliane","puntType":"servicepunt","bezettingsgraad":50,"latitude":45.29606944,"longitude":10.47069708,"canPickup":true,"canDropoff":true,"openingstijden":{"za":"07:00 - 12:30, 13:30 - 19:30","zo":"gesloten","ma":"07:00 - 12:30, 13:30 - 19:30","di":"07:00 - 12:30, 13:30 - 19:30","wo":"07:00 - 12:30, 13:30 - 19:30","do":"07:00 - 12:30, 13:30 - 19:30","vr":"07:00 - 12:30, 13:30 - 19:30"}}},{"type":"Feature","geometry":{"type":"Point","coordinates":[10.4689599,45.30213624]},"properties":{"type":"pakketpunt","locatieNaam":"Tabaccheria N. 2","straatNaam":"Via Brescia","straatNr":"8/m","vervoerder":"PosteItaliane","puntType":"servicepunt","bezettingsgraad":50,"latitude":45.30213624,"longitude":10.4689599,"canPickup":true,"canDropoff":true,"openingstijden":{"za":"07:30 - 12:30, 13:30 - 19:30","zo":"gesloten","ma":"07:30 - 12:30, 13:30 - 19:30","di":"07:30 - 12:30, 13:30 - 19:30","wo":"07:30 - 12:30, 13:30 - 19:30","do":"07:30 - 12:30, 13:30 - 19:30","vr":"07:30 - 12:30, 13:30 - 19:30"}}},{"type":"Feature","geometry":{"type":"Point","coordinates":[10.47613354,45.29874057]},"properties":{"type":"pakketpunt","locatieNaam":"Edicola Di Castel Goffredo","straatNaam":"Viale Montegrappa","straatNr":"33","vervoerder":"PosteItaliane","puntType":"servicepunt","bezettingsgraad":50,"latitude":45.29874057,"longitude":10.47613354,"canPickup":true,"canDropoff":true,"openingstijden":{"za":"05:00 - 12:30, 15:00 - 19:00","zo":"05:00 - 12:30","ma":"05:00 - 12:30, 15:00 - 19:00","di":"05:00 - 12:30, 15:00 - 19:00","wo":"05:00 - 12:30, 15:00 - 19:00","do":"05:00 - 12:30, 15:00 - 19:00","vr":"05:00 - 12:30, 15:00 - 19:00"}}},{"type":"Feature","geometry":{"type":"Point","coordinates":[10.46808329,45.30282179]},"properties":{"type":"pakketpunt","locatieNaam":"Stazione Di Servizio Tamoil","straatNaam":"Via Brescia","straatNr":"20","vervoerder":"PosteItaliane","puntType":"automaat","bezettingsgraad":50,"latitude":45.30282179,"longitude":10.46808329,"canPickup":true,"canDropoff":true,"openingstijden":{"za":"00:00 - 23:59","zo":"00:00 - 23:59","ma":"00:00 - 23:59","di":"00:00 - 23:59","wo":"00:00 - 23:59","do":"00:00 - 23:59","vr":"00:00 - 23:59"}}},{"type":"Feature","geometry":{"type":"Point","coordinates":[10.4741541503,45.2993427199]},"properties":{"type":"pakketpunt","locatieNaam":"Edicola3M","straatNaam":"VIALE MONTE GRAPPA","straatNr":"","vervoerder":"DPD","puntType":"pickup_point","bezettingsgraad":50,"latitude":45.2993427199,"longitude":10.4741541503,"canPickup":true,"canDropoff":true,"openingstijden":{"ma":"05:30 - 12:30, 15:00 - 19:00","di":"05:30 - 12:30, 15:00 - 19:00","wo":"05:30 - 12:30, 15:00 - 19:00","do":"05:30 - 12:30, 15:00 - 19:00","vr":"05:30 - 12:30, 15:00 - 19:00","za":"05:30 - 12:30, 15:00 - 19:00","zo":"05:30 - 12:30"}}},{"type":"Feature","geometry":{"type":"Point","coordinates":[10.43516766,45.29187244]},"properties":{"type":"pakketpunt","locatieNaam":"Bar Eredi Predomi","straatNaam":"VIA CASALPOGLIO","straatNr":"32","vervoerder":"DPD","puntType":"pickup_point","bezettingsgraad":50,"latitude":45.29187244,"longitude":10.43516766,"canPickup":true,"canDropoff":true,"openingstijden":{"ma":"07:30 - 23:30","di":"gesloten","wo":"07:30 - 23:30","do":"07:30 - 23:30","vr":"07:30 - 23:30","za":"07:30 - 23:30","zo":"07:30 - 23:30"}}},{"type":"Feature","geometry":{"type":"Point","coordinates":[10.472538,45.302061]},"properties":{"type":"pakketpunt","locatieNaam":"BRT LOCKER - Italmark Castel Goffre","straatNaam":"VIA CASTIGLIONE DELLE STIVIERE","straatNr":"5","vervoerder":"DPD","puntType":"dpd_box","bezettingsgraad":50,"latitude":45.302061,"longitude":10.472538,"canPickup":true,"canDropoff":true,"openingstijden":{"ma":"08:00 - 20:00","di":"08:00 - 20:00","wo":"08:00 - 20:00","do":"08:00 - 20:00","vr":"08:00 - 20:00","za":"08:00 - 20:00","zo":"08:30 - 13:00"}}},{"type":"Feature","geometry":{"type":"Point","coordinates":[10.48835,45.29477]},"properties":{"type":"pakketpunt","locatieNaam":"InPost Locker 24/7 ","straatNaam":"Via Bernolini","straatNr":"snc","vervoerder":"InPost","puntType":"automaat","bezettingsgraad":50,"latitude":45.29477,"longitude":10.48835,"canPickup":true,"canDropoff":true,"openingstijden":null}},{"type":"Feature","geometry":{"type":"Point","coordinates":[10.47349,45.283]},"properties":{"type":"pakketpunt","locatieNaam":"","straatNaam":"Via Svizzera","straatNr":"1","vervoerder":"InPost","puntType":"automaat","bezettingsgraad":50,"latitude":45.283,"longitude":10.47349,"canPickup":true,"canDropoff":true,"openingstijden":null}},{"type":"Feature","geometry":{"type":"Point","coordinates":[10.47303,45.29864]},"properties":{"type":"pakketpunt","locatieNaam":"","straatNaam":"Via Italia","straatNr":"1","vervoerder":"InPost","puntType":"automaat","bezettingsgraad":50,"latitude":45.29864,"longitude":10.47303,"canPickup":true,"canDropoff":true,"openingstijden":null}},{"type":"Feature","geometry":{"type":"Point","coordinates":[10.46802,45.30287]},"properties":{"type":"pakketpunt","locatieNaam":"InPost Locker 24/7","straatNaam":"Via Brescia","straatNr":"20","vervoerder":"InPost","puntType":"automaat","bezettingsgraad":50,"latitude":45.30287,"longitude":10.46802,"canPickup":true,"canDropoff":true,"openingstijden":null}},{"type":"Feature","geometry":{"type":"Point","coordinates":[10.47618,45.29877]},"properties":{"type":"pakketpunt","locatieNaam":"InPost Point","straatNaam":"Viale Monte Grappa","straatNr":"33","vervoerder":"InPost","puntType":"servicepunt","bezettingsgraad":50,"latitude":45.29877,"longitude":10.47618,"canPickup":true,"canDropoff":true,"openingstijden":"Lun-Ven: 08:00 - 12:30 - 15:30 - 19:30 Sab: 09:00 - 12:00"}},{"type":"Feature","geometry":{"type":"Point","coordinates":[10.46871,45.30201]},"properties":{"type":"pakketpunt","locatieNaam":"InPost Point","straatNaam":"Via Brescia, 10, Castel Goffredo MN, Italia","straatNr":"10","vervoerder":"InPost","puntType":"servicepunt","bezettingsgraad":50,"latitude":45.30201,"longitude":10.46871,"canPickup":true,"canDropoff":true,"openingstijden":"Lun-Sab 07:30-12:30, 13:30-19:30"}},{"type":"Feature","geometry":{"type":"Point","coordinates":[10.434363,45.290027]},"properties":{"type":"pakketpunt","locatieNaam":"bar casalpoglio","straatNaam":"Via Casalpoglio","straatNr":"32","vervoerder":"GLS","puntType":"parcel_shop","bezettingsgraad":50,"latitude":45.290027,"longitude":10.434363,"canPickup":true,"canDropoff":true,"openingstijden":"za: 07:30 - 23:00; zo: 07:30 - 23:00"}},{"type":"Feature","geometry":{"type":"Point","coordinates":[10.4741534,45.2993381]},"properties":{"type":"pakketpunt","locatieNaam":"EDICOLA 3M","straatNaam":"Viale Monte Grappa","straatNr":"33","vervoerder":"GLS","puntType":"parcel_shop","bezettingsgraad":50,"latitude":45.2993381,"longitude":10.4741534,"canPickup":true,"canDropoff":true,"openingstijden":"za: 05:00 - 12:30, 15:00 - 19:30; zo: 05:00 - 12:30"}},{"type":"Feature","geometry":{"type":"Point","coordinates":[10.470697,45.296069]},"properties":{"type":"pakketpunt","locatieNaam":"TABACCHERIA N. 5","straatNaam":"VIA FRANCESCO BONFIGLIO 41","straatNr":"","vervoerder":"DHL","puntType":"parcelShop","bezettingsgraad":50,"latitude":45.296069,"longitude":10.470697,"canPickup":true,"canDropoff":true,"openingstijden":{"ma":"07:00 - 12:30, 13:30 - 19:30","di":"07:00 - 12:30, 13:30 - 19:30","wo":"07:00 - 12:30, 13:30 - 19:30","do":"07:00 - 12:30, 13:30 - 19:30","vr":"07:00 - 12:30, 13:30 - 19:30","za":"07:00 - 12:30, 13:30 - 19:30","zo":"gesloten"}}},{"type":"Feature","geometry":{"type":"Point","coordinates":[10.476227,45.29777]},"properties":{"type":"pakketpunt","locatieNaam":"TABACCHERIA N. 3","straatNaam":"VIA MANTOVA 8","straatNr":"","vervoerder":"DHL","puntType":"parcelShop","bezettingsgraad":50,"latitude":45.29777,"longitude":10.476227,"canPickup":true,"canDropoff":true,"openingstijden":{"ma":"08:30 - 12:00, 15:00 - 18:00","di":"06:30 - 12:30, 13:30 - 19:00","wo":"06:30 - 12:30, 13:30 - 19:00","do":"06:30 - 12:30, 13:30 - 19:00","vr":"06:30 - 12:30, 13:30 - 19:00","za":"06:30 - 12:30, 13:30 - 19:00","zo":"gesloten"}}},{"type":"Feature","geometry":{"type":"Point","coordinates":[10.476134,45.298741]},"properties":{"type":"pakketpunt","locatieNaam":"EDICOLA DI CASTEL GOFFREDO","straatNaam":"VIALE MONTEGRAPPA 33","straatNr":"","vervoerder":"DHL","puntType":"parcelShop","bezettingsgraad":50,"latitude":45.298741,"longitude":10.476134,"canPickup":true,"canDropoff":true,"openingstijden":{"ma":"05:00 - 12:30, 15:00 - 19:00","di":"05:00 - 12:30, 15:00 - 19:00","wo":"05:00 - 12:30, 15:00 - 19:00","do":"05:00 - 12:30, 15:00 - 19:00","vr":"05:00 - 12:30, 15:00 - 19:00","za":"05:00 - 12:30, 15:00 - 19:00","zo":"05:00 - 12:30"}}},{"type":"Feature","geometry":{"type":"Point","coordinates":[10.47618,45.29877]},"properties":{"type":"pakketpunt","locatieNaam":"EDICOLA 3M","straatNaam":"Viale Monte Grappa 33","straatNr":"","vervoerder":"DHL","puntType":"parcelShop","bezettingsgraad":50,"latitude":45.29877,"longitude":10.47618,"canPickup":false,"canDropoff":true,"openingstijden":{"ma":"05:00 - 19:00","di":"05:00 - 19:00","wo":"05:00 - 19:00","do":"05:00 - 19:00","vr":"05:00 - 19:00","za":"05:00 - 19:00","zo":"gesloten"}}},{"type":"Feature","geometry":{"type":"Point","coordinates":[10.473465,45.299085]},"properties":{"type":"pakketpunt","locatieNaam":"Ufficio Postale CASTEL GOFFREDO","straatNaam":"PIAZZA MARTIRI DELLA LIBERAZIONE 19","straatNr":"","vervoerder":"DHL","puntType":"postOffice","bezettingsgraad":50,"latitude":45.299085,"longitude":10.473465,"canPickup":true,"canDropoff":true,"openingstijden":{"ma":"08:20 - 13:35","di":"08:20 - 13:35","wo":"08:20 - 13:35","do":"08:20 - 13:35","vr":"08:20 - 13:35","za":"08:20 - 12:35","zo":"gesloten"}}},{"type":"Feature","geometry":{"type":"Point","coordinates":[10.46896,45.302136]},"properties":{"type":"pakketpunt","locatieNaam":"TABACCHERIA N. 2","straatNaam":"VIA BRESCIA 8-M","straatNr":"","vervoerder":"DHL","puntType":"parcelShop","bezettingsgraad":50,"latitude":45.302136,"longitude":10.46896,"canPickup":true,"canDropoff":true,"openingstijden":{"ma":"07:30 - 12:30, 13:30 - 19:30","di":"07:30 - 12:30, 13:30 - 19:30","wo":"07:30 - 12:30, 13:30 - 19:30","do":"07:30 - 12:30, 13:30 - 19:30","vr":"07:30 - 12:30, 13:30 - 19:30","za":"07:30 - 12:30, 13:30 - 19:30","zo":"gesloten"}}},{"type":"Feature","geometry":{"type":"Point","coordinates":[10.47312,45.302219]},"properties":{"type":"pakketpunt","locatieNaam":"CENTRO COMMERCIALE IL PONTE","straatNaam":"VIA CASTIGLIONE DELLE STIVIERE 5","straatNr":"","vervoerder":"DHL","puntType":"packStation","bezettingsgraad":50,"latitude":45.302219,"longitude":10.47312,"canPickup":true,"canDropoff":true,"openingstijden":{"ma":"00:01 - 23:59","di":"00:01 - 23:59","wo":"00:01 - 23:59","do":"00:01 - 23:59","vr":"00:01 - 23:59","za":"00:01 - 23:59","zo":"00:01 - 23:59"}}},{"type":"Feature","geometry":{"type":"Point","coordinates":[10.468083,45.302822]},"properties":{"type":"pakketpunt","locatieNaam":"STAZIONE DI SERVIZIO TAMOIL","straatNaam":"VIA BRESCIA 20","straatNr":"","vervoerder":"DHL","puntType":"packStation","bezettingsgraad":50,"latitude":45.302822,"longitude":10.468083,"canPickup":true,"canDropoff":true,"openingstijden":{"ma":"00:00 - 23:59","di":"00:00 - 23:59","wo":"00:00 - 23:59","do":"00:00 - 23:59","vr":"00:00 - 23:59","za":"00:00 - 23:59","zo":"00:00 - 23:59"}}},{"type":"Feature","geometry":{"type":"Point","coordinates":[10.468076,45.302938]},"properties":{"type":"pakketpunt","locatieNaam":"Amazon Locker - quintilia","straatNaam":"Stazione Tamoil - PV 2623","straatNr":"","vervoerder":"Amazon","puntType":"locker","bezettingsgraad":50,"latitude":45.302938,"longitude":10.468076,"canPickup":true,"canDropoff":false,"openingstijden":null}},{"type":"Feature","geometry":{"type":"Point","coordinates":[10.472734,45.288237]},"properties":{"type":"pakketpunt","locatieNaam":"Amazon Locker - Cassata","straatNaam":"Ciwas Acquamore - CASTEL GOFFREDO","straatNr":"","vervoerder":"Amazon","puntType":"locker","bezettingsgraad":50,"latitude":45.288237,"longitude":10.472734,"canPickup":true,"canDropoff":false,"openingstijden":null}},{"type":"Feature","geometry":{"type":"Point","coordinates":[10.4741541502624,45.2993427199412]},"properties":{"type":"pakketpunt","locatieNaam":"Amazon Counter (fermopoint)","straatNaam":"Edicola3M","straatNr":"","vervoerder":"Amazon","puntType":"helix","bezettingsgraad":50,"latitude":45.2993427199412,"longitude":10.4741541502624,"canPickup":true,"canDropoff":false,"openingstijden":null}},{"type":"Feature","geometry":{"type":"Point","coordinates":[10.4914862,45.2983424]},"properties":{"type":"pakketpunt","locatieNaam":"Amazon Locker - Dorinda","straatNaam":"Stazione Tamoil - PV 6920","straatNr":"","vervoerder":"Amazon","puntType":"locker","bezettingsgraad":50,"latitude":45.2983424,"longitude":10.4914862,"canPickup":true,"canDropoff":false,"openingstijden":null}},{"type":"Feature","geometry":{"type":"Point","coordinates":[10.473201,45.298782]},"properties":{"type":"pakketpunt","locatieNaam":"Amazon Counter - SPAZIO ENEL","straatNaam":"VIA ITALIA 12","straatNr":"","vervoerder":"Amazon","puntType":"helix","bezettingsgraad":50,"latitude":45.298782,"longitude":10.473201,"canPickup":true,"canDropoff":false,"openingstijden":null}},{"type":"Feature","geometry":{"type":"Point","coordinates":[10.473069,45.298532]},"properties":{"type":"pakketpunt","locatieNaam":"Amazon Locker - cavo","straatNaam":"Bloomest Castel Goffredo (MN)","straatNr":"","vervoerder":"Amazon","puntType":"locker","bezettingsgraad":50,"latitude":45.298532,"longitude":10.473069,"canPickup":true,"canDropoff":false,"openingstijden":null}},{"type":"Feature","geometry":{"type":"Point","coordinates":[10.434363,45.290027]},"properties":{"type":"pakketpunt","locatieNaam":"FedEx OnSite","straatNaam":"via casalpoglio, 32","straatNr":"","vervoerder":"FedEx","puntType":"servicepunt","bezettingsgraad":50,"latitude":45.290027,"longitude":10.434363,"canPickup":true,"canDropoff":true,"openingstijden":{"ma":"07:30 - 23:00","di":"gesloten","wo":"07:30 - 23:00","do":"07:30 - 23:00","vr":"07:30 - 23:00","za":"07:30 - 23:00","zo":"07:30 - 23:00"}}},{"type":"Feature","geometry":{"type":"Point","coordinates":[10.470770478049047,45.29605711686438]},"properties":{"type":"pakketpunt","locatieNaam":"FedEx OnSite","straatNaam":"VIA BONFIGLIO 41","straatNr":"","vervoerder":"FedEx","puntType":"servicepunt","bezettingsgraad":50,"latitude":45.29605711686438,"longitude":10.470770478049047,"canPickup":true,"canDropoff":true,"openingstijden":{"ma":"06:30 - 12:30, 13:30 - 19:30","di":"06:30 - 12:30, 13:30 - 19:30","wo":"06:30 - 12:30, 13:30 - 19:30","do":"06:30 - 12:30, 13:30 - 19:30","vr":"06:30 - 12:30, 13:30 - 19:30","za":"06:30 - 12:30, 13:30 - 19:30","zo":"gesloten"}}},{"type":"Feature","geometry":{"type":"Point","coordinates":[10.474196910540945,45.299331232546876]},"properties":{"type":"pakketpunt","locatieNaam":"FedEx OnSite","straatNaam":"Viale Monte Grappa, 33","straatNr":"","vervoerder":"FedEx","puntType":"servicepunt","bezettingsgraad":50,"latitude":45.299331232546876,"longitude":10.474196910540945,"canPickup":true,"canDropoff":true,"openingstijden":{"ma":"05:00 - 12:30, 15:00 - 19:00","di":"05:00 - 12:30, 15:00 - 19:30","wo":"05:00 - 12:30, 15:00 - 19:30","do":"05:00 - 12:30, 15:00 - 19:30","vr":"05:00 - 12:30, 15:00 - 19:30","za":"05:00 - 12:30, 15:00 - 19:30","zo":"05:00 - 12:30"}}},{"type":"Feature","geometry":{"type":"Polygon","coordinates":[[[10.4250143,45.2967495],[10.4245375,45.2980399],[10.4243919,45.2990613],[10.424226,45.2991981],[10.4241522,45.2994825],[10.4244249,45.3006446],[10.424648,45.3021229],[10.4246259,45.3028144],[10.4248974,45.30314],[10.4249916,45.3030652],[10.4252793,45.3030996],[10.4255955,45.3032626],[10.4261429,45.303748],[10.4263804,45.3038117],[10.4264047,45.3042476],[10.426337,45.3044066],[10.4262036,45.3046358],[10.4258903,45.3046747],[10.4258693,45.304853],[10.4257494,45.3049969],[10.4260292,45.305383],[10.4264465,45.3057701],[10.4270262,45.306069],[10.4277681,45.306817],[10.4281089,45.3072907],[10.427951,45.3082881],[10.4279532,45.308878],[10.4289838,45.3100793],[10.4295117,45.3112251],[10.4301398,45.3118113],[10.430525,45.3125308],[10.4306238,45.3128987],[10.4306676,45.3145998],[10.4306098,45.3153299],[10.4301985,45.3162085],[10.4299705,45.3170099],[10.4297181,45.3171213],[10.4295495,45.317988],[10.429951,45.3201442],[10.4289346,45.3203286],[10.4288562,45.3212302],[10.4291327,45.3214174],[10.4309008,45.3211877],[10.4355301,45.3210473],[10.4421084,45.320571],[10.4429624,45.3206124],[10.4437618,45.3204743],[10.4483644,45.3203596],[10.4485839,45.3204558],[10.4488871,45.3237653],[10.4490062,45.3241341],[10.4493418,45.3266007],[10.4533497,45.3264553],[10.4529403,45.3246062],[10.4541269,45.3246046],[10.4642843,45.325177],[10.4643105,45.3250821],[10.4661478,45.3250766],[10.466341,45.3270004],[10.4663416,45.3286506],[10.4661608,45.3293616],[10.4660937,45.3306263],[10.4653767,45.33222],[10.4652913,45.3325587],[10.4653282,45.3334314],[10.4647296,45.3342807],[10.4647637,45.3346133],[10.4648833,45.3347378],[10.4651447,45.3347884],[10.4700176,45.3339022],[10.4716765,45.3322565],[10.4752343,45.329542],[10.4762542,45.328898],[10.4794081,45.3265214],[10.4789489,45.3254877],[10.4837077,45.3250929],[10.484089,45.3248539],[10.4840377,45.3236844],[10.4839582,45.3236703],[10.4841989,45.3236041],[10.4843096,45.3234495],[10.4856027,45.32264],[10.4857512,45.322467],[10.4859775,45.3223379],[10.4862322,45.3223165],[10.4862529,45.3221362],[10.4865032,45.3219528],[10.486945,45.3217668],[10.487054,45.3215493],[10.4882524,45.3205429],[10.4888847,45.3198502],[10.4894742,45.3194642],[10.4908119,45.3188972],[10.4909353,45.3187424],[10.4911895,45.318703],[10.491539,45.3184103],[10.4926803,45.3167113],[10.4933896,45.3154997],[10.493172,45.3152947],[10.4935789,45.3150663],[10.4938992,45.3148165],[10.4939718,45.3146714],[10.4939524,45.3144285],[10.4931118,45.3135664],[10.4930406,45.3132972],[10.4933247,45.3131372],[10.493594,45.3131876],[10.4943344,45.3136729],[10.494803,45.3135406],[10.4982619,45.3116666],[10.4983465,45.3114944],[10.4980247,45.3109134],[10.4994971,45.3106236],[10.5010268,45.3105671],[10.5027253,45.3100561],[10.50166,45.3079409],[10.5013857,45.3072096],[10.5009308,45.3055226],[10.5008813,45.3051036],[10.5009491,45.3048076],[10.503271,45.3046504],[10.5038182,45.3060409],[10.5061788,45.3052531],[10.5080252,45.3051202],[10.5094801,45.3048718],[10.5090171,45.3034026],[10.5094825,45.302685],[10.5100604,45.3023531],[10.5105029,45.302203],[10.5112316,45.3022563],[10.5114967,45.3021536],[10.51166,45.3044115],[10.5140788,45.3037395],[10.5145484,45.3045886],[10.5152215,45.3044714],[10.5158167,45.3052467],[10.5161959,45.3060519],[10.5185705,45.3061008],[10.5186916,45.3068015],[10.5187053,45.3077738],[10.5190411,45.3079223],[10.5196046,45.3079957],[10.5204138,45.3077236],[10.5209961,45.3070854],[10.5222299,45.3064744],[10.5233695,45.3061528],[10.5237953,45.306327],[10.5243656,45.3061842],[10.524537,45.3059208],[10.525053,45.3056616],[10.5256458,45.3049423],[10.5274799,45.3038908],[10.5275262,45.3037191],[10.5276267,45.3036637],[10.5280339,45.3036221],[10.5285102,45.3033095],[10.5314455,45.3023571],[10.5320172,45.3018151],[10.5326735,45.3013723],[10.5335428,45.3010865],[10.5344458,45.3006544],[10.5343328,45.3003012],[10.5339648,45.3000061],[10.5333264,45.2996847],[10.5332989,45.2995802],[10.5336397,45.2989988],[10.5336262,45.2988213],[10.533273,45.2984734],[10.5324819,45.2980663],[10.5322042,45.2976117],[10.532081,45.296895],[10.5321203,45.2967486],[10.5324866,45.2963526],[10.5325394,45.2959917],[10.5321161,45.2957423],[10.5321215,45.2956048],[10.5319376,45.2953299],[10.5319575,45.2951315],[10.5317886,45.2948078],[10.5313998,45.294691],[10.5314678,45.294544],[10.5313008,45.2943941],[10.5314033,45.2941211],[10.5325064,45.2937049],[10.5331081,45.2944836],[10.5334723,45.2944233],[10.5337771,45.2938022],[10.533872,45.2937476],[10.5368171,45.2930469],[10.5387223,45.291994],[10.5385535,45.2916785],[10.5386092,45.2915156],[10.5402929,45.2910131],[10.5429238,45.2899318],[10.5417792,45.2889228],[10.5411718,45.2878936],[10.542611,45.285776],[10.5460898,45.2841103],[10.5442968,45.282297],[10.5442236,45.2819463],[10.5438256,45.2820729],[10.5397401,45.2779401],[10.5397208,45.2777642],[10.5391244,45.2770985],[10.5368222,45.2747691],[10.5366805,45.2744166],[10.5366828,45.2738265],[10.5362431,45.2736298],[10.5351263,45.2721873],[10.5346918,45.2718089],[10.5342835,45.2716245],[10.5332913,45.2706805],[10.5333752,45.2705089],[10.5343636,45.2700828],[10.5350432,45.2696635],[10.5350693,45.269477],[10.5346861,45.2692269],[10.5312324,45.2695622],[10.5310851,45.2697231],[10.5311759,45.2700929],[10.530564,45.2704905],[10.5309542,45.2714114],[10.5314443,45.2714935],[10.5314296,45.2716757],[10.5307542,45.2723212],[10.530554,45.2726995],[10.5302216,45.2727008],[10.5300384,45.2725715],[10.5297807,45.2725691],[10.5294597,45.2726806],[10.5289535,45.2725733],[10.5286198,45.2722611],[10.5273336,45.2705302],[10.527018,45.2702378],[10.5265155,45.2699623],[10.5247594,45.2717605],[10.524675,45.2719273],[10.524683,45.2726975],[10.5244625,45.2732289],[10.5237309,45.273941],[10.5206555,45.2729977],[10.5192885,45.2720645],[10.5184484,45.2712739],[10.5181535,45.2705203],[10.5174668,45.2697022],[10.5173119,45.2695559],[10.5168522,45.2693756],[10.5158772,45.2682321],[10.5154101,45.2684196],[10.5144135,45.2681252],[10.5125153,45.2678941],[10.5121944,45.2676098],[10.5101833,45.2665961],[10.5091848,45.2682837],[10.5083236,45.2686335],[10.5078614,45.2681364],[10.5076218,45.2680162],[10.5062836,45.2681773],[10.5041077,45.2682832],[10.5038194,45.26837],[10.5036893,45.2685424],[10.5032732,45.2696826],[10.5033506,45.2709866],[10.5032882,45.2717725],[10.5034906,45.2727272],[10.5035849,45.2738229],[10.5034678,45.2743344],[10.5030135,45.2748042],[10.5027755,45.2751807],[10.5023853,45.2754313],[10.5005434,45.2757322],[10.499507,45.2759961],[10.4993476,45.2750538],[10.4991979,45.2748953],[10.4967518,45.2758067],[10.4961958,45.2759233],[10.4958798,45.2758935],[10.4956853,45.2757601],[10.4952411,45.2759511],[10.4940373,45.2760741],[10.4939901,45.275997],[10.4942382,45.2751349],[10.4950211,45.2744631],[10.4948728,45.2742494],[10.4919753,45.2739375],[10.488266,45.2730927],[10.4874552,45.2731377],[10.4858741,45.2735179],[10.4844868,45.2737404],[10.4845869,45.2741589],[10.4812042,45.2745462],[10.4811566,45.2744926],[10.4813208,45.2739314],[10.481364,45.2729607],[10.481332,45.2727872],[10.4812274,45.2727003],[10.4787639,45.2729166],[10.4768173,45.273196],[10.4766954,45.2742755],[10.4757549,45.2744776],[10.4752892,45.2747054],[10.4739466,45.2749027],[10.4715295,45.2749967],[10.4676413,45.2753672],[10.4645313,45.2753136],[10.4626335,45.2753725],[10.4618135,45.2754741],[10.461672,45.2754718],[10.4616276,45.2749344],[10.4591785,45.2749984],[10.4589065,45.2750646],[10.4590489,45.2760275],[10.4590166,45.2762181],[10.4576647,45.2763305],[10.4565988,45.2761582],[10.4561827,45.2759202],[10.456308,45.2757641],[10.4560975,45.2756552],[10.4547818,45.275391],[10.4516729,45.2743833],[10.4515132,45.2742161],[10.4517729,45.2738711],[10.4517609,45.2735926],[10.4514596,45.2721889],[10.4515573,45.2716696],[10.4517974,45.2713728],[10.4499276,45.2712991],[10.4497673,45.27186],[10.4461384,45.2719902],[10.4453886,45.2723157],[10.4408454,45.2735235],[10.4383009,45.2738533],[10.4353102,45.2745716],[10.4340807,45.2745616],[10.4339322,45.2746186],[10.4340536,45.2759419],[10.432995,45.2759445],[10.4326577,45.2760289],[10.4323023,45.2762988],[10.4322078,45.2768018],[10.4323865,45.2769636],[10.4322824,45.2770709],[10.4322758,45.2774509],[10.432139,45.2778619],[10.431462,45.2784865],[10.4313402,45.2788487],[10.4309809,45.2791433],[10.4308379,45.2793561],[10.4308294,45.2795236],[10.4305768,45.2796169],[10.4302693,45.280062],[10.4303284,45.2803764],[10.4302818,45.2805481],[10.4298348,45.2815172],[10.4301205,45.2827111],[10.4300541,45.2831081],[10.4298482,45.283534],[10.4298377,45.2841194],[10.4286122,45.2850714],[10.4285285,45.2852886],[10.4279906,45.2857007],[10.4280107,45.2859885],[10.4277497,45.286338],[10.4276962,45.286828],[10.4273638,45.2870897],[10.4268137,45.2880186],[10.426879,45.2886113],[10.4271313,45.2891595],[10.4273377,45.2901088],[10.4254438,45.2959234],[10.4250143,45.2967495]]]},"properties":{"type":"boundary","gemeente":"Castel Goffredo"}}]}