{"type":"FeatureCollection","metadata":{"gemeente":"Celano","slug":"celano","generated_at":"2026-09-26T14:27:10.001077Z","total_points":28,"providers":["PosteItaliane","DPD","InPost","GLS","DHL","Amazon","FedEx"],"bounds":[13.5379232,42.0772,13.54632328,42.08837]},"features":[{"type":"Feature","geometry":{"type":"Point","coordinates":[13.54329684,42.07729695]},"properties":{"type":"pakketpunt","locatieNaam":"Tabaccheria N. 6","straatNaam":"Piazza Stazione","straatNr":"23","vervoerder":"PosteItaliane","puntType":"servicepunt","bezettingsgraad":50,"latitude":42.07729695,"longitude":13.54329684,"canPickup":true,"canDropoff":true,"openingstijden":{"za":"08:30 - 13:00, 15:00 - 20:00","zo":"gesloten","ma":"08:30 - 13:00, 15:00 - 20:00","di":"08:30 - 13:00, 15:00 - 20:00","wo":"08:30 - 13:00, 15:00 - 20:00","do":"08:30 - 13:00, 15:00 - 20:00","vr":"08:30 - 13:00, 15:00 - 20:00"}}},{"type":"Feature","geometry":{"type":"Point","coordinates":[13.54632328,42.08396573]},"properties":{"type":"pakketpunt","locatieNaam":"Celano","straatNaam":"Piazza Regina Margherita","straatNr":"2","vervoerder":"PosteItaliane","puntType":"postkantoor","bezettingsgraad":50,"latitude":42.08396573,"longitude":13.54632328,"canPickup":true,"canDropoff":true,"openingstijden":{"za":"08:20 - 12:35","zo":"gesloten","ma":"08:20 - 19:05","di":"08:20 - 19:05","wo":"08:20 - 19:05","do":"08:20 - 19:05","vr":"08:20 - 19:05"}}},{"type":"Feature","geometry":{"type":"Point","coordinates":[13.54373739,42.0809176]},"properties":{"type":"pakketpunt","locatieNaam":"Celano 1","straatNaam":"Via Muricelli","straatNr":"1","vervoerder":"PosteItaliane","puntType":"postkantoor","bezettingsgraad":50,"latitude":42.0809176,"longitude":13.54373739,"canPickup":true,"canDropoff":true,"openingstijden":{"za":"08:20 - 12:45","zo":"gesloten","ma":"08:20 - 13:45","di":"08:20 - 13:45","wo":"08:20 - 13:45","do":"08:20 - 13:45","vr":"08:20 - 13:45"}}},{"type":"Feature","geometry":{"type":"Point","coordinates":[13.53899724,42.07862395]},"properties":{"type":"pakketpunt","locatieNaam":"Tabaccheria N. 15","straatNaam":"Via Della Torre","straatNr":"131","vervoerder":"PosteItaliane","puntType":"servicepunt","bezettingsgraad":50,"latitude":42.07862395,"longitude":13.53899724,"canPickup":true,"canDropoff":true,"openingstijden":{"za":"07:30 - 13:00, 14:30 - 20:00","zo":"gesloten","ma":"07:30 - 13:00, 14:30 - 20:00","di":"07:30 - 13:00, 14:30 - 20:00","wo":"07:30 - 13:00, 14:30 - 20:00","do":"07:30 - 13:00, 14:30 - 20:00","vr":"07:30 - 13:00, 14:30 - 20:00"}}},{"type":"Feature","geometry":{"type":"Point","coordinates":[13.54292536,42.08470347]},"properties":{"type":"pakketpunt","locatieNaam":"Tabaccheria N. 9","straatNaam":"Via Gualchiera","straatNr":"13","vervoerder":"PosteItaliane","puntType":"servicepunt","bezettingsgraad":50,"latitude":42.08470347,"longitude":13.54292536,"canPickup":true,"canDropoff":true,"openingstijden":{"za":"07:00 - 20:00","zo":"07:00 - 20:00","ma":"05:00 - 20:00","di":"07:00 - 20:00","wo":"07:00 - 20:00","do":"07:00 - 20:00","vr":"07:00 - 20:00"}}},{"type":"Feature","geometry":{"type":"Point","coordinates":[13.54403515,42.08642056]},"properties":{"type":"pakketpunt","locatieNaam":"Tabaccheria N. 10","straatNaam":"Via Fonte Grande","straatNr":"328","vervoerder":"PosteItaliane","puntType":"servicepunt","bezettingsgraad":50,"latitude":42.08642056,"longitude":13.54403515,"canPickup":true,"canDropoff":true,"openingstijden":{"za":"08:00 - 13:00, 15:30 - 20:00","zo":"gesloten","ma":"08:00 - 13:00, 15:30 - 20:00","di":"08:00 - 13:00, 15:30 - 20:00","wo":"08:00 - 13:00, 15:30 - 20:00","do":"08:00 - 13:00, 15:30 - 20:00","vr":"08:00 - 13:00, 15:30 - 20:00"}}},{"type":"Feature","geometry":{"type":"Point","coordinates":[13.5432878,42.0773175]},"properties":{"type":"pakketpunt","locatieNaam":"Tabaccheria Tiberi","straatNaam":"PIAZZA STAZIONE","straatNr":"23","vervoerder":"DPD","puntType":"pickup_point","bezettingsgraad":50,"latitude":42.0773175,"longitude":13.5432878,"canPickup":true,"canDropoff":true,"openingstijden":{"ma":"06:00 - 20:00","di":"06:00 - 20:00","wo":"06:00 - 20:00","do":"06:00 - 20:00","vr":"06:00 - 20:00","za":"06:00 - 20:00","zo":"07:00 - 13:00"}}},{"type":"Feature","geometry":{"type":"Point","coordinates":[13.5379699,42.0882864]},"properties":{"type":"pakketpunt","locatieNaam":"Relù Tabaccheria","straatNaam":"VIA FONTEGRANDE","straatNr":"298","vervoerder":"DPD","puntType":"pickup_point","bezettingsgraad":50,"latitude":42.0882864,"longitude":13.5379699,"canPickup":true,"canDropoff":true,"openingstijden":{"ma":"08:00 - 13:00, 15:00 - 20:00","di":"08:00 - 13:00, 15:00 - 20:00","wo":"08:00 - 13:00, 15:00 - 20:00","do":"08:00 - 13:00, 15:00 - 20:00","vr":"08:00 - 13:00, 15:00 - 20:00","za":"08:00 - 13:00, 15:00 - 20:00","zo":"gesloten"}}},{"type":"Feature","geometry":{"type":"Point","coordinates":[13.53795,42.08837]},"properties":{"type":"pakketpunt","locatieNaam":"InPost Locker","straatNaam":"Via Fontegrande","straatNr":"298","vervoerder":"InPost","puntType":"automaat","bezettingsgraad":50,"latitude":42.08837,"longitude":13.53795,"canPickup":true,"canDropoff":true,"openingstijden":null}},{"type":"Feature","geometry":{"type":"Point","coordinates":[13.5436228,42.0774895]},"properties":{"type":"pakketpunt","locatieNaam":"TRILOGY EXCLUSIVE BAR","straatNaam":"Piazza Stazione","straatNr":"9","vervoerder":"GLS","puntType":"parcel_shop","bezettingsgraad":50,"latitude":42.0774895,"longitude":13.5436228,"canPickup":true,"canDropoff":true,"openingstijden":"za: 06:00 - 13:00, 14:30 - 20:00; zo: 07:00 - 13:00"}},{"type":"Feature","geometry":{"type":"Point","coordinates":[13.5379699,42.0882864]},"properties":{"type":"pakketpunt","locatieNaam":"Relu Tabaccheria","straatNaam":"Via Fontegrande","straatNr":"298","vervoerder":"GLS","puntType":"parcel_shop","bezettingsgraad":50,"latitude":42.0882864,"longitude":13.5379699,"canPickup":true,"canDropoff":true,"openingstijden":"za: 08:00 - 13:00, 15:00 - 20:00; ma: 08:00 - 13:00, 15:00 - 20:00"}},{"type":"Feature","geometry":{"type":"Point","coordinates":[13.538997,42.078624]},"properties":{"type":"pakketpunt","locatieNaam":"TABACCHERIA N. 15","straatNaam":"VIA DELLA TORRE 131","straatNr":"","vervoerder":"DHL","puntType":"parcelShop","bezettingsgraad":50,"latitude":42.078624,"longitude":13.538997,"canPickup":true,"canDropoff":true,"openingstijden":{"ma":"07:30 - 13:00, 14:30 - 20:00","di":"07:30 - 13:00, 14:30 - 20:00","wo":"07:30 - 13:00, 14:30 - 20:00","do":"07:30 - 13:00, 14:30 - 20:00","vr":"07:30 - 13:00, 14:30 - 20:00","za":"07:30 - 13:00, 14:30 - 20:00","zo":"gesloten"}}},{"type":"Feature","geometry":{"type":"Point","coordinates":[13.542925,42.084703]},"properties":{"type":"pakketpunt","locatieNaam":"TABACCHERIA N. 9","straatNaam":"VIA GUALCHIERA 13","straatNr":"","vervoerder":"DHL","puntType":"parcelShop","bezettingsgraad":50,"latitude":42.084703,"longitude":13.542925,"canPickup":true,"canDropoff":true,"openingstijden":{"ma":"05:00 - 20:00","di":"07:00 - 20:00","wo":"07:00 - 20:00","do":"07:00 - 20:00","vr":"07:00 - 20:00","za":"07:00 - 20:00","zo":"07:00 - 20:00"}}},{"type":"Feature","geometry":{"type":"Point","coordinates":[13.543737,42.080918]},"properties":{"type":"pakketpunt","locatieNaam":"Ufficio Postale CELANO 1","straatNaam":"VIA MURICELLI 1","straatNr":"","vervoerder":"DHL","puntType":"postOffice","bezettingsgraad":50,"latitude":42.080918,"longitude":13.543737,"canPickup":true,"canDropoff":true,"openingstijden":{"ma":"08:20 - 13:45","di":"08:20 - 13:45","wo":"08:20 - 13:45","do":"08:20 - 13:45","vr":"08:20 - 13:45","za":"08:20 - 12:45","zo":"gesloten"}}},{"type":"Feature","geometry":{"type":"Point","coordinates":[13.543297,42.077297]},"properties":{"type":"pakketpunt","locatieNaam":"TABACCHERIA N. 6","straatNaam":"PIAZZA STAZIONE 23","straatNr":"","vervoerder":"DHL","puntType":"parcelShop","bezettingsgraad":50,"latitude":42.077297,"longitude":13.543297,"canPickup":true,"canDropoff":true,"openingstijden":{"ma":"08:30 - 13:00, 15:00 - 20:00","di":"08:30 - 13:00, 15:00 - 20:00","wo":"08:30 - 13:00, 15:00 - 20:00","do":"08:30 - 13:00, 15:00 - 20:00","vr":"08:30 - 13:00, 15:00 - 20:00","za":"08:30 - 13:00, 15:00 - 20:00","zo":"gesloten"}}},{"type":"Feature","geometry":{"type":"Point","coordinates":[13.543417,42.077647]},"properties":{"type":"pakketpunt","locatieNaam":"TABACCHERIA TIBERI","straatNaam":"Piazza Stazione 9","straatNr":"","vervoerder":"DHL","puntType":"parcelShop","bezettingsgraad":50,"latitude":42.077647,"longitude":13.543417,"canPickup":false,"canDropoff":true,"openingstijden":{"ma":"06:00 - 20:00","di":"06:00 - 20:00","wo":"06:00 - 20:00","do":"06:00 - 20:00","vr":"06:00 - 20:00","za":"06:00 - 20:00","zo":"gesloten"}}},{"type":"Feature","geometry":{"type":"Point","coordinates":[13.544035,42.086421]},"properties":{"type":"pakketpunt","locatieNaam":"TABACCHERIA N. 10","straatNaam":"VIA FONTE GRANDE 328","straatNr":"","vervoerder":"DHL","puntType":"parcelShop","bezettingsgraad":50,"latitude":42.086421,"longitude":13.544035,"canPickup":true,"canDropoff":true,"openingstijden":{"ma":"08:00 - 13:00, 15:30 - 20:00","di":"08:00 - 13:00, 15:30 - 20:00","wo":"08:00 - 13:00, 15:30 - 20:00","do":"08:00 - 13:00, 15:30 - 20:00","vr":"08:00 - 13:00, 15:30 - 20:00","za":"08:00 - 13:00, 15:30 - 20:00","zo":"gesloten"}}},{"type":"Feature","geometry":{"type":"Point","coordinates":[13.546323,42.083966]},"properties":{"type":"pakketpunt","locatieNaam":"Ufficio Postale CELANO","straatNaam":"PIAZZA REGINA MARGHERITA 2","straatNr":"","vervoerder":"DHL","puntType":"postOffice","bezettingsgraad":50,"latitude":42.083966,"longitude":13.546323,"canPickup":true,"canDropoff":true,"openingstijden":{"ma":"08:20 - 19:05","di":"08:20 - 19:05","wo":"08:20 - 19:05","do":"08:20 - 19:05","vr":"08:20 - 19:05","za":"08:20 - 12:35","zo":"gesloten"}}},{"type":"Feature","geometry":{"type":"Point","coordinates":[13.5379232,42.0882292]},"properties":{"type":"pakketpunt","locatieNaam":"Amazon Counter - TABACCHERIA D'OVIDIO LUCREZIA","straatNaam":"VIA FONTEGRANDE 358","straatNr":"","vervoerder":"Amazon","puntType":"helix","bezettingsgraad":50,"latitude":42.0882292,"longitude":13.5379232,"canPickup":true,"canDropoff":false,"openingstijden":null}},{"type":"Feature","geometry":{"type":"Point","coordinates":[13.5437,42.0809]},"properties":{"type":"pakketpunt","locatieNaam":"Ufficio Postale CELANO 1","straatNaam":"VIA MURICELLI 1","straatNr":"","vervoerder":"Amazon","puntType":"3p","bezettingsgraad":50,"latitude":42.0809,"longitude":13.5437,"canPickup":true,"canDropoff":false,"openingstijden":null}},{"type":"Feature","geometry":{"type":"Point","coordinates":[13.543583,42.077349]},"properties":{"type":"pakketpunt","locatieNaam":"Amazon Counter (fermopoint)","straatNaam":"Tabaccheria Tiberi","straatNr":"","vervoerder":"Amazon","puntType":"helix","bezettingsgraad":50,"latitude":42.077349,"longitude":13.543583,"canPickup":true,"canDropoff":false,"openingstijden":null}},{"type":"Feature","geometry":{"type":"Point","coordinates":[13.544,42.0864]},"properties":{"type":"pakketpunt","locatieNaam":"PuntoPoste TABACCHERIA N. 10","straatNaam":"VIA FONTE GRANDE 328","straatNr":"","vervoerder":"Amazon","puntType":"3p","bezettingsgraad":50,"latitude":42.0864,"longitude":13.544,"canPickup":true,"canDropoff":false,"openingstijden":null}},{"type":"Feature","geometry":{"type":"Point","coordinates":[13.546135,42.084212]},"properties":{"type":"pakketpunt","locatieNaam":"Amazon Counter - CAPALDI GIOVANNA","straatNaam":"VIA DEL CASTELLO 6","straatNr":"","vervoerder":"Amazon","puntType":"helix","bezettingsgraad":50,"latitude":42.084212,"longitude":13.546135,"canPickup":true,"canDropoff":false,"openingstijden":null}},{"type":"Feature","geometry":{"type":"Point","coordinates":[13.5432,42.0772]},"properties":{"type":"pakketpunt","locatieNaam":"PuntoPoste TABACCHERIA N. 6","straatNaam":"PIAZZA STAZIONE 23","straatNr":"","vervoerder":"Amazon","puntType":"3p","bezettingsgraad":50,"latitude":42.0772,"longitude":13.5432,"canPickup":true,"canDropoff":false,"openingstijden":null}},{"type":"Feature","geometry":{"type":"Point","coordinates":[13.5463,42.0839]},"properties":{"type":"pakketpunt","locatieNaam":"Ufficio Postale CELANO","straatNaam":"PIAZZA REGINA MARGHERITA 2","straatNr":"","vervoerder":"Amazon","puntType":"3p","bezettingsgraad":50,"latitude":42.0839,"longitude":13.5463,"canPickup":true,"canDropoff":false,"openingstijden":null}},{"type":"Feature","geometry":{"type":"Point","coordinates":[13.543623,42.07749]},"properties":{"type":"pakketpunt","locatieNaam":"FedEx OnSite","straatNaam":"piazza stazione, 9","straatNr":"","vervoerder":"FedEx","puntType":"servicepunt","bezettingsgraad":50,"latitude":42.07749,"longitude":13.543623,"canPickup":true,"canDropoff":true,"openingstijden":{"ma":"06:00 - 13:00, 14:30 - 20:00","di":"06:00 - 13:00, 14:30 - 20:00","wo":"06:00 - 13:00, 14:30 - 20:00","do":"06:00 - 13:00, 14:30 - 20:00","vr":"06:00 - 13:00, 14:30 - 20:00","za":"06:00 - 13:00, 14:30 - 20:00","zo":"07:00 - 13:00"}}},{"type":"Feature","geometry":{"type":"Point","coordinates":[13.537967347238746,42.088294807531256]},"properties":{"type":"pakketpunt","locatieNaam":"FedEx OnSite","straatNaam":"via fontegrande, 298","straatNr":"","vervoerder":"FedEx","puntType":"servicepunt","bezettingsgraad":50,"latitude":42.088294807531256,"longitude":13.537967347238746,"canPickup":true,"canDropoff":true,"openingstijden":{"ma":"08:00 - 13:00, 15:00 - 20:00","di":"08:00 - 13:00, 15:00 - 20:00","wo":"08:00 - 13:00, 15:00 - 20:00","do":"08:00 - 13:00, 15:00 - 20:00","vr":"08:00 - 13:00, 15:00 - 20:00","za":"08:00 - 13:00, 15:00 - 20:00","zo":"gesloten"}}},{"type":"Feature","geometry":{"type":"Point","coordinates":[13.537989328567862,42.088289554841104]},"properties":{"type":"pakketpunt","locatieNaam":"FedEx OnSite","straatNaam":"VIA FONTE GRANDE 298","straatNr":"","vervoerder":"FedEx","puntType":"servicepunt","bezettingsgraad":50,"latitude":42.088289554841104,"longitude":13.537989328567862,"canPickup":true,"canDropoff":true,"openingstijden":{"ma":"08:00 - 13:30, 15:00 - 20:30","di":"08:00 - 13:30, 15:00 - 20:30","wo":"08:00 - 13:30, 15:00 - 20:30","do":"08:00 - 13:30, 15:00 - 20:30","vr":"08:00 - 13:30, 15:00 - 20:30","za":"08:00 - 13:30, 15:00 - 20:30","zo":"gesloten"}}},{"type":"Feature","geometry":{"type":"MultiPolygon","coordinates":[[[[13.4908646,42.0889699],[13.4995798,42.0890374],[13.5095241,42.0898707],[13.5210318,42.0909836],[13.529049,42.095128],[13.5319155,42.0967162],[13.5330199,42.0974863],[13.5329128,42.0979867],[13.5321849,42.0986188],[13.5318802,42.0992701],[13.5313011,42.102473],[13.5315355,42.1041057],[13.5323421,42.105703],[13.5365288,42.1080129],[13.5378466,42.1084783],[13.5391027,42.1085861],[13.5595646,42.1049281],[13.5612439,42.1066349],[13.5613989,42.1071774],[13.5609809,42.1148353],[13.5590351,42.1154741],[13.5585794,42.1159807],[13.5588863,42.116781],[13.5679765,42.1202631],[13.5740251,42.1223895],[13.5723087,42.1180375],[13.5720846,42.1171506],[13.5718664,42.1161779],[13.5715811,42.1137878],[13.5717044,42.1120609],[13.5718827,42.1111264],[13.5722399,42.1102929],[13.5732706,42.1096215],[13.5749864,42.1091748],[13.5759065,42.1085528],[13.5762827,42.107419],[13.5761887,42.1061872],[13.5684875,42.0867958],[13.5680684,42.0865915],[13.5674019,42.0866631],[13.5666585,42.0869043],[13.5656801,42.087407],[13.5622644,42.0887586],[13.5590137,42.088663],[13.5568968,42.0884865],[13.5516917,42.0804103],[13.5516552,42.0783688],[13.5519079,42.0742232],[13.5559503,42.0654167],[13.5579029,42.0623581],[13.5621342,42.0565723],[13.5522143,42.0474144],[13.5520977,42.0466899],[13.5527535,42.0225684],[13.5511889,42.0165285],[13.5500366,42.0140354],[13.5494133,42.012291],[13.5491609,42.0106489],[13.5652971,42.0109567],[13.5656737,41.9985621],[13.5487395,41.9982859],[13.5477133,41.9962198],[13.5113742,41.9956444],[13.5109445,42.0016802],[13.51048,42.0163201],[13.5098926,42.0508264],[13.5096813,42.0516135],[13.5004782,42.0678306],[13.4910448,42.0813324],[13.4909341,42.0819355],[13.4908646,42.0889699]]],[[[13.5793887,42.1302466],[13.5687861,42.1385706],[13.5660598,42.1489394],[13.5780409,42.1531419],[13.5858935,42.1565164],[13.5903042,42.1541382],[13.5989113,42.1507676],[13.6031509,42.1495123],[13.6058424,42.1481593],[13.6089739,42.1473345],[13.61021,42.1464791],[13.6105846,42.1454227],[13.6263299,42.1363267],[13.6281413,42.13626],[13.6292768,42.1357668],[13.6410712,42.1312561],[13.6419738,42.1308324],[13.6494561,42.1255005],[13.6502219,42.1247896],[13.6532188,42.1212737],[13.6523012,42.1203026],[13.6499372,42.1182649],[13.6489425,42.1166532],[13.6479392,42.1143261],[13.6454643,42.1078631],[13.6450758,42.1062403],[13.6448883,42.1048344],[13.6448399,42.1037409],[13.645071,42.1030444],[13.6570406,42.0911871],[13.6595209,42.0909359],[13.659882,42.0908411],[13.6602603,42.090861],[13.6737006,42.0894999],[13.6807699,42.0914259],[13.6821593,42.0920534],[13.6899812,42.0874252],[13.6907103,42.0866301],[13.6888347,42.0827685],[13.6942213,42.0734579],[13.6945561,42.0730397],[13.700222,42.0678735],[13.7058166,42.0650193],[13.6914903,42.0634689],[13.687269,42.0653209],[13.684919,42.066745],[13.6835453,42.0683138],[13.6814354,42.0709705],[13.6809987,42.071614],[13.68075,42.0726056],[13.6795908,42.0754079],[13.6770458,42.0803249],[13.6764881,42.0810221],[13.6757565,42.0813356],[13.6615423,42.0852238],[13.6565708,42.0864885],[13.6460753,42.0882563],[13.6443886,42.0879601],[13.6433333,42.0875663],[13.641843,42.087145],[13.6405171,42.0869467],[13.6393297,42.0870713],[13.6358273,42.0880099],[13.6285044,42.0911962],[13.6220477,42.0923214],[13.6204947,42.095424],[13.6221989,42.1021018],[13.6275858,42.1057241],[13.6291819,42.1068975],[13.6305001,42.1080011],[13.6313989,42.1089686],[13.6332134,42.1115951],[13.6326007,42.1121522],[13.629164,42.114425],[13.6277865,42.1149668],[13.6261712,42.1152437],[13.6242168,42.1150975],[13.6238308,42.1145263],[13.6184978,42.1110653],[13.6154512,42.1104049],[13.6097594,42.1107602],[13.6010571,42.1126633],[13.5873445,42.121249],[13.5793887,42.1302466]]]]},"properties":{"type":"boundary","gemeente":"Celano"}}]}