{"type":"FeatureCollection","metadata":{"gemeente":"Cervere","slug":"cervere","generated_at":"2026-09-26T13:09:49.206205Z","total_points":9,"providers":["PosteItaliane","DHL","Amazon"],"bounds":[7.78349377,44.630051,7.79208026,44.635555]},"features":[{"type":"Feature","geometry":{"type":"Point","coordinates":[7.78907025,44.63555499]},"properties":{"type":"pakketpunt","locatieNaam":"Cervere","straatNaam":"Via Fossano","straatNr":"5","vervoerder":"PosteItaliane","puntType":"postkantoor","bezettingsgraad":50,"latitude":44.63555499,"longitude":7.78907025,"canPickup":true,"canDropoff":true,"openingstijden":{"za":"gesloten","zo":"gesloten","ma":"08:20 - 13:45","di":"08:20 - 13:45","wo":"08:20 - 13:45","do":"08:20 - 13:45","vr":"08:20 - 13:45"}}},{"type":"Feature","geometry":{"type":"Point","coordinates":[7.78349377,44.63005106]},"properties":{"type":"pakketpunt","locatieNaam":"Tabaccheria N. 4","straatNaam":"Via Fossano","straatNr":"32","vervoerder":"PosteItaliane","puntType":"servicepunt","bezettingsgraad":50,"latitude":44.63005106,"longitude":7.78349377,"canPickup":true,"canDropoff":true,"openingstijden":{"za":"04:45 - 18:00","zo":"gesloten","ma":"04:45 - 20:00","di":"04:45 - 20:00","wo":"04:45 - 20:00","do":"04:45 - 20:00","vr":"04:45 - 20:00"}}},{"type":"Feature","geometry":{"type":"Point","coordinates":[7.79208026,44.63451684]},"properties":{"type":"pakketpunt","locatieNaam":"Tabaccheria N. 1","straatNaam":"Piazza San Sebastiano","straatNr":"24","vervoerder":"PosteItaliane","puntType":"servicepunt","bezettingsgraad":50,"latitude":44.63451684,"longitude":7.79208026,"canPickup":true,"canDropoff":true,"openingstijden":{"za":"08:00 - 13:00, 15:30 - 19:30","zo":"gesloten","ma":"08:00 - 13:00, 15:30 - 19:30","di":"08:00 - 13:00, 15:30 - 19:30","wo":"08:00 - 13:00, 15:30 - 19:30","do":"08:00 - 13:00, 15:30 - 19:30","vr":"08:00 - 13:00, 15:30 - 19:30"}}},{"type":"Feature","geometry":{"type":"Point","coordinates":[7.783494,44.630051]},"properties":{"type":"pakketpunt","locatieNaam":"TABACCHERIA N. 4","straatNaam":"VIA FOSSANO 32","straatNr":"","vervoerder":"DHL","puntType":"parcelShop","bezettingsgraad":50,"latitude":44.630051,"longitude":7.783494,"canPickup":true,"canDropoff":true,"openingstijden":{"ma":"04:45 - 20:00","di":"04:45 - 20:00","wo":"04:45 - 20:00","do":"04:45 - 20:00","vr":"04:45 - 20:00","za":"04:45 - 18:00","zo":"gesloten"}}},{"type":"Feature","geometry":{"type":"Point","coordinates":[7.79208,44.634517]},"properties":{"type":"pakketpunt","locatieNaam":"TABACCHERIA N. 1","straatNaam":"PIAZZA SAN SEBASTIANO 24","straatNr":"","vervoerder":"DHL","puntType":"parcelShop","bezettingsgraad":50,"latitude":44.634517,"longitude":7.79208,"canPickup":true,"canDropoff":true,"openingstijden":{"ma":"08:00 - 13:00, 15:30 - 19:30","di":"08:00 - 13:00, 15:30 - 19:30","wo":"08:00 - 13:00, 15:30 - 19:30","do":"08:00 - 13:00, 15:30 - 19:30","vr":"08:00 - 13:00, 15:30 - 19:30","za":"08:00 - 13:00, 15:30 - 19:30","zo":"gesloten"}}},{"type":"Feature","geometry":{"type":"Point","coordinates":[7.78907,44.635555]},"properties":{"type":"pakketpunt","locatieNaam":"Ufficio Postale CERVERE","straatNaam":"VIA FOSSANO 5","straatNr":"","vervoerder":"DHL","puntType":"postOffice","bezettingsgraad":50,"latitude":44.635555,"longitude":7.78907,"canPickup":true,"canDropoff":true,"openingstijden":{"ma":"gesloten","di":"08:20 - 13:45","wo":"08:20 - 13:45","do":"08:20 - 13:45","vr":"08:20 - 13:45","za":"gesloten","zo":"gesloten"}}},{"type":"Feature","geometry":{"type":"Point","coordinates":[7.78907,44.6355]},"properties":{"type":"pakketpunt","locatieNaam":"Ufficio Postale CERVERE","straatNaam":"VIA FOSSANO 5","straatNr":"","vervoerder":"Amazon","puntType":"3p","bezettingsgraad":50,"latitude":44.6355,"longitude":7.78907,"canPickup":true,"canDropoff":false,"openingstijden":null}},{"type":"Feature","geometry":{"type":"Point","coordinates":[7.79208,44.6345]},"properties":{"type":"pakketpunt","locatieNaam":"PuntoPoste TABACCHERIA N. 1","straatNaam":"PIAZZA SAN SEBASTIANO 24","straatNr":"","vervoerder":"Amazon","puntType":"3p","bezettingsgraad":50,"latitude":44.6345,"longitude":7.79208,"canPickup":true,"canDropoff":false,"openingstijden":null}},{"type":"Feature","geometry":{"type":"Point","coordinates":[7.7891467,44.6354717]},"properties":{"type":"pakketpunt","locatieNaam":"Amazon Counter - EDICOLA","straatNaam":"VIA FOSSANO 5/A","straatNr":"","vervoerder":"Amazon","puntType":"helix","bezettingsgraad":50,"latitude":44.6354717,"longitude":7.7891467,"canPickup":true,"canDropoff":false,"openingstijden":null}},{"type":"Feature","geometry":{"type":"Polygon","coordinates":[[[7.712056,44.620328],[7.7135142,44.6204705],[7.7189744,44.624302],[7.7275628,44.6263785],[7.7339392,44.6270345],[7.7397328,44.6273957],[7.7498437,44.6287484],[7.7497635,44.6284547],[7.7540617,44.6278536],[7.7579043,44.6275508],[7.764964,44.6272623],[7.7660508,44.6298011],[7.7662503,44.6297628],[7.7681477,44.6339427],[7.7682225,44.6346985],[7.768095,44.634909],[7.7674202,44.6349566],[7.7675615,44.6359675],[7.767927,44.6364786],[7.7690623,44.6365864],[7.769446,44.639465],[7.7694259,44.6447801],[7.7695853,44.6453436],[7.7706216,44.6461318],[7.7715118,44.6464144],[7.7733755,44.6464749],[7.7742149,44.6468479],[7.7748717,44.6469895],[7.7773809,44.6466791],[7.7798204,44.6467922],[7.7808258,44.6469164],[7.7812795,44.6468348],[7.7811114,44.6470313],[7.7811475,44.6472039],[7.7817699,44.6472411],[7.7821598,44.6474363],[7.7824415,44.6478143],[7.7826454,44.6501175],[7.7846702,44.6508897],[7.7896004,44.6507183],[7.7942095,44.6503224],[7.7971598,44.6496668],[7.8024886,44.6486391],[7.8033143,44.6479248],[7.8059989,44.6459712],[7.811362,44.6432169],[7.8099164,44.639286],[7.8111877,44.6363073],[7.8102885,44.6356738],[7.8090081,44.6331057],[7.8078618,44.6311597],[7.8070487,44.6304385],[7.8043032,44.6285217],[7.8034633,44.6276717],[7.8029328,44.62736],[7.8012155,44.6265813],[7.7988247,44.6256935],[7.796091,44.6243718],[7.7938695,44.6225767],[7.792149,44.6204584],[7.7904285,44.6179785],[7.7896719,44.6151758],[7.7901557,44.6131898],[7.7902457,44.6115442],[7.7895819,44.6096146],[7.7879412,44.6056733],[7.7872913,44.603693],[7.7873495,44.6030905],[7.7871595,44.6025709],[7.7816283,44.6040165],[7.7795113,44.6039485],[7.7794487,44.6041965],[7.7786328,44.6045761],[7.7770753,44.6048307],[7.7732767,44.6050857],[7.7713013,44.6045309],[7.7666281,44.6052538],[7.7662034,44.6053933],[7.7635376,44.6068453],[7.7600039,44.6083336],[7.7580905,44.6113446],[7.7503498,44.613964],[7.7416994,44.6143213],[7.741525,44.6144906],[7.7402859,44.614688],[7.7392076,44.6145096],[7.7387277,44.6146036],[7.7385752,44.6147145],[7.7365805,44.6151026],[7.7349993,44.6157426],[7.7350926,44.6158616],[7.7321509,44.6162849],[7.7287522,44.6166779],[7.7281376,44.6164757],[7.7252129,44.6161806],[7.7232101,44.6169181],[7.7227824,44.6168638],[7.7197189,44.6156817],[7.7166293,44.6138708],[7.7121935,44.6121301],[7.7122883,44.612782],[7.7130192,44.6148447],[7.7130946,44.6155027],[7.712056,44.620328]]]},"properties":{"type":"boundary","gemeente":"Cervere"}}]}