{"type":"FeatureCollection","metadata":{"gemeente":"Cesa","slug":"cesa","generated_at":"2026-09-26T13:09:49.317643Z","total_points":17,"providers":["PosteItaliane","DPD","InPost","GLS","DHL"],"bounds":[14.2267747,40.9561650674,14.2323316148,40.968351]},"features":[{"type":"Feature","geometry":{"type":"Point","coordinates":[14.23098726,40.96294104]},"properties":{"type":"pakketpunt","locatieNaam":"Tabaccheria N. 2","straatNaam":"Corso Umberto I","straatNr":"37","vervoerder":"PosteItaliane","puntType":"servicepunt","bezettingsgraad":50,"latitude":40.96294104,"longitude":14.23098726,"canPickup":true,"canDropoff":true,"openingstijden":{"za":"08:00 - 13:00, 15:30 - 20:30","zo":"08:00 - 13:00","ma":"08:00 - 13:00, 15:30 - 20:30","di":"08:00 - 13:00, 15:30 - 20:30","wo":"08:00 - 13:00, 15:30 - 20:30","do":"08:00 - 13:00, 15:30 - 20:30","vr":"08:00 - 13:00, 15:30 - 20:30"}}},{"type":"Feature","geometry":{"type":"Point","coordinates":[14.23015268,40.96623205]},"properties":{"type":"pakketpunt","locatieNaam":"Cesa","straatNaam":"Via Salvatore Di Giacomo","straatNr":"45","vervoerder":"PosteItaliane","puntType":"postkantoor","bezettingsgraad":50,"latitude":40.96623205,"longitude":14.23015268,"canPickup":true,"canDropoff":true,"openingstijden":{"za":"08:20 - 12:35","zo":"gesloten","ma":"08:20 - 19:05","di":"08:20 - 19:05","wo":"08:20 - 19:05","do":"08:20 - 19:05","vr":"08:20 - 19:05"}}},{"type":"Feature","geometry":{"type":"Point","coordinates":[14.23090983,40.9683507]},"properties":{"type":"pakketpunt","locatieNaam":"Stazione Di Servizio Ap","straatNaam":"Via Atellana","straatNr":"25","vervoerder":"PosteItaliane","puntType":"automaat","bezettingsgraad":50,"latitude":40.9683507,"longitude":14.23090983,"canPickup":true,"canDropoff":true,"openingstijden":{"za":"00:01 - 23:59","zo":"00:01 - 23:59","ma":"00:01 - 23:59","di":"00:01 - 23:59","wo":"00:01 - 23:59","do":"00:01 - 23:59","vr":"00:01 - 23:59"}}},{"type":"Feature","geometry":{"type":"Point","coordinates":[14.22914044,40.96403538]},"properties":{"type":"pakketpunt","locatieNaam":"Tabaccheria N. 1","straatNaam":"Via Della Gala","straatNr":"1","vervoerder":"PosteItaliane","puntType":"servicepunt","bezettingsgraad":50,"latitude":40.96403538,"longitude":14.22914044,"canPickup":true,"canDropoff":true,"openingstijden":{"za":"07:45 - 13:00, 15:00 - 20:00","zo":"08:30 - 13:00","ma":"07:45 - 13:00, 15:00 - 20:00","di":"07:45 - 13:00, 15:00 - 20:00","wo":"07:45 - 13:00, 15:00 - 20:00","do":"07:45 - 13:00, 15:00 - 20:00","vr":"07:45 - 13:00, 15:00 - 20:00"}}},{"type":"Feature","geometry":{"type":"Point","coordinates":[14.22925345,40.96406241]},"properties":{"type":"pakketpunt","locatieNaam":"Riv.1 Tabacchi Conte Assunta","straatNaam":"VIA PARROCO DELLA GALA","straatNr":"1","vervoerder":"DPD","puntType":"pickup_point","bezettingsgraad":50,"latitude":40.96406241,"longitude":14.22925345,"canPickup":false,"canDropoff":true,"openingstijden":{"ma":"08:00 - 13:00, 15:00 - 20:00","di":"08:00 - 13:00, 15:00 - 20:00","wo":"08:00 - 13:00, 15:00 - 20:00","do":"08:00 - 13:00, 15:00 - 20:00","vr":"08:00 - 13:00, 15:00 - 20:00","za":"08:00 - 13:00, 15:00 - 20:00","zo":"08:00 - 13:00"}}},{"type":"Feature","geometry":{"type":"Point","coordinates":[14.2276176,40.9628329]},"properties":{"type":"pakketpunt","locatieNaam":"Oliva Create Yourself","straatNaam":"VIA DE TILLA","straatNr":"44","vervoerder":"DPD","puntType":"pickup_point","bezettingsgraad":50,"latitude":40.9628329,"longitude":14.2276176,"canPickup":true,"canDropoff":true,"openingstijden":{"ma":"09:00 - 13:00, 16:00 - 19:30","di":"09:00 - 13:00, 16:00 - 19:30","wo":"09:00 - 13:00, 16:00 - 19:30","do":"09:00 - 13:00, 16:00 - 19:30","vr":"09:00 - 13:00, 16:00 - 19:30","za":"gesloten","zo":"gesloten"}}},{"type":"Feature","geometry":{"type":"Point","coordinates":[14.2267747,40.9647015]},"properties":{"type":"pakketpunt","locatieNaam":"DirettoPoint","straatNaam":"VIA MADONNA DELL'OLIO","straatNr":"6","vervoerder":"DPD","puntType":"pickup_point","bezettingsgraad":50,"latitude":40.9647015,"longitude":14.2267747,"canPickup":true,"canDropoff":true,"openingstijden":{"ma":"07:30 - 13:00, 16:00 - 19:30","di":"07:30 - 13:00, 16:00 - 19:30","wo":"07:30 - 13:00, 16:00 - 19:30","do":"07:30 - 13:00, 16:00 - 19:30","vr":"07:30 - 13:00, 16:00 - 19:30","za":"07:30 - 13:00","zo":"gesloten"}}},{"type":"Feature","geometry":{"type":"Point","coordinates":[14.22928,40.96419]},"properties":{"type":"pakketpunt","locatieNaam":"InPost Point","straatNaam":"Via Della Gala","straatNr":"1","vervoerder":"InPost","puntType":"servicepunt","bezettingsgraad":50,"latitude":40.96419,"longitude":14.22928,"canPickup":true,"canDropoff":true,"openingstijden":"Lun-Sab: 08:00 - 13:00 - 15:00 - 20:00 Dom: 08:30 - 13:00"}},{"type":"Feature","geometry":{"type":"Point","coordinates":[14.2323316148,40.9561650674]},"properties":{"type":"pakketpunt","locatieNaam":"Il Triangolo Ferramenta","straatNaam":"Via Domenico Di Fiore","straatNr":"2","vervoerder":"GLS","puntType":"parcel_shop","bezettingsgraad":50,"latitude":40.9561650674,"longitude":14.2323316148,"canPickup":true,"canDropoff":true,"openingstijden":"ma: 09:00 - 13:00, 14:30 - 18:00; di: 09:00 - 13:00, 14:30 - 18:00"}},{"type":"Feature","geometry":{"type":"Point","coordinates":[14.2276176,40.9628329]},"properties":{"type":"pakketpunt","locatieNaam":"OLIVA CREATE YOURSELF","straatNaam":"Via De Tilla","straatNr":"44","vervoerder":"GLS","puntType":"parcel_shop","bezettingsgraad":50,"latitude":40.9628329,"longitude":14.2276176,"canPickup":true,"canDropoff":true,"openingstijden":"ma: 09:00 - 13:00, 16:00 - 19:30; di: 09:00 - 13:00, 16:00 - 19:30"}},{"type":"Feature","geometry":{"type":"Point","coordinates":[14.2292615,40.9640219]},"properties":{"type":"pakketpunt","locatieNaam":"Tabacchi Conte Assunta Riv. 1","straatNaam":"Via Parroco Della Gala","straatNr":"1","vervoerder":"GLS","puntType":"parcel_shop","bezettingsgraad":50,"latitude":40.9640219,"longitude":14.2292615,"canPickup":true,"canDropoff":true,"openingstijden":"za: 07:30 - 13:00, 15:00 - 20:00; zo: 08:30 - 13:00"}},{"type":"Feature","geometry":{"type":"Point","coordinates":[14.2267747,40.9647015]},"properties":{"type":"pakketpunt","locatieNaam":"DIRETTO CARTOLIBRERIA","straatNaam":"Via Madonna Dell' Olio","straatNr":"6","vervoerder":"GLS","puntType":"parcel_shop","bezettingsgraad":50,"latitude":40.9647015,"longitude":14.2267747,"canPickup":true,"canDropoff":true,"openingstijden":"za: 08:00 - 13:00; ma: 08:00 - 13:00, 16:00 - 20:00"}},{"type":"Feature","geometry":{"type":"Point","coordinates":[14.2312496,40.9682509]},"properties":{"type":"pakketpunt","locatieNaam":"Ferramenta Ceparano","straatNaam":"Via Atellana","straatNr":"16","vervoerder":"GLS","puntType":"parcel_shop","bezettingsgraad":50,"latitude":40.9682509,"longitude":14.2312496,"canPickup":true,"canDropoff":true,"openingstijden":"za: 08:00 - 13:30; ma: 08:00 - 13:30, 15:30 - 19:30"}},{"type":"Feature","geometry":{"type":"Point","coordinates":[14.23091,40.968351]},"properties":{"type":"pakketpunt","locatieNaam":"STAZIONE DI SERVIZIO AP","straatNaam":"VIA ATELLANA 25","straatNr":"","vervoerder":"DHL","puntType":"packStation","bezettingsgraad":50,"latitude":40.968351,"longitude":14.23091,"canPickup":true,"canDropoff":true,"openingstijden":{"ma":"00:01 - 23:59","di":"00:01 - 23:59","wo":"00:01 - 23:59","do":"00:01 - 23:59","vr":"00:01 - 23:59","za":"00:01 - 23:59","zo":"00:01 - 23:59"}}},{"type":"Feature","geometry":{"type":"Point","coordinates":[14.230153,40.966232]},"properties":{"type":"pakketpunt","locatieNaam":"Ufficio Postale CESA","straatNaam":"VIA SALVATORE DI GIACOMO 45","straatNr":"","vervoerder":"DHL","puntType":"postOffice","bezettingsgraad":50,"latitude":40.966232,"longitude":14.230153,"canPickup":true,"canDropoff":true,"openingstijden":{"ma":"08:20 - 19:05","di":"08:20 - 19:05","wo":"08:20 - 19:05","do":"08:20 - 19:05","vr":"08:20 - 19:05","za":"08:20 - 12:35","zo":"gesloten"}}},{"type":"Feature","geometry":{"type":"Point","coordinates":[14.230987,40.962941]},"properties":{"type":"pakketpunt","locatieNaam":"TABACCHERIA N. 2","straatNaam":"CORSO UMBERTO I 37","straatNr":"","vervoerder":"DHL","puntType":"parcelShop","bezettingsgraad":50,"latitude":40.962941,"longitude":14.230987,"canPickup":true,"canDropoff":true,"openingstijden":{"ma":"08:00 - 13:00, 15:30 - 20:30","di":"08:00 - 13:00, 15:30 - 20:30","wo":"08:00 - 13:00, 15:30 - 20:30","do":"08:00 - 13:00, 15:30 - 20:30","vr":"08:00 - 13:00, 15:30 - 20:30","za":"08:00 - 13:00, 15:30 - 20:30","zo":"08:00 - 13:00"}}},{"type":"Feature","geometry":{"type":"Point","coordinates":[14.22914,40.964035]},"properties":{"type":"pakketpunt","locatieNaam":"TABACCHERIA N. 1","straatNaam":"VIA DELLA GALA 1","straatNr":"","vervoerder":"DHL","puntType":"parcelShop","bezettingsgraad":50,"latitude":40.964035,"longitude":14.22914,"canPickup":true,"canDropoff":true,"openingstijden":{"ma":"07:45 - 13:00, 15:00 - 20:00","di":"07:45 - 13:00, 15:00 - 20:00","wo":"07:45 - 13:00, 15:00 - 20:00","do":"07:45 - 13:00, 15:00 - 20:00","vr":"07:45 - 13:00, 15:00 - 20:00","za":"07:45 - 13:00, 15:00 - 20:00","zo":"08:30 - 13:00"}}},{"type":"Feature","geometry":{"type":"Polygon","coordinates":[[[14.2201825,40.9504892],[14.2199831,40.9508303],[14.2199174,40.9516976],[14.2199603,40.9530062],[14.2197383,40.9537727],[14.219407,40.954218],[14.219133,40.9544465],[14.2188435,40.9545588],[14.2171581,40.9546633],[14.2161658,40.9548504],[14.21611,40.9560962],[14.2166267,40.956588],[14.2166692,40.9567911],[14.2163396,40.9597809],[14.2165142,40.9625548],[14.2184645,40.9626101],[14.2193967,40.962827],[14.2197811,40.9630472],[14.2202616,40.9635572],[14.2202086,40.9636112],[14.2239446,40.9633862],[14.2265005,40.9634753],[14.2266648,40.9635383],[14.2268775,40.9637889],[14.226854,40.9641238],[14.2265066,40.9654397],[14.2261569,40.9655495],[14.2249773,40.965622],[14.2248122,40.9656726],[14.2247476,40.9658145],[14.2246737,40.9701167],[14.2269549,40.9699841],[14.2330363,40.9701779],[14.233217,40.9646122],[14.2337183,40.9645881],[14.2361108,40.9648661],[14.2364506,40.9647966],[14.2375265,40.9638505],[14.2379654,40.9636314],[14.2394872,40.9632412],[14.2403933,40.9628296],[14.2414273,40.9622081],[14.2428964,40.9610371],[14.2441301,40.9603598],[14.2416695,40.9604173],[14.241476,40.9603209],[14.2414583,40.9588225],[14.2416767,40.9544784],[14.2404003,40.9547681],[14.2391829,40.9557678],[14.2382768,40.9562756],[14.2345536,40.9573928],[14.2338387,40.9577724],[14.2324074,40.9591372],[14.2324201,40.9578281],[14.2325477,40.957408],[14.2324843,40.957325],[14.2324799,40.9566391],[14.2324039,40.9563335],[14.2325313,40.9559616],[14.2324049,40.9557077],[14.2323321,40.9549025],[14.2325421,40.9529066],[14.2279115,40.952022],[14.2256709,40.9511651],[14.2248309,40.9509463],[14.2201825,40.9504892]]]},"properties":{"type":"boundary","gemeente":"Cesa"}}]}