{"type":"FeatureCollection","metadata":{"gemeente":"Cesano Boscone","slug":"cesano-boscone","generated_at":"2026-09-26T13:09:49.346708Z","total_points":28,"providers":["PosteItaliane","DPD","InPost","GLS","DHL","Amazon"],"bounds":[9.083979,45.43269222,9.1022973,45.450897]},"features":[{"type":"Feature","geometry":{"type":"Point","coordinates":[9.08629235,45.43297243]},"properties":{"type":"pakketpunt","locatieNaam":"Cesano Boscone 1","straatNaam":"Via Fratelli Rosselli","straatNr":"7","vervoerder":"PosteItaliane","puntType":"postkantoor","bezettingsgraad":50,"latitude":45.43297243,"longitude":9.08629235,"canPickup":true,"canDropoff":true,"openingstijden":{"za":"08:20 - 12:35","zo":"gesloten","ma":"08:20 - 13:35","di":"08:20 - 13:35","wo":"08:20 - 13:35","do":"08:20 - 13:35","vr":"08:20 - 13:35"}}},{"type":"Feature","geometry":{"type":"Point","coordinates":[9.09482438,45.44499364]},"properties":{"type":"pakketpunt","locatieNaam":"Cesano Boscone","straatNaam":"Via Giuseppe Garibaldi","straatNr":"1","vervoerder":"PosteItaliane","puntType":"postkantoor","bezettingsgraad":50,"latitude":45.44499364,"longitude":9.09482438,"canPickup":true,"canDropoff":true,"openingstijden":{"za":"08:20 - 12:35","zo":"gesloten","ma":"08:20 - 19:05","di":"08:20 - 19:05","wo":"08:20 - 19:05","do":"08:20 - 19:05","vr":"08:20 - 19:05"}}},{"type":"Feature","geometry":{"type":"Point","coordinates":[9.09842766,45.44277773]},"properties":{"type":"pakketpunt","locatieNaam":"Stazione Di Servizio Eni","straatNaam":"Via Della Repubblica","straatNr":"29","vervoerder":"PosteItaliane","puntType":"automaat","bezettingsgraad":50,"latitude":45.44277773,"longitude":9.09842766,"canPickup":true,"canDropoff":true,"openingstijden":{"za":"00:01 - 23:59","zo":"00:01 - 23:59","ma":"00:01 - 23:59","di":"00:01 - 23:59","wo":"00:01 - 23:59","do":"00:01 - 23:59","vr":"00:01 - 23:59"}}},{"type":"Feature","geometry":{"type":"Point","coordinates":[9.09130571,45.44524561]},"properties":{"type":"pakketpunt","locatieNaam":"Supermercato Il Gigante","straatNaam":"Via Roma","straatNr":"20","vervoerder":"PosteItaliane","puntType":"automaat","bezettingsgraad":50,"latitude":45.44524561,"longitude":9.09130571,"canPickup":true,"canDropoff":true,"openingstijden":{"za":"09:00 - 13:00","zo":"gesloten","ma":"09:00 - 13:00","di":"09:00 - 13:00","wo":"09:00 - 13:00","do":"09:00 - 13:00","vr":"09:00 - 13:00"}}},{"type":"Feature","geometry":{"type":"Point","coordinates":[9.09955973,45.43895193]},"properties":{"type":"pakketpunt","locatieNaam":"Sem Tech","straatNaam":"Via Roma","straatNr":"115","vervoerder":"PosteItaliane","puntType":"servicepunt","bezettingsgraad":50,"latitude":45.43895193,"longitude":9.09955973,"canPickup":true,"canDropoff":true,"openingstijden":{"za":"09:00 - 12:30, 14:00 - 20:00","zo":"gesloten","ma":"14:00 - 20:00","di":"09:00 - 12:30, 14:00 - 20:00","wo":"09:00 - 12:30, 14:00 - 20:00","do":"09:00 - 12:30, 14:00 - 20:00","vr":"09:00 - 12:30, 14:00 - 20:00"}}},{"type":"Feature","geometry":{"type":"Point","coordinates":[9.08669468,45.43286326]},"properties":{"type":"pakketpunt","locatieNaam":"Bar Squisito","straatNaam":"Via Fratelli Rosselli","straatNr":"3","vervoerder":"PosteItaliane","puntType":"servicepunt","bezettingsgraad":50,"latitude":45.43286326,"longitude":9.08669468,"canPickup":true,"canDropoff":true,"openingstijden":{"za":"08:00 - 13:00","zo":"gesloten","ma":"08:00 - 19:00","di":"08:00 - 19:00","wo":"08:00 - 19:00","do":"08:00 - 19:00","vr":"08:00 - 19:00"}}},{"type":"Feature","geometry":{"type":"Point","coordinates":[9.08397944,45.45089694]},"properties":{"type":"pakketpunt","locatieNaam":"Lavanderia - Dema","straatNaam":"Via Pasubio","straatNr":"51","vervoerder":"PosteItaliane","puntType":"automaat","bezettingsgraad":50,"latitude":45.45089694,"longitude":9.08397944,"canPickup":true,"canDropoff":true,"openingstijden":{"za":"07:00 - 21:30","zo":"07:00 - 21:30","ma":"07:00 - 21:30","di":"07:00 - 21:30","wo":"07:00 - 21:30","do":"07:00 - 21:30","vr":"07:00 - 21:30"}}},{"type":"Feature","geometry":{"type":"Point","coordinates":[9.09967186,45.4389646]},"properties":{"type":"pakketpunt","locatieNaam":"Sem Tech","straatNaam":"VIA ROMA","straatNr":"115","vervoerder":"DPD","puntType":"pickup_point","bezettingsgraad":50,"latitude":45.4389646,"longitude":9.09967186,"canPickup":true,"canDropoff":true,"openingstijden":{"ma":"14:00 - 20:00","di":"09:00 - 12:30, 14:00 - 20:00","wo":"09:00 - 12:30, 14:00 - 20:00","do":"09:00 - 12:30, 14:00 - 20:00","vr":"09:00 - 12:30, 14:00 - 20:00","za":"09:00 - 12:30, 14:00 - 20:00","zo":"gesloten"}}},{"type":"Feature","geometry":{"type":"Point","coordinates":[9.0869246,45.43269222]},"properties":{"type":"pakketpunt","locatieNaam":"Squisito","straatNaam":"VIA F.LLI ROSSELLI","straatNr":"3","vervoerder":"DPD","puntType":"pickup_point","bezettingsgraad":50,"latitude":45.43269222,"longitude":9.0869246,"canPickup":false,"canDropoff":true,"openingstijden":{"ma":"07:15 - 19:00","di":"07:15 - 19:00","wo":"07:15 - 19:00","do":"07:15 - 19:00","vr":"07:15 - 19:00","za":"07:15 - 13:00","zo":"gesloten"}}},{"type":"Feature","geometry":{"type":"Point","coordinates":[9.0914882,45.4470377]},"properties":{"type":"pakketpunt","locatieNaam":"CartaMatta di Elisa Minniti","straatNaam":"VIA D. ALIGHIERI","straatNr":"41","vervoerder":"DPD","puntType":"pickup_point","bezettingsgraad":50,"latitude":45.4470377,"longitude":9.0914882,"canPickup":true,"canDropoff":true,"openingstijden":{"ma":"08:30 - 12:30, 15:00 - 19:00","di":"08:30 - 12:30, 15:00 - 19:00","wo":"08:30 - 12:30, 15:00 - 19:00","do":"08:30 - 12:30, 15:00 - 19:00","vr":"08:30 - 12:30, 15:00 - 19:00","za":"09:00 - 12:00, 15:00 - 18:00","zo":"gesloten"}}},{"type":"Feature","geometry":{"type":"Point","coordinates":[9.09995,45.44602]},"properties":{"type":"pakketpunt","locatieNaam":"InPost Locker 24/7 ","straatNaam":"Via Raffaello Sanzio","straatNr":"4","vervoerder":"InPost","puntType":"automaat","bezettingsgraad":50,"latitude":45.44602,"longitude":9.09995,"canPickup":true,"canDropoff":true,"openingstijden":null}},{"type":"Feature","geometry":{"type":"Point","coordinates":[9.0959,45.44068]},"properties":{"type":"pakketpunt","locatieNaam":"InPost Locker","straatNaam":"Via Milano","straatNr":"12","vervoerder":"InPost","puntType":"automaat","bezettingsgraad":50,"latitude":45.44068,"longitude":9.0959,"canPickup":true,"canDropoff":true,"openingstijden":null}},{"type":"Feature","geometry":{"type":"Point","coordinates":[9.08741,45.43447]},"properties":{"type":"pakketpunt","locatieNaam":"InPost Locker 24/7","straatNaam":"Via Don Sturzo","straatNr":"1","vervoerder":"InPost","puntType":"automaat","bezettingsgraad":50,"latitude":45.43447,"longitude":9.08741,"canPickup":true,"canDropoff":true,"openingstijden":"24/7"}},{"type":"Feature","geometry":{"type":"Point","coordinates":[9.09984,45.43904]},"properties":{"type":"pakketpunt","locatieNaam":"InPost Point","straatNaam":"Via Enrico Fermi","straatNr":"121","vervoerder":"InPost","puntType":"servicepunt","bezettingsgraad":50,"latitude":45.43904,"longitude":9.09984,"canPickup":true,"canDropoff":true,"openingstijden":"Lun-ven: 07:30 - 12:30 - 16:00 - 18:30 - Sab: 08:00 - 13:00"}},{"type":"Feature","geometry":{"type":"Point","coordinates":[9.0869246,45.4327054]},"properties":{"type":"pakketpunt","locatieNaam":"Squisito","straatNaam":"Via Fratelli Rosselli","straatNr":"3","vervoerder":"GLS","puntType":"parcel_shop","bezettingsgraad":50,"latitude":45.4327054,"longitude":9.0869246,"canPickup":true,"canDropoff":true,"openingstijden":"za: 07:00 - 13:00; ma: 07:00 - 19:00"}},{"type":"Feature","geometry":{"type":"Point","coordinates":[9.1016481,45.4392049]},"properties":{"type":"pakketpunt","locatieNaam":"L'edicola che non c'e'","straatNaam":"Via Fermi","straatNr":"snc","vervoerder":"GLS","puntType":"parcel_shop","bezettingsgraad":50,"latitude":45.4392049,"longitude":9.1016481,"canPickup":true,"canDropoff":true,"openingstijden":"za: 07:00 - 12:30; ma: 08:00 - 12:30, 16:00 - 18:30"}},{"type":"Feature","geometry":{"type":"Point","coordinates":[9.1022973,45.4416524]},"properties":{"type":"pakketpunt","locatieNaam":"GLS Locker MI071B presso stazione di servizio Iplanet Cesano Boscone","straatNaam":"Via Isonzo","straatNr":"30","vervoerder":"GLS","puntType":"locker","bezettingsgraad":50,"latitude":45.4416524,"longitude":9.1022973,"canPickup":true,"canDropoff":false,"openingstijden":"za: 00:00 - 23:30; zo: 00:00 - 23:30"}},{"type":"Feature","geometry":{"type":"Point","coordinates":[9.0937095,45.4434864]},"properties":{"type":"pakketpunt","locatieNaam":"Cialde emozioni","straatNaam":"Via Roma","straatNr":"44","vervoerder":"GLS","puntType":"parcel_shop","bezettingsgraad":50,"latitude":45.4434864,"longitude":9.0937095,"canPickup":true,"canDropoff":true,"openingstijden":"za: 09:30 - 12:30, 15:30 - 19:00; ma: 09:30 - 12:30, 15:30 - 19:00"}},{"type":"Feature","geometry":{"type":"Point","coordinates":[9.086292,45.432972]},"properties":{"type":"pakketpunt","locatieNaam":"Ufficio Postale CESANO BOSCONE 1","straatNaam":"VIA FRATELLI ROSSELLI 7","straatNr":"","vervoerder":"DHL","puntType":"postOffice","bezettingsgraad":50,"latitude":45.432972,"longitude":9.086292,"canPickup":true,"canDropoff":true,"openingstijden":{"ma":"08:20 - 13:35","di":"08:20 - 13:35","wo":"08:20 - 13:35","do":"08:20 - 13:35","vr":"08:20 - 13:35","za":"08:20 - 12:35","zo":"gesloten"}}},{"type":"Feature","geometry":{"type":"Point","coordinates":[9.086695,45.432863]},"properties":{"type":"pakketpunt","locatieNaam":"BAR SQUISITO","straatNaam":"VIA FRATELLI ROSSELLI 3","straatNr":"","vervoerder":"DHL","puntType":"parcelShop","bezettingsgraad":50,"latitude":45.432863,"longitude":9.086695,"canPickup":true,"canDropoff":true,"openingstijden":{"ma":"08:00 - 19:00","di":"08:00 - 19:00","wo":"08:00 - 19:00","do":"08:00 - 19:00","vr":"08:00 - 19:00","za":"08:00 - 13:00","zo":"gesloten"}}},{"type":"Feature","geometry":{"type":"Point","coordinates":[9.091306,45.445246]},"properties":{"type":"pakketpunt","locatieNaam":"SUPERMERCATO IL GIGANTE","straatNaam":"VIA ROMA 20","straatNr":"","vervoerder":"DHL","puntType":"packStation","bezettingsgraad":50,"latitude":45.445246,"longitude":9.091306,"canPickup":true,"canDropoff":true,"openingstijden":{"ma":"09:00 - 13:00, 15:00 - 18:00","di":"09:00 - 13:00, 15:00 - 18:00","wo":"09:00 - 13:00, 15:00 - 18:00","do":"09:00 - 13:00, 15:00 - 18:00","vr":"09:00 - 13:00, 15:00 - 18:00","za":"09:00 - 13:00","zo":"gesloten"}}},{"type":"Feature","geometry":{"type":"Point","coordinates":[9.09941,45.43906]},"properties":{"type":"pakketpunt","locatieNaam":"SEM TECH DI ZHANG WENWEN","straatNaam":"Via Roma 115","straatNr":"","vervoerder":"DHL","puntType":"parcelShop","bezettingsgraad":50,"latitude":45.43906,"longitude":9.09941,"canPickup":false,"canDropoff":true,"openingstijden":{"ma":"14:00 - 20:00","di":"09:00 - 20:00","wo":"09:00 - 20:00","do":"09:00 - 20:00","vr":"09:00 - 20:00","za":"09:00 - 20:00","zo":"gesloten"}}},{"type":"Feature","geometry":{"type":"Point","coordinates":[9.09956,45.438952]},"properties":{"type":"pakketpunt","locatieNaam":"SEM TECH","straatNaam":"VIA ROMA 115","straatNr":"","vervoerder":"DHL","puntType":"parcelShop","bezettingsgraad":50,"latitude":45.438952,"longitude":9.09956,"canPickup":true,"canDropoff":true,"openingstijden":{"ma":"14:00 - 20:00","di":"09:00 - 12:30, 14:00 - 20:00","wo":"09:00 - 12:30, 14:00 - 20:00","do":"09:00 - 12:30, 14:00 - 20:00","vr":"09:00 - 12:30, 14:00 - 20:00","za":"09:00 - 12:30, 14:00 - 20:00","zo":"gesloten"}}},{"type":"Feature","geometry":{"type":"Point","coordinates":[9.094824,45.444994]},"properties":{"type":"pakketpunt","locatieNaam":"Ufficio Postale CESANO BOSCONE","straatNaam":"VIA GIUSEPPE GARIBALDI 1","straatNr":"","vervoerder":"DHL","puntType":"postOffice","bezettingsgraad":50,"latitude":45.444994,"longitude":9.094824,"canPickup":true,"canDropoff":true,"openingstijden":{"ma":"08:20 - 19:05","di":"08:20 - 19:05","wo":"08:20 - 19:05","do":"08:20 - 19:05","vr":"08:20 - 19:05","za":"08:20 - 12:35","zo":"gesloten"}}},{"type":"Feature","geometry":{"type":"Point","coordinates":[9.098428,45.442778]},"properties":{"type":"pakketpunt","locatieNaam":"STAZIONE DI SERVIZIO ENI","straatNaam":"VIA DELLA REPUBBLICA 29","straatNr":"","vervoerder":"DHL","puntType":"packStation","bezettingsgraad":50,"latitude":45.442778,"longitude":9.098428,"canPickup":true,"canDropoff":true,"openingstijden":{"ma":"00:01 - 23:59","di":"00:01 - 23:59","wo":"00:01 - 23:59","do":"00:01 - 23:59","vr":"00:01 - 23:59","za":"00:01 - 23:59","zo":"00:01 - 23:59"}}},{"type":"Feature","geometry":{"type":"Point","coordinates":[9.083979,45.450897]},"properties":{"type":"pakketpunt","locatieNaam":"LAVANDERIA - DEMA","straatNaam":"VIA PASUBIO 51","straatNr":"","vervoerder":"DHL","puntType":"packStation","bezettingsgraad":50,"latitude":45.450897,"longitude":9.083979,"canPickup":true,"canDropoff":true,"openingstijden":{"ma":"07:00 - 21:30","di":"07:00 - 21:30","wo":"07:00 - 21:30","do":"07:00 - 21:30","vr":"07:00 - 21:30","za":"07:00 - 21:30","zo":"07:00 - 21:30"}}},{"type":"Feature","geometry":{"type":"Point","coordinates":[9.1019282,45.4420433]},"properties":{"type":"pakketpunt","locatieNaam":"Amazon Locker - ada","straatNaam":"API Cesano Boscone","straatNr":"","vervoerder":"Amazon","puntType":"locker","bezettingsgraad":50,"latitude":45.4420433,"longitude":9.1019282,"canPickup":true,"canDropoff":false,"openingstijden":null}},{"type":"Feature","geometry":{"type":"Point","coordinates":[9.0988,45.442692]},"properties":{"type":"pakketpunt","locatieNaam":"Amazon Locker - albionte","straatNaam":"Eni Station Pv.2512","straatNr":"","vervoerder":"Amazon","puntType":"locker","bezettingsgraad":50,"latitude":45.442692,"longitude":9.0988,"canPickup":true,"canDropoff":false,"openingstijden":null}},{"type":"Feature","geometry":{"type":"Polygon","coordinates":[[[9.0677932,45.4325686],[9.0705394,45.4345279],[9.0709458,45.4344791],[9.0726839,45.4339847],[9.0728346,45.433855],[9.0733211,45.4343731],[9.0746899,45.4350636],[9.075435,45.4356482],[9.0760898,45.4359861],[9.0765534,45.4365313],[9.0768059,45.4367019],[9.0769555,45.4370621],[9.0771783,45.4372348],[9.078881,45.4380253],[9.0793509,45.4384214],[9.0769783,45.4406805],[9.0754439,45.4425196],[9.0782945,45.4438515],[9.0784869,45.4442367],[9.0777048,45.4445181],[9.0777407,45.4446369],[9.0783931,45.4448146],[9.0784599,45.4450162],[9.0777796,45.4450527],[9.0777005,45.4451986],[9.0779308,45.4452974],[9.0780079,45.4454936],[9.0778011,45.4457979],[9.0776732,45.4458016],[9.0775711,45.4459349],[9.077671,45.4460213],[9.0777177,45.4465018],[9.0768589,45.4468949],[9.0767747,45.4470353],[9.076803,45.4471506],[9.0766242,45.4473631],[9.0766503,45.4477214],[9.0763999,45.4479249],[9.0763645,45.4482346],[9.0774452,45.4492906],[9.077893,45.4493695],[9.0766628,45.4512966],[9.0774208,45.4519693],[9.0775735,45.4519347],[9.0776461,45.4521348],[9.0778637,45.4523597],[9.0782063,45.4522532],[9.0783497,45.4522873],[9.0791974,45.4512264],[9.0795986,45.4509795],[9.080405,45.4515856],[9.0816804,45.4508737],[9.0825454,45.4511916],[9.0827568,45.4513828],[9.0833694,45.4514161],[9.0864296,45.4528827],[9.0878175,45.4533588],[9.089078,45.4530536],[9.0893568,45.4531146],[9.0904033,45.4529558],[9.090385,45.4528823],[9.0929773,45.452332],[9.0931203,45.4523945],[9.0949362,45.4505124],[9.0949129,45.4503684],[9.0951708,45.4501413],[9.0953107,45.4496948],[9.0956424,45.4492175],[9.0956295,45.4491274],[9.0954424,45.4490037],[9.0961146,45.4486266],[9.0969131,45.4489373],[9.0978575,45.4478528],[9.0989762,45.4469535],[9.10103,45.446996],[9.0998962,45.4485851],[9.1006623,45.4485282],[9.1008398,45.4484672],[9.1013169,45.4480101],[9.1015127,45.44768],[9.1022547,45.447299],[9.1030463,45.4473616],[9.1053621,45.4456319],[9.1045377,45.4449846],[9.1047376,45.4444227],[9.1052586,45.443507],[9.1049892,45.4434113],[9.1046452,45.4424025],[9.1040561,45.4417171],[9.1025668,45.4413408],[9.1023665,45.440521],[9.1018105,45.440383],[9.1019427,45.4392353],[9.0998433,45.4387466],[9.0998255,45.4385936],[9.1005173,45.4375533],[9.0987536,45.4370508],[9.0980409,45.4380146],[9.0972679,45.4383618],[9.0966279,45.4388664],[9.09588,45.4398346],[9.0949943,45.4415411],[9.094916,45.4415592],[9.0917209,45.4405627],[9.0928041,45.4383475],[9.0915757,45.4377589],[9.0910695,45.4379979],[9.0898698,45.4383544],[9.0880589,45.4382433],[9.0869187,45.4388563],[9.0865079,45.4388611],[9.0858715,45.43865],[9.0873462,45.4368017],[9.0880843,45.4361145],[9.0890447,45.4348511],[9.0895607,45.4345809],[9.0913558,45.4328417],[9.0919791,45.4320089],[9.0921619,45.4314685],[9.0922991,45.4307657],[9.0910034,45.4302548],[9.0919556,45.4286225],[9.0907846,45.4284138],[9.0888841,45.4274409],[9.0877663,45.4289598],[9.0863522,45.428996],[9.0849358,45.4286415],[9.0839585,45.4300914],[9.0816507,45.433203],[9.0789832,45.4316924],[9.076739,45.4302136],[9.0761463,45.4303895],[9.0747547,45.4293148],[9.0752068,45.4292515],[9.0753265,45.4291074],[9.0748387,45.4288197],[9.073942,45.4285727],[9.0734674,45.4286045],[9.070147,45.4312125],[9.0696041,45.4315639],[9.0690385,45.4316182],[9.0677932,45.4325686]]]},"properties":{"type":"boundary","gemeente":"Cesano Boscone"}}]}