{"type":"FeatureCollection","metadata":{"gemeente":"Chiauci","slug":"chiauci","generated_at":"2026-09-26T14:27:11.635787Z","total_points":1,"providers":["PosteItaliane"],"bounds":[14.38421009,41.67731781,14.38421009,41.67731781]},"features":[{"type":"Feature","geometry":{"type":"Point","coordinates":[14.38421009,41.67731781]},"properties":{"type":"pakketpunt","locatieNaam":"Chiauci","straatNaam":"Via Croce","straatNr":"10","vervoerder":"PosteItaliane","puntType":"postkantoor","bezettingsgraad":50,"latitude":41.67731781,"longitude":14.38421009,"canPickup":true,"canDropoff":true,"openingstijden":{"za":"08:20 - 12:45","zo":"gesloten","ma":"gesloten","di":"08:20 - 13:45","wo":"gesloten","do":"08:20 - 13:45","vr":"gesloten"}}},{"type":"Feature","geometry":{"type":"Polygon","coordinates":[[[14.3475996,41.6644208],[14.348728,41.6652905],[14.3499431,41.6670186],[14.3500691,41.6676439],[14.3497811,41.6680742],[14.349367,41.6683095],[14.3491302,41.6687703],[14.3499971,41.6703737],[14.3500061,41.6710057],[14.3497091,41.6716512],[14.3497541,41.6719672],[14.3502851,41.6731841],[14.3507712,41.6740043],[14.3512932,41.6742665],[14.3512482,41.674717],[14.3524184,41.6754901],[14.3527424,41.6755708],[14.3533635,41.6759809],[14.3537775,41.6758801],[14.3543896,41.6761356],[14.3544616,41.6764381],[14.3542546,41.6771507],[14.3571896,41.685592],[14.3574523,41.690158],[14.358996,41.6921246],[14.3590518,41.6927101],[14.3594546,41.6931827],[14.3590403,41.6945747],[14.3583499,41.6952191],[14.3571531,41.6965337],[14.3557077,41.6974883],[14.3551566,41.6983016],[14.3549725,41.6998137],[14.3552487,41.701154],[14.3567204,41.7029099],[14.3575156,41.7027778],[14.3611157,41.7038847],[14.3643618,41.7042214],[14.3653473,41.704141],[14.3660386,41.7039909],[14.3667673,41.7037061],[14.3676209,41.7035546],[14.3685938,41.7030977],[14.3691972,41.7030642],[14.3699654,41.7031374],[14.3740192,41.7040349],[14.3752166,41.7044019],[14.3770541,41.7063752],[14.3771839,41.7065987],[14.3980966,41.6950557],[14.3988285,41.690115],[14.3991889,41.6886936],[14.4003837,41.6856756],[14.398154,41.6759906],[14.3978107,41.6755837],[14.3973685,41.67533],[14.395486,41.6748875],[14.3950789,41.6747041],[14.3899321,41.6714894],[14.3897306,41.6712333],[14.3875962,41.6657748],[14.3874556,41.6653493],[14.3872201,41.6635914],[14.3687436,41.6627345],[14.3676131,41.662828],[14.3647141,41.6620545],[14.3637571,41.6615997],[14.3598316,41.6589926],[14.3475996,41.6644208]]]},"properties":{"type":"boundary","gemeente":"Chiauci"}}]}