{"type":"FeatureCollection","metadata":{"gemeente":"Cino","slug":"cino","generated_at":"2026-09-26T13:09:50.397319Z","total_points":1,"providers":["PosteItaliane"],"bounds":[9.48638986,46.15787311,9.48638986,46.15787311]},"features":[{"type":"Feature","geometry":{"type":"Point","coordinates":[9.48638986,46.15787311]},"properties":{"type":"pakketpunt","locatieNaam":"Cino","straatNaam":"Via Roma","straatNr":"1","vervoerder":"PosteItaliane","puntType":"postkantoor","bezettingsgraad":50,"latitude":46.15787311,"longitude":9.48638986,"canPickup":true,"canDropoff":true,"openingstijden":{"za":"08:20 - 12:45","zo":"gesloten","ma":"gesloten","di":"08:20 - 13:45","wo":"gesloten","do":"08:20 - 13:45","vr":"gesloten"}}},{"type":"Feature","geometry":{"type":"Polygon","coordinates":[[[9.4635647,46.1748414],[9.4636464,46.1751246],[9.4637769,46.175241],[9.4657981,46.1758358],[9.4662846,46.1761083],[9.4680696,46.176722],[9.4722151,46.1774429],[9.4765247,46.1787794],[9.4792249,46.1790201],[9.4816349,46.179037],[9.4839698,46.1793511],[9.4873238,46.1793503],[9.4893798,46.179625],[9.4908536,46.1799966],[9.4921407,46.1804906],[9.4939239,46.1813919],[9.4959503,46.1826836],[9.496134,46.1820483],[9.496085,46.1814635],[9.4962313,46.1797258],[9.4971751,46.1755503],[9.4967424,46.1726496],[9.4967216,46.1717722],[9.4969467,46.1710648],[9.4973316,46.1704691],[9.4975328,46.1699777],[9.4978321,46.1690494],[9.497979,46.1681083],[9.4979141,46.1670151],[9.4980329,46.1663665],[9.4980108,46.1657096],[9.4977384,46.1644148],[9.4978629,46.1629608],[9.4979491,46.1628299],[9.4987218,46.1623405],[9.4989398,46.1620921],[9.4991047,46.1606424],[9.4993125,46.159629],[9.4994052,46.1595026],[9.5001329,46.1592249],[9.5018079,46.159168],[9.5032306,46.1589457],[9.5033998,46.158864],[9.5034446,46.1586253],[9.503228,46.1583113],[9.5028824,46.1580428],[9.5013435,46.1575861],[9.4987635,46.1574669],[9.4976369,46.1573008],[9.4972156,46.1568976],[9.4969101,46.156053],[9.4914239,46.1555098],[9.4890277,46.1554706],[9.4882206,46.155555],[9.4862057,46.1550596],[9.4854795,46.1547702],[9.4841027,46.1544881],[9.4838137,46.1543993],[9.4837075,46.1542873],[9.4821436,46.1540869],[9.4808872,46.1542407],[9.4806229,46.1543813],[9.4805798,46.154818],[9.4808708,46.1558833],[9.4804946,46.1560019],[9.479786,46.1558653],[9.4787609,46.1560046],[9.4785355,46.1561541],[9.4783166,46.156488],[9.4782775,46.1577572],[9.478142,46.1580007],[9.4780681,46.1584376],[9.4777246,46.1589745],[9.4774474,46.1596731],[9.4773886,46.1599884],[9.4774907,46.160186],[9.4774409,46.1604157],[9.4772332,46.160745],[9.4765059,46.1633131],[9.4763761,46.1640381],[9.4757066,46.1652514],[9.4752013,46.166365],[9.4750267,46.1675222],[9.4743212,46.1700182],[9.4743153,46.1704547],[9.474189,46.1706532],[9.474054,46.1707618],[9.4733805,46.1709671],[9.4713811,46.1713984],[9.4679331,46.1730506],[9.466323,46.1735702],[9.4635647,46.1748414]]]},"properties":{"type":"boundary","gemeente":"Cino"}}]}