{"type":"FeatureCollection","metadata":{"gemeente":"Cison di Valmarino","slug":"cison-di-valmarino","generated_at":"2026-09-26T14:27:12.506689Z","total_points":4,"providers":["PosteItaliane","DHL","Amazon"],"bounds":[12.1411,45.97,12.1746724,45.9803991]},"features":[{"type":"Feature","geometry":{"type":"Point","coordinates":[12.14114427,45.97005852]},"properties":{"type":"pakketpunt","locatieNaam":"Cison Di Valmarino","straatNaam":"Piazza Girolamo Brandolini","straatNr":"8","vervoerder":"PosteItaliane","puntType":"postkantoor","bezettingsgraad":50,"latitude":45.97005852,"longitude":12.14114427,"canPickup":true,"canDropoff":true,"openingstijden":{"za":"08:20 - 12:45","zo":"gesloten","ma":"08:20 - 13:45","di":"08:20 - 13:45","wo":"08:20 - 13:45","do":"08:20 - 13:45","vr":"08:20 - 13:45"}}},{"type":"Feature","geometry":{"type":"Point","coordinates":[12.141144,45.970059]},"properties":{"type":"pakketpunt","locatieNaam":"Ufficio Postale CISON DI VALMARINO","straatNaam":"PIAZZA GIROLAMO BRANDOLINI 8","straatNr":"","vervoerder":"DHL","puntType":"postOffice","bezettingsgraad":50,"latitude":45.970059,"longitude":12.141144,"canPickup":true,"canDropoff":true,"openingstijden":{"ma":"08:20 - 13:45","di":"08:20 - 13:45","wo":"08:20 - 13:45","do":"08:20 - 13:45","vr":"08:20 - 13:45","za":"08:20 - 12:45","zo":"gesloten"}}},{"type":"Feature","geometry":{"type":"Point","coordinates":[12.1411,45.97]},"properties":{"type":"pakketpunt","locatieNaam":"Ufficio Postale CISON DI VALMARINO","straatNaam":"PIAZZA GIROLAMO BRANDOLINI 8","straatNr":"","vervoerder":"Amazon","puntType":"3p","bezettingsgraad":50,"latitude":45.97,"longitude":12.1411,"canPickup":true,"canDropoff":false,"openingstijden":null}},{"type":"Feature","geometry":{"type":"Point","coordinates":[12.1746724,45.9803991]},"properties":{"type":"pakketpunt","locatieNaam":"Amazon Counter - CRIBI BAR","straatNaam":"VIA SAN BOLDO 8","straatNr":"","vervoerder":"Amazon","puntType":"helix","bezettingsgraad":50,"latitude":45.9803991,"longitude":12.1746724,"canPickup":true,"canDropoff":false,"openingstijden":null}},{"type":"Feature","geometry":{"type":"Polygon","coordinates":[[[12.1396199,46.0000818],[12.1409724,46.0005829],[12.1420032,46.0011437],[12.1431792,46.001403],[12.1440946,46.0018836],[12.1451033,46.0026681],[12.1462803,46.0026417],[12.1475591,46.0023058],[12.1476892,46.0020404],[12.1480412,46.0019236],[12.1499274,46.0019072],[12.1512785,46.0020902],[12.1535126,46.0012756],[12.1552483,46.0008647],[12.1558675,46.0036385],[12.1580834,46.0040116],[12.1638071,46.0045107],[12.1637849,46.0047197],[12.165534,46.0049925],[12.1697387,46.00595],[12.1693664,46.0072556],[12.1688558,46.007671],[12.1679681,46.0091828],[12.1678586,46.009656],[12.1680039,46.0105714],[12.1675087,46.0113231],[12.1667508,46.0137218],[12.1690632,46.0137521],[12.1705384,46.0136874],[12.1730627,46.0137768],[12.1744065,46.0139438],[12.1753754,46.0142264],[12.1767194,46.0144288],[12.177759,46.0143684],[12.1783408,46.0140843],[12.1795592,46.0129074],[12.1807752,46.0124275],[12.1813997,46.0118265],[12.1817625,46.0116978],[12.1829771,46.0116453],[12.1843062,46.011132],[12.1856466,46.0102968],[12.1865047,46.0099157],[12.1873167,46.0093274],[12.187486,46.0092428],[12.1886481,46.0091072],[12.1892784,46.0086098],[12.1902317,46.0070353],[12.1909719,46.0061832],[12.1912383,46.005765],[12.1910009,46.0046303],[12.1901642,46.0035678],[12.1883946,46.002534],[12.1881963,46.002225],[12.1864221,46.000842],[12.186044,46.0003703],[12.1854329,46.0000309],[12.1857132,45.9993242],[12.1855635,45.9991608],[12.185625,45.9985197],[12.1861004,45.9983586],[12.1866868,45.9974936],[12.1867051,45.9969695],[12.1868372,45.9966323],[12.1868838,45.9960724],[12.1865265,45.9951468],[12.1889846,45.9930712],[12.1873099,45.9926381],[12.1900863,45.9899748],[12.1912722,45.9890793],[12.1917318,45.9886352],[12.1920635,45.9881811],[12.1921343,45.9877267],[12.1924353,45.9873704],[12.1928043,45.9867217],[12.1929033,45.9860187],[12.1937828,45.9853895],[12.1938786,45.9851577],[12.1942652,45.9849186],[12.1947436,45.9842753],[12.1948923,45.9839075],[12.1950025,45.9838211],[12.1955537,45.9837042],[12.1966244,45.983763],[12.196711,45.9832659],[12.1969205,45.9827977],[12.1969049,45.9824218],[12.1970456,45.9819164],[12.1969561,45.9816272],[12.1967863,45.9814163],[12.1967477,45.981168],[12.1968809,45.9803219],[12.1970372,45.9800893],[12.1975574,45.9796435],[12.1977341,45.9793427],[12.1977769,45.9792462],[12.1976793,45.9788135],[12.1977584,45.9786084],[12.1988011,45.977025],[12.1992546,45.9761904],[12.1998694,45.9763617],[12.2001664,45.9755712],[12.2004338,45.9745322],[12.2022908,45.9691976],[12.2018926,45.9691518],[12.2000045,45.9685314],[12.1987431,45.9683259],[12.1968309,45.9676157],[12.1960687,45.9676808],[12.1952518,45.9675622],[12.1948882,45.967463],[12.1944847,45.9672159],[12.1935794,45.967088],[12.1916105,45.9665879],[12.18994,45.9660347],[12.1887764,45.9657827],[12.1880491,45.9653619],[12.1867056,45.964817],[12.187006,45.9644715],[12.1871929,45.9641195],[12.1872336,45.9638426],[12.1874031,45.9636233],[12.1882378,45.9629619],[12.1878697,45.9625649],[12.1877438,45.9622312],[12.1877459,45.9620473],[12.1879412,45.9617346],[12.1878162,45.9611951],[12.1881904,45.9602774],[12.1887856,45.9597091],[12.1887597,45.9593683],[12.1853999,45.9589125],[12.1834362,45.9584978],[12.1803872,45.9577684],[12.1791465,45.95726],[12.1810122,45.9571698],[12.1814813,45.9564825],[12.1816761,45.9560479],[12.1822755,45.9561013],[12.1827459,45.9563115],[12.1832334,45.9562759],[12.1838722,45.9553707],[12.184499,45.9546964],[12.1851875,45.9533482],[12.1858534,45.9525908],[12.1865005,45.9521612],[12.1867685,45.9514719],[12.1869795,45.9513215],[12.1869742,45.9509013],[12.187152,45.9507168],[12.1869632,45.95049],[12.1869625,45.9503684],[12.1871645,45.9500607],[12.186967,45.9497903],[12.187096,45.9494146],[12.1867098,45.9490269],[12.1865675,45.9487353],[12.1870339,45.9485515],[12.187,45.9482899],[12.1874138,45.9476261],[12.1874763,45.9470881],[12.1883396,45.9461712],[12.1883756,45.9459231],[12.1886277,45.9456185],[12.1887056,45.9452268],[12.1885042,45.9451056],[12.1884478,45.944779],[12.1884912,45.9442221],[12.1889466,45.9438506],[12.1888613,45.9436779],[12.1882366,45.9431509],[12.1882199,45.9428606],[12.188722,45.9425534],[12.1888604,45.9421459],[12.1878857,45.9415644],[12.1879941,45.9408905],[12.1880742,45.9407925],[12.1882808,45.9408055],[12.1890301,45.9410153],[12.1892753,45.940976],[12.1899634,45.9404915],[12.1904503,45.9399022],[12.1905529,45.9396285],[12.1908521,45.9393597],[12.189149,45.9396495],[12.1890613,45.9397514],[12.1874777,45.9394062],[12.1873701,45.9395877],[12.1857673,45.9399533],[12.1842083,45.9401341],[12.1818833,45.9397202],[12.1800801,45.9394975],[12.1798532,45.9393151],[12.1776332,45.9387779],[12.1770944,45.9384738],[12.1758779,45.938106],[12.1745956,45.938133],[12.1715669,45.9375241],[12.1707707,45.9377006],[12.169878,45.9373927],[12.1696036,45.9372357],[12.1695275,45.9371074],[12.1686327,45.9371083],[12.1680793,45.9368027],[12.1679715,45.9368643],[12.1673039,45.9380442],[12.1671461,45.9385084],[12.166838,45.9388986],[12.1658655,45.9393508],[12.1653324,45.9397225],[12.1646778,45.9402203],[12.1642423,45.9407319],[12.1639681,45.9414646],[12.1640449,45.9418764],[12.1639584,45.9419805],[12.1635142,45.9420461],[12.1633101,45.9423914],[12.1621953,45.9427854],[12.161855,45.9430502],[12.1616558,45.9430457],[12.1612145,45.9439194],[12.1613508,45.9443853],[12.1605415,45.9451997],[12.160618,45.9452942],[12.1606254,45.9455494],[12.1605167,45.9460718],[12.160401,45.9462175],[12.1594616,45.9467541],[12.1583788,45.9478277],[12.1575433,45.9482573],[12.1573134,45.948462],[12.1570643,45.9487205],[12.1568701,45.949538],[12.1564997,45.9502018],[12.1530968,45.9492489],[12.1528851,45.9495227],[12.1525162,45.950704],[12.1522918,45.9510653],[12.1518063,45.9509209],[12.1515677,45.9507331],[12.1513799,45.9507714],[12.1508144,45.9506832],[12.1496571,45.9504324],[12.1489082,45.9501814],[12.1469726,45.949324],[12.1465849,45.9492403],[12.1464534,45.9492991],[12.1465406,45.9499372],[12.1455765,45.9525696],[12.1433572,45.9521204],[12.1419452,45.951674],[12.1404967,45.9552606],[12.1395123,45.9551614],[12.1388772,45.9545933],[12.1378445,45.9547058],[12.1376925,45.9557075],[12.1381962,45.9566617],[12.138161,45.956858],[12.1388121,45.9572186],[12.1388791,45.9574173],[12.1393394,45.9577668],[12.1401296,45.9582045],[12.1403488,45.9586358],[12.1378198,45.9604248],[12.1378487,45.9605251],[12.1376161,45.9613333],[12.1369326,45.9619634],[12.1366724,45.9625311],[12.1370048,45.9627485],[12.1369499,45.9639119],[12.1374478,45.9653361],[12.1368094,45.9656966],[12.1363404,45.9658518],[12.1356811,45.9676522],[12.1353574,45.9678358],[12.1351728,45.9681827],[12.1351797,45.9684672],[12.1354016,45.9685355],[12.1356961,45.9693134],[12.1362028,45.9694935],[12.1364266,45.9697609],[12.1362047,45.9705148],[12.1359216,45.9708428],[12.1353664,45.9712814],[12.1357216,45.9722306],[12.1357674,45.973286],[12.136053,45.9738248],[12.1358106,45.9740502],[12.1354172,45.9748895],[12.1346888,45.9760404],[12.1339537,45.9769918],[12.1338025,45.9776009],[12.1339543,45.9783591],[12.1339067,45.9785422],[12.1333779,45.9790401],[12.1333897,45.9803169],[12.133436,45.9808074],[12.1336935,45.9811755],[12.1345986,45.9815071],[12.1356054,45.9820799],[12.1365333,45.9832228],[12.1365783,45.9834454],[12.1372839,45.9844322],[12.1372357,45.9848127],[12.1370658,45.985089],[12.1371154,45.9852289],[12.1374715,45.985617],[12.1380227,45.9865016],[12.138495,45.9870549],[12.1389968,45.9880491],[12.1390292,45.9883749],[12.1393176,45.9892896],[12.1395582,45.9895224],[12.1395975,45.9903816],[12.1398605,45.9906008],[12.1398239,45.9908573],[12.1403014,45.9914187],[12.1405222,45.9915486],[12.1400261,45.9922962],[12.1400763,45.9924436],[12.1399834,45.9926079],[12.1395794,45.9930955],[12.1385257,45.9939963],[12.1378807,45.9958072],[12.1378891,45.9959558],[12.1380901,45.9962241],[12.138608,45.9966822],[12.1386854,45.9969841],[12.1384222,45.997586],[12.1391583,45.999073],[12.1392427,45.9994344],[12.1396199,46.0000818]]]},"properties":{"type":"boundary","gemeente":"Cison di Valmarino"}}]}