{"type":"FeatureCollection","metadata":{"gemeente":"Cisterna di Latina","slug":"cisterna-di-latina","generated_at":"2026-09-26T14:27:12.538998Z","total_points":80,"providers":["PosteItaliane","DPD","InPost","GLS","DHL","Amazon","FedEx"],"bounds":[12.8034910554504,41.54672877,12.92096812,41.61529906]},"features":[{"type":"Feature","geometry":{"type":"Point","coordinates":[12.82968755,41.6001889]},"properties":{"type":"pakketpunt","locatieNaam":"Tabaccheria N. 36","straatNaam":"Via Dante Alighieri","straatNr":"41","vervoerder":"PosteItaliane","puntType":"servicepunt","bezettingsgraad":50,"latitude":41.6001889,"longitude":12.82968755,"canPickup":true,"canDropoff":true,"openingstijden":{"za":"06:00 - 21:00","zo":"06:00 - 21:00","ma":"06:00 - 21:00","di":"06:00 - 21:00","wo":"06:00 - 21:00","do":"06:00 - 21:00","vr":"06:00 - 21:00"}}},{"type":"Feature","geometry":{"type":"Point","coordinates":[12.80472608,41.61376993]},"properties":{"type":"pakketpunt","locatieNaam":"Le Castella","straatNaam":"Via Appia Nord Km.49","straatNr":"500","vervoerder":"PosteItaliane","puntType":"postkantoor","bezettingsgraad":50,"latitude":41.61376993,"longitude":12.80472608,"canPickup":true,"canDropoff":true,"openingstijden":{"za":"08:20 - 12:45","zo":"gesloten","ma":"08:20 - 13:45","di":"08:20 - 13:45","wo":"08:20 - 13:45","do":"08:20 - 13:45","vr":"08:20 - 13:45"}}},{"type":"Feature","geometry":{"type":"Point","coordinates":[12.83242699,41.59139148]},"properties":{"type":"pakketpunt","locatieNaam":"Cisterna Di Latina","straatNaam":"Via Porta Agrippina Snc","straatNr":"","vervoerder":"PosteItaliane","puntType":"postkantoor","bezettingsgraad":50,"latitude":41.59139148,"longitude":12.83242699,"canPickup":true,"canDropoff":true,"openingstijden":{"za":"08:20 - 12:35","zo":"gesloten","ma":"08:20 - 19:05","di":"08:20 - 19:05","wo":"08:20 - 19:05","do":"08:20 - 19:05","vr":"08:20 - 19:05"}}},{"type":"Feature","geometry":{"type":"Point","coordinates":[12.83247689,41.54672877]},"properties":{"type":"pakketpunt","locatieNaam":"Borgo Flora","straatNaam":"Via Dei Bonificatori Snc","straatNr":"","vervoerder":"PosteItaliane","puntType":"postkantoor","bezettingsgraad":50,"latitude":41.54672877,"longitude":12.83247689,"canPickup":true,"canDropoff":true,"openingstijden":{"za":"08:20 - 12:45","zo":"gesloten","ma":"08:20 - 13:45","di":"08:20 - 13:45","wo":"08:20 - 13:45","do":"08:20 - 13:45","vr":"08:20 - 13:45"}}},{"type":"Feature","geometry":{"type":"Point","coordinates":[12.83082758,41.58700098]},"properties":{"type":"pakketpunt","locatieNaam":"Tabaccheria N. 30","straatNaam":"Corso Della Repubblica","straatNr":"447","vervoerder":"PosteItaliane","puntType":"servicepunt","bezettingsgraad":50,"latitude":41.58700098,"longitude":12.83082758,"canPickup":true,"canDropoff":true,"openingstijden":{"za":"08:00 - 13:00, 15:15 - 20:00","zo":"08:00 - 13:00","ma":"08:00 - 13:00, 15:15 - 20:00","di":"08:00 - 13:00, 15:15 - 20:00","wo":"08:00 - 13:00, 15:15 - 20:00","do":"08:00 - 13:00, 15:15 - 20:00","vr":"08:00 - 13:00, 15:15 - 20:00"}}},{"type":"Feature","geometry":{"type":"Point","coordinates":[12.83030949,41.59108098]},"properties":{"type":"pakketpunt","locatieNaam":"Tabaccheria N. 2","straatNaam":"Piazza Santi Pietro E Paolo","straatNr":"7","vervoerder":"PosteItaliane","puntType":"servicepunt","bezettingsgraad":50,"latitude":41.59108098,"longitude":12.83030949,"canPickup":true,"canDropoff":true,"openingstijden":{"za":"07:00 - 12:20, 16:00 - 20:00","zo":"gesloten","ma":"07:00 - 12:20, 16:00 - 20:00","di":"07:00 - 12:20, 16:00 - 20:00","wo":"07:00 - 12:20, 16:00 - 20:00","do":"07:00 - 12:20, 16:00 - 20:00","vr":"07:00 - 12:20, 16:00 - 20:00"}}},{"type":"Feature","geometry":{"type":"Point","coordinates":[12.81956498,41.57419524]},"properties":{"type":"pakketpunt","locatieNaam":"Stazione Di Q8","straatNaam":"Via Nettuno","straatNr":"186","vervoerder":"PosteItaliane","puntType":"automaat","bezettingsgraad":50,"latitude":41.57419524,"longitude":12.81956498,"canPickup":true,"canDropoff":true,"openingstijden":{"za":"00:01 - 23:59","zo":"00:01 - 23:59","ma":"00:01 - 23:59","di":"00:01 - 23:59","wo":"00:01 - 23:59","do":"00:01 - 23:59","vr":"00:01 - 23:59"}}},{"type":"Feature","geometry":{"type":"Point","coordinates":[12.89613376,41.57289225]},"properties":{"type":"pakketpunt","locatieNaam":"Tabaccheria N. 12","straatNaam":"Via Ninfina","straatNr":"21","vervoerder":"PosteItaliane","puntType":"servicepunt","bezettingsgraad":50,"latitude":41.57289225,"longitude":12.89613376,"canPickup":true,"canDropoff":true,"openingstijden":{"za":"06:30 - 13:00, 16:30 - 19:30","zo":"gesloten","ma":"06:30 - 13:00, 16:30 - 19:30","di":"06:30 - 13:00, 16:30 - 19:30","wo":"06:30 - 13:00, 16:30 - 19:30","do":"06:30 - 13:00, 16:30 - 19:30","vr":"06:30 - 13:00, 16:30 - 19:30"}}},{"type":"Feature","geometry":{"type":"Point","coordinates":[12.82512026,41.59130816]},"properties":{"type":"pakketpunt","locatieNaam":"Tabaccheria N. 27","straatNaam":"Via Primo Maggio","straatNr":"36","vervoerder":"PosteItaliane","puntType":"servicepunt","bezettingsgraad":50,"latitude":41.59130816,"longitude":12.82512026,"canPickup":true,"canDropoff":true,"openingstijden":{"za":"08:00 - 13:00, 16:00 - 20:00","zo":"gesloten","ma":"08:00 - 13:00, 16:00 - 20:00","di":"08:00 - 13:00, 16:00 - 20:00","wo":"08:00 - 13:00, 16:00 - 20:00","do":"08:00 - 13:00, 16:00 - 20:00","vr":"08:00 - 13:00, 16:00 - 20:00"}}},{"type":"Feature","geometry":{"type":"Point","coordinates":[12.82968755,41.6001889]},"properties":{"type":"pakketpunt","locatieNaam":"Bar - Victoria","straatNaam":"Via Dante Alighieri","straatNr":"41","vervoerder":"PosteItaliane","puntType":"automaat","bezettingsgraad":50,"latitude":41.6001889,"longitude":12.82968755,"canPickup":true,"canDropoff":true,"openingstijden":{"za":"06:00 - 20:00","zo":"06:00 - 20:00","ma":"06:00 - 20:00","di":"06:00 - 20:00","wo":"06:00 - 20:00","do":"06:00 - 20:00","vr":"06:00 - 20:00"}}},{"type":"Feature","geometry":{"type":"Point","coordinates":[12.81131792,41.60566104]},"properties":{"type":"pakketpunt","locatieNaam":"Tabaccheria N. 34","straatNaam":"Via Collina Dei Pini","straatNr":"12","vervoerder":"PosteItaliane","puntType":"servicepunt","bezettingsgraad":50,"latitude":41.60566104,"longitude":12.81131792,"canPickup":true,"canDropoff":true,"openingstijden":{"za":"08:00 - 13:00, 16:30 - 20:00","zo":"gesloten","ma":"08:00 - 13:00, 16:30 - 20:00","di":"08:00 - 13:00, 16:30 - 20:00","wo":"08:00 - 13:00, 16:30 - 20:00","do":"08:00 - 13:00, 16:30 - 20:00","vr":"08:00 - 13:00, 16:30 - 20:00"}}},{"type":"Feature","geometry":{"type":"Point","coordinates":[12.82951734,41.5889866]},"properties":{"type":"pakketpunt","locatieNaam":"Tabaccheria N. 3","straatNaam":"Corso Della Repubblica","straatNr":"268","vervoerder":"PosteItaliane","puntType":"servicepunt","bezettingsgraad":50,"latitude":41.5889866,"longitude":12.82951734,"canPickup":true,"canDropoff":true,"openingstijden":{"za":"08:00 - 13:00, 16:00 - 20:00","zo":"gesloten","ma":"08:00 - 13:00, 16:00 - 20:00","di":"08:00 - 13:00, 16:00 - 20:00","wo":"08:00 - 13:00, 16:00 - 20:00","do":"08:00 - 13:00, 16:00 - 20:00","vr":"08:00 - 13:00, 16:00 - 20:00"}}},{"type":"Feature","geometry":{"type":"Point","coordinates":[12.82722237,41.5928156]},"properties":{"type":"pakketpunt","locatieNaam":"Tabaccheria N. 17","straatNaam":"Corso Della Repubblica","straatNr":"124","vervoerder":"PosteItaliane","puntType":"servicepunt","bezettingsgraad":50,"latitude":41.5928156,"longitude":12.82722237,"canPickup":true,"canDropoff":true,"openingstijden":{"za":"08:30 - 13:00, 16:00 - 20:00","zo":"gesloten","ma":"08:30 - 13:00, 16:00 - 20:00","di":"08:30 - 13:00, 16:00 - 20:00","wo":"08:30 - 13:00, 16:00 - 20:00","do":"08:30 - 13:00, 16:00 - 20:00","vr":"08:30 - 13:00, 16:00 - 20:00"}}},{"type":"Feature","geometry":{"type":"Point","coordinates":[12.84402197,41.60106585]},"properties":{"type":"pakketpunt","locatieNaam":"Tabaccheria N. 33","straatNaam":"Via Aldo Moro","straatNr":"15","vervoerder":"PosteItaliane","puntType":"servicepunt","bezettingsgraad":50,"latitude":41.60106585,"longitude":12.84402197,"canPickup":true,"canDropoff":true,"openingstijden":{"za":"07:00 - 13:00, 16:00 - 19:30","zo":"gesloten","ma":"07:00 - 13:00, 16:00 - 19:30","di":"07:00 - 13:00, 16:00 - 19:30","wo":"07:00 - 13:00, 16:00 - 19:30","do":"07:00 - 13:00, 16:00 - 19:30","vr":"07:00 - 13:00, 16:00 - 19:30"}}},{"type":"Feature","geometry":{"type":"Point","coordinates":[12.83892449,41.56719225]},"properties":{"type":"pakketpunt","locatieNaam":"Tabaccheria N. 25","straatNaam":"Via Provinciale Per Latina","straatNr":"84","vervoerder":"PosteItaliane","puntType":"servicepunt","bezettingsgraad":50,"latitude":41.56719225,"longitude":12.83892449,"canPickup":true,"canDropoff":true,"openingstijden":{"za":"06:00 - 21:00","zo":"06:00 - 13:00","ma":"06:00 - 21:00","di":"06:00 - 21:00","wo":"06:00 - 21:00","do":"06:00 - 21:00","vr":"06:00 - 21:00"}}},{"type":"Feature","geometry":{"type":"Point","coordinates":[12.8296924,41.5911366]},"properties":{"type":"pakketpunt","locatieNaam":"Poste private - Cisterna di Latina","straatNaam":"PIAZZA S.S.PIETRO E","straatNr":"Paolo17","vervoerder":"DPD","puntType":"pickup_point","bezettingsgraad":50,"latitude":41.5911366,"longitude":12.8296924,"canPickup":true,"canDropoff":true,"openingstijden":{"ma":"07:00 - 19:00","di":"07:00 - 19:00","wo":"07:00 - 19:00","do":"07:00 - 19:00","vr":"07:00 - 19:00","za":"08:30 - 13:00, 16:30 - 19:30","zo":"gesloten"}}},{"type":"Feature","geometry":{"type":"Point","coordinates":[12.82939611,41.58897356]},"properties":{"type":"pakketpunt","locatieNaam":"Giordani-Buffetti","straatNaam":"CORSO DELLA REPUBBLICA","straatNr":"266","vervoerder":"DPD","puntType":"pickup_point","bezettingsgraad":50,"latitude":41.58897356,"longitude":12.82939611,"canPickup":true,"canDropoff":true,"openingstijden":{"ma":"08:30 - 13:00, 16:00 - 19:30","di":"08:30 - 13:00, 16:00 - 19:30","wo":"08:30 - 13:00, 16:00 - 19:30","do":"08:30 - 13:00, 16:00 - 19:30","vr":"08:30 - 13:00, 16:00 - 19:30","za":"09:00 - 13:00","zo":"gesloten"}}},{"type":"Feature","geometry":{"type":"Point","coordinates":[12.82962,41.60033]},"properties":{"type":"pakketpunt","locatieNaam":"BRT LOCKER - Bar Victoria Via Aligh","straatNaam":"VIA ALIGHIERI","straatNr":"43","vervoerder":"DPD","puntType":"dpd_box","bezettingsgraad":50,"latitude":41.60033,"longitude":12.82962,"canPickup":true,"canDropoff":true,"openingstijden":{"ma":"00:00 - 23:45","di":"00:00 - 23:45","wo":"00:00 - 23:45","do":"00:00 - 23:45","vr":"00:00 - 23:45","za":"00:00 - 23:45","zo":"00:00 - 23:45"}}},{"type":"Feature","geometry":{"type":"Point","coordinates":[12.8330723,41.5906764]},"properties":{"type":"pakketpunt","locatieNaam":"La Nuova Posta-Cisterna","straatNaam":"VIA MONTI LEPINI","straatNr":"39 Bis","vervoerder":"DPD","puntType":"pickup_point","bezettingsgraad":50,"latitude":41.5906764,"longitude":12.8330723,"canPickup":true,"canDropoff":true,"openingstijden":{"ma":"08:30 - 17:00","di":"08:30 - 17:00","wo":"08:30 - 17:00","do":"08:30 - 17:00","vr":"08:30 - 17:00","za":"gesloten","zo":"gesloten"}}},{"type":"Feature","geometry":{"type":"Point","coordinates":[12.81093,41.60528]},"properties":{"type":"pakketpunt","locatieNaam":"Tabacchi di Giovangrossi G.","straatNaam":"VIA COLLINA DEI PINI","straatNr":"12","vervoerder":"DPD","puntType":"pickup_point","bezettingsgraad":50,"latitude":41.60528,"longitude":12.81093,"canPickup":true,"canDropoff":true,"openingstijden":{"ma":"07:30 - 13:00, 16:00 - 19:30","di":"07:30 - 13:00, 16:00 - 19:30","wo":"07:30 - 13:00, 16:00 - 19:30","do":"07:30 - 13:00, 16:00 - 19:30","vr":"07:30 - 13:00, 16:00 - 19:30","za":"08:00 - 13:00, 16:00 - 19:30","zo":"gesloten"}}},{"type":"Feature","geometry":{"type":"Point","coordinates":[12.80349106,41.61529906]},"properties":{"type":"pakketpunt","locatieNaam":"Agribast","straatNaam":"VIA APPIA KM 49.200","straatNr":"","vervoerder":"DPD","puntType":"pickup_point","bezettingsgraad":50,"latitude":41.61529906,"longitude":12.80349106,"canPickup":true,"canDropoff":true,"openingstijden":{"ma":"08:00 - 13:00, 16:00 - 19:30","di":"08:00 - 13:00, 16:00 - 19:30","wo":"08:00 - 13:00, 16:00 - 19:30","do":"08:00 - 13:00, 16:00 - 19:30","vr":"08:00 - 13:00, 16:00 - 19:30","za":"08:00 - 13:00, 16:00 - 19:30","zo":"08:00 - 12:00"}}},{"type":"Feature","geometry":{"type":"Point","coordinates":[12.83603,41.57713]},"properties":{"type":"pakketpunt","locatieNaam":"Rivendita 16 D'Antoni","straatNaam":"VIA PROVINCIALE PER LATINA","straatNr":"23","vervoerder":"DPD","puntType":"pickup_point","bezettingsgraad":50,"latitude":41.57713,"longitude":12.83603,"canPickup":true,"canDropoff":true,"openingstijden":{"ma":"05:00 - 19:30","di":"05:00 - 19:30","wo":"05:00 - 19:30","do":"05:00 - 19:30","vr":"05:00 - 19:30","za":"05:00 - 19:30","zo":"06:00 - 12:00"}}},{"type":"Feature","geometry":{"type":"Point","coordinates":[12.92096812,41.58789015]},"properties":{"type":"pakketpunt","locatieNaam":"Bar della Fortuna","straatNaam":"VIA CORANA","straatNr":"64","vervoerder":"DPD","puntType":"pickup_point","bezettingsgraad":50,"latitude":41.58789015,"longitude":12.92096812,"canPickup":true,"canDropoff":true,"openingstijden":{"ma":"06:00 - 20:30","di":"gesloten","wo":"06:00 - 20:30","do":"06:00 - 20:30","vr":"06:00 - 20:30","za":"06:00 - 20:30","zo":"06:00 - 20:30"}}},{"type":"Feature","geometry":{"type":"Point","coordinates":[12.82972,41.59123]},"properties":{"type":"pakketpunt","locatieNaam":"InPost Point","straatNaam":"Piazza Santi Pietro E Paolo","straatNr":"17","vervoerder":"InPost","puntType":"servicepunt","bezettingsgraad":50,"latitude":41.59123,"longitude":12.82972,"canPickup":true,"canDropoff":true,"openingstijden":"Lun-Ven: 07:00 - 19:00 Sab: 08:30 - 13:00 - 15:30 - 19:00"}},{"type":"Feature","geometry":{"type":"Point","coordinates":[12.83291,41.59048]},"properties":{"type":"pakketpunt","locatieNaam":"InPost Locker","straatNaam":"Via Monti Lepini","straatNr":"39","vervoerder":"InPost","puntType":"automaat","bezettingsgraad":50,"latitude":41.59048,"longitude":12.83291,"canPickup":true,"canDropoff":true,"openingstijden":null}},{"type":"Feature","geometry":{"type":"Point","coordinates":[12.82963,41.60024]},"properties":{"type":"pakketpunt","locatieNaam":"InPost Locker","straatNaam":"Via Dante Alighieri","straatNr":"41-43","vervoerder":"InPost","puntType":"automaat","bezettingsgraad":50,"latitude":41.60024,"longitude":12.82963,"canPickup":true,"canDropoff":true,"openingstijden":null}},{"type":"Feature","geometry":{"type":"Point","coordinates":[12.84699,41.60157]},"properties":{"type":"pakketpunt","locatieNaam":"InPost Locker 24/7","straatNaam":"Via Monti Lepini","straatNr":"Km 23+590","vervoerder":"InPost","puntType":"automaat","bezettingsgraad":50,"latitude":41.60157,"longitude":12.84699,"canPickup":true,"canDropoff":true,"openingstijden":null}},{"type":"Feature","geometry":{"type":"Point","coordinates":[12.81091,41.60524]},"properties":{"type":"pakketpunt","locatieNaam":"InPost Point","straatNaam":"Via Collina dei Pini","straatNr":"12","vervoerder":"InPost","puntType":"servicepunt","bezettingsgraad":50,"latitude":41.60524,"longitude":12.81091,"canPickup":true,"canDropoff":true,"openingstijden":"Lun-Sab: 08:00 - 13:00 - 16:30 - 20:00"}},{"type":"Feature","geometry":{"type":"Point","coordinates":[12.8339088,41.5487584]},"properties":{"type":"pakketpunt","locatieNaam":"CENTRAL 48","straatNaam":"Via Filippo Corridoni","straatNr":"48","vervoerder":"GLS","puntType":"parcel_shop","bezettingsgraad":50,"latitude":41.5487584,"longitude":12.8339088,"canPickup":true,"canDropoff":true,"openingstijden":"za: 06:30 - 21:30; zo: 08:00 - 20:00"}},{"type":"Feature","geometry":{"type":"Point","coordinates":[12.8297694,41.588369]},"properties":{"type":"pakketpunt","locatieNaam":"nodea multiservice","straatNaam":"Corso Della Repubblica","straatNr":"296","vervoerder":"GLS","puntType":"parcel_shop","bezettingsgraad":50,"latitude":41.588369,"longitude":12.8297694,"canPickup":true,"canDropoff":true,"openingstijden":"za: 08:30 - 13:00; ma: 08:30 - 13:00, 16:30 - 19:30"}},{"type":"Feature","geometry":{"type":"Point","coordinates":[12.8283296,41.5885636]},"properties":{"type":"pakketpunt","locatieNaam":"Energy4people e Noi Energia","straatNaam":"Piazza Caduti In Guerra","straatNr":"1","vervoerder":"GLS","puntType":"parcel_shop","bezettingsgraad":50,"latitude":41.5885636,"longitude":12.8283296,"canPickup":true,"canDropoff":true,"openingstijden":"ma: 08:30 - 13:00, 15:00 - 18:30; di: 08:30 - 13:00, 15:00 - 18:30"}},{"type":"Feature","geometry":{"type":"Point","coordinates":[12.8328913,41.5905362]},"properties":{"type":"pakketpunt","locatieNaam":"LA NUOVA POSTA","straatNaam":"Via Monti Lepini","straatNr":"39 BIS","vervoerder":"GLS","puntType":"parcel_shop","bezettingsgraad":50,"latitude":41.5905362,"longitude":12.8328913,"canPickup":true,"canDropoff":true,"openingstijden":"ma: 08:30 - 17:00; di: 08:30 - 17:00"}},{"type":"Feature","geometry":{"type":"Point","coordinates":[12.8296559,41.5911356]},"properties":{"type":"pakketpunt","locatieNaam":"POSTE PRIVATE IN PIAZZA","straatNaam":"Piazza Santi Pietro E Paolo","straatNr":"17","vervoerder":"GLS","puntType":"parcel_shop","bezettingsgraad":50,"latitude":41.5911356,"longitude":12.8296559,"canPickup":true,"canDropoff":true,"openingstijden":"ma: 07:00 - 19:00; di: 07:00 - 19:00"}},{"type":"Feature","geometry":{"type":"Point","coordinates":[12.832477,41.546729]},"properties":{"type":"pakketpunt","locatieNaam":"Ufficio Postale BORGO FLORA","straatNaam":"VIALE DEI BONIFICATORI SNC","straatNr":"","vervoerder":"DHL","puntType":"postOffice","bezettingsgraad":50,"latitude":41.546729,"longitude":12.832477,"canPickup":true,"canDropoff":true,"openingstijden":{"ma":"08:20 - 13:45","di":"08:20 - 13:45","wo":"08:20 - 13:45","do":"08:20 - 13:45","vr":"08:20 - 13:45","za":"08:20 - 12:45","zo":"gesloten"}}},{"type":"Feature","geometry":{"type":"Point","coordinates":[12.838924,41.567192]},"properties":{"type":"pakketpunt","locatieNaam":"TABACCHERIA N. 25","straatNaam":"VIA PROVINCIALE PER LATINA 84","straatNr":"","vervoerder":"DHL","puntType":"parcelShop","bezettingsgraad":50,"latitude":41.567192,"longitude":12.838924,"canPickup":true,"canDropoff":true,"openingstijden":{"ma":"06:00 - 21:00","di":"06:00 - 21:00","wo":"06:00 - 21:00","do":"06:00 - 21:00","vr":"06:00 - 21:00","za":"06:00 - 21:00","zo":"06:00 - 13:00"}}},{"type":"Feature","geometry":{"type":"Point","coordinates":[12.819565,41.574195]},"properties":{"type":"pakketpunt","locatieNaam":"STAZIONE DI Q8","straatNaam":"VIA NETTUNO 186","straatNr":"","vervoerder":"DHL","puntType":"packStation","bezettingsgraad":50,"latitude":41.574195,"longitude":12.819565,"canPickup":true,"canDropoff":true,"openingstijden":{"ma":"00:01 - 23:59","di":"00:01 - 23:59","wo":"00:01 - 23:59","do":"00:01 - 23:59","vr":"00:01 - 23:59","za":"00:01 - 23:59","zo":"00:01 - 23:59"}}},{"type":"Feature","geometry":{"type":"Point","coordinates":[12.830828,41.587001]},"properties":{"type":"pakketpunt","locatieNaam":"TABACCHERIA N. 30","straatNaam":"CORSO DELLA REPUBBLICA 447","straatNr":"","vervoerder":"DHL","puntType":"parcelShop","bezettingsgraad":50,"latitude":41.587001,"longitude":12.830828,"canPickup":true,"canDropoff":true,"openingstijden":{"ma":"08:00 - 13:00, 15:15 - 20:00","di":"08:00 - 13:00, 15:15 - 20:00","wo":"08:00 - 13:00, 15:15 - 20:00","do":"08:00 - 13:00, 15:15 - 20:00","vr":"08:00 - 13:00, 15:15 - 20:00","za":"08:00 - 13:00, 15:15 - 20:00","zo":"08:00 - 13:00"}}},{"type":"Feature","geometry":{"type":"Point","coordinates":[12.829241,41.587706]},"properties":{"type":"pakketpunt","locatieNaam":"PUNTO DIGITALE","straatNaam":"Eccidio di Marzabotto, 15","straatNr":"","vervoerder":"DHL","puntType":"parcelShop","bezettingsgraad":50,"latitude":41.587706,"longitude":12.829241,"canPickup":false,"canDropoff":true,"openingstijden":{"ma":"09:00 - 20:30","di":"09:00 - 20:30","wo":"09:00 - 20:30","do":"09:00 - 20:30","vr":"09:00 - 20:30","za":"09:00 - 20:30","zo":"16:00 - 20:30"}}},{"type":"Feature","geometry":{"type":"Point","coordinates":[12.829517,41.588987]},"properties":{"type":"pakketpunt","locatieNaam":"TABACCHERIA N. 3","straatNaam":"CORSO DELLA REPUBBLICA 268","straatNr":"","vervoerder":"DHL","puntType":"parcelShop","bezettingsgraad":50,"latitude":41.588987,"longitude":12.829517,"canPickup":true,"canDropoff":true,"openingstijden":{"ma":"08:00 - 13:00, 16:00 - 20:00","di":"08:00 - 13:00, 16:00 - 20:00","wo":"08:00 - 13:00, 16:00 - 20:00","do":"08:00 - 13:00, 16:00 - 20:00","vr":"08:00 - 13:00, 16:00 - 20:00","za":"08:00 - 13:00, 16:00 - 20:00","zo":"gesloten"}}},{"type":"Feature","geometry":{"type":"Point","coordinates":[12.830309,41.591081]},"properties":{"type":"pakketpunt","locatieNaam":"TABACCHERIA N. 2","straatNaam":"PIAZZA SANTI PIETRO E PAOLO 7","straatNr":"","vervoerder":"DHL","puntType":"parcelShop","bezettingsgraad":50,"latitude":41.591081,"longitude":12.830309,"canPickup":true,"canDropoff":true,"openingstijden":{"ma":"07:00 - 12:20, 16:00 - 20:00","di":"07:00 - 12:20, 16:00 - 20:00","wo":"07:00 - 12:20, 16:00 - 20:00","do":"07:00 - 12:20, 16:00 - 20:00","vr":"07:00 - 12:20, 16:00 - 20:00","za":"07:00 - 12:20, 16:00 - 20:00","zo":"gesloten"}}},{"type":"Feature","geometry":{"type":"Point","coordinates":[12.82973,41.591138]},"properties":{"type":"pakketpunt","locatieNaam":"L' AQUILONE CARTOLERIA","straatNaam":"Piazza  Ss Pietro E Paolo 17","straatNr":"","vervoerder":"DHL","puntType":"parcelShop","bezettingsgraad":50,"latitude":41.591138,"longitude":12.82973,"canPickup":false,"canDropoff":true,"openingstijden":{"ma":"07:00 - 19:30","di":"07:00 - 19:30","wo":"07:00 - 19:30","do":"07:00 - 19:30","vr":"07:00 - 19:30","za":"08:30 - 19:30","zo":"gesloten"}}},{"type":"Feature","geometry":{"type":"Point","coordinates":[12.832427,41.591391]},"properties":{"type":"pakketpunt","locatieNaam":"Ufficio Postale CISTERNA DI LATINA","straatNaam":"VIA DI PORTA AGRIPPINA SNC","straatNr":"","vervoerder":"DHL","puntType":"postOffice","bezettingsgraad":50,"latitude":41.591391,"longitude":12.832427,"canPickup":true,"canDropoff":true,"openingstijden":{"ma":"08:20 - 19:05","di":"08:20 - 19:05","wo":"08:20 - 19:05","do":"08:20 - 19:05","vr":"08:20 - 19:05","za":"08:20 - 12:35","zo":"gesloten"}}},{"type":"Feature","geometry":{"type":"Point","coordinates":[12.82512,41.591308]},"properties":{"type":"pakketpunt","locatieNaam":"TABACCHERIA N. 27","straatNaam":"VIA PRIMO MAGGIO 36","straatNr":"","vervoerder":"DHL","puntType":"parcelShop","bezettingsgraad":50,"latitude":41.591308,"longitude":12.82512,"canPickup":true,"canDropoff":true,"openingstijden":{"ma":"08:00 - 13:00, 16:00 - 20:00","di":"08:00 - 13:00, 16:00 - 20:00","wo":"08:00 - 13:00, 16:00 - 20:00","do":"08:00 - 13:00, 16:00 - 20:00","vr":"08:00 - 13:00, 16:00 - 20:00","za":"08:00 - 13:00, 16:00 - 20:00","zo":"gesloten"}}},{"type":"Feature","geometry":{"type":"Point","coordinates":[12.827222,41.592816]},"properties":{"type":"pakketpunt","locatieNaam":"TABACCHERIA N. 17","straatNaam":"CORSO DELLA REPUBBLICA 124","straatNr":"","vervoerder":"DHL","puntType":"parcelShop","bezettingsgraad":50,"latitude":41.592816,"longitude":12.827222,"canPickup":true,"canDropoff":true,"openingstijden":{"ma":"08:30 - 13:00, 16:00 - 20:00","di":"08:30 - 13:00, 16:00 - 20:00","wo":"08:30 - 13:00, 16:00 - 20:00","do":"08:30 - 13:00, 16:00 - 20:00","vr":"08:30 - 13:00, 16:00 - 20:00","za":"08:30 - 13:00, 16:00 - 20:00","zo":"gesloten"}}},{"type":"Feature","geometry":{"type":"Point","coordinates":[12.824621,41.594394]},"properties":{"type":"pakketpunt","locatieNaam":"ONLY VAPE DI EDOARDO GARCIA","straatNaam":"Via Benedetto Croce Snc","straatNr":"","vervoerder":"DHL","puntType":"parcelShop","bezettingsgraad":50,"latitude":41.594394,"longitude":12.824621,"canPickup":false,"canDropoff":true,"openingstijden":{"ma":"09:00 - 19:30","di":"09:00 - 19:30","wo":"09:00 - 19:30","do":"09:00 - 19:30","vr":"09:00 - 19:30","za":"09:00 - 19:30","zo":"gesloten"}}},{"type":"Feature","geometry":{"type":"Point","coordinates":[12.829688,41.600189]},"properties":{"type":"pakketpunt","locatieNaam":"BAR - VICTORIA","straatNaam":"VIA DANTE ALIGHIERI 41","straatNr":"","vervoerder":"DHL","puntType":"packStation","bezettingsgraad":50,"latitude":41.600189,"longitude":12.829688,"canPickup":true,"canDropoff":true,"openingstijden":{"ma":"06:00 - 20:00","di":"06:00 - 20:00","wo":"06:00 - 20:00","do":"06:00 - 20:00","vr":"06:00 - 20:00","za":"06:00 - 20:00","zo":"06:00 - 20:00"}}},{"type":"Feature","geometry":{"type":"Point","coordinates":[12.829688,41.600189]},"properties":{"type":"pakketpunt","locatieNaam":"TABACCHERIA N. 36","straatNaam":"VIA DANTE ALIGHIERI 41","straatNr":"","vervoerder":"DHL","puntType":"parcelShop","bezettingsgraad":50,"latitude":41.600189,"longitude":12.829688,"canPickup":true,"canDropoff":true,"openingstijden":{"ma":"06:00 - 21:00","di":"06:00 - 21:00","wo":"06:00 - 21:00","do":"06:00 - 21:00","vr":"06:00 - 21:00","za":"06:00 - 21:00","zo":"06:00 - 21:00"}}},{"type":"Feature","geometry":{"type":"Point","coordinates":[12.896134,41.572892]},"properties":{"type":"pakketpunt","locatieNaam":"TABACCHERIA N. 12","straatNaam":"VIA NINFINA 21","straatNr":"","vervoerder":"DHL","puntType":"parcelShop","bezettingsgraad":50,"latitude":41.572892,"longitude":12.896134,"canPickup":true,"canDropoff":true,"openingstijden":{"ma":"06:30 - 13:00, 16:30 - 19:30","di":"06:30 - 13:00, 16:30 - 19:30","wo":"06:30 - 13:00, 16:30 - 19:30","do":"06:30 - 13:00, 16:30 - 19:30","vr":"06:30 - 13:00, 16:30 - 19:30","za":"06:30 - 13:00, 16:30 - 19:30","zo":"gesloten"}}},{"type":"Feature","geometry":{"type":"Point","coordinates":[12.844022,41.601066]},"properties":{"type":"pakketpunt","locatieNaam":"TABACCHERIA N. 33","straatNaam":"VIA ALDO MORO 15","straatNr":"","vervoerder":"DHL","puntType":"parcelShop","bezettingsgraad":50,"latitude":41.601066,"longitude":12.844022,"canPickup":true,"canDropoff":true,"openingstijden":{"ma":"07:00 - 13:00, 16:00 - 19:30","di":"07:00 - 13:00, 16:00 - 19:30","wo":"07:00 - 13:00, 16:00 - 19:30","do":"07:00 - 13:00, 16:00 - 19:30","vr":"07:00 - 13:00, 16:00 - 19:30","za":"07:00 - 13:00, 16:00 - 19:30","zo":"gesloten"}}},{"type":"Feature","geometry":{"type":"Point","coordinates":[12.811318,41.605661]},"properties":{"type":"pakketpunt","locatieNaam":"TABACCHERIA N. 34","straatNaam":"VIA COLLINA DEI PINI 12","straatNr":"","vervoerder":"DHL","puntType":"parcelShop","bezettingsgraad":50,"latitude":41.605661,"longitude":12.811318,"canPickup":true,"canDropoff":true,"openingstijden":{"ma":"08:00 - 13:00, 16:30 - 20:00","di":"08:00 - 13:00, 16:30 - 20:00","wo":"08:00 - 13:00, 16:30 - 20:00","do":"08:00 - 13:00, 16:30 - 20:00","vr":"08:00 - 13:00, 16:30 - 20:00","za":"08:00 - 13:00, 16:30 - 20:00","zo":"gesloten"}}},{"type":"Feature","geometry":{"type":"Point","coordinates":[12.804726,41.61377]},"properties":{"type":"pakketpunt","locatieNaam":"Ufficio Postale LE CASTELLA","straatNaam":"VIA APPIA NORD KM 49,500","straatNr":"","vervoerder":"DHL","puntType":"postOffice","bezettingsgraad":50,"latitude":41.61377,"longitude":12.804726,"canPickup":true,"canDropoff":true,"openingstijden":{"ma":"08:20 - 13:45","di":"08:20 - 13:45","wo":"08:20 - 13:45","do":"08:20 - 13:45","vr":"08:20 - 13:45","za":"08:20 - 12:45","zo":"gesloten"}}},{"type":"Feature","geometry":{"type":"Point","coordinates":[12.808844,41.608917]},"properties":{"type":"pakketpunt","locatieNaam":"Amazon Locker - amante","straatNaam":"Eurospin Cisterna","straatNr":"","vervoerder":"Amazon","puntType":"locker","bezettingsgraad":50,"latitude":41.608917,"longitude":12.808844,"canPickup":true,"canDropoff":false,"openingstijden":null}},{"type":"Feature","geometry":{"type":"Point","coordinates":[12.84717,41.6015667]},"properties":{"type":"pakketpunt","locatieNaam":"Amazon Locker - girolama","straatNaam":"ENI Station pv.26683","straatNr":"","vervoerder":"Amazon","puntType":"locker","bezettingsgraad":50,"latitude":41.6015667,"longitude":12.84717,"canPickup":true,"canDropoff":false,"openingstijden":null}},{"type":"Feature","geometry":{"type":"Point","coordinates":[12.9209681153442,41.5878901490189]},"properties":{"type":"pakketpunt","locatieNaam":"Amazon Counter (fermopoint)","straatNaam":"Bar della Fortuna","straatNr":"","vervoerder":"Amazon","puntType":"helix","bezettingsgraad":50,"latitude":41.5878901490189,"longitude":12.9209681153442,"canPickup":true,"canDropoff":false,"openingstijden":null}},{"type":"Feature","geometry":{"type":"Point","coordinates":[12.823367,41.5963796]},"properties":{"type":"pakketpunt","locatieNaam":"Amazon Locker - gisa","straatNaam":"ENI Station pv.54019","straatNr":"","vervoerder":"Amazon","puntType":"locker","bezettingsgraad":50,"latitude":41.5963796,"longitude":12.823367,"canPickup":true,"canDropoff":false,"openingstijden":null}},{"type":"Feature","geometry":{"type":"Point","coordinates":[12.829426,41.577477]},"properties":{"type":"pakketpunt","locatieNaam":"Amazon Locker - unico","straatNaam":"Distributore di benzina Free Cisterna di Latina","straatNr":"","vervoerder":"Amazon","puntType":"locker","bezettingsgraad":50,"latitude":41.577477,"longitude":12.829426,"canPickup":true,"canDropoff":false,"openingstijden":null}},{"type":"Feature","geometry":{"type":"Point","coordinates":[12.8604493,41.6018199]},"properties":{"type":"pakketpunt","locatieNaam":"Amazon Counter - LE CASTELLET","straatNaam":"VIA TIVERA Snc","straatNr":"","vervoerder":"Amazon","puntType":"helix","bezettingsgraad":50,"latitude":41.6018199,"longitude":12.8604493,"canPickup":true,"canDropoff":false,"openingstijden":null}},{"type":"Feature","geometry":{"type":"Point","coordinates":[12.8961,41.5728]},"properties":{"type":"pakketpunt","locatieNaam":"PuntoPoste TABACCHERIA N. 12","straatNaam":"VIA NINFINA 21","straatNr":"","vervoerder":"Amazon","puntType":"3p","bezettingsgraad":50,"latitude":41.5728,"longitude":12.8961,"canPickup":true,"canDropoff":false,"openingstijden":null}},{"type":"Feature","geometry":{"type":"Point","coordinates":[12.8296,41.5911]},"properties":{"type":"pakketpunt","locatieNaam":"Amazon Counter - CENTRO SERVIZI CELERI","straatNaam":"PIAZZA SANTI PIETRO E PAOLO 17","straatNr":"","vervoerder":"Amazon","puntType":"helix","bezettingsgraad":50,"latitude":41.5911,"longitude":12.8296,"canPickup":true,"canDropoff":false,"openingstijden":null}},{"type":"Feature","geometry":{"type":"Point","coordinates":[12.842975,41.602807]},"properties":{"type":"pakketpunt","locatieNaam":"Amazon Counter - Bar Venezia","straatNaam":"Via Ugo la Malfa, 6","straatNr":"","vervoerder":"Amazon","puntType":"helix","bezettingsgraad":50,"latitude":41.602807,"longitude":12.842975,"canPickup":true,"canDropoff":false,"openingstijden":null}},{"type":"Feature","geometry":{"type":"Point","coordinates":[12.833499,41.592554]},"properties":{"type":"pakketpunt","locatieNaam":"Amazon Counter - Abagnale Centro Colori","straatNaam":"Via Carlo Rosselli, 2","straatNr":"","vervoerder":"Amazon","puntType":"helix","bezettingsgraad":50,"latitude":41.592554,"longitude":12.833499,"canPickup":true,"canDropoff":false,"openingstijden":null}},{"type":"Feature","geometry":{"type":"Point","coordinates":[12.83044,41.587483]},"properties":{"type":"pakketpunt","locatieNaam":"Amazon Counter - BAR DEL CORSO","straatNaam":"CORSO DELLA REPUBBLICA 334","straatNr":"","vervoerder":"Amazon","puntType":"helix","bezettingsgraad":50,"latitude":41.587483,"longitude":12.83044,"canPickup":true,"canDropoff":false,"openingstijden":null}},{"type":"Feature","geometry":{"type":"Point","coordinates":[12.828303,41.58863]},"properties":{"type":"pakketpunt","locatieNaam":"Amazon Counter - Energy4people","straatNaam":"Piazza dei Caduti in Guerra, 1","straatNr":"","vervoerder":"Amazon","puntType":"helix","bezettingsgraad":50,"latitude":41.58863,"longitude":12.828303,"canPickup":true,"canDropoff":false,"openingstijden":null}},{"type":"Feature","geometry":{"type":"Point","coordinates":[12.828041,41.581063]},"properties":{"type":"pakketpunt","locatieNaam":"Amazon Counter - JESSICA BAR","straatNaam":"VIA LIVORNO 1","straatNr":"","vervoerder":"Amazon","puntType":"helix","bezettingsgraad":50,"latitude":41.581063,"longitude":12.828041,"canPickup":true,"canDropoff":false,"openingstijden":null}},{"type":"Feature","geometry":{"type":"Point","coordinates":[12.83002,41.58806]},"properties":{"type":"pakketpunt","locatieNaam":"Amazon Counter - Tuttocasa","straatNaam":"Corso della Repubblica, 308-310","straatNr":"","vervoerder":"Amazon","puntType":"helix","bezettingsgraad":50,"latitude":41.58806,"longitude":12.83002,"canPickup":true,"canDropoff":false,"openingstijden":null}},{"type":"Feature","geometry":{"type":"Point","coordinates":[12.8295,41.5889]},"properties":{"type":"pakketpunt","locatieNaam":"PuntoPoste TABACCHERIA N. 3","straatNaam":"CORSO DELLA REPUBBLICA 268","straatNr":"","vervoerder":"Amazon","puntType":"3p","bezettingsgraad":50,"latitude":41.5889,"longitude":12.8295,"canPickup":true,"canDropoff":false,"openingstijden":null}},{"type":"Feature","geometry":{"type":"Point","coordinates":[12.8294178,41.5891083]},"properties":{"type":"pakketpunt","locatieNaam":"Amazon Counter (fermopoint)","straatNaam":"Giordani-Buffetti","straatNr":"","vervoerder":"Amazon","puntType":"helix","bezettingsgraad":50,"latitude":41.5891083,"longitude":12.8294178,"canPickup":true,"canDropoff":false,"openingstijden":null}},{"type":"Feature","geometry":{"type":"Point","coordinates":[12.8328954,41.590507]},"properties":{"type":"pakketpunt","locatieNaam":"Amazon Counter - La Nuova Posta","straatNaam":"Via Monti Lepini 39","straatNr":"","vervoerder":"Amazon","puntType":"helix","bezettingsgraad":50,"latitude":41.590507,"longitude":12.8328954,"canPickup":true,"canDropoff":false,"openingstijden":null}},{"type":"Feature","geometry":{"type":"Point","coordinates":[12.8329464,41.5904653]},"properties":{"type":"pakketpunt","locatieNaam":"Amazon Counter","straatNaam":"La Nuova Posta-Cisterna (fermopoint)","straatNr":"","vervoerder":"Amazon","puntType":"helix","bezettingsgraad":50,"latitude":41.5904653,"longitude":12.8329464,"canPickup":true,"canDropoff":false,"openingstijden":null}},{"type":"Feature","geometry":{"type":"Point","coordinates":[12.82568,41.59085]},"properties":{"type":"pakketpunt","locatieNaam":"Amazon Counter - PRIMAEDICOLA","straatNaam":"DI VIA PO DI DI GIULI","straatNr":"","vervoerder":"Amazon","puntType":"helix","bezettingsgraad":50,"latitude":41.59085,"longitude":12.82568,"canPickup":true,"canDropoff":false,"openingstijden":null}},{"type":"Feature","geometry":{"type":"Point","coordinates":[12.8272,41.5928]},"properties":{"type":"pakketpunt","locatieNaam":"PuntoPoste TABACCHERIA N. 17","straatNaam":"CORSO DELLA REPUBBLICA 124","straatNr":"","vervoerder":"Amazon","puntType":"3p","bezettingsgraad":50,"latitude":41.5928,"longitude":12.8272,"canPickup":true,"canDropoff":false,"openingstijden":null}},{"type":"Feature","geometry":{"type":"Point","coordinates":[12.812111,41.606025]},"properties":{"type":"pakketpunt","locatieNaam":"Amazon Counter","straatNaam":"Tabacchi di Giovangrossi G. (fermopoint)","straatNr":"","vervoerder":"Amazon","puntType":"helix","bezettingsgraad":50,"latitude":41.606025,"longitude":12.812111,"canPickup":true,"canDropoff":false,"openingstijden":null}},{"type":"Feature","geometry":{"type":"Point","coordinates":[12.8034910554504,41.6152990587233]},"properties":{"type":"pakketpunt","locatieNaam":"Amazon Counter (fermopoint)","straatNaam":"Agribast","straatNr":"","vervoerder":"Amazon","puntType":"helix","bezettingsgraad":50,"latitude":41.6152990587233,"longitude":12.8034910554504,"canPickup":true,"canDropoff":false,"openingstijden":null}},{"type":"Feature","geometry":{"type":"Point","coordinates":[12.8047,41.6137]},"properties":{"type":"pakketpunt","locatieNaam":"Ufficio Postale LE CASTELLA","straatNaam":"VIA APPIA NORD KM 49,500","straatNr":"","vervoerder":"Amazon","puntType":"3p","bezettingsgraad":50,"latitude":41.6137,"longitude":12.8047,"canPickup":true,"canDropoff":false,"openingstijden":null}},{"type":"Feature","geometry":{"type":"Point","coordinates":[12.833910911656762,41.54876121101385]},"properties":{"type":"pakketpunt","locatieNaam":"FedEx OnSite","straatNaam":"Via Filippo Corridoni, 48","straatNr":"","vervoerder":"FedEx","puntType":"servicepunt","bezettingsgraad":50,"latitude":41.54876121101385,"longitude":12.833910911656762,"canPickup":true,"canDropoff":true,"openingstijden":{"ma":"06:30 - 21:30","di":"06:30 - 21:30","wo":"06:30 - 21:30","do":"06:30 - 21:30","vr":"06:30 - 21:30","za":"06:30 - 21:30","zo":"08:00 - 20:00"}}},{"type":"Feature","geometry":{"type":"Point","coordinates":[12.829769,41.588369]},"properties":{"type":"pakketpunt","locatieNaam":"FedEx OnSite","straatNaam":"corso della repubblica, 296","straatNr":"","vervoerder":"FedEx","puntType":"servicepunt","bezettingsgraad":50,"latitude":41.588369,"longitude":12.829769,"canPickup":true,"canDropoff":true,"openingstijden":{"ma":"08:30 - 13:00, 16:30 - 19:30","di":"08:30 - 13:00, 16:30 - 19:30","wo":"08:30 - 13:00, 16:30 - 19:30","do":"08:30 - 13:00, 16:30 - 19:30","vr":"08:30 - 13:00, 16:30 - 20:00","za":"08:30 - 13:00","zo":"gesloten"}}},{"type":"Feature","geometry":{"type":"Point","coordinates":[12.829373023954078,41.58908073221135]},"properties":{"type":"pakketpunt","locatieNaam":"FedEx OnSite","straatNaam":"CORSO DELLA REPUBBLICA 266","straatNr":"","vervoerder":"FedEx","puntType":"servicepunt","bezettingsgraad":50,"latitude":41.58908073221135,"longitude":12.829373023954078,"canPickup":true,"canDropoff":true,"openingstijden":{"ma":"08:30 - 13:00, 16:00 - 19:30","di":"08:30 - 13:00, 16:00 - 19:30","wo":"08:30 - 13:00, 16:00 - 19:30","do":"08:30 - 13:00, 16:00 - 19:30","vr":"08:30 - 13:00, 16:00 - 19:30","za":"09:00 - 13:00","zo":"gesloten"}}},{"type":"Feature","geometry":{"type":"Point","coordinates":[12.829652617688408,41.59111677052712]},"properties":{"type":"pakketpunt","locatieNaam":"FedEx OnSite","straatNaam":"Piazza Santi Pietro e Paolo, 17","straatNr":"","vervoerder":"FedEx","puntType":"servicepunt","bezettingsgraad":50,"latitude":41.59111677052712,"longitude":12.829652617688408,"canPickup":true,"canDropoff":true,"openingstijden":{"ma":"07:00 - 19:00","di":"07:00 - 19:00","wo":"07:00 - 19:00","do":"07:00 - 19:00","vr":"07:00 - 19:00","za":"gesloten","zo":"gesloten"}}},{"type":"Feature","geometry":{"type":"Point","coordinates":[12.829708312966472,41.59111155710387]},"properties":{"type":"pakketpunt","locatieNaam":"FedEx OnSite","straatNaam":"PIAZZA SANTI PIETRO E PAOLO 17","straatNr":"","vervoerder":"FedEx","puntType":"servicepunt","bezettingsgraad":50,"latitude":41.59111155710387,"longitude":12.829708312966472,"canPickup":true,"canDropoff":true,"openingstijden":{"ma":"07:00 - 19:00","di":"07:00 - 19:00","wo":"07:00 - 19:00","do":"07:00 - 19:00","vr":"07:00 - 19:00","za":"08:30 - 13:00, 16:00 - 19:30","zo":"gesloten"}}},{"type":"Feature","geometry":{"type":"Point","coordinates":[12.832840541509167,41.59049209229898]},"properties":{"type":"pakketpunt","locatieNaam":"FedEx OnSite","straatNaam":"VIA MONTI LEPINI, 39 BIS","straatNr":"","vervoerder":"FedEx","puntType":"servicepunt","bezettingsgraad":50,"latitude":41.59049209229898,"longitude":12.832840541509167,"canPickup":true,"canDropoff":true,"openingstijden":{"ma":"08:30 - 17:00","di":"08:30 - 17:00","wo":"08:30 - 17:00","do":"08:30 - 17:00","vr":"08:30 - 17:00","za":"gesloten","zo":"gesloten"}}},{"type":"Feature","geometry":{"type":"Polygon","coordinates":[[[12.7558542,41.5727358],[12.7570355,41.5736156],[12.7584477,41.5754514],[12.7588293,41.5758396],[12.7610288,41.577447],[12.7621341,41.5784239],[12.7626202,41.5789843],[12.7631437,41.5793903],[12.7635936,41.5799204],[12.7638067,41.5807373],[12.7642051,41.5813366],[12.7642918,41.5819506],[12.7646106,41.5824444],[12.7654644,41.583425],[12.7662418,41.583476],[12.7670668,41.5840388],[12.7671194,41.584825],[12.7672934,41.5853416],[12.7675089,41.5857352],[12.7684098,41.5867232],[12.7687168,41.5871814],[12.7687976,41.5897136],[12.7690439,41.5905835],[12.7694534,41.593339],[12.7697524,41.5940451],[12.7711995,41.5962983],[12.7723629,41.5973362],[12.773855,41.5978905],[12.775593,41.5983016],[12.7759881,41.5987253],[12.776395,41.5994143],[12.7769822,41.6001739],[12.7774716,41.6005811],[12.7783312,41.6017414],[12.7785222,41.6021494],[12.7784259,41.6024902],[12.7785719,41.6027555],[12.7784529,41.6030927],[12.7784716,41.6036188],[12.778735,41.6039568],[12.7795913,41.604559],[12.7797753,41.6051292],[12.7798441,41.6059329],[12.7809187,41.6081668],[12.781197,41.6084502],[12.7816605,41.6085791],[12.7820762,41.6090831],[12.7815331,41.6105553],[12.7815519,41.6110815],[12.7816576,41.6114787],[12.7819169,41.611988],[12.7818346,41.6122743],[12.7812248,41.6132714],[12.7818194,41.6141028],[12.7819784,41.6147189],[12.7823876,41.6153808],[12.7825022,41.6162235],[12.7820715,41.6172597],[12.7823807,41.6187623],[12.7848961,41.6185038],[12.7873608,41.6184045],[12.7875227,41.6182371],[12.7881327,41.6179333],[12.7890569,41.6175651],[12.790829,41.6173851],[12.791662,41.6175602],[12.7914491,41.6185577],[12.7916275,41.6200016],[12.791596,41.6216505],[12.7920749,41.6223596],[12.7934231,41.6237524],[12.7939643,41.6236119],[12.7943089,41.6233754],[12.7955874,41.6228333],[12.7965177,41.6222758],[12.7979202,41.6216351],[12.8008439,41.6214573],[12.8019099,41.621512],[12.8032751,41.6212597],[12.8042213,41.6209357],[12.8046658,41.6209434],[12.8071004,41.6206376],[12.809134,41.6201199],[12.809784,41.6201163],[12.8104839,41.620003],[12.8107139,41.6202656],[12.810217,41.621151],[12.810061,41.6228941],[12.8093432,41.6252862],[12.809239,41.6262532],[12.8099026,41.6275729],[12.8103966,41.6289162],[12.810594,41.6298462],[12.8106527,41.6305871],[12.8103935,41.6315097],[12.8098463,41.6324193],[12.8098424,41.6339683],[12.8090497,41.6360972],[12.8088297,41.6376218],[12.8093803,41.6387517],[12.8099005,41.6389865],[12.8109931,41.6389773],[12.8153549,41.6381255],[12.8159294,41.63821],[12.8164173,41.6386845],[12.8167013,41.6388191],[12.8175619,41.6389346],[12.8195585,41.6388367],[12.8200078,41.6390243],[12.8197976,41.6399228],[12.8228918,41.6403826],[12.8237124,41.6406074],[12.8247422,41.6410593],[12.825195,41.641508],[12.8255294,41.6426314],[12.825466,41.6434485],[12.8250665,41.643912],[12.8229908,41.6452869],[12.8225386,41.6458737],[12.8212088,41.6472147],[12.8200173,41.6480018],[12.8193579,41.6486766],[12.8186839,41.6501578],[12.8188488,41.6506115],[12.8191042,41.6508687],[12.8207825,41.6520059],[12.8215891,41.6523213],[12.8222665,41.652875],[12.8225412,41.654005],[12.8226456,41.6548164],[12.8228114,41.6552341],[12.8231242,41.6555749],[12.8256622,41.6572328],[12.8263712,41.657952],[12.8271173,41.6584359],[12.8279833,41.6585736],[12.8291347,41.6589944],[12.8301617,41.6587981],[12.8309267,41.6574759],[12.8316537,41.6565736],[12.8337943,41.6546967],[12.8347485,41.6527333],[12.8349227,41.6522052],[12.8371374,41.6534594],[12.8382739,41.6539707],[12.8387812,41.6545885],[12.8389583,41.6553975],[12.839245,41.6561669],[12.8402976,41.6566539],[12.8407133,41.6571578],[12.8400019,41.6593788],[12.8398124,41.661114],[12.8398736,41.6625077],[12.839751,41.6647816],[12.8408913,41.6654722],[12.8421295,41.6657955],[12.8433095,41.6656974],[12.8455905,41.6657606],[12.8467832,41.6656486],[12.8484729,41.6657405],[12.8505759,41.6660797],[12.8509207,41.6661852],[12.851259,41.6664214],[12.8514427,41.6656634],[12.8518393,41.6649387],[12.8531602,41.6649394],[12.8563613,41.6651155],[12.8576413,41.6652841],[12.8580893,41.6648053],[12.8580071,41.6640202],[12.8580523,41.6630191],[12.8578491,41.6622695],[12.8580871,41.6616177],[12.8580169,41.6608321],[12.857065,41.6573118],[12.8574248,41.6565883],[12.8611287,41.6553427],[12.8613735,41.6544925],[12.8611954,41.6536971],[12.8606208,41.6525593],[12.8601501,41.6518908],[12.8598148,41.6511276],[12.8592229,41.650175],[12.8587165,41.6491475],[12.8582979,41.6469149],[12.8583083,41.64587],[12.8577012,41.6442741],[12.8572514,41.6422451],[12.8572148,41.6415439],[12.8601067,41.6419645],[12.8616802,41.6419431],[12.8628913,41.6416322],[12.8633657,41.6410714],[12.8630274,41.6404075],[12.862931,41.6393346],[12.8635094,41.6381941],[12.8639078,41.6370281],[12.8632715,41.6348298],[12.8632328,41.6338451],[12.8628474,41.6327685],[12.8627457,41.6315067],[12.8629256,41.6286192],[12.8627908,41.6276062],[12.8627802,41.6264629],[12.8643531,41.6242669],[12.8648066,41.6232475],[12.864886,41.6223039],[12.864715,41.6213011],[12.864228,41.6207952],[12.8629269,41.6209246],[12.8612463,41.6209406],[12.8587066,41.6204227],[12.858233,41.6213346],[12.8580404,41.6224306],[12.8577586,41.6233136],[12.8569998,41.6241225],[12.8565092,41.6247873],[12.855588,41.6254261],[12.8535587,41.6262011],[12.8515493,41.6267053],[12.8495116,41.6269627],[12.8474432,41.6277329],[12.8475703,41.6268612],[12.8484921,41.6258263],[12.8500118,41.6249469],[12.853112,41.6237533],[12.8555475,41.6223208],[12.8567242,41.6212142],[12.8577832,41.6200575],[12.85848,41.6185753],[12.8597461,41.6162275],[12.8599857,41.6151164],[12.8602733,41.6115183],[12.8604671,41.610017],[12.8607507,41.6087378],[12.8610153,41.606149],[12.8618282,41.6051447],[12.8630466,41.6042032],[12.8642237,41.6038484],[12.865698,41.6031729],[12.8667991,41.6025145],[12.868799,41.602267],[12.8700269,41.6017484],[12.8707766,41.6009082],[12.8712223,41.6001233],[12.8720674,41.5991988],[12.8752211,41.5989258],[12.8777922,41.5991541],[12.8790703,41.5989623],[12.8813891,41.5978079],[12.8822827,41.5976066],[12.882864,41.5992843],[12.8857432,41.5996596],[12.8891665,41.5995077],[12.8893519,41.5990242],[12.8892826,41.5981846],[12.8899715,41.5972968],[12.8906888,41.5966331],[12.8929235,41.5961792],[12.8940255,41.5958671],[12.8956765,41.5956445],[12.8971422,41.5955813],[12.8994188,41.5956885],[12.9017219,41.5960605],[12.9043226,41.5965169],[12.9069522,41.5971928],[12.9120191,41.5996992],[12.9132909,41.6004077],[12.9151469,41.6016636],[12.9164202,41.6023721],[12.9175134,41.6026814],[12.9195365,41.6024728],[12.9206778,41.602821],[12.9233332,41.6045807],[12.9248775,41.6054645],[12.9263559,41.6061388],[12.9272211,41.6064333],[12.9275319,41.6064632],[12.9275271,41.6055089],[12.9279883,41.6046197],[12.9285707,41.6036542],[12.9299743,41.6020699],[12.9313727,41.6012222],[12.9328589,41.6004564],[12.9357415,41.5981634],[12.936787,41.5969749],[12.9390667,41.5951003],[12.9402978,41.5936983],[12.9416315,41.5925404],[12.9424284,41.5916306],[12.9463447,41.5876832],[12.9474567,41.5862891],[12.9491928,41.5848517],[12.95096,41.5832511],[12.9521114,41.5832024],[12.954141,41.5835783],[12.9553502,41.5836177],[12.9565593,41.5832174],[12.9571502,41.5827092],[12.957404,41.5819981],[12.9574072,41.5813091],[12.9568793,41.5803683],[12.9567334,41.5789506],[12.9564653,41.57828],[12.9567311,41.5764113],[12.9561298,41.5762114],[12.9561096,41.5760771],[12.9564017,41.5752656],[12.9564691,41.5747725],[12.9564277,41.5744768],[12.956704,41.5741161],[12.9567545,41.5735696],[12.956395,41.5730957],[12.9564494,41.5726616],[12.9562299,41.572282],[12.9557692,41.5719422],[12.9552618,41.5718066],[12.9550523,41.5716652],[12.954492,41.5710812],[12.9527765,41.5720729],[12.9521125,41.5723563],[12.9512281,41.5725038],[12.9489788,41.5734096],[12.9412956,41.577857],[12.9387152,41.578083],[12.9381796,41.5780099],[12.9363079,41.5773701],[12.9338988,41.57612],[12.9265484,41.572748],[12.9259211,41.5727046],[12.925606,41.5725949],[12.9212612,41.5670839],[12.9197988,41.5659407],[12.9189385,41.5654568],[12.9125431,41.561087],[12.9113613,41.5594479],[12.9129173,41.5584134],[12.9139922,41.5581606],[12.9149114,41.5575485],[12.9156817,41.5574637],[12.91593,41.5573128],[12.9166501,41.5565867],[12.9174717,41.5562369],[12.917577,41.5559012],[12.9185701,41.5556407],[12.9196024,41.5552183],[12.9200333,41.5552441],[12.9206218,41.5551127],[12.9208603,41.5548923],[12.9204988,41.5542061],[12.9205178,41.5539797],[12.9209314,41.5537907],[12.921892,41.5537669],[12.9221861,41.5535629],[12.9222563,41.5532501],[12.921206,41.5515931],[12.9209169,41.5512608],[12.9207888,41.5508317],[12.9218997,41.5506926],[12.9221066,41.5504188],[12.9221188,41.5500762],[12.9223465,41.5496513],[12.9227876,41.5493595],[12.9224246,41.548742],[12.9223071,41.547803],[12.8888853,41.5617359],[12.887884,41.5607238],[12.8872295,41.5597717],[12.8869088,41.5591411],[12.8860852,41.5562693],[12.8854161,41.5553876],[12.8812153,41.5521884],[12.8786209,41.5504511],[12.8780184,41.5501129],[12.8752572,41.5493598],[12.8735146,41.5484389],[12.8653683,41.5421516],[12.8644784,41.5412242],[12.8636165,41.5400232],[12.8574256,41.5278874],[12.8569188,41.5271621],[12.8559727,41.5262664],[12.8389086,41.5131761],[12.8377309,41.5118269],[12.8372097,41.5107878],[12.8373833,41.5099188],[12.8365959,41.5076443],[12.8348065,41.5009549],[12.8345643,41.5003012],[12.8344172,41.4989644],[12.8337162,41.4959171],[12.8328731,41.4928205],[12.8326913,41.4878649],[12.8330165,41.4863862],[12.8346507,41.4833375],[12.8363068,41.4807113],[12.8366893,41.4792938],[12.8362795,41.4779432],[12.8356655,41.4769237],[12.8351194,41.4757353],[12.8347818,41.47472],[12.8341255,41.4743006],[12.8325008,41.4745395],[12.8284201,41.4758597],[12.8271192,41.4760967],[12.8218248,41.4764801],[12.8213662,41.4762297],[12.8208909,41.4757818],[12.8204774,41.4755839],[12.8201761,41.4760081],[12.8198975,41.4768323],[12.8198753,41.4771303],[12.8199966,41.4774369],[12.8199531,41.4780327],[12.8197554,41.4789217],[12.8195359,41.4794018],[12.8189149,41.4800663],[12.8176239,41.4810592],[12.8167011,41.4814276],[12.8160005,41.4816039],[12.8152173,41.4817515],[12.8137342,41.4816792],[12.8122533,41.481913],[12.8088333,41.4828099],[12.8057434,41.4828042],[12.8026739,41.4829284],[12.8021843,41.4832328],[12.7994892,41.486073],[12.7995409,41.4870078],[12.7994803,41.4881084],[12.7991774,41.4888929],[12.7971194,41.4920361],[12.7969808,41.4931978],[12.7976837,41.4951692],[12.7973865,41.4957958],[12.7974538,41.4962934],[12.7973668,41.496751],[12.7970844,41.4970809],[12.7964414,41.4975425],[12.7959648,41.4981616],[12.7954711,41.4993081],[12.794997,41.499855],[12.7950226,41.5001648],[12.7947944,41.5008703],[12.794025,41.5020258],[12.7925895,41.5037121],[12.7909249,41.5047576],[12.7902675,41.5054232],[12.7905991,41.5058715],[12.7909018,41.505785],[12.7919531,41.5058763],[12.7922588,41.5060463],[12.793689,41.5062692],[12.7940368,41.5066089],[12.7942022,41.5070177],[12.793849,41.508263],[12.7938603,41.5086229],[12.7939706,41.5089074],[12.7937908,41.5092645],[12.7938158,41.5099481],[12.7936961,41.5110011],[12.7941544,41.5116028],[12.7948466,41.5120572],[12.7953345,41.5125003],[12.7957109,41.512713],[12.795976,41.5126637],[12.7964602,41.5128638],[12.7969013,41.513286],[12.7981636,41.5142303],[12.7985566,41.5150097],[12.7987144,41.5163732],[12.7990816,41.5168384],[12.7988043,41.5179596],[12.7991748,41.5186858],[12.7997825,41.5191519],[12.8003717,41.5197898],[12.8004093,41.5200992],[12.8001086,41.5204874],[12.7996405,41.5208586],[12.7995488,41.5210822],[12.7996587,41.5224338],[12.7995528,41.522748],[12.7992237,41.5225518],[12.7986153,41.5224684],[12.7982133,41.523022],[12.7973433,41.5232173],[12.7966825,41.5236219],[12.79621,41.5237636],[12.7937421,41.5237461],[12.7931031,41.5242174],[12.7916975,41.5250112],[12.7904756,41.5264023],[12.7902901,41.5272909],[12.7898694,41.5280117],[12.7892547,41.5281175],[12.7893661,41.5283705],[12.7893911,41.5287209],[12.7891421,41.5289722],[12.7887715,41.5296283],[12.7890726,41.5299606],[12.788973,41.5304096],[12.7892447,41.5305222],[12.7889079,41.5309115],[12.7880376,41.5311293],[12.7882887,41.5315037],[12.7880179,41.5317153],[12.7876779,41.5318436],[12.7875371,41.5321003],[12.7870451,41.5324497],[12.7872055,41.5326696],[12.7875602,41.532829],[12.7873817,41.533159],[12.7867697,41.5335169],[12.7862321,41.534174],[12.785815,41.5351378],[12.7848119,41.5360848],[12.7843713,41.5363515],[12.7841862,41.5368889],[12.7835599,41.5376704],[12.7837053,41.5379538],[12.7835226,41.5383921],[12.7823113,41.538405],[12.7819459,41.5385746],[12.782165,41.5391842],[12.7821536,41.5395268],[12.7824774,41.5398763],[12.7826784,41.5402929],[12.7826178,41.5417312],[12.7823306,41.5423935],[12.7815772,41.5437195],[12.7815434,41.5440268],[12.7816316,41.5442535],[12.7820219,41.5447675],[12.7817421,41.5449027],[12.7813711,41.5448609],[12.7810202,41.5449715],[12.7803195,41.5454809],[12.7793804,41.5455883],[12.7776924,41.5455088],[12.7758965,41.5447349],[12.7743894,41.5449961],[12.7737059,41.5449915],[12.7717785,41.5445686],[12.7710567,41.5446148],[12.7712659,41.5451978],[12.7715374,41.5456526],[12.7716443,41.5460228],[12.7716234,41.5462936],[12.7696315,41.5484347],[12.7689801,41.5492665],[12.768917,41.5497008],[12.7691403,41.5505129],[12.7717465,41.5570325],[12.7660617,41.5598305],[12.7622431,41.5613785],[12.7606105,41.5621333],[12.7584676,41.5616822],[12.7564692,41.561554],[12.7545027,41.5615508],[12.7540566,41.5616239],[12.7528907,41.5620402],[12.7518403,41.5622366],[12.7511279,41.5627462],[12.7511202,41.5629626],[12.7521324,41.5645504],[12.7529182,41.5660961],[12.7531998,41.5669738],[12.7537064,41.5679298],[12.7545699,41.5710353],[12.7558542,41.5727358]]]},"properties":{"type":"boundary","gemeente":"Cisterna di Latina"}}]}