{"type":"FeatureCollection","metadata":{"gemeente":"Civate","slug":"civate","generated_at":"2026-09-26T14:27:12.681301Z","total_points":6,"providers":["PosteItaliane","DPD","DHL","Amazon"],"bounds":[9.34365404,45.82770128,9.34968204,45.831179]},"features":[{"type":"Feature","geometry":{"type":"Point","coordinates":[9.345652,45.82919524]},"properties":{"type":"pakketpunt","locatieNaam":"Civate","straatNaam":"Via Del Ponte","straatNr":"8","vervoerder":"PosteItaliane","puntType":"postkantoor","bezettingsgraad":50,"latitude":45.82919524,"longitude":9.345652,"canPickup":true,"canDropoff":true,"openingstijden":{"za":"08:20 - 12:35","zo":"gesloten","ma":"08:20 - 13:35","di":"08:20 - 13:35","wo":"08:20 - 13:35","do":"08:20 - 13:35","vr":"08:20 - 13:35"}}},{"type":"Feature","geometry":{"type":"Point","coordinates":[9.34365404,45.82770128]},"properties":{"type":"pakketpunt","locatieNaam":"Tabaccheria N. 2","straatNaam":"Via Villa Cherubino","straatNr":"22","vervoerder":"PosteItaliane","puntType":"servicepunt","bezettingsgraad":50,"latitude":45.82770128,"longitude":9.34365404,"canPickup":true,"canDropoff":true,"openingstijden":{"za":"07:00 - 21:00","zo":"07:00 - 21:00","ma":"07:00 - 19:00","di":"gesloten","wo":"gesloten","do":"gesloten","vr":"gesloten"}}},{"type":"Feature","geometry":{"type":"Point","coordinates":[9.34968204,45.83114575]},"properties":{"type":"pakketpunt","locatieNaam":"CRL Elettronica di Riva Enrico","straatNaam":"VIA ALLA SANTA","straatNr":"62","vervoerder":"DPD","puntType":"pickup_point","bezettingsgraad":50,"latitude":45.83114575,"longitude":9.34968204,"canPickup":true,"canDropoff":true,"openingstijden":{"ma":"09:00 - 13:00, 14:30 - 18:30","di":"09:00 - 13:00, 14:30 - 18:30","wo":"09:00 - 13:00, 14:30 - 18:30","do":"09:00 - 13:00, 14:30 - 18:30","vr":"09:00 - 13:00, 14:30 - 18:30","za":"gesloten","zo":"gesloten"}}},{"type":"Feature","geometry":{"type":"Point","coordinates":[9.345652,45.829195]},"properties":{"type":"pakketpunt","locatieNaam":"Ufficio Postale CIVATE","straatNaam":"VIA DEL PONTE 8","straatNr":"","vervoerder":"DHL","puntType":"postOffice","bezettingsgraad":50,"latitude":45.829195,"longitude":9.345652,"canPickup":true,"canDropoff":true,"openingstijden":{"ma":"08:20 - 13:35","di":"08:20 - 13:35","wo":"08:20 - 13:35","do":"08:20 - 13:35","vr":"08:20 - 13:35","za":"08:20 - 12:35","zo":"gesloten"}}},{"type":"Feature","geometry":{"type":"Point","coordinates":[9.349562,45.831179]},"properties":{"type":"pakketpunt","locatieNaam":"Amazon Counter","straatNaam":"CRL Elettronica di Riva Enrico (fermopoint)","straatNr":"","vervoerder":"Amazon","puntType":"helix","bezettingsgraad":50,"latitude":45.831179,"longitude":9.349562,"canPickup":true,"canDropoff":false,"openingstijden":null}},{"type":"Feature","geometry":{"type":"Point","coordinates":[9.34565,45.8291]},"properties":{"type":"pakketpunt","locatieNaam":"Ufficio Postale CIVATE","straatNaam":"VIA DEL PONTE 8","straatNr":"","vervoerder":"Amazon","puntType":"3p","bezettingsgraad":50,"latitude":45.8291,"longitude":9.34565,"canPickup":true,"canDropoff":false,"openingstijden":null}},{"type":"Feature","geometry":{"type":"Polygon","coordinates":[[[9.300428,45.8369264],[9.3018402,45.8361426],[9.3022037,45.8333631],[9.3021397,45.8319592],[9.3021726,45.830303],[9.3022818,45.8292868],[9.3025698,45.8293016],[9.3040042,45.8302357],[9.3054689,45.8315438],[9.306521,45.8303183],[9.3073172,45.8295528],[9.3076574,45.8290649],[9.3078205,45.8289821],[9.3078462,45.8287406],[9.3106861,45.8287599],[9.310776,45.8284395],[9.3105575,45.8279054],[9.3102872,45.8275177],[9.3102893,45.8272444],[9.3101049,45.8271128],[9.3102446,45.8267342],[9.3110919,45.8264004],[9.3114104,45.8263726],[9.3123316,45.8260432],[9.313313,45.8259346],[9.3161493,45.8259519],[9.3164753,45.8257255],[9.3171697,45.8259878],[9.317189,45.8260958],[9.3173874,45.8257451],[9.3171784,45.8255267],[9.3171607,45.8252296],[9.3181447,45.8240736],[9.318632,45.8235992],[9.3188606,45.8235321],[9.318784,45.8231765],[9.3189445,45.8228052],[9.3192229,45.8224692],[9.319122,45.8216826],[9.3198411,45.8217237],[9.3205978,45.8216532],[9.3203046,45.8212213],[9.3212049,45.8206051],[9.3214454,45.8205259],[9.3213296,45.8202134],[9.3223368,45.8206748],[9.3236701,45.820987],[9.3240962,45.8205769],[9.3256453,45.820241],[9.3246516,45.819486],[9.3285068,45.8193255],[9.3307666,45.8191112],[9.3330548,45.8178919],[9.3322913,45.8157455],[9.3324682,45.8138419],[9.3357859,45.8146001],[9.341068,45.8128583],[9.3425018,45.8119822],[9.3516822,45.809561],[9.3524146,45.8120325],[9.3526204,45.8144043],[9.3522031,45.8153412],[9.351439,45.8165919],[9.3520831,45.8170148],[9.351855,45.8179747],[9.3513665,45.8193577],[9.3514333,45.8200372],[9.3529064,45.8218148],[9.3525391,45.8257103],[9.3526054,45.8257803],[9.3525218,45.8258831],[9.3528392,45.8259492],[9.3531208,45.8264988],[9.3531318,45.8267845],[9.3527037,45.8274664],[9.3524905,45.8284115],[9.3521554,45.8291121],[9.3524228,45.8300393],[9.3523866,45.8310174],[9.3525159,45.8319374],[9.352241,45.8331485],[9.3523211,45.8333243],[9.3522961,45.8337027],[9.3525775,45.8341296],[9.3534013,45.8350448],[9.3537299,45.8352999],[9.3540545,45.8352338],[9.3544369,45.8356099],[9.3552618,45.835867],[9.3549701,45.836062],[9.354038,45.8358659],[9.3539887,45.8356954],[9.3526265,45.8355018],[9.3521619,45.8359689],[9.351725,45.8361187],[9.3471166,45.8370959],[9.3464066,45.8370621],[9.344159,45.8372219],[9.343384,45.8376158],[9.3426779,45.8382164],[9.3385405,45.8402134],[9.3368546,45.8409069],[9.3366293,45.8409256],[9.3362221,45.8406658],[9.3359389,45.8406891],[9.3321182,45.8418704],[9.3308022,45.8420002],[9.3300371,45.8423967],[9.3285394,45.8428798],[9.3262015,45.8438811],[9.3246945,45.8441104],[9.3241633,45.8441165],[9.3230577,45.8439081],[9.3215335,45.8433814],[9.3190114,45.8423355],[9.3182745,45.8421215],[9.3163326,45.8420055],[9.3131934,45.8419602],[9.3120404,45.8416078],[9.3091232,45.8409543],[9.3084521,45.8406861],[9.3083339,45.8405694],[9.3074972,45.8403377],[9.3067628,45.8399617],[9.3060955,45.839797],[9.3053967,45.8394748],[9.3031654,45.8388328],[9.3025628,45.8384204],[9.3020784,45.8375441],[9.3011276,45.8373351],[9.300428,45.8369264]]]},"properties":{"type":"boundary","gemeente":"Civate"}}]}