{"type":"FeatureCollection","metadata":{"gemeente":"Codevigo","slug":"codevigo","generated_at":"2026-09-26T13:09:51.166206Z","total_points":11,"providers":["PosteItaliane","DPD","InPost","GLS","DHL","Amazon"],"bounds":[12.0836919,45.23742007,12.16999977,45.2795512]},"features":[{"type":"Feature","geometry":{"type":"Point","coordinates":[12.09758184,45.26841383]},"properties":{"type":"pakketpunt","locatieNaam":"Codevigo","straatNaam":"Via Vittorio Emanuele Iii","straatNr":"77","vervoerder":"PosteItaliane","puntType":"postkantoor","bezettingsgraad":50,"latitude":45.26841383,"longitude":12.09758184,"canPickup":true,"canDropoff":true,"openingstijden":{"za":"08:20 - 12:35","zo":"gesloten","ma":"08:20 - 13:35","di":"08:20 - 13:35","wo":"08:20 - 13:35","do":"08:20 - 13:35","vr":"08:20 - 13:35"}}},{"type":"Feature","geometry":{"type":"Point","coordinates":[12.16999977,45.23742007]},"properties":{"type":"pakketpunt","locatieNaam":"Conche Di Codevigo","straatNaam":"Via San Biagio","straatNr":"48","vervoerder":"PosteItaliane","puntType":"postkantoor","bezettingsgraad":50,"latitude":45.23742007,"longitude":12.16999977,"canPickup":true,"canDropoff":true,"openingstijden":{"za":"08:20 - 12:45","zo":"gesloten","ma":"gesloten","di":"08:20 - 13:45","wo":"gesloten","do":"08:20 - 13:45","vr":"gesloten"}}},{"type":"Feature","geometry":{"type":"Point","coordinates":[12.0975232,45.2672617]},"properties":{"type":"pakketpunt","locatieNaam":"Edicola Cartoleria da Marco","straatNaam":"VIA OSTERIA","straatNr":"14","vervoerder":"DPD","puntType":"pickup_point","bezettingsgraad":50,"latitude":45.2672617,"longitude":12.0975232,"canPickup":true,"canDropoff":true,"openingstijden":{"ma":"07:00 - 12:30, 15:30 - 19:30","di":"07:00 - 12:30, 15:30 - 19:30","wo":"07:00 - 12:30, 15:30 - 19:30","do":"07:00 - 12:30, 15:30 - 19:30","vr":"07:00 - 12:30, 15:30 - 19:30","za":"07:00 - 12:30","zo":"gesloten"}}},{"type":"Feature","geometry":{"type":"Point","coordinates":[12.11631,45.26513]},"properties":{"type":"pakketpunt","locatieNaam":"InPost Locker 24/7","straatNaam":"Via dei Pescatori","straatNr":"35","vervoerder":"InPost","puntType":"automaat","bezettingsgraad":50,"latitude":45.26513,"longitude":12.11631,"canPickup":true,"canDropoff":true,"openingstijden":null}},{"type":"Feature","geometry":{"type":"Point","coordinates":[12.09757,45.26751]},"properties":{"type":"pakketpunt","locatieNaam":"InPost Point","straatNaam":"Via Osteria","straatNr":"14","vervoerder":"InPost","puntType":"servicepunt","bezettingsgraad":50,"latitude":45.26751,"longitude":12.09757,"canPickup":true,"canDropoff":true,"openingstijden":"Lun-Sab: 07:00 - 12:30 - 15:30 - 19:30"}},{"type":"Feature","geometry":{"type":"Point","coordinates":[12.0975232,45.2672617]},"properties":{"type":"pakketpunt","locatieNaam":"Edicola cartoleria da Marco","straatNaam":"Via Osteria","straatNr":"14","vervoerder":"GLS","puntType":"parcel_shop","bezettingsgraad":50,"latitude":45.2672617,"longitude":12.0975232,"canPickup":true,"canDropoff":true,"openingstijden":"za: 07:00 - 12:30, 15:30 - 18:30; ma: 07:00 - 12:30, 15:30 - 19:30"}},{"type":"Feature","geometry":{"type":"Point","coordinates":[12.097512,45.26726]},"properties":{"type":"pakketpunt","locatieNaam":"EDICOLA CARTOLERIA DA MARCO","straatNaam":"Via Osteria 14","straatNr":"","vervoerder":"DHL","puntType":"parcelShop","bezettingsgraad":50,"latitude":45.26726,"longitude":12.097512,"canPickup":false,"canDropoff":true,"openingstijden":{"ma":"07:00 - 19:30","di":"07:00 - 19:30","wo":"07:00 - 19:30","do":"07:00 - 19:30","vr":"07:00 - 19:30","za":"07:00 - 19:30","zo":"gesloten"}}},{"type":"Feature","geometry":{"type":"Point","coordinates":[12.097582,45.268414]},"properties":{"type":"pakketpunt","locatieNaam":"Ufficio Postale CODEVIGO","straatNaam":"VIA VITTORIO EMANUELE III 77","straatNr":"","vervoerder":"DHL","puntType":"postOffice","bezettingsgraad":50,"latitude":45.268414,"longitude":12.097582,"canPickup":true,"canDropoff":true,"openingstijden":{"ma":"08:20 - 13:35","di":"08:20 - 13:35","wo":"08:20 - 13:35","do":"08:20 - 13:35","vr":"08:20 - 13:35","za":"08:20 - 12:35","zo":"gesloten"}}},{"type":"Feature","geometry":{"type":"Point","coordinates":[12.0836919,45.2795512]},"properties":{"type":"pakketpunt","locatieNaam":"Amazon Locker - apollinare","straatNaam":"Fermopoint / Gomme&Service - Codevico","straatNr":"","vervoerder":"Amazon","puntType":"locker","bezettingsgraad":50,"latitude":45.2795512,"longitude":12.0836919,"canPickup":true,"canDropoff":false,"openingstijden":null}},{"type":"Feature","geometry":{"type":"Point","coordinates":[12.0975232,45.2672617]},"properties":{"type":"pakketpunt","locatieNaam":"Amazon Counter","straatNaam":"Edicola Cartoleria da Marco (fermopoint)","straatNr":"","vervoerder":"Amazon","puntType":"helix","bezettingsgraad":50,"latitude":45.2672617,"longitude":12.0975232,"canPickup":true,"canDropoff":false,"openingstijden":null}},{"type":"Feature","geometry":{"type":"Point","coordinates":[12.0975,45.2684]},"properties":{"type":"pakketpunt","locatieNaam":"Ufficio Postale CODEVIGO","straatNaam":"VIA VITTORIO EMANUELE III 77","straatNr":"","vervoerder":"Amazon","puntType":"3p","bezettingsgraad":50,"latitude":45.2684,"longitude":12.0975,"canPickup":true,"canDropoff":false,"openingstijden":null}},{"type":"Feature","geometry":{"type":"Polygon","coordinates":[[[12.072678,45.2799842],[12.0733753,45.2809958],[12.0723776,45.2815846],[12.0725278,45.2817582],[12.0736543,45.2824376],[12.0764331,45.2846268],[12.0758001,45.284657],[12.0750383,45.2848155],[12.074577,45.2850646],[12.0747057,45.2851854],[12.0739654,45.2855779],[12.0736972,45.2853137],[12.0732251,45.2854345],[12.0727638,45.2857213],[12.072163,45.2859629],[12.0721093,45.2861441],[12.0727423,45.2868687],[12.0730749,45.2870348],[12.0726029,45.2873065],[12.0712188,45.28785],[12.0706073,45.2871782],[12.0696739,45.2876688],[12.0704142,45.2891332],[12.0700232,45.2892352],[12.0695773,45.2887105],[12.0690624,45.2882953],[12.0687405,45.2881746],[12.0681397,45.288084],[12.0680002,45.2881972],[12.0672063,45.288318],[12.0679466,45.289103],[12.0685474,45.2901899],[12.0679787,45.2901974],[12.0677963,45.2899408],[12.0675067,45.2900163],[12.0671955,45.2894577],[12.0670775,45.2894577],[12.0667664,45.2896993],[12.0675818,45.2910956],[12.0660261,45.2916164],[12.0664123,45.2924391],[12.0670131,45.2932618],[12.0671848,45.2933599],[12.0680109,45.2934354],[12.0683972,45.2933901],[12.0685581,45.2933297],[12.0687619,45.2930731],[12.0692877,45.2930807],[12.069631,45.2929976],[12.071251,45.293292],[12.0715193,45.293458],[12.0720128,45.293292],[12.0721308,45.2933448],[12.0733324,45.2953298],[12.0728496,45.2955109],[12.0732466,45.2962656],[12.0737079,45.2966958],[12.074062,45.2977297],[12.0795156,45.2973687],[12.0790329,45.2962065],[12.081479,45.295731],[12.0827772,45.2952933],[12.0831635,45.295014],[12.0835497,45.2948631],[12.0838179,45.2948706],[12.0849766,45.2953914],[12.087573,45.2945838],[12.08797,45.294697],[12.0882704,45.2946895],[12.0889678,45.2949008],[12.0894827,45.2952857],[12.0903089,45.2953612],[12.091371,45.2956027],[12.0921757,45.295565],[12.09631,45.2965568],[12.0985164,45.2966065],[12.0992353,45.2962216],[12.0995357,45.2959046],[12.1000828,45.2955876],[12.1005764,45.2950744],[12.1014347,45.2944329],[12.1017136,45.2939876],[12.1018745,45.2934844],[12.1028134,45.2950138],[12.1035312,45.2955961],[12.1042035,45.295956],[12.1051781,45.2959869],[12.1061628,45.2961519],[12.1091945,45.295973],[12.1100192,45.296057],[12.1103217,45.2962457],[12.1106914,45.2966621],[12.1109686,45.29758],[12.1116933,45.2980245],[12.1119364,45.2983585],[12.1119238,45.2988404],[12.1117199,45.2994918],[12.1117416,45.299824],[12.1121668,45.3004423],[12.1128664,45.3019398],[12.1128855,45.3027182],[12.1131778,45.3042824],[12.1138528,45.3051576],[12.1158497,45.3041773],[12.1171762,45.3033835],[12.1186659,45.302893],[12.1207326,45.3023791],[12.1220827,45.3018836],[12.1238169,45.3015383],[12.1254448,45.3013902],[12.1274847,45.3007927],[12.1291165,45.3004904],[12.1291814,45.3006358],[12.1304175,45.3007253],[12.1321134,45.3005209],[12.1376323,45.2994644],[12.1383189,45.2994463],[12.1431855,45.3012092],[12.1462754,45.3017525],[12.1490478,45.3014567],[12.1510219,45.3015774],[12.1561717,45.3021751],[12.186619,45.3021681],[12.1887033,45.298934],[12.1894672,45.2975931],[12.1902515,45.2966159],[12.1904763,45.2960918],[12.1900855,45.2944097],[12.1894574,45.289766],[12.1902471,45.2888536],[12.1900565,45.2886021],[12.1896078,45.2883202],[12.1909919,45.2858388],[12.1914838,45.2859996],[12.1915043,45.2853175],[12.1913517,45.2849469],[12.1907699,45.2843384],[12.1965865,45.2828471],[12.198108,45.281338],[12.1994548,45.2812421],[12.2016005,45.2786331],[12.2016068,45.2770118],[12.203554,45.2764165],[12.2064075,45.2727165],[12.2054905,45.2698458],[12.2035038,45.2645626],[12.2008145,45.2578571],[12.1984551,45.2530555],[12.1971082,45.2507792],[12.1959994,45.2496869],[12.1954952,45.2492921],[12.1952055,45.2487624],[12.1952299,45.2486261],[12.1956522,45.2484561],[12.195563,45.2480069],[12.195397,45.2478986],[12.1959932,45.247125],[12.1945983,45.246204],[12.1936113,45.2445711],[12.1926457,45.2433216],[12.1873949,45.2400685],[12.1933074,45.2397224],[12.1932827,45.2392825],[12.1956475,45.2372621],[12.1934183,45.2340036],[12.1931196,45.2338086],[12.1813175,45.229733],[12.1759908,45.2285258],[12.1742016,45.2282593],[12.1734,45.2279315],[12.1721235,45.2276846],[12.1708876,45.2275946],[12.1701888,45.2273881],[12.1700613,45.2271093],[12.1694983,45.2264698],[12.1690739,45.2263121],[12.1683507,45.2262419],[12.1681317,45.2256053],[12.165554,45.2256796],[12.1652841,45.2257424],[12.1646751,45.2262078],[12.1639867,45.225944],[12.1633293,45.2255008],[12.1621842,45.2264266],[12.1614472,45.2259384],[12.1587733,45.225978],[12.158091,45.2258243],[12.1573718,45.2255337],[12.1567404,45.2252039],[12.1579053,45.2241474],[12.1548109,45.2219675],[12.1543199,45.2222709],[12.1538617,45.2219317],[12.1554643,45.2208935],[12.154604,45.2201719],[12.1539992,45.2194778],[12.1543062,45.2169089],[12.1539297,45.2155746],[12.1537704,45.2155169],[12.1534906,45.2155798],[12.1446567,45.2181081],[12.1450686,45.2158399],[12.1444417,45.2159814],[12.1445033,45.2135573],[12.1448433,45.2135273],[12.144784,45.2129837],[12.1445093,45.2120734],[12.1444189,45.211177],[12.1413032,45.2112614],[12.140874,45.2125462],[12.1404437,45.2144835],[12.1395741,45.2150044],[12.1369259,45.2179827],[12.1368405,45.2182059],[12.136931,45.2189626],[12.1368456,45.2191858],[12.1365976,45.2194686],[12.1361228,45.2195369],[12.1369486,45.2201698],[12.1382384,45.2208935],[12.1381586,45.2210406],[12.136008,45.2225974],[12.1353474,45.2228364],[12.1342587,45.2234598],[12.1340059,45.22366],[12.1338284,45.2239823],[12.1342112,45.2263252],[12.1344999,45.229975],[12.1346811,45.2303628],[12.1341642,45.2304501],[12.134195,45.2306459],[12.1343126,45.2310084],[12.1348,45.2318785],[12.1348421,45.2321119],[12.1364797,45.2353525],[12.1170388,45.2407583],[12.1159868,45.2402407],[12.1120599,45.2391677],[12.1098046,45.2356129],[12.1092936,45.2350195],[12.1089491,45.2343857],[12.1076175,45.2347071],[12.104908,45.2351888],[12.1047805,45.2353599],[12.1031037,45.2361445],[12.1030784,45.2362561],[12.1029125,45.2363827],[12.1024687,45.2374596],[12.1020793,45.2378029],[12.1016042,45.2380156],[12.1010108,45.2380761],[12.0997977,45.2379981],[12.0986032,45.2376867],[12.0978905,45.2372845],[12.0975282,45.2368905],[12.0950541,45.2372737],[12.0949397,45.2375865],[12.0945664,45.2379404],[12.0941466,45.2385952],[12.0921904,45.23958],[12.0916139,45.2399506],[12.0909861,45.2405333],[12.0903456,45.2408834],[12.089835,45.2410193],[12.089209,45.2410584],[12.0886567,45.2410069],[12.0879549,45.240804],[12.0873042,45.240389],[12.0869866,45.2400315],[12.086655,45.2394193],[12.0864984,45.2388468],[12.0866555,45.2376888],[12.0879809,45.2372314],[12.0886672,45.2365696],[12.088841,45.2362986],[12.0885987,45.2355952],[12.0879253,45.2350477],[12.0875913,45.234968],[12.0864739,45.2357859],[12.0865154,45.2359733],[12.085348,45.2368491],[12.0823226,45.2360688],[12.0803745,45.2356736],[12.0778309,45.2358278],[12.0779728,45.2370175],[12.0775575,45.2370645],[12.0779703,45.2395493],[12.0781541,45.2396696],[12.0799734,45.2395937],[12.080238,45.2409731],[12.0829366,45.2405956],[12.0831202,45.2408218],[12.0838124,45.2426693],[12.0829986,45.2431811],[12.0803042,45.2435403],[12.0799009,45.243956],[12.0800088,45.2465562],[12.0760641,45.2444761],[12.0758824,45.2444463],[12.0757562,45.2449767],[12.0757783,45.2458528],[12.0755145,45.2461283],[12.0746036,45.2459113],[12.07431,45.245633],[12.0733981,45.2456307],[12.0741281,45.2485451],[12.0755758,45.2491125],[12.0806091,45.2517064],[12.0827936,45.2509703],[12.0846044,45.2507848],[12.0851713,45.2509204],[12.0853081,45.2510414],[12.0867956,45.2506747],[12.0865961,45.2511189],[12.0869836,45.2511372],[12.0861223,45.2538264],[12.0894326,45.2548362],[12.0904726,45.2554404],[12.0902577,45.2561648],[12.0895049,45.2576655],[12.0890269,45.2576712],[12.0887413,45.2582179],[12.0892144,45.2583129],[12.0892506,45.259167],[12.08994,45.2606214],[12.0899916,45.2611949],[12.0901251,45.2615936],[12.0899675,45.2622518],[12.0897945,45.2620624],[12.0881771,45.2618835],[12.0877032,45.2636497],[12.0907827,45.2643352],[12.0914342,45.2642837],[12.0897774,45.2667872],[12.0893693,45.267126],[12.0888904,45.267333],[12.0889117,45.2690421],[12.0883762,45.2691141],[12.0888809,45.2703508],[12.0888395,45.2705244],[12.0883134,45.2707685],[12.0877587,45.2708625],[12.0878922,45.2725691],[12.0888093,45.2731551],[12.0888882,45.2734835],[12.0878173,45.2736275],[12.0880121,45.2745923],[12.0873148,45.274683],[12.0876025,45.2751064],[12.0876996,45.2753983],[12.0856827,45.2759272],[12.08551,45.275745],[12.0853567,45.2757348],[12.0852692,45.275809],[12.0853473,45.2761231],[12.0846128,45.2762794],[12.0843373,45.2762654],[12.0848205,45.277481],[12.0847744,45.2775685],[12.084514,45.2776474],[12.084761,45.2778851],[12.0852405,45.2780948],[12.0849239,45.2782615],[12.0841628,45.2783036],[12.0827685,45.278679],[12.0826212,45.2784028],[12.0807829,45.2787774],[12.076048,45.2806462],[12.0760194,45.2807829],[12.0764317,45.281069],[12.0764244,45.2811541],[12.0753088,45.2816598],[12.075029,45.2816964],[12.0740204,45.2796713],[12.072678,45.2799842]]]},"properties":{"type":"boundary","gemeente":"Codevigo"}}]}