{"type":"FeatureCollection","metadata":{"gemeente":"Colorina","slug":"colorina","generated_at":"2026-09-26T14:27:13.841511Z","total_points":1,"providers":["PosteItaliane"],"bounds":[9.73193366,46.15177246,9.73193366,46.15177246]},"features":[{"type":"Feature","geometry":{"type":"Point","coordinates":[9.73193366,46.15177246]},"properties":{"type":"pakketpunt","locatieNaam":"Colorina","straatNaam":"Via Roma","straatNr":"284","vervoerder":"PosteItaliane","puntType":"postkantoor","bezettingsgraad":50,"latitude":46.15177246,"longitude":9.73193366,"canPickup":true,"canDropoff":true,"openingstijden":{"za":"08:20 - 12:45","zo":"gesloten","ma":"gesloten","di":"08:20 - 13:45","wo":"gesloten","do":"08:20 - 13:45","vr":"gesloten"}}},{"type":"Feature","geometry":{"type":"Polygon","coordinates":[[[9.6896295,46.1650541],[9.690489,46.1652919],[9.6912727,46.1658091],[9.6917633,46.1659366],[9.6919345,46.1661651],[9.6921323,46.1661864],[9.6929857,46.1660642],[9.6948021,46.1655312],[9.6961978,46.1650142],[9.6967466,46.1650108],[9.6987516,46.1654351],[9.6989475,46.1655644],[9.6991454,46.1659771],[9.6993058,46.1670067],[9.6995486,46.1677657],[9.6995573,46.1681931],[9.6996333,46.1683186],[9.70138,46.1682809],[9.7026228,46.1683498],[9.703753,46.1675868],[9.7047868,46.166505],[9.70477,46.1660821],[9.7046793,46.1659521],[9.7042882,46.165878],[9.7036709,46.1659763],[9.7035163,46.1659143],[9.703432,46.1657753],[9.70347,46.1641911],[9.7032732,46.1634813],[9.7033456,46.1631974],[9.7036002,46.1629753],[9.7036373,46.1628356],[9.7035178,46.1619678],[9.7035461,46.1613961],[9.7037505,46.1605399],[9.7039757,46.1601695],[9.7070803,46.1601233],[9.7098958,46.1596334],[9.7103102,46.1596263],[9.7115528,46.159695],[9.7152086,46.1602077],[9.7205874,46.1599984],[9.7216165,46.1600774],[9.723897,46.160027],[9.7283942,46.1602504],[9.7291233,46.1601692],[9.7320181,46.1595657],[9.736142,46.1594762],[9.7397423,46.1595789],[9.7405947,46.1595194],[9.7401708,46.1590542],[9.7407112,46.1587897],[9.7409059,46.1585769],[9.7410755,46.1580673],[9.7415679,46.1571236],[9.7420687,46.1564409],[9.7421989,46.1557695],[9.7430424,46.154576],[9.7432582,46.1538907],[9.7441289,46.1530345],[9.7445079,46.1519745],[9.7452886,46.1509299],[9.7463316,46.1497711],[9.7466034,46.1489279],[9.7470318,46.1482861],[9.747302,46.1471998],[9.7477449,46.1460854],[9.7478119,46.1457745],[9.7476417,46.1451926],[9.7475855,46.1443613],[9.7476565,46.1442247],[9.7484231,46.1440108],[9.7485757,46.1438484],[9.7485389,46.1434815],[9.7483526,46.1431789],[9.7485574,46.1428294],[9.7485511,46.1423705],[9.7479473,46.1414915],[9.7480614,46.1401709],[9.747267,46.1389956],[9.7472227,46.1387522],[9.7473365,46.138416],[9.7478131,46.1383084],[9.7479441,46.1382316],[9.7479467,46.1380892],[9.7478086,46.1379793],[9.7472378,46.1378469],[9.7472513,46.1368277],[9.7468233,46.1361532],[9.7467038,46.1360685],[9.7458151,46.1360016],[9.7457046,46.1359105],[9.7456917,46.1356321],[9.7459426,46.1353266],[9.7464652,46.1349212],[9.7466646,46.134518],[9.7466644,46.1341667],[9.746264,46.1335078],[9.7462368,46.1332573],[9.7463353,46.1329149],[9.7472367,46.1317949],[9.7473546,46.1315325],[9.7474766,46.1306835],[9.7473827,46.1300258],[9.7474725,46.1299324],[9.7482901,46.1297962],[9.7489054,46.1295179],[9.7497405,46.1288836],[9.7498532,46.128693],[9.7498343,46.1281994],[9.7496692,46.1276603],[9.7497755,46.1274444],[9.7501547,46.1272056],[9.7501482,46.126733],[9.7505179,46.1257979],[9.7504849,46.125604],[9.7500835,46.1250918],[9.7499431,46.1245864],[9.7495932,46.1242933],[9.7496096,46.1241623],[9.7499957,46.1239952],[9.7504812,46.123992],[9.7506623,46.1239191],[9.7507568,46.1237286],[9.7507355,46.1235009],[9.7504689,46.1230848],[9.750461,46.1229498],[9.7505931,46.1228477],[9.7512588,46.1227083],[9.7512932,46.1225646],[9.7511355,46.1222762],[9.7502691,46.1223314],[9.7495964,46.1219983],[9.7490607,46.1218668],[9.7487937,46.1218596],[9.7477855,46.1220777],[9.746955,46.1219256],[9.7453821,46.1218999],[9.743998,46.1213554],[9.7427292,46.1206032],[9.742065,46.1199325],[9.7418319,46.1198035],[9.7399006,46.119348],[9.7382705,46.1191516],[9.7358465,46.1194777],[9.7337896,46.119419],[9.732768,46.1194885],[9.7317898,46.1192833],[9.7291247,46.1192418],[9.7283196,46.119157],[9.7273787,46.118227],[9.7270709,46.1176979],[9.7267313,46.1173401],[9.7248349,46.1158266],[9.7242781,46.1155602],[9.7238849,46.1150542],[9.7216447,46.1158198],[9.7210165,46.1163953],[9.7199955,46.1170002],[9.7192986,46.1171486],[9.7182685,46.1171821],[9.7168721,46.1176544],[9.7157561,46.1183004],[9.7145907,46.1191222],[9.7135516,46.1195877],[9.7125605,46.1216414],[9.71206,46.122351],[9.7109845,46.1231317],[9.7106583,46.1233092],[9.7099921,46.1234777],[9.7097406,46.1237829],[9.708985,46.1241611],[9.7084861,46.1248707],[9.7076384,46.1252585],[9.7071642,46.1261344],[9.7056907,46.126931],[9.7051273,46.1275375],[9.7047551,46.1277828],[9.7037354,46.1281401],[9.7019854,46.1285784],[9.7009526,46.1291787],[9.7006641,46.1301615],[9.7003908,46.1305502],[9.700368,46.1310498],[9.6999592,46.1318668],[9.6996207,46.1322244],[9.7001004,46.1327929],[9.7001223,46.1329863],[9.6993895,46.1335128],[9.6990049,46.1339382],[9.6972687,46.1348488],[9.6969432,46.1352108],[9.6965088,46.1354114],[9.6958101,46.1359557],[9.6957865,46.1360098],[9.6961207,46.1362013],[9.6963084,46.1364566],[9.6964195,46.1373155],[9.6968082,46.1379746],[9.6966875,46.1385423],[9.6968574,46.1391803],[9.696212,46.1402372],[9.6961648,46.1405975],[9.6962994,46.1412627],[9.6959976,46.14171],[9.6954257,46.1423075],[9.6952626,46.1427225],[9.6954541,46.1432793],[9.6957716,46.1438129],[9.6958371,46.144384],[9.6963387,46.1450199],[9.6964704,46.1454466],[9.696237,46.1456775],[9.6956202,46.1460503],[9.6953308,46.1476181],[9.6948243,46.1491691],[9.6946273,46.1507498],[9.6944849,46.1510117],[9.6938234,46.1515692],[9.6935618,46.1522683],[9.6932346,46.1526348],[9.6928804,46.1533029],[9.6919625,46.1543345],[9.6917773,46.1546686],[9.6912983,46.154811],[9.6905028,46.1556573],[9.6900794,46.1559749],[9.6892898,46.1561417],[9.6883356,46.1572499],[9.6882522,46.1591269],[9.6883774,46.1608586],[9.6889575,46.1619351],[9.6890611,46.1623215],[9.6890657,46.162947],[9.689519,46.1637227],[9.6897715,46.1638472],[9.6898438,46.1648413],[9.6896295,46.1650541]]]},"properties":{"type":"boundary","gemeente":"Colorina"}}]}