{"type":"FeatureCollection","metadata":{"gemeente":"Comazzo","slug":"comazzo","generated_at":"2026-09-26T13:09:52.017056Z","total_points":3,"providers":["PosteItaliane","DPD","DHL"],"bounds":[9.46415072,45.44150059,9.46514,45.44259509]},"features":[{"type":"Feature","geometry":{"type":"Point","coordinates":[9.46513967,45.44259509]},"properties":{"type":"pakketpunt","locatieNaam":"Comazzo","straatNaam":"Via Don Minzoni","straatNr":"5","vervoerder":"PosteItaliane","puntType":"postkantoor","bezettingsgraad":50,"latitude":45.44259509,"longitude":9.46513967,"canPickup":true,"canDropoff":true,"openingstijden":{"za":"08:20 - 12:45","zo":"gesloten","ma":"08:20 - 13:45","di":"08:20 - 13:45","wo":"08:20 - 13:45","do":"08:20 - 13:45","vr":"08:20 - 13:45"}}},{"type":"Feature","geometry":{"type":"Point","coordinates":[9.46415072,45.44150059]},"properties":{"type":"pakketpunt","locatieNaam":"Farmacia Montanari","straatNaam":"PIAZZA ITALIA","straatNr":"3","vervoerder":"DPD","puntType":"pickup_point","bezettingsgraad":50,"latitude":45.44150059,"longitude":9.46415072,"canPickup":true,"canDropoff":true,"openingstijden":{"ma":"08:30 - 12:30, 15:00 - 19:00","di":"08:30 - 12:30, 15:00 - 19:00","wo":"08:30 - 12:30, 15:00 - 19:00","do":"08:30 - 12:30, 15:00 - 19:00","vr":"08:30 - 12:30, 15:00 - 19:00","za":"08:30 - 12:30","zo":"gesloten"}}},{"type":"Feature","geometry":{"type":"Point","coordinates":[9.46514,45.442595]},"properties":{"type":"pakketpunt","locatieNaam":"Ufficio Postale COMAZZO","straatNaam":"VIA DON GIOVANNI MINZONI 5","straatNr":"","vervoerder":"DHL","puntType":"postOffice","bezettingsgraad":50,"latitude":45.442595,"longitude":9.46514,"canPickup":true,"canDropoff":true,"openingstijden":{"ma":"08:20 - 13:45","di":"08:20 - 13:45","wo":"08:20 - 13:45","do":"08:20 - 13:45","vr":"08:20 - 13:45","za":"08:20 - 12:45","zo":"gesloten"}}},{"type":"Feature","geometry":{"type":"Polygon","coordinates":[[[9.4178372,45.4381531],[9.42012,45.438673],[9.4207709,45.4389831],[9.4210015,45.4392124],[9.4212234,45.4399139],[9.4215247,45.4440467],[9.4221601,45.4449728],[9.4227224,45.4453474],[9.4239649,45.4454288],[9.4251056,45.4457753],[9.4253748,45.4457968],[9.4258915,45.4456074],[9.4258974,45.4453676],[9.4257373,45.444956],[9.4260141,45.4441484],[9.4268763,45.4429826],[9.42755,45.4429413],[9.4285076,45.4430746],[9.4293624,45.4433189],[9.4300736,45.4436194],[9.4307423,45.4440142],[9.431551,45.4447694],[9.433371,45.4471683],[9.4338458,45.4476672],[9.4357306,45.446507],[9.4362602,45.446461],[9.4369786,45.446559],[9.4371183,45.4467939],[9.4370767,45.4471685],[9.4382806,45.4476708],[9.4383956,45.4476574],[9.43869,45.4478892],[9.438763,45.4483329],[9.4386066,45.4483547],[9.4386635,45.4486955],[9.4382166,45.4486522],[9.4380792,45.4488054],[9.4380944,45.4491909],[9.4379921,45.4491899],[9.4379173,45.4494404],[9.4379175,45.4495956],[9.4380823,45.4496699],[9.4381641,45.4502557],[9.438325,45.4505003],[9.4375472,45.4509486],[9.4409958,45.4540403],[9.4412162,45.4544357],[9.4413348,45.4548992],[9.4411286,45.4557092],[9.441456,45.4557456],[9.4427147,45.4555522],[9.4435796,45.4556402],[9.443893,45.4547129],[9.4441144,45.453269],[9.4443727,45.4522822],[9.4465564,45.4526647],[9.4466669,45.4524021],[9.4479063,45.4526067],[9.4477905,45.4529227],[9.4478471,45.4530369],[9.4491115,45.4532239],[9.449384,45.4534626],[9.4495343,45.453766],[9.4497267,45.4538904],[9.4516584,45.4543932],[9.4517768,45.4542664],[9.4523785,45.4527138],[9.4529258,45.4518206],[9.4537077,45.4491939],[9.4517033,45.4489503],[9.4516528,45.449235],[9.451532,45.4492146],[9.451579,45.4489552],[9.451383,45.4481077],[9.4512821,45.447972],[9.4516603,45.4467146],[9.4516882,45.4462965],[9.451352,45.446046],[9.4511569,45.4457564],[9.4506648,45.4453304],[9.4471314,45.4415782],[9.4469582,45.4413043],[9.446692,45.4411838],[9.4465194,45.4409188],[9.4466986,45.4404052],[9.4467245,45.4404809],[9.4467369,45.440189],[9.4471811,45.4389676],[9.4477242,45.4385154],[9.4478797,45.4379702],[9.4482493,45.4374197],[9.4485872,45.4360997],[9.4488366,45.4354956],[9.4487581,45.4352709],[9.4488839,45.4346133],[9.4491533,45.4339237],[9.4490784,45.4337484],[9.4487833,45.4338126],[9.4476136,45.4336237],[9.4477607,45.4334341],[9.4481756,45.4313396],[9.4497448,45.431536],[9.4500071,45.4299598],[9.4527756,45.4302594],[9.4531048,45.4286603],[9.454854,45.4287929],[9.4552472,45.4272116],[9.4555259,45.4266929],[9.4557392,45.425999],[9.4555751,45.4258412],[9.4549545,45.4257852],[9.4547693,45.4256557],[9.4549257,45.4247137],[9.4549025,45.4240805],[9.455018,45.4239406],[9.4549895,45.4237742],[9.4551792,45.4229228],[9.4579802,45.4229341],[9.4583526,45.4235402],[9.4592385,45.4246168],[9.4593579,45.4245578],[9.4624749,45.4262742],[9.4638789,45.4265799],[9.4665853,45.4268238],[9.4674364,45.4267904],[9.4809909,45.4277033],[9.4807765,45.4281022],[9.4808646,45.4287345],[9.4811945,45.4292652],[9.4818991,45.4298575],[9.4822054,45.4298465],[9.4826311,45.4299615],[9.4837644,45.4296026],[9.485147,45.4300498],[9.485598,45.4304642],[9.4856667,45.4309816],[9.4855653,45.4317029],[9.4854202,45.4319053],[9.4855083,45.4319347],[9.4853776,45.4321902],[9.4850726,45.4323733],[9.4846542,45.433486],[9.4862587,45.4337368],[9.4862446,45.4346021],[9.4866918,45.4350409],[9.4867114,45.4351888],[9.4866738,45.4353895],[9.4862217,45.4356823],[9.4858243,45.4360977],[9.4856488,45.4369788],[9.487474,45.4371517],[9.4889178,45.437636],[9.4893988,45.4387371],[9.4889961,45.4397156],[9.4871576,45.4414488],[9.4852975,45.441941],[9.484266,45.4414215],[9.4838469,45.4415691],[9.4821299,45.4424635],[9.4814504,45.4430011],[9.4813637,45.4439066],[9.4814134,45.4448267],[9.4817635,45.4455702],[9.4839853,45.4471713],[9.4841503,45.4474975],[9.4843646,45.4485717],[9.4843244,45.4489643],[9.4825598,45.4485545],[9.4774072,45.4484073],[9.477295,45.4483403],[9.4770318,45.4483941],[9.4758477,45.4482009],[9.472057,45.4479861],[9.4705112,45.4484866],[9.4705394,45.4492835],[9.4693384,45.4494337],[9.4693787,45.4504363],[9.4679761,45.450065],[9.4664726,45.4499152],[9.465216,45.4535016],[9.4640324,45.4551955],[9.462577,45.4547379],[9.4621519,45.4547249],[9.4619719,45.4546388],[9.4624016,45.4532996],[9.4614922,45.4533233],[9.4610121,45.4534355],[9.4595768,45.4558033],[9.459117,45.4571573],[9.459242,45.457632],[9.4580345,45.4608449],[9.4581555,45.4610043],[9.4578812,45.4613687],[9.4578366,45.4616061],[9.4563799,45.4625578],[9.456077,45.4625543],[9.4559996,45.4624063],[9.4560771,45.4623091],[9.4559825,45.4622497],[9.4555994,45.4623892],[9.4553348,45.462397],[9.4550362,45.4631262],[9.4551263,45.4632735],[9.4563994,45.4638181],[9.4567949,45.4642727],[9.4572351,45.4642762],[9.4573932,45.4644974],[9.4574759,45.4647945],[9.458147,45.4647338],[9.458481,45.4654879],[9.4587191,45.4656285],[9.4588386,45.4658182],[9.4588624,45.4659278],[9.4586662,45.4662686],[9.4586702,45.4665036],[9.4584388,45.4667808],[9.4576271,45.4671803],[9.4573675,45.4674386],[9.4568789,45.4674474],[9.455277,45.4666663],[9.4546918,45.4669264],[9.4550603,45.4675225],[9.4550862,45.4676812],[9.4548882,45.4683146],[9.4530916,45.4683947],[9.4528022,45.4683447],[9.4525949,45.468141],[9.4523249,45.4681637],[9.4522251,45.4685787],[9.4520706,45.4686267],[9.4514186,45.4684917],[9.4508849,45.4686698],[9.4508908,45.4687587],[9.4513564,45.4688703],[9.4514224,45.4689513],[9.4513327,45.4692144],[9.4509185,45.4695203],[9.4507055,45.4694682],[9.4506188,45.469004],[9.4500887,45.4688111],[9.4494235,45.468286],[9.4492281,45.4682348],[9.4489919,45.4683074],[9.4490346,45.4687707],[9.4489269,45.4689005],[9.4474495,45.4683362],[9.4472009,45.4686651],[9.4467956,45.4683375],[9.4458503,45.4679188],[9.4451137,45.4682176],[9.4437221,45.4682772],[9.4435841,45.4681702],[9.4421352,45.4680034],[9.4421273,45.4680578],[9.4411128,45.4678929],[9.4409885,45.4679463],[9.4409559,45.4680644],[9.441053,45.4684309],[9.4410081,45.4685065],[9.4405048,45.4688533],[9.4400625,45.4694347],[9.4388265,45.4693865],[9.4385449,45.4694956],[9.4384902,45.469806],[9.4378974,45.4699512],[9.4379775,45.4692429],[9.436584,45.469092],[9.4365255,45.4698054],[9.4363588,45.4697553],[9.4360052,45.4700243],[9.4360945,45.4690368],[9.4344989,45.468873],[9.4350062,45.4672604],[9.4322457,45.4673235],[9.4318702,45.4672403],[9.4349679,45.4623708],[9.4352681,45.4609113],[9.4347762,45.4607472],[9.4341394,45.460727],[9.4329942,45.4604439],[9.4316453,45.4602387],[9.4281018,45.4592364],[9.4281587,45.4589592],[9.4273055,45.4587749],[9.4276304,45.4579596],[9.4271867,45.4565888],[9.4273973,45.4563032],[9.4268563,45.4559912],[9.4258198,45.4557811],[9.4257893,45.4556682],[9.4226343,45.4554808],[9.4226746,45.4550902],[9.418717,45.4519746],[9.4185313,45.4519122],[9.4190066,45.4462353],[9.4162627,45.4461729],[9.4162226,45.4456799],[9.4163446,45.4445755],[9.414731,45.4444337],[9.4153137,45.4436451],[9.4154821,45.4433066],[9.4153236,45.4431705],[9.4157014,45.4425244],[9.4153367,45.4423799],[9.4152292,45.4422363],[9.4157496,45.4421232],[9.4159511,45.4418373],[9.4158848,45.4415876],[9.4166401,45.4413024],[9.416437,45.4409456],[9.4165436,45.4405119],[9.4169353,45.440189],[9.4178372,45.4381531]]]},"properties":{"type":"boundary","gemeente":"Comazzo"}}]}