{"type":"FeatureCollection","metadata":{"gemeente":"Costigliole Saluzzo","slug":"costigliole-saluzzo","generated_at":"2026-09-26T13:09:53.517200Z","total_points":6,"providers":["PosteItaliane","DHL","Amazon"],"bounds":[7.48551,44.5635,7.48584818,44.56373325]},"features":[{"type":"Feature","geometry":{"type":"Point","coordinates":[7.48551299,44.56373325]},"properties":{"type":"pakketpunt","locatieNaam":"Costigliole Saluzzo","straatNaam":"Via Vittorio Veneto","straatNr":"118","vervoerder":"PosteItaliane","puntType":"postkantoor","bezettingsgraad":50,"latitude":44.56373325,"longitude":7.48551299,"canPickup":true,"canDropoff":true,"openingstijden":{"za":"08:20 - 12:35","zo":"gesloten","ma":"08:20 - 13:35","di":"08:20 - 13:35","wo":"08:20 - 13:35","do":"08:20 - 13:35","vr":"08:20 - 13:35"}}},{"type":"Feature","geometry":{"type":"Point","coordinates":[7.48584818,44.56355953]},"properties":{"type":"pakketpunt","locatieNaam":"Tabaccheria N. 1","straatNaam":"Via Vittorio Veneto","straatNr":"89","vervoerder":"PosteItaliane","puntType":"servicepunt","bezettingsgraad":50,"latitude":44.56355953,"longitude":7.48584818,"canPickup":true,"canDropoff":true,"openingstijden":{"za":"07:30 - 12:30, 14:30 - 19:00","zo":"gesloten","ma":"07:30 - 12:30, 14:30 - 19:00","di":"07:30 - 12:30, 14:30 - 19:00","wo":"07:30 - 12:30, 14:30 - 19:00","do":"07:30 - 12:30, 14:30 - 19:00","vr":"07:30 - 12:30, 14:30 - 19:00"}}},{"type":"Feature","geometry":{"type":"Point","coordinates":[7.485513,44.563733]},"properties":{"type":"pakketpunt","locatieNaam":"Ufficio Postale COSTIGLIOLE SALUZZO","straatNaam":"VIA VITTORIO VENETO 118","straatNr":"","vervoerder":"DHL","puntType":"postOffice","bezettingsgraad":50,"latitude":44.563733,"longitude":7.485513,"canPickup":true,"canDropoff":true,"openingstijden":{"ma":"08:20 - 13:35","di":"08:20 - 13:35","wo":"08:20 - 13:35","do":"08:20 - 13:35","vr":"08:20 - 13:35","za":"08:20 - 12:35","zo":"gesloten"}}},{"type":"Feature","geometry":{"type":"Point","coordinates":[7.485848,44.56356]},"properties":{"type":"pakketpunt","locatieNaam":"TABACCHERIA N. 1","straatNaam":"VIA VITTORIO VENETO 89","straatNr":"","vervoerder":"DHL","puntType":"parcelShop","bezettingsgraad":50,"latitude":44.56356,"longitude":7.485848,"canPickup":true,"canDropoff":true,"openingstijden":{"ma":"07:30 - 12:30, 14:30 - 19:00","di":"07:30 - 12:30, 14:30 - 19:00","wo":"07:30 - 12:30, 14:30 - 19:00","do":"07:30 - 12:30, 14:30 - 19:00","vr":"07:30 - 12:30, 14:30 - 19:00","za":"07:30 - 12:30, 14:30 - 19:00","zo":"gesloten"}}},{"type":"Feature","geometry":{"type":"Point","coordinates":[7.48584,44.5635]},"properties":{"type":"pakketpunt","locatieNaam":"PuntoPoste TABACCHERIA N. 1","straatNaam":"VIA VITTORIO VENETO 89","straatNr":"","vervoerder":"Amazon","puntType":"3p","bezettingsgraad":50,"latitude":44.5635,"longitude":7.48584,"canPickup":true,"canDropoff":false,"openingstijden":null}},{"type":"Feature","geometry":{"type":"Point","coordinates":[7.48551,44.5637]},"properties":{"type":"pakketpunt","locatieNaam":"Ufficio Postale COSTIGLIOLE SALUZZO","straatNaam":"VIA VITTORIO VENETO 118","straatNr":"","vervoerder":"Amazon","puntType":"3p","bezettingsgraad":50,"latitude":44.5637,"longitude":7.48551,"canPickup":true,"canDropoff":false,"openingstijden":null}},{"type":"Feature","geometry":{"type":"Polygon","coordinates":[[[7.4506965,44.5546615],[7.4541764,44.5558841],[7.4619857,44.558015],[7.4643956,44.5587181],[7.4648058,44.5589487],[7.4767714,44.5705373],[7.4791618,44.5733599],[7.4859486,44.5760067],[7.5047734,44.581089],[7.5137827,44.5834302],[7.5226798,44.584761],[7.5262537,44.5848972],[7.5270882,44.5820317],[7.5274728,44.5796466],[7.527212,44.5737467],[7.5267338,44.5717375],[7.5240496,44.5666526],[7.5226336,44.5662697],[7.5187703,44.5654995],[7.5165886,44.5651786],[7.5157628,44.5642901],[7.5153577,44.5636142],[7.5144922,44.5611183],[7.5116435,44.5523175],[7.5098395,44.5528791],[7.5027623,44.5539298],[7.4932226,44.5537953],[7.4917942,44.552066],[7.4913351,44.5513218],[7.4903603,44.5490943],[7.4898693,44.5476385],[7.4885178,44.545379],[7.4877744,44.5444329],[7.4825806,44.5427886],[7.4795113,44.5422257],[7.4781431,44.5420814],[7.4717745,44.5434997],[7.4703105,44.5441283],[7.4697464,44.5445168],[7.4690218,44.5447862],[7.4626055,44.5456092],[7.4619129,44.5456179],[7.458004,44.5439628],[7.4542237,44.5417331],[7.4506965,44.5546615]]]},"properties":{"type":"boundary","gemeente":"Costigliole Saluzzo"}}]}