{"type":"FeatureCollection","metadata":{"gemeente":"Crespino","slug":"crespino","generated_at":"2026-09-26T14:27:15.782656Z","total_points":3,"providers":["PosteItaliane","DHL","Amazon"],"bounds":[11.8852,44.9835,11.885256,44.98352434]},"features":[{"type":"Feature","geometry":{"type":"Point","coordinates":[11.88525593,44.98352434]},"properties":{"type":"pakketpunt","locatieNaam":"Crespino","straatNaam":"Via Guglielmo Marconi","straatNr":"1","vervoerder":"PosteItaliane","puntType":"postkantoor","bezettingsgraad":50,"latitude":44.98352434,"longitude":11.88525593,"canPickup":true,"canDropoff":true,"openingstijden":{"za":"08:20 - 12:45","zo":"gesloten","ma":"08:20 - 13:45","di":"08:20 - 13:45","wo":"08:20 - 13:45","do":"08:20 - 13:45","vr":"08:20 - 13:45"}}},{"type":"Feature","geometry":{"type":"Point","coordinates":[11.885256,44.983524]},"properties":{"type":"pakketpunt","locatieNaam":"Ufficio Postale CRESPINO","straatNaam":"VIA GUGLIELMO MARCONI 1","straatNr":"","vervoerder":"DHL","puntType":"postOffice","bezettingsgraad":50,"latitude":44.983524,"longitude":11.885256,"canPickup":true,"canDropoff":true,"openingstijden":{"ma":"08:20 - 13:45","di":"08:20 - 13:45","wo":"08:20 - 13:45","do":"08:20 - 13:45","vr":"08:20 - 13:45","za":"08:20 - 12:45","zo":"gesloten"}}},{"type":"Feature","geometry":{"type":"Point","coordinates":[11.8852,44.9835]},"properties":{"type":"pakketpunt","locatieNaam":"Ufficio Postale CRESPINO","straatNaam":"VIA GUGLIELMO MARCONI 1","straatNr":"","vervoerder":"Amazon","puntType":"3p","bezettingsgraad":50,"latitude":44.9835,"longitude":11.8852,"canPickup":true,"canDropoff":false,"openingstijden":null}},{"type":"Feature","geometry":{"type":"Polygon","coordinates":[[[11.8355558,45.0128886],[11.8358113,45.0131435],[11.8364531,45.0135044],[11.8551402,45.0212558],[11.8584762,45.0220273],[11.868808,45.0238599],[11.8734456,45.0248561],[11.8776548,45.0258624],[11.8853549,45.0273892],[11.886676,45.027852],[11.8911429,45.0298215],[11.8918456,45.0273088],[11.8938527,45.0184564],[11.8940405,45.0179183],[11.8990615,45.0187687],[11.9017899,45.0118157],[11.9049602,45.0121922],[11.9071341,45.0123401],[11.9096708,45.0122246],[11.9148693,45.0123459],[11.9156683,45.0123001],[11.9162048,45.0113871],[11.916047,45.0099595],[11.9158171,45.0093503],[11.9162004,45.0085037],[11.9164968,45.0081835],[11.9168394,45.0079328],[11.9177404,45.0074863],[11.9189687,45.0073239],[11.919702,45.0069321],[11.9200137,45.0066317],[11.9208413,45.0064189],[11.9214672,45.0061509],[11.9222712,45.0060295],[11.9226062,45.00591],[11.9227541,45.0057449],[11.923044,45.0047393],[11.9230211,45.0045685],[11.9225726,45.003854],[11.9226494,45.0034085],[11.9233156,45.0028168],[11.923541,45.0024985],[11.9238374,45.0013415],[11.9246368,45.0005749],[11.9253219,45.0003557],[11.9253999,45.0002125],[11.9254703,44.9993638],[11.9261402,44.9983525],[11.9263658,44.9978341],[11.9268688,44.9971536],[11.9273032,44.9961172],[11.9265019,44.9958874],[11.9272101,44.9929724],[11.9274214,44.992502],[11.9282786,44.9918481],[11.928494,44.9914611],[11.9285872,44.9909819],[11.9284935,44.9898041],[11.9282451,44.9882249],[11.9282733,44.9874612],[11.9280483,44.9860126],[11.9278945,44.9843117],[11.9282734,44.9838371],[11.9285338,44.9833416],[11.9289202,44.9823542],[11.9288799,44.982224],[11.9275665,44.9811729],[11.9271565,44.9807066],[11.9269867,44.9803414],[11.9267312,44.9789532],[11.9269237,44.9747412],[11.9233833,44.9745051],[11.9122819,44.9754164],[11.9071728,44.9763953],[11.9031169,44.9774111],[11.8995308,44.9778636],[11.8964073,44.977833],[11.8949866,44.977759],[11.8937371,44.9775707],[11.8877652,44.9761504],[11.8853968,44.9757231],[11.8831312,44.9751361],[11.8795427,44.9746609],[11.8770293,44.9742065],[11.8740516,44.9753187],[11.8627778,44.974564],[11.8546246,44.9729993],[11.8491404,44.9723296],[11.8437401,44.97244],[11.8386759,44.9727855],[11.8373247,44.9774884],[11.8386013,44.977771],[11.8387501,44.9774949],[11.8393921,44.9776362],[11.8392649,44.9779765],[11.8398351,44.9782331],[11.8388835,44.9800302],[11.8392801,44.980289],[11.8399887,44.9809542],[11.8407758,44.9814602],[11.8399248,44.9833355],[11.8397684,44.9837587],[11.8397915,44.9839258],[11.8402446,44.9844282],[11.8407506,44.9848035],[11.8410187,44.9854467],[11.842122,44.9871487],[11.8420778,44.9877473],[11.843583,44.9877203],[11.8448779,44.9879186],[11.8450395,44.988795],[11.8467556,44.9900415],[11.8467823,44.990282],[11.8464282,44.9929742],[11.8465261,44.9931605],[11.8468646,44.993435],[11.8474095,44.9948889],[11.8477258,44.9953107],[11.8480325,44.9967286],[11.8479054,44.9973003],[11.8478679,44.99815],[11.8478814,44.9989608],[11.8479625,44.9991128],[11.847701,44.9999536],[11.8467472,45.0016664],[11.8415712,45.0116812],[11.8409586,45.0118041],[11.83781,45.0120977],[11.8355558,45.0128886]]]},"properties":{"type":"boundary","gemeente":"Crespino"}}]}