{"type":"FeatureCollection","metadata":{"gemeente":"Deliceto","slug":"deliceto","generated_at":"2026-09-26T14:27:16.586298Z","total_points":9,"providers":["PosteItaliane","DPD","GLS","DHL","Amazon","FedEx"],"bounds":[15.382790708004004,41.2192987721913,15.385686,41.22334]},"features":[{"type":"Feature","geometry":{"type":"Point","coordinates":[15.38568599,41.2233399]},"properties":{"type":"pakketpunt","locatieNaam":"Deliceto","straatNaam":"Vico I Sant'antonio","straatNr":"6","vervoerder":"PosteItaliane","puntType":"postkantoor","bezettingsgraad":50,"latitude":41.2233399,"longitude":15.38568599,"canPickup":true,"canDropoff":true,"openingstijden":{"za":"08:20 - 12:35","zo":"gesloten","ma":"08:20 - 13:35","di":"08:20 - 13:35","wo":"08:20 - 13:35","do":"08:20 - 13:35","vr":"08:20 - 13:35"}}},{"type":"Feature","geometry":{"type":"Point","coordinates":[15.38494876,41.22170353]},"properties":{"type":"pakketpunt","locatieNaam":"Tabaccheria N. 2","straatNaam":"Via Martiri Ungheresi","straatNr":"4","vervoerder":"PosteItaliane","puntType":"servicepunt","bezettingsgraad":50,"latitude":41.22170353,"longitude":15.38494876,"canPickup":true,"canDropoff":true,"openingstijden":{"za":"06:30 - 13:00, 16:30 - 20:30","zo":"gesloten","ma":"06:30 - 13:00, 16:30 - 20:30","di":"06:30 - 13:00, 16:30 - 20:30","wo":"06:30 - 13:00, 16:30 - 20:30","do":"06:30 - 13:00, 16:30 - 20:30","vr":"06:30 - 13:00, 16:30 - 20:30"}}},{"type":"Feature","geometry":{"type":"Point","coordinates":[15.3827916,41.2193053]},"properties":{"type":"pakketpunt","locatieNaam":"Antoniodotomyshop.com","straatNaam":"VIA FONTANA","straatNr":"154","vervoerder":"DPD","puntType":"pickup_point","bezettingsgraad":50,"latitude":41.2193053,"longitude":15.3827916,"canPickup":true,"canDropoff":true,"openingstijden":{"ma":"09:00 - 13:00, 17:00 - 20:00","di":"09:00 - 13:00, 17:00 - 20:00","wo":"09:00 - 13:00, 17:00 - 20:00","do":"09:00 - 13:00, 17:00 - 20:00","vr":"09:00 - 13:00, 17:00 - 20:00","za":"09:00 - 13:00, 17:00 - 20:00","zo":"gesloten"}}},{"type":"Feature","geometry":{"type":"Point","coordinates":[15.3827916,41.2193053]},"properties":{"type":"pakketpunt","locatieNaam":"antoniodotomyshop.com","straatNaam":"Via Fontana","straatNr":"154","vervoerder":"GLS","puntType":"parcel_shop","bezettingsgraad":50,"latitude":41.2193053,"longitude":15.3827916,"canPickup":true,"canDropoff":true,"openingstijden":"za: 09:00 - 13:00; ma: 09:00 - 13:00, 16:00 - 20:00"}},{"type":"Feature","geometry":{"type":"Point","coordinates":[15.384949,41.221704]},"properties":{"type":"pakketpunt","locatieNaam":"TABACCHERIA N. 2","straatNaam":"VIA MARTIRI UNGHERESI 4","straatNr":"","vervoerder":"DHL","puntType":"parcelShop","bezettingsgraad":50,"latitude":41.221704,"longitude":15.384949,"canPickup":true,"canDropoff":true,"openingstijden":{"ma":"06:30 - 13:00, 16:30 - 20:30","di":"06:30 - 13:00, 16:30 - 20:30","wo":"06:30 - 13:00, 16:30 - 20:30","do":"06:30 - 13:00, 16:30 - 20:30","vr":"06:30 - 13:00, 16:30 - 20:30","za":"06:30 - 13:00, 16:30 - 20:30","zo":"gesloten"}}},{"type":"Feature","geometry":{"type":"Point","coordinates":[15.385686,41.22334]},"properties":{"type":"pakketpunt","locatieNaam":"Ufficio Postale DELICETO","straatNaam":"VICO I SANTANTONIO 6","straatNr":"","vervoerder":"DHL","puntType":"postOffice","bezettingsgraad":50,"latitude":41.22334,"longitude":15.385686,"canPickup":true,"canDropoff":true,"openingstijden":{"ma":"08:20 - 13:35","di":"08:20 - 13:35","wo":"08:20 - 13:35","do":"08:20 - 13:35","vr":"08:20 - 13:35","za":"08:20 - 12:35","zo":"gesloten"}}},{"type":"Feature","geometry":{"type":"Point","coordinates":[15.3827916,41.2193053]},"properties":{"type":"pakketpunt","locatieNaam":"Amazon Counter","straatNaam":"Antoniodotomyshop.com (fermopoint)","straatNr":"","vervoerder":"Amazon","puntType":"helix","bezettingsgraad":50,"latitude":41.2193053,"longitude":15.3827916,"canPickup":true,"canDropoff":false,"openingstijden":null}},{"type":"Feature","geometry":{"type":"Point","coordinates":[15.3849,41.2217]},"properties":{"type":"pakketpunt","locatieNaam":"PuntoPoste TABACCHERIA N. 2","straatNaam":"VIA MARTIRI UNGHERESI 4","straatNr":"","vervoerder":"Amazon","puntType":"3p","bezettingsgraad":50,"latitude":41.2217,"longitude":15.3849,"canPickup":true,"canDropoff":false,"openingstijden":null}},{"type":"Feature","geometry":{"type":"Point","coordinates":[15.382790708004004,41.2192987721913]},"properties":{"type":"pakketpunt","locatieNaam":"FedEx OnSite","straatNaam":"via fontana, 154","straatNr":"","vervoerder":"FedEx","puntType":"servicepunt","bezettingsgraad":50,"latitude":41.2192987721913,"longitude":15.382790708004004,"canPickup":true,"canDropoff":true,"openingstijden":{"ma":"09:00 - 13:00, 16:00 - 20:00","di":"09:00 - 13:00, 16:00 - 20:00","wo":"09:00 - 13:00, 16:00 - 20:00","do":"09:00 - 13:00, 16:00 - 20:00","vr":"09:00 - 13:00, 16:00 - 20:00","za":"09:00 - 13:00","zo":"gesloten"}}},{"type":"Feature","geometry":{"type":"Polygon","coordinates":[[[15.3572195,41.2167676],[15.3574743,41.2153353],[15.357717,41.2097011],[15.3576565,41.2092634],[15.3575356,41.2089461],[15.3572228,41.2085404],[15.3561919,41.2075445],[15.354776,41.2059039],[15.3536789,41.2040026],[15.3535927,41.2034989],[15.3536987,41.20298],[15.3549146,41.198498],[15.3552793,41.1976137],[15.3584814,41.1943536],[15.3597625,41.1932295],[15.3607006,41.192507],[15.3623802,41.1920358],[15.3630959,41.1919517],[15.3636614,41.1930724],[15.3640218,41.1934169],[15.3643784,41.1936221],[15.3649057,41.1938989],[15.3655888,41.194131],[15.3668649,41.1944426],[15.3840088,41.1960367],[15.3899548,41.1949091],[15.390394,41.1944121],[15.3907817,41.1937605],[15.3908884,41.193489],[15.3908499,41.1929422],[15.3910021,41.1924792],[15.3915123,41.1920997],[15.3972948,41.1904047],[15.3999889,41.189899],[15.4177024,41.1874061],[15.4294209,41.1886308],[15.4304946,41.1888271],[15.4459061,41.1895594],[15.4472933,41.1886444],[15.4481168,41.1883191],[15.451774,41.1879604],[15.453042,41.1880646],[15.4765877,41.1945898],[15.4673392,41.2037789],[15.4664237,41.2056756],[15.4675898,41.2120224],[15.4691015,41.2117166],[15.4758055,41.2099792],[15.4816234,41.208188],[15.481956,41.2191853],[15.4803127,41.2294438],[15.47881,41.2491309],[15.4817522,41.2516736],[15.4944308,41.2615672],[15.4931606,41.263012],[15.4472909,41.280056],[15.433668,41.271829],[15.4214806,41.262963],[15.4089705,41.2552928],[15.3946891,41.248539],[15.3784428,41.2397415],[15.376143,41.2383439],[15.3748018,41.2373294],[15.3676841,41.2297326],[15.3669947,41.2282858],[15.3591747,41.2185718],[15.3583213,41.217557],[15.3577951,41.2171092],[15.3572195,41.2167676]]]},"properties":{"type":"boundary","gemeente":"Deliceto"}}]}