{"type":"FeatureCollection","metadata":{"gemeente":"Dignano / Dignan","slug":"dignano-dignan","generated_at":"2026-09-26T13:09:54.750948Z","total_points":7,"providers":["PosteItaliane","DHL","Amazon"],"bounds":[12.9372,46.0852,12.95746553,46.12057831]},"features":[{"type":"Feature","geometry":{"type":"Point","coordinates":[12.9374281,46.085569]},"properties":{"type":"pakketpunt","locatieNaam":"Dignano","straatNaam":"Via San Gallo","straatNr":"2","vervoerder":"PosteItaliane","puntType":"postkantoor","bezettingsgraad":50,"latitude":46.085569,"longitude":12.9374281,"canPickup":true,"canDropoff":true,"openingstijden":{"za":"08:20 - 12:45","zo":"gesloten","ma":"08:20 - 13:45","di":"08:20 - 13:45","wo":"08:20 - 13:45","do":"08:20 - 13:45","vr":"08:20 - 13:45"}}},{"type":"Feature","geometry":{"type":"Point","coordinates":[12.95746553,46.12057831]},"properties":{"type":"pakketpunt","locatieNaam":"Carpacco","straatNaam":"Via Giacinto Pasini","straatNr":"5","vervoerder":"PosteItaliane","puntType":"postkantoor","bezettingsgraad":50,"latitude":46.12057831,"longitude":12.95746553,"canPickup":true,"canDropoff":true,"openingstijden":{"za":"08:20 - 12:45","zo":"gesloten","ma":"gesloten","di":"gesloten","wo":"gesloten","do":"08:20 - 13:45","vr":"gesloten"}}},{"type":"Feature","geometry":{"type":"Point","coordinates":[12.93728192,46.0852316]},"properties":{"type":"pakketpunt","locatieNaam":"Tabaccheria N. 1","straatNaam":"Via Giovanni Xxiii","straatNr":"2","vervoerder":"PosteItaliane","puntType":"servicepunt","bezettingsgraad":50,"latitude":46.0852316,"longitude":12.93728192,"canPickup":true,"canDropoff":true,"openingstijden":{"za":"07:00 - 20:00","zo":"gesloten","ma":"07:00 - 12:30, 14:30 - 19:30","di":"07:00 - 12:30, 14:30 - 19:30","wo":"07:00 - 12:30, 14:30 - 19:30","do":"07:00 - 12:30, 14:30 - 19:30","vr":"07:00 - 12:30, 14:30 - 19:30"}}},{"type":"Feature","geometry":{"type":"Point","coordinates":[12.937282,46.085232]},"properties":{"type":"pakketpunt","locatieNaam":"TABACCHERIA N. 1","straatNaam":"VIA GIOVANNI XXIII 2","straatNr":"","vervoerder":"DHL","puntType":"parcelShop","bezettingsgraad":50,"latitude":46.085232,"longitude":12.937282,"canPickup":true,"canDropoff":true,"openingstijden":{"ma":"07:00 - 12:30, 14:30 - 19:30","di":"07:00 - 12:30, 14:30 - 19:30","wo":"07:00 - 12:30, 14:30 - 19:30","do":"07:00 - 12:30, 14:30 - 19:30","vr":"07:00 - 12:30, 14:30 - 19:30","za":"07:00 - 20:00","zo":"gesloten"}}},{"type":"Feature","geometry":{"type":"Point","coordinates":[12.937428,46.085569]},"properties":{"type":"pakketpunt","locatieNaam":"Ufficio Postale DIGNANO","straatNaam":"VIA SAN GALLO 2","straatNr":"","vervoerder":"DHL","puntType":"postOffice","bezettingsgraad":50,"latitude":46.085569,"longitude":12.937428,"canPickup":true,"canDropoff":true,"openingstijden":{"ma":"08:20 - 13:45","di":"08:20 - 13:45","wo":"08:20 - 13:45","do":"08:20 - 13:45","vr":"08:20 - 13:45","za":"08:20 - 12:45","zo":"gesloten"}}},{"type":"Feature","geometry":{"type":"Point","coordinates":[12.9374,46.0855]},"properties":{"type":"pakketpunt","locatieNaam":"Ufficio Postale DIGNANO","straatNaam":"VIA SAN GALLO 2","straatNr":"","vervoerder":"Amazon","puntType":"3p","bezettingsgraad":50,"latitude":46.0855,"longitude":12.9374,"canPickup":true,"canDropoff":false,"openingstijden":null}},{"type":"Feature","geometry":{"type":"Point","coordinates":[12.9372,46.0852]},"properties":{"type":"pakketpunt","locatieNaam":"PuntoPoste TABACCHERIA N. 1","straatNaam":"VIA GIOVANNI XXIII 2","straatNr":"","vervoerder":"Amazon","puntType":"3p","bezettingsgraad":50,"latitude":46.0852,"longitude":12.9372,"canPickup":true,"canDropoff":false,"openingstijden":null}},{"type":"Feature","geometry":{"type":"Polygon","coordinates":[[[12.9179625,46.0605261],[12.9233858,46.0605539],[12.9290121,46.0604398],[12.9315235,46.0605667],[12.9318737,46.0607212],[12.9327083,46.0607109],[12.9330694,46.060586],[12.9334525,46.0608119],[12.9334614,46.0604976],[12.934774,46.0608342],[12.9347701,46.0611548],[12.9348668,46.0611878],[12.9366017,46.061519],[12.9395902,46.0617639],[12.9424204,46.062449],[12.9431292,46.0624438],[12.9455116,46.0620695],[12.9458303,46.0620878],[12.9480636,46.0625079],[12.9480188,46.0626897],[12.9493136,46.0630002],[12.9521942,46.0639521],[12.9538496,46.0643874],[12.9554236,46.064758],[12.9554021,46.0645542],[12.9573479,46.0654653],[12.9578371,46.0655216],[12.9589093,46.065316],[12.9595756,46.0653408],[12.9667802,46.067118],[12.9672899,46.0710309],[12.9727607,46.0711528],[12.9780051,46.0715084],[12.9786113,46.075777],[12.9781928,46.0758142],[12.9789814,46.0817847],[12.9722759,46.0822592],[12.9725672,46.084161],[12.9716283,46.0859651],[12.9723688,46.0861402],[12.9725224,46.0858806],[12.9727367,46.085941],[12.9715972,46.088101],[12.9716231,46.0886174],[12.9724668,46.0886952],[12.9726252,46.088566],[12.9751189,46.0895194],[12.9743917,46.0902742],[12.9737655,46.0913122],[12.9731756,46.0925859],[12.9730525,46.0933221],[12.9731779,46.0944655],[12.9731016,46.0948381],[12.9718209,46.0972647],[12.9708354,46.0997924],[12.9703443,46.1008013],[12.9701559,46.1021275],[12.9700566,46.102382],[12.9691104,46.1034044],[12.9686909,46.1040195],[12.9683169,46.1044076],[12.9691221,46.1042482],[12.969265,46.1045761],[12.9695595,46.1044304],[12.969805,46.1045505],[12.9704508,46.1049871],[12.9710782,46.1059011],[12.9723549,46.1055259],[12.9723551,46.1056651],[12.9721897,46.1058543],[12.9728115,46.1063084],[12.97342,46.1075443],[12.9741392,46.1073075],[12.9743852,46.1077129],[12.974751,46.1087208],[12.9748608,46.1088038],[12.9755759,46.1085716],[12.9765924,46.1102814],[12.9779823,46.1099129],[12.9781913,46.110282],[12.9786873,46.1116484],[12.9792063,46.1115334],[12.9796101,46.1120824],[12.9805144,46.1130091],[12.9817751,46.1139153],[12.9821068,46.1140331],[12.9833198,46.1140879],[12.9840137,46.1153392],[12.9845278,46.1168862],[12.9850207,46.1175851],[12.9856558,46.1188118],[12.9857561,46.119136],[12.9858624,46.1203596],[12.9836886,46.120459],[12.9818004,46.1201449],[12.9767595,46.1197991],[12.9740895,46.1198647],[12.974503,46.1204013],[12.9741285,46.1220362],[12.9741281,46.1222891],[12.9745012,46.122388],[12.9743658,46.122726],[12.9726744,46.1225347],[12.9726712,46.1227891],[12.972992,46.1231048],[12.9724452,46.1231882],[12.9702447,46.1232542],[12.9706933,46.1240093],[12.9707458,46.1247947],[12.9704122,46.1249011],[12.9695291,46.1251135],[12.9686976,46.125153],[12.9683999,46.1250891],[12.965818,46.1252585],[12.9664384,46.125902],[12.9670796,46.1270495],[12.9666952,46.1270426],[12.9640401,46.1274109],[12.9635905,46.1273609],[12.9623321,46.1274357],[12.9601987,46.1276667],[12.9602108,46.1281228],[12.9580731,46.1282792],[12.9569558,46.1286911],[12.9559525,46.1288911],[12.9546578,46.1285596],[12.9522052,46.1287255],[12.9495278,46.1290666],[12.9493847,46.1291639],[12.9364307,46.1311782],[12.9360365,46.1290693],[12.9354138,46.1278416],[12.9354721,46.1244252],[12.935309,46.1241271],[12.9353279,46.1238483],[12.9333151,46.1211662],[12.9327991,46.119618],[12.9319361,46.117939],[12.9320794,46.1172555],[12.9315668,46.1157899],[12.9319101,46.1150131],[12.9312192,46.1143479],[12.9314794,46.1128412],[12.9301692,46.1094683],[12.9297854,46.1070179],[12.9264938,46.1002108],[12.9271686,46.0980195],[12.9269715,46.0977258],[12.9268838,46.0972925],[12.9273465,46.0911562],[12.9244093,46.0864244],[12.9231943,46.0850115],[12.9229578,46.0844639],[12.9231436,46.0837689],[12.9218485,46.0828963],[12.9196386,46.0823022],[12.9182822,46.0800324],[12.9181354,46.0787531],[12.9174577,46.078289],[12.9169303,46.0775416],[12.9168337,46.0770339],[12.9168775,46.0741177],[12.9165843,46.0699359],[12.9170103,46.0694383],[12.9169373,46.0685246],[12.9165712,46.0682433],[12.9162296,46.0652425],[12.9168252,46.0639718],[12.916138,46.0629707],[12.9167525,46.0619301],[12.9178336,46.0610412],[12.9179625,46.0605261]]]},"properties":{"type":"boundary","gemeente":"Dignano / Dignan"}}]}