{"type":"FeatureCollection","metadata":{"gemeente":"Dogliani","slug":"dogliani","generated_at":"2026-09-26T14:27:16.903896Z","total_points":18,"providers":["PosteItaliane","DPD","GLS","DHL","Amazon","FedEx"],"bounds":[7.94575,44.530424,7.94793316,44.53341]},"features":[{"type":"Feature","geometry":{"type":"Point","coordinates":[7.94592664,44.53231792]},"properties":{"type":"pakketpunt","locatieNaam":"Dogliani","straatNaam":"Largo Delfino Orsi","straatNr":"3","vervoerder":"PosteItaliane","puntType":"postkantoor","bezettingsgraad":50,"latitude":44.53231792,"longitude":7.94592664,"canPickup":true,"canDropoff":true,"openingstijden":{"za":"08:20 - 12:35","zo":"gesloten","ma":"08:20 - 13:35","di":"08:20 - 13:35","wo":"08:20 - 13:35","do":"08:20 - 13:35","vr":"08:20 - 13:35"}}},{"type":"Feature","geometry":{"type":"Point","coordinates":[7.94575498,44.53083417]},"properties":{"type":"pakketpunt","locatieNaam":"Tabaccheria N. 4","straatNaam":"Piazza Umberto I","straatNr":"16","vervoerder":"PosteItaliane","puntType":"servicepunt","bezettingsgraad":50,"latitude":44.53083417,"longitude":7.94575498,"canPickup":true,"canDropoff":true,"openingstijden":{"za":"07:30 - 12:30, 15:00 - 19:30","zo":"07:30 - 12:00","ma":"07:30 - 12:30, 15:00 - 19:30","di":"07:30 - 12:30, 15:00 - 19:30","wo":"07:30 - 12:30, 15:00 - 19:30","do":"07:30 - 12:30, 15:00 - 19:30","vr":"07:30 - 12:30, 15:00 - 19:30"}}},{"type":"Feature","geometry":{"type":"Point","coordinates":[7.94793316,44.5330996]},"properties":{"type":"pakketpunt","locatieNaam":"Spazio Enel Partner Dogliani","straatNaam":"Via Ghigliano","straatNr":"29","vervoerder":"PosteItaliane","puntType":"servicepunt","bezettingsgraad":50,"latitude":44.5330996,"longitude":7.94793316,"canPickup":true,"canDropoff":true,"openingstijden":{"za":"gesloten","zo":"gesloten","ma":"09:00 - 17:00","di":"09:00 - 17:00","wo":"09:00 - 17:00","do":"09:00 - 17:00","vr":"09:00 - 13:00, 14:00 - 17:00"}}},{"type":"Feature","geometry":{"type":"Point","coordinates":[7.94598147,44.53293806]},"properties":{"type":"pakketpunt","locatieNaam":"Tabaccheria N. 7","straatNaam":"Piazza Stazione","straatNr":"4","vervoerder":"PosteItaliane","puntType":"servicepunt","bezettingsgraad":50,"latitude":44.53293806,"longitude":7.94598147,"canPickup":true,"canDropoff":true,"openingstijden":{"za":"07:00 - 12:30, 15:30 - 19:30","zo":"gesloten","ma":"07:00 - 12:30, 15:30 - 19:30","di":"07:00 - 12:30, 15:30 - 19:30","wo":"07:00 - 12:30, 15:30 - 19:30","do":"07:00 - 12:30, 15:30 - 19:30","vr":"07:00 - 12:30, 15:30 - 19:30"}}},{"type":"Feature","geometry":{"type":"Point","coordinates":[7.947761,44.533267]},"properties":{"type":"pakketpunt","locatieNaam":"Spazio Enel-Dogliani","straatNaam":"VIA GHIGLIANO","straatNr":"29","vervoerder":"DPD","puntType":"pickup_point","bezettingsgraad":50,"latitude":44.533267,"longitude":7.947761,"canPickup":false,"canDropoff":true,"openingstijden":{"ma":"09:00 - 17:00","di":"09:00 - 17:00","wo":"09:00 - 17:00","do":"09:00 - 17:00","vr":"14:00 - 17:00","za":"gesloten","zo":"gesloten"}}},{"type":"Feature","geometry":{"type":"Point","coordinates":[7.94773,44.53341]},"properties":{"type":"pakketpunt","locatieNaam":"ENEL","straatNaam":"Via Ghigliano","straatNr":"29","vervoerder":"GLS","puntType":"parcel_shop","bezettingsgraad":50,"latitude":44.53341,"longitude":7.94773,"canPickup":true,"canDropoff":true,"openingstijden":"ma: 09:00 - 17:00; di: 09:00 - 17:00"}},{"type":"Feature","geometry":{"type":"Point","coordinates":[7.945755,44.530834]},"properties":{"type":"pakketpunt","locatieNaam":"TABACCHERIA N. 4","straatNaam":"PIAZZA UMBERTO I 16","straatNr":"","vervoerder":"DHL","puntType":"parcelShop","bezettingsgraad":50,"latitude":44.530834,"longitude":7.945755,"canPickup":true,"canDropoff":true,"openingstijden":{"ma":"07:30 - 12:30, 15:00 - 19:30","di":"07:30 - 12:30, 15:00 - 19:30","wo":"07:30 - 12:30, 15:00 - 19:30","do":"07:30 - 12:30, 15:00 - 19:30","vr":"07:30 - 12:30, 15:00 - 19:30","za":"07:30 - 12:30, 15:00 - 19:30","zo":"07:30 - 12:00"}}},{"type":"Feature","geometry":{"type":"Point","coordinates":[7.945927,44.532318]},"properties":{"type":"pakketpunt","locatieNaam":"Ufficio Postale DOGLIANI","straatNaam":"LARGO DELFINO ORSI 3","straatNr":"","vervoerder":"DHL","puntType":"postOffice","bezettingsgraad":50,"latitude":44.532318,"longitude":7.945927,"canPickup":true,"canDropoff":true,"openingstijden":{"ma":"08:20 - 13:35","di":"08:20 - 13:35","wo":"08:20 - 13:35","do":"08:20 - 12:00","vr":"08:20 - 13:35","za":"08:20 - 12:35","zo":"gesloten"}}},{"type":"Feature","geometry":{"type":"Point","coordinates":[7.947933,44.5331]},"properties":{"type":"pakketpunt","locatieNaam":"SPAZIO ENEL PARTNER DOGLIANI","straatNaam":"VIA GHIGLIANO 29","straatNr":"","vervoerder":"DHL","puntType":"parcelShop","bezettingsgraad":50,"latitude":44.5331,"longitude":7.947933,"canPickup":true,"canDropoff":true,"openingstijden":{"ma":"09:00 - 17:00","di":"09:00 - 17:00","wo":"09:00 - 17:00","do":"09:00 - 17:00","vr":"09:00 - 13:00, 14:00 - 17:00","za":"gesloten","zo":"gesloten"}}},{"type":"Feature","geometry":{"type":"Point","coordinates":[7.9478,44.53311]},"properties":{"type":"pakketpunt","locatieNaam":"SPAZIO ENEL PARTNER CELADIN","straatNaam":"Ghigliano 29","straatNr":"","vervoerder":"DHL","puntType":"parcelShop","bezettingsgraad":50,"latitude":44.53311,"longitude":7.9478,"canPickup":false,"canDropoff":true,"openingstijden":{"ma":"09:00 - 17:00","di":"09:00 - 17:00","wo":"09:00 - 17:00","do":"09:00 - 17:00","vr":"14:00 - 17:00","za":"gesloten","zo":"gesloten"}}},{"type":"Feature","geometry":{"type":"Point","coordinates":[7.945981,44.532938]},"properties":{"type":"pakketpunt","locatieNaam":"TABACCHERIA N. 7","straatNaam":"PIAZZA STAZIONE 4","straatNr":"","vervoerder":"DHL","puntType":"parcelShop","bezettingsgraad":50,"latitude":44.532938,"longitude":7.945981,"canPickup":true,"canDropoff":true,"openingstijden":{"ma":"07:00 - 12:30, 15:30 - 19:30","di":"07:00 - 12:30, 15:30 - 19:30","wo":"07:00 - 12:30, 15:30 - 19:30","do":"07:00 - 12:30, 15:30 - 19:30","vr":"07:00 - 12:30, 15:30 - 19:30","za":"07:00 - 12:30, 15:30 - 19:30","zo":"gesloten"}}},{"type":"Feature","geometry":{"type":"Point","coordinates":[7.946605,44.532686]},"properties":{"type":"pakketpunt","locatieNaam":"Amazon Counter","straatNaam":"Tabaccheria Edicola Occelli-Solo Counter (fermopoint)","straatNr":"","vervoerder":"Amazon","puntType":"helix","bezettingsgraad":50,"latitude":44.532686,"longitude":7.946605,"canPickup":true,"canDropoff":false,"openingstijden":null}},{"type":"Feature","geometry":{"type":"Point","coordinates":[7.9478997,44.5330584]},"properties":{"type":"pakketpunt","locatieNaam":"Amazon Counter","straatNaam":"Spazio Enel-Dogliani (fermopoint)","straatNr":"","vervoerder":"Amazon","puntType":"helix","bezettingsgraad":50,"latitude":44.5330584,"longitude":7.9478997,"canPickup":true,"canDropoff":false,"openingstijden":null}},{"type":"Feature","geometry":{"type":"Point","coordinates":[7.94598,44.5329]},"properties":{"type":"pakketpunt","locatieNaam":"PuntoPoste TABACCHERIA N. 7","straatNaam":"PIAZZA STAZIONE 4","straatNr":"","vervoerder":"Amazon","puntType":"3p","bezettingsgraad":50,"latitude":44.5329,"longitude":7.94598,"canPickup":true,"canDropoff":false,"openingstijden":null}},{"type":"Feature","geometry":{"type":"Point","coordinates":[7.94575,44.5308]},"properties":{"type":"pakketpunt","locatieNaam":"PuntoPoste TABACCHERIA N. 4","straatNaam":"PIAZZA UMBERTO I 16","straatNr":"","vervoerder":"Amazon","puntType":"3p","bezettingsgraad":50,"latitude":44.5308,"longitude":7.94575,"canPickup":true,"canDropoff":false,"openingstijden":null}},{"type":"Feature","geometry":{"type":"Point","coordinates":[7.94592,44.5323]},"properties":{"type":"pakketpunt","locatieNaam":"Ufficio Postale DOGLIANI","straatNaam":"LARGO DELFINO ORSI 3","straatNr":"","vervoerder":"Amazon","puntType":"3p","bezettingsgraad":50,"latitude":44.5323,"longitude":7.94592,"canPickup":true,"canDropoff":false,"openingstijden":null}},{"type":"Feature","geometry":{"type":"Point","coordinates":[7.947891,44.530424]},"properties":{"type":"pakketpunt","locatieNaam":"FedEx OnSite","straatNaam":"PIAZZA CARLO ALBERTO 11","straatNr":"","vervoerder":"FedEx","puntType":"servicepunt","bezettingsgraad":50,"latitude":44.530424,"longitude":7.947891,"canPickup":true,"canDropoff":true,"openingstijden":{"ma":"08:00 - 12:30, 15:00 - 19:30","di":"08:00 - 12:30, 15:00 - 19:30","wo":"08:00 - 12:30, 15:00 - 19:30","do":"08:00 - 12:30, 15:00 - 19:30","vr":"08:00 - 12:30, 15:00 - 19:30","za":"08:00 - 12:30, 15:00 - 19:30","zo":"gesloten"}}},{"type":"Feature","geometry":{"type":"Point","coordinates":[7.947817946283688,44.53318505294346]},"properties":{"type":"pakketpunt","locatieNaam":"FedEx OnSite","straatNaam":"Via Ghigliano, 29","straatNr":"","vervoerder":"FedEx","puntType":"servicepunt","bezettingsgraad":50,"latitude":44.53318505294346,"longitude":7.947817946283688,"canPickup":true,"canDropoff":true,"openingstijden":{"ma":"09:00 - 17:00","di":"09:00 - 17:00","wo":"09:00 - 17:00","do":"09:00 - 17:00","vr":"14:00 - 17:00","za":"gesloten","zo":"gesloten"}}},{"type":"Feature","geometry":{"type":"Polygon","coordinates":[[[7.910962,44.5518051],[7.9118352,44.5540775],[7.9175609,44.5592542],[7.9184405,44.5599422],[7.9258728,44.5635413],[7.9265375,44.5637276],[7.9273504,44.5637532],[7.9281667,44.5636394],[7.9289772,44.5634939],[7.9293656,44.563322],[7.9299825,44.5628147],[7.9309052,44.5624497],[7.9325776,44.5621233],[7.9332784,44.5620803],[7.9345492,44.5622002],[7.9365233,44.5627452],[7.9412063,44.5644992],[7.9420558,44.5648537],[7.9429027,44.5655232],[7.9487942,44.5677831],[7.9506863,44.5678455],[7.9595134,44.5639743],[7.9715132,44.5599824],[7.972339,44.5599178],[7.9731821,44.5612488],[7.9742314,44.5633377],[7.974631,44.5636609],[7.9750387,44.5638626],[7.9754478,44.5638708],[7.9761611,44.5637647],[7.9792989,44.5629105],[7.9921909,44.5587714],[7.9924973,44.5584095],[7.9928969,44.5572563],[7.9908031,44.5535108],[7.9901659,44.5521863],[7.9927264,44.5499224],[7.9957359,44.5475227],[7.9980774,44.546373],[7.9984444,44.5464437],[8.0048627,44.5494346],[8.0070123,44.5505426],[8.0090003,44.5517707],[8.0157871,44.5535263],[8.0172597,44.5504647],[8.0119502,44.5492351],[8.0063478,44.5476561],[8.0042969,44.5469225],[8.0005861,44.5452652],[7.9959751,44.5407956],[7.987722,44.5293213],[7.9876979,44.5283983],[7.9878217,44.5280393],[7.9941009,44.5243858],[7.9995566,44.5210804],[7.9991505,44.5131952],[7.991547,44.5132724],[7.9867019,44.5122167],[7.9772473,44.5083019],[7.972377,44.5031493],[7.9721608,44.5030124],[7.9673504,44.5010154],[7.964345,44.5004571],[7.9638728,44.5001737],[7.9585596,44.4991351],[7.9559524,44.4991563],[7.9552611,44.5000998],[7.9279868,44.5260484],[7.925753,44.5271707],[7.9211239,44.528455],[7.9163817,44.5351438],[7.9127383,44.5449172],[7.9111887,44.5495882],[7.910962,44.5518051]]]},"properties":{"type":"boundary","gemeente":"Dogliani"}}]}