{"type":"FeatureCollection","metadata":{"gemeente":"Dogna / Dogne","slug":"dogna-dogne","generated_at":"2026-09-26T14:27:16.921990Z","total_points":1,"providers":["PosteItaliane"],"bounds":[13.31582079,46.4474369,13.31582079,46.4474369]},"features":[{"type":"Feature","geometry":{"type":"Point","coordinates":[13.31582079,46.4474369]},"properties":{"type":"pakketpunt","locatieNaam":"Dogna","straatNaam":"Via Roma","straatNr":"18","vervoerder":"PosteItaliane","puntType":"postkantoor","bezettingsgraad":50,"latitude":46.4474369,"longitude":13.31582079,"canPickup":true,"canDropoff":true,"openingstijden":{"za":"gesloten","zo":"gesloten","ma":"08:20 - 13:45","di":"gesloten","wo":"08:20 - 13:45","do":"gesloten","vr":"08:20 - 13:45"}}},{"type":"Feature","geometry":{"type":"MultiPolygon","coordinates":[[[[13.2419473,46.5080018],[13.2420952,46.5078509],[13.2431641,46.50789],[13.2443073,46.5077672],[13.2444296,46.5073483],[13.2452885,46.5056881],[13.2455183,46.5039582],[13.2459048,46.4991546],[13.245081,46.4986009],[13.2440587,46.4981343],[13.2425809,46.4979787],[13.2414865,46.4977571],[13.2404351,46.4970924],[13.2386112,46.4952607],[13.2372594,46.4947142],[13.2360577,46.4946846],[13.2345986,46.4950244],[13.2289552,46.4973435],[13.2285476,46.4984218],[13.2294059,46.4999727],[13.2293844,46.5007113],[13.2276034,46.5007851],[13.2287836,46.5010805],[13.2299852,46.5020258],[13.2320452,46.5026166],[13.2353067,46.5031778],[13.2365298,46.5031926],[13.2371092,46.503296],[13.2375169,46.5030449],[13.2383001,46.5028086],[13.2390189,46.5032369],[13.2392978,46.5060283],[13.2401132,46.5069883],[13.2411432,46.5077415],[13.2419473,46.5080018]]],[[[13.2484543,46.4680634],[13.2490932,46.4685122],[13.2494035,46.4690765],[13.2496748,46.469174],[13.2499455,46.4694268],[13.2504024,46.4694928],[13.2507792,46.4698064],[13.2518036,46.4702727],[13.2521205,46.470492],[13.2524633,46.4704662],[13.2533311,46.4706225],[13.2543262,46.4720054],[13.2544894,46.4719643],[13.2549307,46.4715296],[13.2550085,46.4713474],[13.2551632,46.4712939],[13.2553677,46.4713716],[13.255454,46.4716309],[13.2556292,46.4717765],[13.2557064,46.4720357],[13.2558081,46.4720933],[13.2570438,46.472426],[13.257734,46.4723651],[13.2580287,46.4730006],[13.2582522,46.4731905],[13.2584143,46.4740292],[13.2588186,46.4741938],[13.2589274,46.4747333],[13.2585911,46.4751198],[13.2586648,46.4756307],[13.2589528,46.4761915],[13.2598216,46.4764628],[13.2600755,46.4766843],[13.2603126,46.4767283],[13.2611479,46.477201],[13.2618517,46.477706],[13.2624614,46.4779203],[13.2629849,46.4784381],[13.2637151,46.4788222],[13.2637863,46.4792627],[13.2642971,46.4796421],[13.2650436,46.4797973],[13.2654421,46.4801961],[13.265521,46.4805936],[13.2654246,46.4807465],[13.2654994,46.4807931],[13.2661165,46.4808622],[13.2666879,46.4807761],[13.2671087,46.4799934],[13.2676579,46.479644],[13.2682253,46.4787232],[13.2684785,46.4785832],[13.2688649,46.4785645],[13.2693235,46.4781892],[13.2701076,46.4779556],[13.2708212,46.4773842],[13.2709437,46.4773614],[13.2716041,46.4778309],[13.2717204,46.4778431],[13.2723267,46.4777787],[13.2736525,46.4772691],[13.2744136,46.4772805],[13.2749215,46.477432],[13.2751854,46.4772747],[13.2753048,46.4771923],[13.275468,46.4768475],[13.2762868,46.4764777],[13.2779285,46.4752855],[13.278211,46.4750196],[13.2781794,46.4748964],[13.278632,46.474549],[13.2791896,46.4739296],[13.2800556,46.4735077],[13.2804647,46.4734157],[13.2808427,46.4731794],[13.2805931,46.472881],[13.2814978,46.471555],[13.2815689,46.4707494],[13.2832129,46.4709284],[13.2841295,46.4708334],[13.2846879,46.4706734],[13.2855079,46.4707454],[13.2863073,46.4706661],[13.2865834,46.4709263],[13.2870644,46.4711263],[13.287503,46.4715433],[13.2877675,46.4716911],[13.288672,46.4719816],[13.2894815,46.4720673],[13.2899096,46.4720142],[13.2908036,46.4724799],[13.2913994,46.47258],[13.2920499,46.4723416],[13.2924715,46.4718981],[13.293359,46.4714378],[13.2939568,46.4713101],[13.2940102,46.4710653],[13.2943968,46.4703907],[13.2943573,46.4700289],[13.2955238,46.4695693],[13.2966446,46.4694388],[13.2973359,46.4697331],[13.2978805,46.4698499],[13.2978587,46.4702213],[13.2995193,46.4713367],[13.3009117,46.4717748],[13.301663,46.4717719],[13.3023499,46.4718838],[13.3022248,46.4721554],[13.3032231,46.4722089],[13.3038172,46.4728559],[13.3052687,46.4735158],[13.3070508,46.4741593],[13.3077739,46.4742473],[13.3084324,46.4741307],[13.3096264,46.4737661],[13.3098195,46.4734323],[13.3100552,46.4736918],[13.3112556,46.4741058],[13.3117931,46.4741242],[13.3121357,46.4745361],[13.3124379,46.4746142],[13.3126453,46.4748031],[13.3130808,46.4746693],[13.3133923,46.4747756],[13.3137356,46.474672],[13.3147071,46.4747739],[13.3148194,46.474751],[13.3152414,46.4743535],[13.3153016,46.4742636],[13.3152671,46.4738984],[13.3154722,46.4738347],[13.3156005,46.4740441],[13.3156763,46.4749495],[13.3158525,46.4753273],[13.3161532,46.4756159],[13.3188439,46.4761079],[13.3215874,46.4769403],[13.3225636,46.4763132],[13.3283092,46.4781684],[13.3293741,46.4785382],[13.3308503,46.4794049],[13.3313693,46.4805242],[13.3319992,46.4813435],[13.3355306,46.4815809],[13.3368417,46.4815403],[13.337452,46.4825066],[13.3381286,46.4837965],[13.3398279,46.4841789],[13.3414007,46.4843841],[13.3434437,46.4851536],[13.3440823,46.485191],[13.3444259,46.4849118],[13.3456835,46.4842953],[13.3460324,46.4840021],[13.3472155,46.4834967],[13.3476244,46.483408],[13.3478062,46.4834422],[13.347823,46.4828848],[13.3481828,46.4817326],[13.3474082,46.4813251],[13.34704,46.4807411],[13.3470063,46.4802458],[13.3468471,46.4798709],[13.3463077,46.4794313],[13.3461621,46.4791358],[13.3458676,46.4788113],[13.3468779,46.4782833],[13.347536,46.4781633],[13.349843,46.4774535],[13.3504296,46.4771271],[13.3512567,46.4769191],[13.3518961,46.4765984],[13.3523361,46.4765583],[13.3534974,46.4766482],[13.3538624,46.4767439],[13.3541956,46.4766094],[13.3543772,46.4763358],[13.3545054,46.4763035],[13.3553032,46.4767182],[13.355687,46.4767775],[13.3558029,46.4769258],[13.3560349,46.4769756],[13.3576104,46.4768223],[13.3577001,46.4770142],[13.3581922,46.4771215],[13.3581991,46.4772462],[13.3582899,46.4772842],[13.3593799,46.477158],[13.3599398,46.4773616],[13.3617013,46.4771424],[13.3652292,46.4768922],[13.3664958,46.4765339],[13.3687924,46.4753373],[13.3693785,46.4752552],[13.3708737,46.4753034],[13.3716765,46.4748382],[13.3719886,46.4744564],[13.3724534,46.4742943],[13.3740268,46.4740869],[13.374811,46.4737706],[13.3750953,46.4737282],[13.3762911,46.4738478],[13.3771582,46.4738357],[13.3780896,46.4734456],[13.3789758,46.4733872],[13.379226,46.4733003],[13.3794654,46.4734047],[13.3798713,46.4733706],[13.3808413,46.4734699],[13.3822111,46.4738021],[13.3828673,46.4742245],[13.3835019,46.4744192],[13.3840051,46.4748687],[13.385243,46.4755999],[13.3875851,46.4764419],[13.3879194,46.4766203],[13.3883124,46.4769704],[13.3887589,46.477182],[13.3891248,46.4774952],[13.3896372,46.4777565],[13.3899661,46.4775192],[13.3926767,46.4769023],[13.3931238,46.4765003],[13.3934562,46.4763852],[13.393941,46.4760205],[13.3945299,46.4757232],[13.3959817,46.4756801],[13.3965954,46.4758646],[13.3969236,46.4757739],[13.3971006,46.4756517],[13.397248,46.4753287],[13.3983394,46.4744274],[13.3986783,46.4739726],[13.3991747,46.4738133],[13.3995973,46.4732742],[13.4005605,46.4727598],[13.4018654,46.4731397],[13.4025128,46.473139],[13.4035008,46.4734681],[13.4044968,46.4736482],[13.4048938,46.473864],[13.4057593,46.4737856],[13.4065337,46.4740383],[13.4066276,46.4733724],[13.4067638,46.4733107],[13.4080616,46.4733263],[13.4085822,46.4734313],[13.409041,46.4733448],[13.4091286,46.4732556],[13.4098676,46.4730263],[13.4110281,46.4727785],[13.4114234,46.4725664],[13.4123032,46.4726031],[13.4125679,46.4725041],[13.4138987,46.4726056],[13.4148018,46.4724471],[13.4156067,46.4726293],[13.4161828,46.4728939],[13.4168037,46.4733205],[13.4171845,46.4733649],[13.4172836,46.4737305],[13.41772,46.4739296],[13.4179581,46.4741382],[13.4180562,46.4744108],[13.417827,46.4747548],[13.4182305,46.4751147],[13.4193844,46.4757076],[13.4203589,46.476508],[13.4216032,46.4767892],[13.4220661,46.4770547],[13.4226052,46.4768861],[13.4232334,46.4769411],[13.4238355,46.4766732],[13.4265349,46.4758183],[13.42761,46.4755886],[13.4278396,46.4754769],[13.4279248,46.4753436],[13.4285952,46.47504],[13.4286934,46.4749436],[13.4287582,46.4746585],[13.4289656,46.4745856],[13.4300108,46.4745315],[13.4303791,46.4742701],[13.4316211,46.4742627],[13.4323684,46.4746054],[13.433005,46.474487],[13.4341616,46.474625],[13.4343686,46.4745594],[13.4345996,46.4740298],[13.4351639,46.4739666],[13.4352298,46.4738917],[13.4352886,46.4738094],[13.4352941,46.4732522],[13.4365689,46.4733307],[13.4371267,46.4734973],[13.4387467,46.4735096],[13.438964,46.4735761],[13.4392789,46.4739494],[13.4399214,46.4739949],[13.4406055,46.4739528],[13.4411818,46.4735916],[13.4418961,46.4734791],[13.4420192,46.4733831],[13.4422623,46.4729195],[13.4424476,46.4728731],[13.443673,46.4729534],[13.4448906,46.4731801],[13.4451166,46.4730684],[13.4469123,46.4731196],[13.4474121,46.4735835],[13.4482348,46.4737633],[13.4485563,46.4742784],[13.4485624,46.4744375],[13.4497498,46.4751061],[13.4517144,46.4754456],[13.4534276,46.4766591],[13.4537166,46.4766997],[13.454098,46.4765997],[13.45492,46.4761831],[13.455104,46.475555],[13.4557462,46.4748646],[13.4558757,46.4744166],[13.4561673,46.4742396],[13.4566575,46.4735423],[13.4568118,46.4729626],[13.4562908,46.4722468],[13.4561752,46.4717075],[13.4563542,46.4713776],[13.4565066,46.4707441],[13.4566807,46.4704678],[13.4574782,46.4699115],[13.4584219,46.4694403],[13.4596113,46.4680337],[13.4601739,46.467022],[13.4613598,46.4658624],[13.4626067,46.464789],[13.4612671,46.463627],[13.4607015,46.4628569],[13.4597203,46.4620322],[13.459202,46.4617221],[13.4573158,46.460257],[13.4549347,46.4577758],[13.4499241,46.4562489],[13.4480135,46.4557781],[13.4466476,46.4553049],[13.4391893,46.4531845],[13.4372925,46.446547],[13.4338639,46.4357601],[13.4338654,46.4353562],[13.4336188,46.4340751],[13.4337015,46.4331621],[13.4339361,46.4324663],[13.4340141,46.4317537],[13.4330988,46.4314943],[13.4326623,46.4314296],[13.4322756,46.431478],[13.4321643,46.4311787],[13.4315286,46.4307736],[13.4315024,46.4305802],[13.431643,46.4304843],[13.431692,46.4302552],[13.4313509,46.4300672],[13.4310731,46.4297751],[13.4307342,46.4297532],[13.4303669,46.4294965],[13.4299075,46.4288791],[13.4295649,46.4288671],[13.4285974,46.4286128],[13.4275378,46.4282337],[13.4268298,46.4281322],[13.4263206,46.4282651],[13.425939,46.4282347],[13.4255582,46.4279798],[13.4252419,46.4278968],[13.4250971,46.4276769],[13.4242172,46.4270069],[13.4235864,46.4262063],[13.4235222,46.4256114],[13.4233109,46.4254593],[13.4231397,46.4251442],[13.4231597,46.4250662],[13.4234566,46.4249407],[13.4234526,46.4248381],[13.4227652,46.4247723],[13.4213599,46.4249681],[13.4203426,46.4249442],[13.419157,46.424505],[13.4181493,46.4243934],[13.4169325,46.424037],[13.4163833,46.4240551],[13.4156192,46.424249],[13.4146357,46.4240011],[13.4145788,46.4238765],[13.4142129,46.4237963],[13.4136077,46.4235191],[13.4128703,46.4236804],[13.4122184,46.4236328],[13.4116005,46.4236997],[13.4101251,46.4233884],[13.4093878,46.4234786],[13.4093234,46.4233995],[13.4091174,46.423432],[13.4090324,46.4232361],[13.408596,46.4232802],[13.4078148,46.4231549],[13.4069681,46.4233411],[13.4063557,46.4232568],[13.404509,46.4234339],[13.4035496,46.4233619],[13.4031095,46.4231822],[13.4019508,46.4230438],[13.4014545,46.4228487],[13.4009748,46.4225731],[13.4000088,46.4217653],[13.3998303,46.4213423],[13.3993089,46.4212837],[13.3991552,46.4213451],[13.3989427,46.4215964],[13.3982194,46.4219162],[13.3976695,46.4231966],[13.3966927,46.4242022],[13.3965937,46.4244452],[13.3963814,46.4245742],[13.3957407,46.4247266],[13.3952953,46.4246582],[13.394396,46.4247603],[13.3921181,46.424487],[13.3905022,46.4245397],[13.3906368,46.4242524],[13.388174,46.424454],[13.3861453,46.4241697],[13.3861221,46.4240469],[13.3855724,46.4236758],[13.3854454,46.4236846],[13.3842985,46.4241548],[13.3831947,46.4240725],[13.3821903,46.4244408],[13.3812902,46.4250964],[13.3804003,46.4255889],[13.3799449,46.4257392],[13.3796418,46.426014],[13.3794733,46.4258203],[13.3792605,46.4257852],[13.3791792,46.4255063],[13.3788115,46.425354],[13.3791816,46.4250418],[13.3787525,46.424888],[13.3786998,46.4246026],[13.3777872,46.4238846],[13.3771513,46.4238838],[13.3758184,46.4241348],[13.3749883,46.4240787],[13.3744697,46.4238514],[13.3735677,46.4243597],[13.3727224,46.4243748],[13.3717193,46.4246774],[13.3711701,46.4246277],[13.3698639,46.4240822],[13.3676294,46.4242974],[13.3659249,46.4242625],[13.3649752,46.4247293],[13.3645519,46.4248289],[13.3638386,46.4251775],[13.3634097,46.4252429],[13.3631527,46.4254164],[13.3625486,46.425473],[13.3621935,46.4256233],[13.3611758,46.4258326],[13.3610318,46.4262843],[13.3609269,46.4263357],[13.359717,46.4265079],[13.3588499,46.4267909],[13.358855,46.4273722],[13.3593565,46.4278861],[13.3594667,46.42841],[13.3592244,46.4288416],[13.3580905,46.429475],[13.3578724,46.4297019],[13.3575757,46.4298531],[13.3572587,46.4299294],[13.3559808,46.429967],[13.3553098,46.4297055],[13.3543036,46.4299771],[13.35348,46.4303041],[13.3527018,46.4304669],[13.3514905,46.4305334],[13.3513383,46.4306617],[13.3510535,46.4307136],[13.3502525,46.4307394],[13.3479088,46.431377],[13.3473679,46.4314252],[13.3472157,46.4315535],[13.3462607,46.4319128],[13.3423013,46.4330523],[13.3399652,46.4340286],[13.3396846,46.4342391],[13.3390908,46.4357287],[13.3387566,46.4360536],[13.3355432,46.4355498],[13.335297,46.4356089],[13.3348531,46.4360455],[13.3341799,46.4365051],[13.3329002,46.4367515],[13.3317059,46.4370943],[13.3308986,46.4369151],[13.3304843,46.4370831],[13.3297224,46.4367083],[13.3262188,46.4367411],[13.3251837,46.437214],[13.3245961,46.4379017],[13.3231205,46.4386572],[13.3226678,46.4390515],[13.3217036,46.4394104],[13.3207048,46.4404558],[13.3195064,46.4415542],[13.3189452,46.4418164],[13.3180704,46.4420428],[13.3176007,46.4422562],[13.3173303,46.4424739],[13.3163205,46.4427305],[13.3155883,46.4431534],[13.3149195,46.4433145],[13.3142501,46.4435844],[13.3141332,46.4435827],[13.3135732,46.4430802],[13.3124511,46.4424295],[13.3121852,46.4421582],[13.3104739,46.4399103],[13.3095553,46.4376275],[13.3074012,46.4376393],[13.3068995,46.4377252],[13.3055874,46.437634],[13.3052297,46.4375294],[13.3046176,46.4376338],[13.3043977,46.4378098],[13.3038594,46.4379082],[13.3026317,46.4380087],[13.3012788,46.4379049],[13.3009181,46.4379667],[13.3007338,46.4378946],[13.3001657,46.4381016],[13.3003954,46.4381855],[13.300771,46.4390074],[13.3008047,46.4393496],[13.3011693,46.4399022],[13.3006733,46.4401445],[13.3003491,46.4404474],[13.2997588,46.4403423],[13.2993374,46.4407339],[13.2985491,46.4409607],[13.2976744,46.4415337],[13.2975154,46.4419274],[13.2966788,46.4423083],[13.296618,46.4425057],[13.2961178,46.4427562],[13.2956705,46.4427958],[13.2954313,46.4429152],[13.2952461,46.4427762],[13.2941547,46.4425095],[13.2937187,46.4425434],[13.293506,46.442673],[13.2929203,46.4427799],[13.2924002,46.4430694],[13.2919371,46.4432148],[13.2906326,46.4431593],[13.2900911,46.4427938],[13.2879754,46.4429839],[13.2869272,46.4434759],[13.2852984,46.443881],[13.2849574,46.4441124],[13.2840115,46.444431],[13.2833549,46.4447974],[13.2827571,46.4447884],[13.2802383,46.4450894],[13.2795968,46.4450394],[13.2790854,46.4448575],[13.2791864,46.4445078],[13.2793548,46.444299],[13.2798604,46.4440952],[13.2795751,46.4440163],[13.2792512,46.4435918],[13.2789919,46.4433983],[13.2785249,46.4432327],[13.277816,46.4431848],[13.2761896,46.4432815],[13.2742716,46.4436443],[13.2726425,46.4438249],[13.2722761,46.4440338],[13.2706295,46.4454793],[13.2690974,46.4453569],[13.2687547,46.4457433],[13.2680476,46.4462321],[13.2677528,46.4467333],[13.2677665,46.4468564],[13.267541,46.447055],[13.2674508,46.4473546],[13.2673036,46.4474881],[13.266936,46.4475702],[13.2661497,46.4483427],[13.265853,46.4488453],[13.2654608,46.4486023],[13.265224,46.4485514],[13.265028,46.4485598],[13.2641431,46.4489072],[13.2637744,46.4489226],[13.2636785,46.448801],[13.2631383,46.4487591],[13.2618997,46.4491954],[13.2617659,46.4490162],[13.2609515,46.4491716],[13.2597329,46.4495883],[13.2585637,46.4496706],[13.258182,46.4495457],[13.2577283,46.4492605],[13.2573217,46.4493278],[13.2572265,46.4497739],[13.2568209,46.4505075],[13.2566598,46.4514656],[13.2564822,46.4518173],[13.2559373,46.4525426],[13.2551213,46.4528877],[13.2550044,46.4531688],[13.2540517,46.4542702],[13.2535517,46.4552759],[13.2535847,46.4559228],[13.2530661,46.456821],[13.2530118,46.4572881],[13.2534091,46.4576941],[13.2533414,46.4580042],[13.2527796,46.4585685],[13.2525732,46.4585777],[13.2523732,46.4584492],[13.2522023,46.4585294],[13.2516854,46.4592943],[13.2514116,46.4599651],[13.2512559,46.4600737],[13.2508919,46.4600654],[13.2506574,46.460645],[13.2504395,46.4608722],[13.2499039,46.4612251],[13.249399,46.4613549],[13.2488212,46.4618372],[13.2482336,46.4624872],[13.2478037,46.46355],[13.2476993,46.4641389],[13.2477311,46.4644795],[13.2479848,46.4651972],[13.2480065,46.4665469],[13.2482171,46.4668976],[13.2484543,46.4680634]]]]},"properties":{"type":"boundary","gemeente":"Dogna / Dogne"}}]}