{"type":"FeatureCollection","metadata":{"gemeente":"Due Carrare","slug":"due-carrare","generated_at":"2026-09-26T14:27:17.417713Z","total_points":6,"providers":["PosteItaliane","DPD","DHL","Amazon"],"bounds":[11.8102093,45.2902,11.82074421,45.3213713]},"features":[{"type":"Feature","geometry":{"type":"Point","coordinates":[11.82074421,45.2902875]},"properties":{"type":"pakketpunt","locatieNaam":"Due Carrare","straatNaam":"Via Roma","straatNr":"100","vervoerder":"PosteItaliane","puntType":"postkantoor","bezettingsgraad":50,"latitude":45.2902875,"longitude":11.82074421,"canPickup":true,"canDropoff":true,"openingstijden":{"za":"08:20 - 12:35","zo":"gesloten","ma":"08:20 - 13:35","di":"08:20 - 13:35","wo":"08:20 - 13:35","do":"08:20 - 13:35","vr":"08:20 - 13:35"}}},{"type":"Feature","geometry":{"type":"Point","coordinates":[11.820524,45.29549]},"properties":{"type":"pakketpunt","locatieNaam":"La Teppa","straatNaam":"VIA ROMA","straatNr":"3","vervoerder":"DPD","puntType":"pickup_point","bezettingsgraad":50,"latitude":45.29549,"longitude":11.820524,"canPickup":true,"canDropoff":true,"openingstijden":{"ma":"09:00 - 13:00, 15:30 - 19:00","di":"09:00 - 13:00, 15:30 - 19:00","wo":"09:00 - 13:00, 15:30 - 19:00","do":"09:00 - 13:00, 15:30 - 19:00","vr":"09:00 - 13:00, 15:30 - 19:00","za":"gesloten","zo":"gesloten"}}},{"type":"Feature","geometry":{"type":"Point","coordinates":[11.820744,45.290288]},"properties":{"type":"pakketpunt","locatieNaam":"Ufficio Postale DUE CARRARE","straatNaam":"VIA ROMA 100","straatNr":"","vervoerder":"DHL","puntType":"postOffice","bezettingsgraad":50,"latitude":45.290288,"longitude":11.820744,"canPickup":true,"canDropoff":true,"openingstijden":{"ma":"08:20 - 13:35","di":"08:20 - 13:35","wo":"08:20 - 13:35","do":"08:20 - 13:35","vr":"08:20 - 13:35","za":"08:20 - 12:35","zo":"gesloten"}}},{"type":"Feature","geometry":{"type":"Point","coordinates":[11.8102093,45.3213713]},"properties":{"type":"pakketpunt","locatieNaam":"Amazon Locker - giampiero","straatNaam":"PENNY MARKET - Due Carrare","straatNr":"","vervoerder":"Amazon","puntType":"locker","bezettingsgraad":50,"latitude":45.3213713,"longitude":11.8102093,"canPickup":true,"canDropoff":false,"openingstijden":null}},{"type":"Feature","geometry":{"type":"Point","coordinates":[11.813642,45.292706]},"properties":{"type":"pakketpunt","locatieNaam":"Amazon Locker - curva","straatNaam":"Vega Carburanti-Due Carrare 20","straatNr":"","vervoerder":"Amazon","puntType":"locker","bezettingsgraad":50,"latitude":45.292706,"longitude":11.813642,"canPickup":true,"canDropoff":false,"openingstijden":null}},{"type":"Feature","geometry":{"type":"Point","coordinates":[11.8207,45.2902]},"properties":{"type":"pakketpunt","locatieNaam":"Ufficio Postale DUE CARRARE","straatNaam":"VIA ROMA 100","straatNr":"","vervoerder":"Amazon","puntType":"3p","bezettingsgraad":50,"latitude":45.2902,"longitude":11.8207,"canPickup":true,"canDropoff":false,"openingstijden":null}},{"type":"Feature","geometry":{"type":"Polygon","coordinates":[[[11.7884535,45.2867888],[11.78903,45.2857183],[11.7906069,45.2836509],[11.7906682,45.2828026],[11.7907476,45.2825835],[11.7915333,45.281672],[11.792979,45.279747],[11.7938614,45.2787547],[11.7946824,45.2782873],[11.7961757,45.2779502],[11.7969072,45.277907],[11.7985811,45.2781796],[11.7992092,45.2781669],[11.8005606,45.2777307],[11.8009576,45.2776741],[11.8016901,45.2777302],[11.8035189,45.2773144],[11.8046506,45.2771689],[11.8063798,45.2764609],[11.8069982,45.2760496],[11.8076605,45.2753765],[11.8080608,45.2751828],[11.8098111,45.2753386],[11.8104859,45.2752729],[11.8113323,45.2750593],[11.8126991,45.274515],[11.8145275,45.2744196],[11.8161065,45.2738381],[11.8185552,45.2731546],[11.8197211,45.2726621],[11.8205833,45.2716162],[11.8209579,45.2714876],[11.8228114,45.271798],[11.8242575,45.2724353],[11.8250317,45.2729701],[11.8254705,45.2731205],[11.8276485,45.273048],[11.8282792,45.2731794],[11.8286066,45.2733461],[11.8290331,45.2730963],[11.8283285,45.2727283],[11.830058,45.2724272],[11.8307707,45.2742637],[11.8310871,45.2744465],[11.8313797,45.2748995],[11.8313776,45.2750442],[11.8307633,45.2752369],[11.8309714,45.2762377],[11.831133,45.276306],[11.8325885,45.2760124],[11.8335761,45.2760452],[11.8336315,45.2761339],[11.8335521,45.2769897],[11.8336649,45.2775418],[11.8339586,45.2782634],[11.8347932,45.2798656],[11.8352142,45.2805092],[11.8342777,45.2805523],[11.8350094,45.2820473],[11.836145,45.2828922],[11.836274,45.2822673],[11.8394364,45.2823824],[11.8400885,45.2823823],[11.8404161,45.2823015],[11.8406495,45.2828529],[11.8434511,45.2819272],[11.8441731,45.2814974],[11.8450848,45.2814343],[11.8465965,45.2810171],[11.8470801,45.2808516],[11.847132,45.2805193],[11.8475889,45.2805079],[11.8488326,45.2799924],[11.8497828,45.279783],[11.8499159,45.2796989],[11.8496306,45.2792538],[11.8495396,45.2783518],[11.8517734,45.2784252],[11.8518804,45.280102],[11.852234,45.280085],[11.85279,45.2802246],[11.852926,45.2808833],[11.8543652,45.2808473],[11.8551011,45.2820642],[11.8552527,45.2825772],[11.8551848,45.2830472],[11.8555406,45.2840903],[11.855828,45.283875],[11.8562064,45.2837984],[11.8574152,45.2838841],[11.8579342,45.2841354],[11.8583015,45.2846659],[11.8583325,45.2849893],[11.8577373,45.2859579],[11.8578067,45.2862558],[11.8580846,45.2864619],[11.858386,45.2865451],[11.8594344,45.2866097],[11.8601002,45.2867712],[11.8608583,45.287787],[11.8601895,45.2881709],[11.8602272,45.2885155],[11.8597382,45.2898155],[11.8599478,45.2899687],[11.8609035,45.2903242],[11.8625688,45.2899999],[11.8623686,45.2896577],[11.8628199,45.2895334],[11.8623251,45.2885688],[11.8625815,45.2884332],[11.8628737,45.2881029],[11.8640275,45.2878478],[11.8653256,45.2874255],[11.8657746,45.2881333],[11.8658089,45.2890474],[11.8695929,45.288037],[11.8706811,45.2879143],[11.8688791,45.2958164],[11.8687326,45.2969909],[11.8687524,45.2993451],[11.8684963,45.3000418],[11.8672311,45.3023938],[11.8650713,45.3082559],[11.8646095,45.3102427],[11.8643639,45.3117687],[11.858244,45.3127813],[11.8578097,45.3128362],[11.8574838,45.3127709],[11.8573621,45.3128327],[11.8574139,45.313037],[11.8572236,45.3129757],[11.8568512,45.3130218],[11.8553786,45.3133303],[11.8502118,45.3146783],[11.8431801,45.3161973],[11.8382812,45.317485],[11.8388688,45.3187872],[11.8391649,45.3187346],[11.8395156,45.3197793],[11.8384316,45.3200696],[11.8392833,45.3221702],[11.8379344,45.3224972],[11.8374581,45.3219297],[11.836429,45.3218273],[11.8345243,45.3221306],[11.8336545,45.322438],[11.8339384,45.3227846],[11.8344367,45.3240062],[11.8340684,45.3241056],[11.83474,45.3253831],[11.8349784,45.3256706],[11.8338725,45.3261646],[11.8333873,45.3262745],[11.8326379,45.3266468],[11.8308009,45.3276038],[11.8296384,45.3283837],[11.8289348,45.3285071],[11.8272776,45.3292221],[11.8265491,45.3293943],[11.8245047,45.3302826],[11.8186594,45.3324422],[11.8155093,45.3283122],[11.8124773,45.3247099],[11.8001837,45.3108713],[11.7983666,45.3086836],[11.7925517,45.2999238],[11.7899154,45.2966092],[11.788586,45.2951046],[11.788311,45.2943704],[11.7881284,45.2918984],[11.7882485,45.2912384],[11.788014,45.2898299],[11.7880258,45.2889884],[11.7884535,45.2867888]]]},"properties":{"type":"boundary","gemeente":"Due Carrare"}}]}