{"type":"FeatureCollection","metadata":{"gemeente":"Durazzano","slug":"durazzano","generated_at":"2026-09-26T14:27:17.476543Z","total_points":6,"providers":["PosteItaliane","DPD","GLS","DHL","FedEx"],"bounds":[14.448631,41.061482,14.449568414982735,41.064504]},"features":[{"type":"Feature","geometry":{"type":"Point","coordinates":[14.44863138,41.06148208]},"properties":{"type":"pakketpunt","locatieNaam":"Durazzano","straatNaam":"Via Leonardo Bianchi","straatNr":"6","vervoerder":"PosteItaliane","puntType":"postkantoor","bezettingsgraad":50,"latitude":41.06148208,"longitude":14.44863138,"canPickup":true,"canDropoff":true,"openingstijden":{"za":"08:20 - 12:35","zo":"gesloten","ma":"08:20 - 13:35","di":"08:20 - 13:35","wo":"08:20 - 13:35","do":"08:20 - 13:35","vr":"08:20 - 13:35"}}},{"type":"Feature","geometry":{"type":"Point","coordinates":[14.4495213,41.0644524]},"properties":{"type":"pakketpunt","locatieNaam":"Super Shop Angela","straatNaam":"VIA DUE FOSSI","straatNr":"26","vervoerder":"DPD","puntType":"pickup_point","bezettingsgraad":50,"latitude":41.0644524,"longitude":14.4495213,"canPickup":true,"canDropoff":true,"openingstijden":{"ma":"07:30 - 13:00, 16:00 - 20:00","di":"07:30 - 13:00, 16:00 - 20:00","wo":"07:30 - 13:00, 16:00 - 20:00","do":"07:30 - 13:00, 16:00 - 20:00","vr":"07:30 - 13:00, 16:00 - 20:00","za":"07:30 - 13:00, 16:00 - 20:00","zo":"gesloten"}}},{"type":"Feature","geometry":{"type":"Point","coordinates":[14.4495213,41.0644524]},"properties":{"type":"pakketpunt","locatieNaam":"Super Shop Angela","straatNaam":"Via Due Fossi","straatNr":"26","vervoerder":"GLS","puntType":"parcel_shop","bezettingsgraad":50,"latitude":41.0644524,"longitude":14.4495213,"canPickup":true,"canDropoff":true,"openingstijden":"za: 07:30 - 13:00, 16:00 - 20:00; ma: 07:30 - 13:00, 16:00 - 20:00"}},{"type":"Feature","geometry":{"type":"Point","coordinates":[14.449473,41.064504]},"properties":{"type":"pakketpunt","locatieNaam":"SUPER SHOP ANGELA","straatNaam":"Via Due Fossi, 26","straatNr":"","vervoerder":"DHL","puntType":"parcelShop","bezettingsgraad":50,"latitude":41.064504,"longitude":14.449473,"canPickup":false,"canDropoff":true,"openingstijden":{"ma":"07:30 - 20:00","di":"07:30 - 20:00","wo":"07:30 - 20:00","do":"07:30 - 20:00","vr":"07:30 - 20:00","za":"07:30 - 20:00","zo":"gesloten"}}},{"type":"Feature","geometry":{"type":"Point","coordinates":[14.448631,41.061482]},"properties":{"type":"pakketpunt","locatieNaam":"Ufficio Postale DURAZZANO","straatNaam":"VIA LEONARDO BIANCHI 6","straatNr":"","vervoerder":"DHL","puntType":"postOffice","bezettingsgraad":50,"latitude":41.061482,"longitude":14.448631,"canPickup":true,"canDropoff":true,"openingstijden":{"ma":"08:20 - 13:35","di":"08:20 - 13:35","wo":"08:20 - 13:35","do":"08:20 - 13:35","vr":"08:20 - 13:35","za":"08:20 - 12:35","zo":"gesloten"}}},{"type":"Feature","geometry":{"type":"Point","coordinates":[14.449568414982735,41.064389560739926]},"properties":{"type":"pakketpunt","locatieNaam":"FedEx OnSite","straatNaam":"Via Due Fossi, 26","straatNr":"","vervoerder":"FedEx","puntType":"servicepunt","bezettingsgraad":50,"latitude":41.064389560739926,"longitude":14.449568414982735,"canPickup":true,"canDropoff":true,"openingstijden":{"ma":"07:30 - 13:00, 16:00 - 20:00","di":"07:30 - 13:00, 16:00 - 20:00","wo":"07:30 - 13:00, 16:00 - 20:00","do":"07:30 - 13:00, 16:00 - 20:00","vr":"07:30 - 13:00, 16:00 - 20:00","za":"07:30 - 13:00, 16:00 - 20:00","zo":"gesloten"}}},{"type":"Feature","geometry":{"type":"Polygon","coordinates":[[[14.4129905,41.0571984],[14.41427,41.0567583],[14.4173964,41.0558907],[14.4191587,41.0556455],[14.4189848,41.0551676],[14.4187723,41.0549616],[14.4185992,41.0543666],[14.418556,41.053896],[14.418762,41.0533911],[14.419303,41.052875],[14.4201864,41.0524822],[14.4212704,41.052323],[14.4233756,41.0524802],[14.4251393,41.0521809],[14.4263646,41.0521771],[14.4272919,41.0523178],[14.4300336,41.0517472],[14.430998,41.0519221],[14.4313855,41.0524485],[14.4311889,41.0529844],[14.4315653,41.0535923],[14.4322961,41.054341],[14.4331879,41.0545644],[14.4332994,41.0539604],[14.4322636,41.052623],[14.4326949,41.052265],[14.4334479,41.0518783],[14.4337381,41.0513335],[14.4344237,41.0506168],[14.4352118,41.05026],[14.4358885,41.050363],[14.4365449,41.0501564],[14.4372504,41.0498169],[14.4385131,41.0496716],[14.4392619,41.0497847],[14.4399786,41.0494537],[14.4411213,41.0492511],[14.442452,41.0493282],[14.4440568,41.0496612],[14.4448071,41.0496031],[14.4448255,41.048864],[14.4452219,41.0484176],[14.4459952,41.0485565],[14.4468388,41.048521],[14.4475558,41.0482125],[14.4492945,41.0467526],[14.4495871,41.045852],[14.4500323,41.0451512],[14.4508885,41.0447753],[14.4524552,41.0455354],[14.4528337,41.045948],[14.4530515,41.0463447],[14.4533108,41.0465894],[14.4535087,41.0469555],[14.4542247,41.0478719],[14.4542426,41.0481459],[14.4540133,41.0491339],[14.4540079,41.0497882],[14.4564197,41.0493466],[14.4564218,41.0486416],[14.4565842,41.0480458],[14.456983,41.0473915],[14.4569853,41.0470328],[14.4563375,41.0451581],[14.4559813,41.0444717],[14.455824,41.0427396],[14.4578923,41.0428381],[14.4591939,41.0424027],[14.4611295,41.0441472],[14.4626244,41.0447063],[14.463347,41.045077],[14.4636383,41.0460084],[14.4639561,41.0464434],[14.4651378,41.0459506],[14.4679405,41.0451016],[14.47278,41.042454],[14.4740048,41.0425352],[14.4746171,41.0434018],[14.4747789,41.0440692],[14.4750343,41.0447007],[14.4756578,41.0456838],[14.4772472,41.0463147],[14.4783661,41.0463379],[14.4792226,41.0462161],[14.4795178,41.0466116],[14.4793887,41.0479096],[14.478608,41.0488516],[14.4779673,41.050138],[14.478041,41.0513363],[14.4773061,41.0523481],[14.4764648,41.0549854],[14.4764614,41.0554446],[14.4769191,41.0562285],[14.4775308,41.0570141],[14.4782939,41.0583506],[14.4798461,41.0591993],[14.4802212,41.0599736],[14.4802858,41.0607583],[14.4806804,41.0615592],[14.4818342,41.063108],[14.4840068,41.0654732],[14.483302,41.0693289],[14.483383,41.069418],[14.4833973,41.0697843],[14.4835314,41.070056],[14.4840116,41.0700435],[14.4836582,41.0704317],[14.4828772,41.0704672],[14.4830952,41.0707591],[14.4822934,41.0710663],[14.4808416,41.0718317],[14.4791532,41.0730556],[14.4786956,41.0737391],[14.4776212,41.0729171],[14.4760842,41.0713789],[14.4752954,41.0718801],[14.4741949,41.0724052],[14.4734804,41.0726103],[14.4721832,41.0725776],[14.4686058,41.0718837],[14.4655943,41.0718875],[14.4632381,41.071788],[14.4560631,41.0713097],[14.4539799,41.0713817],[14.4506053,41.0707901],[14.4498504,41.0712265],[14.4487543,41.0713775],[14.4475186,41.0712336],[14.4464448,41.0714375],[14.4456565,41.0717585],[14.4447989,41.0718532],[14.4439309,41.0717412],[14.4431096,41.0717621],[14.4424179,41.0719209],[14.441834,41.0719081],[14.441277,41.0716824],[14.4408641,41.0713014],[14.4403905,41.0710582],[14.4398309,41.0710532],[14.4399416,41.0704763],[14.4388141,41.0701021],[14.43538,41.0695534],[14.4341447,41.0692787],[14.4326484,41.0687868],[14.431345,41.0681823],[14.429758,41.067168],[14.4262743,41.0654105],[14.4250048,41.0648448],[14.4234038,41.0643172],[14.4217781,41.0636603],[14.420238,41.0628687],[14.4186406,41.0618772],[14.4158484,41.0599068],[14.4151869,41.0594113],[14.4134159,41.0578158],[14.4129905,41.0571984]]]},"properties":{"type":"boundary","gemeente":"Durazzano"}}]}