{"type":"FeatureCollection","metadata":{"gemeente":"Fara San Martino","slug":"fara-san-martino","generated_at":"2026-09-26T13:09:56.117364Z","total_points":3,"providers":["PosteItaliane","DHL","Amazon"],"bounds":[14.2061,42.089,14.206184,42.089065]},"features":[{"type":"Feature","geometry":{"type":"Point","coordinates":[14.20618378,42.08906464]},"properties":{"type":"pakketpunt","locatieNaam":"Fara San Martino","straatNaam":"Via Trieste","straatNr":"4","vervoerder":"PosteItaliane","puntType":"postkantoor","bezettingsgraad":50,"latitude":42.08906464,"longitude":14.20618378,"canPickup":true,"canDropoff":true,"openingstijden":{"za":"08:20 - 12:35","zo":"gesloten","ma":"08:20 - 13:35","di":"08:20 - 13:35","wo":"08:20 - 13:35","do":"08:20 - 13:35","vr":"08:20 - 13:35"}}},{"type":"Feature","geometry":{"type":"Point","coordinates":[14.206184,42.089065]},"properties":{"type":"pakketpunt","locatieNaam":"Ufficio Postale FARA SAN MARTINO","straatNaam":"VIA TRIESTE 4","straatNr":"","vervoerder":"DHL","puntType":"postOffice","bezettingsgraad":50,"latitude":42.089065,"longitude":14.206184,"canPickup":true,"canDropoff":true,"openingstijden":{"ma":"08:20 - 13:35","di":"08:20 - 13:35","wo":"08:20 - 13:35","do":"08:20 - 13:35","vr":"08:20 - 13:35","za":"08:20 - 12:35","zo":"gesloten"}}},{"type":"Feature","geometry":{"type":"Point","coordinates":[14.2061,42.089]},"properties":{"type":"pakketpunt","locatieNaam":"Ufficio Postale FARA SAN MARTINO","straatNaam":"VIA TRIESTE 4","straatNr":"","vervoerder":"Amazon","puntType":"3p","bezettingsgraad":50,"latitude":42.089,"longitude":14.2061,"canPickup":true,"canDropoff":false,"openingstijden":null}},{"type":"Feature","geometry":{"type":"Polygon","coordinates":[[[14.0861181,42.0877017],[14.0919867,42.0850035],[14.1061368,42.0814359],[14.1187194,42.07811],[14.1183788,42.07736],[14.1180344,42.0752418],[14.1180281,42.0747695],[14.1196016,42.0729751],[14.120663,42.0721174],[14.122738,42.0707191],[14.1283356,42.0688795],[14.1451131,42.06426],[14.1530317,42.0632465],[14.1566686,42.0632628],[14.1606404,42.0636059],[14.1619537,42.0639158],[14.1698586,42.0667189],[14.1782493,42.0730465],[14.1817192,42.076756],[14.183419,42.0789657],[14.1840393,42.0796533],[14.1870638,42.0814338],[14.2086559,42.0844599],[14.2110377,42.0875652],[14.2128401,42.0902404],[14.2137413,42.0911958],[14.2142031,42.0923673],[14.2237812,42.0961797],[14.2287517,42.0970645],[14.2317885,42.0969887],[14.2335016,42.0973155],[14.2360157,42.0983033],[14.2364579,42.0988007],[14.2349083,42.1053578],[14.2332411,42.10687],[14.2309084,42.1087636],[14.2229544,42.1143754],[14.215295,42.117484],[14.2127362,42.1179787],[14.1916421,42.1197029],[14.1793211,42.1146391],[14.1664992,42.109133],[14.1658359,42.108947],[14.1632504,42.1096578],[14.1622165,42.1100915],[14.1541466,42.1121118],[14.1424368,42.1140609],[14.1405982,42.114121],[14.1372855,42.1139322],[14.1359697,42.1137617],[14.1342463,42.1132989],[14.1335038,42.1127245],[14.1328257,42.1119177],[14.1319133,42.1105497],[14.1259922,42.1074166],[14.1250663,42.1070574],[14.1213537,42.1061928],[14.120242,42.1061571],[14.1194028,42.1064557],[14.1158114,42.1081602],[14.1139438,42.1050928],[14.1135393,42.1046022],[14.1076785,42.099881],[14.1070637,42.0997148],[14.1062891,42.0998529],[14.1054504,42.1001154],[14.0966526,42.1005886],[14.0911002,42.0996534],[14.0898849,42.0952406],[14.089507,42.0945507],[14.0888007,42.0940419],[14.0857115,42.0927658],[14.0845754,42.09188],[14.0841152,42.0910677],[14.0841523,42.0902378],[14.0861181,42.0877017]]]},"properties":{"type":"boundary","gemeente":"Fara San Martino"}}]}