{"type":"FeatureCollection","metadata":{"gemeente":"Favara","slug":"favara","generated_at":"2026-09-26T13:09:56.264985Z","total_points":71,"providers":["PosteItaliane","DPD","InPost","GLS","DHL","Amazon"],"bounds":[13.62342,37.2421513,13.6716521,37.359145]},"features":[{"type":"Feature","geometry":{"type":"Point","coordinates":[13.64914086,37.30608462]},"properties":{"type":"pakketpunt","locatieNaam":"Tabaccheria N. 9","straatNaam":"Via Aldo Moro","straatNr":"95","vervoerder":"PosteItaliane","puntType":"servicepunt","bezettingsgraad":50,"latitude":37.30608462,"longitude":13.64914086,"canPickup":true,"canDropoff":true,"openingstijden":{"za":"06:00 - 21:00","zo":"06:00 - 13:00","ma":"06:00 - 21:00","di":"06:00 - 21:00","wo":"06:00 - 21:00","do":"06:00 - 21:00","vr":"06:00 - 21:00"}}},{"type":"Feature","geometry":{"type":"Point","coordinates":[13.66080516,37.3145701]},"properties":{"type":"pakketpunt","locatieNaam":"Favara","straatNaam":"Piazza Cavour","straatNr":"74","vervoerder":"PosteItaliane","puntType":"postkantoor","bezettingsgraad":50,"latitude":37.3145701,"longitude":13.66080516,"canPickup":true,"canDropoff":true,"openingstijden":{"za":"08:20 - 12:35","zo":"gesloten","ma":"08:20 - 19:05","di":"08:20 - 19:05","wo":"08:20 - 19:05","do":"08:20 - 19:05","vr":"08:20 - 19:05"}}},{"type":"Feature","geometry":{"type":"Point","coordinates":[13.66114692,37.32011665]},"properties":{"type":"pakketpunt","locatieNaam":"Favara 2","straatNaam":"Via Carlo Alberto","straatNr":"20","vervoerder":"PosteItaliane","puntType":"postkantoor","bezettingsgraad":50,"latitude":37.32011665,"longitude":13.66114692,"canPickup":true,"canDropoff":true,"openingstijden":{"za":"08:20 - 12:35","zo":"gesloten","ma":"08:20 - 13:35","di":"08:20 - 13:35","wo":"08:20 - 13:35","do":"08:20 - 13:35","vr":"08:20 - 13:35"}}},{"type":"Feature","geometry":{"type":"Point","coordinates":[13.65588696,37.30711479]},"properties":{"type":"pakketpunt","locatieNaam":"Favara 1","straatNaam":"Corso Vittorio Veneto","straatNr":"60","vervoerder":"PosteItaliane","puntType":"postkantoor","bezettingsgraad":50,"latitude":37.30711479,"longitude":13.65588696,"canPickup":true,"canDropoff":true,"openingstijden":{"za":"08:20 - 12:35","zo":"gesloten","ma":"08:20 - 19:05","di":"08:20 - 19:05","wo":"08:20 - 19:05","do":"08:20 - 19:05","vr":"08:20 - 19:05"}}},{"type":"Feature","geometry":{"type":"Point","coordinates":[13.65599539,37.30713569]},"properties":{"type":"pakketpunt","locatieNaam":"Tabaccheria N. 3","straatNaam":"Corso Vittorio Veneto","straatNr":"68","vervoerder":"PosteItaliane","puntType":"servicepunt","bezettingsgraad":50,"latitude":37.30713569,"longitude":13.65599539,"canPickup":true,"canDropoff":true,"openingstijden":{"za":"06:00 - 13:00, 13:05 - 21:00","zo":"06:00 - 13:00, 13:05 - 21:00","ma":"06:00 - 13:00, 13:05 - 21:00","di":"06:00 - 13:00, 13:05 - 21:00","wo":"06:00 - 13:00, 13:05 - 21:00","do":"06:00 - 13:00, 13:05 - 21:00","vr":"06:00 - 13:00, 13:05 - 21:00"}}},{"type":"Feature","geometry":{"type":"Point","coordinates":[13.6559381,37.30767154]},"properties":{"type":"pakketpunt","locatieNaam":"Cartolibreria Quaranta","straatNaam":"Via John Fitzgerald Kennedy","straatNr":"16","vervoerder":"PosteItaliane","puntType":"servicepunt","bezettingsgraad":50,"latitude":37.30767154,"longitude":13.6559381,"canPickup":true,"canDropoff":true,"openingstijden":{"za":"08:00 - 13:30, 16:00 - 21:30","zo":"gesloten","ma":"07:30 - 13:30, 15:30 - 20:30","di":"07:30 - 13:30, 15:30 - 20:30","wo":"07:30 - 13:30, 15:30 - 20:30","do":"07:30 - 13:30, 15:30 - 20:30","vr":"07:30 - 13:30, 15:30 - 20:30"}}},{"type":"Feature","geometry":{"type":"Point","coordinates":[13.65709543,37.31037941]},"properties":{"type":"pakketpunt","locatieNaam":"Tabaccheria N. 5","straatNaam":"Via Quattro Novembre","straatNr":"13","vervoerder":"PosteItaliane","puntType":"servicepunt","bezettingsgraad":50,"latitude":37.31037941,"longitude":13.65709543,"canPickup":true,"canDropoff":true,"openingstijden":{"za":"08:00 - 13:00, 16:00 - 20:00","zo":"gesloten","ma":"08:00 - 13:00, 16:00 - 20:00","di":"08:00 - 13:00, 16:00 - 20:00","wo":"08:00 - 13:00, 16:00 - 20:00","do":"08:00 - 13:00, 16:00 - 20:00","vr":"08:00 - 13:00, 16:00 - 20:00"}}},{"type":"Feature","geometry":{"type":"Point","coordinates":[13.64847299,37.30661099]},"properties":{"type":"pakketpunt","locatieNaam":"Parafarmacia Gucciardino","straatNaam":"Via Piersanti Mattarella","straatNr":"128","vervoerder":"PosteItaliane","puntType":"servicepunt","bezettingsgraad":50,"latitude":37.30661099,"longitude":13.64847299,"canPickup":true,"canDropoff":true,"openingstijden":{"za":"09:00 - 13:00, 16:30 - 20:30","zo":"gesloten","ma":"09:00 - 13:00, 16:30 - 20:30","di":"09:00 - 13:00, 16:30 - 20:30","wo":"09:00 - 13:00, 16:30 - 20:30","do":"09:00 - 13:00, 16:30 - 20:30","vr":"09:00 - 13:00, 16:30 - 20:30"}}},{"type":"Feature","geometry":{"type":"Point","coordinates":[13.65636111,37.30888158]},"properties":{"type":"pakketpunt","locatieNaam":"Click","straatNaam":"Via Quattro Novembre","straatNr":"63","vervoerder":"PosteItaliane","puntType":"automaat","bezettingsgraad":50,"latitude":37.30888158,"longitude":13.65636111,"canPickup":true,"canDropoff":true,"openingstijden":{"za":"09:30 - 13:15","zo":"gesloten","ma":"09:30 - 13:15","di":"09:30 - 13:15","wo":"09:30 - 13:15","do":"09:30 - 13:15","vr":"09:30 - 13:15"}}},{"type":"Feature","geometry":{"type":"Point","coordinates":[13.66095084,37.31947251]},"properties":{"type":"pakketpunt","locatieNaam":"Stazione Di Servizio","straatNaam":"Piazza Della Vittoria Snc","straatNr":"1","vervoerder":"PosteItaliane","puntType":"automaat","bezettingsgraad":50,"latitude":37.31947251,"longitude":13.66095084,"canPickup":true,"canDropoff":true,"openingstijden":{"za":"00:01 - 23:59","zo":"00:01 - 23:59","ma":"00:01 - 23:59","di":"00:01 - 23:59","wo":"00:01 - 23:59","do":"00:01 - 23:59","vr":"00:01 - 23:59"}}},{"type":"Feature","geometry":{"type":"Point","coordinates":[13.66533203,37.30863993]},"properties":{"type":"pakketpunt","locatieNaam":"Ideal Market","straatNaam":"Via Enrico Berlinguer","straatNr":"51","vervoerder":"PosteItaliane","puntType":"servicepunt","bezettingsgraad":50,"latitude":37.30863993,"longitude":13.66533203,"canPickup":true,"canDropoff":true,"openingstijden":{"za":"09:00 - 13:00, 16:00 - 19:00","zo":"gesloten","ma":"09:00 - 13:00, 16:00 - 20:00","di":"09:00 - 13:00, 16:00 - 20:00","wo":"09:00 - 13:00, 16:00 - 20:00","do":"09:00 - 13:00, 16:00 - 20:00","vr":"09:00 - 13:00, 16:00 - 20:00"}}},{"type":"Feature","geometry":{"type":"Point","coordinates":[13.65306874,37.30733172]},"properties":{"type":"pakketpunt","locatieNaam":"Terrasi","straatNaam":"Via John Fitzgerald Kennedy","straatNr":"118","vervoerder":"PosteItaliane","puntType":"servicepunt","bezettingsgraad":50,"latitude":37.30733172,"longitude":13.65306874,"canPickup":true,"canDropoff":true,"openingstijden":{"za":"08:30 - 12:30","zo":"gesloten","ma":"08:30 - 13:30, 15:30 - 18:30","di":"08:30 - 13:30, 15:30 - 18:30","wo":"08:30 - 13:30, 15:30 - 18:30","do":"08:30 - 13:30, 15:30 - 18:30","vr":"08:30 - 13:30, 15:30 - 18:30"}}},{"type":"Feature","geometry":{"type":"Point","coordinates":[13.6635531,37.3227966]},"properties":{"type":"pakketpunt","locatieNaam":"Tabaccheria N. 12","straatNaam":"Via Capitano Callea","straatNr":"82","vervoerder":"PosteItaliane","puntType":"servicepunt","bezettingsgraad":50,"latitude":37.3227966,"longitude":13.6635531,"canPickup":true,"canDropoff":true,"openingstijden":{"za":"06:00 - 13:00, 15:30 - 20:30","zo":"06:00 - 13:00","ma":"06:00 - 13:00, 15:30 - 20:30","di":"06:00 - 13:00, 15:30 - 20:30","wo":"06:00 - 13:00, 15:30 - 20:30","do":"06:00 - 13:00, 15:30 - 20:30","vr":"06:00 - 13:00, 15:30 - 20:30"}}},{"type":"Feature","geometry":{"type":"Point","coordinates":[13.65868043,37.32017312]},"properties":{"type":"pakketpunt","locatieNaam":"Tabaccheria N. 7","straatNaam":"Via Agrigento","straatNr":"74","vervoerder":"PosteItaliane","puntType":"servicepunt","bezettingsgraad":50,"latitude":37.32017312,"longitude":13.65868043,"canPickup":true,"canDropoff":true,"openingstijden":{"za":"06:30 - 13:30, 15:00 - 20:30","zo":"gesloten","ma":"06:30 - 13:30, 15:00 - 20:30","di":"06:30 - 13:30, 15:00 - 20:30","wo":"06:30 - 13:30, 15:00 - 20:30","do":"06:30 - 13:30, 15:00 - 20:30","vr":"06:30 - 13:30, 15:00 - 20:30"}}},{"type":"Feature","geometry":{"type":"Point","coordinates":[13.66194885,37.31437649]},"properties":{"type":"pakketpunt","locatieNaam":"Tabaccheria N. 2","straatNaam":"Corso Vittorio Veneto","straatNr":"299","vervoerder":"PosteItaliane","puntType":"servicepunt","bezettingsgraad":50,"latitude":37.31437649,"longitude":13.66194885,"canPickup":true,"canDropoff":true,"openingstijden":{"za":"06:00 - 13:30, 15:00 - 20:00","zo":"gesloten","ma":"06:00 - 13:30, 15:00 - 20:00","di":"06:00 - 13:30, 15:00 - 20:00","wo":"06:00 - 13:30, 15:00 - 20:00","do":"06:00 - 13:30, 15:00 - 20:00","vr":"06:00 - 13:30, 15:00 - 20:00"}}},{"type":"Feature","geometry":{"type":"Point","coordinates":[13.64622485,37.30961014]},"properties":{"type":"pakketpunt","locatieNaam":"Tabaccheria N. 20","straatNaam":"Via Aldo Moro","straatNr":"248","vervoerder":"PosteItaliane","puntType":"servicepunt","bezettingsgraad":50,"latitude":37.30961014,"longitude":13.64622485,"canPickup":true,"canDropoff":true,"openingstijden":{"za":"07:30 - 13:00, 16:00 - 20:30","zo":"gesloten","ma":"07:30 - 13:00, 16:00 - 20:30","di":"07:30 - 13:00, 16:00 - 20:30","wo":"07:30 - 13:00, 16:00 - 20:30","do":"07:30 - 13:00, 16:00 - 20:30","vr":"07:30 - 13:00, 16:00 - 20:30"}}},{"type":"Feature","geometry":{"type":"Point","coordinates":[13.66384077,37.30971176]},"properties":{"type":"pakketpunt","locatieNaam":"Tabaccheria N. 10","straatNaam":"Via Enrico Berlinguer","straatNr":"34","vervoerder":"PosteItaliane","puntType":"servicepunt","bezettingsgraad":50,"latitude":37.30971176,"longitude":13.66384077,"canPickup":true,"canDropoff":true,"openingstijden":{"za":"05:00 - 13:00, 13:30 - 22:00","zo":"05:00 - 13:00, 13:30 - 22:00","ma":"05:00 - 13:00, 13:30 - 22:00","di":"gesloten","wo":"05:00 - 13:00, 13:30 - 22:00","do":"05:00 - 13:00, 13:30 - 22:00","vr":"05:00 - 13:00, 13:30 - 22:00"}}},{"type":"Feature","geometry":{"type":"Point","coordinates":[13.6563420221,37.3075244668]},"properties":{"type":"pakketpunt","locatieNaam":"Cartolibreria Quaranta","straatNaam":"VIA KENNEDY","straatNr":"16","vervoerder":"DPD","puntType":"pickup_point","bezettingsgraad":50,"latitude":37.3075244668,"longitude":13.6563420221,"canPickup":true,"canDropoff":true,"openingstijden":{"ma":"07:30 - 13:30, 15:30 - 20:30","di":"07:30 - 13:30, 15:30 - 20:30","wo":"07:30 - 13:30, 15:30 - 20:30","do":"07:30 - 13:30, 15:30 - 20:30","vr":"07:30 - 13:30, 15:30 - 20:30","za":"07:30 - 13:30, 15:30 - 20:30","zo":"gesloten"}}},{"type":"Feature","geometry":{"type":"Point","coordinates":[13.648558,37.3066369]},"properties":{"type":"pakketpunt","locatieNaam":"Parafarmacia Gucciardino Dr.Fabio","straatNaam":"VIA P.S.MATTARELLA","straatNr":"128","vervoerder":"DPD","puntType":"pickup_point","bezettingsgraad":50,"latitude":37.3066369,"longitude":13.648558,"canPickup":true,"canDropoff":true,"openingstijden":{"ma":"09:00 - 13:15, 16:30 - 20:30","di":"09:00 - 13:15, 16:30 - 20:30","wo":"09:00 - 13:15, 16:30 - 20:30","do":"09:00 - 13:15, 16:30 - 20:30","vr":"09:00 - 13:15, 16:30 - 20:30","za":"09:00 - 13:15, 16:30 - 20:30","zo":"gesloten"}}},{"type":"Feature","geometry":{"type":"Point","coordinates":[13.66072457,37.320285]},"properties":{"type":"pakketpunt","locatieNaam":"Posta Flash-Servizi Postali","straatNaam":"P.ZZA DELLA VITTORIA","straatNr":"18-19","vervoerder":"DPD","puntType":"pickup_point","bezettingsgraad":50,"latitude":37.320285,"longitude":13.66072457,"canPickup":true,"canDropoff":true,"openingstijden":{"ma":"09:00 - 12:00, 16:00 - 19:00","di":"09:00 - 12:00, 16:00 - 19:00","wo":"09:00 - 12:00, 16:00 - 19:00","do":"09:00 - 12:00, 16:00 - 19:00","vr":"09:00 - 12:00, 16:00 - 19:00","za":"09:00 - 12:00","zo":"gesloten"}}},{"type":"Feature","geometry":{"type":"Point","coordinates":[13.6565869,37.3200554]},"properties":{"type":"pakketpunt","locatieNaam":"Look The Book","straatNaam":"VIA AGRIGENTO","straatNr":"108","vervoerder":"DPD","puntType":"pickup_point","bezettingsgraad":50,"latitude":37.3200554,"longitude":13.6565869,"canPickup":true,"canDropoff":true,"openingstijden":{"ma":"08:00 - 13:00, 17:00 - 20:00","di":"08:00 - 13:00, 17:00 - 20:00","wo":"08:00 - 13:00, 17:00 - 20:00","do":"08:00 - 13:00, 17:00 - 20:00","vr":"08:00 - 13:00, 17:00 - 20:00","za":"gesloten","zo":"gesloten"}}},{"type":"Feature","geometry":{"type":"Point","coordinates":[13.6653614,37.3086433]},"properties":{"type":"pakketpunt","locatieNaam":"Ideal Market Fratelli Infurna","straatNaam":"VIALE BERLINGUER","straatNr":"51","vervoerder":"DPD","puntType":"pickup_point","bezettingsgraad":50,"latitude":37.3086433,"longitude":13.6653614,"canPickup":true,"canDropoff":true,"openingstijden":{"ma":"08:00 - 13:30, 16:00 - 20:30","di":"08:00 - 13:30, 16:00 - 20:30","wo":"08:00 - 13:30, 16:00 - 20:30","do":"08:00 - 13:30, 16:00 - 20:30","vr":"08:00 - 13:30, 16:00 - 20:30","za":"08:00 - 13:30","zo":"gesloten"}}},{"type":"Feature","geometry":{"type":"Point","coordinates":[13.6716521,37.3227449]},"properties":{"type":"pakketpunt","locatieNaam":"Ciccotto Express","straatNaam":"VIA G. COSTA","straatNr":"3B","vervoerder":"DPD","puntType":"pickup_point","bezettingsgraad":50,"latitude":37.3227449,"longitude":13.6716521,"canPickup":true,"canDropoff":true,"openingstijden":{"ma":"09:00 - 13:00, 15:00 - 18:30","di":"09:00 - 13:00, 15:00 - 18:30","wo":"09:00 - 13:00, 15:00 - 18:30","do":"09:00 - 13:00, 15:00 - 18:30","vr":"09:00 - 13:00, 15:00 - 18:30","za":"09:30 - 13:00","zo":"gesloten"}}},{"type":"Feature","geometry":{"type":"Point","coordinates":[13.66248,37.32461]},"properties":{"type":"pakketpunt","locatieNaam":"InPost Locker 24/7","straatNaam":"Via Capitano Callea","straatNr":"122","vervoerder":"InPost","puntType":"automaat","bezettingsgraad":50,"latitude":37.32461,"longitude":13.66248,"canPickup":true,"canDropoff":true,"openingstijden":null}},{"type":"Feature","geometry":{"type":"Point","coordinates":[13.65323,37.30737]},"properties":{"type":"pakketpunt","locatieNaam":"InPost Locker","straatNaam":"Via Kennedy","straatNr":"116","vervoerder":"InPost","puntType":"automaat","bezettingsgraad":50,"latitude":37.30737,"longitude":13.65323,"canPickup":true,"canDropoff":true,"openingstijden":null}},{"type":"Feature","geometry":{"type":"Point","coordinates":[13.65641,37.30895]},"properties":{"type":"pakketpunt","locatieNaam":"InPost Locker 24/7","straatNaam":"Via IV Novembre","straatNr":"63","vervoerder":"InPost","puntType":"automaat","bezettingsgraad":50,"latitude":37.30895,"longitude":13.65641,"canPickup":true,"canDropoff":true,"openingstijden":null}},{"type":"Feature","geometry":{"type":"Point","coordinates":[13.66077,37.32026]},"properties":{"type":"pakketpunt","locatieNaam":"InPost Point","straatNaam":"Via della Vittoria","straatNr":"18","vervoerder":"InPost","puntType":"servicepunt","bezettingsgraad":50,"latitude":37.32026,"longitude":13.66077,"canPickup":true,"canDropoff":true,"openingstijden":"Lun-Ven: 09:00 - 13:00 - 16:00 - 19:30 Sab: 08:30 - 13:00"}},{"type":"Feature","geometry":{"type":"Point","coordinates":[13.65319,37.30756]},"properties":{"type":"pakketpunt","locatieNaam":"InPost Point","straatNaam":"Viale Kennedy","straatNr":"118","vervoerder":"InPost","puntType":"servicepunt","bezettingsgraad":50,"latitude":37.30756,"longitude":13.65319,"canPickup":true,"canDropoff":true,"openingstijden":"Lun-Ven 08:30-13:30, 15:30-18:30; Sab 08:30-12:30"}},{"type":"Feature","geometry":{"type":"Point","coordinates":[13.654032,37.305313]},"properties":{"type":"pakketpunt","locatieNaam":"posta privata nazionale","straatNaam":"Via Germania","straatNr":"40","vervoerder":"GLS","puntType":"parcel_shop","bezettingsgraad":50,"latitude":37.305313,"longitude":13.654032,"canPickup":true,"canDropoff":true,"openingstijden":"ma: 09:00 - 12:30, 16:00 - 20:00; di: 09:00 - 12:30, 16:00 - 20:00"}},{"type":"Feature","geometry":{"type":"Point","coordinates":[13.6486314,37.3062042]},"properties":{"type":"pakketpunt","locatieNaam":"EMPORIO TABACCHI","straatNaam":"Via Aldo Moro","straatNr":"95","vervoerder":"GLS","puntType":"parcel_shop","bezettingsgraad":50,"latitude":37.3062042,"longitude":13.6486314,"canPickup":true,"canDropoff":true,"openingstijden":"za: 06:00 - 21:00; ma: 06:00 - 21:00"}},{"type":"Feature","geometry":{"type":"Point","coordinates":[13.648558,37.3066369]},"properties":{"type":"pakketpunt","locatieNaam":"PARAFARMACIA GUCCIARDINO DR.FABIO","straatNaam":"Via Piersanti Mattarella","straatNr":"128","vervoerder":"GLS","puntType":"parcel_shop","bezettingsgraad":50,"latitude":37.3066369,"longitude":13.648558,"canPickup":true,"canDropoff":true,"openingstijden":"za: 09:00 - 13:30, 16:30 - 20:30; ma: 09:00 - 13:30, 16:30 - 20:30"}},{"type":"Feature","geometry":{"type":"Point","coordinates":[13.6531212,37.3073096]},"properties":{"type":"pakketpunt","locatieNaam":"SERVIZI POSTALI","straatNaam":"Via Kennedy","straatNr":"116","vervoerder":"GLS","puntType":"parcel_shop","bezettingsgraad":50,"latitude":37.3073096,"longitude":13.6531212,"canPickup":true,"canDropoff":true,"openingstijden":"za: 08:30 - 12:30; ma: 08:30 - 13:30, 15:30 - 18:30"}},{"type":"Feature","geometry":{"type":"Point","coordinates":[13.6558056,37.307692]},"properties":{"type":"pakketpunt","locatieNaam":"CARTOLIBRERIA QUARANTA","straatNaam":"Via J.F. Kennedy","straatNr":"16","vervoerder":"GLS","puntType":"parcel_shop","bezettingsgraad":50,"latitude":37.307692,"longitude":13.6558056,"canPickup":true,"canDropoff":true,"openingstijden":"za: 07:30 - 13:00, 15:30 - 20:30; ma: 07:30 - 13:00, 15:30 - 20:30"}},{"type":"Feature","geometry":{"type":"Point","coordinates":[13.6653614,37.3086433]},"properties":{"type":"pakketpunt","locatieNaam":"Infurna1987","straatNaam":"Viale Enrico Berlinguer","straatNr":"51","vervoerder":"GLS","puntType":"parcel_shop","bezettingsgraad":50,"latitude":37.3086433,"longitude":13.6653614,"canPickup":true,"canDropoff":true,"openingstijden":"ma: 08:00 - 13:00, 16:30 - 19:30; di: 08:00 - 13:00, 16:30 - 19:30"}},{"type":"Feature","geometry":{"type":"Point","coordinates":[13.6558623,37.3097528]},"properties":{"type":"pakketpunt","locatieNaam":"Music Zone","straatNaam":"Via Milano","straatNr":"19","vervoerder":"GLS","puntType":"parcel_shop","bezettingsgraad":50,"latitude":37.3097528,"longitude":13.6558623,"canPickup":true,"canDropoff":true,"openingstijden":"za: 09:30 - 13:00, 16:30 - 20:00; ma: 09:30 - 13:00, 16:30 - 20:00"}},{"type":"Feature","geometry":{"type":"Point","coordinates":[13.662307,37.3148541]},"properties":{"type":"pakketpunt","locatieNaam":"TecnoService - ConfASI Sicilia","straatNaam":"Corso Vittorio Veneto","straatNr":"424","vervoerder":"GLS","puntType":"parcel_shop","bezettingsgraad":50,"latitude":37.3148541,"longitude":13.662307,"canPickup":true,"canDropoff":true,"openingstijden":"za: 09:00 - 12:00; ma: 09:00 - 13:00, 16:00 - 19:00"}},{"type":"Feature","geometry":{"type":"Point","coordinates":[13.6606128,37.3199275]},"properties":{"type":"pakketpunt","locatieNaam":"posta flash","straatNaam":"Piazza Vittoria","straatNr":"18","vervoerder":"GLS","puntType":"parcel_shop","bezettingsgraad":50,"latitude":37.3199275,"longitude":13.6606128,"canPickup":true,"canDropoff":true,"openingstijden":"za: 09:00 - 13:00; ma: 09:00 - 13:00, 16:00 - 19:30"}},{"type":"Feature","geometry":{"type":"Point","coordinates":[13.6716521,37.3227449]},"properties":{"type":"pakketpunt","locatieNaam":"CICCOTTO EXPRESS","straatNaam":"Via Gaetano Costa","straatNr":"3/b","vervoerder":"GLS","puntType":"parcel_shop","bezettingsgraad":50,"latitude":37.3227449,"longitude":13.6716521,"canPickup":true,"canDropoff":true,"openingstijden":"ma: 09:00 - 13:00, 15:00 - 18:00; di: 09:00 - 13:00, 15:00 - 18:00"}},{"type":"Feature","geometry":{"type":"Point","coordinates":[13.655887,37.307115]},"properties":{"type":"pakketpunt","locatieNaam":"Ufficio Postale FAVARA 1","straatNaam":"CORSO VITTORIO VENETO 60","straatNr":"","vervoerder":"DHL","puntType":"postOffice","bezettingsgraad":50,"latitude":37.307115,"longitude":13.655887,"canPickup":true,"canDropoff":true,"openingstijden":{"ma":"08:20 - 19:05","di":"08:20 - 19:05","wo":"08:20 - 19:05","do":"08:20 - 19:05","vr":"08:20 - 19:05","za":"08:20 - 12:35","zo":"gesloten"}}},{"type":"Feature","geometry":{"type":"Point","coordinates":[13.655995,37.307136]},"properties":{"type":"pakketpunt","locatieNaam":"TABACCHERIA N. 3","straatNaam":"CORSO VITTORIO VENETO 68","straatNr":"","vervoerder":"DHL","puntType":"parcelShop","bezettingsgraad":50,"latitude":37.307136,"longitude":13.655995,"canPickup":true,"canDropoff":true,"openingstijden":{"ma":"06:00 - 13:00, 13:05 - 21:00","di":"06:00 - 13:00, 13:05 - 21:00","wo":"06:00 - 13:00, 13:05 - 21:00","do":"06:00 - 13:00, 13:05 - 21:00","vr":"06:00 - 13:00, 13:05 - 21:00","za":"06:00 - 13:00, 13:05 - 21:00","zo":"06:00 - 13:00, 13:05 - 21:00"}}},{"type":"Feature","geometry":{"type":"Point","coordinates":[13.665332,37.30864]},"properties":{"type":"pakketpunt","locatieNaam":"IDEAL MARKET","straatNaam":"VIA ENRICO BERLINGUER 51","straatNr":"","vervoerder":"DHL","puntType":"parcelShop","bezettingsgraad":50,"latitude":37.30864,"longitude":13.665332,"canPickup":true,"canDropoff":true,"openingstijden":{"ma":"09:00 - 13:00, 16:00 - 20:00","di":"09:00 - 13:00, 16:00 - 20:00","wo":"09:00 - 13:00, 16:00 - 20:00","do":"09:00 - 13:00, 16:00 - 20:00","vr":"09:00 - 13:00, 16:00 - 20:00","za":"09:00 - 13:00, 16:00 - 19:00","zo":"gesloten"}}},{"type":"Feature","geometry":{"type":"Point","coordinates":[13.649141,37.306085]},"properties":{"type":"pakketpunt","locatieNaam":"TABACCHERIA N. 9","straatNaam":"VIA ALDO MORO 95","straatNr":"","vervoerder":"DHL","puntType":"parcelShop","bezettingsgraad":50,"latitude":37.306085,"longitude":13.649141,"canPickup":true,"canDropoff":true,"openingstijden":{"ma":"06:00 - 21:00","di":"06:00 - 21:00","wo":"06:00 - 21:00","do":"06:00 - 21:00","vr":"06:00 - 21:00","za":"06:00 - 21:00","zo":"06:00 - 13:00"}}},{"type":"Feature","geometry":{"type":"Point","coordinates":[13.655938,37.307672]},"properties":{"type":"pakketpunt","locatieNaam":"CARTOLIBRERIA QUARANTA","straatNaam":"VIA JOHN FITZGERALD KENNEDY 16","straatNr":"","vervoerder":"DHL","puntType":"parcelShop","bezettingsgraad":50,"latitude":37.307672,"longitude":13.655938,"canPickup":true,"canDropoff":true,"openingstijden":{"ma":"07:30 - 13:30, 15:30 - 20:30","di":"07:30 - 13:30, 15:30 - 20:30","wo":"07:30 - 13:30, 15:30 - 20:30","do":"07:30 - 13:30, 15:30 - 20:30","vr":"07:30 - 13:30, 15:30 - 20:30","za":"08:00 - 13:30, 16:00 - 21:30","zo":"gesloten"}}},{"type":"Feature","geometry":{"type":"Point","coordinates":[13.653121,37.30731]},"properties":{"type":"pakketpunt","locatieNaam":"SERVIZI POSTALI TERRASI","straatNaam":"Via Kennedy; 116","straatNr":"","vervoerder":"DHL","puntType":"parcelShop","bezettingsgraad":50,"latitude":37.30731,"longitude":13.653121,"canPickup":false,"canDropoff":true,"openingstijden":{"ma":"08:30 - 18:30","di":"08:30 - 18:30","wo":"08:30 - 18:30","do":"08:30 - 18:30","vr":"08:30 - 18:30","za":"gesloten","zo":"gesloten"}}},{"type":"Feature","geometry":{"type":"Point","coordinates":[13.62342,37.35499]},"properties":{"type":"pakketpunt","locatieNaam":"MCL DI FAVARA","straatNaam":"Viale Carlo Azeglio Ciampi 195","straatNr":"","vervoerder":"DHL","puntType":"parcelShop","bezettingsgraad":50,"latitude":37.35499,"longitude":13.62342,"canPickup":false,"canDropoff":true,"openingstijden":{"ma":"09:00 - 17:00","di":"09:00 - 17:00","wo":"09:00 - 17:00","do":"09:00 - 17:00","vr":"09:00 - 17:00","za":"gesloten","zo":"gesloten"}}},{"type":"Feature","geometry":{"type":"Point","coordinates":[13.663553,37.322797]},"properties":{"type":"pakketpunt","locatieNaam":"TABACCHERIA N. 12","straatNaam":"VIA CAPITANO CALLEA 82","straatNr":"","vervoerder":"DHL","puntType":"parcelShop","bezettingsgraad":50,"latitude":37.322797,"longitude":13.663553,"canPickup":true,"canDropoff":true,"openingstijden":{"ma":"06:00 - 13:00, 15:30 - 20:30","di":"06:00 - 13:00, 15:30 - 20:30","wo":"06:00 - 13:00, 15:30 - 20:30","do":"06:00 - 13:00, 15:30 - 20:30","vr":"06:00 - 13:00, 15:30 - 20:30","za":"06:00 - 13:00, 15:30 - 20:30","zo":"06:00 - 13:00"}}},{"type":"Feature","geometry":{"type":"Point","coordinates":[13.661147,37.320117]},"properties":{"type":"pakketpunt","locatieNaam":"Ufficio Postale FAVARA 2","straatNaam":"VIA CARLO ALBERTO 20","straatNr":"","vervoerder":"DHL","puntType":"postOffice","bezettingsgraad":50,"latitude":37.320117,"longitude":13.661147,"canPickup":true,"canDropoff":true,"openingstijden":{"ma":"08:20 - 13:35","di":"08:20 - 13:35","wo":"08:20 - 13:35","do":"08:20 - 13:35","vr":"08:20 - 13:35","za":"08:20 - 12:35","zo":"gesloten"}}},{"type":"Feature","geometry":{"type":"Point","coordinates":[13.660951,37.319473]},"properties":{"type":"pakketpunt","locatieNaam":"STAZIONE DI SERVIZIO","straatNaam":"PIAZZA DELLA VITTORIA SNC 1","straatNr":"","vervoerder":"DHL","puntType":"packStation","bezettingsgraad":50,"latitude":37.319473,"longitude":13.660951,"canPickup":true,"canDropoff":true,"openingstijden":{"ma":"00:01 - 23:59","di":"00:01 - 23:59","wo":"00:01 - 23:59","do":"00:01 - 23:59","vr":"00:01 - 23:59","za":"00:01 - 23:59","zo":"00:01 - 23:59"}}},{"type":"Feature","geometry":{"type":"Point","coordinates":[13.65868,37.320173]},"properties":{"type":"pakketpunt","locatieNaam":"TABACCHERIA n. 7","straatNaam":"VIA AGRIGENTO 74","straatNr":"","vervoerder":"DHL","puntType":"parcelShop","bezettingsgraad":50,"latitude":37.320173,"longitude":13.65868,"canPickup":true,"canDropoff":true,"openingstijden":{"ma":"06:30 - 13:30, 15:00 - 20:30","di":"06:30 - 13:30, 15:00 - 20:30","wo":"06:30 - 13:30, 15:00 - 20:30","do":"06:30 - 13:30, 15:00 - 20:30","vr":"06:30 - 13:30, 15:00 - 20:30","za":"06:30 - 13:30, 15:00 - 20:30","zo":"gesloten"}}},{"type":"Feature","geometry":{"type":"Point","coordinates":[13.661949,37.314376]},"properties":{"type":"pakketpunt","locatieNaam":"TABACCHERIA N. 2","straatNaam":"CORSO VITTORIO VENETO 299","straatNr":"","vervoerder":"DHL","puntType":"parcelShop","bezettingsgraad":50,"latitude":37.314376,"longitude":13.661949,"canPickup":true,"canDropoff":true,"openingstijden":{"ma":"06:00 - 13:30, 15:00 - 20:00","di":"06:00 - 13:30, 15:00 - 20:00","wo":"06:00 - 13:30, 15:00 - 20:00","do":"06:00 - 13:30, 15:00 - 20:00","vr":"06:00 - 13:30, 15:00 - 20:00","za":"06:00 - 13:30, 15:00 - 20:00","zo":"gesloten"}}},{"type":"Feature","geometry":{"type":"Point","coordinates":[13.660805,37.31457]},"properties":{"type":"pakketpunt","locatieNaam":"Ufficio Postale FAVARA","straatNaam":"PIAZZA CAVOUR 74","straatNr":"","vervoerder":"DHL","puntType":"postOffice","bezettingsgraad":50,"latitude":37.31457,"longitude":13.660805,"canPickup":true,"canDropoff":true,"openingstijden":{"ma":"08:20 - 19:05","di":"08:20 - 19:05","wo":"08:20 - 19:05","do":"08:20 - 19:05","vr":"08:20 - 19:05","za":"08:20 - 12:35","zo":"gesloten"}}},{"type":"Feature","geometry":{"type":"Point","coordinates":[13.663841,37.309712]},"properties":{"type":"pakketpunt","locatieNaam":"TABACCHERIA N. 10","straatNaam":"VIA ENRICO BERLINGUER 34","straatNr":"","vervoerder":"DHL","puntType":"parcelShop","bezettingsgraad":50,"latitude":37.309712,"longitude":13.663841,"canPickup":true,"canDropoff":true,"openingstijden":{"ma":"05:00 - 13:00, 13:30 - 22:00","di":"gesloten","wo":"05:00 - 13:00, 13:30 - 22:00","do":"05:00 - 13:00, 13:30 - 22:00","vr":"05:00 - 13:00, 13:30 - 22:00","za":"05:00 - 13:00, 13:30 - 22:00","zo":"05:00 - 13:00, 13:30 - 22:00"}}},{"type":"Feature","geometry":{"type":"Point","coordinates":[13.657095,37.310379]},"properties":{"type":"pakketpunt","locatieNaam":"TABACCHERIA N. 5","straatNaam":"VIA QUATTRO NOVEMBRE 13","straatNr":"","vervoerder":"DHL","puntType":"parcelShop","bezettingsgraad":50,"latitude":37.310379,"longitude":13.657095,"canPickup":true,"canDropoff":true,"openingstijden":{"ma":"08:00 - 13:00, 16:00 - 20:00","di":"08:00 - 13:00, 16:00 - 20:00","wo":"08:00 - 13:00, 16:00 - 20:00","do":"08:00 - 13:00, 16:00 - 20:00","vr":"08:00 - 13:00, 16:00 - 20:00","za":"08:00 - 13:00, 16:00 - 20:00","zo":"gesloten"}}},{"type":"Feature","geometry":{"type":"Point","coordinates":[13.656361,37.308882]},"properties":{"type":"pakketpunt","locatieNaam":"CLICK","straatNaam":"VIA QUATTRO NOVEMBRE 63","straatNr":"","vervoerder":"DHL","puntType":"packStation","bezettingsgraad":50,"latitude":37.308882,"longitude":13.656361,"canPickup":true,"canDropoff":true,"openingstijden":{"ma":"09:30 - 13:15, 16:30 - 20:15","di":"09:30 - 13:15, 16:30 - 20:15","wo":"09:30 - 13:15, 16:30 - 20:15","do":"09:30 - 13:15, 16:30 - 20:15","vr":"09:30 - 13:15, 16:30 - 20:15","za":"09:30 - 13:15, 16:30 - 20:15","zo":"gesloten"}}},{"type":"Feature","geometry":{"type":"Point","coordinates":[13.653069,37.307332]},"properties":{"type":"pakketpunt","locatieNaam":"TERRASI","straatNaam":"VIA JOHN FITZGERALD KENNEDY 118","straatNr":"","vervoerder":"DHL","puntType":"parcelShop","bezettingsgraad":50,"latitude":37.307332,"longitude":13.653069,"canPickup":true,"canDropoff":true,"openingstijden":{"ma":"08:30 - 13:30, 15:30 - 18:30","di":"08:30 - 13:30, 15:30 - 18:30","wo":"08:30 - 13:30, 15:30 - 18:30","do":"08:30 - 13:30, 15:30 - 18:30","vr":"08:30 - 13:30, 15:30 - 18:30","za":"08:30 - 12:30","zo":"gesloten"}}},{"type":"Feature","geometry":{"type":"Point","coordinates":[13.648473,37.306611]},"properties":{"type":"pakketpunt","locatieNaam":"PARAFARMACIA GUCCIARDINO","straatNaam":"VIA PIERSANTI MATTARELLA 128","straatNr":"","vervoerder":"DHL","puntType":"parcelShop","bezettingsgraad":50,"latitude":37.306611,"longitude":13.648473,"canPickup":true,"canDropoff":true,"openingstijden":{"ma":"09:00 - 13:00, 16:30 - 20:30","di":"09:00 - 13:00, 16:30 - 20:30","wo":"09:00 - 13:00, 16:30 - 20:30","do":"09:00 - 13:00, 16:30 - 20:30","vr":"09:00 - 13:00, 16:30 - 20:30","za":"09:00 - 13:00, 16:30 - 20:30","zo":"gesloten"}}},{"type":"Feature","geometry":{"type":"Point","coordinates":[13.646225,37.30961]},"properties":{"type":"pakketpunt","locatieNaam":"TABACCHERIA N. 20","straatNaam":"VIA ALDO MORO 248","straatNr":"","vervoerder":"DHL","puntType":"parcelShop","bezettingsgraad":50,"latitude":37.30961,"longitude":13.646225,"canPickup":true,"canDropoff":true,"openingstijden":{"ma":"07:30 - 13:00, 16:00 - 20:30","di":"07:30 - 13:00, 16:00 - 20:30","wo":"07:30 - 13:00, 16:00 - 20:30","do":"07:30 - 13:00, 16:00 - 20:30","vr":"07:30 - 13:00, 16:00 - 20:30","za":"07:30 - 13:00, 16:00 - 20:30","zo":"gesloten"}}},{"type":"Feature","geometry":{"type":"Point","coordinates":[13.630498,37.359145]},"properties":{"type":"pakketpunt","locatieNaam":"SDA Agrigento","straatNaam":"VIA MANDRA SNC 1","straatNr":"","vervoerder":"DHL","puntType":"parcelShop","bezettingsgraad":50,"latitude":37.359145,"longitude":13.630498,"canPickup":false,"canDropoff":true,"openingstijden":{"ma":"08:30 - 18:30","di":"08:30 - 18:30","wo":"08:30 - 18:30","do":"08:30 - 18:30","vr":"08:30 - 18:30","za":"10:30 - 13:00","zo":"gesloten"}}},{"type":"Feature","geometry":{"type":"Point","coordinates":[13.6478233,37.2421513]},"properties":{"type":"pakketpunt","locatieNaam":"Amazon Counter - TRIO CAFE'","straatNaam":"VIA CONTRADA BURRAITI SNC","straatNr":"","vervoerder":"Amazon","puntType":"helix","bezettingsgraad":50,"latitude":37.2421513,"longitude":13.6478233,"canPickup":true,"canDropoff":false,"openingstijden":null}},{"type":"Feature","geometry":{"type":"Point","coordinates":[13.665586,37.321239]},"properties":{"type":"pakketpunt","locatieNaam":"Amazon Locker - ronzino","straatNaam":"ENI Station pv.55029","straatNr":"","vervoerder":"Amazon","puntType":"locker","bezettingsgraad":50,"latitude":37.321239,"longitude":13.665586,"canPickup":true,"canDropoff":false,"openingstijden":null}},{"type":"Feature","geometry":{"type":"Point","coordinates":[13.6607245705522,37.3202850004242]},"properties":{"type":"pakketpunt","locatieNaam":"Amazon Counter (fermopoint)","straatNaam":"Posta Flash-Servizi Postali","straatNr":"","vervoerder":"Amazon","puntType":"helix","bezettingsgraad":50,"latitude":37.3202850004242,"longitude":13.6607245705522,"canPickup":true,"canDropoff":false,"openingstijden":null}},{"type":"Feature","geometry":{"type":"Point","coordinates":[13.65296,37.307117]},"properties":{"type":"pakketpunt","locatieNaam":"Amazon Counter - TERRASI CARMELO","straatNaam":"VIA KENNEDY 116","straatNr":"","vervoerder":"Amazon","puntType":"helix","bezettingsgraad":50,"latitude":37.307117,"longitude":13.65296,"canPickup":true,"canDropoff":false,"openingstijden":null}},{"type":"Feature","geometry":{"type":"Point","coordinates":[13.656351,37.320141]},"properties":{"type":"pakketpunt","locatieNaam":"Amazon Counter (fermopoint)","straatNaam":"Look The Book","straatNr":"","vervoerder":"Amazon","puntType":"helix","bezettingsgraad":50,"latitude":37.320141,"longitude":13.656351,"canPickup":true,"canDropoff":false,"openingstijden":null}},{"type":"Feature","geometry":{"type":"Point","coordinates":[13.6486009153442,37.3065942312309]},"properties":{"type":"pakketpunt","locatieNaam":"Amazon Counter (fermopoint)","straatNaam":"Parafarmacia Gucciardino Dr.Fabio","straatNr":"","vervoerder":"Amazon","puntType":"helix","bezettingsgraad":50,"latitude":37.3065942312309,"longitude":13.6486009153442,"canPickup":true,"canDropoff":false,"openingstijden":null}},{"type":"Feature","geometry":{"type":"Point","coordinates":[13.656349,37.308965]},"properties":{"type":"pakketpunt","locatieNaam":"Amazon Counter - LICATA MARIO CHRISTIAN","straatNaam":"VIA IV NOVENBRE 63","straatNr":"","vervoerder":"Amazon","puntType":"helix","bezettingsgraad":50,"latitude":37.308965,"longitude":13.656349,"canPickup":true,"canDropoff":false,"openingstijden":null}},{"type":"Feature","geometry":{"type":"Point","coordinates":[13.6611,37.3201]},"properties":{"type":"pakketpunt","locatieNaam":"Ufficio Postale FAVARA 2","straatNaam":"VIA CARLO ALBERTO 20","straatNr":"","vervoerder":"Amazon","puntType":"3p","bezettingsgraad":50,"latitude":37.3201,"longitude":13.6611,"canPickup":true,"canDropoff":false,"openingstijden":null}},{"type":"Feature","geometry":{"type":"Point","coordinates":[13.663422,37.324426]},"properties":{"type":"pakketpunt","locatieNaam":"Amazon Counter - EDICOLA SALVAGGIO","straatNaam":"VIA CAPITANO CALLEA 99","straatNr":"","vervoerder":"Amazon","puntType":"helix","bezettingsgraad":50,"latitude":37.324426,"longitude":13.663422,"canPickup":true,"canDropoff":false,"openingstijden":null}},{"type":"Feature","geometry":{"type":"Point","coordinates":[13.6558444,37.3097595]},"properties":{"type":"pakketpunt","locatieNaam":"Amazon Counter - Music Zone","straatNaam":"Via Milano, 19","straatNr":"","vervoerder":"Amazon","puntType":"helix","bezettingsgraad":50,"latitude":37.3097595,"longitude":13.6558444,"canPickup":true,"canDropoff":false,"openingstijden":null}},{"type":"Feature","geometry":{"type":"Point","coordinates":[13.657,37.3103]},"properties":{"type":"pakketpunt","locatieNaam":"PuntoPoste TABACCHERIA N. 5","straatNaam":"VIA QUATTRO NOVEMBRE 13","straatNr":"","vervoerder":"Amazon","puntType":"3p","bezettingsgraad":50,"latitude":37.3103,"longitude":13.657,"canPickup":true,"canDropoff":false,"openingstijden":null}},{"type":"Feature","geometry":{"type":"Point","coordinates":[13.6653614,37.3086433]},"properties":{"type":"pakketpunt","locatieNaam":"Amazon Counter (fermopoint)","straatNaam":"Ideal Market Fratelli Infurna","straatNr":"","vervoerder":"Amazon","puntType":"helix","bezettingsgraad":50,"latitude":37.3086433,"longitude":13.6653614,"canPickup":true,"canDropoff":false,"openingstijden":null}},{"type":"Feature","geometry":{"type":"Point","coordinates":[13.6608,37.3145]},"properties":{"type":"pakketpunt","locatieNaam":"Ufficio Postale FAVARA","straatNaam":"PIAZZA CAVOUR 74","straatNr":"","vervoerder":"Amazon","puntType":"3p","bezettingsgraad":50,"latitude":37.3145,"longitude":13.6608,"canPickup":true,"canDropoff":false,"openingstijden":null}},{"type":"Feature","geometry":{"type":"Polygon","coordinates":[[[13.6301366,37.359205],[13.6309393,37.3579115],[13.6126506,37.351298],[13.6121177,37.3510814],[13.6103952,37.3500199],[13.6100622,37.3479348],[13.6098746,37.3472277],[13.609924,37.3467776],[13.6096145,37.3461452],[13.6103638,37.345574],[13.6108334,37.3457834],[13.6124666,37.3469614],[13.613444,37.3474662],[13.6188351,37.3488976],[13.6200163,37.3493774],[13.6198177,37.3482411],[13.6201444,37.3476262],[13.6211348,37.3464129],[13.6185634,37.3456276],[13.6188299,37.3450418],[13.6193003,37.345183],[13.6196034,37.3445806],[13.6179675,37.3440113],[13.6182961,37.342104],[13.617332,37.3417033],[13.6179108,37.3416865],[13.6181654,37.3416069],[13.6185418,37.3413023],[13.6189855,37.3413557],[13.6198057,37.3411045],[13.6201149,37.3408052],[13.6201956,37.3405326],[13.6206662,37.33995],[13.6218001,37.3393023],[13.6221217,37.3383085],[13.622542,37.3375648],[13.62335,37.3366504],[13.623572,37.3367038],[13.6239045,37.3366468],[13.6241202,37.3367539],[13.6241562,37.3371326],[13.6243089,37.3374255],[13.6245516,37.3376185],[13.625001,37.3376042],[13.6254144,37.3369968],[13.6257829,37.3368539],[13.6262861,37.3369611],[13.6270321,37.3374756],[13.6274725,37.3375613],[13.6279847,37.3374255],[13.6282903,37.3371612],[13.6287127,37.3371326],[13.6290542,37.3373041],[13.6290812,37.337597],[13.6289464,37.3378257],[13.6283442,37.3381472],[13.6275264,37.3380758],[13.6272658,37.338183],[13.6272118,37.3383402],[13.6273377,37.3385974],[13.629899,37.3393977],[13.6303844,37.3393334],[13.6310854,37.3388332],[13.6314808,37.3387761],[13.6318313,37.3388261],[13.6321818,37.3389904],[13.6325593,37.3390119],[13.6329727,37.3394049],[13.6332962,37.339562],[13.6338714,37.339562],[13.6342938,37.3398907],[13.6344646,37.3402623],[13.6342165,37.3410294],[13.6339713,37.3413438],[13.6339849,37.3415153],[13.63443,37.3420906],[13.6349996,37.3420446],[13.6354774,37.3417085],[13.6359502,37.3415413],[13.6372806,37.3420436],[13.6376543,37.3423255],[13.6382173,37.3424452],[13.6386479,37.3423973],[13.6390935,37.342225],[13.6396746,37.3418563],[13.639854,37.3415264],[13.6401264,37.3413397],[13.6406619,37.3413098],[13.641094,37.3414293],[13.6417526,37.341718],[13.6420791,37.3420158],[13.6423961,37.3427488],[13.6427226,37.3430619],[13.6433373,37.3433979],[13.6445154,37.3438767],[13.6453599,37.3445325],[13.646882,37.3451492],[13.6477265,37.3451883],[13.6483157,37.3449619],[13.6489245,37.3445325],[13.6497199,37.3436035],[13.6502011,37.3433771],[13.6510358,37.34326],[13.6515712,37.3433901],[13.6529708,37.3440627],[13.653082,37.3436649],[13.653835,37.3431332],[13.65447,37.3423919],[13.6549943,37.3411873],[13.6562722,37.3390241],[13.6567284,37.3376011],[13.6577839,37.3365447],[13.6579427,37.3358058],[13.6584957,37.3355684],[13.6581556,37.3346733],[13.6586837,37.3339298],[13.6588851,37.3333786],[13.656975,37.3326525],[13.6558899,37.3317437],[13.6552634,37.3313801],[13.6548062,37.3312398],[13.6541765,37.3306107],[13.6546622,37.3302223],[13.6548203,37.329752],[13.6548378,37.3294205],[13.6545417,37.3289694],[13.6544883,37.3287474],[13.6546446,37.3280321],[13.6551347,37.3269154],[13.6554013,37.3254662],[13.654588,37.3255604],[13.6539127,37.3257582],[13.6529866,37.3258202],[13.6528842,37.32544],[13.6526423,37.3251029],[13.6529496,37.3246481],[13.6514614,37.3250033],[13.6514017,37.3247748],[13.6509691,37.3248223],[13.6508325,37.3244738],[13.6490171,37.3248766],[13.6491195,37.3243381],[13.6490285,37.324157],[13.6481293,37.3239715],[13.6475033,37.3237339],[13.6465216,37.3235506],[13.6466507,37.3239087],[13.6454346,37.3240665],[13.6452411,37.3236773],[13.6452269,37.3232451],[13.645096,37.3232338],[13.6451216,37.3227269],[13.644635,37.3227677],[13.6443789,37.3226771],[13.6443681,37.3225329],[13.6438616,37.3226717],[13.6430995,37.3224686],[13.6424095,37.322601],[13.6389592,37.322257],[13.6388835,37.3227197],[13.6387797,37.3226475],[13.6384369,37.3238534],[13.6378495,37.3237484],[13.6376527,37.3233201],[13.6371227,37.3226406],[13.6355436,37.3232186],[13.635483,37.3231429],[13.6355782,37.322964],[13.6360887,37.3226578],[13.6358667,37.3222952],[13.6354614,37.3220609],[13.6352991,37.3218149],[13.6347778,37.3216446],[13.634873,37.3214674],[13.6359588,37.3205673],[13.6364215,37.3207348],[13.6362362,37.3185777],[13.6369186,37.3186872],[13.6368772,37.317939],[13.6370796,37.3176194],[13.6372979,37.3162153],[13.6376635,37.3153946],[13.6382389,37.3150753],[13.6374607,37.3148139],[13.6366364,37.3141732],[13.6356952,37.3147309],[13.6343165,37.3131701],[13.6343892,37.3128382],[13.6346846,37.3126554],[13.6347081,37.3125473],[13.6343517,37.3120997],[13.6343119,37.311719],[13.6342318,37.3116649],[13.6340249,37.3110933],[13.6325804,37.3104178],[13.6322927,37.3104349],[13.6331179,37.3096363],[13.6322111,37.3098496],[13.6316946,37.3096288],[13.6315211,37.3094657],[13.6313584,37.3087584],[13.6310976,37.308601],[13.63098,37.308367],[13.6304792,37.3080598],[13.630267,37.3078303],[13.6299017,37.3076725],[13.629757,37.307456],[13.6286875,37.3065979],[13.628481,37.3061672],[13.6283869,37.3053424],[13.6282375,37.3051906],[13.6281649,37.3042517],[13.6282464,37.303964],[13.6286487,37.3035283],[13.629273,37.3023858],[13.629694,37.3025134],[13.6308004,37.3017969],[13.6310592,37.3023035],[13.631279,37.3024648],[13.631867,37.3018652],[13.632075,37.3014297],[13.6321724,37.3010045],[13.6333831,37.3003243],[13.6340272,37.300292],[13.6350806,37.300088],[13.6360848,37.2997621],[13.6374055,37.2998734],[13.6390691,37.2998093],[13.6396957,37.2992039],[13.6399042,37.2988325],[13.6402957,37.2983981],[13.64058,37.2982191],[13.6408516,37.2977566],[13.6409747,37.2976384],[13.6412421,37.2975642],[13.6418362,37.2968349],[13.6422267,37.2965513],[13.6421206,37.2964602],[13.6418999,37.2964635],[13.6418999,37.2963454],[13.6420612,37.2957208],[13.6424813,37.2954203],[13.642371,37.2949915],[13.6422182,37.2947721],[13.642163,37.2943804],[13.6418856,37.2939088],[13.6419211,37.2937862],[13.6423249,37.2935553],[13.6422629,37.2932043],[13.6423836,37.2927825],[13.6423166,37.2923889],[13.6425769,37.2922648],[13.6429976,37.2922102],[13.6433542,37.2919819],[13.6435599,37.291776],[13.643553,37.2914991],[13.6438124,37.2914719],[13.6440172,37.291347],[13.6440582,37.2910918],[13.6437267,37.2904339],[13.6434417,37.2903335],[13.6435121,37.2895603],[13.6432732,37.2894789],[13.6429207,37.2889445],[13.6425016,37.2887176],[13.6421447,37.2883856],[13.6420687,37.2881039],[13.6421837,37.2878253],[13.6421974,37.2875149],[13.6419292,37.2871479],[13.6417683,37.2864821],[13.6418863,37.2862004],[13.6421116,37.2861577],[13.6423154,37.2859614],[13.6423583,37.2855175],[13.6422832,37.2851846],[13.6421223,37.2849626],[13.642133,37.2843736],[13.6415537,37.2843907],[13.6413713,37.2840492],[13.6411353,37.2839383],[13.6409743,37.2837078],[13.6408563,37.2832554],[13.6408456,37.2826322],[13.6409636,37.2821798],[13.6410175,37.2804419],[13.6405666,37.2817188],[13.6401911,37.2815737],[13.6399873,37.2810785],[13.6395367,37.2809078],[13.6394186,37.2805322],[13.6386676,37.2799176],[13.6389895,37.2796614],[13.6394079,37.2795675],[13.6395796,37.27932],[13.6396976,37.2787992],[13.6394079,37.2784577],[13.6396332,37.2775955],[13.639365,37.2770833],[13.6397191,37.276665],[13.6398371,37.2764686],[13.63988,37.2761698],[13.6402233,37.2757259],[13.6409958,37.2750941],[13.6413928,37.2734041],[13.6416395,37.2731053],[13.6418756,37.2730029],[13.6426266,37.2733529],[13.6427768,37.2732419],[13.6429484,37.2727041],[13.6433033,37.2724114],[13.6430986,37.2720552],[13.6424549,37.2717393],[13.6423583,37.2708941],[13.6421974,37.2704416],[13.6424227,37.2701598],[13.6427982,37.2697927],[13.6454584,37.2695459],[13.6475426,37.2697319],[13.648276,37.2697233],[13.6495576,37.2699363],[13.6504725,37.2698462],[13.6514397,37.2699645],[13.6548836,37.2687651],[13.6568001,37.2685652],[13.6598337,37.2677891],[13.6603753,37.2677013],[13.6621047,37.2679596],[13.6620567,37.2677161],[13.6626491,37.2668149],[13.6633523,37.2652214],[13.6633544,37.2641296],[13.6637331,37.2629404],[13.6655436,37.2623217],[13.6677296,37.2614249],[13.6686802,37.2608954],[13.668739,37.2604892],[13.6677377,37.2573178],[13.6669107,37.2565025],[13.6665889,37.2560817],[13.6663455,37.2554281],[13.6661338,37.2543864],[13.6659281,37.2540745],[13.6650175,37.2535043],[13.664618,37.253406],[13.6641064,37.2534665],[13.6631399,37.2530227],[13.6629241,37.2525979],[13.6620508,37.2520564],[13.6596824,37.2512172],[13.6593429,37.2511457],[13.657763,37.2512413],[13.6572582,37.2513985],[13.6564476,37.2514708],[13.655762,37.2516579],[13.6550666,37.2515643],[13.6542053,37.2512674],[13.6539869,37.250568],[13.6537482,37.2505238],[13.6525322,37.250653],[13.6517906,37.2504625],[13.6516199,37.2502608],[13.6511259,37.2499339],[13.6506367,37.249901],[13.6502199,37.2496828],[13.6500175,37.2488925],[13.6498208,37.2485511],[13.6496467,37.2479583],[13.6494719,37.2477369],[13.649073,37.2476714],[13.6484162,37.2477496],[13.6476055,37.2477123],[13.6468802,37.2474459],[13.6463553,37.2473759],[13.6454092,37.247536],[13.6444903,37.2475638],[13.6431543,37.2477892],[13.6430213,37.2472597],[13.6427198,37.246823],[13.6428191,37.2457259],[13.6425715,37.244916],[13.6423178,37.2444547],[13.6428575,37.2440479],[13.6425841,37.2437171],[13.6422037,37.2435434],[13.6420844,37.2433297],[13.6421865,37.2429396],[13.6422988,37.2427445],[13.6425132,37.2426226],[13.642942,37.2425169],[13.6432993,37.2426145],[13.6438711,37.2431834],[13.6441773,37.2437279],[13.644453,37.2438255],[13.6446368,37.2437198],[13.6441088,37.2423378],[13.6443939,37.2421632],[13.6455681,37.2421266],[13.6458109,37.2424032],[13.6462805,37.2423869],[13.6465459,37.2419074],[13.6464234,37.2416392],[13.6458247,37.2412961],[13.6462324,37.2406812],[13.6465972,37.2398014],[13.6468439,37.239622],[13.6476873,37.2395877],[13.6492868,37.2391781],[13.6497018,37.2391988],[13.6502076,37.2395395],[13.6512063,37.23998],[13.6514181,37.2403758],[13.6517683,37.2405995],[13.6517899,37.2407131],[13.6519741,37.2408569],[13.6522512,37.2405872],[13.6531096,37.240331],[13.6533134,37.2400833],[13.6533027,37.2397331],[13.653646,37.2394],[13.6546545,37.2391779],[13.6549549,37.2389985],[13.6559956,37.2394427],[13.6564891,37.23981],[13.6568754,37.2398783],[13.6575298,37.2397587],[13.6576049,37.240032],[13.6573689,37.2402541],[13.6573367,37.2405701],[13.6576479,37.2407239],[13.6583881,37.2408691],[13.6587958,37.240852],[13.6597722,37.2402712],[13.6602013,37.2403822],[13.6604695,37.2406299],[13.6604588,37.2407922],[13.6600618,37.2411766],[13.6600082,37.2414072],[13.6602442,37.2417744],[13.6607912,37.2420325],[13.6608871,37.2422811],[13.6614461,37.2427055],[13.6614944,37.2433625],[13.6616066,37.2435463],[13.6629141,37.2437894],[13.6638218,37.2441226],[13.6642646,37.2446266],[13.6646143,37.2447767],[13.6649111,37.2446407],[13.6653849,37.2439724],[13.6655012,37.2436087],[13.6657923,37.2435392],[13.6662738,37.2436791],[13.6674258,37.2434259],[13.667733,37.2432264],[13.6679485,37.2427621],[13.6682056,37.2425574],[13.6688488,37.2423211],[13.6699009,37.2420365],[13.6711769,37.2420307],[13.6724858,37.2424492],[13.6733227,37.2426115],[13.6737626,37.2425858],[13.6745136,37.2422015],[13.6752646,37.241467],[13.6760478,37.2411766],[13.6767881,37.2412107],[13.6781399,37.2415609],[13.6788909,37.2415951],[13.6796619,37.2419155],[13.6803286,37.2420392],[13.6806719,37.2421929],[13.6812489,37.2427199],[13.6817987,37.2428716],[13.6824076,37.2427378],[13.6830287,37.242783],[13.6848973,37.2431504],[13.6854686,37.2433255],[13.6858482,37.2436425],[13.6859793,37.2441188],[13.6876515,37.2445414],[13.6884274,37.2444615],[13.6888616,37.2441346],[13.6889868,37.2437047],[13.6893495,37.2434971],[13.6901627,37.2433486],[13.6904954,37.2433627],[13.6907302,37.243263],[13.6911329,37.2428708],[13.6917272,37.2426852],[13.692628,37.2429222],[13.6932819,37.2427768],[13.693571,37.2428429],[13.6937971,37.2430218],[13.691783,37.2452728],[13.6881272,37.2496461],[13.6877476,37.2499701],[13.686583,37.2507023],[13.6861943,37.2514241],[13.6856661,37.2518656],[13.6853495,37.2530406],[13.6837952,37.253991],[13.6832375,37.2552844],[13.6835254,37.2561552],[13.6835515,37.2576879],[13.6832948,37.2583226],[13.683183,37.259473],[13.6832964,37.2604608],[13.6836007,37.261391],[13.6839051,37.2616805],[13.684754,37.2609149],[13.6856742,37.2604282],[13.6880869,37.2604905],[13.688507,37.2606056],[13.688803,37.2605234],[13.6891431,37.2607913],[13.6894572,37.2608303],[13.6896844,37.2608139],[13.690428,37.2604028],[13.6907585,37.2603152],[13.6917638,37.2603919],[13.6922527,37.2603371],[13.6923835,37.2604631],[13.6927003,37.2603426],[13.6931134,37.2604302],[13.6932856,37.2602823],[13.6937813,37.260211],[13.6940086,37.2603152],[13.6943631,37.2605751],[13.694766,37.2607426],[13.694945,37.261055],[13.6949519,37.2613838],[13.6950585,37.2616907],[13.6956267,37.2622113],[13.7006118,37.2638114],[13.7011214,37.264069],[13.7018857,37.2646115],[13.7027849,37.2650655],[13.7031893,37.2654493],[13.7043205,37.2658926],[13.707291,37.2674232],[13.7084037,37.268122],[13.7087437,37.2686172],[13.7090211,37.2695748],[13.7097022,37.2701306],[13.7104748,37.2709729],[13.7110676,37.2712696],[13.7110901,37.2718858],[13.7112873,37.2726246],[13.7116925,37.2736836],[13.712406,37.2750261],[13.7124999,37.2753858],[13.7136682,37.2766076],[13.7136352,37.2767236],[13.7124985,37.2774549],[13.71171,37.2777535],[13.7115344,37.2777432],[13.7114693,37.2780867],[13.7020643,37.2792342],[13.7022587,37.2793967],[13.7022823,37.2795106],[13.7021815,37.2803619],[13.7016482,37.2812986],[13.701375,37.2820231],[13.701049,37.282487],[13.7007326,37.2825902],[13.6999214,37.2830866],[13.6998685,37.2832456],[13.6996319,37.2833298],[13.6994245,37.2832842],[13.6987567,37.2839411],[13.6984742,37.2840724],[13.6982986,37.2843777],[13.697892,37.2843989],[13.697762,37.2845692],[13.6971291,37.284587],[13.697054,37.2850821],[13.6966033,37.2858162],[13.6966248,37.2862686],[13.6968823,37.2868918],[13.6974643,37.2874893],[13.6982985,37.2879844],[13.6990066,37.288599],[13.699586,37.2892562],[13.7005194,37.2900927],[13.7010129,37.2907329],[13.7011309,37.2913901],[13.7007232,37.2924656],[13.7012458,37.2932635],[13.7030053,37.2945275],[13.7039854,37.2945627],[13.7042165,37.2946465],[13.7042938,37.2947731],[13.7041286,37.295588],[13.7044779,37.2971213],[13.7047516,37.297332],[13.7054447,37.297566],[13.705793,37.2978226],[13.7060969,37.2985303],[13.706054,37.2987786],[13.7057585,37.2992918],[13.7053349,37.2994642],[13.7050406,37.299688],[13.7045567,37.3011411],[13.7029708,37.3035936],[13.7027299,37.3041072],[13.7028083,37.3046514],[13.7032101,37.3053425],[13.703481,37.3060913],[13.704079,37.3068923],[13.704404,37.307664],[13.7041479,37.3080714],[13.703066,37.3086325],[13.7032098,37.3091185],[13.7028826,37.3091899],[13.7013602,37.3091644],[13.7012223,37.3095277],[13.7009736,37.3115883],[13.7001018,37.3135156],[13.6998334,37.3144968],[13.6991291,37.3151216],[13.6977993,37.315589],[13.6975469,37.3163979],[13.6974233,37.3165579],[13.6978621,37.3169764],[13.6978349,37.3171593],[13.697194,37.3180344],[13.6973082,37.3182075],[13.6969042,37.318414],[13.6968623,37.318532],[13.6970326,37.3186702],[13.6978214,37.3189696],[13.6982051,37.3193175],[13.6984603,37.3194276],[13.6995689,37.3205299],[13.6998545,37.3215317],[13.6999532,37.3216676],[13.7004611,37.321972],[13.7007789,37.3224322],[13.7011667,37.3236194],[13.7011552,37.3240324],[13.7013969,37.3247732],[13.7013221,37.3251122],[13.7015039,37.3254822],[13.7015367,37.3259974],[13.701755,37.3262433],[13.7023001,37.326476],[13.7025119,37.3264292],[13.7028027,37.3265289],[13.7032071,37.3268101],[13.7035188,37.3271442],[13.7036134,37.327624],[13.7037474,37.3278553],[13.7041122,37.3283234],[13.7043279,37.3284748],[13.7045797,37.3285572],[13.7056622,37.3285993],[13.7060566,37.3288143],[13.7064539,37.3289115],[13.7066462,37.329491],[13.7077571,37.3295584],[13.7079005,37.3296847],[13.7079301,37.3298554],[13.7082892,37.330138],[13.7087133,37.3301411],[13.7090204,37.3303042],[13.7095109,37.33108],[13.7100437,37.3312536],[13.7108019,37.3313697],[13.7109177,37.3315922],[13.7114434,37.3317305],[13.7118554,37.3320947],[13.7121456,37.3321487],[13.712509,37.3320354],[13.7131204,37.3321414],[13.7134795,37.3323929],[13.7136196,37.3327797],[13.7142356,37.3326298],[13.7150128,37.3329251],[13.7153976,37.3328867],[13.7157472,37.333256],[13.7163526,37.3334307],[13.7167204,37.3336739],[13.7170424,37.3337571],[13.7176263,37.3337474],[13.7179369,37.3336321],[13.7183631,37.3336003],[13.7195935,37.3340251],[13.7202031,37.333878],[13.7204208,37.3339188],[13.7207465,37.3341089],[13.7212479,37.3341906],[13.721382,37.3343287],[13.7213525,37.3345441],[13.7214316,37.3346271],[13.7220795,37.3347625],[13.7222869,37.3347479],[13.7233736,37.3341949],[13.7241536,37.3343549],[13.7248,37.3342479],[13.7260781,37.3346646],[13.7272315,37.3345734],[13.7274571,37.3344512],[13.7274937,37.3343043],[13.7276198,37.3342223],[13.7278138,37.3342108],[13.7280659,37.3342515],[13.7283199,37.3345055],[13.7294692,37.3348058],[13.7299034,37.3351055],[13.7304111,37.3350718],[13.7306286,37.3352054],[13.7314182,37.3351662],[13.7319532,37.3353174],[13.7322946,37.3352998],[13.7331715,37.3361887],[13.7336098,37.3364885],[13.7345052,37.3374616],[13.7365073,37.3393892],[13.7359401,37.3395045],[13.7347314,37.3392893],[13.7343079,37.3393313],[13.7331527,37.3402427],[13.7326124,37.340567],[13.7311442,37.3408857],[13.7306496,37.3410748],[13.7304578,37.3415801],[13.7284951,37.3411148],[13.7283379,37.3412846],[13.7268802,37.3421413],[13.726283,37.3426813],[13.7255734,37.3441843],[13.724768,37.3453688],[13.7243985,37.3467841],[13.7242438,37.3471224],[13.7243604,37.3476903],[13.7241746,37.3481449],[13.7237248,37.3484149],[13.7235504,37.3490644],[13.7232575,37.3493665],[13.7231542,37.349666],[13.7219064,37.3504782],[13.7214278,37.3503955],[13.7211332,37.350715],[13.7212189,37.3508959],[13.7211684,37.3510491],[13.7212739,37.3511951],[13.7211964,37.3515347],[13.7208336,37.3517437],[13.7199191,37.3516471],[13.7197202,37.3515369],[13.7192361,37.3515782],[13.7189394,37.3515005],[13.7186226,37.3512644],[13.7184257,37.3508786],[13.7184316,37.350695],[13.7185442,37.3505073],[13.7185094,37.3503687],[13.7170056,37.3502723],[13.7165592,37.3504086],[13.7162207,37.3508594],[13.7160417,37.3509178],[13.7162775,37.3513497],[13.7168968,37.3536786],[13.7165118,37.3546205],[13.7157992,37.3552742],[13.7135694,37.3567699],[13.7129206,37.357598],[13.7117951,37.3584718],[13.7116551,37.3588255],[13.7107685,37.3586543],[13.7098093,37.3587444],[13.7093066,37.3592034],[13.7087725,37.3602432],[13.7078851,37.3609861],[13.7072545,37.3616948],[13.705931,37.3625803],[13.7050876,37.3633306],[13.7039789,37.3640678],[13.7038349,37.3643313],[13.7039904,37.3647228],[13.7048934,37.3654527],[13.7043095,37.3658548],[13.7039611,37.3664844],[13.7031537,37.3673264],[13.7028242,37.3674718],[13.7018917,37.3675369],[13.7015042,37.3675269],[13.701157,37.3673965],[13.7004972,37.3679363],[13.6997778,37.3676171],[13.6990775,37.3675206],[13.6984136,37.3672816],[13.6981301,37.3670712],[13.6978151,37.3669961],[13.6977106,37.3668432],[13.6977174,37.3666731],[13.6972291,37.3663827],[13.6965786,37.3661351],[13.6956696,37.3659195],[13.6952758,37.3657016],[13.6950332,37.365644],[13.6943266,37.3656866],[13.6934666,37.3661246],[13.6926904,37.3657905],[13.6919444,37.3656235],[13.6905943,37.3649104],[13.6900381,37.3649015],[13.6898532,37.3653441],[13.6897405,37.3666506],[13.6898067,37.3671839],[13.6907004,37.3686917],[13.6909336,37.3694346],[13.6910382,37.3704237],[13.6910574,37.3723134],[13.6914889,37.3740793],[13.6918127,37.3740371],[13.6919206,37.3744747],[13.6924877,37.3755838],[13.6923393,37.3761227],[13.6919301,37.37644],[13.6912842,37.3771886],[13.6911362,37.3774915],[13.6910568,37.3774975],[13.6910172,37.3779106],[13.69039,37.3786539],[13.6898813,37.3786222],[13.6894642,37.3788054],[13.6890108,37.3795808],[13.6889403,37.3798937],[13.688754,37.3800388],[13.6885797,37.3800189],[13.687976,37.3805086],[13.6870448,37.3802102],[13.6864636,37.3798626],[13.6856971,37.379797],[13.6852135,37.3798674],[13.6847081,37.3797121],[13.6835236,37.3797168],[13.6829828,37.3798777],[13.6823924,37.3798687],[13.6809917,37.3792628],[13.6803924,37.37892],[13.6795046,37.3786443],[13.6789519,37.378223],[13.6776248,37.3775188],[13.6770511,37.3772419],[13.6767225,37.3771869],[13.6746671,37.3757266],[13.6741835,37.3754291],[13.6738001,37.3752941],[13.6740555,37.3752048],[13.6743588,37.3749718],[13.6727292,37.3735344],[13.671936,37.3723405],[13.6717515,37.3716122],[13.6710184,37.3711984],[13.6702083,37.3709101],[13.6693691,37.3707856],[13.6688525,37.3705231],[13.6681432,37.3705286],[13.6677165,37.3706324],[13.66671,37.3705563],[13.6649265,37.3693601],[13.6643833,37.3692587],[13.6636961,37.3685238],[13.6633715,37.3684317],[13.662509,37.3679833],[13.6616959,37.3677303],[13.6611944,37.3673652],[13.6602286,37.3670241],[13.6597516,37.3669878],[13.6591685,37.3667163],[13.6584954,37.3666443],[13.6577692,37.3668145],[13.6570258,37.3668724],[13.65655,37.3669939],[13.6563241,37.3671502],[13.6561913,37.3674373],[13.655907,37.3675218],[13.6556254,37.3674859],[13.6550055,37.3670831],[13.6548868,37.3671227],[13.6547057,37.3675344],[13.6542181,37.3680528],[13.6538028,37.3683052],[13.6537634,37.368453],[13.6539234,37.368819],[13.65447,37.3693517],[13.6546245,37.37001],[13.6550106,37.3702165],[13.6549193,37.3703504],[13.6549024,37.3705873],[13.654666,37.3708365],[13.6549187,37.3712338],[13.6549743,37.3715559],[13.6548576,37.3721037],[13.654716,37.3722688],[13.6537603,37.3726099],[13.6523097,37.3727481],[13.6514524,37.37333],[13.6507666,37.3745387],[13.6501878,37.3749818],[13.6502835,37.3754437],[13.6501424,37.3759763],[13.6495242,37.376193],[13.6492545,37.3764049],[13.6491206,37.3765915],[13.6490698,37.376894],[13.6485567,37.3774548],[13.6476053,37.3778389],[13.647391,37.3782229],[13.6474637,37.3785191],[13.6474062,37.3787984],[13.6476487,37.3792784],[13.6496974,37.3803393],[13.6511938,37.381955],[13.6516575,37.3823043],[13.6522968,37.3824823],[13.6533507,37.3829771],[13.6542936,37.383272],[13.65671,37.3846925],[13.6572511,37.3853812],[13.6582411,37.3860575],[13.658949,37.3869605],[13.659648,37.3876519],[13.6601481,37.3883707],[13.6610028,37.3889963],[13.6616625,37.3893447],[13.6617342,37.3898999],[13.6614385,37.3896915],[13.659416,37.3899383],[13.658173,37.390336],[13.6570994,37.3904679],[13.6557359,37.3903015],[13.6546539,37.3903292],[13.6537929,37.3901397],[13.6534165,37.3901458],[13.6520313,37.3902817],[13.6506934,37.390716],[13.6444347,37.3912855],[13.6441155,37.3908822],[13.6427083,37.3896908],[13.6400181,37.3860582],[13.6399234,37.3857575],[13.6401203,37.3854891],[13.64186,37.3842704],[13.6419642,37.3839469],[13.6427839,37.3838338],[13.6427414,37.3834243],[13.6433812,37.3824481],[13.6436219,37.381366],[13.6438087,37.3813053],[13.6440012,37.3809341],[13.6440663,37.3802435],[13.6439616,37.3788082],[13.6440352,37.3772357],[13.6438936,37.3772447],[13.64382,37.3768443],[13.6428207,37.3771232],[13.6417534,37.3769522],[13.6406606,37.3769972],[13.6400171,37.3766586],[13.6395916,37.375368],[13.6397033,37.3741556],[13.6395421,37.3733492],[13.6391315,37.3730486],[13.6386521,37.3720976],[13.6386329,37.3716991],[13.6383954,37.3714451],[13.6381638,37.3710237],[13.6382077,37.3706457],[13.6373042,37.369691],[13.6376434,37.3692342],[13.6376005,37.3689294],[13.6353314,37.3662264],[13.6320713,37.3614952],[13.632411,37.3613512],[13.632147,37.360971],[13.6316327,37.360722],[13.6307979,37.3596108],[13.6301366,37.359205]]]},"properties":{"type":"boundary","gemeente":"Favara"}}]}