{"type":"FeatureCollection","metadata":{"gemeente":"Fermo","slug":"fermo","generated_at":"2026-09-26T13:09:56.441594Z","total_points":128,"providers":["PosteItaliane","DPD","InPost","GLS","DHL","Amazon"],"bounds":[13.64404,43.1376,13.81218602,43.22919242]},"features":[{"type":"Feature","geometry":{"type":"Point","coordinates":[13.79695264,43.15789023]},"properties":{"type":"pakketpunt","locatieNaam":"Tabaccheria N. 26","straatNaam":"Via San Pietro Vecchio","straatNr":"14","vervoerder":"PosteItaliane","puntType":"servicepunt","bezettingsgraad":50,"latitude":43.15789023,"longitude":13.79695264,"canPickup":true,"canDropoff":true,"openingstijden":{"za":"04:00 - 20:00","zo":"04:00 - 20:00","ma":"04:30 - 20:00","di":"04:30 - 20:00","wo":"04:30 - 20:00","do":"04:30 - 20:00","vr":"04:30 - 20:00"}}},{"type":"Feature","geometry":{"type":"Point","coordinates":[13.7890255,43.20283547]},"properties":{"type":"pakketpunt","locatieNaam":"Tabaccheria N. 39","straatNaam":"Lungomare Fermano Snc","straatNr":"1","vervoerder":"PosteItaliane","puntType":"servicepunt","bezettingsgraad":50,"latitude":43.20283547,"longitude":13.7890255,"canPickup":true,"canDropoff":true,"openingstijden":{"za":"07:00 - 20:00","zo":"gesloten","ma":"gesloten","di":"gesloten","wo":"07:00 - 20:00","do":"07:00 - 20:00","vr":"07:00 - 20:00"}}},{"type":"Feature","geometry":{"type":"Point","coordinates":[13.73124781,43.1690532]},"properties":{"type":"pakketpunt","locatieNaam":"Tabaccheria N. 7","straatNaam":"Viale Trento","straatNr":"198","vervoerder":"PosteItaliane","puntType":"servicepunt","bezettingsgraad":50,"latitude":43.1690532,"longitude":13.73124781,"canPickup":true,"canDropoff":true,"openingstijden":{"za":"07:30 - 13:00, 16:00 - 20:00","zo":"gesloten","ma":"07:30 - 13:00, 16:00 - 20:00","di":"07:30 - 13:00, 16:00 - 20:00","wo":"07:30 - 13:00, 16:00 - 20:00","do":"07:30 - 13:00, 16:00 - 20:00","vr":"07:30 - 13:00, 16:00 - 20:00"}}},{"type":"Feature","geometry":{"type":"Point","coordinates":[13.75083688,43.17620101]},"properties":{"type":"pakketpunt","locatieNaam":"Tabaccheria N. 13","straatNaam":"Via Giuseppe Giammarco","straatNr":"5","vervoerder":"PosteItaliane","puntType":"servicepunt","bezettingsgraad":50,"latitude":43.17620101,"longitude":13.75083688,"canPickup":true,"canDropoff":true,"openingstijden":{"za":"07:00 - 13:00, 17:00 - 20:00","zo":"gesloten","ma":"07:00 - 13:00, 17:00 - 20:00","di":"07:00 - 13:00, 17:00 - 20:00","wo":"07:00 - 13:00, 17:00 - 20:00","do":"07:00 - 13:00, 17:00 - 20:00","vr":"07:00 - 13:00, 17:00 - 20:00"}}},{"type":"Feature","geometry":{"type":"Point","coordinates":[13.78712126,43.20427439]},"properties":{"type":"pakketpunt","locatieNaam":"Lido Di Fermo","straatNaam":"Via Antoniotto Usodimare","straatNr":"11","vervoerder":"PosteItaliane","puntType":"postkantoor","bezettingsgraad":50,"latitude":43.20427439,"longitude":13.78712126,"canPickup":true,"canDropoff":true,"openingstijden":{"za":"08:20 - 12:35","zo":"gesloten","ma":"08:20 - 13:35","di":"08:20 - 13:35","wo":"08:20 - 13:35","do":"08:20 - 13:35","vr":"08:20 - 13:35"}}},{"type":"Feature","geometry":{"type":"Point","coordinates":[13.7061665,43.15962084]},"properties":{"type":"pakketpunt","locatieNaam":"Fermo 1","straatNaam":"Via Venticinque Aprile","straatNr":"48","vervoerder":"PosteItaliane","puntType":"postkantoor","bezettingsgraad":50,"latitude":43.15962084,"longitude":13.7061665,"canPickup":true,"canDropoff":true,"openingstijden":{"za":"08:20 - 12:35","zo":"gesloten","ma":"08:20 - 13:35","di":"08:20 - 13:35","wo":"08:20 - 13:35","do":"08:20 - 13:35","vr":"08:20 - 13:35"}}},{"type":"Feature","geometry":{"type":"Point","coordinates":[13.75938632,43.18936305]},"properties":{"type":"pakketpunt","locatieNaam":"Capodarco","straatNaam":"Viale Indipendenza","straatNr":"9","vervoerder":"PosteItaliane","puntType":"postkantoor","bezettingsgraad":50,"latitude":43.18936305,"longitude":13.75938632,"canPickup":true,"canDropoff":true,"openingstijden":{"za":"08:20 - 12:45","zo":"gesloten","ma":"08:20 - 13:45","di":"08:20 - 13:45","wo":"08:20 - 13:45","do":"08:20 - 13:45","vr":"08:20 - 13:45"}}},{"type":"Feature","geometry":{"type":"Point","coordinates":[13.7178018,43.1626363]},"properties":{"type":"pakketpunt","locatieNaam":"Fermo","straatNaam":"Piazzale Azzolino","straatNr":"20","vervoerder":"PosteItaliane","puntType":"postkantoor","bezettingsgraad":50,"latitude":43.1626363,"longitude":13.7178018,"canPickup":true,"canDropoff":true,"openingstijden":{"za":"08:20 - 12:35","zo":"gesloten","ma":"08:20 - 19:05","di":"08:20 - 19:05","wo":"08:20 - 19:05","do":"08:20 - 19:05","vr":"08:20 - 19:05"}}},{"type":"Feature","geometry":{"type":"Point","coordinates":[13.66942847,43.17427598]},"properties":{"type":"pakketpunt","locatieNaam":"Fermo 3","straatNaam":"Via Vincenzo Taccari","straatNr":"27","vervoerder":"PosteItaliane","puntType":"postkantoor","bezettingsgraad":50,"latitude":43.17427598,"longitude":13.66942847,"canPickup":true,"canDropoff":true,"openingstijden":{"za":"08:20 - 12:35","zo":"gesloten","ma":"08:20 - 13:35","di":"08:20 - 13:35","wo":"08:20 - 13:35","do":"08:20 - 13:35","vr":"08:20 - 13:35"}}},{"type":"Feature","geometry":{"type":"Point","coordinates":[13.72601322,43.16561846]},"properties":{"type":"pakketpunt","locatieNaam":"Fermo 2","straatNaam":"Via Candido Augusto Vecchi","straatNr":"33","vervoerder":"PosteItaliane","puntType":"postkantoor","bezettingsgraad":50,"latitude":43.16561846,"longitude":13.72601322,"canPickup":true,"canDropoff":true,"openingstijden":{"za":"08:20 - 12:35","zo":"gesloten","ma":"08:20 - 13:35","di":"08:20 - 13:35","wo":"08:20 - 13:35","do":"08:20 - 13:35","vr":"08:20 - 13:35"}}},{"type":"Feature","geometry":{"type":"Point","coordinates":[13.81218602,43.14721026]},"properties":{"type":"pakketpunt","locatieNaam":"Marina Palmense","straatNaam":"Via Della Stazione","straatNr":"21","vervoerder":"PosteItaliane","puntType":"postkantoor","bezettingsgraad":50,"latitude":43.14721026,"longitude":13.81218602,"canPickup":true,"canDropoff":true,"openingstijden":{"za":"08:20 - 12:35","zo":"gesloten","ma":"08:20 - 13:35","di":"08:20 - 13:35","wo":"08:20 - 13:35","do":"08:20 - 13:35","vr":"08:20 - 13:35"}}},{"type":"Feature","geometry":{"type":"Point","coordinates":[13.70145365,43.16172217]},"properties":{"type":"pakketpunt","locatieNaam":"Tabaccheria N. 49","straatNaam":"Via Venticinque Aprile","straatNr":"79","vervoerder":"PosteItaliane","puntType":"servicepunt","bezettingsgraad":50,"latitude":43.16172217,"longitude":13.70145365,"canPickup":true,"canDropoff":true,"openingstijden":{"za":"07:00 - 13:00, 15:30 - 20:00","zo":"gesloten","ma":"07:00 - 13:00, 15:30 - 20:00","di":"07:00 - 13:00, 15:30 - 20:00","wo":"07:00 - 13:00, 15:30 - 20:00","do":"07:00 - 13:00, 15:30 - 20:00","vr":"07:00 - 13:00, 15:30 - 20:00"}}},{"type":"Feature","geometry":{"type":"Point","coordinates":[13.78493392,43.199099]},"properties":{"type":"pakketpunt","locatieNaam":"Tabaccheria N. 31","straatNaam":"Via Nazionale","straatNr":"6","vervoerder":"PosteItaliane","puntType":"servicepunt","bezettingsgraad":50,"latitude":43.199099,"longitude":13.78493392,"canPickup":true,"canDropoff":true,"openingstijden":{"za":"07:00 - 13:00, 15:30 - 20:00","zo":"gesloten","ma":"07:00 - 13:00, 15:30 - 20:00","di":"07:00 - 13:00, 15:30 - 20:00","wo":"07:00 - 13:00, 15:30 - 20:00","do":"07:00 - 13:00, 15:30 - 20:00","vr":"07:00 - 13:00, 15:30 - 20:00"}}},{"type":"Feature","geometry":{"type":"Point","coordinates":[13.81213296,43.1453764]},"properties":{"type":"pakketpunt","locatieNaam":"Tabaccheria N. 10","straatNaam":"Via Della Liberta'","straatNr":"9","vervoerder":"PosteItaliane","puntType":"servicepunt","bezettingsgraad":50,"latitude":43.1453764,"longitude":13.81213296,"canPickup":true,"canDropoff":true,"openingstijden":{"za":"08:15 - 13:00, 16:00 - 20:00","zo":"gesloten","ma":"08:15 - 13:00, 16:00 - 20:00","di":"08:15 - 13:00, 16:00 - 20:00","wo":"08:15 - 13:00, 16:00 - 20:00","do":"08:15 - 13:00, 16:00 - 20:00","vr":"08:15 - 13:00, 16:00 - 20:00"}}},{"type":"Feature","geometry":{"type":"Point","coordinates":[13.71023339,43.16105397]},"properties":{"type":"pakketpunt","locatieNaam":"Tabaccheria N. 3","straatNaam":"Corso Camillo Benso Cavour","straatNr":"121","vervoerder":"PosteItaliane","puntType":"servicepunt","bezettingsgraad":50,"latitude":43.16105397,"longitude":13.71023339,"canPickup":true,"canDropoff":true,"openingstijden":{"za":"07:00 - 13:30, 16:00 - 20:30","zo":"07:00 - 14:00","ma":"07:00 - 13:30, 16:00 - 20:30","di":"07:00 - 13:30, 16:00 - 20:30","wo":"07:00 - 13:30, 16:00 - 20:30","do":"07:00 - 13:30, 16:00 - 20:30","vr":"07:00 - 13:30, 16:00 - 20:30"}}},{"type":"Feature","geometry":{"type":"Point","coordinates":[13.77664394,43.22919242]},"properties":{"type":"pakketpunt","locatieNaam":"Tabaccheria N. 12","straatNaam":"Via Pietro Nenni","straatNr":"36/c","vervoerder":"PosteItaliane","puntType":"servicepunt","bezettingsgraad":50,"latitude":43.22919242,"longitude":13.77664394,"canPickup":true,"canDropoff":true,"openingstijden":{"za":"07:00 - 13:00, 14:00 - 21:00","zo":"gesloten","ma":"07:00 - 13:00, 14:00 - 21:00","di":"07:00 - 13:00, 14:00 - 21:00","wo":"07:00 - 13:00, 14:00 - 21:00","do":"07:00 - 13:00, 14:00 - 21:00","vr":"07:00 - 13:00, 14:00 - 21:00"}}},{"type":"Feature","geometry":{"type":"Point","coordinates":[13.70534376,43.1638688]},"properties":{"type":"pakketpunt","locatieNaam":"Stazione Di Servizio","straatNaam":"Via Salvo D'acquisto","straatNr":"121","vervoerder":"PosteItaliane","puntType":"automaat","bezettingsgraad":50,"latitude":43.1638688,"longitude":13.70534376,"canPickup":true,"canDropoff":true,"openingstijden":{"za":"00:01 - 23:59","zo":"00:01 - 23:59","ma":"00:01 - 23:59","di":"00:01 - 23:59","wo":"00:01 - 23:59","do":"00:01 - 23:59","vr":"00:01 - 23:59"}}},{"type":"Feature","geometry":{"type":"Point","coordinates":[13.67309192,43.1760727]},"properties":{"type":"pakketpunt","locatieNaam":"Stazione Di Servizio Ip","straatNaam":"Via Giacomo Filippo Maria Prosperi","straatNr":"38","vervoerder":"PosteItaliane","puntType":"automaat","bezettingsgraad":50,"latitude":43.1760727,"longitude":13.67309192,"canPickup":true,"canDropoff":true,"openingstijden":{"za":"00:01 - 23:59","zo":"00:01 - 23:59","ma":"00:01 - 23:59","di":"00:01 - 23:59","wo":"00:01 - 23:59","do":"00:01 - 23:59","vr":"00:01 - 23:59"}}},{"type":"Feature","geometry":{"type":"Point","coordinates":[13.7050218,43.15612617]},"properties":{"type":"pakketpunt","locatieNaam":"Tabaccheria N. 29","straatNaam":"Via Armando Diaz","straatNr":"206","vervoerder":"PosteItaliane","puntType":"servicepunt","bezettingsgraad":50,"latitude":43.15612617,"longitude":13.7050218,"canPickup":true,"canDropoff":true,"openingstijden":{"za":"08:00 - 13:00, 16:00 - 20:00","zo":"gesloten","ma":"08:00 - 13:00, 16:00 - 20:00","di":"08:00 - 13:00, 16:00 - 20:00","wo":"08:00 - 13:00, 16:00 - 20:00","do":"08:00 - 13:00, 16:00 - 20:00","vr":"08:00 - 13:00, 16:00 - 20:00"}}},{"type":"Feature","geometry":{"type":"Point","coordinates":[13.78235744,43.21077118]},"properties":{"type":"pakketpunt","locatieNaam":"Tabaccheria N. 41","straatNaam":"Viale Casabianca","straatNr":"5","vervoerder":"PosteItaliane","puntType":"servicepunt","bezettingsgraad":50,"latitude":43.21077118,"longitude":13.78235744,"canPickup":true,"canDropoff":true,"openingstijden":{"za":"07:30 - 13:00, 16:00 - 20:00","zo":"gesloten","ma":"07:30 - 13:00, 16:00 - 20:00","di":"07:30 - 13:00, 16:00 - 20:00","wo":"07:30 - 13:00, 16:00 - 20:00","do":"07:30 - 13:00, 16:00 - 20:00","vr":"07:30 - 13:00, 16:00 - 20:00"}}},{"type":"Feature","geometry":{"type":"Point","coordinates":[13.70542915,43.16142792]},"properties":{"type":"pakketpunt","locatieNaam":"Tabaccheria N. 33","straatNaam":"Via Augusto Murri","straatNr":"22","vervoerder":"PosteItaliane","puntType":"servicepunt","bezettingsgraad":50,"latitude":43.16142792,"longitude":13.70542915,"canPickup":true,"canDropoff":true,"openingstijden":{"za":"07:45 - 19:45","zo":"gesloten","ma":"07:45 - 19:45","di":"07:45 - 19:45","wo":"07:45 - 19:45","do":"07:45 - 19:45","vr":"07:45 - 19:45"}}},{"type":"Feature","geometry":{"type":"Point","coordinates":[13.724928,43.156225]},"properties":{"type":"pakketpunt","locatieNaam":"Tabaccheria N. 34","straatNaam":"Viale Trieste","straatNr":"69/a","vervoerder":"PosteItaliane","puntType":"servicepunt","bezettingsgraad":50,"latitude":43.156225,"longitude":13.724928,"canPickup":true,"canDropoff":true,"openingstijden":{"za":"08:00 - 13:00, 16:30 - 20:00","zo":"gesloten","ma":"08:00 - 13:00, 16:30 - 20:00","di":"08:00 - 13:00, 16:30 - 20:00","wo":"08:00 - 13:00, 16:30 - 20:00","do":"08:00 - 13:00, 16:30 - 20:00","vr":"08:00 - 13:00, 16:30 - 20:00"}}},{"type":"Feature","geometry":{"type":"Point","coordinates":[13.71337545,43.13763673]},"properties":{"type":"pakketpunt","locatieNaam":"Tabaccheria N. 14","straatNaam":"Contrada San Martino","straatNr":"93","vervoerder":"PosteItaliane","puntType":"servicepunt","bezettingsgraad":50,"latitude":43.13763673,"longitude":13.71337545,"canPickup":true,"canDropoff":true,"openingstijden":{"za":"08:00 - 13:00, 16:00 - 20:00","zo":"08:00 - 13:00","ma":"08:00 - 13:00, 16:00 - 20:00","di":"08:00 - 13:00, 16:00 - 20:00","wo":"08:00 - 13:00, 16:00 - 20:00","do":"08:00 - 13:00, 16:00 - 20:00","vr":"08:00 - 13:00, 16:00 - 20:00"}}},{"type":"Feature","geometry":{"type":"Point","coordinates":[13.7290756,43.15642663]},"properties":{"type":"pakketpunt","locatieNaam":"Tabaccheria N. 30","straatNaam":"Via Pompeiana","straatNr":"52","vervoerder":"PosteItaliane","puntType":"servicepunt","bezettingsgraad":50,"latitude":43.15642663,"longitude":13.7290756,"canPickup":true,"canDropoff":true,"openingstijden":{"za":"07:00 - 13:30, 16:00 - 20:30","zo":"gesloten","ma":"07:00 - 13:30, 16:00 - 20:30","di":"07:00 - 13:30, 16:00 - 20:30","wo":"07:00 - 13:30, 16:00 - 20:30","do":"07:00 - 13:30, 16:00 - 20:30","vr":"07:00 - 13:30, 16:00 - 20:30"}}},{"type":"Feature","geometry":{"type":"Point","coordinates":[13.76049082,43.18912116]},"properties":{"type":"pakketpunt","locatieNaam":"Tabaccheria N. 8","straatNaam":"Piazza Della Liberta'","straatNr":"4","vervoerder":"PosteItaliane","puntType":"servicepunt","bezettingsgraad":50,"latitude":43.18912116,"longitude":13.76049082,"canPickup":true,"canDropoff":true,"openingstijden":{"za":"08:00 - 13:00, 16:00 - 20:00","zo":"gesloten","ma":"08:00 - 13:00, 16:00 - 20:00","di":"08:00 - 13:00, 16:00 - 20:00","wo":"08:00 - 13:00, 16:00 - 20:00","do":"08:00 - 13:00, 16:00 - 20:00","vr":"08:00 - 13:00, 16:00 - 20:00"}}},{"type":"Feature","geometry":{"type":"Point","coordinates":[13.67170298,43.17534789]},"properties":{"type":"pakketpunt","locatieNaam":"Tabaccheria N. 40","straatNaam":"Via Giacomo Filippo Maria Prosperi","straatNr":"14","vervoerder":"PosteItaliane","puntType":"servicepunt","bezettingsgraad":50,"latitude":43.17534789,"longitude":13.67170298,"canPickup":true,"canDropoff":true,"openingstijden":{"za":"07:30 - 13:00, 16:00 - 20:00","zo":"gesloten","ma":"07:30 - 13:00, 16:00 - 20:00","di":"07:30 - 13:00, 16:00 - 20:00","wo":"07:30 - 13:00, 16:00 - 20:00","do":"07:30 - 13:00, 16:00 - 20:00","vr":"07:30 - 13:00, 16:00 - 20:00"}}},{"type":"Feature","geometry":{"type":"Point","coordinates":[13.70761562,43.15922841]},"properties":{"type":"pakketpunt","locatieNaam":"Tabaccheria N. 15","straatNaam":"Viale Venti Giugno","straatNr":"69","vervoerder":"PosteItaliane","puntType":"servicepunt","bezettingsgraad":50,"latitude":43.15922841,"longitude":13.70761562,"canPickup":true,"canDropoff":true,"openingstijden":{"za":"07:00 - 13:00, 15:30 - 20:00","zo":"gesloten","ma":"07:00 - 13:00, 15:30 - 20:00","di":"07:00 - 13:00, 15:30 - 20:00","wo":"07:00 - 13:00, 15:30 - 20:00","do":"07:00 - 13:00, 15:30 - 20:00","vr":"07:00 - 13:00, 15:30 - 20:00"}}},{"type":"Feature","geometry":{"type":"Point","coordinates":[13.66592806,43.16193192]},"properties":{"type":"pakketpunt","locatieNaam":"Tabaccheria N. 48","straatNaam":"Contrada Girola Valtenna Km","straatNr":"1,600","vervoerder":"PosteItaliane","puntType":"servicepunt","bezettingsgraad":50,"latitude":43.16193192,"longitude":13.66592806,"canPickup":true,"canDropoff":true,"openingstijden":{"za":"06:30 - 12:00","zo":"gesloten","ma":"05:30 - 19:00","di":"05:30 - 19:00","wo":"05:30 - 19:00","do":"05:30 - 19:00","vr":"05:30 - 19:00"}}},{"type":"Feature","geometry":{"type":"Point","coordinates":[13.71353391,43.15831469]},"properties":{"type":"pakketpunt","locatieNaam":"Tabaccheria N. 37","straatNaam":"Viale Nunzi Trento","straatNr":"44","vervoerder":"PosteItaliane","puntType":"servicepunt","bezettingsgraad":50,"latitude":43.15831469,"longitude":13.71353391,"canPickup":true,"canDropoff":true,"openingstijden":{"za":"07:00 - 13:00, 16:00 - 20:00","zo":"gesloten","ma":"07:00 - 13:00, 16:00 - 20:00","di":"07:00 - 13:00, 16:00 - 20:00","wo":"07:00 - 13:00, 16:00 - 20:00","do":"07:00 - 13:00, 16:00 - 20:00","vr":"07:00 - 13:00, 16:00 - 20:00"}}},{"type":"Feature","geometry":{"type":"Point","coordinates":[13.70483639,43.1657478]},"properties":{"type":"pakketpunt","locatieNaam":"Tabaccheria N. 21","straatNaam":"Via Tiro A Segno","straatNr":"69","vervoerder":"PosteItaliane","puntType":"servicepunt","bezettingsgraad":50,"latitude":43.1657478,"longitude":13.70483639,"canPickup":true,"canDropoff":true,"openingstijden":{"za":"08:00 - 13:00, 16:00 - 20:00","zo":"gesloten","ma":"08:00 - 13:00, 16:00 - 20:00","di":"08:00 - 13:00, 16:00 - 20:00","wo":"08:00 - 13:00, 16:00 - 20:00","do":"08:00 - 13:00, 16:00 - 20:00","vr":"08:00 - 13:00, 16:00 - 20:00"}}},{"type":"Feature","geometry":{"type":"Point","coordinates":[13.77654587,43.22716811]},"properties":{"type":"pakketpunt","locatieNaam":"Tabaccheria N. 22","straatNaam":"Via Nazionale","straatNr":"171","vervoerder":"PosteItaliane","puntType":"servicepunt","bezettingsgraad":50,"latitude":43.22716811,"longitude":13.77654587,"canPickup":true,"canDropoff":true,"openingstijden":{"za":"07:30 - 13:00, 15:30 - 20:00","zo":"gesloten","ma":"07:30 - 13:00, 15:30 - 20:00","di":"07:30 - 13:00, 15:30 - 20:00","wo":"07:30 - 13:00, 15:30 - 20:00","do":"07:30 - 13:00, 15:30 - 20:00","vr":"07:30 - 13:00, 15:30 - 20:00"}}},{"type":"Feature","geometry":{"type":"Point","coordinates":[13.78175931,43.15738073]},"properties":{"type":"pakketpunt","locatieNaam":"Tabaccheria N. 23","straatNaam":"Via Francesco Egidi","straatNr":"20","vervoerder":"PosteItaliane","puntType":"servicepunt","bezettingsgraad":50,"latitude":43.15738073,"longitude":13.78175931,"canPickup":true,"canDropoff":true,"openingstijden":{"za":"08:00 - 13:00, 16:30 - 20:00","zo":"gesloten","ma":"08:00 - 13:00, 16:30 - 20:00","di":"08:00 - 13:00, 16:30 - 20:00","wo":"08:00 - 13:00, 16:30 - 20:00","do":"08:00 - 13:00, 16:30 - 20:00","vr":"08:00 - 13:00, 16:30 - 20:00"}}},{"type":"Feature","geometry":{"type":"Point","coordinates":[13.7517938,43.17029]},"properties":{"type":"pakketpunt","locatieNaam":"Tabaccheria Bar Pausa Caffè","straatNaam":"VIA LETI","straatNr":"113/A","vervoerder":"DPD","puntType":"pickup_point","bezettingsgraad":50,"latitude":43.17029,"longitude":13.7517938,"canPickup":true,"canDropoff":true,"openingstijden":{"ma":"07:00 - 19:00","di":"07:00 - 19:00","wo":"07:00 - 19:00","do":"07:00 - 19:00","vr":"07:00 - 19:00","za":"07:00 - 12:00","zo":"gesloten"}}},{"type":"Feature","geometry":{"type":"Point","coordinates":[13.78482588,43.19921482]},"properties":{"type":"pakketpunt","locatieNaam":"Lamas Bar Tabacchi","straatNaam":"VIA NAZIONALE","straatNr":"6","vervoerder":"DPD","puntType":"pickup_point","bezettingsgraad":50,"latitude":43.19921482,"longitude":13.78482588,"canPickup":true,"canDropoff":true,"openingstijden":{"ma":"07:00 - 13:00, 15:00 - 20:00","di":"07:00 - 13:00, 15:00 - 20:00","wo":"07:00 - 13:00, 15:00 - 20:00","do":"07:00 - 13:00, 15:00 - 20:00","vr":"07:00 - 13:00, 15:00 - 20:00","za":"07:00 - 13:00, 15:00 - 20:00","zo":"gesloten"}}},{"type":"Feature","geometry":{"type":"Point","coordinates":[13.75006596,43.17575121]},"properties":{"type":"pakketpunt","locatieNaam":"Tabaccheria Crazy Phone","straatNaam":"VIA GIAMMARCO","straatNr":"5","vervoerder":"DPD","puntType":"pickup_point","bezettingsgraad":50,"latitude":43.17575121,"longitude":13.75006596,"canPickup":true,"canDropoff":true,"openingstijden":{"ma":"07:00 - 13:00, 17:00 - 20:00","di":"07:00 - 13:00, 17:00 - 20:00","wo":"07:00 - 13:00, 17:00 - 20:00","do":"07:00 - 13:00, 17:00 - 20:00","vr":"07:00 - 13:00, 17:00 - 20:00","za":"07:00 - 13:00, 17:00 - 20:00","zo":"gesloten"}}},{"type":"Feature","geometry":{"type":"Point","coordinates":[13.69970934,43.16162207]},"properties":{"type":"pakketpunt","locatieNaam":"Rigener Service Snc","straatNaam":"VIA M.TORNABUONI","straatNr":"57","vervoerder":"DPD","puntType":"pickup_point","bezettingsgraad":50,"latitude":43.16162207,"longitude":13.69970934,"canPickup":true,"canDropoff":true,"openingstijden":{"ma":"09:00 - 12:30, 15:00 - 19:00","di":"09:00 - 12:30, 15:00 - 19:00","wo":"09:00 - 12:30, 15:00 - 19:00","do":"09:00 - 12:30, 15:00 - 19:00","vr":"09:00 - 12:30, 15:00 - 19:00","za":"09:00 - 12:30","zo":"gesloten"}}},{"type":"Feature","geometry":{"type":"Point","coordinates":[13.78178806,43.15740009]},"properties":{"type":"pakketpunt","locatieNaam":"Tabacchi Salvano","straatNaam":"VIA F. EGIDI","straatNr":"20","vervoerder":"DPD","puntType":"pickup_point","bezettingsgraad":50,"latitude":43.15740009,"longitude":13.78178806,"canPickup":true,"canDropoff":true,"openingstijden":{"ma":"08:00 - 13:00, 16:00 - 20:00","di":"08:00 - 13:00, 16:00 - 20:00","wo":"08:00 - 13:00, 16:00 - 20:00","do":"08:00 - 13:00, 16:00 - 20:00","vr":"08:00 - 13:00, 16:00 - 20:00","za":"08:00 - 13:00, 16:00 - 20:00","zo":"gesloten"}}},{"type":"Feature","geometry":{"type":"Point","coordinates":[13.72912822,43.15643588]},"properties":{"type":"pakketpunt","locatieNaam":"Lauri Irene Tabacchi","straatNaam":"VIA POMPEIANA","straatNr":"52","vervoerder":"DPD","puntType":"pickup_point","bezettingsgraad":50,"latitude":43.15643588,"longitude":13.72912822,"canPickup":true,"canDropoff":true,"openingstijden":{"ma":"06:30 - 13:30, 16:00 - 20:30","di":"06:30 - 13:30, 16:00 - 20:30","wo":"06:30 - 13:30, 16:00 - 20:30","do":"06:30 - 13:30, 16:00 - 20:30","vr":"06:30 - 13:30, 16:00 - 20:30","za":"06:30 - 13:30, 16:00 - 20:30","zo":"gesloten"}}},{"type":"Feature","geometry":{"type":"Point","coordinates":[13.8121063,43.1453303]},"properties":{"type":"pakketpunt","locatieNaam":"Tabaccheria Romanelli Daniela","straatNaam":"VIA DELLA LIBERTA","straatNr":"9","vervoerder":"DPD","puntType":"pickup_point","bezettingsgraad":50,"latitude":43.1453303,"longitude":13.8121063,"canPickup":true,"canDropoff":true,"openingstijden":{"ma":"08:30 - 13:00, 16:30 - 20:00","di":"08:30 - 13:00, 16:30 - 20:00","wo":"08:30 - 13:00, 16:30 - 20:00","do":"08:30 - 13:00, 16:30 - 20:00","vr":"08:30 - 13:00, 16:30 - 20:00","za":"08:30 - 13:00, 16:30 - 20:00","zo":"gesloten"}}},{"type":"Feature","geometry":{"type":"Point","coordinates":[13.7826272,43.2107798]},"properties":{"type":"pakketpunt","locatieNaam":"Tabacchi Pambianco S.","straatNaam":"VIALE CASABIANCA","straatNr":"5","vervoerder":"DPD","puntType":"pickup_point","bezettingsgraad":50,"latitude":43.2107798,"longitude":13.7826272,"canPickup":true,"canDropoff":true,"openingstijden":{"ma":"08:30 - 13:00, 15:30 - 20:00","di":"08:30 - 13:00, 15:30 - 20:00","wo":"08:30 - 13:00, 15:30 - 20:00","do":"08:30 - 13:00, 15:30 - 20:00","vr":"08:30 - 13:00, 15:30 - 20:00","za":"08:30 - 13:00, 15:30 - 20:00","zo":"gesloten"}}},{"type":"Feature","geometry":{"type":"Point","coordinates":[13.7047655,43.16573]},"properties":{"type":"pakketpunt","locatieNaam":"Spaccio21 di Borraccini Maria","straatNaam":"VIA TIRO A SEGNO","straatNr":"69","vervoerder":"DPD","puntType":"pickup_point","bezettingsgraad":50,"latitude":43.16573,"longitude":13.7047655,"canPickup":true,"canDropoff":true,"openingstijden":{"ma":"08:00 - 13:00, 16:00 - 20:00","di":"08:00 - 13:00, 16:00 - 20:00","wo":"08:00 - 13:00, 16:00 - 20:00","do":"08:00 - 13:00, 16:00 - 20:00","vr":"08:00 - 13:00, 16:00 - 20:00","za":"08:00 - 13:00, 16:00 - 20:00","zo":"gesloten"}}},{"type":"Feature","geometry":{"type":"Point","coordinates":[13.64404,43.16338]},"properties":{"type":"pakketpunt","locatieNaam":"InPost Locker 24/7","straatNaam":"SP 239 Fermana Falerienze","straatNr":"snc","vervoerder":"InPost","puntType":"automaat","bezettingsgraad":50,"latitude":43.16338,"longitude":13.64404,"canPickup":true,"canDropoff":true,"openingstijden":null}},{"type":"Feature","geometry":{"type":"Point","coordinates":[13.67324,43.17627]},"properties":{"type":"pakketpunt","locatieNaam":"InPost Locker 24/7","straatNaam":"Via Prosperi","straatNr":"36-38","vervoerder":"InPost","puntType":"automaat","bezettingsgraad":50,"latitude":43.17627,"longitude":13.67324,"canPickup":true,"canDropoff":true,"openingstijden":null}},{"type":"Feature","geometry":{"type":"Point","coordinates":[13.7853,43.19921]},"properties":{"type":"pakketpunt","locatieNaam":"InPost Locker 24/7","straatNaam":"Via Nazionale","straatNr":"7","vervoerder":"InPost","puntType":"automaat","bezettingsgraad":50,"latitude":43.19921,"longitude":13.7853,"canPickup":true,"canDropoff":true,"openingstijden":null}},{"type":"Feature","geometry":{"type":"Point","coordinates":[13.67247,43.1777]},"properties":{"type":"pakketpunt","locatieNaam":"InPost Locker","straatNaam":"Via Giacomo Filippo Maria Prosperi","straatNr":"42","vervoerder":"InPost","puntType":"automaat","bezettingsgraad":50,"latitude":43.1777,"longitude":13.67247,"canPickup":true,"canDropoff":true,"openingstijden":null}},{"type":"Feature","geometry":{"type":"Point","coordinates":[13.66591,43.162]},"properties":{"type":"pakketpunt","locatieNaam":"InPost Locker 24/7","straatNaam":"SP 157","straatNr":"Km 1+600","vervoerder":"InPost","puntType":"automaat","bezettingsgraad":50,"latitude":43.162,"longitude":13.66591,"canPickup":true,"canDropoff":true,"openingstijden":null}},{"type":"Feature","geometry":{"type":"Point","coordinates":[13.69971,43.16163]},"properties":{"type":"pakketpunt","locatieNaam":"InPost Locker","straatNaam":"Via Filippo Mannocchi Tornabuoni","straatNr":"57","vervoerder":"InPost","puntType":"automaat","bezettingsgraad":50,"latitude":43.16163,"longitude":13.69971,"canPickup":true,"canDropoff":true,"openingstijden":null}},{"type":"Feature","geometry":{"type":"Point","coordinates":[13.73218,43.16897]},"properties":{"type":"pakketpunt","locatieNaam":"InPost Locker 24/7","straatNaam":"Viale Trento","straatNr":"69","vervoerder":"InPost","puntType":"automaat","bezettingsgraad":50,"latitude":43.16897,"longitude":13.73218,"canPickup":true,"canDropoff":true,"openingstijden":null}},{"type":"Feature","geometry":{"type":"Point","coordinates":[13.7055,43.16388]},"properties":{"type":"pakketpunt","locatieNaam":"InPost Locker 24/7","straatNaam":"Via Salvo D'Acquisto","straatNr":"1","vervoerder":"InPost","puntType":"automaat","bezettingsgraad":50,"latitude":43.16388,"longitude":13.7055,"canPickup":true,"canDropoff":true,"openingstijden":null}},{"type":"Feature","geometry":{"type":"Point","coordinates":[13.78482,43.19927]},"properties":{"type":"pakketpunt","locatieNaam":"InPost Point","straatNaam":"Via nazionale","straatNr":"6","vervoerder":"InPost","puntType":"servicepunt","bezettingsgraad":50,"latitude":43.19927,"longitude":13.78482,"canPickup":true,"canDropoff":true,"openingstijden":"Lun-Sab: 08:00 - 13:00 - 15:30 - 20:00"}},{"type":"Feature","geometry":{"type":"Point","coordinates":[13.78167,43.15727]},"properties":{"type":"pakketpunt","locatieNaam":"InPost Point","straatNaam":"Via Francesco Egidi","straatNr":"20","vervoerder":"InPost","puntType":"servicepunt","bezettingsgraad":50,"latitude":43.15727,"longitude":13.78167,"canPickup":true,"canDropoff":true,"openingstijden":"Lun-Sab: 08:00 - 13:00 - 16:00 - 20:00"}},{"type":"Feature","geometry":{"type":"Point","coordinates":[13.72925,43.15656]},"properties":{"type":"pakketpunt","locatieNaam":"InPost Point","straatNaam":"Via Pompeiana","straatNr":"52","vervoerder":"InPost","puntType":"servicepunt","bezettingsgraad":50,"latitude":43.15656,"longitude":13.72925,"canPickup":true,"canDropoff":true,"openingstijden":"Lun-Sab: 06:30 - 13:30 - 16:00 - 20:30"}},{"type":"Feature","geometry":{"type":"Point","coordinates":[13.78306,43.21079]},"properties":{"type":"pakketpunt","locatieNaam":"InPost Point","straatNaam":"Viale Casabianca","straatNr":"5/7","vervoerder":"InPost","puntType":"servicepunt","bezettingsgraad":50,"latitude":43.21079,"longitude":13.78306,"canPickup":true,"canDropoff":true,"openingstijden":"Lun-Sab: 08:30 - 13:00 - 15:30 - 20:00"}},{"type":"Feature","geometry":{"type":"Point","coordinates":[13.70535,43.1614]},"properties":{"type":"pakketpunt","locatieNaam":"InPost Point","straatNaam":"Via Augusto Murri, 22, Fermo FM, Italia","straatNr":"22","vervoerder":"InPost","puntType":"servicepunt","bezettingsgraad":50,"latitude":43.1614,"longitude":13.70535,"canPickup":true,"canDropoff":true,"openingstijden":"Lun–Sab 08:00-19:30"}},{"type":"Feature","geometry":{"type":"Point","coordinates":[13.79808,43.16278]},"properties":{"type":"pakketpunt","locatieNaam":"InPost Locker 24/7","straatNaam":"SP 87 Val D'Ete","straatNr":"snc","vervoerder":"InPost","puntType":"automaat","bezettingsgraad":50,"latitude":43.16278,"longitude":13.79808,"canPickup":true,"canDropoff":true,"openingstijden":null}},{"type":"Feature","geometry":{"type":"Point","coordinates":[13.81213528,43.14549327]},"properties":{"type":"pakketpunt","locatieNaam":"Tabaccheria","straatNaam":"Via Della Liberta'","straatNr":"9","vervoerder":"GLS","puntType":"parcel_shop","bezettingsgraad":50,"latitude":43.14549327,"longitude":13.81213528,"canPickup":true,"canDropoff":true,"openingstijden":"za: 08:30 - 13:00, 16:30 - 20:00; ma: 08:00 - 13:00, 16:30 - 20:00"}},{"type":"Feature","geometry":{"type":"Point","coordinates":[13.7817897,43.1574011]},"properties":{"type":"pakketpunt","locatieNaam":"Tabacchi Salvano","straatNaam":"Via Francesco Egidi","straatNr":"20","vervoerder":"GLS","puntType":"parcel_shop","bezettingsgraad":50,"latitude":43.1574011,"longitude":13.7817897,"canPickup":true,"canDropoff":true,"openingstijden":"za: 08:00 - 13:00, 16:00 - 20:00; ma: 08:00 - 13:00, 16:00 - 20:00"}},{"type":"Feature","geometry":{"type":"Point","coordinates":[13.7054024,43.1583822]},"properties":{"type":"pakketpunt","locatieNaam":"Fermo Multiservizi / La Post@ Nazionale","straatNaam":"Via Armando Diaz","straatNr":"175","vervoerder":"GLS","puntType":"parcel_shop","bezettingsgraad":50,"latitude":43.1583822,"longitude":13.7054024,"canPickup":true,"canDropoff":true,"openingstijden":"ma: 08:30 - 13:00, 15:30 - 19:00; di: 08:30 - 13:00, 15:30 - 19:00"}},{"type":"Feature","geometry":{"type":"Point","coordinates":[13.699708,43.161625]},"properties":{"type":"pakketpunt","locatieNaam":"RIGENER SERVICE SNC","straatNaam":"Via Filippo Mannocchi Tornabuoni","straatNr":"57","vervoerder":"GLS","puntType":"parcel_shop","bezettingsgraad":50,"latitude":43.161625,"longitude":13.699708,"canPickup":true,"canDropoff":true,"openingstijden":"za: 09:00 - 12:30; ma: 09:00 - 12:30, 15:00 - 19:00"}},{"type":"Feature","geometry":{"type":"Point","coordinates":[13.7249445,43.1668737]},"properties":{"type":"pakketpunt","locatieNaam":"cartolibreria ' LA NUOVA SCUOLA ' Manciola","straatNaam":"Via Ottorino Respighi","straatNr":"16","vervoerder":"GLS","puntType":"parcel_shop","bezettingsgraad":50,"latitude":43.1668737,"longitude":13.7249445,"canPickup":true,"canDropoff":true,"openingstijden":"za: 09:00 - 13:00, 16:30 - 20:00; ma: 16:30 - 20:00"}},{"type":"Feature","geometry":{"type":"Point","coordinates":[13.6752447,43.1683352]},"properties":{"type":"pakketpunt","locatieNaam":"Magic Caffe'","straatNaam":"Via Carlo Cattaneo","straatNr":"107","vervoerder":"GLS","puntType":"parcel_shop","bezettingsgraad":50,"latitude":43.1683352,"longitude":13.6752447,"canPickup":true,"canDropoff":true,"openingstijden":"za: 05:30 - 20:30; zo: 05:30 - 20:30"}},{"type":"Feature","geometry":{"type":"Point","coordinates":[13.7501424,43.1759116]},"properties":{"type":"pakketpunt","locatieNaam":"Tabaccheria","straatNaam":"Giammarco","straatNr":"5","vervoerder":"GLS","puntType":"parcel_shop","bezettingsgraad":50,"latitude":43.1759116,"longitude":13.7501424,"canPickup":true,"canDropoff":true,"openingstijden":"za: 07:00 - 13:00, 17:00 - 20:00; ma: 07:00 - 13:00, 17:00 - 20:00"}},{"type":"Feature","geometry":{"type":"Point","coordinates":[13.784824,43.199345]},"properties":{"type":"pakketpunt","locatieNaam":"lamas caffetteria","straatNaam":"Via Nazionale","straatNr":"6","vervoerder":"GLS","puntType":"parcel_shop","bezettingsgraad":50,"latitude":43.199345,"longitude":13.784824,"canPickup":true,"canDropoff":true,"openingstijden":"za: 08:00 - 13:00, 15:30 - 20:00; ma: 08:00 - 13:00, 15:30 - 20:00"}},{"type":"Feature","geometry":{"type":"Point","coordinates":[13.7825728,43.2107792]},"properties":{"type":"pakketpunt","locatieNaam":"tabaccheria 41","straatNaam":"Viale Casabianca","straatNr":"5/7","vervoerder":"GLS","puntType":"parcel_shop","bezettingsgraad":50,"latitude":43.2107792,"longitude":13.7825728,"canPickup":true,"canDropoff":true,"openingstijden":"za: 08:30 - 13:00, 15:30 - 20:00; ma: 08:30 - 13:00, 15:30 - 20:00"}},{"type":"Feature","geometry":{"type":"Point","coordinates":[13.77665,43.22683]},"properties":{"type":"pakketpunt","locatieNaam":"tabacchi lotto","straatNaam":"Via Nazionale","straatNr":"171","vervoerder":"GLS","puntType":"parcel_shop","bezettingsgraad":50,"latitude":43.22683,"longitude":13.77665,"canPickup":true,"canDropoff":true,"openingstijden":"za: 07:30 - 13:00, 15:30 - 20:00; ma: 07:30 - 13:00, 15:30 - 20:00"}},{"type":"Feature","geometry":{"type":"Point","coordinates":[13.713375,43.137637]},"properties":{"type":"pakketpunt","locatieNaam":"TABACCHERIA N. 14","straatNaam":"CONTRADA SAN MARTINO 93","straatNr":"","vervoerder":"DHL","puntType":"parcelShop","bezettingsgraad":50,"latitude":43.137637,"longitude":13.713375,"canPickup":true,"canDropoff":true,"openingstijden":{"ma":"08:00 - 13:00, 16:00 - 20:00","di":"08:00 - 13:00, 16:00 - 20:00","wo":"08:00 - 13:00, 16:00 - 20:00","do":"08:00 - 13:00, 16:00 - 20:00","vr":"08:00 - 13:00, 16:00 - 20:00","za":"08:00 - 13:00, 16:00 - 20:00","zo":"08:00 - 13:00"}}},{"type":"Feature","geometry":{"type":"Point","coordinates":[13.665928,43.161932]},"properties":{"type":"pakketpunt","locatieNaam":"TABACCHERIA N. 48","straatNaam":"CONTRADA GIROLA VALTENNA Km 1,600","straatNr":"","vervoerder":"DHL","puntType":"parcelShop","bezettingsgraad":50,"latitude":43.161932,"longitude":13.665928,"canPickup":true,"canDropoff":true,"openingstijden":{"ma":"05:30 - 19:00","di":"05:30 - 19:00","wo":"05:30 - 19:00","do":"05:30 - 19:00","vr":"05:30 - 19:00","za":"06:30 - 12:00","zo":"gesloten"}}},{"type":"Feature","geometry":{"type":"Point","coordinates":[13.700268,43.163576]},"properties":{"type":"pakketpunt","locatieNaam":"RIGENER SERVICE","straatNaam":"Via Mannocchi Tornabuoni, 57","straatNr":"","vervoerder":"DHL","puntType":"parcelShop","bezettingsgraad":50,"latitude":43.163576,"longitude":13.700268,"canPickup":false,"canDropoff":true,"openingstijden":{"ma":"09:00 - 19:00","di":"09:00 - 19:00","wo":"09:00 - 19:00","do":"09:00 - 19:00","vr":"09:00 - 19:00","za":"09:00 - 12:30","zo":"gesloten"}}},{"type":"Feature","geometry":{"type":"Point","coordinates":[13.701454,43.161722]},"properties":{"type":"pakketpunt","locatieNaam":"TABACCHERIA N. 49","straatNaam":"VIA VENTICINQUE APRILE 79","straatNr":"","vervoerder":"DHL","puntType":"parcelShop","bezettingsgraad":50,"latitude":43.161722,"longitude":13.701454,"canPickup":true,"canDropoff":true,"openingstijden":{"ma":"07:00 - 13:00, 15:30 - 20:00","di":"07:00 - 13:00, 15:30 - 20:00","wo":"07:00 - 13:00, 15:30 - 20:00","do":"07:00 - 13:00, 15:30 - 20:00","vr":"07:00 - 13:00, 15:30 - 20:00","za":"07:00 - 13:00, 15:30 - 20:00","zo":"gesloten"}}},{"type":"Feature","geometry":{"type":"Point","coordinates":[13.704836,43.165748]},"properties":{"type":"pakketpunt","locatieNaam":"TABACCHERIA N. 21","straatNaam":"VIA TIRO A SEGNO 69","straatNr":"","vervoerder":"DHL","puntType":"parcelShop","bezettingsgraad":50,"latitude":43.165748,"longitude":13.704836,"canPickup":true,"canDropoff":true,"openingstijden":{"ma":"08:00 - 13:00, 16:00 - 20:00","di":"08:00 - 13:00, 16:00 - 20:00","wo":"08:00 - 13:00, 16:00 - 20:00","do":"08:00 - 13:00, 16:00 - 20:00","vr":"08:00 - 13:00, 16:00 - 20:00","za":"08:00 - 13:00, 16:00 - 20:00","zo":"gesloten"}}},{"type":"Feature","geometry":{"type":"Point","coordinates":[13.705344,43.163869]},"properties":{"type":"pakketpunt","locatieNaam":"STAZIONE DI SERVIZIO","straatNaam":"VIA SALVO DACQUISTO 121","straatNr":"","vervoerder":"DHL","puntType":"packStation","bezettingsgraad":50,"latitude":43.163869,"longitude":13.705344,"canPickup":true,"canDropoff":true,"openingstijden":{"ma":"00:01 - 23:59","di":"00:01 - 23:59","wo":"00:01 - 23:59","do":"00:01 - 23:59","vr":"00:01 - 23:59","za":"00:01 - 23:59","zo":"00:01 - 23:59"}}},{"type":"Feature","geometry":{"type":"Point","coordinates":[13.705429,43.161428]},"properties":{"type":"pakketpunt","locatieNaam":"TABACCHERIA N. 33","straatNaam":"VIA AUGUSTO MURRI 22","straatNr":"","vervoerder":"DHL","puntType":"parcelShop","bezettingsgraad":50,"latitude":43.161428,"longitude":13.705429,"canPickup":true,"canDropoff":true,"openingstijden":{"ma":"07:45 - 19:45","di":"07:45 - 19:45","wo":"07:45 - 19:45","do":"07:45 - 19:45","vr":"07:45 - 19:45","za":"07:45 - 19:45","zo":"gesloten"}}},{"type":"Feature","geometry":{"type":"Point","coordinates":[13.705022,43.156126]},"properties":{"type":"pakketpunt","locatieNaam":"TABACCHERIA N. 29","straatNaam":"VIA ARMANDO DIAZ 206","straatNr":"","vervoerder":"DHL","puntType":"parcelShop","bezettingsgraad":50,"latitude":43.156126,"longitude":13.705022,"canPickup":true,"canDropoff":true,"openingstijden":{"ma":"08:00 - 13:00, 16:00 - 20:00","di":"08:00 - 13:00, 16:00 - 20:00","wo":"08:00 - 13:00, 16:00 - 20:00","do":"08:00 - 13:00, 16:00 - 20:00","vr":"08:00 - 13:00, 16:00 - 20:00","za":"08:00 - 13:00, 16:00 - 20:00","zo":"gesloten"}}},{"type":"Feature","geometry":{"type":"Point","coordinates":[13.706167,43.159621]},"properties":{"type":"pakketpunt","locatieNaam":"Ufficio Postale FERMO 1","straatNaam":"VIA VENTICINQUE APRILE 48","straatNr":"","vervoerder":"DHL","puntType":"postOffice","bezettingsgraad":50,"latitude":43.159621,"longitude":13.706167,"canPickup":true,"canDropoff":true,"openingstijden":{"ma":"08:20 - 13:35","di":"08:20 - 13:35","wo":"08:20 - 13:35","do":"08:20 - 13:35","vr":"08:20 - 13:35","za":"08:20 - 12:35","zo":"gesloten"}}},{"type":"Feature","geometry":{"type":"Point","coordinates":[13.707616,43.159228]},"properties":{"type":"pakketpunt","locatieNaam":"TABACCHERIA N. 15","straatNaam":"VIALE VENTI GIUGNO 69","straatNr":"","vervoerder":"DHL","puntType":"parcelShop","bezettingsgraad":50,"latitude":43.159228,"longitude":13.707616,"canPickup":true,"canDropoff":true,"openingstijden":{"ma":"07:00 - 13:00, 15:30 - 20:00","di":"07:00 - 13:00, 15:30 - 20:00","wo":"07:00 - 13:00, 15:30 - 20:00","do":"07:00 - 13:00, 15:30 - 20:00","vr":"07:00 - 13:00, 15:30 - 20:00","za":"07:00 - 13:00, 15:30 - 20:00","zo":"gesloten"}}},{"type":"Feature","geometry":{"type":"Point","coordinates":[13.731248,43.169053]},"properties":{"type":"pakketpunt","locatieNaam":"TABACCHERIA N. 7","straatNaam":"VIALE TRENTO 198","straatNr":"","vervoerder":"DHL","puntType":"parcelShop","bezettingsgraad":50,"latitude":43.169053,"longitude":13.731248,"canPickup":true,"canDropoff":true,"openingstijden":{"ma":"07:30 - 13:00, 16:00 - 20:00","di":"07:30 - 13:00, 16:00 - 20:00","wo":"07:30 - 13:00, 16:00 - 20:00","do":"07:30 - 13:00, 16:00 - 20:00","vr":"07:30 - 13:00, 16:00 - 20:00","za":"07:30 - 13:00, 16:00 - 20:00","zo":"gesloten"}}},{"type":"Feature","geometry":{"type":"Point","coordinates":[13.724222,43.16563]},"properties":{"type":"pakketpunt","locatieNaam":"TABACCHI N 41","straatNaam":"Viale Casabianca 5/7","straatNr":"","vervoerder":"DHL","puntType":"parcelShop","bezettingsgraad":50,"latitude":43.16563,"longitude":13.724222,"canPickup":false,"canDropoff":true,"openingstijden":{"ma":"08:15 - 20:00","di":"08:15 - 20:00","wo":"08:15 - 20:00","do":"08:15 - 20:00","vr":"08:15 - 20:00","za":"08:15 - 20:00","zo":"gesloten"}}},{"type":"Feature","geometry":{"type":"Point","coordinates":[13.729076,43.156427]},"properties":{"type":"pakketpunt","locatieNaam":"TABACCHERIA N. 30","straatNaam":"VIA POMPEIANA 52","straatNr":"","vervoerder":"DHL","puntType":"parcelShop","bezettingsgraad":50,"latitude":43.156427,"longitude":13.729076,"canPickup":true,"canDropoff":true,"openingstijden":{"ma":"07:00 - 13:30, 16:00 - 20:30","di":"07:00 - 13:30, 16:00 - 20:30","wo":"07:00 - 13:30, 16:00 - 20:30","do":"07:00 - 13:30, 16:00 - 20:30","vr":"07:00 - 13:30, 16:00 - 20:30","za":"07:00 - 13:30, 16:00 - 20:30","zo":"gesloten"}}},{"type":"Feature","geometry":{"type":"Point","coordinates":[13.722947,43.158141]},"properties":{"type":"pakketpunt","locatieNaam":"TRILLO MANIA","straatNaam":"Luciano Manara, 3 A","straatNr":"","vervoerder":"DHL","puntType":"parcelShop","bezettingsgraad":50,"latitude":43.158141,"longitude":13.722947,"canPickup":false,"canDropoff":true,"openingstijden":{"ma":"09:00 - 19:45","di":"09:00 - 19:45","wo":"09:00 - 19:45","do":"09:00 - 19:45","vr":"09:00 - 19:45","za":"09:00 - 19:45","zo":"gesloten"}}},{"type":"Feature","geometry":{"type":"Point","coordinates":[13.724928,43.156225]},"properties":{"type":"pakketpunt","locatieNaam":"TABACCHERIA n. 34","straatNaam":"VIALE TRIESTE 69-A","straatNr":"","vervoerder":"DHL","puntType":"parcelShop","bezettingsgraad":50,"latitude":43.156225,"longitude":13.724928,"canPickup":true,"canDropoff":true,"openingstijden":{"ma":"08:00 - 13:00, 16:30 - 20:00","di":"08:00 - 13:00, 16:30 - 20:00","wo":"08:00 - 13:00, 16:30 - 20:00","do":"08:00 - 13:00, 16:30 - 20:00","vr":"08:00 - 13:00, 16:30 - 20:00","za":"08:00 - 13:00, 16:30 - 20:00","zo":"gesloten"}}},{"type":"Feature","geometry":{"type":"Point","coordinates":[13.717802,43.162636]},"properties":{"type":"pakketpunt","locatieNaam":"Ufficio Postale FERMO","straatNaam":"PIAZZALE AZZOLINO 20","straatNr":"","vervoerder":"DHL","puntType":"postOffice","bezettingsgraad":50,"latitude":43.162636,"longitude":13.717802,"canPickup":true,"canDropoff":true,"openingstijden":{"ma":"08:20 - 19:05","di":"08:20 - 19:05","wo":"08:20 - 19:05","do":"08:20 - 19:05","vr":"08:20 - 19:05","za":"08:20 - 12:35","zo":"gesloten"}}},{"type":"Feature","geometry":{"type":"Point","coordinates":[13.750837,43.176201]},"properties":{"type":"pakketpunt","locatieNaam":"TABACCHERIA N. 13","straatNaam":"VIA GIUSEPPE GIAMMARCO 5","straatNr":"","vervoerder":"DHL","puntType":"parcelShop","bezettingsgraad":50,"latitude":43.176201,"longitude":13.750837,"canPickup":true,"canDropoff":true,"openingstijden":{"ma":"07:00 - 13:00, 17:00 - 20:00","di":"07:00 - 13:00, 17:00 - 20:00","wo":"07:00 - 13:00, 17:00 - 20:00","do":"07:00 - 13:00, 17:00 - 20:00","vr":"07:00 - 13:00, 17:00 - 20:00","za":"07:00 - 13:00, 17:00 - 20:00","zo":"gesloten"}}},{"type":"Feature","geometry":{"type":"Point","coordinates":[13.75129,43.17623]},"properties":{"type":"pakketpunt","locatieNaam":"CRAZY PHONE DI FERRONI GIOVANNI","straatNaam":"Via Giammarco 5","straatNr":"","vervoerder":"DHL","puntType":"parcelShop","bezettingsgraad":50,"latitude":43.17623,"longitude":13.75129,"canPickup":false,"canDropoff":true,"openingstijden":{"ma":"07:00 - 20:00","di":"07:00 - 20:00","wo":"07:00 - 20:00","do":"07:00 - 20:00","vr":"07:00 - 20:00","za":"07:00 - 20:00","zo":"gesloten"}}},{"type":"Feature","geometry":{"type":"Point","coordinates":[13.713534,43.158315]},"properties":{"type":"pakketpunt","locatieNaam":"TABACCHERIA N. 37","straatNaam":"VIALE NUNZI TRENTO 44","straatNr":"","vervoerder":"DHL","puntType":"parcelShop","bezettingsgraad":50,"latitude":43.158315,"longitude":13.713534,"canPickup":true,"canDropoff":true,"openingstijden":{"ma":"07:00 - 13:00, 16:00 - 20:00","di":"07:00 - 13:00, 16:00 - 20:00","wo":"07:00 - 13:00, 16:00 - 20:00","do":"07:00 - 13:00, 16:00 - 20:00","vr":"07:00 - 13:00, 16:00 - 20:00","za":"07:00 - 13:00, 16:00 - 20:00","zo":"gesloten"}}},{"type":"Feature","geometry":{"type":"Point","coordinates":[13.710233,43.161054]},"properties":{"type":"pakketpunt","locatieNaam":"TABACCHERIA N. 3","straatNaam":"CORSO CAMILLO BENSO CAVOUR 121","straatNr":"","vervoerder":"DHL","puntType":"parcelShop","bezettingsgraad":50,"latitude":43.161054,"longitude":13.710233,"canPickup":true,"canDropoff":true,"openingstijden":{"ma":"07:00 - 13:30, 16:00 - 20:30","di":"07:00 - 13:30, 16:00 - 20:30","wo":"07:00 - 13:30, 16:00 - 20:30","do":"07:00 - 13:30, 16:00 - 20:30","vr":"07:00 - 13:30, 16:00 - 20:30","za":"07:00 - 13:30, 16:00 - 20:30","zo":"07:00 - 14:00"}}},{"type":"Feature","geometry":{"type":"Point","coordinates":[13.759386,43.189363]},"properties":{"type":"pakketpunt","locatieNaam":"Ufficio Postale CAPODARCO","straatNaam":"VIALE INDIPENDENZA 9","straatNr":"","vervoerder":"DHL","puntType":"postOffice","bezettingsgraad":50,"latitude":43.189363,"longitude":13.759386,"canPickup":true,"canDropoff":true,"openingstijden":{"ma":"08:20 - 13:45","di":"08:20 - 13:45","wo":"08:20 - 13:45","do":"08:20 - 13:45","vr":"08:20 - 13:45","za":"08:20 - 12:45","zo":"gesloten"}}},{"type":"Feature","geometry":{"type":"Point","coordinates":[13.760491,43.189121]},"properties":{"type":"pakketpunt","locatieNaam":"TABACCHERIA N. 8","straatNaam":"PIAZZA DELLA LIBERTA 4","straatNr":"","vervoerder":"DHL","puntType":"parcelShop","bezettingsgraad":50,"latitude":43.189121,"longitude":13.760491,"canPickup":true,"canDropoff":true,"openingstijden":{"ma":"08:00 - 13:00, 16:00 - 20:00","di":"08:00 - 13:00, 16:00 - 20:00","wo":"08:00 - 13:00, 16:00 - 20:00","do":"08:00 - 13:00, 16:00 - 20:00","vr":"08:00 - 13:00, 16:00 - 20:00","za":"08:00 - 13:00, 16:00 - 20:00","zo":"gesloten"}}},{"type":"Feature","geometry":{"type":"Point","coordinates":[13.781759,43.157381]},"properties":{"type":"pakketpunt","locatieNaam":"TABACCHERIA N. 23","straatNaam":"VIA FRANCESCO EGIDI 20","straatNr":"","vervoerder":"DHL","puntType":"parcelShop","bezettingsgraad":50,"latitude":43.157381,"longitude":13.781759,"canPickup":true,"canDropoff":true,"openingstijden":{"ma":"08:00 - 13:00, 16:30 - 20:00","di":"08:00 - 13:00, 16:30 - 20:00","wo":"08:00 - 13:00, 16:30 - 20:00","do":"08:00 - 13:00, 16:30 - 20:00","vr":"08:00 - 13:00, 16:30 - 20:00","za":"08:00 - 13:00, 16:30 - 20:00","zo":"gesloten"}}},{"type":"Feature","geometry":{"type":"Point","coordinates":[13.796953,43.15789]},"properties":{"type":"pakketpunt","locatieNaam":"TABACCHERIA N. 26","straatNaam":"VIA SAN PIETRO VECCHIO 14","straatNr":"","vervoerder":"DHL","puntType":"parcelShop","bezettingsgraad":50,"latitude":43.15789,"longitude":13.796953,"canPickup":true,"canDropoff":true,"openingstijden":{"ma":"04:30 - 20:00","di":"04:30 - 20:00","wo":"04:30 - 20:00","do":"04:30 - 20:00","vr":"04:30 - 20:00","za":"04:00 - 20:00","zo":"04:00 - 20:00"}}},{"type":"Feature","geometry":{"type":"Point","coordinates":[13.784934,43.199099]},"properties":{"type":"pakketpunt","locatieNaam":"TABACCHERIA N. 31","straatNaam":"VIA NAZIONALE 6","straatNr":"","vervoerder":"DHL","puntType":"parcelShop","bezettingsgraad":50,"latitude":43.199099,"longitude":13.784934,"canPickup":true,"canDropoff":true,"openingstijden":{"ma":"07:00 - 13:00, 15:30 - 20:00","di":"07:00 - 13:00, 15:30 - 20:00","wo":"07:00 - 13:00, 15:30 - 20:00","do":"07:00 - 13:00, 15:30 - 20:00","vr":"07:00 - 13:00, 15:30 - 20:00","za":"07:00 - 13:00, 15:30 - 20:00","zo":"gesloten"}}},{"type":"Feature","geometry":{"type":"Point","coordinates":[13.78497,43.19926]},"properties":{"type":"pakketpunt","locatieNaam":"LAMAS TABACCHI CAFFETTERIA","straatNaam":"Via Nazionale 6","straatNr":"","vervoerder":"DHL","puntType":"parcelShop","bezettingsgraad":50,"latitude":43.19926,"longitude":13.78497,"canPickup":false,"canDropoff":true,"openingstijden":{"ma":"07:00 - 20:00","di":"07:00 - 20:00","wo":"07:00 - 20:00","do":"07:00 - 20:00","vr":"07:00 - 20:00","za":"07:00 - 20:00","zo":"gesloten"}}},{"type":"Feature","geometry":{"type":"Point","coordinates":[13.787121,43.204274]},"properties":{"type":"pakketpunt","locatieNaam":"Ufficio Postale LIDO DI FERMO","straatNaam":"VIA ANTONIOTTO USODIMARE 11","straatNr":"","vervoerder":"DHL","puntType":"postOffice","bezettingsgraad":50,"latitude":43.204274,"longitude":13.787121,"canPickup":true,"canDropoff":true,"openingstijden":{"ma":"08:20 - 13:35","di":"08:20 - 13:35","wo":"08:20 - 13:35","do":"08:20 - 13:35","vr":"08:20 - 13:35","za":"08:20 - 12:35","zo":"gesloten"}}},{"type":"Feature","geometry":{"type":"Point","coordinates":[13.782357,43.210771]},"properties":{"type":"pakketpunt","locatieNaam":"TABACCHERIA N. 41","straatNaam":"VIALE CASABIANCA 5","straatNr":"","vervoerder":"DHL","puntType":"parcelShop","bezettingsgraad":50,"latitude":43.210771,"longitude":13.782357,"canPickup":true,"canDropoff":true,"openingstijden":{"ma":"07:30 - 13:00, 16:00 - 20:00","di":"07:30 - 13:00, 16:00 - 20:00","wo":"07:30 - 13:00, 16:00 - 20:00","do":"07:30 - 13:00, 16:00 - 20:00","vr":"07:30 - 13:00, 16:00 - 20:00","za":"07:30 - 13:00, 16:00 - 20:00","zo":"gesloten"}}},{"type":"Feature","geometry":{"type":"Point","coordinates":[13.812186,43.14721]},"properties":{"type":"pakketpunt","locatieNaam":"Ufficio Postale MARINA PALMENSE","straatNaam":"VIA DELLA STAZIONE 21","straatNr":"","vervoerder":"DHL","puntType":"postOffice","bezettingsgraad":50,"latitude":43.14721,"longitude":13.812186,"canPickup":true,"canDropoff":true,"openingstijden":{"ma":"08:20 - 13:35","di":"08:20 - 13:35","wo":"08:20 - 13:35","do":"08:20 - 13:35","vr":"08:20 - 13:35","za":"08:20 - 12:35","zo":"gesloten"}}},{"type":"Feature","geometry":{"type":"Point","coordinates":[13.812133,43.145376]},"properties":{"type":"pakketpunt","locatieNaam":"TABACCHERIA N. 10","straatNaam":"VIA DELLA LIBERTA 9","straatNr":"","vervoerder":"DHL","puntType":"parcelShop","bezettingsgraad":50,"latitude":43.145376,"longitude":13.812133,"canPickup":true,"canDropoff":true,"openingstijden":{"ma":"08:15 - 13:00, 16:00 - 20:00","di":"08:15 - 13:00, 16:00 - 20:00","wo":"08:15 - 13:00, 16:00 - 20:00","do":"08:15 - 13:00, 16:00 - 20:00","vr":"08:15 - 13:00, 16:00 - 20:00","za":"08:15 - 13:00, 16:00 - 20:00","zo":"gesloten"}}},{"type":"Feature","geometry":{"type":"Point","coordinates":[13.776644,43.229192]},"properties":{"type":"pakketpunt","locatieNaam":"TABACCHERIA N. 12","straatNaam":"VIA PIETRO NENNI 36-C","straatNr":"","vervoerder":"DHL","puntType":"parcelShop","bezettingsgraad":50,"latitude":43.229192,"longitude":13.776644,"canPickup":true,"canDropoff":true,"openingstijden":{"ma":"07:00 - 13:00, 14:00 - 21:00","di":"07:00 - 13:00, 14:00 - 21:00","wo":"07:00 - 13:00, 14:00 - 21:00","do":"07:00 - 13:00, 14:00 - 21:00","vr":"07:00 - 13:00, 14:00 - 21:00","za":"07:00 - 13:00, 14:00 - 21:00","zo":"gesloten"}}},{"type":"Feature","geometry":{"type":"Point","coordinates":[13.776546,43.227168]},"properties":{"type":"pakketpunt","locatieNaam":"TABACCHERIA N. 22","straatNaam":"VIA NAZIONALE 171","straatNr":"","vervoerder":"DHL","puntType":"parcelShop","bezettingsgraad":50,"latitude":43.227168,"longitude":13.776546,"canPickup":true,"canDropoff":true,"openingstijden":{"ma":"07:30 - 13:00, 15:30 - 20:00","di":"07:30 - 13:00, 15:30 - 20:00","wo":"07:30 - 13:00, 15:30 - 20:00","do":"07:30 - 13:00, 15:30 - 20:00","vr":"07:30 - 13:00, 15:30 - 20:00","za":"07:30 - 13:00, 15:30 - 20:00","zo":"gesloten"}}},{"type":"Feature","geometry":{"type":"Point","coordinates":[13.6725195,43.1778671]},"properties":{"type":"pakketpunt","locatieNaam":"Amazon Locker - afra","straatNaam":"Ipermercato Oasi Campiglione","straatNr":"","vervoerder":"Amazon","puntType":"locker","bezettingsgraad":50,"latitude":43.1778671,"longitude":13.6725195,"canPickup":true,"canDropoff":false,"openingstijden":null}},{"type":"Feature","geometry":{"type":"Point","coordinates":[13.6725589,43.1775363]},"properties":{"type":"pakketpunt","locatieNaam":"Giunti al Punto","straatNaam":"Via Filippo Maria Prosperi 42","straatNr":"","vervoerder":"Amazon","puntType":"helix","bezettingsgraad":50,"latitude":43.1775363,"longitude":13.6725589,"canPickup":true,"canDropoff":false,"openingstijden":null}},{"type":"Feature","geometry":{"type":"Point","coordinates":[13.7322735,43.168851]},"properties":{"type":"pakketpunt","locatieNaam":"Amazon Locker - deomira","straatNaam":"Eni Station pv.7281","straatNr":"","vervoerder":"Amazon","puntType":"locker","bezettingsgraad":50,"latitude":43.168851,"longitude":13.7322735,"canPickup":true,"canDropoff":false,"openingstijden":null}},{"type":"Feature","geometry":{"type":"Point","coordinates":[13.6717,43.1753]},"properties":{"type":"pakketpunt","locatieNaam":"PuntoPoste TABACCHERIA N. 40","straatNaam":"VIA GIACOMO FILIPPO MARIA PROSPERI 14","straatNr":"","vervoerder":"Amazon","puntType":"3p","bezettingsgraad":50,"latitude":43.1753,"longitude":13.6717,"canPickup":true,"canDropoff":false,"openingstijden":null}},{"type":"Feature","geometry":{"type":"Point","coordinates":[13.7047655,43.16573]},"properties":{"type":"pakketpunt","locatieNaam":"Amazon Counter (fermopoint)","straatNaam":"Spaccio21 di Borraccini Maria","straatNr":"","vervoerder":"Amazon","puntType":"helix","bezettingsgraad":50,"latitude":43.16573,"longitude":13.7047655,"canPickup":true,"canDropoff":false,"openingstijden":null}},{"type":"Feature","geometry":{"type":"Point","coordinates":[13.699132,43.161597]},"properties":{"type":"pakketpunt","locatieNaam":"Amazon Counter","straatNaam":"Rigener Service Snc (fermopoint)","straatNr":"","vervoerder":"Amazon","puntType":"helix","bezettingsgraad":50,"latitude":43.161597,"longitude":13.699132,"canPickup":true,"canDropoff":false,"openingstijden":null}},{"type":"Feature","geometry":{"type":"Point","coordinates":[13.710322,43.16114]},"properties":{"type":"pakketpunt","locatieNaam":"Amazon Counter - Punto 3","straatNaam":"Corso cavour , 121","straatNr":"","vervoerder":"Amazon","puntType":"helix","bezettingsgraad":50,"latitude":43.16114,"longitude":13.710322,"canPickup":true,"canDropoff":false,"openingstijden":null}},{"type":"Feature","geometry":{"type":"Point","coordinates":[13.785288,43.19928]},"properties":{"type":"pakketpunt","locatieNaam":"Amazon Counter - Enilive Station (n.53877)","straatNaam":"VIA NAZIONALE  7","straatNr":"","vervoerder":"Amazon","puntType":"helix","bezettingsgraad":50,"latitude":43.19928,"longitude":13.785288,"canPickup":true,"canDropoff":false,"openingstijden":null}},{"type":"Feature","geometry":{"type":"Point","coordinates":[13.781243,43.209586]},"properties":{"type":"pakketpunt","locatieNaam":"Amazon Locker - cordelia","straatNaam":"Coal / Fermo","straatNr":"","vervoerder":"Amazon","puntType":"locker","bezettingsgraad":50,"latitude":43.209586,"longitude":13.781243,"canPickup":true,"canDropoff":false,"openingstijden":null}},{"type":"Feature","geometry":{"type":"Point","coordinates":[13.777655,43.2253467]},"properties":{"type":"pakketpunt","locatieNaam":"Amazon Locker - marianeve","straatNaam":"Via Ugo malfa","straatNr":"","vervoerder":"Amazon","puntType":"locker","bezettingsgraad":50,"latitude":43.2253467,"longitude":13.777655,"canPickup":true,"canDropoff":false,"openingstijden":null}},{"type":"Feature","geometry":{"type":"Point","coordinates":[13.7133,43.1376]},"properties":{"type":"pakketpunt","locatieNaam":"PuntoPoste TABACCHERIA N. 14","straatNaam":"CONTRADA SAN MARTINO 93","straatNr":"","vervoerder":"Amazon","puntType":"3p","bezettingsgraad":50,"latitude":43.1376,"longitude":13.7133,"canPickup":true,"canDropoff":false,"openingstijden":null}},{"type":"Feature","geometry":{"type":"Point","coordinates":[13.716715,43.158568]},"properties":{"type":"pakketpunt","locatieNaam":"Amazon Counter - NEW ROXY BAR","straatNaam":"VIALE DELLA CARRIERA 48","straatNr":"","vervoerder":"Amazon","puntType":"helix","bezettingsgraad":50,"latitude":43.158568,"longitude":13.716715,"canPickup":true,"canDropoff":false,"openingstijden":null}},{"type":"Feature","geometry":{"type":"Point","coordinates":[13.7054,43.1614]},"properties":{"type":"pakketpunt","locatieNaam":"PuntoPoste TABACCHERIA N. 33","straatNaam":"VIA AUGUSTO MURRI 22","straatNr":"","vervoerder":"Amazon","puntType":"3p","bezettingsgraad":50,"latitude":43.1614,"longitude":13.7054,"canPickup":true,"canDropoff":false,"openingstijden":null}},{"type":"Feature","geometry":{"type":"Point","coordinates":[13.722593,43.158103]},"properties":{"type":"pakketpunt","locatieNaam":"Amazon Counter - LA FONTE DELLA FORTUNA","straatNaam":"LARGO MANARA 9","straatNr":"","vervoerder":"Amazon","puntType":"helix","bezettingsgraad":50,"latitude":43.158103,"longitude":13.722593,"canPickup":true,"canDropoff":false,"openingstijden":null}},{"type":"Feature","geometry":{"type":"Point","coordinates":[13.705417,43.163862]},"properties":{"type":"pakketpunt","locatieNaam":"Amazon Counter - ENI CAFFE","straatNaam":"VIA SALVO ACQUISTO 121","straatNr":"","vervoerder":"Amazon","puntType":"helix","bezettingsgraad":50,"latitude":43.163862,"longitude":13.705417,"canPickup":true,"canDropoff":false,"openingstijden":null}},{"type":"Feature","geometry":{"type":"Point","coordinates":[13.7135,43.1583]},"properties":{"type":"pakketpunt","locatieNaam":"PuntoPoste TABACCHERIA N. 37","straatNaam":"VIALE NUNZI TRENTO 44","straatNr":"","vervoerder":"Amazon","puntType":"3p","bezettingsgraad":50,"latitude":43.1583,"longitude":13.7135,"canPickup":true,"canDropoff":false,"openingstijden":null}},{"type":"Feature","geometry":{"type":"Point","coordinates":[13.7014,43.1617]},"properties":{"type":"pakketpunt","locatieNaam":"PuntoPoste TABACCHERIA N. 49","straatNaam":"VIA VENTICINQUE APRILE 79","straatNr":"","vervoerder":"Amazon","puntType":"3p","bezettingsgraad":50,"latitude":43.1617,"longitude":13.7014,"canPickup":true,"canDropoff":false,"openingstijden":null}},{"type":"Feature","geometry":{"type":"Point","coordinates":[13.7048,43.1657]},"properties":{"type":"pakketpunt","locatieNaam":"PuntoPoste TABACCHERIA N. 21","straatNaam":"VIA TIRO A SEGNO 69","straatNr":"","vervoerder":"Amazon","puntType":"3p","bezettingsgraad":50,"latitude":43.1657,"longitude":13.7048,"canPickup":true,"canDropoff":false,"openingstijden":null}},{"type":"Feature","geometry":{"type":"Point","coordinates":[13.7076,43.1592]},"properties":{"type":"pakketpunt","locatieNaam":"PuntoPoste TABACCHERIA N. 15","straatNaam":"VIALE VENTI GIUGNO 69","straatNr":"","vervoerder":"Amazon","puntType":"3p","bezettingsgraad":50,"latitude":43.1592,"longitude":13.7076,"canPickup":true,"canDropoff":false,"openingstijden":null}},{"type":"Feature","geometry":{"type":"Point","coordinates":[13.7249,43.1562]},"properties":{"type":"pakketpunt","locatieNaam":"PuntoPoste TABACCHERIA n. 34","straatNaam":"VIALE TRIESTE 69/A","straatNr":"","vervoerder":"Amazon","puntType":"3p","bezettingsgraad":50,"latitude":43.1562,"longitude":13.7249,"canPickup":true,"canDropoff":false,"openingstijden":null}},{"type":"Feature","geometry":{"type":"Point","coordinates":[13.7061,43.1596]},"properties":{"type":"pakketpunt","locatieNaam":"Ufficio Postale FERMO 1","straatNaam":"VIA VENTICINQUE APRILE 48","straatNr":"","vervoerder":"Amazon","puntType":"3p","bezettingsgraad":50,"latitude":43.1596,"longitude":13.7061,"canPickup":true,"canDropoff":false,"openingstijden":null}},{"type":"Feature","geometry":{"type":"Point","coordinates":[13.7291282171619,43.1564358793874]},"properties":{"type":"pakketpunt","locatieNaam":"Amazon Counter","straatNaam":"Lauri Irene Tabacchi (fermopoint)","straatNr":"","vervoerder":"Amazon","puntType":"helix","bezettingsgraad":50,"latitude":43.1564358793874,"longitude":13.7291282171619,"canPickup":true,"canDropoff":false,"openingstijden":null}},{"type":"Feature","geometry":{"type":"Point","coordinates":[13.7817,43.1573]},"properties":{"type":"pakketpunt","locatieNaam":"PuntoPoste TABACCHERIA N. 23","straatNaam":"VIA FRANCESCO EGIDI 20","straatNr":"","vervoerder":"Amazon","puntType":"3p","bezettingsgraad":50,"latitude":43.1573,"longitude":13.7817,"canPickup":true,"canDropoff":false,"openingstijden":null}},{"type":"Feature","geometry":{"type":"Point","coordinates":[13.784615,43.15914]},"properties":{"type":"pakketpunt","locatieNaam":"Amazon Counter - BAR BRUNI SPORT","straatNaam":"VIA FRANCESCO EGIDI 32","straatNr":"","vervoerder":"Amazon","puntType":"helix","bezettingsgraad":50,"latitude":43.15914,"longitude":13.784615,"canPickup":true,"canDropoff":false,"openingstijden":null}},{"type":"Feature","geometry":{"type":"Point","coordinates":[13.729,43.1564]},"properties":{"type":"pakketpunt","locatieNaam":"PuntoPoste TABACCHERIA N. 30","straatNaam":"VIA POMPEIANA 52","straatNr":"","vervoerder":"Amazon","puntType":"3p","bezettingsgraad":50,"latitude":43.1564,"longitude":13.729,"canPickup":true,"canDropoff":false,"openingstijden":null}},{"type":"Feature","geometry":{"type":"Point","coordinates":[13.7969,43.1578]},"properties":{"type":"pakketpunt","locatieNaam":"PuntoPoste TABACCHERIA N. 26","straatNaam":"VIA SAN PIETRO VECCHIO 14","straatNr":"","vervoerder":"Amazon","puntType":"3p","bezettingsgraad":50,"latitude":43.1578,"longitude":13.7969,"canPickup":true,"canDropoff":false,"openingstijden":null}},{"type":"Feature","geometry":{"type":"Point","coordinates":[13.7765,43.2271]},"properties":{"type":"pakketpunt","locatieNaam":"PuntoPoste TABACCHERIA N. 22","straatNaam":"VIA NAZIONALE 171","straatNr":"","vervoerder":"Amazon","puntType":"3p","bezettingsgraad":50,"latitude":43.2271,"longitude":13.7765,"canPickup":true,"canDropoff":false,"openingstijden":null}},{"type":"Feature","geometry":{"type":"Point","coordinates":[13.7826272,43.2107798]},"properties":{"type":"pakketpunt","locatieNaam":"Amazon Counter","straatNaam":"Tabacchi Pambianco S. (fermopoint)","straatNr":"","vervoerder":"Amazon","puntType":"helix","bezettingsgraad":50,"latitude":43.2107798,"longitude":13.7826272,"canPickup":true,"canDropoff":false,"openingstijden":null}},{"type":"Feature","geometry":{"type":"Point","coordinates":[13.7823,43.2107]},"properties":{"type":"pakketpunt","locatieNaam":"PuntoPoste TABACCHERIA N. 41","straatNaam":"VIALE CASABIANCA 5","straatNr":"","vervoerder":"Amazon","puntType":"3p","bezettingsgraad":50,"latitude":43.2107,"longitude":13.7823,"canPickup":true,"canDropoff":false,"openingstijden":null}},{"type":"Feature","geometry":{"type":"Point","coordinates":[13.7849,43.199]},"properties":{"type":"pakketpunt","locatieNaam":"PuntoPoste TABACCHERIA N. 31","straatNaam":"VIA NAZIONALE 6","straatNr":"","vervoerder":"Amazon","puntType":"3p","bezettingsgraad":50,"latitude":43.199,"longitude":13.7849,"canPickup":true,"canDropoff":false,"openingstijden":null}},{"type":"Feature","geometry":{"type":"Point","coordinates":[13.789,43.2028]},"properties":{"type":"pakketpunt","locatieNaam":"PuntoPoste TABACCHERIA N. 39","straatNaam":"LUNGOMARE FERMANO SNC 1","straatNr":"","vervoerder":"Amazon","puntType":"3p","bezettingsgraad":50,"latitude":43.2028,"longitude":13.789,"canPickup":true,"canDropoff":false,"openingstijden":null}},{"type":"Feature","geometry":{"type":"MultiPolygon","coordinates":[[[[13.4894166,43.1644393],[13.4899521,43.1643192],[13.4903178,43.1643588],[13.4916713,43.1639905],[13.4923571,43.164076],[13.4922325,43.1643465],[13.4923032,43.1648074],[13.4924931,43.1655517],[13.492834,43.166425],[13.4940216,43.1674812],[13.4961033,43.1689027],[13.4962002,43.1702628],[13.4963686,43.1704633],[13.4971962,43.1704262],[13.4990175,43.1709396],[13.5003436,43.1708243],[13.5008382,43.1705258],[13.5011561,43.169748],[13.501769,43.1695933],[13.5024105,43.1706213],[13.5027636,43.17099],[13.5036554,43.1706983],[13.5039108,43.1707422],[13.5041095,43.1721883],[13.5043928,43.1725283],[13.5045234,43.1729643],[13.5049181,43.1731468],[13.5053055,43.1736041],[13.5066648,43.1743563],[13.5089672,43.1741348],[13.5100129,43.1742196],[13.5111082,43.1741853],[13.5110388,43.1736614],[13.5144286,43.1739235],[13.5158015,43.1737342],[13.5182933,43.1738291],[13.5179909,43.173607],[13.5189284,43.1736014],[13.5192632,43.1734712],[13.5198312,43.1734172],[13.5206856,43.1736174],[13.5212665,43.1735719],[13.5221098,43.1733314],[13.5224858,43.1730104],[13.5234721,43.1729579],[13.5234015,43.1722944],[13.5232307,43.171689],[13.5232548,43.1711839],[13.5250733,43.1713234],[13.5251109,43.1728299],[13.5254562,43.1727172],[13.5262158,43.1718858],[13.5269967,43.1716343],[13.5286225,43.1715383],[13.52902,43.171383],[13.5298123,43.1706628],[13.5305731,43.1707632],[13.5313901,43.1710819],[13.5316565,43.1712739],[13.5323823,43.1722714],[13.5325772,43.1724122],[13.5338034,43.1725256],[13.5358983,43.1718302],[13.5358482,43.1708238],[13.5373678,43.1700837],[13.5369698,43.1697754],[13.5363366,43.1689093],[13.5361613,43.168079],[13.5353671,43.1674038],[13.5352004,43.1671043],[13.5349351,43.1656406],[13.5346669,43.1652169],[13.5319295,43.163462],[13.5301449,43.1629881],[13.529287,43.1618248],[13.5290509,43.1613345],[13.5288497,43.1605682],[13.5277217,43.1609055],[13.5223467,43.1619783],[13.5219492,43.1621336],[13.5223956,43.1629307],[13.5227466,43.1631464],[13.523178,43.1632418],[13.5234647,43.16346],[13.5235604,43.1636318],[13.5231308,43.1640585],[13.5230285,43.1642561],[13.5232266,43.1646894],[13.5243455,43.1663061],[13.5245792,43.1668055],[13.5240833,43.1669602],[13.5238934,43.1672198],[13.5234396,43.1674043],[13.5224321,43.1675433],[13.5211904,43.1675925],[13.5210012,43.1676945],[13.5208113,43.1679541],[13.5203288,43.1680407],[13.5191549,43.1677181],[13.5175031,43.1674188],[13.5160948,43.1681272],[13.5157615,43.1681944],[13.5150284,43.1680524],[13.5137303,43.1672529],[13.5129518,43.1663294],[13.5127668,43.1659045],[13.512748,43.1656082],[13.5129263,43.1648989],[13.5131204,43.1645716],[13.5129906,43.1644372],[13.5126026,43.164304],[13.5133555,43.162881],[13.5148766,43.163037],[13.514986,43.1626027],[13.5148243,43.1617449],[13.5145845,43.1614527],[13.5142335,43.1611965],[13.5135159,43.1608468],[13.5121891,43.160323],[13.509662,43.1594911],[13.5083764,43.1588171],[13.5076066,43.1585099],[13.5070558,43.1584191],[13.5058686,43.1585807],[13.5060107,43.1572944],[13.5063573,43.1564075],[13.5066731,43.1558526],[13.506546,43.1556303],[13.5063711,43.1557182],[13.5055165,43.1556349],[13.5053005,43.1558325],[13.5049655,43.1578804],[13.5050087,43.1581758],[13.5051499,43.1584223],[13.5031323,43.1579527],[13.5011482,43.1576033],[13.4995561,43.1578191],[13.4988045,43.1577992],[13.497732,43.1573868],[13.4974965,43.1570269],[13.4969739,43.1567774],[13.496679,43.15678],[13.4963547,43.1569279],[13.4961626,43.1572415],[13.4957947,43.157256],[13.4946255,43.1566988],[13.4939487,43.1567345],[13.4928601,43.1564802],[13.4926122,43.1566205],[13.4924288,43.1570959],[13.491898,43.1575714],[13.4918357,43.1577269],[13.4918399,43.1579518],[13.4923332,43.1589768],[13.4922362,43.1597909],[13.4921102,43.1600434],[13.4918334,43.1602929],[13.4915946,43.1604328],[13.4907889,43.1606401],[13.4904894,43.1608319],[13.4903243,43.1610545],[13.4902127,43.1615855],[13.4908814,43.1624865],[13.4908747,43.1627299],[13.4905596,43.1630034],[13.4898148,43.1632442],[13.4894285,43.1635115],[13.4892049,43.16411],[13.4894166,43.1644393]]],[[[13.5721774,43.1069079],[13.5719259,43.1072016],[13.5704458,43.1084447],[13.568312,43.1094079],[13.5684673,43.1095547],[13.5689065,43.1096767],[13.5700582,43.1097972],[13.5716606,43.1101517],[13.5725364,43.1104857],[13.5733278,43.1109222],[13.5739248,43.111677],[13.5738936,43.1118358],[13.5731997,43.1121697],[13.5730449,43.112401],[13.5729981,43.1134202],[13.573219,43.1139515],[13.5737828,43.1145907],[13.574132,43.1148648],[13.5745716,43.1149507],[13.5754729,43.1148831],[13.5768556,43.1151337],[13.5783506,43.1163927],[13.5796043,43.1152846],[13.5799972,43.1147872],[13.5810852,43.1138883],[13.5820442,43.112909],[13.5834853,43.1117213],[13.5818974,43.1108217],[13.5794113,43.1097826],[13.5772591,43.1087705],[13.5762219,43.1084159],[13.5752047,43.1079165],[13.5721774,43.1069079]]],[[[13.6150496,43.137238],[13.6170907,43.1382628],[13.618191,43.1391591],[13.6206024,43.1406911],[13.6214729,43.1419208],[13.6226945,43.1427536],[13.6240582,43.1434726],[13.6244742,43.1435683],[13.6252282,43.1439474],[13.6271332,43.1450766],[13.6276425,43.145308],[13.628147,43.1453956],[13.628511,43.1456149],[13.6292765,43.1464707],[13.6303515,43.1474354],[13.6313765,43.1488748],[13.6330575,43.1506567],[13.6340809,43.1521546],[13.6347066,43.1528675],[13.6353225,43.1539363],[13.6362258,43.1547819],[13.6371104,43.1559479],[13.6374387,43.1568528],[13.6372322,43.1571088],[13.6360432,43.1580124],[13.6351771,43.1587948],[13.6339687,43.159402],[13.6329446,43.1596416],[13.6325754,43.1601247],[13.6314711,43.1611734],[13.6313208,43.1617467],[13.6313972,43.1627564],[13.631235,43.1634562],[13.630885,43.1642356],[13.6303156,43.1660143],[13.6294725,43.1679571],[13.6295385,43.168382],[13.6299529,43.1690629],[13.6301122,43.1696237],[13.6299891,43.1702318],[13.629848,43.1705212],[13.6294951,43.1708956],[13.6302189,43.1709923],[13.6324909,43.170621],[13.6332018,43.1706687],[13.6327734,43.1716719],[13.6329965,43.172221],[13.6332253,43.1724413],[13.634689,43.1730076],[13.6352581,43.1733761],[13.636294,43.1737752],[13.6373519,43.1749116],[13.6380931,43.1753991],[13.6385683,43.1756229],[13.6401938,43.1760925],[13.6412727,43.1767329],[13.6425239,43.1780639],[13.6428789,43.1786887],[13.6427931,43.1792189],[13.6422909,43.1796534],[13.6422507,43.1798531],[13.6423308,43.1800974],[13.6427212,43.1802976],[13.643533,43.1803366],[13.6438246,43.1804913],[13.6441057,43.1810336],[13.6445735,43.1815637],[13.6457135,43.1823591],[13.6473625,43.1839845],[13.6478375,43.1842848],[13.6489591,43.1846757],[13.6513733,43.1851176],[13.6518146,43.1852976],[13.6525308,43.1858176],[13.6530661,43.1867884],[13.6535234,43.1873009],[13.6540422,43.1876511],[13.6547387,43.1878106],[13.6585175,43.1867213],[13.6593505,43.1867549],[13.6620266,43.186434],[13.663925,43.1863205],[13.6651473,43.1861355],[13.6661827,43.1861202],[13.6662532,43.1859147],[13.6668845,43.1854816],[13.6671234,43.1846638],[13.6670347,43.1835826],[13.6674361,43.1821527],[13.6681863,43.1828333],[13.6694553,43.1821332],[13.67097,43.183039],[13.6734257,43.1805212],[13.6721502,43.1794863],[13.6737246,43.1781142],[13.6743202,43.1778603],[13.6751016,43.1770585],[13.676457,43.1759227],[13.6801544,43.1732819],[13.6811579,43.1734568],[13.6840552,43.1743058],[13.6860033,43.1753287],[13.6871082,43.176062],[13.6893561,43.1779053],[13.6914963,43.1789832],[13.6919117,43.1792678],[13.6941357,43.1810759],[13.6969487,43.1830624],[13.6972362,43.1834017],[13.699846,43.1851038],[13.7015363,43.1866457],[13.702416,43.1870056],[13.7030719,43.1873747],[13.7059642,43.1897042],[13.707286,43.1905725],[13.7082167,43.1913129],[13.7123705,43.1940809],[13.713578,43.1951384],[13.7145618,43.1957685],[13.7171348,43.1980164],[13.7187352,43.1992196],[13.7189639,43.1995118],[13.7204553,43.2004989],[13.7216408,43.2014672],[13.7225163,43.2020072],[13.7232067,43.2025413],[13.7242193,43.2036202],[13.7266708,43.2052427],[13.7299282,43.2078537],[13.7306166,43.2085183],[13.7315775,43.2090457],[13.7324088,43.210006],[13.7337937,43.2108624],[13.7341301,43.211213],[13.7354304,43.2120684],[13.7368457,43.213297],[13.7374722,43.2139553],[13.7378083,43.2144004],[13.7379975,43.2148157],[13.7380838,43.2152938],[13.7379913,43.2162024],[13.7380493,43.2181401],[13.7374195,43.2194626],[13.7366437,43.2219571],[13.7365029,43.2228407],[13.7365382,43.2246038],[13.7367247,43.2256584],[13.7369103,43.2261863],[13.7373769,43.2269637],[13.7380963,43.2278251],[13.7388612,43.228401],[13.7416247,43.2294251],[13.7428598,43.2297519],[13.7438554,43.2298096],[13.7468166,43.2296144],[13.7486215,43.2292738],[13.7509282,43.2296864],[13.7526827,43.229924],[13.7538021,43.2299899],[13.7560236,43.2303745],[13.7573662,43.2303816],[13.7587041,43.2306454],[13.7614837,43.230804],[13.7628414,43.231202],[13.7653608,43.231538],[13.7672127,43.2318388],[13.768191,43.2321085],[13.77022,43.2323118],[13.772232,43.2326913],[13.7751117,43.2333811],[13.7756019,43.2336273],[13.7764836,43.2338009],[13.777727,43.234271],[13.7790888,43.2344197],[13.7793596,43.2338609],[13.7795612,43.2325017],[13.7801748,43.230848],[13.7808781,43.2278888],[13.7815183,43.2259425],[13.7817906,43.2253901],[13.7817673,43.2249602],[13.7819924,43.2246841],[13.7819231,43.2245555],[13.7813999,43.2242299],[13.7815618,43.2234245],[13.7818015,43.2227797],[13.7831419,43.2213114],[13.7832801,43.2210355],[13.7835279,43.2202135],[13.7837379,43.2190855],[13.7839363,43.2186004],[13.7839689,43.2181222],[13.7844153,43.2164237],[13.7849052,43.2152016],[13.7855745,43.2140883],[13.7861244,43.2128132],[13.7866215,43.2120033],[13.7905574,43.2016209],[13.7908029,43.1990378],[13.7904113,43.1989213],[13.7893803,43.1988385],[13.7886569,43.1986753],[13.7851956,43.1981993],[13.7839878,43.1976647],[13.7833564,43.1972231],[13.782304,43.1963939],[13.7820159,43.1960144],[13.7815928,43.1956405],[13.7808715,43.195189],[13.7801765,43.1943269],[13.7799177,43.193811],[13.7796967,43.1925194],[13.7792001,43.1915184],[13.7773467,43.1900025],[13.7769007,43.1895305],[13.7760046,43.1882581],[13.7754779,43.1879741],[13.7748543,43.1872754],[13.7735348,43.1861332],[13.7724202,43.1858423],[13.7713782,43.1857328],[13.7685837,43.1844496],[13.7676299,43.1841699],[13.7668429,43.1836221],[13.765427,43.1830555],[13.7628873,43.1826708],[13.7624655,43.1822698],[13.7624096,43.1819075],[13.7630147,43.1811486],[13.7616171,43.1809728],[13.761523,43.1800809],[13.7615158,43.1786858],[13.7616841,43.1783187],[13.7617134,43.1779844],[13.7604482,43.1777716],[13.7609165,43.1760055],[13.7617175,43.1758258],[13.7627814,43.175311],[13.7636781,43.1753344],[13.7640364,43.1743685],[13.7651288,43.1745738],[13.765314,43.1733597],[13.7698973,43.1736139],[13.7718327,43.1735105],[13.7720554,43.1721868],[13.7723437,43.1713105],[13.7729481,43.1712537],[13.7740988,43.170868],[13.7769972,43.1705757],[13.777431,43.170382],[13.7783199,43.1695976],[13.7788655,43.1694172],[13.7797144,43.1693816],[13.7803467,43.1691706],[13.7806092,43.168831],[13.7808367,43.1679257],[13.7809568,43.1669439],[13.7811928,43.1661868],[13.7816865,43.1655809],[13.7822417,43.1655239],[13.7822887,43.165397],[13.7816487,43.1644279],[13.7810105,43.1629106],[13.7814719,43.1627563],[13.7822992,43.1626811],[13.7825253,43.1627414],[13.7847428,43.1621218],[13.7861394,43.1615816],[13.7867582,43.1615917],[13.7879207,43.161831],[13.789289,43.1620015],[13.7909769,43.162687],[13.7923829,43.162792],[13.7952264,43.1628808],[13.796842,43.162768],[13.7990015,43.1628916],[13.8005381,43.162685],[13.8035854,43.1627709],[13.8059733,43.1626793],[13.807784,43.1629497],[13.8098438,43.1629079],[13.8099457,43.1628361],[13.8104457,43.1629771],[13.8113183,43.1634112],[13.8115029,43.1632385],[13.8115875,43.1630175],[13.8115135,43.1628195],[13.8112985,43.1627039],[13.8113126,43.1626268],[13.812324,43.162817],[13.8124262,43.1627759],[13.8123839,43.162673],[13.811591,43.1625548],[13.8115297,43.1624785],[13.811881,43.1607989],[13.8123558,43.1591154],[13.8130908,43.157155],[13.8136432,43.1553389],[13.8137152,43.154493],[13.8143787,43.1529556],[13.8153934,43.15129],[13.8170767,43.147852],[13.8203,43.1405828],[13.8212415,43.1386869],[13.821821,43.1371565],[13.8225523,43.1365826],[13.8230352,43.1353643],[13.8236196,43.1342063],[13.824412,43.1330891],[13.8249531,43.1321219],[13.8255878,43.1315883],[13.8259742,43.1315077],[13.8287688,43.127771],[13.8292817,43.1269144],[13.8275679,43.1263064],[13.8273726,43.1263236],[13.8274301,43.1265463],[13.827125,43.1267302],[13.8263723,43.126537],[13.8256221,43.1266092],[13.8244564,43.1271401],[13.8241485,43.1271712],[13.8237413,43.1271118],[13.8232808,43.1268837],[13.8221883,43.1267453],[13.8219453,43.126508],[13.821458,43.1257048],[13.8212882,43.125577],[13.8200896,43.1253395],[13.819713,43.1250448],[13.8191649,43.1241317],[13.8187062,43.1237684],[13.8183685,43.1227564],[13.8179353,43.1222885],[13.8176351,43.1217925],[13.8160892,43.1210835],[13.8157912,43.1212401],[13.815477,43.121582],[13.8149658,43.1219186],[13.8142267,43.1220533],[13.8135641,43.1220273],[13.8151164,43.1230916],[13.8152314,43.1234604],[13.8154382,43.1236677],[13.8155668,43.1240134],[13.8154519,43.1241938],[13.8152155,43.1243523],[13.8141215,43.1248981],[13.8132024,43.1248154],[13.811576,43.1244113],[13.8109031,43.1253894],[13.8099248,43.1251786],[13.8084997,43.1251081],[13.8067144,43.1245981],[13.8063451,43.1245911],[13.805507,43.124874],[13.8035916,43.1240768],[13.8034036,43.1241478],[13.8032362,43.1245599],[13.8026572,43.1246608],[13.8028718,43.123792],[13.8027251,43.1236452],[13.8025408,43.1237249],[13.8017283,43.1237861],[13.8011529,43.1236573],[13.8005621,43.1236866],[13.8005029,43.1242248],[13.8005513,43.1249204],[13.7995606,43.1251782],[13.7993362,43.1254127],[13.7992772,43.1259148],[13.7991197,43.1263356],[13.7987837,43.1265567],[13.7979775,43.126307],[13.7958012,43.1252574],[13.7947377,43.1248407],[13.7942849,43.1247472],[13.7931041,43.1248148],[13.7922086,43.1246408],[13.7920105,43.1247391],[13.7918324,43.1250167],[13.7916352,43.1256372],[13.7910486,43.1261524],[13.7907759,43.1262404],[13.7895673,43.125913],[13.7890329,43.1266241],[13.7879261,43.1260268],[13.7875473,43.1260157],[13.7871612,43.1262255],[13.7868855,43.1265116],[13.785384,43.1284517],[13.7847971,43.1282557],[13.782392,43.1305892],[13.7811901,43.1316478],[13.7806101,43.1311454],[13.7788649,43.1304803],[13.7765538,43.1291771],[13.7755388,43.1289675],[13.7736877,43.129306],[13.7727421,43.129278],[13.772214,43.129165],[13.7715118,43.1286722],[13.7713956,43.1284025],[13.7714145,43.1280146],[13.7699623,43.1280708],[13.7682743,43.1275831],[13.7678859,43.1274103],[13.766858,43.126679],[13.765516,43.1254656],[13.7651025,43.1252443],[13.7641114,43.1249075],[13.7633519,43.124228],[13.7615833,43.1230189],[13.7604681,43.1221516],[13.7579903,43.1212241],[13.7567322,43.1208489],[13.755809,43.1203157],[13.7550725,43.1197342],[13.7543705,43.1197544],[13.7542041,43.1195903],[13.7541357,43.1191835],[13.7541195,43.1188961],[13.7542765,43.1183449],[13.7539946,43.1177219],[13.7541388,43.1166896],[13.7538625,43.116296],[13.7522667,43.115012],[13.7513876,43.1141348],[13.7510306,43.1134925],[13.7510141,43.11316],[13.7513438,43.1125791],[13.751458,43.1119127],[13.7513036,43.1103166],[13.7510096,43.1091],[13.7510188,43.1087035],[13.7508814,43.10816],[13.7502164,43.1070713],[13.7500643,43.1066545],[13.7501916,43.105839],[13.7489731,43.1065649],[13.7478623,43.1074529],[13.7480115,43.1079508],[13.7485237,43.1086947],[13.7486165,43.1090195],[13.7466622,43.1101226],[13.7454527,43.1110461],[13.747273,43.1145581],[13.7467517,43.1147688],[13.7440137,43.1153147],[13.7436877,43.1155489],[13.7435505,43.1156806],[13.7435187,43.116024],[13.7436685,43.1164904],[13.7436627,43.1167338],[13.7435039,43.1174201],[13.7426765,43.1182017],[13.7422038,43.1184464],[13.741591,43.1182693],[13.7405247,43.1188627],[13.7387205,43.1193293],[13.7340949,43.1211777],[13.7338448,43.1213996],[13.7336669,43.1217221],[13.7329582,43.123327],[13.7326232,43.1234849],[13.7316103,43.1236169],[13.7311541,43.1237574],[13.7290415,43.1236963],[13.7278904,43.1241086],[13.7259186,43.1242398],[13.7242863,43.124708],[13.7216368,43.1250562],[13.7211296,43.1252122],[13.7208045,43.1254597],[13.7192952,43.1235775],[13.718124,43.1214157],[13.7176353,43.1211748],[13.7167079,43.1214607],[13.7165431,43.1216746],[13.7165322,43.1222512],[13.7164518,43.1224841],[13.7162533,43.1226994],[13.715706,43.1229335],[13.7147674,43.1231141],[13.7138412,43.1234562],[13.7131132,43.1234998],[13.7109284,43.1232973],[13.7098278,43.1230502],[13.7089198,43.1230291],[13.7088233,43.1228935],[13.7088067,43.1225971],[13.708926,43.1221106],[13.7088239,43.1217411],[13.7061116,43.1215109],[13.7054519,43.1213625],[13.7054796,43.1205241],[13.7051286,43.1196743],[13.7046038,43.1189217],[13.7021217,43.1186863],[13.7009638,43.1184909],[13.7000756,43.1185275],[13.6991362,43.1183366],[13.6977052,43.118427],[13.6967366,43.1183363],[13.6956856,43.1180915],[13.6953829,43.1179509],[13.6952745,43.1177798],[13.6953384,43.1176106],[13.6962264,43.1169709],[13.6964062,43.1166304],[13.6965821,43.1157589],[13.6971656,43.1143529],[13.6969695,43.1143205],[13.6954285,43.1145369],[13.6942667,43.1148503],[13.693622,43.1151379],[13.692388,43.1136671],[13.6919236,43.1128579],[13.6910588,43.1131185],[13.690617,43.1119618],[13.6905576,43.1107444],[13.6904062,43.1102509],[13.6899178,43.110172],[13.6895487,43.1102051],[13.6881881,43.1105311],[13.6876922,43.1107945],[13.687385,43.1108342],[13.6862446,43.1107054],[13.6861367,43.1111015],[13.6857526,43.111824],[13.6854043,43.1120903],[13.6850815,43.1122071],[13.6843656,43.1117638],[13.6823349,43.1107578],[13.6817985,43.1105727],[13.6813975,43.1103101],[13.6809579,43.1096619],[13.6807625,43.1095168],[13.6802526,43.1091956],[13.6793872,43.108925],[13.6789186,43.1095879],[13.6784177,43.1094644],[13.6783765,43.1101728],[13.6785258,43.1106799],[13.6786165,43.1115449],[13.6784682,43.111695],[13.6777026,43.1117669],[13.6760027,43.1114719],[13.6755842,43.1115026],[13.67466,43.1121931],[13.6740145,43.1123906],[13.6718351,43.1125744],[13.6693414,43.1125458],[13.6687845,43.1127352],[13.6683469,43.1130006],[13.6678687,43.1135378],[13.667549,43.1141811],[13.6669776,43.1149472],[13.6660784,43.1156862],[13.6648074,43.11703],[13.6645692,43.1183002],[13.6637856,43.1187823],[13.6623319,43.1195034],[13.6615694,43.1201017],[13.6612383,43.1205564],[13.6608734,43.1215346],[13.6609538,43.1218644],[13.6614794,43.1224326],[13.6620044,43.1231944],[13.6634916,43.1238404],[13.6651172,43.1241656],[13.6654117,43.1243607],[13.66544,43.1246926],[13.6637621,43.1248512],[13.6620562,43.1247228],[13.6608244,43.124404],[13.6590237,43.1235547],[13.6585565,43.1240374],[13.6576004,43.1255664],[13.6556844,43.1250188],[13.6549039,43.124695],[13.6539243,43.1244604],[13.6526949,43.1240108],[13.6520823,43.1244814],[13.651259,43.1243619],[13.6506338,43.1243829],[13.6489514,43.124807],[13.6468446,43.1250234],[13.6441887,43.1256581],[13.6423871,43.1258889],[13.6418418,43.1260731],[13.6411821,43.1265321],[13.640341,43.1272325],[13.6396752,43.1279348],[13.6379105,43.1293029],[13.6372299,43.1300147],[13.6369219,43.1301263],[13.6354306,43.1302364],[13.6350428,43.1305132],[13.6342139,43.1307269],[13.6336495,43.1307813],[13.6333244,43.1309115],[13.6336439,43.1316008],[13.6337391,43.1321686],[13.6339324,43.1324083],[13.6345652,43.1327293],[13.6333468,43.1332379],[13.632753,43.1334735],[13.6325319,43.1328658],[13.6323076,43.1325418],[13.6320667,43.132322],[13.6317344,43.1323175],[13.6302364,43.1333551],[13.6298319,43.1337361],[13.6285207,43.134685],[13.6278346,43.135082],[13.6253673,43.133827],[13.6233783,43.1326382],[13.6222179,43.1334279],[13.6200657,43.1344738],[13.6196452,43.1346033],[13.6190077,43.1350748],[13.618036,43.1355552],[13.6171936,43.1358774],[13.6150496,43.137238]]]]},"properties":{"type":"boundary","gemeente":"Fermo"}}]}