{"type":"FeatureCollection","metadata":{"gemeente":"Fino Mornasco","slug":"fino-mornasco","generated_at":"2026-09-26T14:27:19.182160Z","total_points":13,"providers":["PosteItaliane","InPost","DHL","Amazon"],"bounds":[9.04478,45.7332,9.07472,45.75788]},"features":[{"type":"Feature","geometry":{"type":"Point","coordinates":[9.05228395,45.74334898]},"properties":{"type":"pakketpunt","locatieNaam":"Fino Mornasco","straatNaam":"Via Raimondi Snc","straatNr":"","vervoerder":"PosteItaliane","puntType":"postkantoor","bezettingsgraad":50,"latitude":45.74334898,"longitude":9.05228395,"canPickup":true,"canDropoff":true,"openingstijden":{"ma":"gesloten","di":"gesloten","wo":"gesloten","do":"gesloten","vr":"gesloten","za":"gesloten","zo":"gesloten"}}},{"type":"Feature","geometry":{"type":"Point","coordinates":[9.05853062,45.73321106]},"properties":{"type":"pakketpunt","locatieNaam":"Tabaccheria N. 3","straatNaam":"Via Indipendenza","straatNr":"9","vervoerder":"PosteItaliane","puntType":"servicepunt","bezettingsgraad":50,"latitude":45.73321106,"longitude":9.05853062,"canPickup":true,"canDropoff":true,"openingstijden":{"za":"08:00 - 12:30, 15:00 - 19:00","zo":"gesloten","ma":"08:00 - 12:30, 15:00 - 19:00","di":"08:00 - 12:30, 15:00 - 19:00","wo":"08:00 - 12:30, 15:00 - 19:00","do":"08:00 - 12:30, 15:00 - 19:00","vr":"08:00 - 12:30, 15:00 - 19:00"}}},{"type":"Feature","geometry":{"type":"Point","coordinates":[9.04478219,45.74749754]},"properties":{"type":"pakketpunt","locatieNaam":"Tabaccheria N. 4","straatNaam":"Via Risorgimento","straatNr":"43","vervoerder":"PosteItaliane","puntType":"servicepunt","bezettingsgraad":50,"latitude":45.74749754,"longitude":9.04478219,"canPickup":true,"canDropoff":true,"openingstijden":{"za":"11:00 - 14:00","zo":"gesloten","ma":"11:00 - 21:00","di":"11:00 - 21:00","wo":"11:00 - 21:00","do":"11:00 - 21:00","vr":"11:00 - 21:00"}}},{"type":"Feature","geometry":{"type":"Point","coordinates":[9.0503,45.75239]},"properties":{"type":"pakketpunt","locatieNaam":"InPost Locker 24/7 ","straatNaam":"Via Garibaldi","straatNr":"197","vervoerder":"InPost","puntType":"automaat","bezettingsgraad":50,"latitude":45.75239,"longitude":9.0503,"canPickup":true,"canDropoff":true,"openingstijden":null}},{"type":"Feature","geometry":{"type":"Point","coordinates":[9.07472,45.7425]},"properties":{"type":"pakketpunt","locatieNaam":"InPost Locker 24/7","straatNaam":"SP 27 Per Cucciago","straatNr":"snc","vervoerder":"InPost","puntType":"automaat","bezettingsgraad":50,"latitude":45.7425,"longitude":9.07472,"canPickup":true,"canDropoff":true,"openingstijden":null}},{"type":"Feature","geometry":{"type":"Point","coordinates":[9.05199,45.75788]},"properties":{"type":"pakketpunt","locatieNaam":"InPost Locker 24/7","straatNaam":"Via Tevere","straatNr":"2","vervoerder":"InPost","puntType":"automaat","bezettingsgraad":50,"latitude":45.75788,"longitude":9.05199,"canPickup":true,"canDropoff":true,"openingstijden":null}},{"type":"Feature","geometry":{"type":"Point","coordinates":[9.048627,45.744389]},"properties":{"type":"pakketpunt","locatieNaam":"IMMAGINI S.a.s","straatNaam":"Brera, snc","straatNr":"","vervoerder":"DHL","puntType":"parcelShop","bezettingsgraad":50,"latitude":45.744389,"longitude":9.048627,"canPickup":false,"canDropoff":true,"openingstijden":{"ma":"15:00 - 19:30","di":"09:10 - 19:30","wo":"09:10 - 19:30","do":"09:10 - 19:30","vr":"09:10 - 19:30","za":"09:10 - 19:30","zo":"gesloten"}}},{"type":"Feature","geometry":{"type":"Point","coordinates":[9.058531,45.733211]},"properties":{"type":"pakketpunt","locatieNaam":"TABACCHERIA N. 3","straatNaam":"VIA INDIPENDENZA 9","straatNr":"","vervoerder":"DHL","puntType":"parcelShop","bezettingsgraad":50,"latitude":45.733211,"longitude":9.058531,"canPickup":true,"canDropoff":true,"openingstijden":{"ma":"08:00 - 12:30, 15:00 - 19:00","di":"08:00 - 12:30, 15:00 - 19:00","wo":"08:00 - 12:30, 15:00 - 19:00","do":"08:00 - 12:30, 15:00 - 19:00","vr":"08:00 - 12:30, 15:00 - 19:00","za":"08:00 - 12:30, 15:00 - 19:00","zo":"gesloten"}}},{"type":"Feature","geometry":{"type":"Point","coordinates":[9.044782,45.747498]},"properties":{"type":"pakketpunt","locatieNaam":"TABACCHERIA N. 4","straatNaam":"VIA RISORGIMENTO 43","straatNr":"","vervoerder":"DHL","puntType":"parcelShop","bezettingsgraad":50,"latitude":45.747498,"longitude":9.044782,"canPickup":true,"canDropoff":true,"openingstijden":{"ma":"11:00 - 21:00","di":"11:00 - 21:00","wo":"11:00 - 21:00","do":"11:00 - 21:00","vr":"11:00 - 21:00","za":"11:00 - 14:00","zo":"gesloten"}}},{"type":"Feature","geometry":{"type":"Point","coordinates":[9.047243,45.746483]},"properties":{"type":"pakketpunt","locatieNaam":"Amazon Locker - calista","straatNaam":"Ferrovienord / Fino Mornasco","straatNr":"","vervoerder":"Amazon","puntType":"locker","bezettingsgraad":50,"latitude":45.746483,"longitude":9.047243,"canPickup":true,"canDropoff":false,"openingstijden":null}},{"type":"Feature","geometry":{"type":"Point","coordinates":[9.0501922,45.752162]},"properties":{"type":"pakketpunt","locatieNaam":"Amazon Locker - alberino","straatNaam":"Eni Station Pv.1844","straatNr":"","vervoerder":"Amazon","puntType":"locker","bezettingsgraad":50,"latitude":45.752162,"longitude":9.0501922,"canPickup":true,"canDropoff":false,"openingstijden":null}},{"type":"Feature","geometry":{"type":"Point","coordinates":[9.05853,45.7332]},"properties":{"type":"pakketpunt","locatieNaam":"PuntoPoste TABACCHERIA N. 3","straatNaam":"VIA INDIPENDENZA 9","straatNr":"","vervoerder":"Amazon","puntType":"3p","bezettingsgraad":50,"latitude":45.7332,"longitude":9.05853,"canPickup":true,"canDropoff":false,"openingstijden":null}},{"type":"Feature","geometry":{"type":"Point","coordinates":[9.04478,45.7474]},"properties":{"type":"pakketpunt","locatieNaam":"PuntoPoste TABACCHERIA N. 4","straatNaam":"VIA RISORGIMENTO 43","straatNr":"","vervoerder":"Amazon","puntType":"3p","bezettingsgraad":50,"latitude":45.7474,"longitude":9.04478,"canPickup":true,"canDropoff":false,"openingstijden":null}},{"type":"Feature","geometry":{"type":"Polygon","coordinates":[[[9.0267746,45.7378425],[9.0284523,45.738995],[9.0307107,45.7392281],[9.0310379,45.7394963],[9.0324731,45.7401684],[9.0322618,45.7412036],[9.0326242,45.7441583],[9.0361092,45.7438488],[9.0362346,45.7438982],[9.0364342,45.7431586],[9.037088,45.7417029],[9.038014,45.7419903],[9.0391711,45.7425888],[9.039559,45.7433253],[9.0394295,45.7435252],[9.0385316,45.7433536],[9.038119,45.7434074],[9.0379682,45.7434519],[9.0375282,45.7438312],[9.0383397,45.7437896],[9.0383088,45.7463145],[9.0391122,45.7462601],[9.039072,45.7460963],[9.0391944,45.7458207],[9.0398413,45.7446861],[9.0396298,45.7446482],[9.0397198,45.7443009],[9.0400238,45.7443208],[9.0400902,45.7437289],[9.0406727,45.7440305],[9.0408204,45.7440139],[9.0414435,45.7448687],[9.041065,45.7447399],[9.0400246,45.7448031],[9.0400366,45.7449354],[9.0409658,45.7456883],[9.0409541,45.745953],[9.0407223,45.7461157],[9.0406395,45.7463736],[9.0408894,45.7472606],[9.0409144,45.7478718],[9.0412181,45.7487746],[9.0400416,45.7491363],[9.0399206,45.7494872],[9.0400773,45.7498259],[9.0406607,45.7504084],[9.0429917,45.7517317],[9.0435395,45.752093],[9.0441444,45.7526538],[9.0450404,45.7532385],[9.045826,45.7540152],[9.0464591,45.754775],[9.0472112,45.754756],[9.0484436,45.7549617],[9.048221,45.7551856],[9.0485886,45.755956],[9.0492857,45.7558721],[9.0496991,45.7573564],[9.0512193,45.757254],[9.0517856,45.7589276],[9.0523459,45.7591115],[9.0525852,45.7585957],[9.0535,45.7588814],[9.0536422,45.7593966],[9.0552458,45.759209],[9.0560721,45.7583101],[9.057194,45.7587282],[9.0571884,45.7580939],[9.0581545,45.7578459],[9.0576586,45.7575043],[9.0575545,45.7572533],[9.0576289,45.7570947],[9.0576013,45.756875],[9.0570991,45.7561671],[9.0572488,45.7559405],[9.057316,45.7556273],[9.0575293,45.7554592],[9.0574212,45.7550349],[9.0576532,45.7547709],[9.0575659,45.7546406],[9.0576625,45.7543902],[9.0574687,45.7533131],[9.0580203,45.7532519],[9.0580119,45.7533905],[9.0594717,45.7536196],[9.0594893,45.7532932],[9.059753,45.7531736],[9.059624,45.7527297],[9.0594693,45.752545],[9.0594565,45.7523423],[9.0595394,45.7520592],[9.0597736,45.7518208],[9.0598382,45.7510656],[9.0603801,45.7507852],[9.0615569,45.7510331],[9.0616722,45.7505614],[9.0623612,45.7498013],[9.0625189,45.7497792],[9.0637278,45.7501545],[9.0638871,45.750052],[9.0642522,45.7501043],[9.0642752,45.7500446],[9.0645285,45.7500409],[9.0662179,45.7504956],[9.0660465,45.7501128],[9.0664923,45.749885],[9.0670401,45.7506009],[9.0685114,45.7503169],[9.0686783,45.74964],[9.0693423,45.7494838],[9.0702984,45.7500488],[9.070081,45.7492802],[9.0701332,45.7488032],[9.0721375,45.7488492],[9.0721453,45.7482204],[9.0719355,45.74823],[9.0719386,45.7478897],[9.0722149,45.7478864],[9.0725373,45.7481352],[9.073158,45.7482394],[9.0731786,45.7483661],[9.0742451,45.7483322],[9.0742571,45.7484807],[9.0758845,45.7483977],[9.0758845,45.7483456],[9.0773695,45.748219],[9.0780774,45.747912],[9.0785956,45.747864],[9.0786776,45.7482247],[9.0810026,45.7479595],[9.082208,45.7476144],[9.082364,45.7478185],[9.0842616,45.7471941],[9.0838464,45.7461778],[9.0831012,45.7454088],[9.0827909,45.7442119],[9.0821843,45.7426012],[9.0821258,45.7421288],[9.0821763,45.7415572],[9.082509,45.7404903],[9.0823653,45.7400494],[9.0825958,45.7394507],[9.0824048,45.7385013],[9.0823597,45.7384293],[9.0820095,45.7385016],[9.0818212,45.7383037],[9.0814337,45.7380925],[9.0802573,45.7379178],[9.0801925,45.7386424],[9.080045,45.738917],[9.0794952,45.739777],[9.0791132,45.7400788],[9.0787573,45.7406281],[9.0780054,45.7407276],[9.0768704,45.7414934],[9.0762923,45.7417008],[9.0757716,45.7416967],[9.0750569,45.7419177],[9.073687,45.7425081],[9.0735007,45.7425262],[9.0727258,45.7422837],[9.0723099,45.742464],[9.0719038,45.7428378],[9.070533,45.7427217],[9.0687989,45.7424707],[9.0675691,45.7420169],[9.0662124,45.7416577],[9.066249,45.7413336],[9.0663116,45.7413021],[9.0662306,45.7407531],[9.0671092,45.739119],[9.0671426,45.7375303],[9.067036,45.7370759],[9.0666996,45.7365585],[9.0654614,45.7329725],[9.0656922,45.7325763],[9.065732,45.7322253],[9.0651336,45.730214],[9.0643611,45.7290623],[9.0631562,45.7290405],[9.0623477,45.7286944],[9.0620112,45.7280421],[9.0618189,45.7269801],[9.0616661,45.7268587],[9.0608869,45.7267241],[9.0577723,45.7270002],[9.0576657,45.7264557],[9.0586006,45.7264058],[9.0598879,45.7255558],[9.0592468,45.7252169],[9.0591658,45.7254478],[9.0590712,45.7254933],[9.0576016,45.7258299],[9.0563589,45.7263871],[9.0565394,45.7266593],[9.0554231,45.7272029],[9.0553526,45.7270118],[9.0538448,45.7273767],[9.0538716,45.7274404],[9.0537545,45.7274853],[9.0532205,45.7264007],[9.0533893,45.7263332],[9.0534282,45.7261852],[9.0532595,45.7261219],[9.0528866,45.7262186],[9.0522742,45.7253355],[9.0519708,45.7251326],[9.0509859,45.7252282],[9.0499174,45.7255491],[9.0491343,45.7255673],[9.0484214,45.7253772],[9.0481849,45.7254511],[9.0461078,45.7272677],[9.0441527,45.7293411],[9.0432792,45.729627],[9.0435103,45.7298314],[9.0438665,45.7299321],[9.0438724,45.7302139],[9.0441985,45.7308535],[9.0444796,45.731004],[9.0446854,45.7313451],[9.0456813,45.7320115],[9.0451665,45.7324552],[9.0447836,45.7323988],[9.0447863,45.7327803],[9.044522,45.7327938],[9.0444886,45.7333966],[9.0428964,45.7336166],[9.043214,45.7350493],[9.0429938,45.7349788],[9.0423013,45.7350497],[9.0423565,45.7352037],[9.0417008,45.7353451],[9.0405578,45.7353446],[9.0405503,45.7357972],[9.040437,45.7360795],[9.0402163,45.7365556],[9.0399615,45.7367526],[9.0396736,45.7374979],[9.0394629,45.7376152],[9.0393055,45.7378306],[9.0390766,45.7378858],[9.038346,45.7390831],[9.0377703,45.7397256],[9.0378003,45.7394047],[9.0376855,45.739279],[9.036721,45.7390172],[9.0357526,45.7388161],[9.0351205,45.7390954],[9.0349251,45.738978],[9.0345891,45.7383731],[9.0343367,45.7381527],[9.0317338,45.7386653],[9.031485,45.7385249],[9.0315238,45.7381733],[9.0295683,45.7354954],[9.0295029,45.7351812],[9.0296456,45.734925],[9.0293865,45.734644],[9.0304578,45.7345437],[9.0295899,45.7338146],[9.0289183,45.7334145],[9.0285819,45.7329508],[9.0285264,45.7329751],[9.0285883,45.7331475],[9.0285438,45.7332837],[9.028213,45.7333867],[9.0279475,45.7333587],[9.0278609,45.7335991],[9.0275131,45.7339362],[9.0275687,45.7342627],[9.028083,45.7345738],[9.0281366,45.7348231],[9.0274641,45.735374],[9.0272962,45.7358934],[9.0269251,45.7362426],[9.0270184,45.7375002],[9.0268606,45.7378166],[9.0267746,45.7378425]]]},"properties":{"type":"boundary","gemeente":"Fino Mornasco"}}]}