{"type":"FeatureCollection","metadata":{"gemeente":"Fiumalbo","slug":"fiumalbo","generated_at":"2026-09-26T14:27:19.349128Z","total_points":3,"providers":["PosteItaliane","DHL","Amazon"],"bounds":[10.6477,44.1777,10.64774323,44.177783]},"features":[{"type":"Feature","geometry":{"type":"Point","coordinates":[10.64774323,44.1777829]},"properties":{"type":"pakketpunt","locatieNaam":"Fiumalbo","straatNaam":"Via Lago","straatNr":"11","vervoerder":"PosteItaliane","puntType":"postkantoor","bezettingsgraad":50,"latitude":44.1777829,"longitude":10.64774323,"canPickup":true,"canDropoff":true,"openingstijden":{"za":"08:20 - 12:45","zo":"gesloten","ma":"08:20 - 13:45","di":"08:20 - 13:45","wo":"08:20 - 13:45","do":"08:20 - 13:45","vr":"08:20 - 13:45"}}},{"type":"Feature","geometry":{"type":"Point","coordinates":[10.647743,44.177783]},"properties":{"type":"pakketpunt","locatieNaam":"Ufficio Postale FIUMALBO","straatNaam":"VIA LAGO 11","straatNr":"","vervoerder":"DHL","puntType":"postOffice","bezettingsgraad":50,"latitude":44.177783,"longitude":10.647743,"canPickup":true,"canDropoff":true,"openingstijden":{"ma":"08:20 - 13:45","di":"08:20 - 13:45","wo":"08:20 - 13:45","do":"08:20 - 13:45","vr":"08:20 - 13:45","za":"08:20 - 12:45","zo":"gesloten"}}},{"type":"Feature","geometry":{"type":"Point","coordinates":[10.6477,44.1777]},"properties":{"type":"pakketpunt","locatieNaam":"Ufficio Postale FIUMALBO","straatNaam":"VIA LAGO 11","straatNr":"","vervoerder":"Amazon","puntType":"3p","bezettingsgraad":50,"latitude":44.1777,"longitude":10.6477,"canPickup":true,"canDropoff":false,"openingstijden":null}},{"type":"Feature","geometry":{"type":"Polygon","coordinates":[[[10.6095843,44.1182925],[10.6105676,44.1193369],[10.6113392,44.1194319],[10.6117485,44.1196656],[10.6118168,44.1198844],[10.6114886,44.1202213],[10.611481,44.120439],[10.6119121,44.1206157],[10.6121355,44.1209301],[10.6124539,44.1209889],[10.6128555,44.1212995],[10.6130195,44.1214541],[10.6133215,44.1220109],[10.6132498,44.1222783],[10.6132737,44.1226284],[10.6125887,44.1232006],[10.6124452,44.1236842],[10.6117723,44.1244727],[10.611833,44.1246392],[10.6119322,44.1247301],[10.6127581,44.1249424],[10.6133984,44.124889],[10.6139806,44.1249683],[10.6145205,44.1252496],[10.6156508,44.1255662],[10.6160305,44.1255961],[10.6168942,44.1254872],[10.6174355,44.1257035],[10.6174839,44.1262206],[10.6171849,44.1265241],[10.617166,44.1266762],[10.6174689,44.1272557],[10.6175066,44.1275358],[10.6179396,44.12767],[10.6182442,44.1279402],[10.6182199,44.1281946],[10.6175104,44.1288496],[10.6172934,44.1294304],[10.6164344,44.1301346],[10.6147625,44.1309133],[10.6140942,44.1313394],[10.6139454,44.1315217],[10.6138574,44.1318518],[10.6142886,44.1344513],[10.6163145,44.1363847],[10.6163747,44.1368642],[10.6161725,44.1382087],[10.6150334,44.1386999],[10.6143587,44.1393692],[10.611171,44.1402281],[10.6093414,44.1400013],[10.6045618,44.142708],[10.6032164,44.1440354],[10.6035016,44.1460472],[10.6030175,44.1470984],[10.6026823,44.1481114],[10.6028559,44.1489822],[10.6078003,44.1708257],[10.6122596,44.1748771],[10.6130663,44.1749558],[10.6138106,44.1751883],[10.6166796,44.1762641],[10.6246153,44.180995],[10.6304442,44.1849413],[10.6319653,44.1873177],[10.6327477,44.1907345],[10.6327446,44.1910532],[10.6323318,44.1912993],[10.6314336,44.1923397],[10.6306997,44.1928979],[10.6302026,44.1930044],[10.6296116,44.1928196],[10.6291487,44.1928558],[10.6286329,44.1934411],[10.6277756,44.1938981],[10.6273371,44.1936906],[10.6270531,44.1944916],[10.6270802,44.1968173],[10.6283804,44.1975776],[10.6276592,44.1992901],[10.628208,44.1998489],[10.6293818,44.1999208],[10.6294508,44.2000913],[10.6293119,44.2002807],[10.6288649,44.2004751],[10.6277494,44.2008228],[10.6274598,44.2014602],[10.627169,44.2017363],[10.6268494,44.2019044],[10.6271538,44.2019671],[10.627219,44.2020611],[10.6274848,44.2019924],[10.6277507,44.2020649],[10.6283647,44.2024053],[10.6301946,44.2019736],[10.6310063,44.2019534],[10.6325386,44.2026446],[10.6323113,44.2023977],[10.6319797,44.2017483],[10.6321939,44.2011104],[10.6331937,44.2006697],[10.6337468,44.2006395],[10.6343185,44.2003994],[10.6352884,44.1995746],[10.6370571,44.1998897],[10.6382651,44.1998276],[10.6398015,44.1996344],[10.6403595,44.1996485],[10.641844,44.199266],[10.6437327,44.1992576],[10.6453654,44.1995927],[10.6462341,44.1999983],[10.6463218,44.2007347],[10.6469455,44.2011061],[10.6472899,44.2011554],[10.6480117,44.2016704],[10.6489471,44.2016871],[10.6497315,44.2010511],[10.6502966,44.2007966],[10.6553305,44.201338],[10.6571022,44.2006917],[10.6605944,44.2001871],[10.6618556,44.1998579],[10.6629061,44.1998618],[10.6660712,44.2006867],[10.6707582,44.2008207],[10.6748875,44.2015552],[10.6773994,44.2018411],[10.6790417,44.2016231],[10.6813783,44.2012022],[10.681978,44.2007858],[10.682488,44.2005491],[10.6849365,44.1999556],[10.6874369,44.1991345],[10.6890664,44.198214],[10.6908314,44.1974129],[10.6939025,44.1968965],[10.6980578,44.1946663],[10.6986174,44.19387],[10.6991267,44.1935969],[10.7006059,44.1935876],[10.7007391,44.1934059],[10.7016919,44.1929847],[10.7044631,44.1913314],[10.7068533,44.1847561],[10.7070791,44.1834744],[10.7070145,44.1829712],[10.7067963,44.1823442],[10.7026364,44.1751681],[10.7015412,44.174059],[10.701227,44.1713989],[10.7030278,44.1673118],[10.7082179,44.1613914],[10.7122615,44.1571801],[10.7122451,44.1568086],[10.7118446,44.1563032],[10.7112826,44.1559919],[10.7105724,44.1558349],[10.7101204,44.1553574],[10.7094251,44.1548245],[10.7085759,44.1550315],[10.7077653,44.1553675],[10.705724,44.1554689],[10.7045753,44.1556691],[10.7035861,44.1556603],[10.7024134,44.155348],[10.7015484,44.1553115],[10.7008806,44.1550775],[10.6999518,44.1550145],[10.6988345,44.1551856],[10.6986161,44.1552449],[10.698478,44.1553765],[10.6977084,44.1555406],[10.6968387,44.155603],[10.6967703,44.1556828],[10.6969331,44.1558476],[10.6966533,44.1560562],[10.6954244,44.1566801],[10.6947958,44.1568397],[10.6944471,44.1571027],[10.694139,44.1571784],[10.6936867,44.1574333],[10.6935276,44.1576022],[10.6930657,44.1576104],[10.6928121,44.1577619],[10.6925969,44.1577907],[10.6924544,44.1577577],[10.69196,44.1573413],[10.6905562,44.1573634],[10.6903155,44.1572725],[10.6899595,44.1572671],[10.6883909,44.1567353],[10.6873699,44.1566657],[10.6872416,44.1566442],[10.687242,44.1565832],[10.6860993,44.1564222],[10.6852455,44.1561729],[10.6826062,44.1557662],[10.6815205,44.1562977],[10.6803467,44.1566999],[10.6788976,44.1564749],[10.6773742,44.1554225],[10.6765152,44.1555323],[10.6759036,44.1553631],[10.6753321,44.1553573],[10.6744121,44.1548266],[10.6737663,44.1546289],[10.6728087,44.1546601],[10.6720581,44.1543897],[10.6715389,44.1541337],[10.6715509,44.1539301],[10.671278,44.1537229],[10.6709904,44.153272],[10.6704594,44.1530208],[10.6700319,44.1529235],[10.6688026,44.153058],[10.6684787,44.1528148],[10.6678843,44.1521375],[10.6669498,44.1519499],[10.6666781,44.1515603],[10.6665953,44.1515444],[10.666375,44.1517607],[10.666122,44.1518343],[10.6658502,44.1521258],[10.6652995,44.1524096],[10.6648663,44.1523494],[10.6635739,44.152645],[10.6619952,44.1527089],[10.6617897,44.1523012],[10.6616824,44.1526082],[10.6616298,44.1533334],[10.6616441,44.1535647],[10.6618874,44.153956],[10.6618397,44.1541908],[10.6616868,44.1542029],[10.6614042,44.154374],[10.6612553,44.154573],[10.6605878,44.1549424],[10.6606889,44.1551285],[10.6603573,44.1553143],[10.6601882,44.1555215],[10.6597993,44.1556485],[10.6593625,44.1559364],[10.6591544,44.1562415],[10.6589907,44.156329],[10.6574669,44.1562541],[10.6561443,44.156398],[10.6556615,44.1565428],[10.6550863,44.1569552],[10.6545135,44.1570105],[10.653741,44.1572181],[10.6533505,44.1574892],[10.6530846,44.1575155],[10.6522931,44.1580901],[10.6523869,44.1579527],[10.6523564,44.1574681],[10.6524392,44.157096],[10.6522513,44.1569181],[10.6513311,44.1564839],[10.6509153,44.1568101],[10.6498638,44.1561154],[10.6497744,44.1562714],[10.6495156,44.1563516],[10.6487875,44.1557662],[10.6483236,44.1556587],[10.6479901,44.1558257],[10.6478357,44.1560952],[10.6473394,44.1565855],[10.6470229,44.1564233],[10.6466073,44.1563956],[10.6463757,44.1567153],[10.6462404,44.156768],[10.6454726,44.1566367],[10.6454379,44.1567366],[10.6456477,44.1570663],[10.6456387,44.1571552],[10.6453313,44.1573128],[10.6452588,44.1576324],[10.6453284,44.1588431],[10.6450723,44.159011],[10.6439768,44.1601358],[10.6437649,44.1601761],[10.6436973,44.1601157],[10.6437555,44.1599101],[10.643587,44.1598104],[10.6432932,44.1599685],[10.6425698,44.1600609],[10.64258,44.1598909],[10.6424724,44.1596871],[10.6422886,44.159622],[10.6420344,44.1596169],[10.6416028,44.1599313],[10.6411969,44.1600005],[10.6409753,44.159656],[10.6407665,44.1589813],[10.6405614,44.1588046],[10.6397463,44.158652],[10.6394873,44.1585098],[10.6392498,44.1579558],[10.638889,44.1574497],[10.6387863,44.1570061],[10.6386876,44.1568797],[10.6381331,44.1567248],[10.6379367,44.1565041],[10.6377431,44.156018],[10.6368562,44.1555499],[10.6351837,44.1532166],[10.6351311,44.1522447],[10.6352017,44.1513475],[10.6345993,44.1501659],[10.6333313,44.1482855],[10.6334738,44.1480944],[10.6340833,44.1482211],[10.6345371,44.14821],[10.6346371,44.1481431],[10.6346245,44.14807],[10.634228,44.1479285],[10.6340566,44.1475842],[10.6338003,44.1463763],[10.6335311,44.1456838],[10.6330794,44.1456207],[10.6327825,44.1458462],[10.631855,44.1456392],[10.6298836,44.1442994],[10.6283515,44.1428023],[10.6267443,44.1429604],[10.6264005,44.142493],[10.6260988,44.1418025],[10.6251202,44.1413001],[10.6247924,44.1409915],[10.6237528,44.1412051],[10.621537,44.1411016],[10.6209226,44.1405791],[10.6213472,44.1396457],[10.6234089,44.1368705],[10.6237964,44.1359557],[10.6243706,44.1350112],[10.6246527,44.134359],[10.6243705,44.1336427],[10.6227387,44.1320274],[10.6225,44.1315266],[10.6229316,44.1308542],[10.6240199,44.1295153],[10.6251474,44.1273295],[10.6253217,44.1268498],[10.6249659,44.1248112],[10.624864,44.1224628],[10.6246647,44.1215744],[10.6242385,44.1206171],[10.6242648,44.120023],[10.6235249,44.1201148],[10.6226181,44.1204594],[10.6219477,44.1205872],[10.6215139,44.1205668],[10.6207712,44.1203534],[10.6187923,44.1204345],[10.6177801,44.1206794],[10.615039,44.1197644],[10.6146744,44.1197535],[10.6138991,44.1189794],[10.6125234,44.1182878],[10.6095843,44.1182925]]]},"properties":{"type":"boundary","gemeente":"Fiumalbo"}}]}