{"type":"FeatureCollection","metadata":{"gemeente":"Foligno","slug":"foligno","generated_at":"2026-09-26T13:09:57.455529Z","total_points":114,"providers":["PosteItaliane","DPD","InPost","GLS","DHL","Amazon"],"bounds":[12.66075451,42.9106,12.89030827,43.05378289]},"features":[{"type":"Feature","geometry":{"type":"Point","coordinates":[12.71942509,42.9575353]},"properties":{"type":"pakketpunt","locatieNaam":"Tabaccheria N. 51","straatNaam":"Via Campagnola","straatNr":"4","vervoerder":"PosteItaliane","puntType":"servicepunt","bezettingsgraad":50,"latitude":42.9575353,"longitude":12.71942509,"canPickup":true,"canDropoff":true,"openingstijden":{"za":"07:00 - 13:00, 15:30 - 20:00","zo":"gesloten","ma":"07:00 - 13:00, 15:30 - 20:00","di":"07:00 - 13:00, 15:30 - 20:00","wo":"07:00 - 13:00, 15:30 - 20:00","do":"07:00 - 13:00, 15:30 - 20:00","vr":"07:00 - 13:00, 15:30 - 20:00"}}},{"type":"Feature","geometry":{"type":"Point","coordinates":[12.70699746,42.95738312]},"properties":{"type":"pakketpunt","locatieNaam":"Tabaccheria N. 23","straatNaam":"Via Giuseppe Garibaldi","straatNr":"97","vervoerder":"PosteItaliane","puntType":"servicepunt","bezettingsgraad":50,"latitude":42.95738312,"longitude":12.70699746,"canPickup":true,"canDropoff":true,"openingstijden":{"za":"08:00 - 13:00, 16:00 - 20:00","zo":"gesloten","ma":"08:00 - 13:00, 16:00 - 20:00","di":"08:00 - 13:00, 16:00 - 20:00","wo":"08:00 - 13:00, 16:00 - 20:00","do":"08:00 - 13:00, 16:00 - 20:00","vr":"08:00 - 13:00, 16:00 - 20:00"}}},{"type":"Feature","geometry":{"type":"Point","coordinates":[12.70082341,42.95980311]},"properties":{"type":"pakketpunt","locatieNaam":"Tabaccheria N. 60","straatNaam":"Viale Firenze","straatNr":"3/a","vervoerder":"PosteItaliane","puntType":"servicepunt","bezettingsgraad":50,"latitude":42.95980311,"longitude":12.70082341,"canPickup":true,"canDropoff":true,"openingstijden":{"za":"08:00 - 13:00, 16:00 - 20:00","zo":"gesloten","ma":"08:00 - 13:00, 16:00 - 20:00","di":"08:00 - 13:00, 16:00 - 20:00","wo":"08:00 - 13:00, 16:00 - 20:00","do":"08:00 - 13:00, 16:00 - 20:00","vr":"08:00 - 13:00, 16:00 - 20:00"}}},{"type":"Feature","geometry":{"type":"Point","coordinates":[12.69185219,42.96445116]},"properties":{"type":"pakketpunt","locatieNaam":"Tabaccheria N. 35","straatNaam":"Via Aspromonte Snc","straatNr":"1","vervoerder":"PosteItaliane","puntType":"servicepunt","bezettingsgraad":50,"latitude":42.96445116,"longitude":12.69185219,"canPickup":true,"canDropoff":true,"openingstijden":{"za":"07:00 - 20:00","zo":"08:00 - 13:00","ma":"07:00 - 20:00","di":"07:00 - 20:00","wo":"07:00 - 20:00","do":"07:00 - 20:00","vr":"07:00 - 20:00"}}},{"type":"Feature","geometry":{"type":"Point","coordinates":[12.72226023,42.93281809]},"properties":{"type":"pakketpunt","locatieNaam":"Sant'eraclio","straatNaam":"Via Bordina","straatNr":"8/a","vervoerder":"PosteItaliane","puntType":"postkantoor","bezettingsgraad":50,"latitude":42.93281809,"longitude":12.72226023,"canPickup":true,"canDropoff":true,"openingstijden":{"za":"08:20 - 12:35","zo":"gesloten","ma":"08:20 - 13:35","di":"08:20 - 13:35","wo":"08:20 - 13:35","do":"08:20 - 13:35","vr":"08:20 - 13:35"}}},{"type":"Feature","geometry":{"type":"Point","coordinates":[12.71680687,42.966317]},"properties":{"type":"pakketpunt","locatieNaam":"Foligno 4","straatNaam":"Via Raffaello Sanzio","straatNr":"4","vervoerder":"PosteItaliane","puntType":"postkantoor","bezettingsgraad":50,"latitude":42.966317,"longitude":12.71680687,"canPickup":true,"canDropoff":true,"openingstijden":{"za":"08:20 - 12:45","zo":"gesloten","ma":"08:20 - 13:45","di":"08:20 - 13:45","wo":"08:20 - 13:45","do":"08:20 - 13:45","vr":"08:20 - 13:45"}}},{"type":"Feature","geometry":{"type":"Point","coordinates":[12.85729991,43.05378289]},"properties":{"type":"pakketpunt","locatieNaam":"Annifo","straatNaam":"Vocabolo Moia Snc","straatNr":"","vervoerder":"PosteItaliane","puntType":"postkantoor","bezettingsgraad":50,"latitude":43.05378289,"longitude":12.85729991,"canPickup":true,"canDropoff":true,"openingstijden":{"za":"gesloten","zo":"gesloten","ma":"gesloten","di":"08:20 - 13:45","wo":"gesloten","do":"08:20 - 13:45","vr":"gesloten"}}},{"type":"Feature","geometry":{"type":"Point","coordinates":[12.70624551,42.95468329]},"properties":{"type":"pakketpunt","locatieNaam":"Foligno","straatNaam":"Via Giuseppe Piermarini","straatNr":"11","vervoerder":"PosteItaliane","puntType":"postkantoor","bezettingsgraad":50,"latitude":42.95468329,"longitude":12.70624551,"canPickup":true,"canDropoff":true,"openingstijden":{"za":"08:20 - 12:35","zo":"gesloten","ma":"08:20 - 19:05","di":"08:20 - 19:05","wo":"08:20 - 19:05","do":"08:20 - 19:05","vr":"08:20 - 19:05"}}},{"type":"Feature","geometry":{"type":"Point","coordinates":[12.71452134,42.95681665]},"properties":{"type":"pakketpunt","locatieNaam":"Foligno 2","straatNaam":"Via Clitunno Snc","straatNr":"","vervoerder":"PosteItaliane","puntType":"postkantoor","bezettingsgraad":50,"latitude":42.95681665,"longitude":12.71452134,"canPickup":true,"canDropoff":true,"openingstijden":{"za":"08:20 - 12:45","zo":"gesloten","ma":"08:20 - 13:45","di":"08:20 - 13:45","wo":"08:20 - 13:45","do":"08:20 - 13:45","vr":"08:20 - 13:45"}}},{"type":"Feature","geometry":{"type":"Point","coordinates":[12.84002929,42.97695841]},"properties":{"type":"pakketpunt","locatieNaam":"Casenove","straatNaam":"Via Macerata","straatNr":"12/b","vervoerder":"PosteItaliane","puntType":"postkantoor","bezettingsgraad":50,"latitude":42.97695841,"longitude":12.84002929,"canPickup":true,"canDropoff":true,"openingstijden":{"za":"gesloten","zo":"gesloten","ma":"08:20 - 13:45","di":"gesloten","wo":"gesloten","do":"08:20 - 13:45","vr":"gesloten"}}},{"type":"Feature","geometry":{"type":"Point","coordinates":[12.73791058,42.9830409]},"properties":{"type":"pakketpunt","locatieNaam":"Scanzano","straatNaam":"Via Scanzano","straatNr":"2","vervoerder":"PosteItaliane","puntType":"postkantoor","bezettingsgraad":50,"latitude":42.9830409,"longitude":12.73791058,"canPickup":true,"canDropoff":true,"openingstijden":{"za":"08:20 - 12:35","zo":"gesloten","ma":"08:20 - 13:35","di":"08:20 - 13:35","wo":"08:20 - 13:35","do":"08:20 - 13:35","vr":"08:20 - 13:35"}}},{"type":"Feature","geometry":{"type":"Point","coordinates":[12.78168409,43.01724149]},"properties":{"type":"pakketpunt","locatieNaam":"Capodacqua","straatNaam":"Via Del Botteghino","straatNr":"5","vervoerder":"PosteItaliane","puntType":"postkantoor","bezettingsgraad":50,"latitude":43.01724149,"longitude":12.78168409,"canPickup":true,"canDropoff":true,"openingstijden":{"za":"gesloten","zo":"gesloten","ma":"gesloten","di":"08:20 - 13:45","wo":"gesloten","do":"gesloten","vr":"08:20 - 13:45"}}},{"type":"Feature","geometry":{"type":"Point","coordinates":[12.69974232,42.95339551]},"properties":{"type":"pakketpunt","locatieNaam":"Foligno 1","straatNaam":"Via Santa Maria Infraportas","straatNr":"5","vervoerder":"PosteItaliane","puntType":"postkantoor","bezettingsgraad":50,"latitude":42.95339551,"longitude":12.69974232,"canPickup":true,"canDropoff":true,"openingstijden":{"za":"08:20 - 12:35","zo":"gesloten","ma":"08:20 - 13:35","di":"08:20 - 13:35","wo":"08:20 - 13:35","do":"08:20 - 13:35","vr":"08:20 - 13:35"}}},{"type":"Feature","geometry":{"type":"Point","coordinates":[12.68868066,42.96393533]},"properties":{"type":"pakketpunt","locatieNaam":"Foligno 3","straatNaam":"Via Fiamenga","straatNr":"55/a","vervoerder":"PosteItaliane","puntType":"postkantoor","bezettingsgraad":50,"latitude":42.96393533,"longitude":12.68868066,"canPickup":true,"canDropoff":true,"openingstijden":{"za":"08:20 - 12:35","zo":"gesloten","ma":"08:20 - 13:35","di":"08:20 - 13:35","wo":"08:20 - 13:35","do":"08:20 - 13:35","vr":"08:20 - 13:35"}}},{"type":"Feature","geometry":{"type":"Point","coordinates":[12.66075451,42.95351556]},"properties":{"type":"pakketpunt","locatieNaam":"Fiamenga","straatNaam":"Via Bevagna","straatNr":"11","vervoerder":"PosteItaliane","puntType":"postkantoor","bezettingsgraad":50,"latitude":42.95351556,"longitude":12.66075451,"canPickup":true,"canDropoff":true,"openingstijden":{"za":"08:20 - 12:45","zo":"gesloten","ma":"08:20 - 13:45","di":"08:20 - 13:45","wo":"08:20 - 13:45","do":"08:20 - 13:45","vr":"08:20 - 13:45"}}},{"type":"Feature","geometry":{"type":"Point","coordinates":[12.89030827,43.02819571]},"properties":{"type":"pakketpunt","locatieNaam":"Colfiorito","straatNaam":"Via Casermette Snc","straatNr":"1","vervoerder":"PosteItaliane","puntType":"postkantoor","bezettingsgraad":50,"latitude":43.02819571,"longitude":12.89030827,"canPickup":true,"canDropoff":true,"openingstijden":{"za":"08:20 - 12:45","zo":"gesloten","ma":"08:20 - 13:45","di":"08:20 - 13:45","wo":"08:20 - 13:45","do":"08:20 - 13:45","vr":"08:20 - 13:45"}}},{"type":"Feature","geometry":{"type":"Point","coordinates":[12.88220544,42.95072523]},"properties":{"type":"pakketpunt","locatieNaam":"Verchiano","straatNaam":"Via Nuova","straatNr":"12","vervoerder":"PosteItaliane","puntType":"postkantoor","bezettingsgraad":50,"latitude":42.95072523,"longitude":12.88220544,"canPickup":true,"canDropoff":true,"openingstijden":{"za":"08:20 - 12:45","zo":"gesloten","ma":"gesloten","di":"gesloten","wo":"08:20 - 13:45","do":"gesloten","vr":"gesloten"}}},{"type":"Feature","geometry":{"type":"Point","coordinates":[12.69533719,42.94347574]},"properties":{"type":"pakketpunt","locatieNaam":"Tabaccheria N. 74","straatNaam":"Via Del Pignalone","straatNr":"1/d","vervoerder":"PosteItaliane","puntType":"servicepunt","bezettingsgraad":50,"latitude":42.94347574,"longitude":12.69533719,"canPickup":true,"canDropoff":true,"openingstijden":{"za":"07:30 - 13:00, 16:00 - 19:30","zo":"gesloten","ma":"07:30 - 13:00, 16:00 - 19:30","di":"07:30 - 13:00, 16:00 - 19:30","wo":"07:30 - 13:00, 16:00 - 19:30","do":"07:30 - 13:00, 16:00 - 19:30","vr":"07:30 - 13:00, 16:00 - 19:30"}}},{"type":"Feature","geometry":{"type":"Point","coordinates":[12.67911019,42.9660135]},"properties":{"type":"pakketpunt","locatieNaam":"Tabaccheria N. 83","straatNaam":"Via Giorgio Vasari Snc","straatNr":"6","vervoerder":"PosteItaliane","puntType":"servicepunt","bezettingsgraad":50,"latitude":42.9660135,"longitude":12.67911019,"canPickup":true,"canDropoff":true,"openingstijden":{"za":"06:30 - 20:00","zo":"gesloten","ma":"06:30 - 20:00","di":"06:30 - 20:00","wo":"06:30 - 20:00","do":"06:30 - 20:00","vr":"06:30 - 20:00"}}},{"type":"Feature","geometry":{"type":"Point","coordinates":[12.70280134,42.95714926]},"properties":{"type":"pakketpunt","locatieNaam":"Tabaccheria N. 8","straatNaam":"Via Venti Settembre","straatNr":"35","vervoerder":"PosteItaliane","puntType":"servicepunt","bezettingsgraad":50,"latitude":42.95714926,"longitude":12.70280134,"canPickup":true,"canDropoff":true,"openingstijden":{"za":"09:00 - 13:00, 16:00 - 19:30","zo":"gesloten","ma":"09:00 - 13:00, 16:00 - 19:30","di":"09:00 - 13:00, 16:00 - 19:30","wo":"09:00 - 13:00, 16:00 - 19:30","do":"09:00 - 13:00, 16:00 - 19:30","vr":"09:00 - 13:00, 16:00 - 19:30"}}},{"type":"Feature","geometry":{"type":"Point","coordinates":[12.70073758,42.95985611]},"properties":{"type":"pakketpunt","locatieNaam":"G&g Food Drink And Multiservice","straatNaam":"Viale Firenze","straatNr":"3/b","vervoerder":"PosteItaliane","puntType":"automaat","bezettingsgraad":50,"latitude":42.95985611,"longitude":12.70073758,"canPickup":true,"canDropoff":true,"openingstijden":{"za":"00:01 - 23:59","zo":"00:01 - 23:59","ma":"00:01 - 23:59","di":"00:01 - 23:59","wo":"00:01 - 23:59","do":"00:01 - 23:59","vr":"00:01 - 23:59"}}},{"type":"Feature","geometry":{"type":"Point","coordinates":[12.72575781,42.92656596]},"properties":{"type":"pakketpunt","locatieNaam":"Lava&asciuga","straatNaam":"Via Franco Santocchia","straatNr":"96","vervoerder":"PosteItaliane","puntType":"automaat","bezettingsgraad":50,"latitude":42.92656596,"longitude":12.72575781,"canPickup":true,"canDropoff":true,"openingstijden":{"za":"07:00 - 23:59","zo":"07:00 - 23:59","ma":"07:00 - 23:59","di":"07:00 - 23:59","wo":"07:00 - 23:59","do":"07:00 - 23:59","vr":"07:00 - 23:59"}}},{"type":"Feature","geometry":{"type":"Point","coordinates":[12.69595242,42.95722695]},"properties":{"type":"pakketpunt","locatieNaam":"Tabaccheria N. 68","straatNaam":"Viale Sedici Giugno","straatNr":"26/a","vervoerder":"PosteItaliane","puntType":"servicepunt","bezettingsgraad":50,"latitude":42.95722695,"longitude":12.69595242,"canPickup":true,"canDropoff":true,"openingstijden":{"za":"07:00 - 19:30","zo":"07:00 - 19:30","ma":"gesloten","di":"07:00 - 19:45","wo":"07:00 - 19:45","do":"07:00 - 19:45","vr":"07:00 - 19:45"}}},{"type":"Feature","geometry":{"type":"Point","coordinates":[12.69570844,42.96062164]},"properties":{"type":"pakketpunt","locatieNaam":"Tabaccheria N. 77","straatNaam":"Via Monte Rosa","straatNr":"7/b","vervoerder":"PosteItaliane","puntType":"servicepunt","bezettingsgraad":50,"latitude":42.96062164,"longitude":12.69570844,"canPickup":true,"canDropoff":true,"openingstijden":{"za":"07:30 - 13:00, 15:30 - 20:00","zo":"gesloten","ma":"gesloten","di":"07:30 - 13:00, 15:30 - 20:00","wo":"07:30 - 13:00, 15:30 - 20:00","do":"07:30 - 13:00, 15:30 - 20:00","vr":"07:30 - 13:00, 15:30 - 20:00"}}},{"type":"Feature","geometry":{"type":"Point","coordinates":[12.70209534,42.95883552]},"properties":{"type":"pakketpunt","locatieNaam":"Tabaccheria N. 53","straatNaam":"Via Mentana","straatNr":"2","vervoerder":"PosteItaliane","puntType":"servicepunt","bezettingsgraad":50,"latitude":42.95883552,"longitude":12.70209534,"canPickup":true,"canDropoff":true,"openingstijden":{"za":"07:40 - 13:30, 15:30 - 20:00","zo":"08:00 - 12:30","ma":"07:40 - 13:30, 15:30 - 20:00","di":"07:40 - 13:30, 15:30 - 20:00","wo":"07:40 - 13:30, 15:30 - 20:00","do":"07:40 - 13:30, 15:30 - 20:00","vr":"07:40 - 13:30, 15:30 - 20:00"}}},{"type":"Feature","geometry":{"type":"Point","coordinates":[12.70041462,42.95400841]},"properties":{"type":"pakketpunt","locatieNaam":"Tabaccheria N. 7","straatNaam":"Largo Federico Frezzi","straatNr":"21","vervoerder":"PosteItaliane","puntType":"servicepunt","bezettingsgraad":50,"latitude":42.95400841,"longitude":12.70041462,"canPickup":true,"canDropoff":true,"openingstijden":{"za":"08:00 - 13:00, 15:30 - 20:00","zo":"gesloten","ma":"08:00 - 13:00, 15:30 - 20:00","di":"08:00 - 13:00, 15:30 - 20:00","wo":"08:00 - 13:00, 15:30 - 20:00","do":"08:00 - 13:00, 15:30 - 20:00","vr":"08:00 - 13:00, 15:30 - 20:00"}}},{"type":"Feature","geometry":{"type":"Point","coordinates":[12.70731372,42.95549085]},"properties":{"type":"pakketpunt","locatieNaam":"Supermercato Conad","straatNaam":"Via Umberto I","straatNr":"68","vervoerder":"PosteItaliane","puntType":"automaat","bezettingsgraad":50,"latitude":42.95549085,"longitude":12.70731372,"canPickup":true,"canDropoff":true,"openingstijden":{"za":"08:00 - 20:00","zo":"gesloten","ma":"08:00 - 20:00","di":"08:00 - 20:00","wo":"08:00 - 20:00","do":"08:00 - 20:00","vr":"08:00 - 20:00"}}},{"type":"Feature","geometry":{"type":"Point","coordinates":[12.70276993,42.95101483]},"properties":{"type":"pakketpunt","locatieNaam":"Tabaccheria N. 55","straatNaam":"Via Nazario Sauro","straatNr":"16/c","vervoerder":"PosteItaliane","puntType":"servicepunt","bezettingsgraad":50,"latitude":42.95101483,"longitude":12.70276993,"canPickup":true,"canDropoff":true,"openingstijden":{"za":"06:15 - 15:00","zo":"gesloten","ma":"06:15 - 18:15","di":"06:15 - 18:15","wo":"06:15 - 18:15","do":"06:15 - 18:15","vr":"06:15 - 18:15"}}},{"type":"Feature","geometry":{"type":"Point","coordinates":[12.70248694,42.95436904]},"properties":{"type":"pakketpunt","locatieNaam":"Tabaccheria N. 38","straatNaam":"Via Giuseppe Mazzini","straatNr":"95","vervoerder":"PosteItaliane","puntType":"servicepunt","bezettingsgraad":50,"latitude":42.95436904,"longitude":12.70248694,"canPickup":true,"canDropoff":true,"openingstijden":{"za":"08:00 - 13:00, 15:30 - 20:00","zo":"gesloten","ma":"08:00 - 13:00, 15:30 - 20:00","di":"08:00 - 13:00, 15:30 - 20:00","wo":"08:00 - 13:00, 15:30 - 20:00","do":"08:00 - 13:00, 15:30 - 20:00","vr":"08:00 - 13:00, 15:30 - 20:00"}}},{"type":"Feature","geometry":{"type":"Point","coordinates":[12.68285082,42.97316043]},"properties":{"type":"pakketpunt","locatieNaam":"Brigo Casa","straatNaam":"Via Francesco Bettini","straatNr":"6","vervoerder":"PosteItaliane","puntType":"servicepunt","bezettingsgraad":50,"latitude":42.97316043,"longitude":12.68285082,"canPickup":true,"canDropoff":true,"openingstijden":{"za":"09:00 - 13:00, 15:30 - 19:00","zo":"gesloten","ma":"09:00 - 19:30","di":"09:00 - 19:30","wo":"09:00 - 19:30","do":"09:00 - 19:30","vr":"09:00 - 19:30"}}},{"type":"Feature","geometry":{"type":"Point","coordinates":[12.69617198,42.94770218]},"properties":{"type":"pakketpunt","locatieNaam":"Tabaccheria N. 71","straatNaam":"Via Guglielmo Ferrero","straatNr":"73","vervoerder":"PosteItaliane","puntType":"servicepunt","bezettingsgraad":50,"latitude":42.94770218,"longitude":12.69617198,"canPickup":true,"canDropoff":true,"openingstijden":{"za":"06:00 - 20:00","zo":"gesloten","ma":"06:00 - 20:00","di":"06:00 - 20:00","wo":"06:00 - 20:00","do":"06:00 - 20:00","vr":"06:00 - 20:00"}}},{"type":"Feature","geometry":{"type":"Point","coordinates":[12.71125792,42.95982987]},"properties":{"type":"pakketpunt","locatieNaam":"Tabaccheria N. 31","straatNaam":"Viale Ancona","straatNr":"19","vervoerder":"PosteItaliane","puntType":"servicepunt","bezettingsgraad":50,"latitude":42.95982987,"longitude":12.71125792,"canPickup":true,"canDropoff":true,"openingstijden":{"za":"07:45 - 13:00","zo":"gesloten","ma":"07:45 - 13:00, 16:00 - 19:30","di":"07:45 - 13:00, 16:00 - 19:30","wo":"07:45 - 13:00, 16:00 - 19:30","do":"07:45 - 13:00, 16:00 - 19:30","vr":"07:45 - 13:00, 16:00 - 19:30"}}},{"type":"Feature","geometry":{"type":"Point","coordinates":[12.7000245,42.9515944]},"properties":{"type":"pakketpunt","locatieNaam":"CTRL ALT CANC","straatNaam":"VIA NAZARIO SAURO","straatNr":"37/39","vervoerder":"DPD","puntType":"pickup_point","bezettingsgraad":50,"latitude":42.9515944,"longitude":12.7000245,"canPickup":true,"canDropoff":true,"openingstijden":{"ma":"09:00 - 19:00","di":"09:00 - 19:00","wo":"09:00 - 19:00","do":"09:00 - 19:00","vr":"09:00 - 19:00","za":"gesloten","zo":"gesloten"}}},{"type":"Feature","geometry":{"type":"Point","coordinates":[12.6833562245,42.9733565874]},"properties":{"type":"pakketpunt","locatieNaam":"Brigo Casa","straatNaam":"VIA BETTINI","straatNr":"6","vervoerder":"DPD","puntType":"pickup_point","bezettingsgraad":50,"latitude":42.9733565874,"longitude":12.6833562245,"canPickup":true,"canDropoff":true,"openingstijden":{"ma":"09:00 - 19:30","di":"09:00 - 19:30","wo":"09:00 - 19:30","do":"09:00 - 19:30","vr":"09:00 - 19:30","za":"09:00 - 13:00","zo":"gesloten"}}},{"type":"Feature","geometry":{"type":"Point","coordinates":[12.696035,42.947668]},"properties":{"type":"pakketpunt","locatieNaam":"Tabacchi - Foligno","straatNaam":"VIA G. FERRERO","straatNr":"73","vervoerder":"DPD","puntType":"pickup_point","bezettingsgraad":50,"latitude":42.947668,"longitude":12.696035,"canPickup":true,"canDropoff":true,"openingstijden":{"ma":"06:00 - 19:00","di":"06:00 - 19:00","wo":"06:00 - 19:00","do":"06:00 - 19:00","vr":"06:00 - 19:00","za":"06:00 - 19:00","zo":"gesloten"}}},{"type":"Feature","geometry":{"type":"Point","coordinates":[12.7153328534,42.942731347]},"properties":{"type":"pakketpunt","locatieNaam":"Fabric","straatNaam":"VIA TREVISO","straatNr":"2/N","vervoerder":"DPD","puntType":"pickup_point","bezettingsgraad":50,"latitude":42.942731347,"longitude":12.7153328534,"canPickup":true,"canDropoff":true,"openingstijden":{"ma":"09:30 - 13:00, 15:30 - 19:30","di":"09:30 - 13:00, 15:30 - 19:30","wo":"09:30 - 13:00, 15:30 - 19:30","do":"09:30 - 13:00, 15:30 - 19:30","vr":"09:30 - 13:00, 15:30 - 19:30","za":"09:30 - 13:00, 15:30 - 19:30","zo":"gesloten"}}},{"type":"Feature","geometry":{"type":"Point","coordinates":[12.69809944,42.96364929]},"properties":{"type":"pakketpunt","locatieNaam":"Eni-Punto Snai Foligno","straatNaam":"V.LE FIRENZE","straatNr":"32-34-36","vervoerder":"DPD","puntType":"pickup_point","bezettingsgraad":50,"latitude":42.96364929,"longitude":12.69809944,"canPickup":true,"canDropoff":true,"openingstijden":{"ma":"08:00 - 13:00, 15:00 - 20:00","di":"08:00 - 13:00, 15:00 - 20:00","wo":"08:00 - 13:00, 15:00 - 20:00","do":"08:00 - 13:00, 15:00 - 20:00","vr":"08:00 - 13:00, 15:00 - 20:00","za":"08:00 - 13:00, 15:00 - 20:00","zo":"08:00 - 13:00, 15:00 - 20:00"}}},{"type":"Feature","geometry":{"type":"Point","coordinates":[12.72677098,42.96718179]},"properties":{"type":"pakketpunt","locatieNaam":"Ray Caffé","straatNaam":"VIA CORTA DI COLLE","straatNr":"1 C","vervoerder":"DPD","puntType":"pickup_point","bezettingsgraad":50,"latitude":42.96718179,"longitude":12.72677098,"canPickup":true,"canDropoff":true,"openingstijden":{"ma":"06:00 - 20:00","di":"06:00 - 20:00","wo":"06:00 - 20:00","do":"06:00 - 20:00","vr":"06:00 - 20:00","za":"06:00 - 20:00","zo":"gesloten"}}},{"type":"Feature","geometry":{"type":"Point","coordinates":[12.67513043,42.93426202]},"properties":{"type":"pakketpunt","locatieNaam":"Asca","straatNaam":"VIA GIAMPAOLO ANGELONI","straatNr":"6","vervoerder":"DPD","puntType":"pickup_point","bezettingsgraad":50,"latitude":42.93426202,"longitude":12.67513043,"canPickup":true,"canDropoff":true,"openingstijden":{"ma":"08:00 - 13:00, 15:00 - 19:00","di":"08:00 - 13:00, 15:00 - 19:00","wo":"08:00 - 13:00, 15:00 - 19:00","do":"08:00 - 13:00, 15:00 - 19:00","vr":"08:00 - 13:00, 15:00 - 19:00","za":"09:30 - 13:00, 15:00 - 19:00","zo":"gesloten"}}},{"type":"Feature","geometry":{"type":"Point","coordinates":[12.7022,42.9543]},"properties":{"type":"pakketpunt","locatieNaam":"BRT LOCKER - Neno's Foligno H24 Via","straatNaam":"VIA MAZZINI","straatNr":"70","vervoerder":"DPD","puntType":"dpd_box","bezettingsgraad":50,"latitude":42.9543,"longitude":12.7022,"canPickup":true,"canDropoff":true,"openingstijden":{"ma":"00:00 - 23:45","di":"00:00 - 23:45","wo":"00:00 - 23:45","do":"00:00 - 23:45","vr":"00:00 - 23:45","za":"00:00 - 23:45","zo":"00:00 - 23:45"}}},{"type":"Feature","geometry":{"type":"Point","coordinates":[12.68976132,42.96495729]},"properties":{"type":"pakketpunt","locatieNaam":"ZioSmoke-Foligno","straatNaam":"VIA FIAMENGA","straatNr":"34C","vervoerder":"DPD","puntType":"pickup_point","bezettingsgraad":50,"latitude":42.96495729,"longitude":12.68976132,"canPickup":true,"canDropoff":true,"openingstijden":{"ma":"10:00 - 20:00","di":"10:00 - 20:00","wo":"10:00 - 20:00","do":"10:00 - 20:00","vr":"10:00 - 20:00","za":"10:00 - 20:00","zo":"gesloten"}}},{"type":"Feature","geometry":{"type":"Point","coordinates":[12.6964834,42.9610864]},"properties":{"type":"pakketpunt","locatieNaam":"I Monelli Boutique","straatNaam":"VIA MONTE ROSA","straatNr":"13 b","vervoerder":"DPD","puntType":"pickup_point","bezettingsgraad":50,"latitude":42.9610864,"longitude":12.6964834,"canPickup":true,"canDropoff":true,"openingstijden":{"ma":"16:30 - 19:30","di":"16:30 - 19:30","wo":"09:00 - 13:00, 16:30 - 19:30","do":"09:00 - 13:00, 16:30 - 19:30","vr":"09:00 - 13:00, 16:30 - 19:30","za":"09:00 - 13:00, 16:30 - 19:30","zo":"gesloten"}}},{"type":"Feature","geometry":{"type":"Point","coordinates":[12.7009656,42.9676248]},"properties":{"type":"pakketpunt","locatieNaam":"Bar Tabacchi Trinci","straatNaam":"VIA TRINCI","straatNr":"42 D","vervoerder":"DPD","puntType":"pickup_point","bezettingsgraad":50,"latitude":42.9676248,"longitude":12.7009656,"canPickup":true,"canDropoff":true,"openingstijden":{"ma":"06:00 - 21:00","di":"06:00 - 21:00","wo":"06:00 - 21:00","do":"06:00 - 21:00","vr":"06:00 - 21:00","za":"06:00 - 21:00","zo":"06:00 - 13:00"}}},{"type":"Feature","geometry":{"type":"Point","coordinates":[12.726203,42.926018]},"properties":{"type":"pakketpunt","locatieNaam":"BRT LOCKER - Lava & Asciuga Via San","straatNaam":"VIA SANTOCCHIA","straatNr":"94","vervoerder":"DPD","puntType":"dpd_box","bezettingsgraad":50,"latitude":42.926018,"longitude":12.726203,"canPickup":true,"canDropoff":true,"openingstijden":{"ma":"07:00 - 23:45","di":"07:00 - 23:45","wo":"07:00 - 23:45","do":"07:00 - 23:45","vr":"07:00 - 23:45","za":"07:00 - 23:45","zo":"07:00 - 23:45"}}},{"type":"Feature","geometry":{"type":"Point","coordinates":[12.69826635,42.9545045]},"properties":{"type":"pakketpunt","locatieNaam":"Edicola Angeli","straatNaam":"VIA GUGLIELMO MARCONI","straatNr":"SNC","vervoerder":"DPD","puntType":"pickup_point","bezettingsgraad":50,"latitude":42.9545045,"longitude":12.69826635,"canPickup":true,"canDropoff":true,"openingstijden":{"ma":"07:00 - 13:00, 16:00 - 19:00","di":"07:00 - 13:00, 16:00 - 19:00","wo":"07:00 - 13:00, 16:00 - 19:00","do":"07:00 - 13:00, 16:00 - 19:00","vr":"07:00 - 13:00, 16:00 - 19:00","za":"07:00 - 13:00, 16:00 - 19:00","zo":"07:00 - 13:00"}}},{"type":"Feature","geometry":{"type":"Point","coordinates":[12.71054,42.95366]},"properties":{"type":"pakketpunt","locatieNaam":"InPost Locker 24/7","straatNaam":"Via Mezzetti","straatNr":"Snc","vervoerder":"InPost","puntType":"automaat","bezettingsgraad":50,"latitude":42.95366,"longitude":12.71054,"canPickup":true,"canDropoff":true,"openingstijden":null}},{"type":"Feature","geometry":{"type":"Point","coordinates":[12.7287,42.92518]},"properties":{"type":"pakketpunt","locatieNaam":"InPost Locker 24/7","straatNaam":"Via Flaminia Vecchia","straatNr":"2","vervoerder":"InPost","puntType":"automaat","bezettingsgraad":50,"latitude":42.92518,"longitude":12.7287,"canPickup":true,"canDropoff":true,"openingstijden":null}},{"type":"Feature","geometry":{"type":"Point","coordinates":[12.69075,42.95933]},"properties":{"type":"pakketpunt","locatieNaam":"InPost Locker 24/7","straatNaam":"Via Massimo Arcamone","straatNr":"Snc","vervoerder":"InPost","puntType":"automaat","bezettingsgraad":50,"latitude":42.95933,"longitude":12.69075,"canPickup":true,"canDropoff":true,"openingstijden":null}},{"type":"Feature","geometry":{"type":"Point","coordinates":[12.71691,42.96654]},"properties":{"type":"pakketpunt","locatieNaam":"Mondi","straatNaam":"Via Raffaello Sanzio","straatNr":"4","vervoerder":"InPost","puntType":"automaat","bezettingsgraad":50,"latitude":42.96654,"longitude":12.71691,"canPickup":true,"canDropoff":true,"openingstijden":null}},{"type":"Feature","geometry":{"type":"Point","coordinates":[12.72747,42.9106]},"properties":{"type":"pakketpunt","locatieNaam":"InPost Locker 24/7","straatNaam":"Via Madrid","straatNr":"Snc","vervoerder":"InPost","puntType":"automaat","bezettingsgraad":50,"latitude":42.9106,"longitude":12.72747,"canPickup":true,"canDropoff":true,"openingstijden":null}},{"type":"Feature","geometry":{"type":"Point","coordinates":[12.67814,42.96847]},"properties":{"type":"pakketpunt","locatieNaam":"InPost Locker 24/7","straatNaam":"Via Giorgio Vasari","straatNr":"snc","vervoerder":"InPost","puntType":"automaat","bezettingsgraad":50,"latitude":42.96847,"longitude":12.67814,"canPickup":true,"canDropoff":true,"openingstijden":null}},{"type":"Feature","geometry":{"type":"Point","coordinates":[12.72609,42.92591]},"properties":{"type":"pakketpunt","locatieNaam":"InPost Locker 24/7","straatNaam":"Via Franco Santocchia","straatNr":"Snc","vervoerder":"InPost","puntType":"automaat","bezettingsgraad":50,"latitude":42.92591,"longitude":12.72609,"canPickup":true,"canDropoff":true,"openingstijden":null}},{"type":"Feature","geometry":{"type":"Point","coordinates":[12.7008,42.95978]},"properties":{"type":"pakketpunt","locatieNaam":"InPost Locker 24/7","straatNaam":"Viale Firenze","straatNr":"3B","vervoerder":"InPost","puntType":"automaat","bezettingsgraad":50,"latitude":42.95978,"longitude":12.7008,"canPickup":true,"canDropoff":true,"openingstijden":null}},{"type":"Feature","geometry":{"type":"Point","coordinates":[12.68831,42.96222]},"properties":{"type":"pakketpunt","locatieNaam":"nel parcheggio scoperto con accesso da via Innamorati, vicino all'area carrelli in corrispondenza della Coop","straatNaam":"via Francesco Innamorati","straatNr":"snc","vervoerder":"InPost","puntType":"automaat","bezettingsgraad":50,"latitude":42.96222,"longitude":12.68831,"canPickup":true,"canDropoff":true,"openingstijden":"24/7"}},{"type":"Feature","geometry":{"type":"Point","coordinates":[12.69377,42.9675]},"properties":{"type":"pakketpunt","locatieNaam":"InPost Locker 24/7","straatNaam":"Via Terminillo, 4","straatNr":"","vervoerder":"InPost","puntType":"automaat","bezettingsgraad":50,"latitude":42.9675,"longitude":12.69377,"canPickup":true,"canDropoff":true,"openingstijden":null}},{"type":"Feature","geometry":{"type":"Point","coordinates":[12.72419,42.91196]},"properties":{"type":"pakketpunt","locatieNaam":"InPost Locker 24/7","straatNaam":"Via delle Industrie","straatNr":"snc","vervoerder":"InPost","puntType":"automaat","bezettingsgraad":50,"latitude":42.91196,"longitude":12.72419,"canPickup":true,"canDropoff":true,"openingstijden":null}},{"type":"Feature","geometry":{"type":"Point","coordinates":[12.70786,42.9512]},"properties":{"type":"pakketpunt","locatieNaam":"InPost Locker 24/7","straatNaam":"Viale Roma","straatNr":"10","vervoerder":"InPost","puntType":"automaat","bezettingsgraad":50,"latitude":42.9512,"longitude":12.70786,"canPickup":true,"canDropoff":true,"openingstijden":null}},{"type":"Feature","geometry":{"type":"Point","coordinates":[12.68299,42.97327]},"properties":{"type":"pakketpunt","locatieNaam":"InPost Locker","straatNaam":"Via Francesco Bettini","straatNr":"6","vervoerder":"InPost","puntType":"automaat","bezettingsgraad":50,"latitude":42.97327,"longitude":12.68299,"canPickup":true,"canDropoff":true,"openingstijden":null}},{"type":"Feature","geometry":{"type":"Point","coordinates":[12.70392,42.95783]},"properties":{"type":"pakketpunt","locatieNaam":"InPost Point","straatNaam":"Via Vittorio Meneghini","straatNr":"28","vervoerder":"InPost","puntType":"servicepunt","bezettingsgraad":50,"latitude":42.95783,"longitude":12.70392,"canPickup":true,"canDropoff":true,"openingstijden":"Lun: 16:00 - 19:30 Mar-Sab: 10:00 - 13:00 - 16:00 - 19:30"}},{"type":"Feature","geometry":{"type":"Point","coordinates":[12.674863,42.9340295]},"properties":{"type":"pakketpunt","locatieNaam":"Horse Dog","straatNaam":"Via Monte Cologna","straatNr":"12A","vervoerder":"GLS","puntType":"parcel_shop","bezettingsgraad":50,"latitude":42.9340295,"longitude":12.674863,"canPickup":true,"canDropoff":true,"openingstijden":"ma: 09:00 - 12:30, 15:30 - 19:00; di: 09:00 - 12:30, 15:30 - 18:30"}},{"type":"Feature","geometry":{"type":"Point","coordinates":[12.6962173,42.9473767]},"properties":{"type":"pakketpunt","locatieNaam":"tabaccheria carbonari","straatNaam":"Guglielmo Ferrero","straatNr":"73","vervoerder":"GLS","puntType":"parcel_shop","bezettingsgraad":50,"latitude":42.9473767,"longitude":12.6962173,"canPickup":true,"canDropoff":true,"openingstijden":"za: 06:00 - 19:00; ma: 06:00 - 19:00"}},{"type":"Feature","geometry":{"type":"Point","coordinates":[12.7000957,42.9514041]},"properties":{"type":"pakketpunt","locatieNaam":"Ctrl Alt Canc Snc","straatNaam":"Via Sauro Nazario","straatNr":"37","vervoerder":"GLS","puntType":"parcel_shop","bezettingsgraad":50,"latitude":42.9514041,"longitude":12.7000957,"canPickup":true,"canDropoff":true,"openingstijden":"ma: 09:00 - 19:00; di: 09:00 - 19:00"}},{"type":"Feature","geometry":{"type":"Point","coordinates":[12.7061537,42.9530622]},"properties":{"type":"pakketpunt","locatieNaam":"Fumetteria Centro del Mondo","straatNaam":"Via Nazario Sauro","straatNr":"4c","vervoerder":"GLS","puntType":"parcel_shop","bezettingsgraad":50,"latitude":42.9530622,"longitude":12.7061537,"canPickup":true,"canDropoff":true,"openingstijden":"za: 10:30 - 13:00, 16:00 - 19:30; ma: 16:00 - 19:30"}},{"type":"Feature","geometry":{"type":"Point","coordinates":[12.7008036,42.9597785]},"properties":{"type":"pakketpunt","locatieNaam":"Tabaccheria Riv 60","straatNaam":"Viale Firenze","straatNr":"3 A","vervoerder":"GLS","puntType":"parcel_shop","bezettingsgraad":50,"latitude":42.9597785,"longitude":12.7008036,"canPickup":true,"canDropoff":true,"openingstijden":"za: 08:00 - 13:00, 16:00 - 19:30; ma: 08:00 - 13:00, 16:00 - 19:30"}},{"type":"Feature","geometry":{"type":"Point","coordinates":[12.6903113,42.9605676]},"properties":{"type":"pakketpunt","locatieNaam":"GOLDBET","straatNaam":"Via Monte Acuto","straatNr":"63","vervoerder":"GLS","puntType":"parcel_shop","bezettingsgraad":50,"latitude":42.9605676,"longitude":12.6903113,"canPickup":true,"canDropoff":true,"openingstijden":"za: 10:00 - 22:00; zo: 10:00 - 22:00"}},{"type":"Feature","geometry":{"type":"Point","coordinates":[12.7266704,42.9672603]},"properties":{"type":"pakketpunt","locatieNaam":"Ray caffe","straatNaam":"Via Corta Di Colle","straatNr":"1/c","vervoerder":"GLS","puntType":"parcel_shop","bezettingsgraad":50,"latitude":42.9672603,"longitude":12.7266704,"canPickup":true,"canDropoff":true,"openingstijden":"za: 06:00 - 20:00; ma: 06:00 - 20:00"}},{"type":"Feature","geometry":{"type":"Point","coordinates":[12.6825538,42.9732948]},"properties":{"type":"pakketpunt","locatieNaam":"Brigo Casa","straatNaam":"Via Francesco Bettini","straatNr":"6","vervoerder":"GLS","puntType":"parcel_shop","bezettingsgraad":50,"latitude":42.9732948,"longitude":12.6825538,"canPickup":true,"canDropoff":true,"openingstijden":"za: 09:00 - 13:00; ma: 09:00 - 19:30"}},{"type":"Feature","geometry":{"type":"Point","coordinates":[12.660755,42.953516]},"properties":{"type":"pakketpunt","locatieNaam":"Ufficio Postale FIAMENGA","straatNaam":"VIA BEVAGNA 11","straatNr":"","vervoerder":"DHL","puntType":"postOffice","bezettingsgraad":50,"latitude":42.953516,"longitude":12.660755,"canPickup":true,"canDropoff":true,"openingstijden":{"ma":"08:20 - 13:45","di":"08:20 - 13:45","wo":"08:20 - 13:45","do":"08:20 - 13:45","vr":"08:20 - 13:45","za":"08:20 - 12:45","zo":"gesloten"}}},{"type":"Feature","geometry":{"type":"Point","coordinates":[12.696172,42.947702]},"properties":{"type":"pakketpunt","locatieNaam":"TABACCHERIA N. 71","straatNaam":"VIA GUGLIELMO FERRERO 73","straatNr":"","vervoerder":"DHL","puntType":"parcelShop","bezettingsgraad":50,"latitude":42.947702,"longitude":12.696172,"canPickup":true,"canDropoff":true,"openingstijden":{"ma":"06:00 - 20:00","di":"06:00 - 20:00","wo":"06:00 - 20:00","do":"06:00 - 20:00","vr":"06:00 - 20:00","za":"06:00 - 20:00","zo":"gesloten"}}},{"type":"Feature","geometry":{"type":"Point","coordinates":[12.695337,42.943476]},"properties":{"type":"pakketpunt","locatieNaam":"TABACCHERIA N. 74","straatNaam":"VIA DEL PIGNALONE 1-D","straatNr":"","vervoerder":"DHL","puntType":"parcelShop","bezettingsgraad":50,"latitude":42.943476,"longitude":12.695337,"canPickup":true,"canDropoff":true,"openingstijden":{"ma":"07:30 - 13:00, 16:00 - 19:30","di":"07:30 - 13:00, 16:00 - 19:30","wo":"07:30 - 13:00, 16:00 - 19:30","do":"07:30 - 13:00, 16:00 - 19:30","vr":"07:30 - 13:00, 16:00 - 19:30","za":"07:30 - 13:00, 16:00 - 19:30","zo":"gesloten"}}},{"type":"Feature","geometry":{"type":"Point","coordinates":[12.67911,42.966014]},"properties":{"type":"pakketpunt","locatieNaam":"TABACCHERIA N. 83","straatNaam":"VIA GIORGIO VASARI SNC 6","straatNr":"","vervoerder":"DHL","puntType":"parcelShop","bezettingsgraad":50,"latitude":42.966014,"longitude":12.67911,"canPickup":true,"canDropoff":true,"openingstijden":{"ma":"06:30 - 20:00","di":"06:30 - 20:00","wo":"06:30 - 20:00","do":"06:30 - 20:00","vr":"06:30 - 20:00","za":"06:30 - 20:00","zo":"gesloten"}}},{"type":"Feature","geometry":{"type":"Point","coordinates":[12.695952,42.957227]},"properties":{"type":"pakketpunt","locatieNaam":"TABACCHERIA N. 68","straatNaam":"VIALE SEDICI GIUGNO 26-A","straatNr":"","vervoerder":"DHL","puntType":"parcelShop","bezettingsgraad":50,"latitude":42.957227,"longitude":12.695952,"canPickup":true,"canDropoff":true,"openingstijden":{"ma":"gesloten","di":"07:00 - 19:45","wo":"07:00 - 19:45","do":"07:00 - 19:45","vr":"07:00 - 19:45","za":"07:00 - 19:30","zo":"07:00 - 19:30"}}},{"type":"Feature","geometry":{"type":"Point","coordinates":[12.688681,42.963935]},"properties":{"type":"pakketpunt","locatieNaam":"Ufficio Postale FOLIGNO 3","straatNaam":"VIA FIAMENGA 55-A","straatNr":"","vervoerder":"DHL","puntType":"postOffice","bezettingsgraad":50,"latitude":42.963935,"longitude":12.688681,"canPickup":true,"canDropoff":true,"openingstijden":{"ma":"08:20 - 13:35","di":"08:20 - 13:35","wo":"08:20 - 13:35","do":"08:20 - 13:35","vr":"08:20 - 13:35","za":"08:20 - 12:35","zo":"gesloten"}}},{"type":"Feature","geometry":{"type":"Point","coordinates":[12.699742,42.953396]},"properties":{"type":"pakketpunt","locatieNaam":"Ufficio Postale FOLIGNO 1","straatNaam":"VIA SANTA MARIA INFRAPORTAS 5","straatNr":"","vervoerder":"DHL","puntType":"postOffice","bezettingsgraad":50,"latitude":42.953396,"longitude":12.699742,"canPickup":true,"canDropoff":true,"openingstijden":{"ma":"08:20 - 13:35","di":"08:20 - 13:35","wo":"08:20 - 13:35","do":"08:20 - 13:35","vr":"08:20 - 13:35","za":"08:20 - 12:35","zo":"gesloten"}}},{"type":"Feature","geometry":{"type":"Point","coordinates":[12.695708,42.960622]},"properties":{"type":"pakketpunt","locatieNaam":"TABACCHERIA N. 77","straatNaam":"VIA MONTE ROSA 7-B","straatNr":"","vervoerder":"DHL","puntType":"parcelShop","bezettingsgraad":50,"latitude":42.960622,"longitude":12.695708,"canPickup":true,"canDropoff":true,"openingstijden":{"ma":"07:30 - 13:00, 15:30 - 20:00","di":"07:30 - 13:00, 15:30 - 20:00","wo":"07:30 - 13:00, 15:30 - 20:00","do":"07:30 - 13:00, 15:30 - 20:00","vr":"07:30 - 13:00, 15:30 - 20:00","za":"07:30 - 13:00, 15:30 - 20:00","zo":"gesloten"}}},{"type":"Feature","geometry":{"type":"Point","coordinates":[12.700415,42.954008]},"properties":{"type":"pakketpunt","locatieNaam":"TABACCHERIA N. 7","straatNaam":"LARGO FEDERICO FREZZI 21","straatNr":"","vervoerder":"DHL","puntType":"parcelShop","bezettingsgraad":50,"latitude":42.954008,"longitude":12.700415,"canPickup":true,"canDropoff":true,"openingstijden":{"ma":"08:00 - 13:00, 15:30 - 20:00","di":"08:00 - 13:00, 15:30 - 20:00","wo":"08:00 - 13:00, 15:30 - 20:00","do":"08:00 - 13:00, 15:30 - 20:00","vr":"08:00 - 13:00, 15:30 - 20:00","za":"08:00 - 13:00, 15:30 - 20:00","zo":"gesloten"}}},{"type":"Feature","geometry":{"type":"Point","coordinates":[12.691852,42.964451]},"properties":{"type":"pakketpunt","locatieNaam":"TABACCHERIA N. 35","straatNaam":"VIA ASPROMONTE SNC 1","straatNr":"","vervoerder":"DHL","puntType":"parcelShop","bezettingsgraad":50,"latitude":42.964451,"longitude":12.691852,"canPickup":true,"canDropoff":true,"openingstijden":{"ma":"07:00 - 20:00","di":"07:00 - 20:00","wo":"07:00 - 20:00","do":"07:00 - 20:00","vr":"07:00 - 20:00","za":"07:00 - 20:00","zo":"08:00 - 13:00"}}},{"type":"Feature","geometry":{"type":"Point","coordinates":[12.678665,42.969157]},"properties":{"type":"pakketpunt","locatieNaam":"AGENZIA CENTRO ITALIA","straatNaam":"Da Sangallo, 17 E","straatNr":"","vervoerder":"DHL","puntType":"parcelShop","bezettingsgraad":50,"latitude":42.969157,"longitude":12.678665,"canPickup":false,"canDropoff":true,"openingstijden":{"ma":"08:30 - 18:00","di":"08:30 - 18:00","wo":"08:30 - 18:00","do":"08:30 - 18:00","vr":"08:30 - 18:00","za":"gesloten","zo":"gesloten"}}},{"type":"Feature","geometry":{"type":"Point","coordinates":[12.70277,42.951015]},"properties":{"type":"pakketpunt","locatieNaam":"TABACCHERIA N. 55","straatNaam":"VIA NAZARIO SAURO 16-C","straatNr":"","vervoerder":"DHL","puntType":"parcelShop","bezettingsgraad":50,"latitude":42.951015,"longitude":12.70277,"canPickup":true,"canDropoff":true,"openingstijden":{"ma":"06:15 - 18:15","di":"06:15 - 18:15","wo":"06:15 - 18:15","do":"06:15 - 18:15","vr":"06:15 - 18:15","za":"06:15 - 15:00","zo":"gesloten"}}},{"type":"Feature","geometry":{"type":"Point","coordinates":[12.702487,42.954369]},"properties":{"type":"pakketpunt","locatieNaam":"TABACCHERIA N. 38","straatNaam":"VIA GIUSEPPE MAZZINI 95","straatNr":"","vervoerder":"DHL","puntType":"parcelShop","bezettingsgraad":50,"latitude":42.954369,"longitude":12.702487,"canPickup":true,"canDropoff":true,"openingstijden":{"ma":"08:00 - 13:00, 15:30 - 20:00","di":"08:00 - 13:00, 15:30 - 20:00","wo":"08:00 - 13:00, 15:30 - 20:00","do":"08:00 - 13:00, 15:30 - 20:00","vr":"08:00 - 13:00, 15:30 - 20:00","za":"08:00 - 13:00, 15:30 - 20:00","zo":"gesloten"}}},{"type":"Feature","geometry":{"type":"Point","coordinates":[12.700738,42.959856]},"properties":{"type":"pakketpunt","locatieNaam":"G&G FOOD DRINK AND MULTISER","straatNaam":"VIALE FIRENZE 3-B","straatNr":"","vervoerder":"DHL","puntType":"packStation","bezettingsgraad":50,"latitude":42.959856,"longitude":12.700738,"canPickup":true,"canDropoff":true,"openingstijden":{"ma":"00:01 - 23:59","di":"00:01 - 23:59","wo":"00:01 - 23:59","do":"00:01 - 23:59","vr":"00:01 - 23:59","za":"00:01 - 23:59","zo":"00:01 - 23:59"}}},{"type":"Feature","geometry":{"type":"Point","coordinates":[12.700823,42.959803]},"properties":{"type":"pakketpunt","locatieNaam":"TABACCHERIA N. 60","straatNaam":"VIALE FIRENZE 3-A","straatNr":"","vervoerder":"DHL","puntType":"parcelShop","bezettingsgraad":50,"latitude":42.959803,"longitude":12.700823,"canPickup":true,"canDropoff":true,"openingstijden":{"ma":"08:00 - 13:00, 16:00 - 20:00","di":"08:00 - 13:00, 16:00 - 20:00","wo":"08:00 - 13:00, 16:00 - 20:00","do":"08:00 - 13:00, 16:00 - 20:00","vr":"08:00 - 13:00, 16:00 - 20:00","za":"08:00 - 13:00, 16:00 - 20:00","zo":"gesloten"}}},{"type":"Feature","geometry":{"type":"Point","coordinates":[12.702801,42.957149]},"properties":{"type":"pakketpunt","locatieNaam":"TABACCHERIA N. 8","straatNaam":"VIA VENTI SETTEMBRE 35","straatNr":"","vervoerder":"DHL","puntType":"parcelShop","bezettingsgraad":50,"latitude":42.957149,"longitude":12.702801,"canPickup":true,"canDropoff":true,"openingstijden":{"ma":"09:00 - 13:00, 16:00 - 19:30","di":"09:00 - 13:00, 16:00 - 19:30","wo":"09:00 - 13:00, 16:00 - 19:30","do":"09:00 - 13:00, 16:00 - 19:30","vr":"09:00 - 13:00, 16:00 - 19:30","za":"09:00 - 13:00, 16:00 - 19:30","zo":"gesloten"}}},{"type":"Feature","geometry":{"type":"Point","coordinates":[12.702095,42.958836]},"properties":{"type":"pakketpunt","locatieNaam":"TABACCHERIA N. 53","straatNaam":"VIA MENTANA 2","straatNr":"","vervoerder":"DHL","puntType":"parcelShop","bezettingsgraad":50,"latitude":42.958836,"longitude":12.702095,"canPickup":true,"canDropoff":true,"openingstijden":{"ma":"07:40 - 13:30, 15:30 - 20:00","di":"07:40 - 13:30, 15:30 - 20:00","wo":"07:40 - 13:30, 15:30 - 20:00","do":"07:40 - 13:30, 15:30 - 20:00","vr":"07:40 - 13:30, 15:30 - 20:00","za":"07:40 - 13:30, 15:30 - 20:00","zo":"08:00 - 12:30"}}},{"type":"Feature","geometry":{"type":"Point","coordinates":[12.706246,42.954683]},"properties":{"type":"pakketpunt","locatieNaam":"Ufficio Postale FOLIGNO","straatNaam":"VIA GIUSEPPE PIERMARINI 11","straatNr":"","vervoerder":"DHL","puntType":"postOffice","bezettingsgraad":50,"latitude":42.954683,"longitude":12.706246,"canPickup":true,"canDropoff":true,"openingstijden":{"ma":"08:20 - 19:05","di":"08:20 - 19:05","wo":"08:20 - 19:05","do":"08:20 - 19:05","vr":"08:20 - 19:05","za":"08:20 - 12:35","zo":"gesloten"}}},{"type":"Feature","geometry":{"type":"Point","coordinates":[12.707314,42.955491]},"properties":{"type":"pakketpunt","locatieNaam":"SUPERMERCATO CONAD","straatNaam":"VIA UMBERTO I 68","straatNr":"","vervoerder":"DHL","puntType":"packStation","bezettingsgraad":50,"latitude":42.955491,"longitude":12.707314,"canPickup":true,"canDropoff":true,"openingstijden":{"ma":"08:00 - 20:00","di":"08:00 - 20:00","wo":"08:00 - 20:00","do":"08:00 - 20:00","vr":"08:00 - 20:00","za":"08:00 - 20:00","zo":"gesloten"}}},{"type":"Feature","geometry":{"type":"Point","coordinates":[12.682552,42.973114]},"properties":{"type":"pakketpunt","locatieNaam":"BRIGO CASA","straatNaam":"Via Francesco Bettini 6","straatNr":"","vervoerder":"DHL","puntType":"parcelShop","bezettingsgraad":50,"latitude":42.973114,"longitude":12.682552,"canPickup":false,"canDropoff":true,"openingstijden":{"ma":"09:00 - 19:30","di":"09:00 - 19:30","wo":"09:00 - 19:30","do":"09:00 - 19:30","vr":"09:00 - 19:30","za":"09:00 - 19:00","zo":"gesloten"}}},{"type":"Feature","geometry":{"type":"Point","coordinates":[12.682851,42.97316]},"properties":{"type":"pakketpunt","locatieNaam":"BRIGO CASA","straatNaam":"VIA FRANCESCO BETTINI 6","straatNr":"","vervoerder":"DHL","puntType":"parcelShop","bezettingsgraad":50,"latitude":42.97316,"longitude":12.682851,"canPickup":true,"canDropoff":true,"openingstijden":{"ma":"09:00 - 19:30","di":"09:00 - 19:30","wo":"09:00 - 19:30","do":"09:00 - 19:30","vr":"09:00 - 19:30","za":"09:00 - 13:00, 15:30 - 19:00","zo":"gesloten"}}},{"type":"Feature","geometry":{"type":"Point","coordinates":[12.706997,42.957383]},"properties":{"type":"pakketpunt","locatieNaam":"TABACCHERIA N. 23","straatNaam":"VIA GIUSEPPE GARIBALDI 97","straatNr":"","vervoerder":"DHL","puntType":"parcelShop","bezettingsgraad":50,"latitude":42.957383,"longitude":12.706997,"canPickup":true,"canDropoff":true,"openingstijden":{"ma":"08:00 - 13:00, 16:00 - 20:00","di":"08:00 - 13:00, 16:00 - 20:00","wo":"08:00 - 13:00, 16:00 - 20:00","do":"08:00 - 13:00, 16:00 - 20:00","vr":"08:00 - 13:00, 16:00 - 20:00","za":"08:00 - 13:00, 16:00 - 20:00","zo":"gesloten"}}},{"type":"Feature","geometry":{"type":"Point","coordinates":[12.711258,42.95983]},"properties":{"type":"pakketpunt","locatieNaam":"TABACCHERIA N. 31","straatNaam":"VIALE ANCONA 19","straatNr":"","vervoerder":"DHL","puntType":"parcelShop","bezettingsgraad":50,"latitude":42.95983,"longitude":12.711258,"canPickup":true,"canDropoff":true,"openingstijden":{"ma":"07:45 - 13:00, 16:00 - 19:30","di":"07:45 - 13:00, 16:00 - 19:30","wo":"07:45 - 13:00, 16:00 - 19:30","do":"07:45 - 13:00, 16:00 - 19:30","vr":"07:45 - 13:00, 16:00 - 19:30","za":"07:45 - 13:00","zo":"gesloten"}}},{"type":"Feature","geometry":{"type":"Point","coordinates":[12.714521,42.956817]},"properties":{"type":"pakketpunt","locatieNaam":"Ufficio Postale FOLIGNO 2","straatNaam":"VIA CLITUNNO SNC","straatNr":"","vervoerder":"DHL","puntType":"postOffice","bezettingsgraad":50,"latitude":42.956817,"longitude":12.714521,"canPickup":true,"canDropoff":true,"openingstijden":{"ma":"08:20 - 13:45","di":"08:20 - 13:45","wo":"08:20 - 13:45","do":"08:20 - 13:45","vr":"08:20 - 13:45","za":"08:20 - 12:45","zo":"gesloten"}}},{"type":"Feature","geometry":{"type":"Point","coordinates":[12.719425,42.957535]},"properties":{"type":"pakketpunt","locatieNaam":"TABACCHERIA N. 51","straatNaam":"VIA CAMPAGNOLA 4","straatNr":"","vervoerder":"DHL","puntType":"parcelShop","bezettingsgraad":50,"latitude":42.957535,"longitude":12.719425,"canPickup":true,"canDropoff":true,"openingstijden":{"ma":"07:00 - 13:00, 15:30 - 20:00","di":"07:00 - 13:00, 15:30 - 20:00","wo":"07:00 - 13:00, 15:30 - 20:00","do":"07:00 - 13:00, 15:30 - 20:00","vr":"07:00 - 13:00, 15:30 - 20:00","za":"07:00 - 13:00, 15:30 - 20:00","zo":"gesloten"}}},{"type":"Feature","geometry":{"type":"Point","coordinates":[12.72226,42.932818]},"properties":{"type":"pakketpunt","locatieNaam":"Ufficio Postale SANT'ERACLIO","straatNaam":"VIA BORDINA 8-A","straatNr":"","vervoerder":"DHL","puntType":"postOffice","bezettingsgraad":50,"latitude":42.932818,"longitude":12.72226,"canPickup":true,"canDropoff":true,"openingstijden":{"ma":"08:20 - 13:35","di":"08:20 - 13:35","wo":"08:20 - 13:35","do":"08:20 - 13:35","vr":"08:20 - 13:35","za":"08:20 - 12:35","zo":"gesloten"}}},{"type":"Feature","geometry":{"type":"Point","coordinates":[12.726862,42.967303]},"properties":{"type":"pakketpunt","locatieNaam":"RAY CAFFE'","straatNaam":"Via Corta Di Colle 1c","straatNr":"","vervoerder":"DHL","puntType":"parcelShop","bezettingsgraad":50,"latitude":42.967303,"longitude":12.726862,"canPickup":false,"canDropoff":true,"openingstijden":{"ma":"06:00 - 20:00","di":"06:00 - 20:00","wo":"06:00 - 20:00","do":"06:00 - 20:00","vr":"06:00 - 20:00","za":"06:00 - 20:00","zo":"gesloten"}}},{"type":"Feature","geometry":{"type":"Point","coordinates":[12.725758,42.926566]},"properties":{"type":"pakketpunt","locatieNaam":"LAVA&ASCIUGA","straatNaam":"VIA FRANCO SANTOCCHIA 96","straatNr":"","vervoerder":"DHL","puntType":"packStation","bezettingsgraad":50,"latitude":42.926566,"longitude":12.725758,"canPickup":true,"canDropoff":true,"openingstijden":{"ma":"07:00 - 23:59","di":"07:00 - 23:59","wo":"07:00 - 23:59","do":"07:00 - 23:59","vr":"07:00 - 23:59","za":"07:00 - 23:59","zo":"07:00 - 23:59"}}},{"type":"Feature","geometry":{"type":"Point","coordinates":[12.737911,42.983041]},"properties":{"type":"pakketpunt","locatieNaam":"Ufficio Postale SCANZANO","straatNaam":"VIA SCANZANO 2","straatNr":"","vervoerder":"DHL","puntType":"postOffice","bezettingsgraad":50,"latitude":42.983041,"longitude":12.737911,"canPickup":true,"canDropoff":true,"openingstijden":{"ma":"08:20 - 13:35","di":"08:20 - 13:35","wo":"08:20 - 13:35","do":"08:20 - 13:35","vr":"08:20 - 13:35","za":"08:20 - 12:35","zo":"gesloten"}}},{"type":"Feature","geometry":{"type":"Point","coordinates":[12.890308,43.028196]},"properties":{"type":"pakketpunt","locatieNaam":"Ufficio Postale COLFIORITO","straatNaam":"VIA CASERMETTE SNC 1","straatNr":"","vervoerder":"DHL","puntType":"postOffice","bezettingsgraad":50,"latitude":43.028196,"longitude":12.890308,"canPickup":true,"canDropoff":true,"openingstijden":{"ma":"08:20 - 13:45","di":"08:20 - 13:45","wo":"08:20 - 13:45","do":"08:20 - 13:45","vr":"08:20 - 13:45","za":"08:20 - 12:45","zo":"gesloten"}}},{"type":"Feature","geometry":{"type":"Point","coordinates":[12.688498,42.944905]},"properties":{"type":"pakketpunt","locatieNaam":"Amazon Locker - salvatorino","straatNaam":"Stazione Tamoil - PV 7435","straatNr":"","vervoerder":"Amazon","puntType":"locker","bezettingsgraad":50,"latitude":42.944905,"longitude":12.688498,"canPickup":true,"canDropoff":false,"openingstijden":null}},{"type":"Feature","geometry":{"type":"Point","coordinates":[12.691077,42.946017]},"properties":{"type":"pakketpunt","locatieNaam":"Amazon Locker - anselmo","straatNaam":"Supermercato Tigre Foligno","straatNr":"","vervoerder":"Amazon","puntType":"locker","bezettingsgraad":50,"latitude":42.946017,"longitude":12.691077,"canPickup":true,"canDropoff":false,"openingstijden":null}},{"type":"Feature","geometry":{"type":"Point","coordinates":[12.6910373,42.9591163]},"properties":{"type":"pakketpunt","locatieNaam":"Amazon Locker - melchisedeo","straatNaam":"Eni Station pv.55275","straatNr":"","vervoerder":"Amazon","puntType":"locker","bezettingsgraad":50,"latitude":42.9591163,"longitude":12.6910373,"canPickup":true,"canDropoff":false,"openingstijden":null}},{"type":"Feature","geometry":{"type":"Point","coordinates":[12.7080267,42.9511067]},"properties":{"type":"pakketpunt","locatieNaam":"Amazon Locker - mariso","straatNaam":"ENI Station pv.4568","straatNr":"","vervoerder":"Amazon","puntType":"locker","bezettingsgraad":50,"latitude":42.9511067,"longitude":12.7080267,"canPickup":true,"canDropoff":false,"openingstijden":null}},{"type":"Feature","geometry":{"type":"Point","coordinates":[12.71687,42.966654]},"properties":{"type":"pakketpunt","locatieNaam":"Amazon Locker - oliade","straatNaam":"Conad Raffaello Sanzio Foligno","straatNr":"","vervoerder":"Amazon","puntType":"locker","bezettingsgraad":50,"latitude":42.966654,"longitude":12.71687,"canPickup":true,"canDropoff":false,"openingstijden":null}},{"type":"Feature","geometry":{"type":"Point","coordinates":[12.6978173,42.9645249]},"properties":{"type":"pakketpunt","locatieNaam":"Amazon Locker - marrigo","straatNaam":"ENI Station pv.4526","straatNr":"","vervoerder":"Amazon","puntType":"locker","bezettingsgraad":50,"latitude":42.9645249,"longitude":12.6978173,"canPickup":true,"canDropoff":false,"openingstijden":null}},{"type":"Feature","geometry":{"type":"Point","coordinates":[12.678655,42.968435]},"properties":{"type":"pakketpunt","locatieNaam":"Amazon Locker - damaso","straatNaam":"Fermopoint / Autogrill Foligno","straatNr":"","vervoerder":"Amazon","puntType":"locker","bezettingsgraad":50,"latitude":42.968435,"longitude":12.678655,"canPickup":true,"canDropoff":false,"openingstijden":null}},{"type":"Feature","geometry":{"type":"Point","coordinates":[12.675130428207,42.9342620192839]},"properties":{"type":"pakketpunt","locatieNaam":"Amazon Counter (fermopoint)","straatNaam":"Asca","straatNr":"","vervoerder":"Amazon","puntType":"helix","bezettingsgraad":50,"latitude":42.9342620192839,"longitude":12.675130428207,"canPickup":true,"canDropoff":false,"openingstijden":null}},{"type":"Feature","geometry":{"type":"Point","coordinates":[12.726049,42.925976]},"properties":{"type":"pakketpunt","locatieNaam":"Amazon Locker - Forno","straatNaam":"Lava & Asciuga - Sant Eraclio","straatNr":"","vervoerder":"Amazon","puntType":"locker","bezettingsgraad":50,"latitude":42.925976,"longitude":12.726049,"canPickup":true,"canDropoff":false,"openingstijden":null}},{"type":"Feature","geometry":{"type":"Point","coordinates":[12.8903,43.0281]},"properties":{"type":"pakketpunt","locatieNaam":"Ufficio Postale COLFIORITO","straatNaam":"VIA CASERMETTE SNC 1","straatNr":"","vervoerder":"Amazon","puntType":"3p","bezettingsgraad":50,"latitude":43.0281,"longitude":12.8903,"canPickup":true,"canDropoff":false,"openingstijden":null}},{"type":"Feature","geometry":{"type":"Point","coordinates":[12.683356224537,42.9733565874369]},"properties":{"type":"pakketpunt","locatieNaam":"Amazon Counter (fermopoint)","straatNaam":"Brigo Casa","straatNr":"","vervoerder":"Amazon","puntType":"helix","bezettingsgraad":50,"latitude":42.9733565874369,"longitude":12.683356224537,"canPickup":true,"canDropoff":false,"openingstijden":null}},{"type":"Feature","geometry":{"type":"Point","coordinates":[12.701064,42.967694]},"properties":{"type":"pakketpunt","locatieNaam":"Amazon Counter","straatNaam":"Bar Tabacchi Trinci (fermopoint)","straatNr":"","vervoerder":"Amazon","puntType":"helix","bezettingsgraad":50,"latitude":42.967694,"longitude":12.701064,"canPickup":true,"canDropoff":false,"openingstijden":null}},{"type":"Feature","geometry":{"type":"Point","coordinates":[12.6897613239426,42.9649572945947]},"properties":{"type":"pakketpunt","locatieNaam":"Amazon Counter","straatNaam":"ZioSmoke-Foligno (fermopoint)","straatNr":"","vervoerder":"Amazon","puntType":"helix","bezettingsgraad":50,"latitude":42.9649572945947,"longitude":12.6897613239426,"canPickup":true,"canDropoff":false,"openingstijden":null}},{"type":"Feature","geometry":{"type":"Point","coordinates":[12.7062317,42.9533694]},"properties":{"type":"pakketpunt","locatieNaam":"Giunti al Punto","straatNaam":"Corso Cavour 120","straatNr":"","vervoerder":"Amazon","puntType":"helix","bezettingsgraad":50,"latitude":42.9533694,"longitude":12.7062317,"canPickup":true,"canDropoff":false,"openingstijden":null}},{"type":"Feature","geometry":{"type":"Point","coordinates":[12.6886,42.9639]},"properties":{"type":"pakketpunt","locatieNaam":"Ufficio Postale FOLIGNO 3","straatNaam":"VIA FIAMENGA 55-A","straatNr":"","vervoerder":"Amazon","puntType":"3p","bezettingsgraad":50,"latitude":42.9639,"longitude":12.6886,"canPickup":true,"canDropoff":false,"openingstijden":null}},{"type":"Feature","geometry":{"type":"Point","coordinates":[12.6896231,42.9626169]},"properties":{"type":"pakketpunt","locatieNaam":"Amazon Counter - PRIMAEDICOLA","straatNaam":"PARADISI GIULIANO","straatNr":"","vervoerder":"Amazon","puntType":"helix","bezettingsgraad":50,"latitude":42.9626169,"longitude":12.6896231,"canPickup":true,"canDropoff":false,"openingstijden":null}},{"type":"Feature","geometry":{"type":"Point","coordinates":[12.6828,42.9731]},"properties":{"type":"pakketpunt","locatieNaam":"PuntoPoste BRIGO CASA","straatNaam":"VIA FRANCESCO BETTINI 6","straatNr":"","vervoerder":"Amazon","puntType":"3p","bezettingsgraad":50,"latitude":42.9731,"longitude":12.6828,"canPickup":true,"canDropoff":false,"openingstijden":null}},{"type":"Feature","geometry":{"type":"Polygon","coordinates":[[[12.6115981,42.9642201],[12.62025,42.9659228],[12.6221801,42.9661047],[12.6243745,42.9664403],[12.627175,42.9663065],[12.6280311,42.9660362],[12.6335284,42.9652854],[12.6377279,42.9648141],[12.6394748,42.9643579],[12.6414078,42.9641072],[12.6426855,42.9643862],[12.6436926,42.9649753],[12.6449038,42.9653599],[12.6462792,42.9659553],[12.6475499,42.9660633],[12.6505763,42.9658001],[12.6520583,42.9661625],[12.6547394,42.9662659],[12.6559195,42.9665117],[12.6572907,42.9669181],[12.6598382,42.9682681],[12.6608165,42.9689616],[12.6642282,42.9701758],[12.6656721,42.9709264],[12.6740483,42.9731965],[12.6755457,42.9737741],[12.6771859,42.9741761],[12.6793516,42.9749707],[12.6808843,42.9749709],[12.6815309,42.9750581],[12.682387,42.9754177],[12.6847816,42.9738369],[12.6891963,42.9763281],[12.690695,42.9779364],[12.6915283,42.9792691],[12.6941338,42.9852984],[12.6944511,42.9866657],[12.6948754,42.9868006],[12.6956082,42.9858945],[12.6981379,42.9874694],[12.7003966,42.9879266],[12.7002016,42.9884855],[12.7030327,42.9897734],[12.703661,42.9903428],[12.7045213,42.9909452],[12.7072316,42.9919737],[12.7078778,42.9923805],[12.7087563,42.9934999],[12.7090867,42.9942005],[12.7092817,42.9948424],[12.7101198,42.9957877],[12.7112021,42.9966619],[12.7119546,42.9975333],[12.7122154,42.9984387],[12.7123172,42.9993403],[12.7125558,42.9998773],[12.7131891,42.9997062],[12.7126522,43.0005719],[12.7124302,43.0023006],[12.7125214,43.0024714],[12.7131027,43.002322],[12.7137653,43.0019808],[12.7143458,43.0015253],[12.7154489,43.0012688],[12.7164681,43.0012357],[12.7172594,43.0013856],[12.7173586,43.0015245],[12.7170042,43.0022897],[12.7168929,43.0027312],[12.7169878,43.0034427],[12.7171205,43.0037549],[12.7170732,43.0041297],[12.7174811,43.0043834],[12.7168338,43.005173],[12.717722,43.0057868],[12.7186909,43.00678],[12.7186191,43.0073738],[12.717519,43.0081123],[12.7176934,43.0085249],[12.7188394,43.009433],[12.7197852,43.0097308],[12.7207058,43.0097008],[12.7214964,43.0098912],[12.7218887,43.0102026],[12.7223879,43.0113568],[12.7229354,43.0117891],[12.724088,43.0121567],[12.7253211,43.0123327],[12.7255362,43.012646],[12.7252949,43.0130178],[12.7252113,43.0133804],[12.7254155,43.0137296],[12.7256769,43.0139687],[12.7256606,43.0147256],[12.7258607,43.0153088],[12.7264549,43.0161537],[12.7270616,43.0167102],[12.7273874,43.0174964],[12.7279648,43.019787],[12.7286298,43.0220008],[12.7285133,43.0225737],[12.7282861,43.0230899],[12.7272794,43.0244102],[12.7264538,43.0258372],[12.7261497,43.0267295],[12.7259718,43.0288962],[12.7256151,43.0305915],[12.7241745,43.0320475],[12.7235929,43.0328273],[12.7233821,43.0335954],[12.7233921,43.0339232],[12.7238919,43.0337269],[12.7244825,43.0336761],[12.7254348,43.0338206],[12.7269055,43.0345335],[12.7288731,43.0350771],[12.7298574,43.0357112],[12.7310199,43.036146],[12.7325276,43.036871],[12.7334804,43.0369975],[12.7361157,43.0371139],[12.7370186,43.0372285],[12.7375142,43.0374554],[12.7453647,43.0382923],[12.7464375,43.0384867],[12.7484418,43.0390738],[12.7504396,43.0395034],[12.7514487,43.0394208],[12.7532258,43.0401683],[12.7539357,43.040235],[12.7544705,43.0400598],[12.7552265,43.0395128],[12.7564115,43.0383124],[12.7567619,43.0377967],[12.7569883,43.035966],[12.7577239,43.0353116],[12.7590578,43.0347455],[12.75948,43.0342859],[12.7600501,43.0331057],[12.7602716,43.0324276],[12.7603394,43.0315631],[12.7601586,43.0308152],[12.7595851,43.029921],[12.7601497,43.0293524],[12.7610941,43.0287181],[12.7615036,43.0285785],[12.7630177,43.0284657],[12.7653821,43.0279466],[12.7663268,43.027929],[12.767181,43.0280629],[12.7692778,43.0287861],[12.7698817,43.0280144],[12.7704303,43.0267898],[12.7711438,43.0260685],[12.7726021,43.0251335],[12.7738297,43.0261284],[12.7745934,43.0263868],[12.7763083,43.0267983],[12.7778365,43.0263156],[12.7786633,43.0254915],[12.7789778,43.025292],[12.7797431,43.0251901],[12.7816337,43.0251276],[12.7843387,43.0253487],[12.7856131,43.0257432],[12.7863098,43.0261703],[12.7898521,43.0269982],[12.7918148,43.0276939],[12.7926537,43.0279137],[12.7938196,43.027902],[12.7959831,43.0281588],[12.7965344,43.0284767],[12.79649,43.0287542],[12.7946647,43.0293505],[12.7945795,43.0297571],[12.7947528,43.0299733],[12.7961166,43.0301796],[12.7952981,43.0339258],[12.795082,43.0355086],[12.7949208,43.0360207],[12.7975701,43.0376634],[12.798524,43.0383449],[12.7977037,43.0387574],[12.7963556,43.0397115],[12.7957292,43.040061],[12.7956125,43.0403678],[12.79595,43.0408243],[12.7956472,43.0409956],[12.7950673,43.0411359],[12.7951,43.0415044],[12.7952604,43.0418412],[12.7956888,43.0422187],[12.7963638,43.0425654],[12.7980516,43.0430855],[12.7998407,43.0435168],[12.7999945,43.0437465],[12.7992546,43.044117],[12.7967646,43.0447535],[12.7964268,43.0450318],[12.7965085,43.0454057],[12.7969282,43.0456664],[12.7974502,43.0458201],[12.7982635,43.0464278],[12.7991572,43.0478792],[12.7996415,43.0483898],[12.800156,43.0487689],[12.8016572,43.0497183],[12.8035522,43.0502855],[12.8040054,43.0506531],[12.8047791,43.0516852],[12.8054538,43.0523831],[12.8065031,43.0532575],[12.8065338,43.0537402],[12.8057863,43.0547669],[12.805504,43.0554741],[12.8049121,43.0558675],[12.8034207,43.0563808],[12.8027404,43.0570256],[12.8012015,43.0593718],[12.8008055,43.0601368],[12.8007186,43.060891],[12.8007624,43.0616635],[12.8005333,43.0622662],[12.799814,43.0624611],[12.7988453,43.0624213],[12.7969959,43.0626223],[12.796471,43.0628829],[12.7961532,43.0635147],[12.7953243,43.0667655],[12.7952651,43.0680918],[12.7954525,43.0690301],[12.796438,43.0710052],[12.796982,43.0719325],[12.7971959,43.0721145],[12.7982925,43.0709931],[12.7998103,43.0690879],[12.8019696,43.0657073],[12.803476,43.0637709],[12.803975,43.0635382],[12.8049721,43.063478],[12.8060244,43.0632449],[12.8069633,43.0627409],[12.8080901,43.0614564],[12.8093908,43.0618137],[12.8099182,43.0611478],[12.8102831,43.0612662],[12.8108367,43.0612207],[12.8125854,43.0607708],[12.8152157,43.0603318],[12.817599,43.059622],[12.8187675,43.0595559],[12.8205301,43.0611087],[12.8210976,43.0610401],[12.8216455,43.0604726],[12.8220548,43.0604409],[12.8225221,43.0606864],[12.8234252,43.0608317],[12.8246291,43.0608275],[12.8253857,43.0599153],[12.8271058,43.0603754],[12.8274077,43.0603923],[12.8279184,43.0601771],[12.8282261,43.0601758],[12.8288255,43.0605834],[12.8298303,43.0606488],[12.8301441,43.0607958],[12.8304025,43.0611248],[12.8308296,43.061205],[12.8317594,43.0609532],[12.8328583,43.061137],[12.8333065,43.0609644],[12.8338529,43.0611486],[12.8343187,43.0608044],[12.8349971,43.0607186],[12.8353969,43.0608897],[12.835964,43.0618611],[12.8362786,43.0619946],[12.8374091,43.061628],[12.8383715,43.0614921],[12.8404315,43.061594],[12.8413825,43.0621247],[12.8447043,43.0626568],[12.8455421,43.0629347],[12.8462516,43.0637121],[12.8476656,43.0643803],[12.8487339,43.0647225],[12.8529514,43.0656203],[12.8541059,43.0659775],[12.854355,43.0658745],[12.8544452,43.0654168],[12.8546267,43.0651406],[12.8550361,43.0653654],[12.855417,43.0657126],[12.8564873,43.0649608],[12.8571952,43.0640365],[12.8585947,43.0643854],[12.8592516,43.063859],[12.8596665,43.0639395],[12.8600631,43.0648895],[12.8604426,43.0649442],[12.8613919,43.0641244],[12.8631997,43.0640588],[12.8659876,43.0633342],[12.8680633,43.0629759],[12.8682135,43.0618273],[12.8689187,43.0616684],[12.8698648,43.062019],[12.8722914,43.0635889],[12.8728781,43.0629613],[12.8741387,43.061289],[12.8749746,43.0616207],[12.8757787,43.0610938],[12.8761012,43.0613529],[12.8763832,43.061735],[12.8769031,43.0619605],[12.8775852,43.0617753],[12.8779559,43.061362],[12.8795491,43.0610829],[12.8838151,43.0609469],[12.8854462,43.0606619],[12.8868268,43.0601648],[12.8900745,43.059502],[12.8899348,43.0588841],[12.8905683,43.055054],[12.891698,43.0511485],[12.8916437,43.0498494],[12.8917693,43.0490708],[12.8921347,43.0477168],[12.8930548,43.046308],[12.8939896,43.0451732],[12.8955647,43.0446828],[12.8969406,43.0435915],[12.8973789,43.043347],[12.8975352,43.0444941],[12.8981019,43.0440966],[12.9001188,43.0422271],[12.9012425,43.0409237],[12.9038683,43.0387812],[12.9046061,43.0380223],[12.9051273,43.0371581],[12.905897,43.0361909],[12.906709,43.0353934],[12.9047165,43.0333412],[12.9043726,43.0326236],[12.904094,43.0314672],[12.9040302,43.0308076],[12.9046188,43.0301167],[12.9051981,43.0296783],[12.9041873,43.0294517],[12.9037754,43.0281828],[12.9037894,43.0277861],[12.9033668,43.0272199],[12.9033264,43.0269511],[12.9033852,43.026688],[12.9035508,43.0264753],[12.9036676,43.0259581],[12.9034892,43.0250818],[12.9036106,43.0247221],[12.904046,43.0238473],[12.9050371,43.0232102],[12.9051779,43.0230118],[12.9055807,43.0209678],[12.9055232,43.0200919],[12.9052911,43.0200773],[12.904719,43.020277],[12.9036335,43.0208227],[12.9021006,43.0218475],[12.9014911,43.022449],[12.900251,43.0232116],[12.8995768,43.0235137],[12.8977033,43.0248292],[12.8972559,43.0239846],[12.8947729,43.0211926],[12.8926838,43.0183872],[12.8921398,43.0177754],[12.8917634,43.0169779],[12.8915071,43.0158837],[12.8908102,43.0139762],[12.8900538,43.0131826],[12.8891004,43.0127064],[12.8885394,43.0122258],[12.8881754,43.0114098],[12.8879665,43.0106832],[12.8880066,43.0095158],[12.8887563,43.0080318],[12.8893004,43.0072254],[12.8904624,43.0058489],[12.8917794,43.0050567],[12.8933648,43.003157],[12.8935915,43.0026135],[12.8937483,43.0016133],[12.8938838,43.0012215],[12.8939009,43.0007168],[12.896264,42.9983763],[12.8972462,42.997609],[12.8975895,42.9972192],[12.8980915,42.996914],[12.8986631,42.9967459],[12.899236,42.9964472],[12.8995484,42.9959684],[12.899963,42.9949503],[12.9008803,42.9932264],[12.9010878,42.9921884],[12.9013929,42.9914802],[12.9017828,42.9908591],[12.9023036,42.9903192],[12.9042209,42.9891372],[12.9073203,42.9867084],[12.9079232,42.985972],[12.9082279,42.9853133],[12.9081668,42.9848697],[12.9073139,42.9832602],[12.9070946,42.9829076],[12.9061323,42.9819411],[12.9058503,42.9808838],[12.9058799,42.9793252],[12.9033114,42.9776392],[12.9024921,42.9772215],[12.901351,42.9764952],[12.9004648,42.9758502],[12.8993553,42.974605],[12.8985563,42.9735564],[12.8980963,42.9726807],[12.8975472,42.9711778],[12.8964989,42.9673781],[12.8958221,42.964592],[12.8966047,42.9639126],[12.8979203,42.963458],[12.9007584,42.9621998],[12.9023065,42.9613771],[12.9037227,42.9605049],[12.9078055,42.9590284],[12.9107059,42.9577317],[12.9117208,42.9570577],[12.9158457,42.9536391],[12.9162186,42.9534913],[12.9166712,42.9535253],[12.9169975,42.9536942],[12.9179516,42.9551876],[12.9184329,42.9554502],[12.9188117,42.9554732],[12.9202384,42.9553568],[12.9207079,42.9552281],[12.921411,42.9547673],[12.9225064,42.9538564],[12.9244958,42.9545534],[12.9249838,42.9546132],[12.9259896,42.9545156],[12.9264006,42.9543889],[12.9271699,42.9540969],[12.9279192,42.9536885],[12.9293625,42.9526845],[12.9304856,42.9513629],[12.9309865,42.9507064],[12.9322917,42.9483071],[12.9343015,42.9457529],[12.9347784,42.9454529],[12.9355726,42.9451149],[12.9371425,42.9447682],[12.9390146,42.9444696],[12.9394448,42.9444413],[12.9419558,42.9448454],[12.9423659,42.9443226],[12.9423869,42.9436916],[12.9423095,42.9434467],[12.942159,42.9431998],[12.9419899,42.9430885],[12.9409607,42.9427099],[12.9409005,42.9425022],[12.940963,42.9422596],[12.9423744,42.9418733],[12.9442967,42.9415459],[12.9461254,42.9414512],[12.9480524,42.9414702],[12.9455931,42.9392536],[12.9459286,42.939098],[12.9470089,42.9393983],[12.9476739,42.9393168],[12.948206,42.9391589],[12.9492771,42.9386627],[12.9499321,42.9381269],[12.9500449,42.9380104],[12.9501359,42.9375346],[12.950019,42.9355173],[12.9500646,42.9352727],[12.9501687,42.9350215],[12.9503328,42.9348987],[12.9511783,42.9345274],[12.951439,42.9341087],[12.951433,42.9338658],[12.9508567,42.9335121],[12.9501442,42.9328254],[12.9500006,42.9323532],[12.9500066,42.9318128],[12.9498861,42.9313713],[12.9493368,42.9299576],[12.9464297,42.9280524],[12.9382691,42.9233144],[12.935648,42.9228915],[12.9345056,42.9229759],[12.9285227,42.9223669],[12.9277102,42.9235922],[12.9269178,42.9256408],[12.9180043,42.9279635],[12.916463,42.9289797],[12.9178885,42.9303129],[12.9162637,42.9308953],[12.9142409,42.932],[12.9138064,42.9318033],[12.9133519,42.9311211],[12.9130634,42.9309554],[12.9083609,42.9290499],[12.9052852,42.9279666],[12.9029379,42.9274661],[12.9015708,42.9273056],[12.8996534,42.9267363],[12.8962936,42.9264502],[12.8869722,42.9249174],[12.8811623,42.9231835],[12.8793124,42.9231833],[12.8774411,42.9248674],[12.8763517,42.9262729],[12.8746812,42.9292557],[12.8727254,42.9308662],[12.8723154,42.9310331],[12.8689507,42.9308769],[12.8684199,42.9306428],[12.8681306,42.9319176],[12.8675553,42.9322567],[12.8656294,42.9319527],[12.8654639,42.9317692],[12.8654594,42.9315623],[12.8648368,42.9311467],[12.86367,42.9322756],[12.8634216,42.9327116],[12.8633051,42.9332603],[12.86119,42.9334713],[12.8593979,42.9339235],[12.856995,42.9342837],[12.8558261,42.9344267],[12.8533966,42.9345221],[12.8519176,42.9351077],[12.8515272,42.935418],[12.8509659,42.9360446],[12.8504299,42.9348922],[12.8501022,42.9344531],[12.8498035,42.9349313],[12.8494319,42.9346828],[12.8490208,42.9348812],[12.8482247,42.9348764],[12.847896,42.9344554],[12.8471779,42.9339573],[12.8467888,42.9338579],[12.8464947,42.9338813],[12.8459199,42.9341932],[12.8451703,42.9338898],[12.8447425,42.9338817],[12.8438673,42.9343523],[12.8436113,42.9343114],[12.8433706,42.9341979],[12.8433034,42.9340291],[12.8435185,42.9334727],[12.8430276,42.933129],[12.8424819,42.9333184],[12.8412326,42.9333019],[12.8409452,42.9334601],[12.8405137,42.9338843],[12.8400106,42.9339102],[12.8395617,42.9337857],[12.8366576,42.9320105],[12.834587,42.9306214],[12.8332849,42.92931],[12.8327096,42.9289376],[12.8284145,42.9287664],[12.8271104,42.9282969],[12.8268405,42.9271805],[12.8246637,42.9270733],[12.8236677,42.9257785],[12.8224787,42.925089],[12.8223493,42.9245711],[12.8217711,42.9236046],[12.8213864,42.9234013],[12.8198501,42.9231736],[12.8193342,42.9232268],[12.818071,42.9235887],[12.8172455,42.9233776],[12.81638,42.9232625],[12.8149858,42.9231785],[12.8113952,42.9231992],[12.8088094,42.9266618],[12.8069327,42.9332835],[12.8064538,42.9336505],[12.8058132,42.9337574],[12.8053773,42.9336054],[12.8046273,42.9329686],[12.8037219,42.93258],[12.8006786,42.9316863],[12.7989822,42.9314726],[12.7969322,42.9315858],[12.7965539,42.9315353],[12.7961715,42.9312824],[12.7949597,42.929846],[12.7942141,42.9287678],[12.7936639,42.9283989],[12.7932417,42.9278592],[12.7928515,42.9268052],[12.7923199,42.9258685],[12.7922639,42.9253931],[12.7929165,42.9246107],[12.7928529,42.923987],[12.7925509,42.9235333],[12.7921682,42.9232624],[12.7919013,42.9228436],[12.7913372,42.9211516],[12.7907283,42.9206991],[12.7883366,42.919743],[12.7867639,42.9195295],[12.7864306,42.9192524],[12.7864533,42.9186349],[12.7862745,42.9184787],[12.7853787,42.9181798],[12.7847303,42.9178186],[12.7841963,42.9173636],[12.7834766,42.9169012],[12.7828658,42.9168539],[12.7824334,42.9169447],[12.7818381,42.9168249],[12.7816029,42.9168732],[12.7814511,42.9173689],[12.7786057,42.9201551],[12.7782212,42.9203029],[12.7722578,42.9215892],[12.7696198,42.9223515],[12.7687453,42.9224749],[12.7679546,42.9223164],[12.766903,42.922261],[12.7652272,42.9225053],[12.7641731,42.9218558],[12.7628227,42.9215851],[12.7616494,42.9208269],[12.7609658,42.9194088],[12.760598,42.9190652],[12.7590112,42.9189193],[12.7583842,42.9189715],[12.7575402,42.918603],[12.7568959,42.9187863],[12.7559935,42.9186899],[12.7550374,42.9183657],[12.7531536,42.9179323],[12.7524064,42.9173671],[12.7504362,42.91686],[12.7497403,42.9167838],[12.7485017,42.9171531],[12.746522,42.9170064],[12.7448072,42.9173642],[12.7432044,42.9172951],[12.7425345,42.917182],[12.7422915,42.9167983],[12.7426263,42.9163462],[12.7432612,42.9160598],[12.7436647,42.9157449],[12.7438251,42.9150554],[12.7433854,42.914345],[12.7428194,42.9137468],[12.7433461,42.9134054],[12.7431218,42.9131786],[12.7425305,42.9132745],[12.7421984,42.9129613],[12.7423774,42.9127573],[12.7422773,42.912495],[12.7411575,42.9126262],[12.7407318,42.9125366],[12.7409845,42.9123347],[12.7405828,42.9122623],[12.7397777,42.9128244],[12.7377615,42.9120079],[12.7350165,42.9117105],[12.7313505,42.9106643],[12.7278156,42.9099737],[12.7251266,42.9084812],[12.7242889,42.9082744],[12.7242397,42.9076233],[12.7187304,42.9068752],[12.7104199,42.905358],[12.7057279,42.9047268],[12.7053027,42.904313],[12.7051528,42.9040477],[12.7033895,42.9053428],[12.7021082,42.9060731],[12.6968377,42.9076078],[12.6969459,42.9079959],[12.6881114,42.9117612],[12.6873729,42.9101374],[12.679969,42.9115734],[12.6735237,42.9132213],[12.668321,42.914748],[12.6650689,42.9155636],[12.6634536,42.9161601],[12.6620166,42.9165618],[12.6603014,42.9173595],[12.6534408,42.9194878],[12.6491471,42.9212276],[12.6479854,42.9219802],[12.6473838,42.9224859],[12.6452645,42.9237735],[12.639577,42.9279884],[12.6361286,42.9306912],[12.6346581,42.931976],[12.6335817,42.9370298],[12.6356094,42.9368798],[12.6351413,42.937503],[12.6338212,42.9388953],[12.6309102,42.942239],[12.6305237,42.9436506],[12.6297023,42.9453012],[12.6276275,42.9465976],[12.6254309,42.947819],[12.6247669,42.9483433],[12.6240791,42.9492144],[12.6235623,42.9510392],[12.623024,42.9520736],[12.6217902,42.9533645],[12.620954,42.9537745],[12.6194091,42.9550513],[12.6177881,42.9561471],[12.6158594,42.956874],[12.6149073,42.9573197],[12.614693,42.9574908],[12.6137119,42.9593363],[12.6126027,42.9604653],[12.6118909,42.9614062],[12.6117807,42.9620354],[12.611832,42.9629252],[12.6115981,42.9642201]]]},"properties":{"type":"boundary","gemeente":"Foligno"}}]}