{"type":"FeatureCollection","metadata":{"gemeente":"Fontanigorda","slug":"fontanigorda","generated_at":"2026-09-26T14:27:19.830131Z","total_points":1,"providers":["PosteItaliane"],"bounds":[9.3042359,44.54600497,9.3042359,44.54600497]},"features":[{"type":"Feature","geometry":{"type":"Point","coordinates":[9.3042359,44.54600497]},"properties":{"type":"pakketpunt","locatieNaam":"Fontanigorda","straatNaam":"Via Guglielmo Marconi","straatNr":"15","vervoerder":"PosteItaliane","puntType":"postkantoor","bezettingsgraad":50,"latitude":44.54600497,"longitude":9.3042359,"canPickup":true,"canDropoff":true,"openingstijden":{"za":"08:20 - 12:45","zo":"gesloten","ma":"gesloten","di":"08:20 - 13:45","wo":"gesloten","do":"08:20 - 13:45","vr":"gesloten"}}},{"type":"Feature","geometry":{"type":"Polygon","coordinates":[[[9.2573507,44.5431993],[9.2592091,44.5428485],[9.2599998,44.5423246],[9.2607019,44.5416838],[9.2608753,44.5410622],[9.2607817,44.5398291],[9.2609163,44.5389555],[9.2608475,44.5376593],[9.2610577,44.5368126],[9.2610189,44.5365696],[9.2612294,44.5358039],[9.2613392,44.5350114],[9.2618262,44.5341551],[9.2617117,44.5338853],[9.2605784,44.5337618],[9.2591315,44.5338821],[9.257975,44.5338487],[9.2561725,44.5335827],[9.2553153,44.5332876],[9.2547238,44.5329288],[9.2547713,44.5322715],[9.2550082,44.5317668],[9.2557232,44.5312161],[9.2575967,44.5308337],[9.2594827,44.5307664],[9.2601864,44.5305128],[9.260511,44.5299269],[9.2607078,44.5289181],[9.2609575,44.5284584],[9.2642472,44.5267944],[9.2651496,44.525964],[9.2654741,44.5253781],[9.2660001,44.5248187],[9.2664372,44.5240975],[9.2668003,44.5236825],[9.26734,44.5233842],[9.268345,44.5230037],[9.2704302,44.5225307],[9.2711453,44.5220698],[9.2725514,44.5213643],[9.2736665,44.5203353],[9.2741157,44.519533],[9.2743789,44.5192983],[9.2747305,44.5191444],[9.2752711,44.5190531],[9.2768956,44.5193373],[9.2772098,44.5192465],[9.2784881,44.518154],[9.2800311,44.517178],[9.2813994,44.5165264],[9.2819361,44.5159489],[9.2828031,44.5153796],[9.2839359,44.5154578],[9.2865248,44.5151723],[9.2871164,44.5152068],[9.2891138,44.5145716],[9.2913632,44.5140077],[9.2943298,44.5137841],[9.2968719,44.5139035],[9.2987982,44.5141416],[9.3036783,44.5138271],[9.3049337,44.5135987],[9.3056276,44.5136509],[9.3068103,44.5139538],[9.307821,44.5144372],[9.309434,44.514919],[9.3115109,44.5153815],[9.3154656,44.5160908],[9.317858,44.5167144],[9.3188434,44.5171528],[9.3231105,44.5177169],[9.3266068,44.5196696],[9.3278643,44.5223352],[9.3278647,44.5212819],[9.3288438,44.5222559],[9.3290239,44.5229576],[9.3289794,44.5242631],[9.3290828,44.5247579],[9.3293879,44.5252972],[9.3294292,44.5259363],[9.3286994,44.528189],[9.3287769,44.5285309],[9.3290047,44.5287643],[9.3302044,44.5294901],[9.3323479,44.5304786],[9.3335478,44.5309433],[9.3339835,44.5313443],[9.3338902,44.5316805],[9.3337399,44.531798],[9.3321665,44.5314965],[9.330303,44.5313488],[9.3278645,44.5319095],[9.3278653,44.53204],[9.3262621,44.5323192],[9.3242141,44.5329462],[9.3229187,44.5331119],[9.3220392,44.5333935],[9.321464,44.5340793],[9.3212522,44.534467],[9.3207369,44.5368992],[9.318566,44.5381026],[9.3148495,44.5398324],[9.3144113,44.5402657],[9.3140504,44.5410409],[9.3137814,44.54223],[9.3132067,44.5430238],[9.3133702,44.5433024],[9.3139147,44.543607],[9.3141794,44.5439574],[9.3142128,44.5475313],[9.3140266,44.548036],[9.3134124,44.5485328],[9.3122456,44.5492832],[9.3119171,44.5493472],[9.3099928,44.5494064],[9.3088985,44.5495894],[9.3083069,44.549609],[9.3066972,44.5499465],[9.3056786,44.5498682],[9.3048464,44.5499244],[9.3018527,44.5504455],[9.3012124,44.5504742],[9.2980753,44.5500323],[9.2969431,44.5501973],[9.2962256,44.5502352],[9.295621,44.5501737],[9.2951147,44.5496349],[9.2945605,44.5495733],[9.2940431,44.5493406],[9.2929441,44.5485872],[9.2920334,44.5477523],[9.291832,44.5474287],[9.2918035,44.5470867],[9.2922809,44.5465723],[9.2927685,44.5462109],[9.2927547,44.5459769],[9.2922312,44.5444928],[9.2915088,44.5435224],[9.2908911,44.5433529],[9.2890919,44.5432134],[9.2877942,44.5429826],[9.2867718,44.5424361],[9.285786,44.5416148],[9.2852696,44.5415711],[9.2841976,44.5411416],[9.2831357,44.540208],[9.2823332,44.5408582],[9.2814037,44.5412746],[9.2797121,44.5425481],[9.2794116,44.5428999],[9.2793752,44.5431701],[9.2794899,44.5438],[9.2793399,44.5440254],[9.2790765,44.5442151],[9.2779851,44.5446859],[9.277659,44.5449298],[9.2773591,44.5453986],[9.277171,44.5455522],[9.2761125,44.5453477],[9.2752948,44.5454577],[9.275031,44.5455843],[9.2749442,44.5458546],[9.274985,44.5464937],[9.274797,44.5466742],[9.2744202,44.5468642],[9.2733635,44.5470287],[9.2730368,44.5471646],[9.2729119,44.5473809],[9.272938,44.5475609],[9.2733555,44.548001],[9.2734192,44.5481809],[9.2733828,44.5484601],[9.2729804,44.5485601],[9.2719103,44.5485627],[9.2708386,44.5479154],[9.2710883,44.5477724],[9.2708344,44.5473048],[9.2707319,44.546918],[9.2707678,44.5465218],[9.2703252,44.5460817],[9.2691652,44.5456883],[9.2681463,44.5455107],[9.2668228,44.5455048],[9.2656657,44.5453724],[9.2644807,44.5450061],[9.2631673,44.5440908],[9.2614655,44.5435546],[9.2604242,44.5434715],[9.2596044,44.543991],[9.258573,44.5441914],[9.2578411,44.5437789],[9.2573507,44.5431993]]]},"properties":{"type":"boundary","gemeente":"Fontanigorda"}}]}