{"type":"FeatureCollection","metadata":{"gemeente":"Fontechiari","slug":"fontechiari","generated_at":"2026-09-26T14:27:19.889150Z","total_points":4,"providers":["PosteItaliane","DHL","Amazon"],"bounds":[13.6755,41.6698,13.67588,41.670071]},"features":[{"type":"Feature","geometry":{"type":"Point","coordinates":[13.67557114,41.66986097]},"properties":{"type":"pakketpunt","locatieNaam":"Fontechiari","straatNaam":"Via Regina Margherita","straatNr":"2","vervoerder":"PosteItaliane","puntType":"postkantoor","bezettingsgraad":50,"latitude":41.66986097,"longitude":13.67557114,"canPickup":true,"canDropoff":true,"openingstijden":{"za":"08:20 - 12:45","zo":"gesloten","ma":"08:20 - 13:45","di":"08:20 - 13:45","wo":"08:20 - 13:45","do":"08:20 - 13:45","vr":"08:20 - 13:45"}}},{"type":"Feature","geometry":{"type":"Point","coordinates":[13.675571,41.669861]},"properties":{"type":"pakketpunt","locatieNaam":"Ufficio Postale FONTECHIARI","straatNaam":"VIA REGINA MARGHERITA 2","straatNr":"","vervoerder":"DHL","puntType":"postOffice","bezettingsgraad":50,"latitude":41.669861,"longitude":13.675571,"canPickup":true,"canDropoff":true,"openingstijden":{"ma":"08:20 - 13:45","di":"08:20 - 13:45","wo":"08:20 - 13:45","do":"08:20 - 13:45","vr":"08:20 - 13:45","za":"08:20 - 12:45","zo":"gesloten"}}},{"type":"Feature","geometry":{"type":"Point","coordinates":[13.67588,41.670071]},"properties":{"type":"pakketpunt","locatieNaam":"Amazon Counter - Caffè Marconi ","straatNaam":"Piazza Guglielmo Marconi","straatNr":"","vervoerder":"Amazon","puntType":"helix","bezettingsgraad":50,"latitude":41.670071,"longitude":13.67588,"canPickup":true,"canDropoff":false,"openingstijden":null}},{"type":"Feature","geometry":{"type":"Point","coordinates":[13.6755,41.6698]},"properties":{"type":"pakketpunt","locatieNaam":"Ufficio Postale FONTECHIARI","straatNaam":"VIA REGINA MARGHERITA 2","straatNr":"","vervoerder":"Amazon","puntType":"3p","bezettingsgraad":50,"latitude":41.6698,"longitude":13.6755,"canPickup":true,"canDropoff":false,"openingstijden":null}},{"type":"Feature","geometry":{"type":"Polygon","coordinates":[[[13.6344927,41.6845374],[13.6337797,41.6835263],[13.6329541,41.6828708],[13.6308976,41.680712],[13.6301254,41.6797123],[13.6297374,41.6793273],[13.6293395,41.6788031],[13.6293102,41.6785464],[13.6295433,41.6782637],[13.6299691,41.6780169],[13.6313408,41.6768],[13.6323561,41.6764304],[13.6343489,41.6753549],[13.6367899,41.6741983],[13.637388,41.6737285],[13.6378984,41.6734467],[13.6399829,41.6726151],[13.6417801,41.671579],[13.6429274,41.6708033],[13.6453409,41.6679684],[13.6457744,41.6673701],[13.6467086,41.6657746],[13.6477965,41.6643035],[13.6490313,41.663236],[13.6497693,41.6624183],[13.6504911,41.6618128],[13.6510847,41.6610009],[13.652471,41.6596121],[13.6528843,41.6593703],[13.6554397,41.6588344],[13.657944,41.6580169],[13.6598943,41.6572399],[13.6601617,41.6570985],[13.6619052,41.6552449],[13.6626741,41.6546509],[13.6654975,41.6527624],[13.6678303,41.6521002],[13.6685318,41.6512703],[13.6689184,41.6511375],[13.6700003,41.6517192],[13.6704767,41.6518214],[13.6715867,41.6510694],[13.6725689,41.6505837],[13.6736043,41.6498483],[13.6741511,41.6495874],[13.6758308,41.6490462],[13.6771075,41.6488366],[13.6775409,41.6488234],[13.6794438,41.6491149],[13.6821317,41.6491628],[13.682644,41.6499882],[13.6835242,41.6510552],[13.6839505,41.6519247],[13.6852958,41.6518652],[13.6860698,41.6521892],[13.6862923,41.6524637],[13.6866787,41.6541992],[13.6867483,41.6548266],[13.6870775,41.6557945],[13.6880188,41.6573272],[13.6888396,41.658338],[13.6901651,41.6592922],[13.6912897,41.659773],[13.6915914,41.6599902],[13.691565,41.6608136],[13.6916778,41.6616838],[13.691856,41.6623698],[13.6923025,41.6635023],[13.6920688,41.6655908],[13.6921579,41.6664361],[13.6924578,41.6673602],[13.6924033,41.6680242],[13.6922904,41.6682674],[13.691395,41.6692044],[13.6902598,41.6706329],[13.6896884,41.6715881],[13.6884823,41.673033],[13.6880285,41.6734702],[13.6869624,41.6751074],[13.6853245,41.6770876],[13.6850417,41.6773063],[13.6843674,41.6780766],[13.6827113,41.6791482],[13.6822991,41.6793225],[13.681082,41.6800925],[13.6807189,41.6802289],[13.6800121,41.6806989],[13.6791538,41.6821115],[13.677779,41.6835857],[13.6765756,41.684247],[13.6757959,41.6847875],[13.6754756,41.6851427],[13.6751983,41.6857797],[13.6746573,41.686342],[13.6746041,41.687213],[13.674373,41.6878662],[13.6745518,41.6885612],[13.6743886,41.6889505],[13.6740216,41.689159],[13.6739343,41.6893742],[13.6735695,41.6896232],[13.6730742,41.6896974],[13.6729386,41.6905087],[13.6725026,41.690657],[13.6720233,41.6905685],[13.6716328,41.6909086],[13.6714272,41.6920289],[13.6710783,41.6920521],[13.6708004,41.692185],[13.6709691,41.6927003],[13.6706528,41.6929248],[13.6706475,41.6931726],[13.6704017,41.6934797],[13.6697788,41.6939283],[13.6695466,41.694712],[13.669236,41.6951928],[13.6669142,41.6973537],[13.6635343,41.6971806],[13.6624728,41.6968726],[13.6621119,41.6968963],[13.6616866,41.6970982],[13.6610494,41.6976103],[13.6602144,41.6979638],[13.6596615,41.6979368],[13.6588866,41.6976576],[13.6580845,41.6975507],[13.6571339,41.6976118],[13.6566998,41.6977387],[13.6560143,41.698265],[13.6556262,41.6984113],[13.6552781,41.6984254],[13.6549359,41.6980432],[13.6545327,41.6978254],[13.6533591,41.697648],[13.6528828,41.6979464],[13.6526363,41.6983076],[13.6523339,41.6983919],[13.6514563,41.6978332],[13.6510267,41.6976751],[13.6495042,41.6963683],[13.6492244,41.6959339],[13.6487533,41.6949086],[13.6486477,41.6942061],[13.6489195,41.6921558],[13.6488551,41.6911905],[13.6487522,41.69092],[13.6471679,41.6888459],[13.6458073,41.6874785],[13.6452752,41.6870948],[13.6433244,41.6861924],[13.6413467,41.6859799],[13.6405347,41.6856616],[13.6396227,41.6850368],[13.6391881,41.6851939],[13.6382014,41.6852923],[13.6375546,41.6851294],[13.6370128,41.6846741],[13.63651,41.6845504],[13.6350368,41.6843894],[13.6344927,41.6845374]]]},"properties":{"type":"boundary","gemeente":"Fontechiari"}}]}