{"type":"FeatureCollection","metadata":{"gemeente":"Forlimpopoli","slug":"forlimpopoli","generated_at":"2026-09-26T14:27:20.123178Z","total_points":36,"providers":["PosteItaliane","DPD","InPost","GLS","DHL","Amazon","FedEx"],"bounds":[12.1189,44.1828,12.13482,44.19072]},"features":[{"type":"Feature","geometry":{"type":"Point","coordinates":[12.12570058,44.18681338]},"properties":{"type":"pakketpunt","locatieNaam":"Forlimpopoli","straatNaam":"Largo Paolucci De' Calboli","straatNr":"5","vervoerder":"PosteItaliane","puntType":"postkantoor","bezettingsgraad":50,"latitude":44.18681338,"longitude":12.12570058,"canPickup":true,"canDropoff":true,"openingstijden":{"za":"08:20 - 12:35","zo":"gesloten","ma":"08:20 - 19:05","di":"08:20 - 19:05","wo":"08:20 - 19:05","do":"08:20 - 19:05","vr":"08:20 - 19:05"}}},{"type":"Feature","geometry":{"type":"Point","coordinates":[12.12705561,44.18636462]},"properties":{"type":"pakketpunt","locatieNaam":"Telefonia Zerouno","straatNaam":"Via Del Castello","straatNr":"17","vervoerder":"PosteItaliane","puntType":"servicepunt","bezettingsgraad":50,"latitude":44.18636462,"longitude":12.12705561,"canPickup":true,"canDropoff":true,"openingstijden":{"za":"09:00 - 12:00, 15:30 - 19:00","zo":"gesloten","ma":"08:00 - 11:30, 13:30 - 19:00","di":"08:00 - 11:30, 13:30 - 19:00","wo":"08:00 - 11:30, 13:30 - 19:00","do":"08:00 - 11:30, 13:30 - 19:00","vr":"08:00 - 11:30, 13:30 - 19:00"}}},{"type":"Feature","geometry":{"type":"Point","coordinates":[12.12077604,44.18948579]},"properties":{"type":"pakketpunt","locatieNaam":"Gallerie Bennet","straatNaam":"Via Venticinque Ottobre","straatNr":"2","vervoerder":"PosteItaliane","puntType":"automaat","bezettingsgraad":50,"latitude":44.18948579,"longitude":12.12077604,"canPickup":true,"canDropoff":true,"openingstijden":{"za":"09:00 - 20:00","zo":"09:00 - 20:00","ma":"09:00 - 20:00","di":"09:00 - 20:00","wo":"09:00 - 20:00","do":"09:00 - 20:00","vr":"09:00 - 20:00"}}},{"type":"Feature","geometry":{"type":"Point","coordinates":[12.12861074,44.18755109]},"properties":{"type":"pakketpunt","locatieNaam":"Romagna Elettronica","straatNaam":"Via Duca D'aosta","straatNr":"80/a","vervoerder":"PosteItaliane","puntType":"servicepunt","bezettingsgraad":50,"latitude":44.18755109,"longitude":12.12861074,"canPickup":true,"canDropoff":true,"openingstijden":{"za":"08:30 - 12:00, 16:00 - 18:00","zo":"gesloten","ma":"08:30 - 12:00, 15:30 - 19:00","di":"08:30 - 12:00, 15:30 - 19:00","wo":"08:30 - 12:00, 15:30 - 19:00","do":"08:30 - 12:00, 15:30 - 19:00","vr":"08:30 - 12:00, 15:30 - 19:00"}}},{"type":"Feature","geometry":{"type":"Point","coordinates":[12.12570058,44.18681338]},"properties":{"type":"pakketpunt","locatieNaam":"Ufficio Postale Forlimpopoli","straatNaam":"Largo Paolucci De' Calboli","straatNr":"5","vervoerder":"PosteItaliane","puntType":"automaat","bezettingsgraad":50,"latitude":44.18681338,"longitude":12.12570058,"canPickup":true,"canDropoff":true,"openingstijden":{"za":"00:01 - 23:59","zo":"00:01 - 23:59","ma":"00:01 - 23:59","di":"00:01 - 23:59","wo":"00:01 - 23:59","do":"00:01 - 23:59","vr":"00:01 - 23:59"}}},{"type":"Feature","geometry":{"type":"Point","coordinates":[12.11893002,44.18632441]},"properties":{"type":"pakketpunt","locatieNaam":"Tabaccheria N. 9","straatNaam":"Via Giardino","straatNr":"3","vervoerder":"PosteItaliane","puntType":"servicepunt","bezettingsgraad":50,"latitude":44.18632441,"longitude":12.11893002,"canPickup":true,"canDropoff":true,"openingstijden":{"za":"07:00 - 12:30, 15:00 - 19:30","zo":"gesloten","ma":"07:00 - 12:30, 15:00 - 19:30","di":"07:00 - 12:30, 15:00 - 19:30","wo":"07:00 - 12:30, 15:00 - 19:30","do":"07:00 - 12:30, 15:00 - 19:30","vr":"07:00 - 12:30, 15:00 - 19:30"}}},{"type":"Feature","geometry":{"type":"Point","coordinates":[12.13480992,44.1828776]},"properties":{"type":"pakketpunt","locatieNaam":"Tabaccheria N. 6","straatNaam":"Via Emilia Per Cesena","straatNr":"150","vervoerder":"PosteItaliane","puntType":"servicepunt","bezettingsgraad":50,"latitude":44.1828776,"longitude":12.13480992,"canPickup":true,"canDropoff":true,"openingstijden":{"za":"07:30 - 13:00, 14:30 - 19:30","zo":"gesloten","ma":"07:30 - 13:00, 14:30 - 19:30","di":"07:30 - 13:00, 14:30 - 19:30","wo":"07:30 - 13:00, 14:30 - 19:30","do":"07:30 - 13:00, 14:30 - 19:30","vr":"07:30 - 13:00, 14:30 - 19:30"}}},{"type":"Feature","geometry":{"type":"Point","coordinates":[12.12444021,44.18816815]},"properties":{"type":"pakketpunt","locatieNaam":"Tabaccheria N. 3","straatNaam":"Via Aurelio Saffi","straatNr":"56","vervoerder":"PosteItaliane","puntType":"servicepunt","bezettingsgraad":50,"latitude":44.18816815,"longitude":12.12444021,"canPickup":true,"canDropoff":true,"openingstijden":{"za":"08:00 - 13:00, 15:00 - 20:00","zo":"gesloten","ma":"08:00 - 13:00, 15:00 - 20:00","di":"08:00 - 13:00, 15:00 - 20:00","wo":"08:00 - 13:00, 15:00 - 20:00","do":"08:00 - 13:00, 15:00 - 20:00","vr":"08:00 - 13:00, 15:00 - 20:00"}}},{"type":"Feature","geometry":{"type":"Point","coordinates":[12.13118796,44.18455175]},"properties":{"type":"pakketpunt","locatieNaam":"Nkd-Forlimpopoli","straatNaam":"VIA G. MATTEOTTI","straatNr":"37","vervoerder":"DPD","puntType":"pickup_point","bezettingsgraad":50,"latitude":44.18455175,"longitude":12.13118796,"canPickup":true,"canDropoff":true,"openingstijden":{"ma":"09:00 - 13:00, 16:00 - 20:00","di":"09:00 - 13:00, 16:00 - 20:00","wo":"09:00 - 13:00, 16:00 - 20:00","do":"09:00 - 13:00, 16:00 - 20:00","vr":"09:00 - 13:00, 16:00 - 20:00","za":"09:00 - 13:00, 16:00 - 20:00","zo":"gesloten"}}},{"type":"Feature","geometry":{"type":"Point","coordinates":[12.1270061,44.1864241]},"properties":{"type":"pakketpunt","locatieNaam":"Telefonia e Spedizioni","straatNaam":"VIA DEL CASTELLO","straatNr":"17","vervoerder":"DPD","puntType":"pickup_point","bezettingsgraad":50,"latitude":44.1864241,"longitude":12.1270061,"canPickup":true,"canDropoff":true,"openingstijden":{"ma":"08:30 - 11:30, 13:30 - 19:00","di":"08:30 - 11:30, 13:30 - 19:00","wo":"08:30 - 11:30, 13:30 - 19:00","do":"08:30 - 11:30, 13:30 - 19:00","vr":"08:30 - 11:30, 13:30 - 19:00","za":"09:00 - 13:00, 15:30 - 19:00","zo":"gesloten"}}},{"type":"Feature","geometry":{"type":"Point","coordinates":[12.13482,44.18281]},"properties":{"type":"pakketpunt","locatieNaam":"InPost Point","straatNaam":"Via Emilia per Cesena","straatNr":"154","vervoerder":"InPost","puntType":"servicepunt","bezettingsgraad":50,"latitude":44.18281,"longitude":12.13482,"canPickup":true,"canDropoff":true,"openingstijden":"Lun-Sab: 07:30 - 12:30 - 14:30 - 19:30"}},{"type":"Feature","geometry":{"type":"Point","coordinates":[12.11947,44.19072]},"properties":{"type":"pakketpunt","locatieNaam":"Bennet","straatNaam":"Via XXV Ottobre","straatNr":"2","vervoerder":"InPost","puntType":"automaat","bezettingsgraad":50,"latitude":44.19072,"longitude":12.11947,"canPickup":true,"canDropoff":true,"openingstijden":null}},{"type":"Feature","geometry":{"type":"Point","coordinates":[12.12694,44.1866]},"properties":{"type":"pakketpunt","locatieNaam":"InPost Locker","straatNaam":"Via del Castello","straatNr":"17","vervoerder":"InPost","puntType":"automaat","bezettingsgraad":50,"latitude":44.1866,"longitude":12.12694,"canPickup":true,"canDropoff":true,"openingstijden":null}},{"type":"Feature","geometry":{"type":"Point","coordinates":[12.1270061,44.1864241]},"properties":{"type":"pakketpunt","locatieNaam":"telefonia","straatNaam":"Via Del Castello","straatNr":"17","vervoerder":"GLS","puntType":"parcel_shop","bezettingsgraad":50,"latitude":44.1864241,"longitude":12.1270061,"canPickup":true,"canDropoff":true,"openingstijden":"za: 08:30 - 11:30; ma: 08:30 - 11:30, 13:30 - 17:00"}},{"type":"Feature","geometry":{"type":"Point","coordinates":[12.1287796,44.187438]},"properties":{"type":"pakketpunt","locatieNaam":"Romagna Elettronica","straatNaam":"Via Duca D'Aosta","straatNr":"80/A","vervoerder":"GLS","puntType":"parcel_shop","bezettingsgraad":50,"latitude":44.187438,"longitude":12.1287796,"canPickup":true,"canDropoff":true,"openingstijden":"za: 08:30 - 12:00, 16:00 - 18:00; ma: 08:30 - 12:00, 15:30 - 19:00"}},{"type":"Feature","geometry":{"type":"Point","coordinates":[12.11893,44.186324]},"properties":{"type":"pakketpunt","locatieNaam":"TABACCHERIA N. 9","straatNaam":"VIA GIARDINO 3","straatNr":"","vervoerder":"DHL","puntType":"parcelShop","bezettingsgraad":50,"latitude":44.186324,"longitude":12.11893,"canPickup":true,"canDropoff":true,"openingstijden":{"ma":"07:00 - 12:30, 15:00 - 19:30","di":"07:00 - 12:30, 15:00 - 19:30","wo":"07:00 - 12:30, 15:00 - 19:30","do":"07:00 - 12:30, 15:00 - 19:30","vr":"07:00 - 12:30, 15:00 - 19:30","za":"07:00 - 12:30, 15:00 - 19:30","zo":"gesloten"}}},{"type":"Feature","geometry":{"type":"Point","coordinates":[12.120776,44.189486]},"properties":{"type":"pakketpunt","locatieNaam":"GALLERIE BENNET","straatNaam":"VIA VENTICINQUE OTTOBRE 2","straatNr":"","vervoerder":"DHL","puntType":"packStation","bezettingsgraad":50,"latitude":44.189486,"longitude":12.120776,"canPickup":true,"canDropoff":true,"openingstijden":{"ma":"09:00 - 20:00","di":"09:00 - 20:00","wo":"09:00 - 20:00","do":"09:00 - 20:00","vr":"09:00 - 20:00","za":"09:00 - 20:00","zo":"09:00 - 20:00"}}},{"type":"Feature","geometry":{"type":"Point","coordinates":[12.125701,44.186813]},"properties":{"type":"pakketpunt","locatieNaam":"Ufficio Postale FORLIMPOPOLI","straatNaam":"PIAZZALE PAOLUCCI DE CALBOLI 5","straatNr":"","vervoerder":"DHL","puntType":"postOffice","bezettingsgraad":50,"latitude":44.186813,"longitude":12.125701,"canPickup":true,"canDropoff":true,"openingstijden":{"ma":"08:20 - 19:05","di":"08:20 - 19:05","wo":"08:20 - 19:05","do":"08:20 - 19:05","vr":"08:20 - 19:05","za":"08:20 - 12:35","zo":"gesloten"}}},{"type":"Feature","geometry":{"type":"Point","coordinates":[12.125701,44.186813]},"properties":{"type":"pakketpunt","locatieNaam":"UFFICIO POSTALE FORLIMPOPOL","straatNaam":"LARGO PAOLUCCI DE CALBOLI 5","straatNr":"","vervoerder":"DHL","puntType":"packStation","bezettingsgraad":50,"latitude":44.186813,"longitude":12.125701,"canPickup":true,"canDropoff":true,"openingstijden":{"ma":"00:01 - 23:59","di":"00:01 - 23:59","wo":"00:01 - 23:59","do":"00:01 - 23:59","vr":"00:01 - 23:59","za":"00:01 - 23:59","zo":"00:01 - 23:59"}}},{"type":"Feature","geometry":{"type":"Point","coordinates":[12.12444,44.188168]},"properties":{"type":"pakketpunt","locatieNaam":"TABACCHERIA N. 3","straatNaam":"VIA AURELIO SAFFI 56","straatNr":"","vervoerder":"DHL","puntType":"parcelShop","bezettingsgraad":50,"latitude":44.188168,"longitude":12.12444,"canPickup":true,"canDropoff":true,"openingstijden":{"ma":"08:00 - 13:00, 15:00 - 20:00","di":"08:00 - 13:00, 15:00 - 20:00","wo":"08:00 - 13:00, 15:00 - 20:00","do":"08:00 - 13:00, 15:00 - 20:00","vr":"08:00 - 13:00, 15:00 - 20:00","za":"08:00 - 13:00, 15:00 - 20:00","zo":"gesloten"}}},{"type":"Feature","geometry":{"type":"Point","coordinates":[12.127056,44.186365]},"properties":{"type":"pakketpunt","locatieNaam":"TELEFONIA ZEROUNO","straatNaam":"VIA DEL CASTELLO 17","straatNr":"","vervoerder":"DHL","puntType":"parcelShop","bezettingsgraad":50,"latitude":44.186365,"longitude":12.127056,"canPickup":true,"canDropoff":true,"openingstijden":{"ma":"08:00 - 11:30, 13:30 - 19:00","di":"08:00 - 11:30, 13:30 - 19:00","wo":"08:00 - 11:30, 13:30 - 19:00","do":"08:00 - 11:30, 13:30 - 19:00","vr":"08:00 - 11:30, 13:30 - 19:00","za":"09:00 - 12:00, 15:30 - 19:00","zo":"gesloten"}}},{"type":"Feature","geometry":{"type":"Point","coordinates":[12.128611,44.187551]},"properties":{"type":"pakketpunt","locatieNaam":"ROMAGNA ELETTRONICA","straatNaam":"VIA DUCA DAOSTA 80-A","straatNr":"","vervoerder":"DHL","puntType":"parcelShop","bezettingsgraad":50,"latitude":44.187551,"longitude":12.128611,"canPickup":true,"canDropoff":true,"openingstijden":{"ma":"08:30 - 12:00, 15:30 - 19:00","di":"08:30 - 12:00, 15:30 - 19:00","wo":"08:30 - 12:00, 15:30 - 19:00","do":"08:30 - 12:00, 15:30 - 19:00","vr":"08:30 - 12:00, 15:30 - 19:00","za":"08:30 - 12:00, 16:00 - 18:00","zo":"gesloten"}}},{"type":"Feature","geometry":{"type":"Point","coordinates":[12.13481,44.182878]},"properties":{"type":"pakketpunt","locatieNaam":"TABACCHERIA N. 6","straatNaam":"VIA EMILIA PER CESENA 150","straatNr":"","vervoerder":"DHL","puntType":"parcelShop","bezettingsgraad":50,"latitude":44.182878,"longitude":12.13481,"canPickup":true,"canDropoff":true,"openingstijden":{"ma":"07:30 - 13:00, 14:30 - 19:30","di":"07:30 - 13:00, 14:30 - 19:30","wo":"07:30 - 13:00, 14:30 - 19:30","do":"07:30 - 13:00, 14:30 - 19:30","vr":"07:30 - 13:00, 14:30 - 19:30","za":"07:30 - 13:00, 14:30 - 19:30","zo":"gesloten"}}},{"type":"Feature","geometry":{"type":"Point","coordinates":[12.1313255,44.1879016]},"properties":{"type":"pakketpunt","locatieNaam":"Amazon Locker - fatima","straatNaam":"Fermopoint / L'Orchidea Lavanderia Forlimpopoli","straatNr":"","vervoerder":"Amazon","puntType":"locker","bezettingsgraad":50,"latitude":44.1879016,"longitude":12.1313255,"canPickup":true,"canDropoff":false,"openingstijden":null}},{"type":"Feature","geometry":{"type":"Point","coordinates":[12.1194667,44.190704]},"properties":{"type":"pakketpunt","locatieNaam":"Amazon Locker - ampelio","straatNaam":"Centro Commerciale Le Fornaci","straatNr":"","vervoerder":"Amazon","puntType":"locker","bezettingsgraad":50,"latitude":44.190704,"longitude":12.1194667,"canPickup":true,"canDropoff":false,"openingstijden":null}},{"type":"Feature","geometry":{"type":"Point","coordinates":[12.1348,44.1828]},"properties":{"type":"pakketpunt","locatieNaam":"PuntoPoste TABACCHERIA N. 6","straatNaam":"VIA EMILIA PER CESENA 150","straatNr":"","vervoerder":"Amazon","puntType":"3p","bezettingsgraad":50,"latitude":44.1828,"longitude":12.1348,"canPickup":true,"canDropoff":false,"openingstijden":null}},{"type":"Feature","geometry":{"type":"Point","coordinates":[12.12092,44.18391]},"properties":{"type":"pakketpunt","locatieNaam":"Amazon Locker - amalfa","straatNaam":"Superstore Forlimpopoli Ho Chi Min","straatNr":"","vervoerder":"Amazon","puntType":"locker","bezettingsgraad":50,"latitude":44.18391,"longitude":12.12092,"canPickup":true,"canDropoff":false,"openingstijden":null}},{"type":"Feature","geometry":{"type":"Point","coordinates":[12.128638,44.187513]},"properties":{"type":"pakketpunt","locatieNaam":"Amazon Counter","straatNaam":"Romagna Elettronica (fermopoint)","straatNr":"","vervoerder":"Amazon","puntType":"helix","bezettingsgraad":50,"latitude":44.187513,"longitude":12.128638,"canPickup":true,"canDropoff":false,"openingstijden":null}},{"type":"Feature","geometry":{"type":"Point","coordinates":[12.1286,44.1875]},"properties":{"type":"pakketpunt","locatieNaam":"PuntoPoste ROMAGNA ELETTRONICA","straatNaam":"VIA DUCA D'AOSTA 80/A","straatNr":"","vervoerder":"Amazon","puntType":"3p","bezettingsgraad":50,"latitude":44.1875,"longitude":12.1286,"canPickup":true,"canDropoff":false,"openingstijden":null}},{"type":"Feature","geometry":{"type":"Point","coordinates":[12.127067,44.186322]},"properties":{"type":"pakketpunt","locatieNaam":"Amazon Counter (fermopoint)","straatNaam":"Telefonia e Spedizioni","straatNr":"","vervoerder":"Amazon","puntType":"helix","bezettingsgraad":50,"latitude":44.186322,"longitude":12.127067,"canPickup":true,"canDropoff":false,"openingstijden":null}},{"type":"Feature","geometry":{"type":"Point","coordinates":[12.127,44.1863]},"properties":{"type":"pakketpunt","locatieNaam":"PuntoPoste TELEFONIA ZEROUNO","straatNaam":"VIA DEL CASTELLO 17","straatNr":"","vervoerder":"Amazon","puntType":"3p","bezettingsgraad":50,"latitude":44.1863,"longitude":12.127,"canPickup":true,"canDropoff":false,"openingstijden":null}},{"type":"Feature","geometry":{"type":"Point","coordinates":[12.1244,44.1881]},"properties":{"type":"pakketpunt","locatieNaam":"PuntoPoste TABACCHERIA N. 3","straatNaam":"VIA AURELIO SAFFI 56","straatNr":"","vervoerder":"Amazon","puntType":"3p","bezettingsgraad":50,"latitude":44.1881,"longitude":12.1244,"canPickup":true,"canDropoff":false,"openingstijden":null}},{"type":"Feature","geometry":{"type":"Point","coordinates":[12.1189,44.1863]},"properties":{"type":"pakketpunt","locatieNaam":"PuntoPoste TABACCHERIA N. 9","straatNaam":"VIA GIARDINO 3","straatNr":"","vervoerder":"Amazon","puntType":"3p","bezettingsgraad":50,"latitude":44.1863,"longitude":12.1189,"canPickup":true,"canDropoff":false,"openingstijden":null}},{"type":"Feature","geometry":{"type":"Point","coordinates":[12.1257,44.1868]},"properties":{"type":"pakketpunt","locatieNaam":"Ufficio Postale FORLIMPOPOLI","straatNaam":"PIAZZALE PAOLUCCI DE CALBOLI 5","straatNr":"","vervoerder":"Amazon","puntType":"3p","bezettingsgraad":50,"latitude":44.1868,"longitude":12.1257,"canPickup":true,"canDropoff":false,"openingstijden":null}},{"type":"Feature","geometry":{"type":"Point","coordinates":[12.126933811754984,44.18637517098539]},"properties":{"type":"pakketpunt","locatieNaam":"FedEx OnSite","straatNaam":"Via del Castello, 17","straatNr":"","vervoerder":"FedEx","puntType":"servicepunt","bezettingsgraad":50,"latitude":44.18637517098539,"longitude":12.126933811754984,"canPickup":true,"canDropoff":true,"openingstijden":{"ma":"08:30 - 11:30, 13:30 - 17:00","di":"08:30 - 11:30, 13:30 - 17:00","wo":"08:30 - 11:30, 13:30 - 17:00","do":"08:30 - 11:30, 13:30 - 17:00","vr":"08:30 - 11:30, 13:30 - 17:00","za":"08:30 - 11:30","zo":"gesloten"}}},{"type":"Feature","geometry":{"type":"Point","coordinates":[12.12878,44.187438]},"properties":{"type":"pakketpunt","locatieNaam":"FedEx OnSite","straatNaam":"Via Duca D'Aosta, 80/A","straatNr":"","vervoerder":"FedEx","puntType":"servicepunt","bezettingsgraad":50,"latitude":44.187438,"longitude":12.12878,"canPickup":true,"canDropoff":true,"openingstijden":{"ma":"08:30 - 12:00, 15:30 - 19:00","di":"08:30 - 12:00, 15:30 - 19:00","wo":"08:30 - 12:00, 15:30 - 19:00","do":"08:30 - 12:00, 15:30 - 19:00","vr":"08:30 - 12:00, 15:30 - 19:00","za":"08:30 - 12:00, 16:00 - 18:00","zo":"gesloten"}}},{"type":"Feature","geometry":{"type":"Polygon","coordinates":[[[12.0954036,44.1620259],[12.0959068,44.1604098],[12.1012749,44.1585626],[12.1016148,44.1586073],[12.1196529,44.166065],[12.1193934,44.1668373],[12.1193794,44.1677559],[12.1194252,44.1702844],[12.1195844,44.1721166],[12.1197085,44.1725723],[12.1325148,44.1779651],[12.1333224,44.177862],[12.1430063,44.1757772],[12.1549216,44.1745031],[12.155892,44.1746383],[12.1575699,44.1758433],[12.159689,44.1780443],[12.1627565,44.1862776],[12.1622089,44.1890206],[12.1612086,44.191722],[12.1612317,44.1923876],[12.1620854,44.1959469],[12.1639737,44.2019983],[12.1656216,44.2049594],[12.1662153,44.2057622],[12.168619,44.2083422],[12.1690401,44.2089607],[12.1705233,44.2146721],[12.1708417,44.2166361],[12.1587056,44.2139375],[12.1580095,44.2139122],[12.1481895,44.2146062],[12.1437313,44.2150352],[12.1332129,44.2147213],[12.1098941,44.2064106],[12.092785,44.1851254],[12.0897355,44.178006],[12.0892543,44.1766956],[12.0892527,44.1759485],[12.0895613,44.175391],[12.0934333,44.1707398],[12.0966469,44.1645129],[12.09672,44.1639978],[12.0963913,44.1627373],[12.0961472,44.1623748],[12.0958991,44.1621745],[12.0954036,44.1620259]]]},"properties":{"type":"boundary","gemeente":"Forlimpopoli"}}]}