{"type":"FeatureCollection","metadata":{"gemeente":"Fossalto","slug":"fossalto","generated_at":"2026-09-26T14:27:20.445149Z","total_points":10,"providers":["PosteItaliane","GLS","DHL","Amazon"],"bounds":[14.545,41.6724,14.546702,41.673409]},"features":[{"type":"Feature","geometry":{"type":"Point","coordinates":[14.54502864,41.67244544]},"properties":{"type":"pakketpunt","locatieNaam":"Fossalto","straatNaam":"Via Umberto I","straatNr":"45","vervoerder":"PosteItaliane","puntType":"postkantoor","bezettingsgraad":50,"latitude":41.67244544,"longitude":14.54502864,"canPickup":true,"canDropoff":true,"openingstijden":{"za":"08:20 - 12:45","zo":"gesloten","ma":"08:20 - 13:45","di":"08:20 - 13:45","wo":"08:20 - 13:45","do":"08:20 - 13:45","vr":"08:20 - 13:45"}}},{"type":"Feature","geometry":{"type":"Point","coordinates":[14.54548274,41.67266895]},"properties":{"type":"pakketpunt","locatieNaam":"Tabaccheria N. 1","straatNaam":"Via Umberto I","straatNr":"82","vervoerder":"PosteItaliane","puntType":"servicepunt","bezettingsgraad":50,"latitude":41.67266895,"longitude":14.54548274,"canPickup":true,"canDropoff":true,"openingstijden":{"za":"07:00 - 13:30, 16:00 - 22:00","zo":"07:00 - 13:30, 16:00 - 22:00","ma":"07:00 - 13:30, 16:00 - 22:00","di":"07:00 - 13:30, 16:00 - 22:00","wo":"07:00 - 13:30, 16:00 - 22:00","do":"07:00 - 13:30, 16:00 - 22:00","vr":"07:00 - 13:30, 16:00 - 22:00"}}},{"type":"Feature","geometry":{"type":"Point","coordinates":[14.5461399,41.67299732]},"properties":{"type":"pakketpunt","locatieNaam":"Tabaccheria N. 3","straatNaam":"Strada Provinciale Fossaltina","straatNr":"10","vervoerder":"PosteItaliane","puntType":"servicepunt","bezettingsgraad":50,"latitude":41.67299732,"longitude":14.5461399,"canPickup":true,"canDropoff":true,"openingstijden":{"za":"06:30 - 22:00","zo":"06:30 - 22:00","ma":"06:30 - 22:00","di":"06:30 - 22:00","wo":"06:30 - 22:00","do":"06:30 - 22:00","vr":"06:30 - 22:00"}}},{"type":"Feature","geometry":{"type":"Point","coordinates":[14.546702,41.673409]},"properties":{"type":"pakketpunt","locatieNaam":"GREEN COFFEE BAR","straatNaam":"S.S. Fossaltina ","straatNr":"snc","vervoerder":"GLS","puntType":"parcel_shop","bezettingsgraad":50,"latitude":41.673409,"longitude":14.546702,"canPickup":true,"canDropoff":true,"openingstijden":"za: 06:00 - 21:00; zo: 06:00 - 21:00"}},{"type":"Feature","geometry":{"type":"Point","coordinates":[14.545029,41.672445]},"properties":{"type":"pakketpunt","locatieNaam":"Ufficio Postale FOSSALTO","straatNaam":"VIA UMBERTO I 45","straatNr":"","vervoerder":"DHL","puntType":"postOffice","bezettingsgraad":50,"latitude":41.672445,"longitude":14.545029,"canPickup":true,"canDropoff":true,"openingstijden":{"ma":"08:20 - 13:45","di":"gesloten","wo":"08:20 - 13:45","do":"08:20 - 13:45","vr":"08:20 - 13:45","za":"08:20 - 12:45","zo":"gesloten"}}},{"type":"Feature","geometry":{"type":"Point","coordinates":[14.545483,41.672669]},"properties":{"type":"pakketpunt","locatieNaam":"TABACCHERIA N. 1","straatNaam":"VIA UMBERTO I 82","straatNr":"","vervoerder":"DHL","puntType":"parcelShop","bezettingsgraad":50,"latitude":41.672669,"longitude":14.545483,"canPickup":true,"canDropoff":true,"openingstijden":{"ma":"07:00 - 13:30, 16:00 - 22:00","di":"07:00 - 13:30, 16:00 - 22:00","wo":"07:00 - 13:30, 16:00 - 22:00","do":"07:00 - 13:30, 16:00 - 22:00","vr":"07:00 - 13:30, 16:00 - 22:00","za":"07:00 - 13:30, 16:00 - 22:00","zo":"07:00 - 13:30, 16:00 - 22:00"}}},{"type":"Feature","geometry":{"type":"Point","coordinates":[14.54614,41.672997]},"properties":{"type":"pakketpunt","locatieNaam":"TABACCHERIA N. 3","straatNaam":"STRADA PROVINCIALE FOSSALTINA 10","straatNr":"","vervoerder":"DHL","puntType":"parcelShop","bezettingsgraad":50,"latitude":41.672997,"longitude":14.54614,"canPickup":true,"canDropoff":true,"openingstijden":{"ma":"06:30 - 22:00","di":"06:30 - 22:00","wo":"06:30 - 22:00","do":"06:30 - 22:00","vr":"06:30 - 22:00","za":"06:30 - 22:00","zo":"06:30 - 22:00"}}},{"type":"Feature","geometry":{"type":"Point","coordinates":[14.5454,41.6726]},"properties":{"type":"pakketpunt","locatieNaam":"PuntoPoste TABACCHERIA N. 1","straatNaam":"VIA UMBERTO I 82","straatNr":"","vervoerder":"Amazon","puntType":"3p","bezettingsgraad":50,"latitude":41.6726,"longitude":14.5454,"canPickup":true,"canDropoff":false,"openingstijden":null}},{"type":"Feature","geometry":{"type":"Point","coordinates":[14.545,41.6724]},"properties":{"type":"pakketpunt","locatieNaam":"Ufficio Postale FOSSALTO","straatNaam":"VIA UMBERTO I 45","straatNr":"","vervoerder":"Amazon","puntType":"3p","bezettingsgraad":50,"latitude":41.6724,"longitude":14.545,"canPickup":true,"canDropoff":false,"openingstijden":null}},{"type":"Feature","geometry":{"type":"Point","coordinates":[14.5461,41.6729]},"properties":{"type":"pakketpunt","locatieNaam":"PuntoPoste TABACCHERIA N. 3","straatNaam":"STRADA PROVINCIALE FOSSALTINA 10","straatNr":"","vervoerder":"Amazon","puntType":"3p","bezettingsgraad":50,"latitude":41.6729,"longitude":14.5461,"canPickup":true,"canDropoff":false,"openingstijden":null}},{"type":"Feature","geometry":{"type":"Polygon","coordinates":[[[14.5307239,41.6559358],[14.5318422,41.6556883],[14.5323102,41.6557647],[14.5336706,41.6586607],[14.533789,41.6604059],[14.5301974,41.6655889],[14.5266219,41.6764919],[14.526655,41.6768774],[14.5269859,41.6776896],[14.5302899,41.6809555],[14.5273415,41.693066],[14.5273522,41.6948344],[14.5275949,41.6963485],[14.5278298,41.6970033],[14.53148,41.7006755],[14.5578506,41.7071409],[14.5585239,41.7072523],[14.5597268,41.7071669],[14.5620849,41.7066789],[14.5636765,41.7050182],[14.5653626,41.7046167],[14.5668587,41.7040669],[14.5678431,41.7038165],[14.5689766,41.7032077],[14.5702453,41.7023224],[14.5708133,41.7017366],[14.5714338,41.7006487],[14.5718841,41.7002307],[14.5722578,41.6997264],[14.5724662,41.6991851],[14.5726252,41.6984212],[14.5725943,41.6980986],[14.5728415,41.6970694],[14.5732765,41.6964406],[14.5747299,41.694916],[14.5763442,41.6939327],[14.5771631,41.6931952],[14.5775769,41.6929815],[14.5780139,41.6925146],[14.5783322,41.6917879],[14.5782895,41.6907412],[14.5783882,41.6903899],[14.5785936,41.6900918],[14.5789565,41.6896375],[14.5794769,41.6891981],[14.5799258,41.6885235],[14.5816525,41.6873502],[14.5822453,41.6866731],[14.5824037,41.6859722],[14.582661,41.6854421],[14.5826872,41.6852248],[14.5824878,41.6843793],[14.5826473,41.6837954],[14.5826038,41.6834329],[14.5817791,41.6823343],[14.581556,41.6816655],[14.5815588,41.6813863],[14.5819014,41.6803524],[14.5824244,41.6795977],[14.5825805,41.6792165],[14.5835541,41.6795742],[14.5846212,41.6805525],[14.5853186,41.6805455],[14.5872541,41.6801135],[14.5903391,41.6787883],[14.5909413,41.6784123],[14.5914136,41.6779482],[14.5919122,41.6770101],[14.59212,41.6762663],[14.5964807,41.6572304],[14.5983969,41.6464289],[14.5985233,41.645293],[14.5984314,41.6428265],[14.5980756,41.6421147],[14.5967654,41.6404053],[14.5924544,41.6444011],[14.5886812,41.6468537],[14.5883074,41.646989],[14.5719299,41.6504242],[14.5691023,41.6494049],[14.5626758,41.6530613],[14.5573009,41.6543663],[14.5472562,41.6548486],[14.5388432,41.6523029],[14.5368438,41.6515578],[14.5354523,41.651436],[14.5349105,41.6515477],[14.5343191,41.6518238],[14.5333664,41.6525225],[14.5323742,41.6535741],[14.5307239,41.6559358]]]},"properties":{"type":"boundary","gemeente":"Fossalto"}}]}