{"type":"FeatureCollection","metadata":{"gemeente":"Frassinelle Polesine","slug":"frassinelle-polesine","generated_at":"2026-09-26T14:27:20.776253Z","total_points":1,"providers":["PosteItaliane"],"bounds":[11.69629265,44.99618229,11.69629265,44.99618229]},"features":[{"type":"Feature","geometry":{"type":"Point","coordinates":[11.69629265,44.99618229]},"properties":{"type":"pakketpunt","locatieNaam":"Frassinelle Polesine","straatNaam":"Via Galileo Galilei","straatNr":"66","vervoerder":"PosteItaliane","puntType":"postkantoor","bezettingsgraad":50,"latitude":44.99618229,"longitude":11.69629265,"canPickup":true,"canDropoff":true,"openingstijden":{"ma":"gesloten","di":"gesloten","wo":"gesloten","do":"gesloten","vr":"gesloten","za":"gesloten","zo":"gesloten"}}},{"type":"Feature","geometry":{"type":"Polygon","coordinates":[[[11.6536599,44.986389],[11.6547259,44.9870457],[11.6555354,44.9872474],[11.6567138,44.9872801],[11.6582381,44.9874651],[11.6598552,44.9874141],[11.6606542,44.9877963],[11.6612265,44.9885647],[11.6613723,44.9886615],[11.6616814,44.9886275],[11.6618097,44.9889586],[11.6624221,44.9891715],[11.6624899,44.9894171],[11.662362,44.9901082],[11.6625637,44.9903975],[11.6630634,44.9908202],[11.6631727,44.991145],[11.6633249,44.9923975],[11.6635028,44.9925804],[11.6636358,44.9930116],[11.664899,44.9940578],[11.6652134,44.9941373],[11.6658458,44.9940691],[11.6664384,44.9944628],[11.6666747,44.9946845],[11.6670312,44.995264],[11.6673471,44.9959849],[11.6680011,44.9966846],[11.6689029,44.9972447],[11.6696161,44.9973951],[11.6700758,44.9979656],[11.6704169,44.9986191],[11.6730606,45.0002572],[11.6735131,45.0007911],[11.6736963,45.0008678],[11.6733263,45.0014227],[11.6734239,45.0017995],[11.6742747,45.0030151],[11.6744275,45.0034286],[11.6750081,45.0035339],[11.6749855,45.003779],[11.6753611,45.0039159],[11.6758164,45.0043032],[11.6759719,45.0045632],[11.6761862,45.0053578],[11.6761513,45.0056532],[11.6755583,45.0065305],[11.6753878,45.0069377],[11.6753718,45.0073241],[11.6755371,45.0080246],[11.6764231,45.007739],[11.6797931,45.007229],[11.6809883,45.0069183],[11.6819878,45.0065778],[11.6828332,45.0060581],[11.6832857,45.0056581],[11.6834669,45.0053781],[11.6836167,45.004737],[11.6838361,45.0029845],[11.6842718,45.0009788],[11.684838,45.0002038],[11.6869153,44.9986243],[11.6871121,44.998202],[11.6874758,44.9956079],[11.68775,44.9953308],[11.6880961,44.9951824],[11.6893136,44.9949399],[11.6904116,44.9949641],[11.6910646,44.9951324],[11.6926603,44.9957295],[11.6931584,44.9961086],[11.6938728,44.9974882],[11.6946981,44.9983205],[11.6983808,44.9974536],[11.7006589,44.997017],[11.7019931,44.9966547],[11.702247,44.9953493],[11.7027185,44.9944595],[11.7030352,44.9942883],[11.7039116,44.994204],[11.705212,44.9941231],[11.7097286,44.9941596],[11.7140916,44.9944284],[11.7145969,44.9943629],[11.7171623,44.9947495],[11.7198594,44.9950361],[11.7228239,44.9949018],[11.7255354,44.9948939],[11.7272669,44.9950697],[11.728938,44.995483],[11.728973,44.9947115],[11.7288027,44.993209],[11.728604,44.9928897],[11.7280243,44.9924793],[11.7276574,44.9920906],[11.7272847,44.991281],[11.7261755,44.9895336],[11.7259874,44.9890404],[11.7259473,44.9886939],[11.7261461,44.9872259],[11.7261058,44.9866723],[11.7259944,44.9863109],[11.7256333,44.985942],[11.7244594,44.9851116],[11.7231524,44.9839535],[11.7229849,44.9836969],[11.7225347,44.9825384],[11.7226958,44.9819666],[11.7229976,44.981779],[11.7234139,44.9817224],[11.7243007,44.9818615],[11.7248315,44.9818389],[11.725436,44.9815839],[11.7256764,44.9812942],[11.725755,44.9809649],[11.7250899,44.979247],[11.7244447,44.9783471],[11.7243534,44.9779083],[11.7245286,44.9768384],[11.7243642,44.9765484],[11.7230234,44.9757653],[11.7227438,44.9753276],[11.7226281,44.9747725],[11.7226078,44.9742452],[11.7229572,44.9724797],[11.7224403,44.9719976],[11.7223624,44.9717455],[11.7226298,44.9686457],[11.7226142,44.9681183],[11.7228238,44.9666801],[11.7241957,44.9658423],[11.7248898,44.9656922],[11.7265662,44.9656434],[11.7274694,44.9651161],[11.7280513,44.9645843],[11.7278846,44.9634525],[11.7279182,44.9630709],[11.7271414,44.9628623],[11.7263135,44.9623709],[11.7256556,44.961595],[11.7254097,44.9609728],[11.7249776,44.9602949],[11.7242822,44.9599173],[11.7235412,44.9598682],[11.7225805,44.9603488],[11.7218279,44.9603534],[11.7215036,44.9602609],[11.7205613,44.9598357],[11.7185981,44.9592177],[11.7162732,44.9583077],[11.7145122,44.9574826],[11.7130993,44.9566544],[11.7112777,44.9559208],[11.7106943,44.9564376],[11.7101929,44.95668],[11.708714,44.9567485],[11.7076871,44.9570234],[11.7068692,44.9571364],[11.7059322,44.9569214],[11.7037326,44.9569735],[11.7016059,44.9565696],[11.7000063,44.9564705],[11.6984811,44.956256],[11.6975619,44.9563178],[11.6971922,44.9564602],[11.6967037,44.9569795],[11.6957426,44.9575534],[11.6955237,44.9580029],[11.6955301,44.9583402],[11.6956638,44.9587847],[11.6955024,44.9589555],[11.6947651,44.9591868],[11.6939871,44.959753],[11.6927707,44.9603062],[11.6921447,44.9605013],[11.6916109,44.960554],[11.6915297,44.9605292],[11.6913148,44.9601601],[11.6911411,44.9600673],[11.6893937,44.9596274],[11.688638,44.9594649],[11.6871232,44.9595741],[11.6869211,44.9594752],[11.6868404,44.95926],[11.686676,44.959167],[11.6854702,44.9591386],[11.6850962,44.958987],[11.6840802,44.9581892],[11.6837781,44.9580659],[11.6833409,44.9580729],[11.6825458,44.9584791],[11.6820546,44.9584372],[11.68103,44.9580571],[11.6808009,44.9578887],[11.6801822,44.9572318],[11.6800649,44.956533],[11.6793497,44.9563293],[11.6779913,44.9567588],[11.6773523,44.9568806],[11.6756245,44.9567575],[11.6747723,44.95644],[11.6734891,44.9563632],[11.6713029,44.9555893],[11.6704879,44.9554647],[11.6701549,44.9554859],[11.6691114,44.955811],[11.665732,44.956087],[11.6643781,44.9564176],[11.663379,44.9567884],[11.6610749,44.9586461],[11.6638038,44.9612883],[11.6628456,44.9617316],[11.6621328,44.9621892],[11.6630574,44.9632567],[11.6642217,44.9644188],[11.6654932,44.965251],[11.6655657,44.9653963],[11.6653487,44.9657889],[11.6656794,44.9662323],[11.6697862,44.970656],[11.6656763,44.9734882],[11.6617082,44.9745695],[11.6591362,44.974723],[11.6590958,44.9758865],[11.6610497,44.9778319],[11.6613999,44.9776701],[11.6615332,44.9779075],[11.660862,44.9786581],[11.6604157,44.9789826],[11.6602207,44.9796486],[11.6599747,44.9800284],[11.6594722,44.9803608],[11.6592975,44.9806522],[11.6587507,44.9808387],[11.658766,44.9809653],[11.6590359,44.9813064],[11.6586129,44.9819309],[11.6580863,44.9823508],[11.6580028,44.9825799],[11.657733,44.9828534],[11.6576658,44.9834362],[11.6559304,44.9847929],[11.6536599,44.986389]]]},"properties":{"type":"boundary","gemeente":"Frassinelle Polesine"}}]}