{"type":"FeatureCollection","metadata":{"gemeente":"Gagliole","slug":"gagliole","generated_at":"2026-09-26T14:27:21.570262Z","total_points":1,"providers":["PosteItaliane"],"bounds":[13.06794121,43.2391047,13.06794121,43.2391047]},"features":[{"type":"Feature","geometry":{"type":"Point","coordinates":[13.06794121,43.2391047]},"properties":{"type":"pakketpunt","locatieNaam":"Gagliole","straatNaam":"Piazza Matteotti","straatNr":"12","vervoerder":"PosteItaliane","puntType":"postkantoor","bezettingsgraad":50,"latitude":43.2391047,"longitude":13.06794121,"canPickup":true,"canDropoff":true,"openingstijden":{"za":"gesloten","zo":"gesloten","ma":"08:20 - 13:45","di":"gesloten","wo":"08:20 - 13:45","do":"gesloten","vr":"08:20 - 13:45"}}},{"type":"Feature","geometry":{"type":"Polygon","coordinates":[[[13.0384199,43.227096],[13.0386567,43.2270921],[13.0389348,43.2272488],[13.0401834,43.2282085],[13.040994,43.2286435],[13.0414083,43.2291826],[13.0417097,43.2297841],[13.0417477,43.2301249],[13.0416302,43.2303496],[13.0409062,43.230992],[13.0407127,43.2312779],[13.0407678,43.2315056],[13.0409564,43.231751],[13.0414598,43.2321473],[13.0416977,43.2324855],[13.0418859,43.2334692],[13.0421979,43.2337643],[13.0430819,43.2342372],[13.0432511,43.2346543],[13.0432535,43.2349694],[13.043148,43.2356078],[13.043005,43.235865],[13.0424381,43.2362767],[13.0419467,43.2369918],[13.0413,43.2386623],[13.0411666,43.2393918],[13.0417545,43.2395286],[13.0436149,43.2402865],[13.0439875,43.2405659],[13.0444554,43.2413551],[13.0446513,43.2425456],[13.0446356,43.2430054],[13.0453106,43.2450612],[13.0457612,43.2478633],[13.0458455,43.2490892],[13.0460161,43.2494793],[13.0464436,43.2499818],[13.046736,43.25012],[13.0478529,43.250292],[13.0491302,43.2503773],[13.0493365,43.250469],[13.049753,43.2508999],[13.0521884,43.2510341],[13.0525969,43.2513437],[13.0530097,43.2512075],[13.0537622,43.2511313],[13.0549076,43.2511312],[13.0583828,43.2514354],[13.058824,43.2515412],[13.0590275,43.2517771],[13.0591424,43.2524392],[13.059328,43.2527297],[13.0607127,43.2537789],[13.060817,43.2540048],[13.060758,43.2546439],[13.0609618,43.2548842],[13.0615369,43.254965],[13.0623526,43.2549135],[13.0629864,43.2547199],[13.0633692,43.2546883],[13.0661985,43.2551863],[13.0664528,43.2557219],[13.0671354,43.256769],[13.0679193,43.2584562],[13.0681446,43.2587408],[13.0686749,43.259073],[13.0694961,43.2592418],[13.0698531,43.2592381],[13.0705008,43.2590214],[13.0711902,43.2586457],[13.0717304,43.258712],[13.0721236,43.2594813],[13.0729688,43.2600093],[13.0742502,43.2615797],[13.0747144,43.2617972],[13.0779289,43.2613719],[13.0781731,43.2614307],[13.078378,43.2615944],[13.0787723,43.2623321],[13.0788961,43.2631695],[13.0795779,43.2641535],[13.0794727,43.264792],[13.0795145,43.265002],[13.0799443,43.2654414],[13.0802728,43.2656097],[13.0809797,43.2658185],[13.0812077,43.2660489],[13.0820274,43.2662402],[13.0826839,43.2665229],[13.0826658,43.2667126],[13.0825249,43.2668166],[13.0817138,43.2668006],[13.0814471,43.2670037],[13.0813811,43.2680415],[13.0816296,43.2687168],[13.0826641,43.2691705],[13.0832647,43.2696307],[13.0836289,43.2697797],[13.0845988,43.2698666],[13.0848766,43.2700592],[13.0857883,43.2700581],[13.085869,43.2709871],[13.0858151,43.2719298],[13.0851908,43.273001],[13.0849013,43.273187],[13.083795,43.2735011],[13.0831333,43.2737859],[13.0822964,43.2745361],[13.0812999,43.2749273],[13.0803195,43.2754215],[13.0798984,43.2758957],[13.0799066,43.2761115],[13.0800704,43.2763487],[13.082345,43.2793105],[13.0828453,43.2801569],[13.0832553,43.2816323],[13.0837444,43.282173],[13.0852868,43.2828921],[13.0868299,43.2839893],[13.087559,43.2843864],[13.0900124,43.2839879],[13.0926904,43.2834013],[13.0956376,43.2829715],[13.0991013,43.2822057],[13.0991559,43.2816433],[13.0990988,43.2811142],[13.098528,43.2776189],[13.0985245,43.2753683],[13.0983936,43.2748418],[13.0977083,43.273858],[13.0975635,43.2734446],[13.0975183,43.2719922],[13.0973775,43.2709979],[13.0972585,43.2705565],[13.0969414,43.2700547],[13.0956523,43.2687009],[13.0951535,43.2680616],[13.094889,43.2675174],[13.0943647,43.2657175],[13.094313,43.2650396],[13.0943657,43.2644931],[13.0947739,43.2640598],[13.0958954,43.2632858],[13.0960745,43.2630633],[13.0962864,43.2625965],[13.096379,43.2615443],[13.0965101,43.2613416],[13.0977579,43.2604325],[13.0986756,43.2594227],[13.0987592,43.2591541],[13.0986378,43.2586768],[13.0986004,43.2578453],[13.0987007,43.2574591],[13.0991771,43.2568028],[13.0995321,43.2553045],[13.0999714,43.2550591],[13.1000713,43.2545289],[13.1000009,43.2540317],[13.1003627,43.2538702],[13.10052,43.2535539],[13.1012814,43.2531529],[13.1003673,43.2525646],[13.1007717,43.2514336],[13.1007534,43.2512542],[13.1003043,43.2510318],[13.1002087,43.2505715],[13.0993435,43.2502965],[13.0991278,43.2500656],[13.0990019,43.2497506],[13.0990244,43.2494436],[13.0992151,43.2492567],[13.0995371,43.2491911],[13.0997701,43.2488092],[13.1000814,43.2486764],[13.1012232,43.2488065],[13.1032023,43.2481997],[13.1047072,43.2480961],[13.104957,43.2480106],[13.1048869,43.2478376],[13.1061165,43.2471676],[13.1064934,43.246866],[13.1070187,43.2462079],[13.1071647,43.2459055],[13.1062872,43.245631],[13.1063733,43.2452182],[13.1070246,43.2436868],[13.1070641,43.2432217],[13.1054771,43.242698],[13.1062295,43.2419372],[13.1060562,43.2415113],[13.1048509,43.2410775],[13.1052462,43.240271],[13.1050709,43.2399531],[13.1051981,43.2398315],[13.1057689,43.239667],[13.1056541,43.2393785],[13.1057087,43.239183],[13.1060133,43.2389064],[13.1055312,43.2386491],[13.1048204,43.2385171],[13.1046626,43.2384148],[13.1038918,43.2354669],[13.1036282,43.2348417],[13.1032112,43.2323943],[13.1029853,43.2317812],[13.1028258,43.2300943],[13.1023787,43.2286158],[13.1023252,43.2276364],[13.1019603,43.2259164],[13.1016293,43.2226376],[13.1016788,43.2223207],[13.1018442,43.2221257],[13.1026997,43.2215277],[13.1026802,43.2209162],[13.1022887,43.2204036],[13.102286,43.2201336],[13.1021275,43.2196981],[13.1008561,43.2182268],[13.100411,43.217464],[13.0994245,43.2175309],[13.0985195,43.2177569],[13.0981343,43.2178878],[13.0977529,43.2182121],[13.0972541,43.2183921],[13.0968716,43.2188829],[13.0970631,43.2193983],[13.0969504,43.21992],[13.0966646,43.2203849],[13.0961651,43.2206009],[13.094298,43.2204338],[13.092047,43.2199562],[13.0888234,43.2195225],[13.0886373,43.2195472],[13.088239,43.2204933],[13.0880263,43.2206269],[13.0866042,43.2203942],[13.085874,43.2201052],[13.0850247,43.2201536],[13.0840289,43.2200362],[13.0831507,43.2195589],[13.0823317,43.2192776],[13.0803546,43.2190286],[13.0778721,43.2177083],[13.0775782,43.2177323],[13.0768341,43.2182495],[13.0761711,43.2185523],[13.0759141,43.2185749],[13.0754511,43.2184159],[13.0743006,43.2177772],[13.0723272,43.2171678],[13.0719082,43.2171603],[13.0713256,43.2172846],[13.0701513,43.2178126],[13.0694919,43.2179847],[13.0683589,43.218025],[13.0680937,43.2178319],[13.0680822,43.2173821],[13.0681937,43.2166534],[13.068473,43.2159952],[13.0684489,43.2155864],[13.0679504,43.2157257],[13.0673383,43.2160537],[13.0653571,43.2168039],[13.0650671,43.2170258],[13.0647787,43.2171306],[13.0636581,43.2171255],[13.0630024,43.2172614],[13.0621938,43.2175512],[13.0618247,43.2179245],[13.0616001,43.218018],[13.0613907,43.2180164],[13.0609814,43.2177384],[13.0607361,43.2180757],[13.0605325,43.2179299],[13.0602237,43.2179139],[13.0599228,43.2180641],[13.0596709,43.2183027],[13.0596742,43.2185366],[13.0595358,43.2186316],[13.0580474,43.2181848],[13.0571904,43.2180712],[13.0562517,43.2178389],[13.0554368,43.2171071],[13.052847,43.2172215],[13.0497483,43.2170884],[13.0482692,43.2171993],[13.0480306,43.2172663],[13.0474679,43.2179705],[13.0461671,43.2189619],[13.0457829,43.2194347],[13.0446081,43.2203767],[13.0434796,43.2209973],[13.0407913,43.2230687],[13.0393616,43.223835],[13.0391109,43.2240465],[13.0390205,43.2242162],[13.0389797,43.2254601],[13.0384199,43.227096]]]},"properties":{"type":"boundary","gemeente":"Gagliole"}}]}