{"type":"FeatureCollection","metadata":{"gemeente":"Gallicchio","slug":"gallicchio","generated_at":"2026-09-26T13:09:59.212926Z","total_points":3,"providers":["PosteItaliane","DHL","Amazon"],"bounds":[16.1374,40.2911,16.13746236,40.29119]},"features":[{"type":"Feature","geometry":{"type":"Point","coordinates":[16.13746236,40.29118964]},"properties":{"type":"pakketpunt","locatieNaam":"Gallicchio","straatNaam":"Via San Rocco","straatNr":"135","vervoerder":"PosteItaliane","puntType":"postkantoor","bezettingsgraad":50,"latitude":40.29118964,"longitude":16.13746236,"canPickup":true,"canDropoff":true,"openingstijden":{"za":"08:20 - 12:45","zo":"gesloten","ma":"08:20 - 13:45","di":"08:20 - 13:45","wo":"08:20 - 13:45","do":"08:20 - 13:45","vr":"08:20 - 13:45"}}},{"type":"Feature","geometry":{"type":"Point","coordinates":[16.137462,40.29119]},"properties":{"type":"pakketpunt","locatieNaam":"Ufficio Postale GALLICCHIO","straatNaam":"VIA SAN ROCCO 135","straatNr":"","vervoerder":"DHL","puntType":"postOffice","bezettingsgraad":50,"latitude":40.29119,"longitude":16.137462,"canPickup":true,"canDropoff":true,"openingstijden":{"ma":"08:20 - 13:45","di":"08:20 - 13:45","wo":"08:20 - 13:45","do":"08:20 - 13:45","vr":"08:20 - 13:45","za":"08:20 - 12:45","zo":"gesloten"}}},{"type":"Feature","geometry":{"type":"Point","coordinates":[16.1374,40.2911]},"properties":{"type":"pakketpunt","locatieNaam":"Ufficio Postale GALLICCHIO","straatNaam":"VIA SAN ROCCO 135","straatNr":"","vervoerder":"Amazon","puntType":"3p","bezettingsgraad":50,"latitude":40.2911,"longitude":16.1374,"canPickup":true,"canDropoff":false,"openingstijden":null}},{"type":"Feature","geometry":{"type":"Polygon","coordinates":[[[16.1167985,40.2638162],[16.118297,40.2704405],[16.1183569,40.2712601],[16.1180667,40.2731181],[16.1178583,40.2737878],[16.1113024,40.2929489],[16.1063011,40.2979007],[16.1055517,40.2988332],[16.1051876,40.2997285],[16.1051009,40.3001882],[16.1050961,40.3004495],[16.1052066,40.3007036],[16.1147817,40.312853],[16.1198865,40.3183004],[16.1242137,40.3202776],[16.127545,40.3195135],[16.1281916,40.3195544],[16.1343929,40.3222114],[16.1363057,40.323249],[16.1367935,40.3236371],[16.1393671,40.3261543],[16.1395296,40.326873],[16.1397952,40.3250345],[16.140475,40.3235032],[16.1410131,40.322687],[16.1457659,40.3189639],[16.1481126,40.3178149],[16.14879,40.3175659],[16.1504728,40.3175558],[16.1525847,40.3179059],[16.1535801,40.3182309],[16.1545797,40.318344],[16.1586331,40.3179706],[16.1610169,40.3167966],[16.1593066,40.3123817],[16.1562363,40.3076914],[16.1525993,40.2978716],[16.1560028,40.2787829],[16.1564049,40.2768684],[16.1608745,40.2639037],[16.1480263,40.2626913],[16.1420651,40.2613382],[16.1167985,40.2638162]]]},"properties":{"type":"boundary","gemeente":"Gallicchio"}}]}