{"type":"FeatureCollection","metadata":{"gemeente":"Gambettola","slug":"gambettola","generated_at":"2026-09-26T13:09:59.384605Z","total_points":13,"providers":["PosteItaliane","DPD","InPost","DHL"],"bounds":[12.325523,44.113548,12.3426283411,44.12008014]},"features":[{"type":"Feature","geometry":{"type":"Point","coordinates":[12.34095215,44.12005015]},"properties":{"type":"pakketpunt","locatieNaam":"Gambettola","straatNaam":"Via Giovanni Pascoli","straatNr":"54","vervoerder":"PosteItaliane","puntType":"postkantoor","bezettingsgraad":50,"latitude":44.12005015,"longitude":12.34095215,"canPickup":true,"canDropoff":true,"openingstijden":{"za":"08:20 - 12:35","zo":"gesloten","ma":"08:20 - 13:35","di":"08:20 - 13:35","wo":"08:20 - 13:35","do":"08:20 - 13:35","vr":"08:20 - 13:35"}}},{"type":"Feature","geometry":{"type":"Point","coordinates":[12.33888338,44.12008014]},"properties":{"type":"pakketpunt","locatieNaam":"Tabaccheria N. 1","straatNaam":"Piazza Risorgimento","straatNr":"8","vervoerder":"PosteItaliane","puntType":"servicepunt","bezettingsgraad":50,"latitude":44.12008014,"longitude":12.33888338,"canPickup":true,"canDropoff":true,"openingstijden":{"za":"07:30 - 13:00, 15:30 - 20:00","zo":"gesloten","ma":"07:30 - 13:00, 15:30 - 20:00","di":"07:30 - 13:00, 15:30 - 20:00","wo":"07:30 - 13:00, 15:30 - 20:00","do":"07:30 - 13:00, 15:30 - 20:00","vr":"07:30 - 13:00, 15:30 - 20:00"}}},{"type":"Feature","geometry":{"type":"Point","coordinates":[12.33867149,44.1174171]},"properties":{"type":"pakketpunt","locatieNaam":"Tabaccheria N. 2","straatNaam":"Corso Giuseppe Mazzini","straatNr":"78","vervoerder":"PosteItaliane","puntType":"servicepunt","bezettingsgraad":50,"latitude":44.1174171,"longitude":12.33867149,"canPickup":true,"canDropoff":true,"openingstijden":{"za":"07:00 - 13:00, 15:00 - 19:30","zo":"gesloten","ma":"07:00 - 13:00, 15:00 - 19:30","di":"07:00 - 13:00, 15:00 - 19:30","wo":"07:00 - 13:00, 15:00 - 19:30","do":"07:00 - 13:00, 15:00 - 19:30","vr":"07:00 - 13:00, 15:00 - 19:30"}}},{"type":"Feature","geometry":{"type":"Point","coordinates":[12.33948659,44.11354831]},"properties":{"type":"pakketpunt","locatieNaam":"Tabaccheria N. 3","straatNaam":"Via Silvio Pascucci","straatNr":"127","vervoerder":"PosteItaliane","puntType":"servicepunt","bezettingsgraad":50,"latitude":44.11354831,"longitude":12.33948659,"canPickup":true,"canDropoff":true,"openingstijden":{"za":"08:00 - 13:00","zo":"gesloten","ma":"07:30 - 13:00, 15:00 - 19:30","di":"07:30 - 13:00, 15:00 - 19:30","wo":"07:30 - 13:00, 15:00 - 19:30","do":"07:30 - 13:00, 15:00 - 19:30","vr":"07:30 - 13:00, 15:00 - 19:30"}}},{"type":"Feature","geometry":{"type":"Point","coordinates":[12.32552304,44.11532961]},"properties":{"type":"pakketpunt","locatieNaam":"Tabaccheria N. 7","straatNaam":"Via Europa","straatNr":"45","vervoerder":"PosteItaliane","puntType":"servicepunt","bezettingsgraad":50,"latitude":44.11532961,"longitude":12.32552304,"canPickup":true,"canDropoff":true,"openingstijden":{"za":"05:00 - 20:00","zo":"gesloten","ma":"05:00 - 20:00","di":"05:00 - 20:00","wo":"05:00 - 20:00","do":"05:00 - 20:00","vr":"05:00 - 20:00"}}},{"type":"Feature","geometry":{"type":"Point","coordinates":[12.3426283411,44.1156428885]},"properties":{"type":"pakketpunt","locatieNaam":"Tabaccheria - Posta Privata","straatNaam":"PIAZZA ALDO MORO","straatNr":"2/C","vervoerder":"DPD","puntType":"pickup_point","bezettingsgraad":50,"latitude":44.1156428885,"longitude":12.3426283411,"canPickup":true,"canDropoff":true,"openingstijden":{"ma":"06:30 - 19:30","di":"06:30 - 19:30","wo":"06:30 - 19:30","do":"06:30 - 19:30","vr":"06:30 - 19:30","za":"06:30 - 19:30","zo":"gesloten"}}},{"type":"Feature","geometry":{"type":"Point","coordinates":[12.33949,44.11358]},"properties":{"type":"pakketpunt","locatieNaam":"InPost Locker","straatNaam":"Via Pascucci","straatNr":"127","vervoerder":"InPost","puntType":"automaat","bezettingsgraad":50,"latitude":44.11358,"longitude":12.33949,"canPickup":true,"canDropoff":true,"openingstijden":null}},{"type":"Feature","geometry":{"type":"Point","coordinates":[12.339487,44.113548]},"properties":{"type":"pakketpunt","locatieNaam":"TABACCHERIA N. 3","straatNaam":"VIA SILVIO PASCUCCI 127","straatNr":"","vervoerder":"DHL","puntType":"parcelShop","bezettingsgraad":50,"latitude":44.113548,"longitude":12.339487,"canPickup":true,"canDropoff":true,"openingstijden":{"ma":"07:30 - 13:00, 15:00 - 19:30","di":"07:30 - 13:00, 15:00 - 19:30","wo":"07:30 - 13:00, 15:00 - 19:30","do":"07:30 - 13:00, 15:00 - 19:30","vr":"07:30 - 13:00, 15:00 - 19:30","za":"08:00 - 13:00","zo":"gesloten"}}},{"type":"Feature","geometry":{"type":"Point","coordinates":[12.325523,44.11533]},"properties":{"type":"pakketpunt","locatieNaam":"TABACCHERIA N. 7","straatNaam":"VIA EUROPA 45","straatNr":"","vervoerder":"DHL","puntType":"parcelShop","bezettingsgraad":50,"latitude":44.11533,"longitude":12.325523,"canPickup":true,"canDropoff":true,"openingstijden":{"ma":"05:00 - 20:00","di":"05:00 - 20:00","wo":"05:00 - 20:00","do":"05:00 - 20:00","vr":"05:00 - 20:00","za":"05:00 - 20:00","zo":"gesloten"}}},{"type":"Feature","geometry":{"type":"Point","coordinates":[12.342562,44.115699]},"properties":{"type":"pakketpunt","locatieNaam":"TABACCHERIA BOSCO VERDE","straatNaam":"Piazza Aldo Moro 2 / 7 C","straatNr":"","vervoerder":"DHL","puntType":"parcelShop","bezettingsgraad":50,"latitude":44.115699,"longitude":12.342562,"canPickup":false,"canDropoff":true,"openingstijden":{"ma":"07:00 - 19:30","di":"07:00 - 19:30","wo":"07:00 - 19:30","do":"07:00 - 19:30","vr":"07:00 - 19:30","za":"07:00 - 19:30","zo":"gesloten"}}},{"type":"Feature","geometry":{"type":"Point","coordinates":[12.338671,44.117417]},"properties":{"type":"pakketpunt","locatieNaam":"TABACCHERIA N. 2","straatNaam":"CORSO GIUSEPPE MAZZINI 78","straatNr":"","vervoerder":"DHL","puntType":"parcelShop","bezettingsgraad":50,"latitude":44.117417,"longitude":12.338671,"canPickup":true,"canDropoff":true,"openingstijden":{"ma":"07:00 - 13:00, 15:00 - 19:30","di":"07:00 - 13:00, 15:00 - 19:30","wo":"07:00 - 13:00, 15:00 - 19:30","do":"07:00 - 13:00, 15:00 - 19:30","vr":"07:00 - 13:00, 15:00 - 19:30","za":"07:00 - 13:00, 15:00 - 19:30","zo":"gesloten"}}},{"type":"Feature","geometry":{"type":"Point","coordinates":[12.338883,44.12008]},"properties":{"type":"pakketpunt","locatieNaam":"TABACCHERIA N. 1","straatNaam":"PIAZZA RISORGIMENTO 8","straatNr":"","vervoerder":"DHL","puntType":"parcelShop","bezettingsgraad":50,"latitude":44.12008,"longitude":12.338883,"canPickup":true,"canDropoff":true,"openingstijden":{"ma":"07:30 - 13:00, 15:30 - 20:00","di":"07:30 - 13:00, 15:30 - 20:00","wo":"07:30 - 13:00, 15:30 - 20:00","do":"07:30 - 13:00, 15:30 - 20:00","vr":"07:30 - 13:00, 15:30 - 20:00","za":"07:30 - 13:00, 15:30 - 20:00","zo":"gesloten"}}},{"type":"Feature","geometry":{"type":"Point","coordinates":[12.340952,44.12005]},"properties":{"type":"pakketpunt","locatieNaam":"Ufficio Postale GAMBETTOLA","straatNaam":"VIA GIOVANNI PASCOLI 54","straatNr":"","vervoerder":"DHL","puntType":"postOffice","bezettingsgraad":50,"latitude":44.12005,"longitude":12.340952,"canPickup":true,"canDropoff":true,"openingstijden":{"ma":"08:20 - 13:35","di":"08:20 - 13:35","wo":"08:20 - 13:35","do":"08:20 - 13:35","vr":"08:20 - 13:35","za":"08:20 - 12:35","zo":"gesloten"}}},{"type":"Feature","geometry":{"type":"Polygon","coordinates":[[[12.3313789,44.1062056],[12.3319123,44.1058033],[12.3360888,44.1042021],[12.338078,44.1062851],[12.3408992,44.1072864],[12.3424764,44.1077641],[12.3450503,44.1078038],[12.3458359,44.1079461],[12.3469085,44.1079906],[12.3475506,44.1086071],[12.3470313,44.1089123],[12.3468968,44.1090858],[12.3468408,44.1100562],[12.3466506,44.1102825],[12.3463448,44.1103563],[12.3465048,44.1106589],[12.3708231,44.1040857],[12.3678591,44.1117512],[12.3684279,44.1220288],[12.3663638,44.130345],[12.3649052,44.1310722],[12.3621693,44.1329415],[12.3599086,44.1326113],[12.356795,44.1323001],[12.3563012,44.1321739],[12.3546396,44.1320532],[12.3539107,44.1318531],[12.3508448,44.1314757],[12.3455145,44.1312056],[12.3444421,44.1310724],[12.3446904,44.1280453],[12.3438102,44.1278904],[12.3437391,44.1278415],[12.343647,44.1274149],[12.3435146,44.1273199],[12.3416742,44.1270556],[12.3415886,44.1269458],[12.3415503,44.1266147],[12.3413346,44.1265396],[12.3408589,44.1264622],[12.3401756,44.1264789],[12.3393583,44.1263451],[12.3375524,44.1264419],[12.335405,44.1263091],[12.3337536,44.1265699],[12.3332707,44.1261326],[12.3329047,44.1255474],[12.3327279,44.1250392],[12.3326838,44.1244572],[12.3281018,44.1243561],[12.3279514,44.1242233],[12.3281422,44.1236973],[12.3258195,44.1234811],[12.3258023,44.1225749],[12.3253112,44.1212861],[12.3255224,44.1204763],[12.3255254,44.1197748],[12.3239107,44.1197209],[12.3222461,44.1164513],[12.3232851,44.1161149],[12.3238543,44.115716],[12.3242268,44.1156467],[12.3243434,44.1131286],[12.3255373,44.1130534],[12.3255368,44.1131224],[12.3266368,44.1131611],[12.3266257,44.1133947],[12.3272785,44.1134044],[12.3274798,44.1105088],[12.3328119,44.110826],[12.3321738,44.1094074],[12.3321015,44.1083123],[12.3318527,44.1077639],[12.3313789,44.1062056]]]},"properties":{"type":"boundary","gemeente":"Gambettola"}}]}