{"type":"FeatureCollection","metadata":{"gemeente":"Giauni/Genuri","slug":"giauni-genuri","generated_at":"2026-09-26T13:10:00.302402Z","total_points":1,"providers":["PosteItaliane"],"bounds":[8.92428523,39.74433877,8.92428523,39.74433877]},"features":[{"type":"Feature","geometry":{"type":"Point","coordinates":[8.92428523,39.74433877]},"properties":{"type":"pakketpunt","locatieNaam":"Genuri","straatNaam":"Via Sardegna","straatNr":"2","vervoerder":"PosteItaliane","puntType":"postkantoor","bezettingsgraad":50,"latitude":39.74433877,"longitude":8.92428523,"canPickup":true,"canDropoff":true,"openingstijden":{"za":"gesloten","zo":"gesloten","ma":"gesloten","di":"gesloten","wo":"08:20 - 13:45","do":"gesloten","vr":"08:20 - 13:45"}}},{"type":"Feature","geometry":{"type":"Polygon","coordinates":[[[8.9017657,39.732972],[8.9022074,39.7321333],[8.9025931,39.7317011],[8.9056053,39.7305953],[8.9065981,39.7299564],[8.9072173,39.7293983],[8.9088303,39.7274083],[8.9096247,39.7266971],[8.9120653,39.7251853],[8.9124743,39.7247261],[8.9127672,39.7238073],[8.9129425,39.7236002],[8.9148093,39.7236556],[8.9154743,39.7237372],[8.9159991,39.7239178],[8.9164775,39.7238911],[8.9176559,39.7240001],[8.9194064,39.723758],[8.9202934,39.7235244],[8.9218564,39.724066],[8.9230459,39.7245804],[8.9249232,39.72578],[8.9272901,39.7274934],[8.9294238,39.7292067],[8.9320237,39.7315689],[8.9389482,39.7396638],[8.9411514,39.7426293],[8.9418974,39.743801],[8.9413954,39.7439449],[8.9416833,39.7437272],[8.940765,39.7441338],[8.9402862,39.7444759],[8.9396904,39.7451063],[8.9381719,39.746403],[8.9375759,39.7471505],[8.937552,39.7477542],[8.9378539,39.7495383],[8.937475,39.7506599],[8.9375605,39.7513222],[8.9373964,39.752106],[8.9372092,39.7525384],[8.9350357,39.7550149],[8.9345915,39.7556454],[8.9338203,39.7564288],[8.9334231,39.756744],[8.9324889,39.7571128],[8.931333,39.7572834],[8.9305626,39.7572378],[8.9292554,39.7569397],[8.926886,39.7566049],[8.9261271,39.7566855],[8.9255199,39.7568383],[8.9251578,39.7570453],[8.9243261,39.758323],[8.9166658,39.7516244],[8.9139615,39.748568],[8.9127263,39.7469993],[8.9123069,39.7463593],[8.910911,39.7426641],[8.910236,39.7411949],[8.9099686,39.7403838],[8.9099112,39.7396359],[8.9097131,39.7394105],[8.9085237,39.7386257],[8.9075446,39.7377149],[8.9059949,39.7358846],[8.9052729,39.7347307],[8.9027308,39.7333771],[8.9017657,39.732972]]]},"properties":{"type":"boundary","gemeente":"Giauni/Genuri"}}]}