{"type":"FeatureCollection","metadata":{"gemeente":"Ginosa","slug":"ginosa","generated_at":"2026-09-26T13:10:00.451509Z","total_points":39,"providers":["PosteItaliane","DPD","InPost","GLS","DHL","Amazon"],"bounds":[16.7539679,40.4189,16.89058819,40.58115845]},"features":[{"type":"Feature","geometry":{"type":"Point","coordinates":[16.89058819,40.42927965]},"properties":{"type":"pakketpunt","locatieNaam":"Marina Di Ginosa","straatNaam":"Piazza Stazione","straatNr":"10","vervoerder":"PosteItaliane","puntType":"postkantoor","bezettingsgraad":50,"latitude":40.42927965,"longitude":16.89058819,"canPickup":true,"canDropoff":true,"openingstijden":{"za":"08:20 - 12:35","zo":"gesloten","ma":"08:20 - 13:35","di":"08:20 - 13:35","wo":"08:20 - 13:35","do":"08:20 - 13:35","vr":"08:20 - 13:35"}}},{"type":"Feature","geometry":{"type":"Point","coordinates":[16.75840628,40.57515757]},"properties":{"type":"pakketpunt","locatieNaam":"Ginosa","straatNaam":"Via Della Pace","straatNr":"27","vervoerder":"PosteItaliane","puntType":"postkantoor","bezettingsgraad":50,"latitude":40.57515757,"longitude":16.75840628,"canPickup":true,"canDropoff":true,"openingstijden":{"za":"08:20 - 12:35","zo":"gesloten","ma":"08:20 - 19:05","di":"08:20 - 19:05","wo":"08:20 - 19:05","do":"08:20 - 19:05","vr":"08:20 - 19:05"}}},{"type":"Feature","geometry":{"type":"Point","coordinates":[16.87650886,40.41894353]},"properties":{"type":"pakketpunt","locatieNaam":"Tabaccheria N. 18","straatNaam":"Viale Jonio","straatNr":"214","vervoerder":"PosteItaliane","puntType":"servicepunt","bezettingsgraad":50,"latitude":40.41894353,"longitude":16.87650886,"canPickup":true,"canDropoff":true,"openingstijden":{"za":"08:30 - 13:00, 16:00 - 20:30","zo":"gesloten","ma":"08:30 - 13:00, 16:00 - 20:30","di":"08:30 - 13:00, 16:00 - 20:30","wo":"08:30 - 13:00, 16:00 - 20:30","do":"08:30 - 13:00, 16:00 - 20:30","vr":"08:30 - 13:00, 16:00 - 20:30"}}},{"type":"Feature","geometry":{"type":"Point","coordinates":[16.88829849,40.42789076]},"properties":{"type":"pakketpunt","locatieNaam":"Tabaccheria N. 11","straatNaam":"Viale Jonio","straatNr":"56","vervoerder":"PosteItaliane","puntType":"servicepunt","bezettingsgraad":50,"latitude":40.42789076,"longitude":16.88829849,"canPickup":true,"canDropoff":true,"openingstijden":{"za":"08:00 - 12:30, 17:00 - 21:00","zo":"gesloten","ma":"08:00 - 12:30, 17:00 - 21:00","di":"08:00 - 12:30, 17:00 - 21:00","wo":"08:00 - 12:30, 17:00 - 21:00","do":"08:00 - 12:30, 17:00 - 21:00","vr":"08:00 - 12:30, 17:00 - 21:00"}}},{"type":"Feature","geometry":{"type":"Point","coordinates":[16.89037303,40.42971245]},"properties":{"type":"pakketpunt","locatieNaam":"Tabaccheria N. 6","straatNaam":"Viale Trieste","straatNr":"7","vervoerder":"PosteItaliane","puntType":"servicepunt","bezettingsgraad":50,"latitude":40.42971245,"longitude":16.89037303,"canPickup":true,"canDropoff":true,"openingstijden":{"za":"06:30 - 13:00, 16:30 - 20:00","zo":"06:30 - 13:00, 16:30 - 20:00","ma":"06:30 - 13:00, 16:30 - 20:00","di":"06:30 - 13:00, 16:30 - 20:00","wo":"06:30 - 13:00, 16:30 - 20:00","do":"06:30 - 13:00, 16:30 - 20:00","vr":"06:30 - 13:00, 16:30 - 20:00"}}},{"type":"Feature","geometry":{"type":"Point","coordinates":[16.75933577,40.57990071]},"properties":{"type":"pakketpunt","locatieNaam":"Tabaccheria N. 2","straatNaam":"Corso Vittorio Emanuele Ii","straatNr":"56","vervoerder":"PosteItaliane","puntType":"servicepunt","bezettingsgraad":50,"latitude":40.57990071,"longitude":16.75933577,"canPickup":true,"canDropoff":true,"openingstijden":{"za":"08:30 - 13:00, 16:30 - 21:00","zo":"gesloten","ma":"08:30 - 13:00, 16:30 - 21:00","di":"08:30 - 13:00, 16:30 - 21:00","wo":"08:30 - 13:00, 16:30 - 21:00","do":"08:30 - 13:00, 16:30 - 21:00","vr":"08:30 - 13:00, 16:30 - 21:00"}}},{"type":"Feature","geometry":{"type":"Point","coordinates":[16.75441689,40.58115845]},"properties":{"type":"pakketpunt","locatieNaam":"Sage Market","straatNaam":"Via Stromboli","straatNr":"12","vervoerder":"PosteItaliane","puntType":"servicepunt","bezettingsgraad":50,"latitude":40.58115845,"longitude":16.75441689,"canPickup":true,"canDropoff":true,"openingstijden":{"za":"09:00 - 13:00, 17:00 - 20:30","zo":"09:00 - 13:00","ma":"09:00 - 13:00, 17:00 - 20:30","di":"09:00 - 13:00, 17:00 - 20:30","wo":"09:00 - 13:00, 17:00 - 20:30","do":"09:00 - 13:00, 17:00 - 20:30","vr":"09:00 - 13:00, 17:00 - 20:30"}}},{"type":"Feature","geometry":{"type":"Point","coordinates":[16.7539679,40.5810858]},"properties":{"type":"pakketpunt","locatieNaam":"Sage Market","straatNaam":"VIA STROMBOLI","straatNr":"12","vervoerder":"DPD","puntType":"pickup_point","bezettingsgraad":50,"latitude":40.5810858,"longitude":16.7539679,"canPickup":true,"canDropoff":true,"openingstijden":{"ma":"09:00 - 13:00, 17:00 - 20:30","di":"09:00 - 13:00, 17:00 - 20:30","wo":"09:00 - 13:00, 17:00 - 20:30","do":"09:00 - 13:00, 17:00 - 20:30","vr":"09:00 - 13:00, 17:00 - 20:30","za":"09:00 - 13:00, 17:00 - 20:30","zo":"gesloten"}}},{"type":"Feature","geometry":{"type":"Point","coordinates":[16.8901058,40.4302253]},"properties":{"type":"pakketpunt","locatieNaam":"Centro Servizi-Ginosa","straatNaam":"VIALE TRIESTE","straatNr":"58/60","vervoerder":"DPD","puntType":"pickup_point","bezettingsgraad":50,"latitude":40.4302253,"longitude":16.8901058,"canPickup":true,"canDropoff":true,"openingstijden":{"ma":"09:00 - 13:00, 16:30 - 19:30","di":"09:00 - 13:00, 16:30 - 19:30","wo":"09:00 - 13:00, 16:30 - 19:30","do":"09:00 - 13:00, 16:30 - 19:30","vr":"09:00 - 13:00, 16:30 - 19:30","za":"gesloten","zo":"gesloten"}}},{"type":"Feature","geometry":{"type":"Point","coordinates":[16.7568828,40.5784909]},"properties":{"type":"pakketpunt","locatieNaam":"Tecno Impianti","straatNaam":"VIA CAVOUR","straatNr":"59","vervoerder":"DPD","puntType":"pickup_point","bezettingsgraad":50,"latitude":40.5784909,"longitude":16.7568828,"canPickup":true,"canDropoff":true,"openingstijden":{"ma":"09:00 - 13:00, 17:00 - 20:00","di":"09:00 - 13:00, 17:00 - 20:00","wo":"09:00 - 13:00, 17:00 - 20:00","do":"09:00 - 13:00, 17:00 - 20:00","vr":"09:00 - 13:00, 17:00 - 20:00","za":"gesloten","zo":"gesloten"}}},{"type":"Feature","geometry":{"type":"Point","coordinates":[16.756512,40.572066]},"properties":{"type":"pakketpunt","locatieNaam":"Future Center 2.0","straatNaam":"V.LE M. D'UNGHERIA","straatNr":"68","vervoerder":"DPD","puntType":"pickup_point","bezettingsgraad":50,"latitude":40.572066,"longitude":16.756512,"canPickup":true,"canDropoff":true,"openingstijden":{"ma":"09:00 - 13:00, 17:00 - 20:30","di":"09:00 - 13:00, 17:00 - 20:30","wo":"09:00 - 13:00, 17:00 - 20:30","do":"09:00 - 13:00, 17:00 - 20:30","vr":"09:00 - 13:00, 17:00 - 20:30","za":"09:00 - 13:00","zo":"gesloten"}}},{"type":"Feature","geometry":{"type":"Point","coordinates":[16.7591,40.57143]},"properties":{"type":"pakketpunt","locatieNaam":"InPost Locker 24/7","straatNaam":"Via Matteotti","straatNr":"237","vervoerder":"InPost","puntType":"automaat","bezettingsgraad":50,"latitude":40.57143,"longitude":16.7591,"canPickup":true,"canDropoff":true,"openingstijden":null}},{"type":"Feature","geometry":{"type":"Point","coordinates":[16.89008,40.43011]},"properties":{"type":"pakketpunt","locatieNaam":"InPost Point","straatNaam":"Viale Trieste","straatNr":"58/60","vervoerder":"InPost","puntType":"servicepunt","bezettingsgraad":50,"latitude":40.43011,"longitude":16.89008,"canPickup":true,"canDropoff":true,"openingstijden":"Lun-Ven: 09:00 - 13:00 - 16:30 - 19:30"}},{"type":"Feature","geometry":{"type":"Point","coordinates":[16.75426,40.58115]},"properties":{"type":"pakketpunt","locatieNaam":"InPost Point","straatNaam":"Via Stromboli","straatNr":"12","vervoerder":"InPost","puntType":"servicepunt","bezettingsgraad":50,"latitude":40.58115,"longitude":16.75426,"canPickup":true,"canDropoff":true,"openingstijden":"0"}},{"type":"Feature","geometry":{"type":"Point","coordinates":[16.8831226,40.4237471]},"properties":{"type":"pakketpunt","locatieNaam":"Cartolibreria del Mare","straatNaam":"Viale Ionio","straatNr":"221","vervoerder":"GLS","puntType":"parcel_shop","bezettingsgraad":50,"latitude":40.4237471,"longitude":16.8831226,"canPickup":true,"canDropoff":true,"openingstijden":"za: 07:30 - 13:00, 16:30 - 20:00; ma: 07:30 - 13:00, 16:30 - 20:00"}},{"type":"Feature","geometry":{"type":"Point","coordinates":[16.8903829,40.4296305]},"properties":{"type":"pakketpunt","locatieNaam":"TABACCHERIA CRISTELLA","straatNaam":"Viale Trieste","straatNr":"7","vervoerder":"GLS","puntType":"parcel_shop","bezettingsgraad":50,"latitude":40.4296305,"longitude":16.8903829,"canPickup":true,"canDropoff":true,"openingstijden":"za: 06:30 - 13:30, 16:30 - 21:00; ma: 06:30 - 13:30, 16:30 - 21:00"}},{"type":"Feature","geometry":{"type":"Point","coordinates":[16.8901058,40.4302253]},"properties":{"type":"pakketpunt","locatieNaam":"RR Centro Servizi","straatNaam":"Viale Trieste","straatNr":"58/60","vervoerder":"GLS","puntType":"parcel_shop","bezettingsgraad":50,"latitude":40.4302253,"longitude":16.8901058,"canPickup":true,"canDropoff":true,"openingstijden":"ma: 09:00 - 13:00, 16:30 - 19:30; di: 09:00 - 13:00, 16:30 - 19:30"}},{"type":"Feature","geometry":{"type":"Point","coordinates":[16.7592871,40.5703838]},"properties":{"type":"pakketpunt","locatieNaam":"Posta Express","straatNaam":"Via Matteotti","straatNr":"251","vervoerder":"GLS","puntType":"parcel_shop","bezettingsgraad":50,"latitude":40.5703838,"longitude":16.7592871,"canPickup":true,"canDropoff":true,"openingstijden":"ma: 08:30 - 13:00, 15:00 - 18:30; di: 08:30 - 13:00, 15:00 - 18:30"}},{"type":"Feature","geometry":{"type":"Point","coordinates":[16.7568828,40.5784909]},"properties":{"type":"pakketpunt","locatieNaam":"Tecno Impianti","straatNaam":"Via Cavour","straatNr":"59","vervoerder":"GLS","puntType":"parcel_shop","bezettingsgraad":50,"latitude":40.5784909,"longitude":16.7568828,"canPickup":true,"canDropoff":true,"openingstijden":"ma: 09:00 - 13:00, 17:00 - 20:00; di: 09:00 - 13:00, 17:00 - 20:00"}},{"type":"Feature","geometry":{"type":"Point","coordinates":[16.7539679,40.5810858]},"properties":{"type":"pakketpunt","locatieNaam":"Sage Market","straatNaam":"Via Stromboli","straatNr":"12","vervoerder":"GLS","puntType":"parcel_shop","bezettingsgraad":50,"latitude":40.5810858,"longitude":16.7539679,"canPickup":true,"canDropoff":true,"openingstijden":"za: 09:00 - 13:00, 17:00 - 20:30; zo: 08:00 - 13:00"}},{"type":"Feature","geometry":{"type":"Point","coordinates":[16.876509,40.418944]},"properties":{"type":"pakketpunt","locatieNaam":"TABACCHERIA N. 18","straatNaam":"VIALE JONIO 214","straatNr":"","vervoerder":"DHL","puntType":"parcelShop","bezettingsgraad":50,"latitude":40.418944,"longitude":16.876509,"canPickup":true,"canDropoff":true,"openingstijden":{"ma":"08:30 - 13:00, 16:00 - 20:30","di":"08:30 - 13:00, 16:00 - 20:30","wo":"08:30 - 13:00, 16:00 - 20:30","do":"08:30 - 13:00, 16:00 - 20:30","vr":"08:30 - 13:00, 16:00 - 20:30","za":"08:30 - 13:00, 16:00 - 20:30","zo":"gesloten"}}},{"type":"Feature","geometry":{"type":"Point","coordinates":[16.888298,40.427891]},"properties":{"type":"pakketpunt","locatieNaam":"TABACCHERIA N. 11","straatNaam":"VIALE JONIO 56","straatNr":"","vervoerder":"DHL","puntType":"parcelShop","bezettingsgraad":50,"latitude":40.427891,"longitude":16.888298,"canPickup":true,"canDropoff":true,"openingstijden":{"ma":"08:00 - 12:30, 17:00 - 21:00","di":"08:00 - 12:30, 17:00 - 21:00","wo":"08:00 - 12:30, 17:00 - 21:00","do":"08:00 - 12:30, 17:00 - 21:00","vr":"08:00 - 12:30, 17:00 - 21:00","za":"08:00 - 12:30, 17:00 - 21:00","zo":"gesloten"}}},{"type":"Feature","geometry":{"type":"Point","coordinates":[16.890588,40.42928]},"properties":{"type":"pakketpunt","locatieNaam":"Ufficio Postale MARINA DI GINOSA","straatNaam":"PIAZZA STAZIONE 10","straatNr":"","vervoerder":"DHL","puntType":"postOffice","bezettingsgraad":50,"latitude":40.42928,"longitude":16.890588,"canPickup":true,"canDropoff":true,"openingstijden":{"ma":"08:20 - 13:35","di":"08:20 - 13:35","wo":"08:20 - 13:35","do":"08:20 - 13:35","vr":"08:20 - 13:35","za":"08:20 - 12:35","zo":"gesloten"}}},{"type":"Feature","geometry":{"type":"Point","coordinates":[16.890373,40.429712]},"properties":{"type":"pakketpunt","locatieNaam":"TABACCHERIA N. 6","straatNaam":"VIALE TRIESTE 7","straatNr":"","vervoerder":"DHL","puntType":"parcelShop","bezettingsgraad":50,"latitude":40.429712,"longitude":16.890373,"canPickup":true,"canDropoff":true,"openingstijden":{"ma":"06:30 - 13:00, 16:30 - 20:00","di":"06:30 - 13:00, 16:30 - 20:00","wo":"06:30 - 13:00, 16:30 - 20:00","do":"06:30 - 13:00, 16:30 - 20:00","vr":"06:30 - 13:00, 16:30 - 20:00","za":"06:30 - 13:00, 16:30 - 20:00","zo":"06:30 - 13:00, 16:30 - 20:00"}}},{"type":"Feature","geometry":{"type":"Point","coordinates":[16.89023,40.42981]},"properties":{"type":"pakketpunt","locatieNaam":"RR_CENTRO SERVIZI","straatNaam":"Viale Trieste 13","straatNr":"","vervoerder":"DHL","puntType":"parcelShop","bezettingsgraad":50,"latitude":40.42981,"longitude":16.89023,"canPickup":false,"canDropoff":true,"openingstijden":{"ma":"09:00 - 20:00","di":"09:00 - 20:00","wo":"09:00 - 20:00","do":"09:00 - 20:00","vr":"09:00 - 20:00","za":"gesloten","zo":"gesloten"}}},{"type":"Feature","geometry":{"type":"Point","coordinates":[16.753968,40.581086]},"properties":{"type":"pakketpunt","locatieNaam":"SAGE MARKET","straatNaam":"Via Avola - Ang Via Stromboli 12","straatNr":"","vervoerder":"DHL","puntType":"parcelShop","bezettingsgraad":50,"latitude":40.581086,"longitude":16.753968,"canPickup":false,"canDropoff":true,"openingstijden":{"ma":"08:30 - 20:30","di":"08:30 - 20:30","wo":"08:30 - 20:30","do":"08:30 - 20:30","vr":"08:30 - 20:30","za":"08:30 - 20:30","zo":"gesloten"}}},{"type":"Feature","geometry":{"type":"Point","coordinates":[16.754417,40.581158]},"properties":{"type":"pakketpunt","locatieNaam":"SAGE MARKET","straatNaam":"VIA STROMBOLI 12","straatNr":"","vervoerder":"DHL","puntType":"parcelShop","bezettingsgraad":50,"latitude":40.581158,"longitude":16.754417,"canPickup":true,"canDropoff":true,"openingstijden":{"ma":"09:00 - 13:00, 17:00 - 20:30","di":"09:00 - 13:00, 17:00 - 20:30","wo":"09:00 - 13:00, 17:00 - 20:30","do":"09:00 - 13:00, 17:00 - 20:30","vr":"09:00 - 13:00, 17:00 - 20:30","za":"09:00 - 13:00, 17:00 - 20:30","zo":"09:00 - 13:00"}}},{"type":"Feature","geometry":{"type":"Point","coordinates":[16.758406,40.575158]},"properties":{"type":"pakketpunt","locatieNaam":"Ufficio Postale GINOSA","straatNaam":"VIA DELLA PACE 27","straatNr":"","vervoerder":"DHL","puntType":"postOffice","bezettingsgraad":50,"latitude":40.575158,"longitude":16.758406,"canPickup":true,"canDropoff":true,"openingstijden":{"ma":"08:20 - 19:05","di":"08:20 - 19:05","wo":"08:20 - 19:05","do":"08:20 - 19:05","vr":"08:20 - 19:05","za":"08:20 - 12:35","zo":"gesloten"}}},{"type":"Feature","geometry":{"type":"Point","coordinates":[16.757422,40.578614]},"properties":{"type":"pakketpunt","locatieNaam":"WIND TRE","straatNaam":"Via Isola Di Caprera, 33","straatNr":"","vervoerder":"DHL","puntType":"parcelShop","bezettingsgraad":50,"latitude":40.578614,"longitude":16.757422,"canPickup":false,"canDropoff":true,"openingstijden":{"ma":"09:00 - 20:30","di":"09:00 - 20:30","wo":"09:00 - 20:30","do":"09:00 - 20:30","vr":"09:00 - 20:30","za":"09:00 - 20:30","zo":"gesloten"}}},{"type":"Feature","geometry":{"type":"Point","coordinates":[16.759336,40.579901]},"properties":{"type":"pakketpunt","locatieNaam":"TABACCHERIA N. 2","straatNaam":"CORSO VITTORIO EMANUELE II 56","straatNr":"","vervoerder":"DHL","puntType":"parcelShop","bezettingsgraad":50,"latitude":40.579901,"longitude":16.759336,"canPickup":true,"canDropoff":true,"openingstijden":{"ma":"08:30 - 13:00, 16:30 - 21:00","di":"08:30 - 13:00, 16:30 - 21:00","wo":"08:30 - 13:00, 16:30 - 21:00","do":"08:30 - 13:00, 16:30 - 21:00","vr":"08:30 - 13:00, 16:30 - 21:00","za":"08:30 - 13:00, 16:30 - 21:00","zo":"gesloten"}}},{"type":"Feature","geometry":{"type":"Point","coordinates":[16.8901058,40.4302253]},"properties":{"type":"pakketpunt","locatieNaam":"Amazon Counter (fermopoint)","straatNaam":"Centro Servizi-Ginosa","straatNr":"","vervoerder":"Amazon","puntType":"helix","bezettingsgraad":50,"latitude":40.4302253,"longitude":16.8901058,"canPickup":true,"canDropoff":false,"openingstijden":null}},{"type":"Feature","geometry":{"type":"Point","coordinates":[16.8765,40.4189]},"properties":{"type":"pakketpunt","locatieNaam":"PuntoPoste TABACCHERIA N. 18","straatNaam":"VIALE JONIO 214","straatNr":"","vervoerder":"Amazon","puntType":"3p","bezettingsgraad":50,"latitude":40.4189,"longitude":16.8765,"canPickup":true,"canDropoff":false,"openingstijden":null}},{"type":"Feature","geometry":{"type":"Point","coordinates":[16.8882,40.4278]},"properties":{"type":"pakketpunt","locatieNaam":"PuntoPoste TABACCHERIA N. 11","straatNaam":"VIALE JONIO 56","straatNr":"","vervoerder":"Amazon","puntType":"3p","bezettingsgraad":50,"latitude":40.4278,"longitude":16.8882,"canPickup":true,"canDropoff":false,"openingstijden":null}},{"type":"Feature","geometry":{"type":"Point","coordinates":[16.8905,40.4292]},"properties":{"type":"pakketpunt","locatieNaam":"Ufficio Postale MARINA DI GINOSA","straatNaam":"PIAZZA STAZIONE 10","straatNr":"","vervoerder":"Amazon","puntType":"3p","bezettingsgraad":50,"latitude":40.4292,"longitude":16.8905,"canPickup":true,"canDropoff":false,"openingstijden":null}},{"type":"Feature","geometry":{"type":"Point","coordinates":[16.754346,40.581094]},"properties":{"type":"pakketpunt","locatieNaam":"Amazon Counter (fermopoint)","straatNaam":"Sage Market","straatNr":"","vervoerder":"Amazon","puntType":"helix","bezettingsgraad":50,"latitude":40.581094,"longitude":16.754346,"canPickup":true,"canDropoff":false,"openingstijden":null}},{"type":"Feature","geometry":{"type":"Point","coordinates":[16.7569423,40.5786004]},"properties":{"type":"pakketpunt","locatieNaam":"Amazon Counter (fermopoint)","straatNaam":"Tecno Impianti","straatNr":"","vervoerder":"Amazon","puntType":"helix","bezettingsgraad":50,"latitude":40.5786004,"longitude":16.7569423,"canPickup":true,"canDropoff":false,"openingstijden":null}},{"type":"Feature","geometry":{"type":"Point","coordinates":[16.75499,40.57502]},"properties":{"type":"pakketpunt","locatieNaam":"Amazon Counter - Ricevitoria Bar del Portico","straatNaam":"Via poggio 76","straatNr":"","vervoerder":"Amazon","puntType":"helix","bezettingsgraad":50,"latitude":40.57502,"longitude":16.75499,"canPickup":true,"canDropoff":false,"openingstijden":null}},{"type":"Feature","geometry":{"type":"Point","coordinates":[16.7593,40.5799]},"properties":{"type":"pakketpunt","locatieNaam":"PuntoPoste TABACCHERIA N. 2","straatNaam":"CORSO VITTORIO EMANUELE II 56","straatNr":"","vervoerder":"Amazon","puntType":"3p","bezettingsgraad":50,"latitude":40.5799,"longitude":16.7593,"canPickup":true,"canDropoff":false,"openingstijden":null}},{"type":"Feature","geometry":{"type":"Point","coordinates":[16.7584,40.5751]},"properties":{"type":"pakketpunt","locatieNaam":"Ufficio Postale GINOSA","straatNaam":"VIA DELLA PACE 27","straatNr":"","vervoerder":"Amazon","puntType":"3p","bezettingsgraad":50,"latitude":40.5751,"longitude":16.7584,"canPickup":true,"canDropoff":false,"openingstijden":null}},{"type":"Feature","geometry":{"type":"Polygon","coordinates":[[[16.7125731,40.5937997],[16.7290836,40.6024106],[16.7342129,40.6020697],[16.7355416,40.602133],[16.7369847,40.6023281],[16.7384397,40.6026844],[16.7404313,40.6034453],[16.7415823,40.6040064],[16.7429257,40.6048514],[16.7530166,40.6020382],[16.7684513,40.595777],[16.7695842,40.595219],[16.7828058,40.5858446],[16.7858509,40.5830068],[16.7861067,40.5819504],[16.786676,40.578057],[16.7861736,40.5774164],[16.7861637,40.5765354],[16.7864774,40.5759249],[16.7872949,40.5747405],[16.7900268,40.5730083],[16.7981998,40.5733841],[16.8109541,40.5745276],[16.8136805,40.5748908],[16.8187395,40.5758283],[16.8210858,40.5769728],[16.8236719,40.5773723],[16.8242262,40.5773436],[16.8262842,40.5761418],[16.827371,40.5748083],[16.8274586,40.5745999],[16.8270751,40.5726244],[16.8285941,40.5698716],[16.8291724,40.5690315],[16.8345771,40.562739],[16.8364676,40.5618993],[16.8375157,40.5617468],[16.8400486,40.5619337],[16.8449399,40.5615501],[16.8613037,40.5600799],[16.862656,40.5598703],[16.8634538,40.5596582],[16.8631356,40.5571567],[16.8625532,40.5561666],[16.8622381,40.5557382],[16.8560535,40.5491631],[16.8410381,40.5420169],[16.8186308,40.5317244],[16.8104684,40.5283447],[16.8265433,40.5148534],[16.8297687,40.5128659],[16.8308052,40.5128535],[16.8316419,40.5136003],[16.8323905,40.5141309],[16.8333731,40.513803],[16.8503271,40.49639],[16.8554007,40.4903982],[16.860919,40.4834718],[16.8647521,40.4812753],[16.876827,40.4747491],[16.8798974,40.4731757],[16.8816334,40.4723999],[16.8900233,40.4691386],[16.891035,40.4686698],[16.8949148,40.4656945],[16.9001285,40.4606674],[16.9008771,40.4592126],[16.9042511,40.4513118],[16.9087728,40.4439391],[16.9092706,40.4432302],[16.9106489,40.4420382],[16.9095824,40.4412684],[16.9090554,40.4407679],[16.9068685,40.4392692],[16.9053115,40.4380721],[16.9046653,40.4373319],[16.9034839,40.4365182],[16.9031314,40.4360922],[16.9020255,40.4354642],[16.9014363,40.4346978],[16.9001922,40.4336356],[16.899804,40.4329769],[16.8982948,40.4317575],[16.896437,40.4294764],[16.8953238,40.4284968],[16.894656,40.4278107],[16.8942994,40.4273215],[16.8936243,40.4267305],[16.89315,40.4261159],[16.8889798,40.4223254],[16.8882486,40.4214297],[16.8875336,40.420822],[16.8836584,40.4169306],[16.8832493,40.4163435],[16.8825796,40.4158709],[16.8819443,40.4149599],[16.8811443,40.4140256],[16.8808819,40.4137858],[16.8800638,40.4133692],[16.8794728,40.4132623],[16.8793703,40.4127099],[16.8791164,40.4122842],[16.8767104,40.4097112],[16.8757925,40.4084867],[16.8742322,40.4070511],[16.8724197,40.4051767],[16.8710791,40.4035926],[16.8708682,40.4030228],[16.8705042,40.4026642],[16.8687619,40.4004573],[16.8677565,40.3989149],[16.8676207,40.3985365],[16.8670356,40.3976421],[16.861373,40.4002339],[16.8494776,40.4040088],[16.836636,40.4114252],[16.824496,40.4204926],[16.8101981,40.4340685],[16.8096563,40.4380859],[16.8095083,40.4431471],[16.8098242,40.4443805],[16.8107532,40.4455453],[16.8107679,40.446165],[16.8105102,40.4479322],[16.8054198,40.4564104],[16.8036333,40.4584388],[16.7988522,40.460909],[16.7934227,40.4629462],[16.7839187,40.4653988],[16.7835245,40.4653895],[16.7831101,40.4650533],[16.7828106,40.4640211],[16.7827693,40.4632727],[16.7789823,40.4631424],[16.7606406,40.4637487],[16.7562601,40.4650926],[16.7565466,40.4653161],[16.7577543,40.4688555],[16.7577524,40.4690805],[16.7545306,40.4716865],[16.7541586,40.4717296],[16.753847,40.4713908],[16.7503152,40.4662405],[16.7489448,40.4658741],[16.7475707,40.465616],[16.7457196,40.4655609],[16.7446281,40.4656839],[16.7364105,40.4689184],[16.7214227,40.4801463],[16.721038,40.4808199],[16.7204078,40.4824051],[16.7209126,40.4832708],[16.7275517,40.4914786],[16.7321945,40.4967347],[16.7344619,40.4994923],[16.7366047,40.5024697],[16.73789,40.504821],[16.7380273,40.5060082],[16.7378643,40.50879],[16.7370379,40.5129569],[16.7357733,40.5133614],[16.7344276,40.5132676],[16.7332369,40.5133298],[16.7318724,40.5135836],[16.7261298,40.5150946],[16.7250813,40.5155969],[16.7241937,40.5164213],[16.7166401,40.5252415],[16.716789,40.5259962],[16.721021,40.5317617],[16.7240317,40.5349867],[16.7249453,40.5356225],[16.7251972,40.5362848],[16.724629,40.5371326],[16.7208298,40.5408825],[16.7153614,40.5459602],[16.7108499,40.5491735],[16.7099943,40.5494108],[16.7087075,40.5494387],[16.707299,40.550289],[16.7065087,40.5511831],[16.7061825,40.556036],[16.7062443,40.5570709],[16.7085077,40.5643679],[16.710493,40.5685618],[16.7121829,40.5713316],[16.7127759,40.5724568],[16.7174106,40.5832332],[16.7166283,40.5882157],[16.7125731,40.5937997]]]},"properties":{"type":"boundary","gemeente":"Ginosa"}}]}