{"type":"FeatureCollection","metadata":{"gemeente":"Giurdignano","slug":"giurdignano","generated_at":"2026-09-26T14:27:23.550226Z","total_points":7,"providers":["PosteItaliane","DHL","Amazon"],"bounds":[18.431,40.120596,18.433224,40.123905]},"features":[{"type":"Feature","geometry":{"type":"Point","coordinates":[18.43102047,40.12390466]},"properties":{"type":"pakketpunt","locatieNaam":"Giurdignano","straatNaam":"Via Roma","straatNr":"14","vervoerder":"PosteItaliane","puntType":"postkantoor","bezettingsgraad":50,"latitude":40.12390466,"longitude":18.43102047,"canPickup":true,"canDropoff":true,"openingstijden":{"za":"08:20 - 12:45","zo":"gesloten","ma":"08:20 - 13:45","di":"08:20 - 13:45","wo":"08:20 - 13:45","do":"08:20 - 13:45","vr":"08:20 - 13:45"}}},{"type":"Feature","geometry":{"type":"Point","coordinates":[18.43167744,40.12298459]},"properties":{"type":"pakketpunt","locatieNaam":"Tabaccheria N. 1","straatNaam":"Piazza Municipio","straatNr":"2","vervoerder":"PosteItaliane","puntType":"servicepunt","bezettingsgraad":50,"latitude":40.12298459,"longitude":18.43167744,"canPickup":true,"canDropoff":true,"openingstijden":{"za":"07:30 - 13:00, 16:00 - 20:30","zo":"08:30 - 12:30","ma":"07:30 - 13:00, 16:00 - 20:30","di":"07:30 - 13:00, 16:00 - 20:30","wo":"07:30 - 13:00, 16:00 - 20:30","do":"07:30 - 13:00, 16:00 - 20:30","vr":"07:30 - 13:00, 16:00 - 20:30"}}},{"type":"Feature","geometry":{"type":"Point","coordinates":[18.43102,40.123905]},"properties":{"type":"pakketpunt","locatieNaam":"Ufficio Postale GIURDIGNANO","straatNaam":"VIA ROMA 14","straatNr":"","vervoerder":"DHL","puntType":"postOffice","bezettingsgraad":50,"latitude":40.123905,"longitude":18.43102,"canPickup":true,"canDropoff":true,"openingstijden":{"ma":"08:20 - 13:45","di":"08:20 - 13:45","wo":"08:20 - 13:45","do":"08:20 - 13:45","vr":"08:20 - 13:45","za":"08:20 - 12:45","zo":"gesloten"}}},{"type":"Feature","geometry":{"type":"Point","coordinates":[18.431677,40.122985]},"properties":{"type":"pakketpunt","locatieNaam":"TABACCHERIA n. 1","straatNaam":"PIAZZA MUNICIPIO 2","straatNr":"","vervoerder":"DHL","puntType":"parcelShop","bezettingsgraad":50,"latitude":40.122985,"longitude":18.431677,"canPickup":true,"canDropoff":true,"openingstijden":{"ma":"07:30 - 13:00, 16:00 - 20:30","di":"07:30 - 13:00, 16:00 - 20:30","wo":"07:30 - 13:00, 16:00 - 20:30","do":"07:30 - 13:00, 16:00 - 20:30","vr":"07:30 - 13:00, 16:00 - 20:30","za":"07:30 - 13:00, 16:00 - 20:30","zo":"08:30 - 12:30"}}},{"type":"Feature","geometry":{"type":"Point","coordinates":[18.433224,40.120596]},"properties":{"type":"pakketpunt","locatieNaam":"Amazon Counter - STAZIONE DI SERVIZIO IP","straatNaam":"VIA DANTE ALIGHIERI 29","straatNr":"","vervoerder":"Amazon","puntType":"helix","bezettingsgraad":50,"latitude":40.120596,"longitude":18.433224,"canPickup":true,"canDropoff":false,"openingstijden":null}},{"type":"Feature","geometry":{"type":"Point","coordinates":[18.431,40.1239]},"properties":{"type":"pakketpunt","locatieNaam":"Ufficio Postale GIURDIGNANO","straatNaam":"VIA ROMA 14","straatNr":"","vervoerder":"Amazon","puntType":"3p","bezettingsgraad":50,"latitude":40.1239,"longitude":18.431,"canPickup":true,"canDropoff":false,"openingstijden":null}},{"type":"Feature","geometry":{"type":"Point","coordinates":[18.4316,40.1229]},"properties":{"type":"pakketpunt","locatieNaam":"PuntoPoste TABACCHERIA n. 1","straatNaam":"PIAZZA MUNICIPIO 2","straatNr":"","vervoerder":"Amazon","puntType":"3p","bezettingsgraad":50,"latitude":40.1229,"longitude":18.4316,"canPickup":true,"canDropoff":false,"openingstijden":null}},{"type":"Feature","geometry":{"type":"Polygon","coordinates":[[[18.4044198,40.1423538],[18.4063697,40.1422512],[18.4087809,40.141814],[18.4093678,40.1418208],[18.4099352,40.1419539],[18.4102834,40.1416451],[18.411236,40.1417168],[18.4115087,40.1415362],[18.4120374,40.1416322],[18.4128304,40.1415473],[18.4131238,40.1417496],[18.4132566,40.1416509],[18.4142026,40.1414523],[18.4152125,40.1415323],[18.4199875,40.1428288],[18.4227391,40.1434515],[18.4276497,40.14526],[18.4290526,40.1458937],[18.430061,40.146149],[18.4335528,40.14608],[18.4345004,40.1458258],[18.4363849,40.1458337],[18.4375248,40.1455772],[18.4377363,40.1455914],[18.4390833,40.1451962],[18.439756,40.1451002],[18.4442017,40.1455391],[18.4459632,40.1455296],[18.4471672,40.1456235],[18.4490128,40.1462117],[18.4523308,40.1467668],[18.4528277,40.1467043],[18.4533722,40.1465096],[18.4542011,40.1459968],[18.4544842,40.145907],[18.4545609,40.1457925],[18.4548538,40.1457326],[18.4555635,40.1458557],[18.4561235,40.1460795],[18.4565991,40.1463966],[18.4571496,40.1465555],[18.4573615,40.1455591],[18.4606102,40.1464652],[18.4627842,40.1468497],[18.4639559,40.1471725],[18.466445,40.1471562],[18.4665195,40.147138],[18.4666235,40.1467698],[18.4673059,40.1468758],[18.467145,40.1463566],[18.4672119,40.1461488],[18.4672002,40.1452758],[18.4670184,40.1448057],[18.4671025,40.1439412],[18.466958,40.1435419],[18.4669697,40.1421053],[18.4669213,40.1419084],[18.4664861,40.1412026],[18.466249,40.1405482],[18.466391,40.1389473],[18.4658779,40.1364678],[18.4654715,40.135539],[18.4653839,40.1330031],[18.4627789,40.1340565],[18.4557704,40.1321405],[18.4531083,40.1311843],[18.45084,40.1302433],[18.4499726,40.1293325],[18.4459529,40.1226974],[18.445976,40.1215889],[18.430468,40.110661],[18.4267534,40.1083438],[18.4182311,40.1103792],[18.416371,40.1116501],[18.4136044,40.1137942],[18.4138609,40.1154401],[18.4142864,40.1161507],[18.4133688,40.1167978],[18.4140222,40.1174762],[18.4131829,40.1179636],[18.4132148,40.1183617],[18.4124242,40.1186389],[18.411769,40.1187195],[18.4116003,40.1190151],[18.4103988,40.1197677],[18.4108102,40.1199526],[18.4121377,40.1201392],[18.4112012,40.1212243],[18.4103497,40.1223886],[18.4093319,40.1234236],[18.408142,40.1246275],[18.4080754,40.1246357],[18.4079228,40.1244231],[18.4074884,40.1253963],[18.4078697,40.125275],[18.4081927,40.125851],[18.4084901,40.1262038],[18.4087815,40.1262734],[18.4096132,40.1269835],[18.4099782,40.1267342],[18.4114821,40.1278209],[18.4110538,40.132216],[18.4092636,40.1358354],[18.4071031,40.1383894],[18.4049874,40.1416085],[18.4044198,40.1423538]]]},"properties":{"type":"boundary","gemeente":"Giurdignano"}}]}