{"type":"FeatureCollection","metadata":{"gemeente":"Gonnos/Gonnosfanadiga","slug":"gonnos-gonnosfanadiga","generated_at":"2026-09-26T14:27:23.771593Z","total_points":16,"providers":["PosteItaliane","DPD","InPost","GLS","DHL","Amazon","FedEx"],"bounds":[8.66055,39.4913,8.667425,39.4967]},"features":[{"type":"Feature","geometry":{"type":"Point","coordinates":[8.66177809,39.49417206]},"properties":{"type":"pakketpunt","locatieNaam":"Tabaccheria N. 2","straatNaam":"Via Porru Bonelli","straatNr":"66","vervoerder":"PosteItaliane","puntType":"servicepunt","bezettingsgraad":50,"latitude":39.49417206,"longitude":8.66177809,"canPickup":true,"canDropoff":true,"openingstijden":{"za":"06:45 - 13:00, 16:30 - 20:30","zo":"gesloten","ma":"06:45 - 13:00, 16:30 - 20:30","di":"06:45 - 13:00, 16:30 - 20:30","wo":"06:45 - 13:00, 16:30 - 20:30","do":"06:45 - 13:00, 16:30 - 20:30","vr":"06:45 - 13:00, 16:30 - 20:30"}}},{"type":"Feature","geometry":{"type":"Point","coordinates":[8.66055411,39.49139002]},"properties":{"type":"pakketpunt","locatieNaam":"Gonnosfanadiga","straatNaam":"Via Porru Bonelli","straatNr":"160","vervoerder":"PosteItaliane","puntType":"postkantoor","bezettingsgraad":50,"latitude":39.49139002,"longitude":8.66055411,"canPickup":true,"canDropoff":true,"openingstijden":{"za":"08:20 - 12:35","zo":"gesloten","ma":"08:20 - 13:35","di":"08:20 - 13:35","wo":"08:20 - 13:35","do":"08:20 - 13:35","vr":"08:20 - 13:35"}}},{"type":"Feature","geometry":{"type":"Point","coordinates":[8.661776,39.49626]},"properties":{"type":"pakketpunt","locatieNaam":"Tabaccheria N. 4","straatNaam":"Via Nazionale","straatNr":"78","vervoerder":"PosteItaliane","puntType":"servicepunt","bezettingsgraad":50,"latitude":39.49626,"longitude":8.661776,"canPickup":true,"canDropoff":true,"openingstijden":{"za":"07:30 - 13:00, 16:00 - 20:30","zo":"08:00 - 13:00","ma":"07:30 - 13:00, 16:00 - 20:30","di":"07:30 - 13:00, 16:00 - 20:30","wo":"07:30 - 13:00, 16:00 - 20:30","do":"07:30 - 13:00, 16:00 - 20:30","vr":"07:30 - 13:00, 16:00 - 20:30"}}},{"type":"Feature","geometry":{"type":"Point","coordinates":[8.66742479,39.49303834]},"properties":{"type":"pakketpunt","locatieNaam":"Tabaccheria N. 5","straatNaam":"Viale John Fitzgerald Kennedy","straatNr":"119","vervoerder":"PosteItaliane","puntType":"servicepunt","bezettingsgraad":50,"latitude":39.49303834,"longitude":8.66742479,"canPickup":true,"canDropoff":true,"openingstijden":{"za":"07:00 - 13:00, 16:30 - 20:30","zo":"gesloten","ma":"07:00 - 13:00, 16:30 - 20:30","di":"07:00 - 13:00, 16:30 - 20:30","wo":"07:00 - 13:00, 16:30 - 20:30","do":"07:00 - 13:00, 16:30 - 20:30","vr":"07:00 - 13:00, 16:30 - 20:30"}}},{"type":"Feature","geometry":{"type":"Point","coordinates":[8.6616559,39.4939812]},"properties":{"type":"pakketpunt","locatieNaam":"Tabaccheria Ricevitoria-Cuccu","straatNaam":"VIA PORRU BONELLI","straatNr":"66","vervoerder":"DPD","puntType":"pickup_point","bezettingsgraad":50,"latitude":39.4939812,"longitude":8.6616559,"canPickup":true,"canDropoff":true,"openingstijden":{"ma":"07:30 - 13:00, 16:30 - 20:30","di":"07:30 - 13:00, 16:30 - 20:30","wo":"07:30 - 13:00, 16:30 - 20:30","do":"07:30 - 13:00, 16:30 - 20:30","vr":"07:30 - 13:00, 16:30 - 20:30","za":"07:30 - 13:00, 16:30 - 20:30","zo":"gesloten"}}},{"type":"Feature","geometry":{"type":"Point","coordinates":[8.6613,39.4967]},"properties":{"type":"pakketpunt","locatieNaam":"InPost Point","straatNaam":"Via Nazionale","straatNr":"94","vervoerder":"InPost","puntType":"servicepunt","bezettingsgraad":50,"latitude":39.4967,"longitude":8.6613,"canPickup":true,"canDropoff":true,"openingstijden":"Lun-Dom: 07:00 - 20:30"}},{"type":"Feature","geometry":{"type":"Point","coordinates":[8.6616612,39.4939749]},"properties":{"type":"pakketpunt","locatieNaam":"Tabaccheria","straatNaam":"Via Porru Bonelli","straatNr":"66","vervoerder":"GLS","puntType":"parcel_shop","bezettingsgraad":50,"latitude":39.4939749,"longitude":8.6616612,"canPickup":true,"canDropoff":true,"openingstijden":"za: 07:30 - 13:00, 17:00 - 20:30; ma: 07:30 - 13:00, 16:30 - 20:30"}},{"type":"Feature","geometry":{"type":"Point","coordinates":[8.661337,39.4962441]},"properties":{"type":"pakketpunt","locatieNaam":"Melis Daniela","straatNaam":"Piazza Verdi Giuseppe","straatNr":"1","vervoerder":"GLS","puntType":"parcel_shop","bezettingsgraad":50,"latitude":39.4962441,"longitude":8.661337,"canPickup":true,"canDropoff":true,"openingstijden":"za: 06:00 - 13:00; zo: 07:00 - 13:00"}},{"type":"Feature","geometry":{"type":"Point","coordinates":[8.660554,39.49139]},"properties":{"type":"pakketpunt","locatieNaam":"Ufficio Postale GONNOSFANADIGA","straatNaam":"VIA PORRU BONELLI 160","straatNr":"","vervoerder":"DHL","puntType":"postOffice","bezettingsgraad":50,"latitude":39.49139,"longitude":8.660554,"canPickup":true,"canDropoff":true,"openingstijden":{"ma":"08:20 - 13:35","di":"08:20 - 13:35","wo":"08:20 - 13:35","do":"08:20 - 13:35","vr":"08:20 - 13:35","za":"08:20 - 12:35","zo":"gesloten"}}},{"type":"Feature","geometry":{"type":"Point","coordinates":[8.661778,39.494172]},"properties":{"type":"pakketpunt","locatieNaam":"TABACCHERIA N. 2","straatNaam":"VIA PORRU BONELLI 66","straatNr":"","vervoerder":"DHL","puntType":"parcelShop","bezettingsgraad":50,"latitude":39.494172,"longitude":8.661778,"canPickup":true,"canDropoff":true,"openingstijden":{"ma":"06:45 - 13:00, 16:30 - 20:30","di":"06:45 - 13:00, 16:30 - 20:30","wo":"06:45 - 13:00, 16:30 - 20:30","do":"06:45 - 13:00, 16:30 - 20:30","vr":"06:45 - 13:00, 16:30 - 20:30","za":"06:45 - 13:00, 16:30 - 20:30","zo":"gesloten"}}},{"type":"Feature","geometry":{"type":"Point","coordinates":[8.661776,39.49626]},"properties":{"type":"pakketpunt","locatieNaam":"TABACCHERIA N. 4","straatNaam":"VIA NAZIONALE 78","straatNr":"","vervoerder":"DHL","puntType":"parcelShop","bezettingsgraad":50,"latitude":39.49626,"longitude":8.661776,"canPickup":true,"canDropoff":true,"openingstijden":{"ma":"07:30 - 13:00, 16:00 - 20:30","di":"07:30 - 13:00, 16:00 - 20:30","wo":"07:30 - 13:00, 16:00 - 20:30","do":"07:30 - 13:00, 16:00 - 20:30","vr":"07:30 - 13:00, 16:00 - 20:30","za":"07:30 - 13:00, 16:00 - 20:30","zo":"08:00 - 13:00"}}},{"type":"Feature","geometry":{"type":"Point","coordinates":[8.667425,39.493038]},"properties":{"type":"pakketpunt","locatieNaam":"TABACCHERIA N. 5","straatNaam":"VIALE JOHN FITZGERALD KENNEDY 119","straatNr":"","vervoerder":"DHL","puntType":"parcelShop","bezettingsgraad":50,"latitude":39.493038,"longitude":8.667425,"canPickup":true,"canDropoff":true,"openingstijden":{"ma":"07:00 - 13:00, 16:30 - 20:30","di":"07:00 - 13:00, 16:30 - 20:30","wo":"07:00 - 13:00, 16:30 - 20:30","do":"07:00 - 13:00, 16:30 - 20:30","vr":"07:00 - 13:00, 16:30 - 20:30","za":"07:00 - 13:00, 16:30 - 20:30","zo":"gesloten"}}},{"type":"Feature","geometry":{"type":"Point","coordinates":[8.661233,39.496272]},"properties":{"type":"pakketpunt","locatieNaam":"Amazon Counter - PRIMAEDICOLA","straatNaam":"DANIELA MELIS","straatNr":"","vervoerder":"Amazon","puntType":"helix","bezettingsgraad":50,"latitude":39.496272,"longitude":8.661233,"canPickup":true,"canDropoff":false,"openingstijden":null}},{"type":"Feature","geometry":{"type":"Point","coordinates":[8.66055,39.4913]},"properties":{"type":"pakketpunt","locatieNaam":"Ufficio Postale GONNOSFANADIGA","straatNaam":"VIA PORRU BONELLI 160","straatNr":"","vervoerder":"Amazon","puntType":"3p","bezettingsgraad":50,"latitude":39.4913,"longitude":8.66055,"canPickup":true,"canDropoff":false,"openingstijden":null}},{"type":"Feature","geometry":{"type":"Point","coordinates":[8.661624111027724,39.49400955492433]},"properties":{"type":"pakketpunt","locatieNaam":"FedEx OnSite","straatNaam":"Via Porru Bonelli, 66","straatNr":"","vervoerder":"FedEx","puntType":"servicepunt","bezettingsgraad":50,"latitude":39.49400955492433,"longitude":8.661624111027724,"canPickup":true,"canDropoff":true,"openingstijden":{"ma":"07:30 - 13:00, 16:30 - 20:30","di":"07:30 - 13:00, 16:30 - 20:30","wo":"07:30 - 13:00, 16:30 - 20:30","do":"07:30 - 13:00, 16:30 - 20:30","vr":"07:30 - 13:00, 16:30 - 20:30","za":"07:30 - 13:00, 17:00 - 20:30","zo":"gesloten"}}},{"type":"Feature","geometry":{"type":"Point","coordinates":[8.661319744411692,39.496248396533986]},"properties":{"type":"pakketpunt","locatieNaam":"FedEx OnSite","straatNaam":"Piazza Verdi Giuseppe, 1","straatNr":"","vervoerder":"FedEx","puntType":"servicepunt","bezettingsgraad":50,"latitude":39.496248396533986,"longitude":8.661319744411692,"canPickup":true,"canDropoff":true,"openingstijden":{"ma":"06:00 - 13:00","di":"06:00 - 13:00","wo":"06:00 - 13:00","do":"06:00 - 13:00","vr":"06:00 - 13:00","za":"06:00 - 13:00","zo":"07:00 - 13:00"}}},{"type":"Feature","geometry":{"type":"MultiPolygon","coordinates":[[[[8.5294532,39.6420113],[8.5307709,39.6418995],[8.5313179,39.6420098],[8.532502,39.6426994],[8.5338737,39.6432275],[8.5342342,39.6433371],[8.5348288,39.6433034],[8.5368596,39.642879],[8.5391691,39.6425819],[8.5408735,39.6421561],[8.5444907,39.6414946],[8.5680734,39.6367462],[8.5737465,39.6294959],[8.5710425,39.6220615],[8.567918,39.6092733],[8.5677333,39.6090023],[8.5658684,39.6073105],[8.5642217,39.606133],[8.5637826,39.6055727],[8.5619173,39.6021327],[8.5573776,39.5943577],[8.5474975,39.5967704],[8.5472052,39.5969405],[8.5326004,39.6090285],[8.5322238,39.6096036],[8.5319517,39.6102152],[8.5272932,39.6323256],[8.5271694,39.6333973],[8.5294532,39.6420113]]],[[[8.5470567,39.4585942],[8.5484302,39.4619064],[8.5490785,39.4641165],[8.5494496,39.4642531],[8.5498448,39.4642546],[8.5502622,39.4644364],[8.5505509,39.4647259],[8.5509446,39.4649617],[8.5511518,39.4652778],[8.5531247,39.4658081],[8.5535064,39.4660979],[8.5542552,39.467173],[8.5548831,39.4689685],[8.554946,39.47005],[8.5552578,39.4703755],[8.55636,39.4707312],[8.5566031,39.4708943],[8.5568802,39.4712017],[8.5573051,39.4720233],[8.5577088,39.4725384],[8.5581606,39.4727924],[8.5589382,39.4730026],[8.5595165,39.4734733],[8.5596777,39.4737172],[8.5597911,39.4741772],[8.5597198,39.4744292],[8.5597739,39.4750602],[8.5601428,39.4755661],[8.5610809,39.4761464],[8.5616118,39.4767611],[8.56184,39.4774647],[8.5620703,39.477817],[8.5624022,39.4786653],[8.5625497,39.4792335],[8.5625589,39.479621],[8.5630649,39.4805149],[8.5631326,39.4808576],[8.5629905,39.4812625],[8.5623695,39.482026],[8.5624256,39.4823506],[8.5633209,39.482345],[8.5637169,39.4822383],[8.5643936,39.4818715],[8.5647428,39.4818097],[8.5651135,39.4820454],[8.5651927,39.4823971],[8.5647222,39.4832513],[8.564556,39.4838003],[8.5646021,39.4857287],[8.5648563,39.485991],[8.5662156,39.4861853],[8.5664583,39.4864295],[8.5667099,39.4871152],[8.5671722,39.4875584],[8.568054,39.4878861],[8.5689596,39.4881147],[8.5692009,39.4885841],[8.5689637,39.4893311],[8.5690396,39.4902235],[8.5693382,39.4908283],[8.5697902,39.4910732],[8.5703365,39.4911293],[8.5705477,39.4908147],[8.5709138,39.489906],[8.5712416,39.4895468],[8.5716722,39.4894943],[8.5724585,39.4902271],[8.5733062,39.4904284],[8.5736076,39.4905737],[8.5745801,39.4912981],[8.5749502,39.4916328],[8.5753191,39.4921568],[8.5755141,39.492608],[8.5759651,39.4930241],[8.5764532,39.493071],[8.5768262,39.4929372],[8.5770357,39.4926631],[8.5773987,39.4924977],[8.5782834,39.4923568],[8.5795031,39.4925775],[8.5887647,39.4957372],[8.5895196,39.4959111],[8.591414,39.496125],[8.5919365,39.496271],[8.5925163,39.4965614],[8.5937931,39.4969893],[8.6004771,39.4995985],[8.6012536,39.5000877],[8.6086788,39.5033657],[8.6102077,39.5045062],[8.6111698,39.5051041],[8.6146623,39.5066475],[8.6156706,39.5073176],[8.619076,39.5120773],[8.6200559,39.5137114],[8.6203796,39.5140729],[8.6242887,39.5139955],[8.6246856,39.5137355],[8.6253881,39.5128997],[8.6262756,39.5122629],[8.6273392,39.5113202],[8.6281321,39.5109623],[8.6286116,39.5104773],[8.6293005,39.5099839],[8.630107,39.5092656],[8.6308066,39.5089435],[8.6313098,39.5083684],[8.6318232,39.5080817],[8.6346652,39.5073428],[8.6360131,39.5076173],[8.6373481,39.5081261],[8.6375556,39.5084872],[8.6378449,39.5087674],[8.6388073,39.5093561],[8.6390585,39.5102759],[8.6396362,39.5110256],[8.6412257,39.5118324],[8.6421295,39.51252],[8.6444499,39.5137345],[8.6456687,39.5142608],[8.6463057,39.5148124],[8.6468393,39.5151114],[8.6476027,39.5159787],[8.6478794,39.5164751],[8.6480164,39.5169801],[8.648024,39.5177911],[8.6481145,39.5182869],[8.6487602,39.5194512],[8.6490499,39.5196683],[8.6493614,39.5201829],[8.6498919,39.5211306],[8.6501562,39.5217801],[8.6502262,39.52406],[8.6503279,39.524655],[8.651047,39.5251076],[8.6516625,39.5253438],[8.6535076,39.5263044],[8.6543426,39.5268655],[8.6596911,39.5299899],[8.6607456,39.530867],[8.6624935,39.5327462],[8.6643488,39.5341032],[8.6658891,39.5356214],[8.6671249,39.5375712],[8.6674806,39.5386264],[8.6682657,39.5399351],[8.6685181,39.5407108],[8.6689443,39.541622],[8.6693952,39.542245],[8.6717469,39.5445223],[8.6724755,39.5454975],[8.6733962,39.5477076],[8.676488,39.5536001],[8.6772905,39.5537374],[8.6784516,39.5543624],[8.6798119,39.5546905],[8.6804393,39.5549445],[8.6807286,39.5553147],[8.6810306,39.5554507],[8.6815874,39.5558757],[8.682769,39.5571224],[8.6835922,39.5578185],[8.6839969,39.5584142],[8.684515,39.5596771],[8.6850498,39.5598317],[8.6866628,39.5609534],[8.687859,39.5615873],[8.6883577,39.5619941],[8.6895192,39.5625829],[8.6902842,39.5633238],[8.6908318,39.5632081],[8.6914049,39.562606],[8.692,39.5622832],[8.6926178,39.5620956],[8.6935359,39.5624494],[8.6941174,39.5625861],[8.6951046,39.5630933],[8.6974307,39.5635859],[8.7001606,39.5649355],[8.7035669,39.5660345],[8.7065651,39.5672856],[8.7069075,39.5675413],[8.7077777,39.5651292],[8.7084839,39.5622446],[8.7087841,39.5600468],[8.7090555,39.5591645],[8.7097006,39.5579857],[8.7104731,39.5569785],[8.7112448,39.5561424],[8.7116781,39.5555218],[8.7120427,39.5545946],[8.7123857,39.553289],[8.7126305,39.5503612],[8.7126121,39.5491898],[8.71272,39.5484152],[8.7128981,39.5475596],[8.7135917,39.5458764],[8.7146833,39.5436175],[8.7155621,39.5421599],[8.7191475,39.5373626],[8.7217006,39.533249],[8.7250237,39.5276335],[8.7262044,39.5259045],[8.7272473,39.5204121],[8.7283561,39.5173652],[8.7288356,39.5155712],[8.7293211,39.5148221],[8.7349383,39.5110367],[8.7396812,39.5070049],[8.7397067,39.5068926],[8.7394701,39.5065304],[8.7371657,39.5039418],[8.7302561,39.5011794],[8.7280134,39.5006516],[8.7263063,39.4999988],[8.7243541,39.4995527],[8.7229602,39.4991169],[8.7215091,39.4984376],[8.7211034,39.4980943],[8.7204302,39.4977412],[8.7193151,39.4974052],[8.7148403,39.4967185],[8.7137959,39.4961573],[8.7134134,39.495841],[8.7125077,39.4954873],[8.7101381,39.4947966],[8.7086739,39.4945136],[8.7065019,39.4938594],[8.7048773,39.4930264],[8.7020431,39.4918838],[8.6891863,39.4858311],[8.6873526,39.4850513],[8.6865754,39.4846167],[8.6861456,39.4845255],[8.685657,39.4845782],[8.6848669,39.4844499],[8.683055,39.4839764],[8.6815437,39.4839092],[8.6808354,39.4837001],[8.6759282,39.4812446],[8.6749309,39.4806652],[8.6743388,39.4804653],[8.673307,39.4798136],[8.6652686,39.4757991],[8.6650807,39.4737622],[8.6649872,39.4690314],[8.6649089,39.4683824],[8.6653567,39.4671313],[8.6663789,39.4648636],[8.6677456,39.461029],[8.6691841,39.456717],[8.6702825,39.4530258],[8.6693445,39.4522933],[8.6624511,39.4477232],[8.6574273,39.4436177],[8.6546487,39.441501],[8.6538605,39.4410842],[8.6519006,39.4402854],[8.6483046,39.4390041],[8.6379925,39.4354403],[8.6273975,39.4306403],[8.6168174,39.425515],[8.6124824,39.4236805],[8.6120539,39.4234267],[8.6114735,39.4233437],[8.6060431,39.4241995],[8.6041687,39.4249049],[8.6033894,39.4250555],[8.6029699,39.4252793],[8.6010652,39.427192],[8.6006221,39.4274788],[8.5935408,39.4304458],[8.5900591,39.4317491],[8.5892913,39.4319086],[8.5840074,39.4314213],[8.581663,39.4348639],[8.5801887,39.4365616],[8.580047,39.4369305],[8.5823041,39.4422999],[8.5829372,39.4433114],[8.5825022,39.4441568],[8.5822448,39.4444532],[8.5813936,39.4449187],[8.5791812,39.4456406],[8.5785986,39.4458998],[8.5780265,39.4463302],[8.5770385,39.4468402],[8.5744387,39.4476958],[8.572042,39.4481285],[8.5709259,39.4481875],[8.5689362,39.4485766],[8.5667391,39.4486585],[8.5626858,39.450067],[8.5470567,39.4585942]]]]},"properties":{"type":"boundary","gemeente":"Gonnos/Gonnosfanadiga"}}]}