{"type":"FeatureCollection","metadata":{"gemeente":"Grazzano Badoglio","slug":"grazzano-badoglio","generated_at":"2026-09-26T14:27:24.354780Z","total_points":1,"providers":["PosteItaliane"],"bounds":[8.31306552,45.03887952,8.31306552,45.03887952]},"features":[{"type":"Feature","geometry":{"type":"Point","coordinates":[8.31306552,45.03887952]},"properties":{"type":"pakketpunt","locatieNaam":"Grazzano Badoglio","straatNaam":"Piazza Giacomo Cotti","straatNr":"1","vervoerder":"PosteItaliane","puntType":"postkantoor","bezettingsgraad":50,"latitude":45.03887952,"longitude":8.31306552,"canPickup":true,"canDropoff":true,"openingstijden":{"za":"08:20 - 12:45","zo":"gesloten","ma":"gesloten","di":"08:20 - 13:45","wo":"gesloten","do":"08:20 - 13:45","vr":"gesloten"}}},{"type":"Feature","geometry":{"type":"Polygon","coordinates":[[[8.2920157,45.0171378],[8.2923139,45.0172702],[8.2930511,45.0180849],[8.2932557,45.0186082],[8.2932732,45.0192475],[8.2929823,45.0196778],[8.2926981,45.0203421],[8.2924504,45.0211283],[8.2923826,45.021614],[8.2926016,45.0221284],[8.2936597,45.0233007],[8.2939098,45.0237343],[8.2940215,45.0241941],[8.2946208,45.0247469],[8.2949535,45.0253071],[8.2948928,45.0267605],[8.2947619,45.0273448],[8.2945993,45.0277939],[8.2942282,45.0284218],[8.294062,45.0294244],[8.292906,45.0314202],[8.2927346,45.0323238],[8.2927767,45.0327741],[8.2929048,45.0334501],[8.2933869,45.0342497],[8.2933928,45.035447],[8.2939897,45.037107],[8.2939437,45.0374983],[8.2940384,45.0383091],[8.2945134,45.0386631],[8.2955591,45.0398353],[8.2952922,45.0406303],[8.2951446,45.0417996],[8.29501,45.0421633],[8.2940719,45.0437148],[8.2940557,45.0441288],[8.2938871,45.0446769],[8.2939234,45.0449472],[8.2936553,45.0462328],[8.2933193,45.0469643],[8.2925361,45.0481747],[8.2909206,45.0504557],[8.2898273,45.0526048],[8.2907737,45.0532228],[8.2922228,45.0535018],[8.2933666,45.0548547],[8.2943656,45.0550724],[8.2953142,45.0551278],[8.2962986,45.0549853],[8.2973628,45.0555905],[8.2978402,45.0562731],[8.3011835,45.0565411],[8.3023221,45.0567731],[8.3033263,45.0580035],[8.3050265,45.0595891],[8.3057806,45.0594587],[8.3066732,45.0589015],[8.3076205,45.0586822],[8.3087218,45.0575322],[8.3093508,45.0571129],[8.3098982,45.0566121],[8.3104818,45.0563996],[8.3116915,45.0561697],[8.3119572,45.0560486],[8.312369,45.0557674],[8.3155269,45.0541435],[8.3166662,45.0533807],[8.3176537,45.053112],[8.3191605,45.0532155],[8.3196075,45.0531372],[8.3206413,45.0527763],[8.3222986,45.0518974],[8.3220393,45.0516753],[8.3221406,45.0514284],[8.3221443,45.0499071],[8.3219975,45.0490331],[8.3219109,45.0477588],[8.321823,45.0475422],[8.3218548,45.0471373],[8.3214129,45.0465181],[8.3214582,45.0464418],[8.3228749,45.0459687],[8.3233442,45.0459467],[8.3238537,45.0460442],[8.3231407,45.0456372],[8.3236416,45.0452891],[8.3240899,45.0450982],[8.3239063,45.044647],[8.3232155,45.0440038],[8.3240459,45.0431761],[8.3246645,45.042392],[8.3252227,45.0413601],[8.325295,45.041149],[8.3252716,45.0408428],[8.3255358,45.0406419],[8.3254734,45.0405515],[8.3263546,45.0401156],[8.3269225,45.0400064],[8.3279991,45.0399542],[8.3282589,45.0397217],[8.3284873,45.0387914],[8.3288744,45.0387981],[8.3289763,45.0383667],[8.3291955,45.0380799],[8.3289064,45.0379612],[8.3287053,45.0360201],[8.328766,45.0354489],[8.3290986,45.0346857],[8.3304951,45.0350944],[8.3310949,45.0345623],[8.3319277,45.0348553],[8.3330575,45.0342497],[8.3335327,45.0328887],[8.3332835,45.031672],[8.3327983,45.0313631],[8.3321194,45.0316157],[8.3308144,45.0318016],[8.3301404,45.0320407],[8.3296892,45.0323532],[8.3292022,45.0332955],[8.3290319,45.0334745],[8.3287737,45.033563],[8.3283212,45.0333173],[8.3288614,45.0320422],[8.3286036,45.0320992],[8.3277061,45.0316394],[8.3270922,45.0305375],[8.3267021,45.0303777],[8.3262361,45.0296593],[8.325845,45.0294499],[8.3251156,45.0292746],[8.3226835,45.0284275],[8.3209399,45.0270624],[8.3188987,45.0248493],[8.3183617,45.0246391],[8.316964,45.0244957],[8.31612,45.023955],[8.3160739,45.0238242],[8.3165144,45.0234713],[8.3165093,45.0232372],[8.3156976,45.021315],[8.3155268,45.0204768],[8.3153107,45.0200974],[8.3153746,45.0197962],[8.3153139,45.0195663],[8.3151973,45.0193676],[8.3148455,45.0190639],[8.3139675,45.0197878],[8.3129453,45.0198311],[8.3123648,45.0202102],[8.3118007,45.0202833],[8.3101626,45.0192967],[8.3098653,45.0184173],[8.3097293,45.0168006],[8.3092571,45.0159606],[8.3090105,45.0150949],[8.3089555,45.0140009],[8.3090176,45.0134476],[8.3093818,45.0120545],[8.3093113,45.0119821],[8.3090979,45.0119223],[8.3089127,45.0120202],[8.3084537,45.0120669],[8.3072717,45.0120778],[8.3046742,45.0124041],[8.3041596,45.012581],[8.3042493,45.0132972],[8.3012312,45.0140214],[8.3006342,45.0140672],[8.2989495,45.0134133],[8.29812,45.0132777],[8.2973081,45.0132502],[8.2965379,45.013448],[8.2958122,45.0137675],[8.2952946,45.014318],[8.2944304,45.0154514],[8.2933904,45.0164261],[8.2926882,45.0168944],[8.2920157,45.0171378]]]},"properties":{"type":"boundary","gemeente":"Grazzano Badoglio"}}]}