{"type":"FeatureCollection","metadata":{"gemeente":"Gressoney-Saint-Jean","slug":"gressoney-saint-jean","generated_at":"2026-09-26T14:27:24.428883Z","total_points":5,"providers":["PosteItaliane","GLS","DHL","Amazon"],"bounds":[7.82441,45.778098,7.825277,45.78022645]},"features":[{"type":"Feature","geometry":{"type":"Point","coordinates":[7.82441464,45.78022645]},"properties":{"type":"pakketpunt","locatieNaam":"Gressoney Saint Jean","straatNaam":"Strada Regionale 44","straatNr":"3","vervoerder":"PosteItaliane","puntType":"postkantoor","bezettingsgraad":50,"latitude":45.78022645,"longitude":7.82441464,"canPickup":true,"canDropoff":true,"openingstijden":{"za":"08:20 - 12:45","zo":"gesloten","ma":"08:20 - 13:45","di":"08:20 - 13:45","wo":"08:20 - 13:45","do":"08:20 - 13:45","vr":"08:20 - 13:45"}}},{"type":"Feature","geometry":{"type":"Point","coordinates":[7.8252509,45.7781459]},"properties":{"type":"pakketpunt","locatieNaam":"CUOR DI CRAI","straatNaam":"Via Deffeyes","straatNr":"6","vervoerder":"GLS","puntType":"parcel_shop","bezettingsgraad":50,"latitude":45.7781459,"longitude":7.8252509,"canPickup":true,"canDropoff":true,"openingstijden":"za: 08:30 - 13:00, 15:30 - 19:30; zo: 08:30 - 13:00"}},{"type":"Feature","geometry":{"type":"Point","coordinates":[7.824415,45.780226]},"properties":{"type":"pakketpunt","locatieNaam":"Ufficio Postale GRESSONEY SAINT JEA","straatNaam":"STRADA REGIONALE 44 3","straatNr":"","vervoerder":"DHL","puntType":"postOffice","bezettingsgraad":50,"latitude":45.780226,"longitude":7.824415,"canPickup":true,"canDropoff":true,"openingstijden":{"ma":"08:20 - 13:45","di":"08:20 - 13:45","wo":"08:20 - 13:45","do":"08:20 - 13:45","vr":"08:20 - 13:45","za":"08:20 - 12:45","zo":"gesloten"}}},{"type":"Feature","geometry":{"type":"Point","coordinates":[7.825277,45.778098]},"properties":{"type":"pakketpunt","locatieNaam":"MARKET LAURENT CUOR DI CRAI","straatNaam":"Via Deffeyes,6","straatNr":"","vervoerder":"DHL","puntType":"parcelShop","bezettingsgraad":50,"latitude":45.778098,"longitude":7.825277,"canPickup":false,"canDropoff":true,"openingstijden":{"ma":"08:30 - 19:00","di":"08:30 - 12:30","wo":"08:30 - 12:30","do":"08:30 - 19:00","vr":"08:30 - 19:30","za":"08:30 - 19:30","zo":"gesloten"}}},{"type":"Feature","geometry":{"type":"Point","coordinates":[7.82441,45.7802]},"properties":{"type":"pakketpunt","locatieNaam":"Ufficio Postale GRESSONEY SAINT JEAN","straatNaam":"STRADA REGIONALE 44 3","straatNr":"","vervoerder":"Amazon","puntType":"3p","bezettingsgraad":50,"latitude":45.7802,"longitude":7.82441,"canPickup":true,"canDropoff":false,"openingstijden":null}},{"type":"Feature","geometry":{"type":"Polygon","coordinates":[[[7.7817122,45.7997044],[7.7820668,45.7981961],[7.7828102,45.7965569],[7.7827089,45.7947106],[7.7830452,45.7940392],[7.7837555,45.7933267],[7.7867144,45.7921611],[7.7897913,45.7914826],[7.7911885,45.7911284],[7.7924456,45.7907097],[7.7928032,45.7902364],[7.7930508,45.789492],[7.792937,45.7888067],[7.7925304,45.7879744],[7.7923877,45.7874328],[7.7928106,45.7845301],[7.793036,45.7836234],[7.7957742,45.7783329],[7.7967739,45.7773083],[7.7968983,45.7769046],[7.7962616,45.7760068],[7.7956674,45.7749295],[7.7951276,45.7737177],[7.7946773,45.7719308],[7.7945741,45.7689595],[7.7943136,45.7667246],[7.7946793,45.7652703],[7.7952664,45.7648805],[7.7965363,45.7644349],[7.7996392,45.7636664],[7.8007048,45.7631466],[7.8013558,45.7621723],[7.8018994,45.7608099],[7.8021821,45.7596158],[7.80247,45.7581787],[7.8025964,45.7564789],[7.8029098,45.7556541],[7.8044258,45.7533028],[7.8045657,45.7527732],[7.8052267,45.751322],[7.8052896,45.7507826],[7.80493,45.7489607],[7.8065549,45.7463135],[7.8075223,45.7449555],[7.8082596,45.7441351],[7.8089784,45.7435846],[7.8097813,45.7427019],[7.8103821,45.7422581],[7.8139692,45.7410173],[7.8145419,45.7406812],[7.8159677,45.7389049],[7.81729,45.7377665],[7.8182149,45.7365789],[7.8190423,45.7357414],[7.8220247,45.733279],[7.8238923,45.7318671],[7.8210104,45.7301723],[7.8187535,45.7293209],[7.8179098,45.7291052],[7.8187155,45.7280784],[7.8198453,45.7256869],[7.8203666,45.7259533],[7.8216919,45.727101],[7.8221697,45.727601],[7.8229166,45.7287518],[7.8235064,45.7294329],[7.8240121,45.7298342],[7.8247911,45.7300672],[7.8253947,45.7300914],[7.8276252,45.7297543],[7.8288934,45.7293353],[7.8320472,45.7284765],[7.8338772,45.7282342],[7.838951,45.7283579],[7.8412823,45.7281115],[7.843642,45.7277304],[7.8459697,45.7276549],[7.84873,45.7277908],[7.8508959,45.7280826],[7.8529505,45.7281663],[7.8581938,45.7281738],[7.859049,45.7284614],[7.8589901,45.7288298],[7.8584786,45.7293377],[7.8578827,45.7301958],[7.8569381,45.7311405],[7.8574894,45.731209],[7.8581974,45.7311531],[7.8589375,45.7314125],[7.8602842,45.7315519],[7.8612007,45.7313541],[7.8640852,45.7329849],[7.865742,45.7336764],[7.8680041,45.73495],[7.8695239,45.7354331],[7.8710461,45.7357991],[7.8731069,45.7368636],[7.8765446,45.7378605],[7.8769206,45.7389803],[7.877231,45.7395234],[7.8784406,45.7394633],[7.8793848,45.7391665],[7.881032,45.7390746],[7.8824766,45.7388278],[7.8850752,45.7387271],[7.8868507,45.7379974],[7.8877107,45.7374117],[7.8898017,45.736325],[7.8912074,45.7360866],[7.8920782,45.7356],[7.8929683,45.7347896],[7.8944589,45.734156],[7.8957648,45.7337636],[7.898912,45.7331999],[7.9011087,45.7332571],[7.9033278,45.7334854],[7.9044991,45.7340547],[7.9056409,45.7348217],[7.907348,45.7356031],[7.9096524,45.7373982],[7.9114773,45.7380727],[7.9133477,45.7383965],[7.9147899,45.7382662],[7.9168063,45.7363592],[7.9173646,45.7360675],[7.9197227,45.7357658],[7.920493,45.7358091],[7.9214987,45.7356475],[7.9229213,45.7351929],[7.92461,45.7349388],[7.9261134,45.7349619],[7.9270585,45.7347671],[7.9277011,45.735827],[7.9276657,45.7361893],[7.9274565,45.7365338],[7.9270916,45.7369018],[7.9274448,45.7379222],[7.9283127,45.7389204],[7.9291876,45.7395497],[7.9301388,45.7400216],[7.9304822,45.7400962],[7.9307746,45.7403253],[7.9308824,45.7407939],[7.9313052,45.7410545],[7.9312185,45.7416193],[7.9304552,45.7420532],[7.928965,45.7425683],[7.9284192,45.7424647],[7.9280479,45.7426629],[7.9274609,45.7427395],[7.927013,45.7424435],[7.9249099,45.7420859],[7.9240853,45.7420307],[7.92273,45.7424373],[7.9210656,45.7427855],[7.916714,45.7435457],[7.9149343,45.7452496],[7.9147681,45.7455939],[7.9144934,45.7458875],[7.9136517,45.7460142],[7.9130055,45.7467311],[7.9120553,45.7471067],[7.9101889,45.7473241],[7.9088794,45.7471485],[7.9083809,45.7472644],[7.9076744,45.747238],[7.9066518,45.7473766],[7.9029314,45.7483063],[7.9017068,45.74852],[7.8997963,45.7493483],[7.8998252,45.7496758],[7.8972542,45.7514689],[7.8948361,45.7528226],[7.8938408,45.7536205],[7.8936407,45.7538629],[7.8931108,45.7541622],[7.8926061,45.7542346],[7.8921925,45.7545161],[7.8915489,45.755203],[7.8912443,45.7562981],[7.8907962,45.7574998],[7.8901089,45.7584382],[7.8890012,45.7592764],[7.8881819,45.7595122],[7.8861611,45.7598854],[7.8856964,45.7600485],[7.8850768,45.7605345],[7.8849021,45.7609999],[7.8843478,45.7618493],[7.8839706,45.7632535],[7.8842589,45.7638256],[7.8844194,45.7644218],[7.8839903,45.764953],[7.8830941,45.7650284],[7.8810923,45.7659589],[7.880388,45.7666787],[7.8805951,45.7670563],[7.8809715,45.7674774],[7.8809667,45.7678897],[7.8817098,45.7684311],[7.8822433,45.769112],[7.8823378,45.7696695],[7.8823304,45.770309],[7.8821123,45.7705621],[7.8822695,45.7711718],[7.8818848,45.7719841],[7.8818609,45.7725114],[7.8807376,45.7736951],[7.8795525,45.7751553],[7.8781572,45.7752884],[7.8775676,45.7757151],[7.8761869,45.7764824],[7.8758439,45.7769354],[7.8752447,45.7772548],[7.8751972,45.7775704],[7.8746324,45.7781689],[7.8732729,45.7783979],[7.872926,45.7790616],[7.8726613,45.77925],[7.8725066,45.7802846],[7.871872,45.7810094],[7.8702423,45.7821672],[7.8697689,45.7826244],[7.8690933,45.7829608],[7.8692375,45.7833899],[7.8689726,45.7837401],[7.8693769,45.7843983],[7.8691774,45.7849456],[7.869072,45.7855282],[7.8682096,45.7859109],[7.8676521,45.7866885],[7.8673821,45.7872473],[7.8657222,45.7884338],[7.865446,45.7889162],[7.8649432,45.7895222],[7.8645687,45.7896764],[7.8639441,45.7905519],[7.8631647,45.79097],[7.8627684,45.7914816],[7.8620414,45.7915277],[7.8618882,45.7917769],[7.8622815,45.7921339],[7.8624584,45.7927441],[7.8624754,45.7932009],[7.8626371,45.7936281],[7.8626019,45.7940502],[7.8629762,45.7945295],[7.8631699,45.795456],[7.8644076,45.7966968],[7.8657006,45.7981966],[7.8657729,45.7987159],[7.8655266,45.7993266],[7.8656471,45.8000905],[7.8661787,45.8019745],[7.8652222,45.8025866],[7.8647169,45.8036449],[7.864712,45.8040763],[7.8650965,45.804834],[7.8640656,45.8070023],[7.8639312,45.8084786],[7.8634732,45.8106414],[7.8639144,45.8114521],[7.8637899,45.8125552],[7.8639148,45.8144683],[7.8636801,45.8147574],[7.8641631,45.8152204],[7.8637658,45.8159929],[7.8635754,45.8169787],[7.8628331,45.8181986],[7.8615209,45.8197974],[7.8592199,45.8197641],[7.8583675,45.8196096],[7.8576233,45.81975],[7.856591,45.8192447],[7.8550704,45.8186984],[7.8535379,45.818728],[7.8499222,45.8199068],[7.8472977,45.8210774],[7.8458197,45.8215845],[7.844866,45.8216379],[7.8440882,45.821279],[7.8438183,45.8206372],[7.8441389,45.8200734],[7.8439775,45.8197838],[7.8410087,45.8189346],[7.8395305,45.8188296],[7.8373622,45.8197256],[7.8355877,45.8202476],[7.8340151,45.8203486],[7.8310744,45.8200035],[7.8296084,45.8199345],[7.8284302,45.8202554],[7.8262933,45.8214846],[7.8245783,45.82162],[7.8234107,45.8214369],[7.8200212,45.8214504],[7.8196084,45.8216587],[7.8194736,45.8219454],[7.8196441,45.8224062],[7.8193885,45.8229255],[7.8190188,45.8233628],[7.8189677,45.8239563],[7.8203815,45.8246729],[7.8196549,45.8261595],[7.8193165,45.8275511],[7.8189141,45.828312],[7.8183696,45.8290984],[7.8179258,45.8299939],[7.8177739,45.8304784],[7.8177273,45.8308559],[7.818213,45.8310229],[7.8184131,45.831304],[7.8181005,45.8314718],[7.8178374,45.8317391],[7.8175166,45.8322938],[7.8160665,45.8320628],[7.8150108,45.8320608],[7.8146692,45.8323813],[7.8143475,45.832981],[7.8136956,45.8333613],[7.8133803,45.833655],[7.8132186,45.8339954],[7.8120364,45.8344871],[7.8115833,45.8345994],[7.8105554,45.8344987],[7.8097486,45.8342923],[7.8089871,45.8337713],[7.8080991,45.8337531],[7.8077593,45.8340825],[7.8077408,45.8342534],[7.8087113,45.8352355],[7.8085647,45.835468],[7.8080812,45.835796],[7.8089001,45.8360386],[7.8086988,45.8364235],[7.8084747,45.8366642],[7.8064672,45.8366072],[7.8062972,45.8367314],[7.8067145,45.8376899],[7.8073978,45.838255],[7.8074537,45.8386516],[7.8063328,45.8386759],[7.8056532,45.8385428],[7.8038756,45.8379662],[7.8025535,45.8377723],[7.8013289,45.8378315],[7.8007051,45.838095],[7.8004401,45.8384432],[7.8002579,45.8391343],[7.7993726,45.838981],[7.7983521,45.8391323],[7.7958226,45.8399877],[7.7952194,45.8398914],[7.7934661,45.8393868],[7.7922731,45.8391762],[7.7892069,45.8380547],[7.7879273,45.8376811],[7.7835217,45.8371663],[7.784027,45.8364336],[7.7840633,45.8347689],[7.7838958,45.8340875],[7.7839436,45.8337595],[7.7850123,45.8331678],[7.7858097,45.8326183],[7.7859626,45.8320979],[7.7862313,45.8315877],[7.7872794,45.8307528],[7.7880575,45.829906],[7.7894886,45.8286251],[7.7899179,45.8278286],[7.7901948,45.8269314],[7.7910755,45.8255007],[7.7912572,45.8248365],[7.7912847,45.8241618],[7.7909828,45.8232405],[7.7905386,45.8223538],[7.7895811,45.8207955],[7.7887968,45.8201572],[7.7879178,45.8197338],[7.7870436,45.8190855],[7.7866831,45.8184966],[7.7859425,45.8164456],[7.7856355,45.8151733],[7.7852469,45.8146921],[7.7847404,45.8143087],[7.784277,45.8137187],[7.7839443,45.8124461],[7.7836018,45.8116234],[7.7828261,45.810598],[7.7826901,45.8103446],[7.7825969,45.8098935],[7.7833185,45.8086771],[7.7844468,45.807096],[7.785205,45.8065551],[7.7873678,45.805336],[7.7876301,45.8051137],[7.7877771,45.8048633],[7.7877703,45.8039901],[7.7874383,45.8032755],[7.7860902,45.8019471],[7.7831174,45.8001784],[7.7817122,45.7997044]]]},"properties":{"type":"boundary","gemeente":"Gressoney-Saint-Jean"}}]}