{"type":"FeatureCollection","metadata":{"gemeente":"Grottaferrata","slug":"grottaferrata","generated_at":"2026-09-26T13:10:01.701026Z","total_points":29,"providers":["PosteItaliane","DPD","InPost","GLS","DHL","Amazon"],"bounds":[12.6662831,41.78004,12.6972144,41.7888897]},"features":[{"type":"Feature","geometry":{"type":"Point","coordinates":[12.669926,41.78652921]},"properties":{"type":"pakketpunt","locatieNaam":"Grottaferrata 1","straatNaam":"Viale Primo Maggio","straatNr":"59","vervoerder":"PosteItaliane","puntType":"postkantoor","bezettingsgraad":50,"latitude":41.78652921,"longitude":12.669926,"canPickup":true,"canDropoff":true,"openingstijden":{"za":"gesloten","zo":"gesloten","ma":"08:20 - 13:35","di":"08:20 - 13:35","wo":"08:20 - 13:35","do":"08:20 - 13:35","vr":"08:20 - 13:35"}}},{"type":"Feature","geometry":{"type":"Point","coordinates":[12.67049389,41.78867566]},"properties":{"type":"pakketpunt","locatieNaam":"Tabaccheria N. 9","straatNaam":"Via Antonio Santovetti","straatNr":"26","vervoerder":"PosteItaliane","puntType":"servicepunt","bezettingsgraad":50,"latitude":41.78867566,"longitude":12.67049389,"canPickup":true,"canDropoff":true,"openingstijden":{"za":"08:30 - 13:00, 16:00 - 20:00","zo":"gesloten","ma":"08:30 - 13:00, 16:00 - 20:00","di":"08:30 - 13:00, 16:00 - 20:00","wo":"08:30 - 13:00, 16:00 - 20:00","do":"08:30 - 13:00, 16:00 - 20:00","vr":"08:30 - 13:00, 16:00 - 20:00"}}},{"type":"Feature","geometry":{"type":"Point","coordinates":[12.66632235,41.78873526]},"properties":{"type":"pakketpunt","locatieNaam":"Tabaccheria N. 14","straatNaam":"Via Principe Di Napoli","straatNr":"13","vervoerder":"PosteItaliane","puntType":"servicepunt","bezettingsgraad":50,"latitude":41.78873526,"longitude":12.66632235,"canPickup":true,"canDropoff":true,"openingstijden":{"za":"07:00 - 19:00","zo":"gesloten","ma":"07:00 - 19:00","di":"07:00 - 19:00","wo":"07:00 - 19:00","do":"07:00 - 19:00","vr":"07:00 - 19:00"}}},{"type":"Feature","geometry":{"type":"Point","coordinates":[12.6680498,41.78815773]},"properties":{"type":"pakketpunt","locatieNaam":"Nottelunga","straatNaam":"Via Domenichino","straatNr":"7","vervoerder":"PosteItaliane","puntType":"automaat","bezettingsgraad":50,"latitude":41.78815773,"longitude":12.6680498,"canPickup":true,"canDropoff":true,"openingstijden":{"za":"00:01 - 23:59","zo":"00:01 - 23:59","ma":"00:01 - 23:59","di":"00:01 - 23:59","wo":"00:01 - 23:59","do":"00:01 - 23:59","vr":"00:01 - 23:59"}}},{"type":"Feature","geometry":{"type":"Point","coordinates":[12.67738211,41.78405058]},"properties":{"type":"pakketpunt","locatieNaam":"Tabaccheria N. 2","straatNaam":"Via Della Costituente","straatNr":"36","vervoerder":"PosteItaliane","puntType":"servicepunt","bezettingsgraad":50,"latitude":41.78405058,"longitude":12.67738211,"canPickup":true,"canDropoff":true,"openingstijden":{"za":"08:00 - 13:00, 16:00 - 19:30","zo":"08:00 - 13:00","ma":"07:30 - 13:30, 15:30 - 19:30","di":"07:30 - 13:30, 15:30 - 19:30","wo":"07:30 - 13:30, 15:30 - 19:30","do":"07:30 - 13:30, 15:30 - 19:30","vr":"07:30 - 13:30, 15:30 - 19:30"}}},{"type":"Feature","geometry":{"type":"Point","coordinates":[12.67269703,41.78687823]},"properties":{"type":"pakketpunt","locatieNaam":"Tabaccheria N. 6","straatNaam":"Via Venticinque Luglio","straatNr":"2/b","vervoerder":"PosteItaliane","puntType":"servicepunt","bezettingsgraad":50,"latitude":41.78687823,"longitude":12.67269703,"canPickup":true,"canDropoff":true,"openingstijden":{"za":"07:00 - 19:45","zo":"07:30 - 13:00","ma":"07:00 - 19:45","di":"07:00 - 19:45","wo":"07:00 - 19:45","do":"07:00 - 19:45","vr":"07:00 - 19:45"}}},{"type":"Feature","geometry":{"type":"Point","coordinates":[12.69696727,41.78790612]},"properties":{"type":"pakketpunt","locatieNaam":"Tabaccheria N. 15","straatNaam":"Via Castellani","straatNr":"22","vervoerder":"PosteItaliane","puntType":"servicepunt","bezettingsgraad":50,"latitude":41.78790612,"longitude":12.69696727,"canPickup":true,"canDropoff":true,"openingstijden":{"za":"08:30 - 13:00, 15:30 - 19:30","zo":"gesloten","ma":"08:30 - 13:00, 15:30 - 19:30","di":"08:30 - 13:00, 15:30 - 19:30","wo":"08:30 - 13:00, 15:30 - 19:30","do":"08:30 - 13:00, 15:30 - 19:30","vr":"08:30 - 13:00, 15:30 - 19:30"}}},{"type":"Feature","geometry":{"type":"Point","coordinates":[12.6824437724,41.7800783005]},"properties":{"type":"pakketpunt","locatieNaam":"Megadata","straatNaam":"VIALE V. VENETO","straatNr":"10/12","vervoerder":"DPD","puntType":"pickup_point","bezettingsgraad":50,"latitude":41.7800783005,"longitude":12.6824437724,"canPickup":true,"canDropoff":true,"openingstijden":{"ma":"09:00 - 13:00, 16:00 - 20:00","di":"09:00 - 13:00, 16:00 - 20:00","wo":"09:00 - 13:00, 16:00 - 20:00","do":"09:00 - 13:00, 16:00 - 20:00","vr":"09:00 - 13:00, 16:00 - 20:00","za":"09:00 - 13:00","zo":"gesloten"}}},{"type":"Feature","geometry":{"type":"Point","coordinates":[12.6662831,41.7883096]},"properties":{"type":"pakketpunt","locatieNaam":"Coni Porte Finestre Blindati","straatNaam":"VIALE SAN NILO","straatNr":"23","vervoerder":"DPD","puntType":"pickup_point","bezettingsgraad":50,"latitude":41.7883096,"longitude":12.6662831,"canPickup":true,"canDropoff":true,"openingstijden":{"ma":"10:30 - 12:30, 16:30 - 19:00","di":"10:30 - 12:30, 16:30 - 19:00","wo":"10:30 - 12:30","do":"10:30 - 12:30, 16:30 - 19:00","vr":"10:30 - 12:30, 16:30 - 19:00","za":"10:00 - 13:00","zo":"gesloten"}}},{"type":"Feature","geometry":{"type":"Point","coordinates":[12.66903781,41.7870781]},"properties":{"type":"pakketpunt","locatieNaam":"Silvagni Group","straatNaam":"V.LE PRIMO MAGGIO","straatNr":"15","vervoerder":"DPD","puntType":"pickup_point","bezettingsgraad":50,"latitude":41.7870781,"longitude":12.66903781,"canPickup":true,"canDropoff":true,"openingstijden":{"ma":"gesloten","di":"09:00 - 18:00","wo":"09:00 - 18:00","do":"09:00 - 18:00","vr":"09:00 - 18:00","za":"09:00 - 18:00","zo":"gesloten"}}},{"type":"Feature","geometry":{"type":"Point","coordinates":[12.6972144,41.7878922]},"properties":{"type":"pakketpunt","locatieNaam":"Tabaccheria Sg","straatNaam":"VIA R. CASTELLANI","straatNr":"22","vervoerder":"DPD","puntType":"pickup_point","bezettingsgraad":50,"latitude":41.7878922,"longitude":12.6972144,"canPickup":true,"canDropoff":true,"openingstijden":{"ma":"08:30 - 13:00, 15:30 - 19:30","di":"08:30 - 13:00, 15:30 - 19:30","wo":"08:30 - 13:00, 15:30 - 19:30","do":"08:30 - 13:00, 15:30 - 19:30","vr":"08:30 - 13:00, 15:30 - 19:30","za":"08:30 - 13:00, 15:30 - 19:30","zo":"gesloten"}}},{"type":"Feature","geometry":{"type":"Point","coordinates":[12.67009294,41.7888897]},"properties":{"type":"pakketpunt","locatieNaam":"Ruggeri Servizi","straatNaam":"VIA A. SANTOVETTI","straatNr":"14","vervoerder":"DPD","puntType":"pickup_point","bezettingsgraad":50,"latitude":41.7888897,"longitude":12.67009294,"canPickup":true,"canDropoff":true,"openingstijden":{"ma":"09:30 - 13:00, 16:00 - 18:30","di":"09:30 - 13:00, 16:00 - 18:30","wo":"09:30 - 13:00, 16:00 - 18:30","do":"09:30 - 13:00, 16:00 - 18:30","vr":"09:30 - 13:00, 16:00 - 18:30","za":"gesloten","zo":"gesloten"}}},{"type":"Feature","geometry":{"type":"Point","coordinates":[12.667982,41.788153]},"properties":{"type":"pakketpunt","locatieNaam":"BRT LOCKER - Nottelunga Via Domenic","straatNaam":"VIA DOMENICHINO","straatNr":"7","vervoerder":"DPD","puntType":"dpd_box","bezettingsgraad":50,"latitude":41.788153,"longitude":12.667982,"canPickup":true,"canDropoff":true,"openingstijden":{"ma":"00:00 - 23:45","di":"00:00 - 23:45","wo":"00:00 - 23:45","do":"00:00 - 23:45","vr":"00:00 - 23:45","za":"00:00 - 23:45","zo":"00:00 - 23:45"}}},{"type":"Feature","geometry":{"type":"Point","coordinates":[12.67307005,41.78690049]},"properties":{"type":"pakketpunt","locatieNaam":"Tabaccheria Porcari A.","straatNaam":"VIA XXV LUGLIO","straatNr":"2c","vervoerder":"DPD","puntType":"pickup_point","bezettingsgraad":50,"latitude":41.78690049,"longitude":12.67307005,"canPickup":true,"canDropoff":true,"openingstijden":{"ma":"07:00 - 19:30","di":"07:00 - 19:30","wo":"07:00 - 19:30","do":"07:00 - 19:30","vr":"07:00 - 19:30","za":"07:00 - 19:30","zo":"08:00 - 13:00"}}},{"type":"Feature","geometry":{"type":"Point","coordinates":[12.67332,41.7867]},"properties":{"type":"pakketpunt","locatieNaam":"InPost Locker","straatNaam":"Via XXV Luglio","straatNr":"2C","vervoerder":"InPost","puntType":"automaat","bezettingsgraad":50,"latitude":41.7867,"longitude":12.67332,"canPickup":true,"canDropoff":true,"openingstijden":null}},{"type":"Feature","geometry":{"type":"Point","coordinates":[12.66798,41.78814]},"properties":{"type":"pakketpunt","locatieNaam":"InPost Locker 24/7","straatNaam":"Via Domenichino","straatNr":"7","vervoerder":"InPost","puntType":"automaat","bezettingsgraad":50,"latitude":41.78814,"longitude":12.66798,"canPickup":true,"canDropoff":true,"openingstijden":null}},{"type":"Feature","geometry":{"type":"Point","coordinates":[12.68239,41.78004]},"properties":{"type":"pakketpunt","locatieNaam":"InPost Point","straatNaam":"Viale Vittorio Veneto","straatNr":"10","vervoerder":"InPost","puntType":"servicepunt","bezettingsgraad":50,"latitude":41.78004,"longitude":12.68239,"canPickup":true,"canDropoff":true,"openingstijden":"Lun-Ven: 09:00 - 13:00 - 16:00 - 20:00 Sab: 09:00 - 13:00"}},{"type":"Feature","geometry":{"type":"Point","coordinates":[12.667,41.78801]},"properties":{"type":"pakketpunt","locatieNaam":"InPost Point","straatNaam":"Via Giuseppe Verdi","straatNr":"6","vervoerder":"InPost","puntType":"servicepunt","bezettingsgraad":50,"latitude":41.78801,"longitude":12.667,"canPickup":true,"canDropoff":true,"openingstijden":"Lun-Ven: 10:00 - 17:30 Sab: 10:00 - 13:00"}},{"type":"Feature","geometry":{"type":"Point","coordinates":[12.6733195,41.7866985]},"properties":{"type":"pakketpunt","locatieNaam":"antonello porcari","straatNaam":"Via Xxv Luglio","straatNr":"2","vervoerder":"GLS","puntType":"parcel_shop","bezettingsgraad":50,"latitude":41.7866985,"longitude":12.6733195,"canPickup":true,"canDropoff":true,"openingstijden":"za: 07:00 - 20:00; zo: 07:00 - 13:00"}},{"type":"Feature","geometry":{"type":"Point","coordinates":[12.696967,41.787906]},"properties":{"type":"pakketpunt","locatieNaam":"TABACCHERIA N. 15","straatNaam":"VIA CASTELLANI 22","straatNr":"","vervoerder":"DHL","puntType":"parcelShop","bezettingsgraad":50,"latitude":41.787906,"longitude":12.696967,"canPickup":true,"canDropoff":true,"openingstijden":{"ma":"08:30 - 13:00, 15:30 - 19:30","di":"08:30 - 13:00, 15:30 - 19:30","wo":"08:30 - 13:00, 15:30 - 19:30","do":"08:30 - 13:00, 15:30 - 19:30","vr":"08:30 - 13:00, 15:30 - 19:30","za":"08:30 - 13:00, 15:30 - 19:30","zo":"gesloten"}}},{"type":"Feature","geometry":{"type":"Point","coordinates":[12.677382,41.784051]},"properties":{"type":"pakketpunt","locatieNaam":"TABACCHERIA N. 2","straatNaam":"VIA DELLA COSTITUENTE 36","straatNr":"","vervoerder":"DHL","puntType":"parcelShop","bezettingsgraad":50,"latitude":41.784051,"longitude":12.677382,"canPickup":true,"canDropoff":true,"openingstijden":{"ma":"07:30 - 13:30, 15:30 - 19:30","di":"07:30 - 13:30, 15:30 - 19:30","wo":"07:30 - 13:30, 15:30 - 19:30","do":"07:30 - 13:30, 15:30 - 19:30","vr":"07:30 - 13:30, 15:30 - 19:30","za":"08:00 - 13:00, 16:00 - 19:30","zo":"08:00 - 13:00"}}},{"type":"Feature","geometry":{"type":"Point","coordinates":[12.673194,41.786796]},"properties":{"type":"pakketpunt","locatieNaam":"TABACCHERIA PORCARI ANTONELLO","straatNaam":"Xxv Luglio 2/c","straatNr":"","vervoerder":"DHL","puntType":"parcelShop","bezettingsgraad":50,"latitude":41.786796,"longitude":12.673194,"canPickup":false,"canDropoff":true,"openingstijden":{"ma":"07:00 - 20:00","di":"07:00 - 20:00","wo":"07:00 - 20:00","do":"07:00 - 20:00","vr":"07:00 - 20:00","za":"07:00 - 20:00","zo":"gesloten"}}},{"type":"Feature","geometry":{"type":"Point","coordinates":[12.672697,41.786878]},"properties":{"type":"pakketpunt","locatieNaam":"TABACCHERIA N. 6","straatNaam":"VIA VENTICINQUE LUGLIO 2-B","straatNr":"","vervoerder":"DHL","puntType":"parcelShop","bezettingsgraad":50,"latitude":41.786878,"longitude":12.672697,"canPickup":true,"canDropoff":true,"openingstijden":{"ma":"07:00 - 19:45","di":"07:00 - 19:45","wo":"07:00 - 19:45","do":"07:00 - 19:45","vr":"07:00 - 19:45","za":"07:00 - 19:45","zo":"07:30 - 13:00"}}},{"type":"Feature","geometry":{"type":"Point","coordinates":[12.669926,41.786529]},"properties":{"type":"pakketpunt","locatieNaam":"Ufficio Postale GROTTAFERRATA 1","straatNaam":"VIALE PRIMO MAGGIO 59","straatNr":"","vervoerder":"DHL","puntType":"postOffice","bezettingsgraad":50,"latitude":41.786529,"longitude":12.669926,"canPickup":true,"canDropoff":true,"openingstijden":{"ma":"08:20 - 13:35","di":"08:20 - 13:35","wo":"08:20 - 13:35","do":"08:20 - 13:35","vr":"08:20 - 13:35","za":"gesloten","zo":"gesloten"}}},{"type":"Feature","geometry":{"type":"Point","coordinates":[12.670494,41.788676]},"properties":{"type":"pakketpunt","locatieNaam":"TABACCHERIA N. 9","straatNaam":"VIA ANTONIO SANTOVETTI 26","straatNr":"","vervoerder":"DHL","puntType":"parcelShop","bezettingsgraad":50,"latitude":41.788676,"longitude":12.670494,"canPickup":true,"canDropoff":true,"openingstijden":{"ma":"08:30 - 13:00, 16:00 - 20:00","di":"08:30 - 13:00, 16:00 - 20:00","wo":"08:30 - 13:00, 16:00 - 20:00","do":"08:30 - 13:00, 16:00 - 20:00","vr":"08:30 - 13:00, 16:00 - 20:00","za":"08:30 - 13:00, 16:00 - 20:00","zo":"gesloten"}}},{"type":"Feature","geometry":{"type":"Point","coordinates":[12.66805,41.788158]},"properties":{"type":"pakketpunt","locatieNaam":"NOTTELUNGA","straatNaam":"VIA DOMENICHINO 7","straatNr":"","vervoerder":"DHL","puntType":"packStation","bezettingsgraad":50,"latitude":41.788158,"longitude":12.66805,"canPickup":true,"canDropoff":true,"openingstijden":{"ma":"00:01 - 23:59","di":"00:01 - 23:59","wo":"00:01 - 23:59","do":"00:01 - 23:59","vr":"00:01 - 23:59","za":"00:01 - 23:59","zo":"00:01 - 23:59"}}},{"type":"Feature","geometry":{"type":"Point","coordinates":[12.666322,41.788735]},"properties":{"type":"pakketpunt","locatieNaam":"TABACCHERIA N. 14","straatNaam":"VIA PRINCIPE DI NAPOLI 13","straatNr":"","vervoerder":"DHL","puntType":"parcelShop","bezettingsgraad":50,"latitude":41.788735,"longitude":12.666322,"canPickup":true,"canDropoff":true,"openingstijden":{"ma":"07:00 - 19:00","di":"07:00 - 19:00","wo":"07:00 - 19:00","do":"07:00 - 19:00","vr":"07:00 - 19:00","za":"07:00 - 19:00","zo":"gesloten"}}},{"type":"Feature","geometry":{"type":"Point","coordinates":[12.668107,41.78806]},"properties":{"type":"pakketpunt","locatieNaam":"Amazon Locker - calzare","straatNaam":"Fermopoint/Nottelunga-Grottaferrata","straatNr":"","vervoerder":"Amazon","puntType":"locker","bezettingsgraad":50,"latitude":41.78806,"longitude":12.668107,"canPickup":true,"canDropoff":false,"openingstijden":null}},{"type":"Feature","geometry":{"type":"Point","coordinates":[12.668598,41.788057]},"properties":{"type":"pakketpunt","locatieNaam":"Amazon Counter - PRIMAEDICOLA","straatNaam":"MECOZZI M.LUISA","straatNr":"","vervoerder":"Amazon","puntType":"helix","bezettingsgraad":50,"latitude":41.788057,"longitude":12.668598,"canPickup":true,"canDropoff":false,"openingstijden":null}},{"type":"Feature","geometry":{"type":"MultiPolygon","coordinates":[[[[12.6377901,41.8032475],[12.6367796,41.8036073],[12.6376035,41.8045852],[12.6378456,41.8069033],[12.6380075,41.807304],[12.637943,41.8076801],[12.6377598,41.8080044],[12.6370865,41.8086735],[12.637027,41.8089364],[12.6371552,41.8092265],[12.6384326,41.8097455],[12.6390332,41.8091956],[12.6391622,41.808441],[12.6396134,41.8072955],[12.6414421,41.8064093],[12.6438394,41.8060406],[12.6483439,41.8063552],[12.6496825,41.8063502],[12.6500154,41.8065132],[12.6503578,41.8065071],[12.6506612,41.806285],[12.6512935,41.8061998],[12.6517632,41.8059861],[12.6521465,41.8051834],[12.6529095,41.8051574],[12.6562111,41.8028921],[12.6574002,41.8028779],[12.65891,41.8019331],[12.6590527,41.8014331],[12.6594759,41.8010743],[12.660589,41.8016742],[12.6608031,41.8014189],[12.6613508,41.8018373],[12.6622113,41.801505],[12.662617,41.8010255],[12.6625647,41.8008979],[12.6630675,41.800251],[12.6654609,41.7996269],[12.6657777,41.8000306],[12.6663914,41.8001975],[12.667227,41.801211],[12.6679816,41.8008726],[12.6682266,41.8018361],[12.6688009,41.801556],[12.6692817,41.8019511],[12.669563,41.8036383],[12.6712341,41.8037548],[12.6717264,41.8036963],[12.6723875,41.8034747],[12.6727847,41.8035527],[12.6736645,41.8027676],[12.6733388,41.8024956],[12.67554,41.8004752],[12.6763591,41.8009401],[12.6777371,41.8005131],[12.6801426,41.8005203],[12.6812862,41.8019496],[12.6814745,41.801453],[12.6818713,41.8009365],[12.682547,41.8003052],[12.6861134,41.8001291],[12.6873934,41.7997151],[12.6881155,41.7987392],[12.6893496,41.7963102],[12.6910116,41.7967915],[12.6935257,41.7983642],[12.6947868,41.7996472],[12.6950648,41.7998912],[12.6951448,41.7998662],[12.6956058,41.8004762],[12.6969648,41.8002046],[12.7002202,41.7993477],[12.703027,41.798969],[12.710568,41.7987568],[12.7243056,41.8006213],[12.7235123,41.7978872],[12.7234703,41.7973708],[12.7243019,41.7932557],[12.7299534,41.7829674],[12.7268622,41.7830011],[12.7238852,41.7827595],[12.7224757,41.7829429],[12.7217202,41.782891],[12.7154852,41.7831101],[12.7016479,41.7831368],[12.6959703,41.7824194],[12.6870722,41.7799143],[12.6849354,41.773396],[12.6796009,41.7744017],[12.6747512,41.7774297],[12.672915,41.7780062],[12.6614646,41.7775753],[12.6601352,41.7774016],[12.6585847,41.7760373],[12.6580999,41.775472],[12.6577865,41.7753289],[12.6533611,41.7757626],[12.6515066,41.7761368],[12.6501608,41.7767469],[12.6461268,41.7798287],[12.6450774,41.7808796],[12.643754,41.7841774],[12.643427,41.7844208],[12.6433816,41.7848201],[12.6436885,41.7855474],[12.644122,41.7859919],[12.6445559,41.7861448],[12.6440087,41.7866408],[12.6426834,41.787321],[12.6421899,41.7878089],[12.6411304,41.7882549],[12.6403151,41.7887849],[12.6401388,41.7889719],[12.6399956,41.7895391],[12.6398067,41.7896922],[12.6397598,41.7899628],[12.6394514,41.7904848],[12.6390437,41.7906127],[12.6376583,41.7907717],[12.637434,41.7908641],[12.6374113,41.7910031],[12.6375988,41.7913097],[12.6376715,41.7916696],[12.6371421,41.7917757],[12.6366029,41.7922006],[12.6365205,41.7925175],[12.6362743,41.7927105],[12.6359492,41.7931955],[12.6358151,41.7934954],[12.6358568,41.7938815],[12.6357861,41.7940216],[12.6346054,41.7945193],[12.6383833,41.7954827],[12.6387251,41.7962987],[12.6407409,41.7959512],[12.6415782,41.7965948],[12.6422647,41.7972611],[12.6424955,41.7976878],[12.6429513,41.7977826],[12.6434954,41.7973287],[12.643545,41.7967387],[12.6433141,41.7968002],[12.6431586,41.7967405],[12.6419344,41.7959351],[12.6431229,41.7961041],[12.6446104,41.7968133],[12.6448169,41.7961272],[12.6449519,41.7941284],[12.6451316,41.7938067],[12.647709,41.7926614],[12.6514657,41.7913277],[12.65196,41.7912833],[12.6524134,41.7913316],[12.6527761,41.7915538],[12.6529834,41.7918821],[12.6534627,41.7921815],[12.6534498,41.7924423],[12.6535663,41.7928383],[12.6531259,41.794258],[12.6526466,41.7946443],[12.6518351,41.7960676],[12.6525954,41.796228],[12.6531108,41.7964386],[12.6511508,41.7969142],[12.6479618,41.7979371],[12.6461974,41.7990358],[12.6448198,41.7995775],[12.6437507,41.8001844],[12.6410314,41.8014424],[12.6377901,41.8032475]]],[[[12.6763456,41.7606209],[12.6844417,41.7699512],[12.690106,41.7625204],[12.6833464,41.7582578],[12.6825095,41.7564387],[12.6763456,41.7606209]]]]},"properties":{"type":"boundary","gemeente":"Grottaferrata"}}]}