{"type":"FeatureCollection","metadata":{"gemeente":"Imbersago","slug":"imbersago","generated_at":"2026-09-26T14:27:25.483731Z","total_points":3,"providers":["PosteItaliane","DHL"],"bounds":[9.44613038,45.70621342,9.446397,45.706265]},"features":[{"type":"Feature","geometry":{"type":"Point","coordinates":[9.44613038,45.70621342]},"properties":{"type":"pakketpunt","locatieNaam":"Imbersago","straatNaam":"Via Castelbarco","straatNr":"1","vervoerder":"PosteItaliane","puntType":"postkantoor","bezettingsgraad":50,"latitude":45.70621342,"longitude":9.44613038,"canPickup":true,"canDropoff":true,"openingstijden":{"za":"08:20 - 12:45","zo":"gesloten","ma":"gesloten","di":"08:20 - 13:45","wo":"gesloten","do":"08:20 - 13:45","vr":"gesloten"}}},{"type":"Feature","geometry":{"type":"Point","coordinates":[9.44639672,45.70626472]},"properties":{"type":"pakketpunt","locatieNaam":"Tabaccheria N. 1","straatNaam":"Piazza Giuseppe Garibaldi","straatNr":"11","vervoerder":"PosteItaliane","puntType":"servicepunt","bezettingsgraad":50,"latitude":45.70626472,"longitude":9.44639672,"canPickup":true,"canDropoff":true,"openingstijden":{"za":"06:30 - 12:30, 15:00 - 18:00","zo":"06:30 - 12:30","ma":"06:30 - 12:30","di":"06:30 - 12:30, 15:00 - 18:00","wo":"06:30 - 12:30, 15:00 - 18:00","do":"06:30 - 12:30, 15:00 - 18:00","vr":"06:30 - 12:30, 15:00 - 18:00"}}},{"type":"Feature","geometry":{"type":"Point","coordinates":[9.446397,45.706265]},"properties":{"type":"pakketpunt","locatieNaam":"TABACCHERIA N. 1","straatNaam":"PIAZZA GIUSEPPE GARIBALDI 11","straatNr":"","vervoerder":"DHL","puntType":"parcelShop","bezettingsgraad":50,"latitude":45.706265,"longitude":9.446397,"canPickup":true,"canDropoff":true,"openingstijden":{"ma":"06:30 - 12:30","di":"06:30 - 12:30, 15:00 - 18:00","wo":"06:30 - 12:30, 15:00 - 18:00","do":"06:30 - 12:30, 15:00 - 18:00","vr":"06:30 - 12:30, 15:00 - 18:00","za":"06:30 - 12:30, 15:00 - 18:00","zo":"06:30 - 12:30"}}},{"type":"Feature","geometry":{"type":"Polygon","coordinates":[[[9.4381399,45.6999922],[9.4376978,45.7002769],[9.4375762,45.7009524],[9.4370348,45.7013235],[9.4361306,45.7017095],[9.436897,45.7034167],[9.4360875,45.7035908],[9.4354543,45.7020766],[9.4352884,45.7020187],[9.4345957,45.7023499],[9.4334358,45.7030968],[9.4342017,45.7035433],[9.4339062,45.7039632],[9.4336589,45.7052063],[9.4325297,45.7053234],[9.4323424,45.7054052],[9.4319755,45.7057126],[9.4316216,45.7062629],[9.4316678,45.7064248],[9.4324027,45.706971],[9.4325104,45.7072001],[9.4322955,45.7080605],[9.4322952,45.7084386],[9.4318953,45.7088496],[9.4327928,45.7098678],[9.4331585,45.7104334],[9.4330709,45.7117749],[9.4331655,45.71258],[9.4339776,45.712514],[9.4344133,45.7136104],[9.4337109,45.7137346],[9.4336185,45.7138384],[9.4352377,45.7138728],[9.435598,45.7135294],[9.4360235,45.7135187],[9.4368577,45.712989],[9.437495,45.7127525],[9.4374207,45.7129058],[9.437727,45.7134582],[9.4395226,45.7140768],[9.4405496,45.7145685],[9.4407421,45.7145089],[9.4415639,45.7149643],[9.4415362,45.7150254],[9.4416084,45.7150567],[9.4424107,45.7151593],[9.4423745,45.7158524],[9.442076,45.7162991],[9.4410681,45.7171986],[9.4405253,45.717252],[9.4415225,45.7174095],[9.4409912,45.7179096],[9.4404179,45.7179927],[9.4409777,45.7187741],[9.4412012,45.7188047],[9.4413767,45.718651],[9.4418417,45.7185547],[9.4436583,45.7185567],[9.4445043,45.7184994],[9.4445819,45.718364],[9.4448033,45.7183272],[9.4457191,45.7183686],[9.446549,45.7183024],[9.4467231,45.7179867],[9.4467355,45.7177301],[9.4464432,45.7173262],[9.4464077,45.7169033],[9.4461933,45.7165981],[9.4462374,45.7162919],[9.4469361,45.7162982],[9.4476885,45.7161918],[9.4489808,45.7163172],[9.4502442,45.7162312],[9.449904,45.7144729],[9.4499649,45.7138606],[9.4502251,45.7134591],[9.4508979,45.7128444],[9.4522407,45.7124745],[9.4531223,45.7118725],[9.4536674,45.7111548],[9.4543212,45.7105852],[9.4553577,45.7098835],[9.4576181,45.7078268],[9.4586467,45.7059775],[9.4590876,45.7037346],[9.4590718,45.7031766],[9.4593517,45.7024555],[9.4594442,45.701987],[9.4593378,45.7013439],[9.4591554,45.7010341],[9.4584361,45.700452],[9.4581086,45.7000053],[9.4565186,45.6988306],[9.4564461,45.6986653],[9.4564831,45.6983134],[9.453694,45.698945],[9.4534162,45.6985429],[9.4521381,45.698138],[9.4507047,45.698925],[9.4504865,45.6994877],[9.4504458,45.6998663],[9.450632,45.7001586],[9.4506906,45.7006507],[9.4502739,45.7005829],[9.4499908,45.7004016],[9.4490473,45.6992491],[9.4495062,45.6982428],[9.448647,45.6979074],[9.4482632,45.6976508],[9.4480075,45.6977621],[9.4480289,45.6979054],[9.4479093,45.6980264],[9.4477409,45.6979645],[9.4474556,45.69821],[9.4462048,45.6987155],[9.4457384,45.6990035],[9.4455956,45.698893],[9.445844,45.6987602],[9.4455684,45.6982931],[9.4450268,45.6985553],[9.4428344,45.7003422],[9.441427,45.7004597],[9.4409974,45.6997069],[9.4389353,45.7001548],[9.4385008,45.6992516],[9.438285,45.6994936],[9.4381399,45.6999922]]]},"properties":{"type":"boundary","gemeente":"Imbersago"}}]}