{"type":"FeatureCollection","metadata":{"gemeente":"Isola di Fondra","slug":"isola-di-fondra","generated_at":"2026-09-26T14:27:25.965573Z","total_points":1,"providers":["PosteItaliane"],"bounds":[9.73432529,45.96807565,9.73432529,45.96807565]},"features":[{"type":"Feature","geometry":{"type":"Point","coordinates":[9.73432529,45.96807565]},"properties":{"type":"pakketpunt","locatieNaam":"Fondra","straatNaam":"Via Roma","straatNr":"22","vervoerder":"PosteItaliane","puntType":"postkantoor","bezettingsgraad":50,"latitude":45.96807565,"longitude":9.73432529,"canPickup":true,"canDropoff":true,"openingstijden":{"za":"08:20 - 12:45","zo":"gesloten","ma":"gesloten","di":"08:20 - 13:45","wo":"gesloten","do":"08:20 - 13:45","vr":"gesloten"}}},{"type":"Feature","geometry":{"type":"Polygon","coordinates":[[[9.7073615,45.9772221],[9.7086379,45.9778532],[9.7106726,45.9791006],[9.7110807,45.9795976],[9.7114994,45.980657],[9.711707,45.9809887],[9.712121,45.9813147],[9.7131808,45.9819021],[9.7167284,45.9834414],[9.722682,45.9858069],[9.7227969,45.9857072],[9.7232374,45.9857044],[9.7243201,45.9859316],[9.7263989,45.9880334],[9.7268932,45.9884353],[9.7286072,45.9885549],[9.7308632,45.9899985],[9.7322196,45.9904083],[9.7322873,45.9912584],[9.7331913,45.9918781],[9.7328049,45.9926861],[9.7322445,45.9953537],[9.7339187,45.9951315],[9.7342937,45.9951651],[9.7347245,45.9950318],[9.735197,45.9950018],[9.7359043,45.9947767],[9.7371279,45.9946653],[9.7376315,45.9944191],[9.738527,45.9943908],[9.7411264,45.9935909],[9.7411561,45.9931587],[9.7409965,45.9923273],[9.7411561,45.9918312],[9.741784,45.9912286],[9.7426779,45.9908493],[9.7425975,45.9895448],[9.7427599,45.9891387],[9.7428078,45.9884949],[9.7432385,45.9877541],[9.7441801,45.9868479],[9.7466743,45.9864132],[9.7477152,45.9858123],[9.7492075,45.9854111],[9.7528518,45.9856616],[9.7536925,45.9856561],[9.7547009,45.9858699],[9.756694,45.9855102],[9.7580083,45.9855555],[9.7590256,45.9852427],[9.7596541,45.9851756],[9.760878,45.9847444],[9.7626242,45.9843908],[9.763437,45.9843493],[9.7638709,45.9842204],[9.7654097,45.9840391],[9.7660112,45.9838911],[9.7668731,45.9836648],[9.7675156,45.9833275],[9.7699203,45.9825238],[9.770473,45.9824616],[9.7724935,45.98275],[9.7731771,45.9826503],[9.7742414,45.9827106],[9.7748729,45.9822788],[9.7774318,45.9814379],[9.7802261,45.9808068],[9.7824409,45.9801752],[9.7879938,45.9794935],[9.7881905,45.9793706],[9.7890759,45.978424],[9.7902091,45.9769851],[9.7903825,45.9762324],[9.7902108,45.9761931],[9.7900167,45.9759334],[9.7896864,45.9758592],[9.7892261,45.9758264],[9.787666,45.9759587],[9.7868942,45.975811],[9.7863127,45.9755405],[9.7833187,45.9751425],[9.7826785,45.9751739],[9.7809348,45.9758969],[9.7799461,45.9761601],[9.7789279,45.9761626],[9.7778479,45.9760079],[9.7776286,45.9757934],[9.7768647,45.9743586],[9.7765749,45.973483],[9.7757039,45.9715494],[9.7753777,45.9710656],[9.774289,45.970749],[9.7724803,45.9706307],[9.7714353,45.9704353],[9.7710379,45.9698214],[9.7707869,45.9690536],[9.7703874,45.9686378],[9.7700973,45.9681943],[9.7693519,45.9677268],[9.7687551,45.9676183],[9.7684548,45.9671388],[9.7681515,45.9669068],[9.7668785,45.9666679],[9.7663797,45.9664147],[9.7659382,45.9663367],[9.7656786,45.9658794],[9.7655043,45.9657591],[9.764488,45.9655364],[9.7639345,45.9652926],[9.7635123,45.9652099],[9.7627428,45.9647425],[9.7619246,45.9643655],[9.7609162,45.9643587],[9.7575427,45.9657671],[9.7570272,45.9660631],[9.7564924,45.9661206],[9.7553879,45.9665194],[9.7547947,45.9664423],[9.754204,45.9659512],[9.7534735,45.9657355],[9.7511513,45.9661693],[9.7497157,45.9663048],[9.7458268,45.9662447],[9.7440418,45.9652348],[9.743978,45.9650508],[9.7441237,45.9630428],[9.7440954,45.9623769],[9.7440466,45.9622287],[9.7435315,45.9620656],[9.7404495,45.9615231],[9.7373499,45.9611156],[9.7357643,45.9612474],[9.7337372,45.9619039],[9.7318936,45.9615647],[9.7307411,45.9612616],[9.7302243,45.9619579],[9.7285075,45.9637734],[9.727614,45.9635451],[9.7272407,45.963372],[9.7266483,45.9626107],[9.7260557,45.96207],[9.7255915,45.9617309],[9.7252249,45.9615803],[9.7248512,45.9612541],[9.7246245,45.9614356],[9.7236962,45.962985],[9.7230311,45.9638172],[9.722402,45.9643162],[9.7214556,45.9646102],[9.7211287,45.9650308],[9.7206608,45.9652767],[9.7202306,45.9656889],[9.7194731,45.9658737],[9.7185573,45.9657895],[9.7167992,45.9665746],[9.7157748,45.9667025],[9.7141278,45.9675993],[9.7125461,45.9683022],[9.711018,45.9692927],[9.7107888,45.9695372],[9.7104595,45.9701512],[9.7098532,45.9716985],[9.7094297,45.9725202],[9.7087847,45.9734332],[9.7082359,45.9740531],[9.707958,45.9745229],[9.7072833,45.9762821],[9.7072506,45.9765028],[9.7073615,45.9772221]]]},"properties":{"type":"boundary","gemeente":"Isola di Fondra"}}]}