{"type":"FeatureCollection","metadata":{"gemeente":"Ispra","slug":"ispra","generated_at":"2026-09-26T14:27:26.091886Z","total_points":14,"providers":["PosteItaliane","DPD","GLS","DHL","Amazon","FedEx"],"bounds":[8.61088,45.8133289,8.6241461,45.8231949]},"features":[{"type":"Feature","geometry":{"type":"Point","coordinates":[8.61088704,45.81479484]},"properties":{"type":"pakketpunt","locatieNaam":"Ispra","straatNaam":"Via Piave","straatNr":"78","vervoerder":"PosteItaliane","puntType":"postkantoor","bezettingsgraad":50,"latitude":45.81479484,"longitude":8.61088704,"canPickup":true,"canDropoff":true,"openingstijden":{"za":"08:20 - 12:35","zo":"gesloten","ma":"08:20 - 13:35","di":"08:20 - 13:35","wo":"08:20 - 13:35","do":"08:20 - 13:35","vr":"08:20 - 13:35"}}},{"type":"Feature","geometry":{"type":"Point","coordinates":[8.61093532,45.81471258]},"properties":{"type":"pakketpunt","locatieNaam":"Tabaccheria N. 1","straatNaam":"Via Piave","straatNr":"86","vervoerder":"PosteItaliane","puntType":"servicepunt","bezettingsgraad":50,"latitude":45.81471258,"longitude":8.61093532,"canPickup":true,"canDropoff":true,"openingstijden":{"za":"07:30 - 12:30, 15:30 - 19:00","zo":"gesloten","ma":"07:30 - 12:30, 15:30 - 19:00","di":"07:30 - 12:30, 15:30 - 19:00","wo":"07:30 - 12:30, 15:30 - 19:00","do":"07:30 - 12:30, 15:30 - 19:00","vr":"07:30 - 12:30, 15:30 - 19:00"}}},{"type":"Feature","geometry":{"type":"Point","coordinates":[8.6210789,45.8137756]},"properties":{"type":"pakketpunt","locatieNaam":"L'Ufficeria","straatNaam":"VIA ENRICO FERMI","straatNr":"651","vervoerder":"DPD","puntType":"pickup_point","bezettingsgraad":50,"latitude":45.8137756,"longitude":8.6210789,"canPickup":true,"canDropoff":true,"openingstijden":{"ma":"07:30 - 12:30, 15:30 - 19:00","di":"07:30 - 12:30, 15:30 - 19:00","wo":"07:30 - 12:30, 15:30 - 19:00","do":"07:30 - 12:30, 15:30 - 19:00","vr":"07:30 - 12:30, 15:30 - 19:00","za":"08:00 - 12:30, 15:30 - 18:00","zo":"08:00 - 12:30"}}},{"type":"Feature","geometry":{"type":"Point","coordinates":[8.6109762,45.8146409]},"properties":{"type":"pakketpunt","locatieNaam":"ALEX E BENE","straatNaam":"Via Piave","straatNr":"86","vervoerder":"GLS","puntType":"parcel_shop","bezettingsgraad":50,"latitude":45.8146409,"longitude":8.6109762,"canPickup":true,"canDropoff":true,"openingstijden":"za: 07:30 - 12:30, 15:30 - 19:30; ma: 07:30 - 12:30, 15:30 - 19:30"}},{"type":"Feature","geometry":{"type":"Point","coordinates":[8.610935,45.814713]},"properties":{"type":"pakketpunt","locatieNaam":"TABACCHERIA N. 1","straatNaam":"VIA PIAVE 86","straatNr":"","vervoerder":"DHL","puntType":"parcelShop","bezettingsgraad":50,"latitude":45.814713,"longitude":8.610935,"canPickup":true,"canDropoff":true,"openingstijden":{"ma":"07:30 - 12:30, 15:30 - 19:00","di":"07:30 - 12:30, 15:30 - 19:00","wo":"07:30 - 12:30, 15:30 - 19:00","do":"07:30 - 12:30, 15:30 - 19:00","vr":"07:30 - 12:30, 15:30 - 19:00","za":"07:30 - 12:30, 15:30 - 19:00","zo":"gesloten"}}},{"type":"Feature","geometry":{"type":"Point","coordinates":[8.610887,45.814795]},"properties":{"type":"pakketpunt","locatieNaam":"Ufficio Postale ISPRA","straatNaam":"VIA PIAVE 78","straatNr":"","vervoerder":"DHL","puntType":"postOffice","bezettingsgraad":50,"latitude":45.814795,"longitude":8.610887,"canPickup":true,"canDropoff":true,"openingstijden":{"ma":"08:20 - 13:35","di":"08:20 - 13:35","wo":"08:20 - 13:35","do":"08:20 - 13:35","vr":"08:20 - 13:35","za":"08:20 - 12:35","zo":"gesloten"}}},{"type":"Feature","geometry":{"type":"Point","coordinates":[8.6198207,45.8133289]},"properties":{"type":"pakketpunt","locatieNaam":"Amazon Locker - adamaria","straatNaam":"Tigros Ispra","straatNr":"","vervoerder":"Amazon","puntType":"locker","bezettingsgraad":50,"latitude":45.8133289,"longitude":8.6198207,"canPickup":true,"canDropoff":false,"openingstijden":null}},{"type":"Feature","geometry":{"type":"Point","coordinates":[8.610919,45.81472]},"properties":{"type":"pakketpunt","locatieNaam":"Amazon Locker - eupremio","straatNaam":"Cartoleria Tabacchi di Sala Alex e Bene - Ispra","straatNr":"","vervoerder":"Amazon","puntType":"locker","bezettingsgraad":50,"latitude":45.81472,"longitude":8.610919,"canPickup":true,"canDropoff":false,"openingstijden":null}},{"type":"Feature","geometry":{"type":"Point","coordinates":[8.61264,45.814247]},"properties":{"type":"pakketpunt","locatieNaam":"Amazon Counter - Enilive Station (n.02854)","straatNaam":"VIA MAZZINI 2","straatNr":"","vervoerder":"Amazon","puntType":"helix","bezettingsgraad":50,"latitude":45.814247,"longitude":8.61264,"canPickup":true,"canDropoff":false,"openingstijden":null}},{"type":"Feature","geometry":{"type":"Point","coordinates":[8.62107889999993,45.8137756]},"properties":{"type":"pakketpunt","locatieNaam":"Amazon Counter","straatNaam":"L'Ufficeria (fermopoint)","straatNr":"","vervoerder":"Amazon","puntType":"helix","bezettingsgraad":50,"latitude":45.8137756,"longitude":8.62107889999993,"canPickup":true,"canDropoff":false,"openingstijden":null}},{"type":"Feature","geometry":{"type":"Point","coordinates":[8.61093,45.8147]},"properties":{"type":"pakketpunt","locatieNaam":"PuntoPoste TABACCHERIA N. 1","straatNaam":"VIA PIAVE 86","straatNr":"","vervoerder":"Amazon","puntType":"3p","bezettingsgraad":50,"latitude":45.8147,"longitude":8.61093,"canPickup":true,"canDropoff":false,"openingstijden":null}},{"type":"Feature","geometry":{"type":"Point","coordinates":[8.6241461,45.8231949]},"properties":{"type":"pakketpunt","locatieNaam":"Amazon Locker - canzone","straatNaam":"SPORT CLUB 12 ISPRA","straatNr":"","vervoerder":"Amazon","puntType":"locker","bezettingsgraad":50,"latitude":45.8231949,"longitude":8.6241461,"canPickup":true,"canDropoff":false,"openingstijden":null}},{"type":"Feature","geometry":{"type":"Point","coordinates":[8.61088,45.8147]},"properties":{"type":"pakketpunt","locatieNaam":"Ufficio Postale ISPRA","straatNaam":"VIA PIAVE 78","straatNr":"","vervoerder":"Amazon","puntType":"3p","bezettingsgraad":50,"latitude":45.8147,"longitude":8.61088,"canPickup":true,"canDropoff":false,"openingstijden":null}},{"type":"Feature","geometry":{"type":"Point","coordinates":[8.610919019626051,45.814657351322865]},"properties":{"type":"pakketpunt","locatieNaam":"FedEx OnSite","straatNaam":"Via Piave, 86","straatNr":"","vervoerder":"FedEx","puntType":"servicepunt","bezettingsgraad":50,"latitude":45.814657351322865,"longitude":8.610919019626051,"canPickup":true,"canDropoff":true,"openingstijden":{"ma":"07:30 - 12:30, 15:30 - 19:30","di":"07:30 - 12:30, 15:30 - 19:30","wo":"07:30 - 12:30, 15:30 - 19:30","do":"07:30 - 12:30, 15:30 - 19:30","vr":"07:30 - 12:30, 15:30 - 19:30","za":"07:30 - 12:30, 15:30 - 19:30","zo":"gesloten"}}},{"type":"Feature","geometry":{"type":"Polygon","coordinates":[[[8.5800827,45.8128702],[8.5936099,45.7993732],[8.5933133,45.7989389],[8.5920018,45.7974789],[8.5924098,45.7973206],[8.5928812,45.7967045],[8.5954649,45.7973591],[8.5958327,45.796913],[8.5996859,45.7934768],[8.6018104,45.7928609],[8.6008332,45.7920155],[8.6027001,45.7920325],[8.603835,45.7886681],[8.6109395,45.7902631],[8.6097189,45.793565],[8.6156586,45.793984],[8.6188586,45.7938043],[8.6195067,45.793256],[8.6204797,45.7934016],[8.6204646,45.7931192],[8.6214597,45.7931905],[8.6215002,45.7933678],[8.6227462,45.7931797],[8.6245936,45.7932176],[8.6247,45.7936243],[8.6256479,45.7935659],[8.6259736,45.796527],[8.6258319,45.7981809],[8.6270021,45.798251],[8.6271086,45.7986324],[8.6270477,45.79901],[8.6263033,45.7992495],[8.6275525,45.8001143],[8.6279016,45.8005204],[8.6284276,45.8013595],[8.62903,45.8028194],[8.6295802,45.803271],[8.6300787,45.8045449],[8.6315726,45.8042104],[8.6318591,45.8044623],[8.6327399,45.804424],[8.6342871,45.8057785],[8.6352837,45.8063391],[8.6359452,45.8058831],[8.6363988,45.8052249],[8.6368097,45.8053293],[8.6372653,45.8056834],[8.6376439,45.8054735],[8.6382955,45.8061787],[8.6384353,45.8061333],[8.6388894,45.8064657],[8.6390444,45.8071103],[8.6394859,45.808058],[8.6404698,45.8081834],[8.6407323,45.8087779],[8.6416277,45.8092028],[8.641794,45.8083684],[8.6421211,45.8084686],[8.6419405,45.8087122],[8.6421088,45.8087925],[8.6422009,45.8089455],[8.642317,45.8089354],[8.6424057,45.8090886],[8.6428027,45.8092626],[8.642731,45.8093456],[8.6428455,45.8093823],[8.6428517,45.8099351],[8.6429818,45.8101462],[8.642857,45.8101572],[8.6425757,45.8104413],[8.6420811,45.8105701],[8.6419286,45.8105298],[8.6415409,45.8110041],[8.6416655,45.8112346],[8.6422211,45.8114379],[8.6423259,45.8116503],[8.6422267,45.8117539],[8.6421675,45.8120258],[8.6422202,45.8121478],[8.6414204,45.812507],[8.6413101,45.8126482],[8.641369,45.8127229],[8.6411272,45.8129925],[8.6409003,45.813009],[8.6406298,45.813147],[8.6404687,45.8133447],[8.6400848,45.8133506],[8.6398008,45.8135505],[8.6395952,45.8135877],[8.6395704,45.8137211],[8.6394613,45.813745],[8.6395474,45.8138425],[8.639864,45.8137801],[8.6398784,45.8139903],[8.6400931,45.8141234],[8.6396638,45.8151602],[8.6408125,45.8152185],[8.6410874,45.8154101],[8.6409417,45.8162955],[8.6407789,45.8163152],[8.6402043,45.8180198],[8.6386604,45.8208707],[8.6373789,45.8214047],[8.6364696,45.8222753],[8.6367495,45.8240591],[8.6366391,45.825188],[8.6361237,45.8263034],[8.636344,45.8263727],[8.6355296,45.8271432],[8.6353433,45.8278161],[8.6356947,45.8278908],[8.6356781,45.8283207],[8.6357947,45.8283377],[8.633988,45.8301004],[8.6324088,45.8328946],[8.6315131,45.8339198],[8.6299441,45.832807],[8.6286995,45.8337809],[8.5952008,45.833614],[8.5943717,45.8294708],[8.5920326,45.8244424],[8.5879407,45.8189284],[8.5816471,45.8136582],[8.5800827,45.8128702]]]},"properties":{"type":"boundary","gemeente":"Ispra"}}]}