{"type":"FeatureCollection","metadata":{"gemeente":"Jolanda di Savoia","slug":"jolanda-di-savoia","generated_at":"2026-09-26T14:27:26.319694Z","total_points":13,"providers":["PosteItaliane","DPD","InPost","GLS","DHL","Amazon","FedEx"],"bounds":[11.9768,44.88409677,11.9791,44.88457112]},"features":[{"type":"Feature","geometry":{"type":"Point","coordinates":[11.97789458,44.88457112]},"properties":{"type":"pakketpunt","locatieNaam":"Iolanda Di Savoia","straatNaam":"Viale Della Resistenza","straatNr":"4","vervoerder":"PosteItaliane","puntType":"postkantoor","bezettingsgraad":50,"latitude":44.88457112,"longitude":11.97789458,"canPickup":true,"canDropoff":true,"openingstijden":{"za":"08:20 - 12:35","zo":"gesloten","ma":"08:20 - 13:35","di":"08:20 - 13:35","wo":"08:20 - 13:35","do":"08:20 - 13:35","vr":"08:20 - 13:35"}}},{"type":"Feature","geometry":{"type":"Point","coordinates":[11.97689833,44.8844849]},"properties":{"type":"pakketpunt","locatieNaam":"Tabaccheria N. 1","straatNaam":"Corso Giacomo Matteotti","straatNr":"11","vervoerder":"PosteItaliane","puntType":"servicepunt","bezettingsgraad":50,"latitude":44.8844849,"longitude":11.97689833,"canPickup":true,"canDropoff":true,"openingstijden":{"za":"06:00 - 12:00, 15:30 - 19:30","zo":"07:00 - 12:00","ma":"06:00 - 12:00, 15:30 - 19:30","di":"06:00 - 12:00, 15:30 - 19:30","wo":"06:00 - 12:00, 15:30 - 19:30","do":"06:00 - 12:00, 15:30 - 19:30","vr":"06:00 - 12:00, 15:30 - 19:30"}}},{"type":"Feature","geometry":{"type":"Point","coordinates":[11.97909954,44.88409677]},"properties":{"type":"pakketpunt","locatieNaam":"Tabaccheria N. 4","straatNaam":"Via Martiri","straatNr":"15","vervoerder":"PosteItaliane","puntType":"servicepunt","bezettingsgraad":50,"latitude":44.88409677,"longitude":11.97909954,"canPickup":true,"canDropoff":true,"openingstijden":{"za":"07:30 - 12:30, 15:30 - 19:30","zo":"gesloten","ma":"07:30 - 12:30, 15:30 - 19:30","di":"07:30 - 12:30, 15:30 - 19:30","wo":"07:30 - 12:30, 15:30 - 19:30","do":"07:30 - 12:30, 15:30 - 19:30","vr":"07:30 - 12:30, 15:30 - 19:30"}}},{"type":"Feature","geometry":{"type":"Point","coordinates":[11.97688564,44.8845047]},"properties":{"type":"pakketpunt","locatieNaam":"Tabaccheria Edicola Ale & Fra","straatNaam":"VIA G. MATTEOTTI","straatNr":"11","vervoerder":"DPD","puntType":"pickup_point","bezettingsgraad":50,"latitude":44.8845047,"longitude":11.97688564,"canPickup":true,"canDropoff":true,"openingstijden":{"ma":"06:00 - 12:30, 15:30 - 19:30","di":"06:00 - 12:30, 15:30 - 19:30","wo":"06:00 - 12:30, 15:30 - 19:30","do":"06:00 - 12:30, 15:30 - 19:30","vr":"06:00 - 12:30, 15:30 - 19:30","za":"06:00 - 12:30, 15:30 - 19:30","zo":"07:00 - 12:00"}}},{"type":"Feature","geometry":{"type":"Point","coordinates":[11.97683,44.8845]},"properties":{"type":"pakketpunt","locatieNaam":"InPost Point","straatNaam":"Corso Giacomo Matteotti, 11, Jolanda di Savoia, FE, Italy","straatNr":"11","vervoerder":"InPost","puntType":"servicepunt","bezettingsgraad":50,"latitude":44.8845,"longitude":11.97683,"canPickup":true,"canDropoff":true,"openingstijden":"Lun-Mar-Mer-Gio-Ven-Sab 06:00-12:30, 15:30-19:30; Dom 07:00-12:00"}},{"type":"Feature","geometry":{"type":"Point","coordinates":[11.976832,44.8844971]},"properties":{"type":"pakketpunt","locatieNaam":"Iquos centre","straatNaam":"Corso Giacomo Matteotti","straatNr":"11","vervoerder":"GLS","puntType":"parcel_shop","bezettingsgraad":50,"latitude":44.8844971,"longitude":11.976832,"canPickup":true,"canDropoff":true,"openingstijden":"za: 06:00 - 12:30, 15:30 - 19:30; zo: 07:00 - 12:00"}},{"type":"Feature","geometry":{"type":"Point","coordinates":[11.976898,44.884485]},"properties":{"type":"pakketpunt","locatieNaam":"TABACCHERIA N. 1","straatNaam":"CORSO GIACOMO MATTEOTTI 11","straatNr":"","vervoerder":"DHL","puntType":"parcelShop","bezettingsgraad":50,"latitude":44.884485,"longitude":11.976898,"canPickup":true,"canDropoff":true,"openingstijden":{"ma":"06:00 - 12:00, 15:30 - 19:30","di":"06:00 - 12:00, 15:30 - 19:30","wo":"06:00 - 12:00, 15:30 - 19:30","do":"06:00 - 12:00, 15:30 - 19:30","vr":"06:00 - 12:00, 15:30 - 19:30","za":"06:00 - 12:00, 15:30 - 19:30","zo":"07:00 - 12:00"}}},{"type":"Feature","geometry":{"type":"Point","coordinates":[11.977895,44.884571]},"properties":{"type":"pakketpunt","locatieNaam":"Ufficio Postale IOLANDA DI SAVOIA","straatNaam":"VIALE DELLA RESISTENZA 4","straatNr":"","vervoerder":"DHL","puntType":"postOffice","bezettingsgraad":50,"latitude":44.884571,"longitude":11.977895,"canPickup":true,"canDropoff":true,"openingstijden":{"ma":"08:20 - 13:35","di":"08:20 - 13:35","wo":"08:20 - 13:35","do":"08:20 - 13:35","vr":"08:20 - 13:35","za":"08:20 - 12:35","zo":"gesloten"}}},{"type":"Feature","geometry":{"type":"Point","coordinates":[11.9791,44.884097]},"properties":{"type":"pakketpunt","locatieNaam":"TABACCHERIA N. 4","straatNaam":"VIA MARTIRI 15","straatNr":"","vervoerder":"DHL","puntType":"parcelShop","bezettingsgraad":50,"latitude":44.884097,"longitude":11.9791,"canPickup":true,"canDropoff":true,"openingstijden":{"ma":"07:30 - 12:30, 15:30 - 19:30","di":"07:30 - 12:30, 15:30 - 19:30","wo":"07:30 - 12:30, 15:30 - 19:30","do":"07:30 - 12:30, 15:30 - 19:30","vr":"07:30 - 12:30, 15:30 - 19:30","za":"07:30 - 12:30, 15:30 - 19:30","zo":"gesloten"}}},{"type":"Feature","geometry":{"type":"Point","coordinates":[11.9768856441803,44.8845047017103]},"properties":{"type":"pakketpunt","locatieNaam":"Amazon Counter (fermopoint)","straatNaam":"Tabaccheria Edicola Ale & Fra","straatNr":"","vervoerder":"Amazon","puntType":"helix","bezettingsgraad":50,"latitude":44.8845047017103,"longitude":11.9768856441803,"canPickup":true,"canDropoff":false,"openingstijden":null}},{"type":"Feature","geometry":{"type":"Point","coordinates":[11.9768,44.8844]},"properties":{"type":"pakketpunt","locatieNaam":"PuntoPoste TABACCHERIA N. 1","straatNaam":"CORSO GIACOMO MATTEOTTI 11","straatNr":"","vervoerder":"Amazon","puntType":"3p","bezettingsgraad":50,"latitude":44.8844,"longitude":11.9768,"canPickup":true,"canDropoff":false,"openingstijden":null}},{"type":"Feature","geometry":{"type":"Point","coordinates":[11.9778,44.8845]},"properties":{"type":"pakketpunt","locatieNaam":"Ufficio Postale IOLANDA DI SAVOIA","straatNaam":"VIALE DELLA RESISTENZA 4","straatNr":"","vervoerder":"Amazon","puntType":"3p","bezettingsgraad":50,"latitude":44.8845,"longitude":11.9778,"canPickup":true,"canDropoff":false,"openingstijden":null}},{"type":"Feature","geometry":{"type":"Point","coordinates":[11.976832,44.884497]},"properties":{"type":"pakketpunt","locatieNaam":"FedEx OnSite","straatNaam":"Corso Giacomo Matteotti, 11","straatNr":"","vervoerder":"FedEx","puntType":"servicepunt","bezettingsgraad":50,"latitude":44.884497,"longitude":11.976832,"canPickup":true,"canDropoff":true,"openingstijden":{"ma":"06:00 - 12:30, 15:30 - 19:30","di":"06:00 - 12:30, 15:30 - 19:30","wo":"06:00 - 12:30, 15:30 - 19:30","do":"06:00 - 12:30, 15:30 - 19:30","vr":"06:00 - 12:30, 15:30 - 19:30","za":"06:00 - 12:30, 15:30 - 19:30","zo":"07:00 - 12:00"}}},{"type":"Feature","geometry":{"type":"Polygon","coordinates":[[[11.9036023,44.8603011],[11.8975764,44.8529672],[11.9006824,44.8511532],[11.891483,44.8430867],[11.8936443,44.8419034],[11.8928793,44.8378724],[11.8936014,44.8381909],[11.8942505,44.8380806],[11.8945026,44.8382328],[11.8948299,44.8387691],[11.8958276,44.839043],[11.8960905,44.8393815],[11.8961549,44.8403743],[11.8959993,44.8408612],[11.8960744,44.8409943],[11.8963855,44.8411199],[11.8967128,44.8410704],[11.8990838,44.8373236],[11.9168397,44.8361323],[11.9159995,44.83564],[11.9095176,44.8313054],[11.9104862,44.8278233],[11.9223806,44.8241978],[11.9225478,44.8240386],[11.9241388,44.8235367],[11.9220918,44.8213752],[11.9227087,44.8206751],[11.9225103,44.8204429],[11.9223064,44.8202717],[11.9217807,44.8200586],[11.9209165,44.8192574],[11.9196729,44.8195681],[11.9202832,44.8177748],[11.9182435,44.8160929],[11.9290549,44.8083111],[11.9330014,44.8097583],[11.9344738,44.8096198],[11.9350248,44.8096519],[11.9370001,44.8095254],[11.9374776,44.8095923],[11.9386538,44.8100584],[11.9405005,44.810231],[11.9412806,44.810819],[11.9423963,44.8113305],[11.9432058,44.8119448],[11.9439916,44.8122956],[11.9443132,44.8122643],[11.9449953,44.8119584],[11.9452371,44.8119308],[11.9461203,44.8121556],[11.9465466,44.8108417],[11.9470026,44.8103538],[11.9474288,44.8095905],[11.9476953,44.8093988],[11.9496019,44.8089898],[11.9500117,44.8089784],[11.9521301,44.809592],[11.9527617,44.8096304],[11.9536544,44.8093489],[11.9542599,44.8086956],[11.9549366,44.8085019],[11.9623855,44.8184778],[11.9630576,44.8192525],[11.9667036,44.8217863],[11.9696453,44.8231591],[11.9716993,44.8235017],[11.9732376,44.8234076],[11.9838964,44.821131],[11.9869248,44.8202596],[11.9893682,44.8200605],[11.9950927,44.8216748],[11.9976795,44.822534],[11.9998654,44.8237098],[12.0024921,44.8260622],[12.0066675,44.8290039],[12.0107797,44.831695],[12.0121829,44.8321621],[12.0162654,44.8330625],[12.0234905,44.8345456],[12.0263955,44.8350132],[12.0255456,44.8361024],[12.0188342,44.8468753],[12.006297,44.8675774],[12.0078972,44.8681653],[12.0392137,44.8684067],[12.0439369,44.8683515],[12.0327054,44.883983],[12.0325451,44.88814],[12.032606,44.8887357],[12.0326247,44.905558],[12.0398612,44.9056891],[12.044064,44.909568],[12.0545184,44.9092685],[12.0542415,44.917695],[12.0536869,44.9183445],[12.0535128,44.9280845],[12.0552003,44.9279643],[12.0734823,44.9281733],[12.0741539,44.9281152],[12.0740256,44.9362758],[12.0558364,44.9374172],[12.0544824,44.9376145],[12.0534337,44.9379058],[12.012716,44.9535509],[12.0101193,44.9461303],[11.9981861,44.9468574],[11.9920681,44.9424498],[11.9949014,44.9384417],[12.0041864,44.9257212],[12.0035116,44.9254149],[12.0026258,44.9251952],[11.9975476,44.9247616],[11.9965935,44.9249307],[11.9957812,44.9253931],[11.994528,44.9259031],[11.9824729,44.9235585],[11.9802734,44.9172025],[11.9775977,44.9132497],[11.9706196,44.9057881],[11.9693524,44.9054709],[11.9633542,44.9043595],[11.9395635,44.902459],[11.934567,44.9023268],[11.955676,44.8907602],[11.9510412,44.8887967],[11.9389686,44.8891804],[11.9155096,44.8897372],[11.906121,44.8888315],[11.9105283,44.8593965],[11.9036023,44.8603011]]]},"properties":{"type":"boundary","gemeente":"Jolanda di Savoia"}}]}