{"type":"FeatureCollection","metadata":{"gemeente":"Kastelruth - Castelrotto","slug":"kastelruth-castelrotto","generated_at":"2026-09-26T13:10:03.190748Z","total_points":5,"providers":["PosteItaliane","DHL","Amazon"],"bounds":[11.55951676,46.5457,11.560775,46.566136]},"features":[{"type":"Feature","geometry":{"type":"Point","coordinates":[11.56077481,46.54571606]},"properties":{"type":"pakketpunt","locatieNaam":"Siusi","straatNaam":"Via Sciliar","straatNr":"2","vervoerder":"PosteItaliane","puntType":"postkantoor","bezettingsgraad":50,"latitude":46.54571606,"longitude":11.56077481,"canPickup":true,"canDropoff":true,"openingstijden":{"za":"08:20 - 12:45","zo":"gesloten","ma":"08:20 - 13:45","di":"08:20 - 13:45","wo":"08:20 - 13:45","do":"08:20 - 13:45","vr":"08:20 - 13:45"}}},{"type":"Feature","geometry":{"type":"Point","coordinates":[11.55951676,46.56613554]},"properties":{"type":"pakketpunt","locatieNaam":"Castelrotto","straatNaam":"Via Oswald Von Wolkenstein","straatNr":"21","vervoerder":"PosteItaliane","puntType":"postkantoor","bezettingsgraad":50,"latitude":46.56613554,"longitude":11.55951676,"canPickup":true,"canDropoff":true,"openingstijden":{"za":"08:20 - 12:45","zo":"gesloten","ma":"08:20 - 13:45","di":"08:20 - 13:45","wo":"08:20 - 13:45","do":"08:20 - 13:45","vr":"08:20 - 13:45"}}},{"type":"Feature","geometry":{"type":"Point","coordinates":[11.560775,46.545716]},"properties":{"type":"pakketpunt","locatieNaam":"Ufficio Postale SIUSI","straatNaam":"VIA SCILIAR 2","straatNr":"","vervoerder":"DHL","puntType":"postOffice","bezettingsgraad":50,"latitude":46.545716,"longitude":11.560775,"canPickup":true,"canDropoff":true,"openingstijden":{"ma":"08:20 - 13:45","di":"08:20 - 13:45","wo":"08:20 - 13:45","do":"08:20 - 13:45","vr":"08:20 - 13:45","za":"08:20 - 12:45","zo":"gesloten"}}},{"type":"Feature","geometry":{"type":"Point","coordinates":[11.559517,46.566136]},"properties":{"type":"pakketpunt","locatieNaam":"Ufficio Postale CASTELROTTO","straatNaam":"VIA WOLKENSTEIN 21","straatNr":"","vervoerder":"DHL","puntType":"postOffice","bezettingsgraad":50,"latitude":46.566136,"longitude":11.559517,"canPickup":true,"canDropoff":true,"openingstijden":{"ma":"08:20 - 13:45","di":"08:20 - 13:45","wo":"08:20 - 13:45","do":"08:20 - 13:45","vr":"08:20 - 13:45","za":"08:20 - 12:45","zo":"gesloten"}}},{"type":"Feature","geometry":{"type":"Point","coordinates":[11.5607,46.5457]},"properties":{"type":"pakketpunt","locatieNaam":"Ufficio Postale SIUSI","straatNaam":"VIA SCILIAR 2","straatNr":"","vervoerder":"Amazon","puntType":"3p","bezettingsgraad":50,"latitude":46.5457,"longitude":11.5607,"canPickup":true,"canDropoff":false,"openingstijden":null}},{"type":"Feature","geometry":{"type":"Polygon","coordinates":[[[11.5125139,46.5499856],[11.5141063,46.5510074],[11.5145352,46.5515124],[11.514428,46.5522963],[11.5141591,46.5530665],[11.5135567,46.554053],[11.512256,46.5570496],[11.512214,46.5586805],[11.5123833,46.5598368],[11.5128065,46.5607602],[11.5133252,46.5615798],[11.5143334,46.5630513],[11.5153663,46.5643087],[11.5166433,46.5650797],[11.5175918,46.5654199],[11.5190983,46.5662763],[11.5202444,46.5674728],[11.5210995,46.5690733],[11.5220768,46.5722782],[11.5227383,46.5753811],[11.522756,46.576237],[11.5226605,46.5769713],[11.5227383,46.5780339],[11.5229647,46.5784765],[11.5234165,46.578947],[11.5235884,46.5797215],[11.523567,46.5799632],[11.5254537,46.5805706],[11.5271523,46.5808407],[11.5277983,46.5822442],[11.529926,46.5817753],[11.5303822,46.5818592],[11.5310824,46.5821417],[11.5314574,46.582033],[11.5341995,46.5850851],[11.534335,46.5853645],[11.5343756,46.5858892],[11.5342446,46.5863425],[11.5350668,46.5876433],[11.5352565,46.5888634],[11.5354689,46.5894036],[11.5363633,46.5903846],[11.537321,46.5909496],[11.5381025,46.5908999],[11.5396836,46.5909961],[11.5402664,46.5915735],[11.5405555,46.5917039],[11.5415809,46.5921137],[11.5427284,46.592421],[11.5448425,46.5931847],[11.5452084,46.593672],[11.5459312,46.5937217],[11.5461932,46.5938242],[11.546532,46.5941191],[11.5470244,46.5942308],[11.5478873,46.5943581],[11.5488224,46.5942494],[11.5490799,46.59361],[11.5492154,46.5934485],[11.5494593,46.5932406],[11.5500556,46.5929984],[11.5506745,46.5923062],[11.5511805,46.5926352],[11.5516683,46.5932033],[11.5522782,46.5937497],[11.5531998,46.5939763],[11.5538503,46.5940104],[11.5560593,46.593908],[11.5567234,46.5942743],[11.55727,46.5946871],[11.5578166,46.5948454],[11.5583225,46.5948516],[11.5591266,46.5945102],[11.5600391,46.5949727],[11.5604773,46.5953266],[11.56092,46.5960064],[11.5615118,46.5972573],[11.5614535,46.5973948],[11.5622302,46.5976889],[11.5634943,46.5975509],[11.564404,46.596796],[11.5655381,46.5963576],[11.5688578,46.5963008],[11.5697084,46.5959518],[11.5708071,46.5952049],[11.5723547,46.5947422],[11.5732408,46.5946529],[11.5748593,46.5947178],[11.5758635,46.5945068],[11.5769385,46.5944824],[11.5776521,46.5947035],[11.5788365,46.5948738],[11.579177,46.5950305],[11.5795031,46.5953538],[11.5799989,46.5955295],[11.5806864,46.5954015],[11.5810335,46.5950517],[11.5815701,46.5948988],[11.5827204,46.5948564],[11.5834239,46.5949847],[11.5837572,46.5948723],[11.5840332,46.5946739],[11.5842563,46.5943858],[11.5849201,46.5940175],[11.5851504,46.5940118],[11.5862367,46.5943291],[11.5885929,46.5946815],[11.5918241,46.5945879],[11.5932418,46.5953267],[11.5948248,46.595765],[11.5963961,46.5958381],[11.5989242,46.595765],[11.6003537,46.5958462],[11.6015115,46.5961709],[11.6022085,46.5962602],[11.607064,46.5957813],[11.6082336,46.5949857],[11.6091197,46.5946529],[11.6094741,46.5946042],[11.6118251,46.5944662],[11.613798,46.5949289],[11.6147431,46.5949614],[11.6151566,46.5948883],[11.6162435,46.5941415],[11.6170823,46.5934189],[11.6175903,46.5934189],[11.617862,46.5933053],[11.6185568,46.5926887],[11.6197606,46.5923509],[11.6206544,46.5917309],[11.6217404,46.5915242],[11.6224338,46.591197],[11.6226175,46.591019],[11.623904,46.590709],[11.6248313,46.5906401],[11.6250652,46.5904794],[11.6254327,46.590445],[11.626218,46.590112],[11.6262932,46.5896642],[11.6269448,46.5892566],[11.6269197,46.5890614],[11.627187,46.5885907],[11.6271369,46.5884184],[11.6275963,46.5881716],[11.6279973,46.587586],[11.6287157,46.5872875],[11.6290248,46.5870004],[11.6296012,46.5868339],[11.6307716,46.5858674],[11.6314274,46.5855861],[11.6321375,46.5854626],[11.6324131,46.5853134],[11.6328809,46.5848942],[11.6337957,46.584478],[11.6350064,46.5836869],[11.6364477,46.5825177],[11.6372156,46.5813119],[11.6385328,46.5801954],[11.6389463,46.5796919],[11.6393953,46.5794767],[11.64024,46.5787297],[11.6410138,46.5783988],[11.6417063,46.5775129],[11.6429679,46.5769783],[11.6430657,46.5766634],[11.6430412,46.576293],[11.6431392,46.5761976],[11.644279,46.5759108],[11.6461789,46.5751641],[11.6471374,46.5749894],[11.6506246,46.5745727],[11.652501,46.5742473],[11.6549265,46.5742711],[11.6564731,46.5744457],[11.6582225,46.5740846],[11.6598333,46.5740449],[11.6607398,46.5739377],[11.6614615,46.5736123],[11.6626912,46.573525],[11.6645463,46.573092],[11.6650336,46.5730881],[11.666422,46.5733891],[11.6668914,46.5734029],[11.66802,46.5730541],[11.6686093,46.5725735],[11.668793,46.5726229],[11.6690787,46.5729044],[11.669632,46.5730912],[11.6698118,46.5732326],[11.6705169,46.5733974],[11.6711541,46.5733988],[11.6726401,46.5732137],[11.6740783,46.5726974],[11.6754526,46.5720603],[11.679112,46.5702037],[11.6819085,46.569215],[11.6841856,46.5681988],[11.6846331,46.5678362],[11.6863766,46.5667363],[11.6871896,46.5664258],[11.6902372,46.5647308],[11.6910041,46.5644933],[11.6924368,46.5638545],[11.6932933,46.5638117],[11.6941893,46.5635613],[11.6958718,46.5633624],[11.6967103,46.5628356],[11.6973867,46.5626228],[11.6978107,46.562176],[11.699396,46.5616438],[11.7000733,46.5617861],[11.7003475,46.5617324],[11.7007641,46.5614127],[11.702396,46.561016],[11.7027267,46.5606184],[11.7030244,46.5604233],[11.7038587,46.5604312],[11.7042694,46.5602277],[11.7045418,46.5599528],[11.70558,46.5594951],[11.7057646,46.5593251],[11.7058202,46.5588156],[11.7061245,46.558485],[11.7062331,46.5576443],[11.7057976,46.5575672],[11.7055046,46.5573919],[11.7054047,46.5571977],[11.7058161,46.557066],[11.7059117,46.5569284],[11.7058425,46.5566508],[11.7053751,46.5561242],[11.7053268,46.5557549],[11.7052075,46.5555103],[11.7048264,46.5550315],[11.7042757,46.5547118],[11.7040071,46.5540434],[11.7034507,46.5535873],[11.7021186,46.5527528],[11.7011639,46.5516638],[11.7009143,46.5512308],[11.699903,46.550597],[11.6994055,46.5499738],[11.6987708,46.549615],[11.6985085,46.5492339],[11.6973828,46.5485285],[11.6970456,46.548075],[11.6964756,46.5477479],[11.6962003,46.5473198],[11.6952002,46.5464228],[11.6946321,46.5455369],[11.6946187,46.5452316],[11.6943806,46.5449831],[11.6953346,46.5443086],[11.6962102,46.5434485],[11.6968617,46.5422886],[11.696807,46.5406663],[11.6969821,46.5396906],[11.6972645,46.5389451],[11.6983458,46.5378129],[11.6986296,46.5372091],[11.6987265,46.536523],[11.6996755,46.5353473],[11.6997638,46.5344311],[11.7003868,46.5334994],[11.7010358,46.533299],[11.7021208,46.53273],[11.7026174,46.5325544],[11.7029957,46.53201],[11.7039506,46.5326315],[11.7050779,46.5323508],[11.7054398,46.5319533],[11.7063162,46.5318091],[11.7063515,46.5317451],[11.7072472,46.531789],[11.7078528,46.5313379],[11.7080823,46.5313059],[11.7083484,46.5308236],[11.7080457,46.5294083],[11.7064739,46.5288501],[11.7065823,46.5276154],[11.7065498,46.5267834],[11.7073807,46.5254827],[11.70787,46.5253882],[11.7079572,46.5251349],[11.7082414,46.525055],[11.7085219,46.5248483],[11.7085779,46.5246055],[11.7083633,46.5243052],[11.7065223,46.523146],[11.7063696,46.5221898],[11.7157706,46.5141348],[11.7064268,46.5105821],[11.7055846,46.5096092],[11.7038267,46.5079854],[11.7029266,46.5075991],[11.7023218,46.5072377],[11.7004985,46.5066525],[11.7002973,46.5063266],[11.7004835,46.5053881],[11.700904,46.5046764],[11.6982952,46.5031446],[11.6955127,46.503725],[11.69527,46.5036658],[11.6948997,46.5034285],[11.694478,46.5034077],[11.6938706,46.5032469],[11.6929026,46.5032881],[11.6925513,46.5034557],[11.6920779,46.5034849],[11.6915827,46.503397],[11.6911205,46.5034317],[11.6908364,46.5033444],[11.6893225,46.5033213],[11.6887003,46.5029018],[11.6872949,46.5022644],[11.686435,46.5020771],[11.6847623,46.5019011],[11.684487,46.5012113],[11.6839776,46.5006666],[11.68329,46.5005809],[11.68278,46.5006534],[11.6823558,46.5008011],[11.6820335,46.5010728],[11.6808501,46.5012844],[11.6796587,46.5009195],[11.6788925,46.50086],[11.6774827,46.5009508],[11.6765265,46.5006395],[11.6747948,46.5004032],[11.6739833,46.499711],[11.6730358,46.4996204],[11.6723008,46.4994261],[11.6713085,46.4994363],[11.6706346,46.4991274],[11.6698216,46.4991271],[11.6696961,46.499238],[11.6692528,46.4990514],[11.6687786,46.4989982],[11.6684668,46.4987535],[11.6681379,46.4981582],[11.667907,46.4979656],[11.6668557,46.4975221],[11.6660935,46.4974049],[11.6648346,46.4975275],[11.6633445,46.4979012],[11.6603665,46.4978357],[11.6587332,46.4979441],[11.6570005,46.4984189],[11.6566209,46.4984496],[11.6544605,46.4980191],[11.653537,46.4976424],[11.6520678,46.4978212],[11.6491954,46.4984332],[11.648458,46.4985056],[11.6455451,46.4984771],[11.6450197,46.4985716],[11.6434615,46.4997468],[11.6424379,46.5001831],[11.6417397,46.5006038],[11.6393559,46.501402],[11.6385622,46.5024484],[11.6375719,46.5015661],[11.6366733,46.500575],[11.635848,46.5003517],[11.6353363,46.4998244],[11.6340736,46.499761],[11.6328077,46.4992884],[11.6318031,46.4992085],[11.6309883,46.499307],[11.6302725,46.4996608],[11.6278697,46.4996786],[11.6270183,46.4998573],[11.6269041,46.5000074],[11.6264058,46.5002432],[11.6253572,46.5005434],[11.62326,46.5006077],[11.622201,46.5004576],[11.6218791,46.5002718],[11.6207163,46.5005934],[11.6198961,46.5005791],[11.6190032,46.5004505],[11.6178716,46.5001432],[11.6173629,46.4996215],[11.6168437,46.4993427],[11.6157694,46.4984973],[11.6151824,46.4989097],[11.6141467,46.4994431],[11.6118662,46.5001915],[11.6110592,46.5006568],[11.6096472,46.5009169],[11.608619,46.5009542],[11.6072514,46.5007988],[11.6051356,46.5015374],[11.6020526,46.5030979],[11.6004928,46.5041277],[11.6000365,46.5045148],[11.5988056,46.5050114],[11.5986146,46.5051867],[11.5977658,46.5055373],[11.5936605,46.507577],[11.5926401,46.5082173],[11.5904792,46.5093121],[11.5854072,46.5114808],[11.5848195,46.511952],[11.585297,46.5125873],[11.5852015,46.5131788],[11.584151,46.5140332],[11.5825063,46.5145954],[11.5797368,46.5158806],[11.5783999,46.5162968],[11.5781664,46.5170854],[11.5771902,46.5172314],[11.5762564,46.5180565],[11.5743359,46.5201302],[11.5740388,46.5208238],[11.5744738,46.5213495],[11.5721712,46.5211597],[11.5720863,46.5208822],[11.5722031,46.5202689],[11.5720545,46.5198308],[11.5715027,46.5193416],[11.5706751,46.5192394],[11.5697413,46.5197724],[11.5695185,46.5196921],[11.5694654,46.5194219],[11.569614,46.5190203],[11.5703886,46.5176476],[11.5706516,46.5174777],[11.5711503,46.5169301],[11.5716703,46.5159954],[11.571609,46.514807],[11.570206,46.5133871],[11.5692681,46.5136814],[11.5688029,46.5137485],[11.5683902,46.5137124],[11.5683377,46.5135213],[11.5686678,46.513005],[11.5687054,46.5127313],[11.5683152,46.5125506],[11.567955,46.5122459],[11.5674899,46.5116211],[11.5672498,46.5110583],[11.566717,46.510418],[11.5661018,46.5098551],[11.5658917,46.509473],[11.5655541,46.509158],[11.5652314,46.5092406],[11.564151,46.510103],[11.5634082,46.5111203],[11.5613599,46.5131496],[11.5611423,46.5135781],[11.5610382,46.5145072],[11.5604387,46.515022],[11.5602264,46.5157741],[11.5596163,46.5167599],[11.5589213,46.5174572],[11.55751,46.5179902],[11.5567567,46.5184393],[11.5552446,46.5191001],[11.5538281,46.5199471],[11.5528731,46.5204034],[11.549658,46.5207904],[11.5487879,46.5214365],[11.5477533,46.5217687],[11.5464004,46.52186],[11.5434506,46.5227653],[11.5426282,46.5231304],[11.5418695,46.5241744],[11.5418324,46.5243679],[11.5415565,46.5247986],[11.5410949,46.5251564],[11.5398163,46.5257112],[11.5393335,46.5260689],[11.5382194,46.5276495],[11.5376676,46.5294235],[11.5367721,46.5311187],[11.5369131,46.531899],[11.5356943,46.5344844],[11.534955,46.5353462],[11.5351413,46.5358004],[11.535209,46.5371202],[11.5350905,46.5376364],[11.5348365,46.5382148],[11.5339256,46.5394795],[11.5334121,46.540085],[11.5328873,46.5405352],[11.5319957,46.5408225],[11.5304608,46.5419675],[11.5283109,46.5430465],[11.5263246,46.5436869],[11.5250831,46.5435549],[11.5245075,46.5436791],[11.5243778,46.5439392],[11.5243157,46.5445679],[11.5236103,46.5451151],[11.5228485,46.5455615],[11.5223576,46.5462678],[11.5214208,46.5468422],[11.520439,46.5476572],[11.5196603,46.5477504],[11.5186558,46.547405],[11.5174708,46.5476301],[11.5161955,46.5481462],[11.5144631,46.548674],[11.5125896,46.5494153],[11.5125139,46.5499856]]]},"properties":{"type":"boundary","gemeente":"Kastelruth - Castelrotto"}}]}