{"type":"FeatureCollection","metadata":{"gemeente":"Laives - Leifers","slug":"laives-leifers","generated_at":"2026-09-26T13:10:03.618269Z","total_points":20,"providers":["PosteItaliane","DPD","GLS","DHL","Amazon"],"bounds":[11.33167357,46.420932,11.34659059,46.4629557]},"features":[{"type":"Feature","geometry":{"type":"Point","coordinates":[11.33374197,46.46118561]},"properties":{"type":"pakketpunt","locatieNaam":"San Giacomo Di Laives","straatNaam":"Via San Giacomo","straatNr":"49/c","vervoerder":"PosteItaliane","puntType":"postkantoor","bezettingsgraad":50,"latitude":46.46118561,"longitude":11.33374197,"canPickup":true,"canDropoff":true,"openingstijden":{"za":"08:20 - 12:45","zo":"gesloten","ma":"08:20 - 13:45","di":"08:20 - 13:45","wo":"08:20 - 13:45","do":"08:20 - 13:45","vr":"08:20 - 13:45"}}},{"type":"Feature","geometry":{"type":"Point","coordinates":[11.34659059,46.43876021]},"properties":{"type":"pakketpunt","locatieNaam":"Pineta Di Laives","straatNaam":"Via Dolomiti","straatNr":"23","vervoerder":"PosteItaliane","puntType":"postkantoor","bezettingsgraad":50,"latitude":46.43876021,"longitude":11.34659059,"canPickup":true,"canDropoff":true,"openingstijden":{"za":"08:20 - 12:45","zo":"gesloten","ma":"gesloten","di":"08:20 - 13:45","wo":"gesloten","do":"08:20 - 13:45","vr":"gesloten"}}},{"type":"Feature","geometry":{"type":"Point","coordinates":[11.33509751,46.42336385]},"properties":{"type":"pakketpunt","locatieNaam":"Laives","straatNaam":"Via Dei Vigneti","straatNr":"13","vervoerder":"PosteItaliane","puntType":"postkantoor","bezettingsgraad":50,"latitude":46.42336385,"longitude":11.33509751,"canPickup":true,"canDropoff":true,"openingstijden":{"za":"08:20 - 12:35","zo":"gesloten","ma":"08:20 - 13:35","di":"08:20 - 13:35","wo":"08:20 - 13:35","do":"08:20 - 13:35","vr":"08:20 - 13:35"}}},{"type":"Feature","geometry":{"type":"Point","coordinates":[11.33509751,46.42336385]},"properties":{"type":"pakketpunt","locatieNaam":"Ufficio Postale Laives","straatNaam":"Via Dei Vigneti","straatNr":"13","vervoerder":"PosteItaliane","puntType":"automaat","bezettingsgraad":50,"latitude":46.42336385,"longitude":11.33509751,"canPickup":true,"canDropoff":true,"openingstijden":{"za":"08:20 - 12:35","zo":"gesloten","ma":"08:20 - 19:05","di":"08:20 - 19:05","wo":"08:20 - 19:05","do":"08:20 - 19:05","vr":"08:20 - 19:05"}}},{"type":"Feature","geometry":{"type":"Point","coordinates":[11.33167357,46.42093201]},"properties":{"type":"pakketpunt","locatieNaam":"Tabaccheria N. 2","straatNaam":"Via John Fitzgerald Kennedy","straatNr":"276/b","vervoerder":"PosteItaliane","puntType":"servicepunt","bezettingsgraad":50,"latitude":46.42093201,"longitude":11.33167357,"canPickup":true,"canDropoff":true,"openingstijden":{"za":"gesloten","zo":"gesloten","ma":"gesloten","di":"06:00 - 12:30, 15:00 - 20:00","wo":"06:00 - 12:30, 15:00 - 20:00","do":"06:00 - 12:30, 15:00 - 20:00","vr":"06:00 - 12:30, 15:00 - 20:00"}}},{"type":"Feature","geometry":{"type":"Point","coordinates":[11.33259935,46.45989595]},"properties":{"type":"pakketpunt","locatieNaam":"Tabaccheria N. 5","straatNaam":"Via San Giacomo","straatNr":"54","vervoerder":"PosteItaliane","puntType":"servicepunt","bezettingsgraad":50,"latitude":46.45989595,"longitude":11.33259935,"canPickup":true,"canDropoff":true,"openingstijden":{"za":"08:00 - 12:00","zo":"gesloten","ma":"08:00 - 12:00, 16:00 - 19:00","di":"08:00 - 12:00, 16:00 - 19:00","wo":"08:00 - 12:00, 16:00 - 19:00","do":"08:00 - 12:00, 16:00 - 19:00","vr":"08:00 - 12:00, 16:00 - 19:00"}}},{"type":"Feature","geometry":{"type":"Point","coordinates":[11.33837988,46.42799505]},"properties":{"type":"pakketpunt","locatieNaam":"Tabaccheria N. 4","straatNaam":"Via John Fitzgerald Kennedy","straatNr":"100","vervoerder":"PosteItaliane","puntType":"servicepunt","bezettingsgraad":50,"latitude":46.42799505,"longitude":11.33837988,"canPickup":true,"canDropoff":true,"openingstijden":{"za":"05:30 - 12:30, 15:30 - 19:00","zo":"05:30 - 12:00","ma":"05:30 - 12:30, 15:30 - 19:00","di":"05:30 - 12:30, 15:30 - 19:00","wo":"05:30 - 12:30, 15:30 - 19:00","do":"05:30 - 12:30, 15:30 - 19:00","vr":"05:30 - 12:30, 15:30 - 19:00"}}},{"type":"Feature","geometry":{"type":"Point","coordinates":[11.3385883,46.4276865]},"properties":{"type":"pakketpunt","locatieNaam":"Nkd-Laives","straatNaam":"VIA KENNEDY","straatNr":"83","vervoerder":"DPD","puntType":"pickup_point","bezettingsgraad":50,"latitude":46.4276865,"longitude":11.3385883,"canPickup":true,"canDropoff":true,"openingstijden":{"ma":"09:00 - 19:30","di":"09:00 - 19:30","wo":"09:00 - 19:30","do":"09:00 - 19:30","vr":"09:00 - 19:30","za":"09:00 - 19:30","zo":"gesloten"}}},{"type":"Feature","geometry":{"type":"Point","coordinates":[11.3384131,46.4279859]},"properties":{"type":"pakketpunt","locatieNaam":"Tabacchi F.lli Barbon","straatNaam":"VIA KENNEDY","straatNr":"100","vervoerder":"DPD","puntType":"pickup_point","bezettingsgraad":50,"latitude":46.4279859,"longitude":11.3384131,"canPickup":true,"canDropoff":true,"openingstijden":{"ma":"05:30 - 13:00, 15:30 - 19:30","di":"05:30 - 13:00, 15:30 - 19:30","wo":"05:30 - 13:00, 15:30 - 19:30","do":"05:30 - 13:00, 15:30 - 19:30","vr":"05:30 - 13:00, 15:30 - 19:30","za":"05:30 - 13:00, 15:30 - 19:30","zo":"06:00 - 12:00"}}},{"type":"Feature","geometry":{"type":"Point","coordinates":[11.3334688,46.4629557]},"properties":{"type":"pakketpunt","locatieNaam":"Tabaccheria Il Vizio","straatNaam":"VIA SAN GIACOMO","straatNr":"3","vervoerder":"DPD","puntType":"pickup_point","bezettingsgraad":50,"latitude":46.4629557,"longitude":11.3334688,"canPickup":true,"canDropoff":true,"openingstijden":{"ma":"06:00 - 13:00, 15:00 - 20:00","di":"06:00 - 13:00, 15:00 - 20:00","wo":"06:00 - 13:00, 15:00 - 20:00","do":"06:00 - 13:00, 15:00 - 20:00","vr":"06:00 - 13:00, 15:00 - 20:00","za":"06:00 - 13:00, 15:00 - 20:00","zo":"06:00 - 13:00"}}},{"type":"Feature","geometry":{"type":"Point","coordinates":[11.3351497,46.4233936]},"properties":{"type":"pakketpunt","locatieNaam":"edicola-tabacchi","straatNaam":"Via Dei Vigneti","straatNr":"33","vervoerder":"GLS","puntType":"parcel_shop","bezettingsgraad":50,"latitude":46.4233936,"longitude":11.3351497,"canPickup":true,"canDropoff":true,"openingstijden":"za: 07:00 - 12:30, 15:30 - 19:30; zo: 07:00 - 12:30"}},{"type":"Feature","geometry":{"type":"Point","coordinates":[11.3334688,46.4629557]},"properties":{"type":"pakketpunt","locatieNaam":"Tabaccheria Il Vizio","straatNaam":"Via San Giacomo","straatNr":"3","vervoerder":"GLS","puntType":"parcel_shop","bezettingsgraad":50,"latitude":46.4629557,"longitude":11.3334688,"canPickup":true,"canDropoff":true,"openingstijden":"za: 06:00 - 13:00, 15:00 - 20:00; zo: 06:00 - 13:00"}},{"type":"Feature","geometry":{"type":"Point","coordinates":[11.331674,46.420932]},"properties":{"type":"pakketpunt","locatieNaam":"TABACCHERIA n. 2","straatNaam":"VIA JOHN FITZGERALD KENNEDY 276-B","straatNr":"","vervoerder":"DHL","puntType":"parcelShop","bezettingsgraad":50,"latitude":46.420932,"longitude":11.331674,"canPickup":true,"canDropoff":true,"openingstijden":{"ma":"gesloten","di":"06:00 - 12:30, 15:00 - 20:00","wo":"06:00 - 12:30, 15:00 - 20:00","do":"06:00 - 12:30, 15:00 - 20:00","vr":"06:00 - 12:30, 15:00 - 20:00","za":"gesloten","zo":"gesloten"}}},{"type":"Feature","geometry":{"type":"Point","coordinates":[11.335098,46.423364]},"properties":{"type":"pakketpunt","locatieNaam":"Ufficio Postale LAIVES","straatNaam":"VIA DEI VIGNETI 13","straatNr":"","vervoerder":"DHL","puntType":"postOffice","bezettingsgraad":50,"latitude":46.423364,"longitude":11.335098,"canPickup":true,"canDropoff":true,"openingstijden":{"ma":"08:20 - 13:35","di":"08:20 - 13:35","wo":"08:20 - 13:35","do":"08:20 - 13:35","vr":"08:20 - 13:35","za":"08:20 - 12:35","zo":"gesloten"}}},{"type":"Feature","geometry":{"type":"Point","coordinates":[11.335098,46.423364]},"properties":{"type":"pakketpunt","locatieNaam":"UFFICIO POSTALE LAIVES","straatNaam":"VIA DEI VIGNETI 13","straatNr":"","vervoerder":"DHL","puntType":"packStation","bezettingsgraad":50,"latitude":46.423364,"longitude":11.335098,"canPickup":true,"canDropoff":true,"openingstijden":{"ma":"08:20 - 19:05","di":"08:20 - 19:05","wo":"08:20 - 19:05","do":"08:20 - 19:05","vr":"08:20 - 19:05","za":"08:20 - 12:35","zo":"gesloten"}}},{"type":"Feature","geometry":{"type":"Point","coordinates":[11.33838,46.427995]},"properties":{"type":"pakketpunt","locatieNaam":"TABACCHERIA N. 4","straatNaam":"VIA JOHN FITZGERALD KENNEDY 100","straatNr":"","vervoerder":"DHL","puntType":"parcelShop","bezettingsgraad":50,"latitude":46.427995,"longitude":11.33838,"canPickup":true,"canDropoff":true,"openingstijden":{"ma":"05:30 - 12:30, 15:30 - 19:00","di":"05:30 - 12:30, 15:30 - 19:00","wo":"05:30 - 12:30, 15:30 - 19:00","do":"05:30 - 12:30, 15:30 - 19:00","vr":"05:30 - 12:30, 15:30 - 19:00","za":"05:30 - 12:30, 15:30 - 19:00","zo":"05:30 - 12:00"}}},{"type":"Feature","geometry":{"type":"Point","coordinates":[11.332599,46.459896]},"properties":{"type":"pakketpunt","locatieNaam":"TABACCHERIA n. 5","straatNaam":"VIA SAN GIACOMO 54","straatNr":"","vervoerder":"DHL","puntType":"parcelShop","bezettingsgraad":50,"latitude":46.459896,"longitude":11.332599,"canPickup":true,"canDropoff":true,"openingstijden":{"ma":"08:00 - 12:00, 16:00 - 19:00","di":"08:00 - 12:00, 16:00 - 19:00","wo":"08:00 - 12:00, 16:00 - 19:00","do":"08:00 - 12:00, 16:00 - 19:00","vr":"08:00 - 12:00, 16:00 - 19:00","za":"08:00 - 12:00","zo":"gesloten"}}},{"type":"Feature","geometry":{"type":"Point","coordinates":[11.333742,46.461186]},"properties":{"type":"pakketpunt","locatieNaam":"Ufficio Postale SAN GIACOMO DI LAIV","straatNaam":"VIA SAN GIACOMO 49-C","straatNr":"","vervoerder":"DHL","puntType":"postOffice","bezettingsgraad":50,"latitude":46.461186,"longitude":11.333742,"canPickup":true,"canDropoff":true,"openingstijden":{"ma":"08:20 - 13:45","di":"08:20 - 13:45","wo":"08:20 - 13:45","do":"08:20 - 13:45","vr":"08:20 - 13:45","za":"08:20 - 12:45","zo":"gesloten"}}},{"type":"Feature","geometry":{"type":"Point","coordinates":[11.3334688,46.4629557]},"properties":{"type":"pakketpunt","locatieNaam":"Amazon Counter (fermopoint)","straatNaam":"Tabaccheria Il Vizio","straatNr":"","vervoerder":"Amazon","puntType":"helix","bezettingsgraad":50,"latitude":46.4629557,"longitude":11.3334688,"canPickup":true,"canDropoff":false,"openingstijden":null}},{"type":"Feature","geometry":{"type":"Point","coordinates":[11.335296,46.423371]},"properties":{"type":"pakketpunt","locatieNaam":"Amazon Counter - Tabacchi e Giornali","straatNaam":"Via dei Vigneti, 33","straatNr":"","vervoerder":"Amazon","puntType":"helix","bezettingsgraad":50,"latitude":46.423371,"longitude":11.335296,"canPickup":true,"canDropoff":false,"openingstijden":null}},{"type":"Feature","geometry":{"type":"Polygon","coordinates":[[[11.308463,46.4469945],[11.3127287,46.4431688],[11.3151384,46.4407755],[11.3156816,46.4398645],[11.3159439,46.4391437],[11.3162479,46.4376975],[11.3162308,46.4370634],[11.3200883,46.4369312],[11.321296,46.4366141],[11.3204101,46.4347781],[11.3228364,46.4345893],[11.3228571,46.4344449],[11.3237866,46.4338995],[11.3244472,46.4332696],[11.3246886,46.4329767],[11.3249175,46.4323915],[11.3247995,46.4317774],[11.3244423,46.4313167],[11.3239851,46.430993],[11.3235263,46.4301518],[11.3232943,46.4299],[11.3214591,46.4292308],[11.3212915,46.4288652],[11.3204574,46.4289946],[11.3204376,46.428356],[11.3205393,46.4280885],[11.3202586,46.4276847],[11.3195077,46.4276639],[11.3192115,46.4262434],[11.3187261,46.4256908],[11.3178883,46.4253478],[11.3161555,46.4250364],[11.3157781,46.4247695],[11.3155128,46.4244194],[11.3154154,46.4240029],[11.3160193,46.4231086],[11.3161187,46.4225756],[11.3129632,46.421375],[11.3145355,46.4187827],[11.3149477,46.4179328],[11.3151865,46.4170235],[11.3152561,46.4164011],[11.3150948,46.4142916],[11.3188516,46.4134257],[11.3196339,46.4139228],[11.3205878,46.414169],[11.3260027,46.4144545],[11.3263175,46.414174],[11.3269969,46.4133007],[11.3275675,46.4131225],[11.3276468,46.4113749],[11.3307948,46.4105908],[11.3317615,46.410148],[11.333504,46.409514],[11.3347746,46.409254],[11.3354778,46.4092892],[11.3368116,46.4091404],[11.3374801,46.4083032],[11.3379483,46.4079561],[11.3385767,46.4077228],[11.3389587,46.4073955],[11.340025,46.4056906],[11.3415405,46.4047731],[11.3425175,46.4043661],[11.3440513,46.4047891],[11.344849,46.4051103],[11.3453525,46.4053429],[11.346791,46.4063304],[11.3487948,46.4069193],[11.3513374,46.408505],[11.3522309,46.4083291],[11.353217,46.4074538],[11.3537102,46.4063096],[11.3545306,46.4056672],[11.3551106,46.4055023],[11.355358,46.4055062],[11.3556017,46.4060097],[11.3558154,46.4062528],[11.358355,46.4085179],[11.3585334,46.4092027],[11.3587296,46.4095677],[11.3594542,46.4099262],[11.3608082,46.4100018],[11.3611126,46.4101575],[11.3609017,46.4107919],[11.3604211,46.4114903],[11.3601763,46.4125438],[11.3595459,46.4145189],[11.3592793,46.4149204],[11.358035,46.4160891],[11.3573049,46.4173776],[11.3561564,46.4182068],[11.3559141,46.4184143],[11.3558614,46.4186089],[11.3563749,46.4191248],[11.3571661,46.4194415],[11.3578866,46.4192286],[11.3586864,46.4187261],[11.3598167,46.4187208],[11.3605285,46.4186296],[11.3611158,46.4185365],[11.3623429,46.4181556],[11.3624041,46.4186314],[11.3626855,46.419251],[11.3634518,46.4216247],[11.3639437,46.4227305],[11.3644009,46.4240846],[11.3644935,46.4244967],[11.3644494,46.4256586],[11.3649024,46.4264457],[11.3661705,46.4275715],[11.3674851,46.4282103],[11.3681411,46.4287052],[11.3684701,46.4295399],[11.3684268,46.4304363],[11.3688369,46.4307203],[11.3704653,46.4314245],[11.3718341,46.4324671],[11.3721026,46.4328035],[11.3724161,46.433616],[11.3725533,46.4346392],[11.3725279,46.4355532],[11.3713859,46.4386909],[11.3716664,46.4394546],[11.3741909,46.4405722],[11.3731957,46.4416189],[11.3726167,46.4431249],[11.3723829,46.4441873],[11.372914,46.4462237],[11.37431,46.4493582],[11.3750818,46.4506382],[11.3764942,46.4514144],[11.377495,46.4522125],[11.3771706,46.4529303],[11.3762831,46.4536507],[11.3758468,46.4541548],[11.375301,46.4546117],[11.3743071,46.4557303],[11.3739069,46.4572506],[11.3735673,46.4581262],[11.3705,46.4602373],[11.3697785,46.4605673],[11.3691575,46.4605307],[11.3685626,46.461002],[11.3683007,46.4614934],[11.3673679,46.4618502],[11.3669574,46.4621467],[11.3667491,46.46288],[11.3660176,46.4629873],[11.3657856,46.4631933],[11.3654993,46.4638289],[11.3656072,46.4643046],[11.3665359,46.4660662],[11.3668511,46.4663022],[11.3669081,46.4665779],[11.3671301,46.4668865],[11.3658915,46.4685547],[11.3644089,46.469215],[11.3640204,46.469304],[11.3627323,46.4698436],[11.3611886,46.470744],[11.3609723,46.4709015],[11.3597044,46.4723992],[11.3589604,46.4728735],[11.3588517,46.4730153],[11.3589255,46.4734412],[11.3581038,46.4724952],[11.356291,46.4717856],[11.3560348,46.4713949],[11.3558281,46.4712281],[11.3553704,46.4711476],[11.3545776,46.4712269],[11.3532531,46.4707187],[11.3525758,46.4698326],[11.3521961,46.4688819],[11.3522704,46.4681874],[11.3518751,46.4680245],[11.3515455,46.4674238],[11.3513386,46.4674011],[11.35117,46.467589],[11.3506717,46.4675858],[11.3498688,46.4681108],[11.3496027,46.4681703],[11.3492656,46.4679792],[11.3486261,46.4672678],[11.3481082,46.466509],[11.3480715,46.4661857],[11.348008,46.4661465],[11.3473275,46.4669615],[11.3450497,46.4656538],[11.3445419,46.4650882],[11.3444848,46.4646303],[11.3442752,46.4642251],[11.3424793,46.4645815],[11.3407073,46.4653063],[11.3403635,46.4652053],[11.3383294,46.4659489],[11.337916,46.4662004],[11.3373291,46.4663339],[11.3368669,46.4663388],[11.3350618,46.4660067],[11.3346553,46.464693],[11.3346748,46.4643046],[11.3345824,46.4638205],[11.3347841,46.4634159],[11.3348017,46.463123],[11.3347046,46.4630215],[11.3337023,46.4630735],[11.3331049,46.4632784],[11.332672,46.4632115],[11.3310835,46.4644229],[11.3304452,46.4644337],[11.3305461,46.4642674],[11.3304465,46.4630409],[11.3302829,46.4623557],[11.3300019,46.4617405],[11.3289425,46.4607586],[11.3269729,46.4598852],[11.3261768,46.4594244],[11.3258894,46.4590027],[11.3255789,46.4578661],[11.322373,46.4575442],[11.3220467,46.4557869],[11.3220093,46.4536051],[11.3217915,46.4534971],[11.3215101,46.4531383],[11.3212854,46.4530213],[11.3212061,46.450449],[11.3212559,46.4503174],[11.3208815,46.4500865],[11.3216488,46.4497785],[11.3223893,46.4497949],[11.3227806,46.4485675],[11.3225627,46.4469834],[11.3222289,46.4454107],[11.3200113,46.4455049],[11.3188528,46.4451642],[11.3174775,46.4449131],[11.3144761,46.4467874],[11.3091321,46.4472635],[11.308463,46.4469945]]]},"properties":{"type":"boundary","gemeente":"Laives - Leifers"}}]}