{"type":"FeatureCollection","metadata":{"gemeente":"Legnago","slug":"legnago","generated_at":"2026-09-26T14:27:27.647021Z","total_points":83,"providers":["PosteItaliane","DPD","InPost","GLS","DHL","Amazon","FedEx"],"bounds":[11.25306,45.1668,11.323546,45.220281]},"features":[{"type":"Feature","geometry":{"type":"Point","coordinates":[11.30349889,45.1876061]},"properties":{"type":"pakketpunt","locatieNaam":"Tabaccheria N. 25","straatNaam":"Via Garbo","straatNr":"3","vervoerder":"PosteItaliane","puntType":"servicepunt","bezettingsgraad":50,"latitude":45.1876061,"longitude":11.30349889,"canPickup":true,"canDropoff":true,"openingstijden":{"za":"07:00 - 21:30","zo":"07:00 - 21:30","ma":"07:00 - 21:30","di":"07:00 - 21:30","wo":"07:00 - 21:30","do":"07:00 - 21:30","vr":"07:00 - 21:30"}}},{"type":"Feature","geometry":{"type":"Point","coordinates":[11.28212703,45.18282547]},"properties":{"type":"pakketpunt","locatieNaam":"San Pietro Di Legnago","straatNaam":"Via San Salvaro","straatNr":"3","vervoerder":"PosteItaliane","puntType":"postkantoor","bezettingsgraad":50,"latitude":45.18282547,"longitude":11.28212703,"canPickup":true,"canDropoff":true,"openingstijden":{"za":"08:20 - 12:45","zo":"gesloten","ma":"08:20 - 13:45","di":"08:20 - 13:45","wo":"08:20 - 13:45","do":"08:20 - 13:45","vr":"08:20 - 13:45"}}},{"type":"Feature","geometry":{"type":"Point","coordinates":[11.30771212,45.19495977]},"properties":{"type":"pakketpunt","locatieNaam":"Legnago","straatNaam":"Piazzetta Cinque Martiri","straatNr":"1","vervoerder":"PosteItaliane","puntType":"postkantoor","bezettingsgraad":50,"latitude":45.19495977,"longitude":11.30771212,"canPickup":true,"canDropoff":true,"openingstijden":{"za":"08:20 - 12:35","zo":"gesloten","ma":"08:20 - 19:05","di":"08:20 - 19:05","wo":"08:20 - 19:05","do":"08:20 - 19:05","vr":"08:20 - 19:05"}}},{"type":"Feature","geometry":{"type":"Point","coordinates":[11.28919285,45.19931246]},"properties":{"type":"pakketpunt","locatieNaam":"Terranegra","straatNaam":"Via Brolo","straatNr":"5","vervoerder":"PosteItaliane","puntType":"postkantoor","bezettingsgraad":50,"latitude":45.19931246,"longitude":11.28919285,"canPickup":true,"canDropoff":true,"openingstijden":{"za":"08:20 - 12:45","zo":"gesloten","ma":"08:20 - 13:45","di":"08:20 - 13:45","wo":"08:20 - 13:45","do":"08:20 - 13:45","vr":"08:20 - 13:45"}}},{"type":"Feature","geometry":{"type":"Point","coordinates":[11.30687713,45.18600089]},"properties":{"type":"pakketpunt","locatieNaam":"Casette","straatNaam":"Via Luciano Manara","straatNr":"24/a","vervoerder":"PosteItaliane","puntType":"postkantoor","bezettingsgraad":50,"latitude":45.18600089,"longitude":11.30687713,"canPickup":true,"canDropoff":true,"openingstijden":{"za":"08:20 - 12:45","zo":"gesloten","ma":"08:20 - 13:45","di":"08:20 - 13:45","wo":"08:20 - 13:45","do":"08:20 - 13:45","vr":"08:20 - 13:45"}}},{"type":"Feature","geometry":{"type":"Point","coordinates":[11.31549795,45.19684964]},"properties":{"type":"pakketpunt","locatieNaam":"Legnago 1","straatNaam":"Via Pio X","straatNr":"10","vervoerder":"PosteItaliane","puntType":"postkantoor","bezettingsgraad":50,"latitude":45.19684964,"longitude":11.31549795,"canPickup":true,"canDropoff":true,"openingstijden":{"za":"08:20 - 12:35","zo":"gesloten","ma":"08:20 - 13:35","di":"08:20 - 13:35","wo":"08:20 - 13:35","do":"08:20 - 13:35","vr":"08:20 - 13:35"}}},{"type":"Feature","geometry":{"type":"Point","coordinates":[11.30152967,45.16688982]},"properties":{"type":"pakketpunt","locatieNaam":"Vangadizza","straatNaam":"Via Gioacchino Rossini","straatNr":"93","vervoerder":"PosteItaliane","puntType":"postkantoor","bezettingsgraad":50,"latitude":45.16688982,"longitude":11.30152967,"canPickup":true,"canDropoff":true,"openingstijden":{"za":"08:20 - 12:45","zo":"gesloten","ma":"08:20 - 13:45","di":"08:20 - 13:45","wo":"08:20 - 13:45","do":"08:20 - 13:45","vr":"08:20 - 13:45"}}},{"type":"Feature","geometry":{"type":"Point","coordinates":[11.30600163,45.19301669]},"properties":{"type":"pakketpunt","locatieNaam":"Tabaccheria N. 21","straatNaam":"Corso Della Vittoria","straatNr":"26","vervoerder":"PosteItaliane","puntType":"servicepunt","bezettingsgraad":50,"latitude":45.19301669,"longitude":11.30600163,"canPickup":true,"canDropoff":true,"openingstijden":{"za":"06:30 - 12:45, 15:30 - 19:30","zo":"gesloten","ma":"gesloten","di":"gesloten","wo":"gesloten","do":"gesloten","vr":"gesloten"}}},{"type":"Feature","geometry":{"type":"Point","coordinates":[11.31929592,45.1971584]},"properties":{"type":"pakketpunt","locatieNaam":"Tabaccheria N. 35","straatNaam":"Via Angelo Scarsellini","straatNr":"46","vervoerder":"PosteItaliane","puntType":"servicepunt","bezettingsgraad":50,"latitude":45.1971584,"longitude":11.31929592,"canPickup":true,"canDropoff":true,"openingstijden":{"za":"06:20 - 13:00, 15:00 - 19:45","zo":"gesloten","ma":"06:20 - 13:00, 15:00 - 19:45","di":"06:20 - 13:00, 15:00 - 19:45","wo":"06:20 - 13:00, 15:00 - 19:45","do":"06:20 - 13:00, 15:00 - 19:45","vr":"06:20 - 13:00, 15:00 - 19:45"}}},{"type":"Feature","geometry":{"type":"Point","coordinates":[11.31183435,45.19173453]},"properties":{"type":"pakketpunt","locatieNaam":"Tabaccheria N. 3","straatNaam":"Via Pier Domenico Frattini","straatNr":"32","vervoerder":"PosteItaliane","puntType":"servicepunt","bezettingsgraad":50,"latitude":45.19173453,"longitude":11.31183435,"canPickup":true,"canDropoff":true,"openingstijden":{"za":"07:00 - 13:00, 15:30 - 19:30","zo":"gesloten","ma":"07:00 - 13:00, 15:00 - 19:30","di":"07:00 - 13:00, 15:00 - 19:30","wo":"07:00 - 13:00, 15:00 - 19:30","do":"07:00 - 13:00, 15:00 - 19:30","vr":"07:00 - 13:00, 15:00 - 19:30"}}},{"type":"Feature","geometry":{"type":"Point","coordinates":[11.31177802,45.19273068]},"properties":{"type":"pakketpunt","locatieNaam":"Tabaccheria N. 6","straatNaam":"Piazza Della Liberta'","straatNr":"21","vervoerder":"PosteItaliane","puntType":"servicepunt","bezettingsgraad":50,"latitude":45.19273068,"longitude":11.31177802,"canPickup":true,"canDropoff":true,"openingstijden":{"za":"06:50 - 13:00, 15:00 - 20:00","zo":"gesloten","ma":"06:50 - 13:00, 15:00 - 20:00","di":"06:50 - 13:00, 15:00 - 20:00","wo":"06:50 - 13:00, 15:00 - 20:00","do":"06:50 - 13:00, 15:00 - 20:00","vr":"06:50 - 13:00, 15:00 - 20:00"}}},{"type":"Feature","geometry":{"type":"Point","coordinates":[11.31623377,45.19559739]},"properties":{"type":"pakketpunt","locatieNaam":"Tabaccheria N. 1","straatNaam":"Via Ospital Vecchio","straatNr":"34","vervoerder":"PosteItaliane","puntType":"servicepunt","bezettingsgraad":50,"latitude":45.19559739,"longitude":11.31623377,"canPickup":true,"canDropoff":true,"openingstijden":{"za":"06:00 - 20:00","zo":"06:00 - 20:00","ma":"06:00 - 20:00","di":"06:00 - 20:00","wo":"06:00 - 20:00","do":"06:00 - 20:00","vr":"06:00 - 20:00"}}},{"type":"Feature","geometry":{"type":"Point","coordinates":[11.30973983,45.19274454]},"properties":{"type":"pakketpunt","locatieNaam":"Tabaccheria N. 5","straatNaam":"Via Roma","straatNr":"22","vervoerder":"PosteItaliane","puntType":"servicepunt","bezettingsgraad":50,"latitude":45.19274454,"longitude":11.30973983,"canPickup":true,"canDropoff":true,"openingstijden":{"za":"08:00 - 13:00, 15:00 - 19:45","zo":"08:00 - 13:00, 15:00 - 19:00","ma":"08:00 - 13:00","di":"08:00 - 13:00, 15:00 - 19:45","wo":"08:00 - 13:00, 15:00 - 19:45","do":"08:00 - 13:00, 15:00 - 19:45","vr":"08:00 - 13:00, 15:00 - 19:45"}}},{"type":"Feature","geometry":{"type":"Point","coordinates":[11.29101591,45.19937035]},"properties":{"type":"pakketpunt","locatieNaam":"Tabaccheria N. 32","straatNaam":"Via Terranegra","straatNr":"43","vervoerder":"PosteItaliane","puntType":"servicepunt","bezettingsgraad":50,"latitude":45.19937035,"longitude":11.29101591,"canPickup":true,"canDropoff":true,"openingstijden":{"za":"07:30 - 12:30","zo":"gesloten","ma":"07:30 - 12:30, 16:00 - 19:00","di":"07:30 - 12:30, 16:00 - 19:00","wo":"07:30 - 12:30, 16:00 - 19:00","do":"07:30 - 12:30, 16:00 - 19:00","vr":"07:30 - 12:30, 16:00 - 19:00"}}},{"type":"Feature","geometry":{"type":"Point","coordinates":[11.30899088,45.19204659]},"properties":{"type":"pakketpunt","locatieNaam":"Tabaccheria N. 24","straatNaam":"Via Giacomo Matteotti","straatNr":"42","vervoerder":"PosteItaliane","puntType":"servicepunt","bezettingsgraad":50,"latitude":45.19204659,"longitude":11.30899088,"canPickup":true,"canDropoff":true,"openingstijden":{"za":"06:30 - 12:30, 16:00 - 19:30","zo":"gesloten","ma":"06:30 - 12:30, 15:30 - 19:30","di":"06:30 - 12:30, 15:30 - 19:30","wo":"06:30 - 12:30, 15:30 - 19:30","do":"06:30 - 12:30, 15:30 - 19:30","vr":"06:30 - 12:30, 15:30 - 19:30"}}},{"type":"Feature","geometry":{"type":"Point","coordinates":[11.31820947,45.16954694]},"properties":{"type":"pakketpunt","locatieNaam":"Tabaccheria N. 12","straatNaam":"Via Rovigo","straatNr":"123","vervoerder":"PosteItaliane","puntType":"servicepunt","bezettingsgraad":50,"latitude":45.16954694,"longitude":11.31820947,"canPickup":true,"canDropoff":true,"openingstijden":{"za":"07:00 - 12:30, 15:30 - 21:30","zo":"08:00 - 12:00, 17:00 - 21:00","ma":"07:00 - 12:30, 15:30 - 19:30","di":"07:00 - 12:30, 15:30 - 19:30","wo":"07:00 - 12:30, 15:30 - 21:30","do":"07:00 - 12:30, 15:30 - 21:30","vr":"07:00 - 12:30, 15:30 - 21:30"}}},{"type":"Feature","geometry":{"type":"Point","coordinates":[11.27909944,45.18593293]},"properties":{"type":"pakketpunt","locatieNaam":"Tabaccheria N. 9","straatNaam":"Via Verona","straatNr":"24","vervoerder":"PosteItaliane","puntType":"servicepunt","bezettingsgraad":50,"latitude":45.18593293,"longitude":11.27909944,"canPickup":true,"canDropoff":true,"openingstijden":{"za":"07:30 - 12:30, 16:00 - 19:30","zo":"gesloten","ma":"07:30 - 13:00, 16:00 - 19:30","di":"07:30 - 13:00, 16:00 - 19:30","wo":"07:30 - 13:00, 16:00 - 19:30","do":"07:30 - 13:00, 16:00 - 19:30","vr":"07:30 - 13:00, 16:00 - 19:30"}}},{"type":"Feature","geometry":{"type":"Point","coordinates":[11.27662311,45.18524308]},"properties":{"type":"pakketpunt","locatieNaam":"Tabaccheria N. 10","straatNaam":"Via Corrubio","straatNr":"2","vervoerder":"PosteItaliane","puntType":"servicepunt","bezettingsgraad":50,"latitude":45.18524308,"longitude":11.27662311,"canPickup":true,"canDropoff":true,"openingstijden":{"za":"08:00 - 12:30, 15:30 - 19:30","zo":"gesloten","ma":"08:00 - 12:30, 15:30 - 19:30","di":"08:00 - 12:30, 15:30 - 19:30","wo":"08:00 - 12:30, 15:30 - 19:30","do":"08:00 - 12:30, 15:30 - 19:30","vr":"08:00 - 12:30, 15:30 - 19:30"}}},{"type":"Feature","geometry":{"type":"Point","coordinates":[11.3107219058,45.1931766255]},"properties":{"type":"pakketpunt","locatieNaam":"AllTech","straatNaam":"VIA DUOMO","straatNr":"18","vervoerder":"DPD","puntType":"pickup_point","bezettingsgraad":50,"latitude":45.1931766255,"longitude":11.3107219058,"canPickup":true,"canDropoff":true,"openingstijden":{"ma":"15:00 - 18:30","di":"09:30 - 12:30, 15:30 - 19:00","wo":"09:30 - 12:30, 15:30 - 19:00","do":"09:30 - 12:30, 15:30 - 19:00","vr":"09:30 - 12:30, 15:30 - 19:00","za":"09:30 - 12:30","zo":"gesloten"}}},{"type":"Feature","geometry":{"type":"Point","coordinates":[11.309533,45.192532]},"properties":{"type":"pakketpunt","locatieNaam":"Tabaccheria Edicola Ambroso Matteo","straatNaam":"VIA ROMA","straatNr":"22","vervoerder":"DPD","puntType":"pickup_point","bezettingsgraad":50,"latitude":45.192532,"longitude":11.309533,"canPickup":true,"canDropoff":true,"openingstijden":{"ma":"07:30 - 13:00","di":"07:15 - 13:00, 15:00 - 19:45","wo":"07:15 - 13:00, 15:00 - 19:45","do":"07:15 - 13:00, 15:00 - 19:45","vr":"07:15 - 13:00, 15:00 - 19:45","za":"07:15 - 13:00, 15:00 - 19:45","zo":"07:30 - 13:00"}}},{"type":"Feature","geometry":{"type":"Point","coordinates":[11.31936805,45.19708488]},"properties":{"type":"pakketpunt","locatieNaam":"Edicola Tabaccheria F.lli Costantin","straatNaam":"VIA A. SCARSELLINI","straatNr":"46","vervoerder":"DPD","puntType":"pickup_point","bezettingsgraad":50,"latitude":45.19708488,"longitude":11.31936805,"canPickup":true,"canDropoff":true,"openingstijden":{"ma":"06:30 - 12:45, 15:30 - 20:00","di":"06:30 - 12:45, 15:30 - 20:00","wo":"06:30 - 12:45, 15:30 - 20:00","do":"06:30 - 12:45, 15:30 - 20:00","vr":"06:30 - 12:45, 15:30 - 20:00","za":"06:30 - 12:45, 15:30 - 20:00","zo":"gesloten"}}},{"type":"Feature","geometry":{"type":"Point","coordinates":[11.320141,45.2183621]},"properties":{"type":"pakketpunt","locatieNaam":"Defro Italia Srls","straatNaam":"VIA PADANA INF. EST","straatNr":"98","vervoerder":"DPD","puntType":"pickup_point","bezettingsgraad":50,"latitude":45.2183621,"longitude":11.320141,"canPickup":true,"canDropoff":true,"openingstijden":{"ma":"08:00 - 13:00, 14:00 - 19:30","di":"08:00 - 13:00, 14:00 - 19:30","wo":"08:00 - 13:00, 14:00 - 19:30","do":"08:00 - 13:00, 14:00 - 19:30","vr":"08:00 - 13:00, 14:00 - 19:30","za":"08:00 - 13:00, 14:00 - 19:30","zo":"09:00 - 12:00"}}},{"type":"Feature","geometry":{"type":"Point","coordinates":[11.2780717,45.1857129]},"properties":{"type":"pakketpunt","locatieNaam":"Duelle Service SRLS","straatNaam":"VIA VERONA","straatNr":"48","vervoerder":"DPD","puntType":"pickup_point","bezettingsgraad":50,"latitude":45.1857129,"longitude":11.2780717,"canPickup":true,"canDropoff":true,"openingstijden":{"ma":"09:30 - 12:30, 15:30 - 19:00","di":"09:30 - 12:30, 15:30 - 19:00","wo":"gesloten","do":"09:30 - 12:30, 15:30 - 19:00","vr":"09:30 - 12:30, 15:30 - 19:00","za":"gesloten","zo":"gesloten"}}},{"type":"Feature","geometry":{"type":"Point","coordinates":[11.296873,45.190745]},"properties":{"type":"pakketpunt","locatieNaam":"Telefonia Galassia","straatNaam":"VIA MANTOVA","straatNr":"5","vervoerder":"DPD","puntType":"pickup_point","bezettingsgraad":50,"latitude":45.190745,"longitude":11.296873,"canPickup":true,"canDropoff":true,"openingstijden":{"ma":"09:00 - 19:30","di":"09:00 - 19:30","wo":"09:00 - 19:30","do":"09:00 - 19:30","vr":"09:00 - 19:30","za":"09:00 - 19:30","zo":"09:00 - 19:30"}}},{"type":"Feature","geometry":{"type":"Point","coordinates":[11.3125154,45.1883915]},"properties":{"type":"pakketpunt","locatieNaam":"Mail Boxes Etc. 2593","straatNaam":"VIALE DON MINZONI","straatNr":"7","vervoerder":"DPD","puntType":"pickup_point","bezettingsgraad":50,"latitude":45.1883915,"longitude":11.3125154,"canPickup":true,"canDropoff":true,"openingstijden":{"ma":"09:00 - 12:30, 14:00 - 18:00","di":"09:00 - 12:30, 14:00 - 18:00","wo":"09:00 - 12:30, 14:00 - 18:00","do":"09:00 - 12:30, 14:00 - 18:00","vr":"09:00 - 12:30, 14:00 - 18:00","za":"gesloten","zo":"gesloten"}}},{"type":"Feature","geometry":{"type":"Point","coordinates":[11.29882,45.19295]},"properties":{"type":"pakketpunt","locatieNaam":"InPost Locker 24/7","straatNaam":"Via Mantova","straatNr":"22","vervoerder":"InPost","puntType":"automaat","bezettingsgraad":50,"latitude":45.19295,"longitude":11.29882,"canPickup":true,"canDropoff":true,"openingstijden":null}},{"type":"Feature","geometry":{"type":"Point","coordinates":[11.2954,45.1905]},"properties":{"type":"pakketpunt","locatieNaam":"InPost Locker 24/7","straatNaam":"Via Mantova","straatNr":"Snc","vervoerder":"InPost","puntType":"automaat","bezettingsgraad":50,"latitude":45.1905,"longitude":11.2954,"canPickup":true,"canDropoff":true,"openingstijden":null}},{"type":"Feature","geometry":{"type":"Point","coordinates":[11.25883,45.18612]},"properties":{"type":"pakketpunt","locatieNaam":"","straatNaam":"Via Verona","straatNr":"144","vervoerder":"InPost","puntType":"automaat","bezettingsgraad":50,"latitude":45.18612,"longitude":11.25883,"canPickup":true,"canDropoff":true,"openingstijden":null}},{"type":"Feature","geometry":{"type":"Point","coordinates":[11.28155,45.19569]},"properties":{"type":"pakketpunt","locatieNaam":"InPost Locker 24/7","straatNaam":"Via Malon","straatNr":"65","vervoerder":"InPost","puntType":"automaat","bezettingsgraad":50,"latitude":45.19569,"longitude":11.28155,"canPickup":true,"canDropoff":true,"openingstijden":null}},{"type":"Feature","geometry":{"type":"Point","coordinates":[11.30948,45.19292]},"properties":{"type":"pakketpunt","locatieNaam":"InPost Point","straatNaam":"Via Roma","straatNr":"22","vervoerder":"InPost","puntType":"servicepunt","bezettingsgraad":50,"latitude":45.19292,"longitude":11.30948,"canPickup":true,"canDropoff":true,"openingstijden":"Lun-Ven: 08:00 - 12:30 - 15:30 - 19:30 Sab: 09:00 - 12:00"}},{"type":"Feature","geometry":{"type":"Point","coordinates":[11.3195,45.19718]},"properties":{"type":"pakketpunt","locatieNaam":"InPost Point","straatNaam":"Via A. Scarsellini","straatNr":"46","vervoerder":"InPost","puntType":"servicepunt","bezettingsgraad":50,"latitude":45.19718,"longitude":11.3195,"canPickup":true,"canDropoff":true,"openingstijden":"Lun-Sab: 06:30 - 13:00 - 15:30 - 20:00"}},{"type":"Feature","geometry":{"type":"Point","coordinates":[11.2755566,45.1849523]},"properties":{"type":"pakketpunt","locatieNaam":"Computer Dream","straatNaam":"Via Verona","straatNr":"59a","vervoerder":"GLS","puntType":"parcel_shop","bezettingsgraad":50,"latitude":45.1849523,"longitude":11.2755566,"canPickup":true,"canDropoff":true,"openingstijden":"ma: 15:30 - 19:30; di: 09:00 - 12:30, 15:30 - 19:30"}},{"type":"Feature","geometry":{"type":"Point","coordinates":[11.279479,45.185851]},"properties":{"type":"pakketpunt","locatieNaam":"Bar Paninoteca Time Out","straatNaam":"Via Verona","straatNr":"5","vervoerder":"GLS","puntType":"parcel_shop","bezettingsgraad":50,"latitude":45.185851,"longitude":11.279479,"canPickup":true,"canDropoff":true,"openingstijden":"za: 08:00 - 22:00; ma: 08:00 - 22:00"}},{"type":"Feature","geometry":{"type":"Point","coordinates":[11.3089129,45.1921196]},"properties":{"type":"pakketpunt","locatieNaam":"TABACCHERIAMA","straatNaam":"Via Giacomo Matteotti","straatNr":"44","vervoerder":"GLS","puntType":"parcel_shop","bezettingsgraad":50,"latitude":45.1921196,"longitude":11.3089129,"canPickup":true,"canDropoff":true,"openingstijden":"za: 06:30 - 12:30, 16:00 - 19:30; zo: 07:30 - 12:30"}},{"type":"Feature","geometry":{"type":"Point","coordinates":[11.320141,45.2183621]},"properties":{"type":"pakketpunt","locatieNaam":"Defro Italia srls","straatNaam":"Via Padana Inferiore Est","straatNr":"98","vervoerder":"GLS","puntType":"parcel_shop","bezettingsgraad":50,"latitude":45.2183621,"longitude":11.320141,"canPickup":true,"canDropoff":true,"openingstijden":"za: 08:00 - 13:00, 14:00 - 19:00; zo: 09:00 - 13:00"}},{"type":"Feature","geometry":{"type":"Point","coordinates":[11.30153,45.16689]},"properties":{"type":"pakketpunt","locatieNaam":"Ufficio Postale VANGADIZZA","straatNaam":"VIA GIOACCHINO ROSSINI 93","straatNr":"","vervoerder":"DHL","puntType":"postOffice","bezettingsgraad":50,"latitude":45.16689,"longitude":11.30153,"canPickup":true,"canDropoff":true,"openingstijden":{"ma":"08:20 - 13:45","di":"08:20 - 13:45","wo":"08:20 - 13:45","do":"08:20 - 13:45","vr":"08:20 - 13:45","za":"08:20 - 12:45","zo":"gesloten"}}},{"type":"Feature","geometry":{"type":"Point","coordinates":[11.282127,45.182825]},"properties":{"type":"pakketpunt","locatieNaam":"Ufficio Postale SAN PIETRO DI LEGNA","straatNaam":"VIA SAN SALVARO 3","straatNr":"","vervoerder":"DHL","puntType":"postOffice","bezettingsgraad":50,"latitude":45.182825,"longitude":11.282127,"canPickup":true,"canDropoff":true,"openingstijden":{"ma":"08:20 - 13:45","di":"08:20 - 13:45","wo":"08:20 - 13:45","do":"08:20 - 13:45","vr":"08:20 - 13:45","za":"08:20 - 12:45","zo":"gesloten"}}},{"type":"Feature","geometry":{"type":"Point","coordinates":[11.276623,45.185243]},"properties":{"type":"pakketpunt","locatieNaam":"TABACCHERIA N. 10","straatNaam":"VIA CORRUBIO 2","straatNr":"","vervoerder":"DHL","puntType":"parcelShop","bezettingsgraad":50,"latitude":45.185243,"longitude":11.276623,"canPickup":true,"canDropoff":true,"openingstijden":{"ma":"08:00 - 12:30, 15:30 - 19:30","di":"08:00 - 12:30, 15:30 - 19:30","wo":"08:00 - 12:30, 15:30 - 19:30","do":"08:00 - 12:30, 15:30 - 19:30","vr":"08:00 - 12:30, 15:30 - 19:30","za":"08:00 - 12:30, 15:30 - 19:30","zo":"gesloten"}}},{"type":"Feature","geometry":{"type":"Point","coordinates":[11.279099,45.185933]},"properties":{"type":"pakketpunt","locatieNaam":"TABACCHERIA N. 9","straatNaam":"VIA VERONA 24","straatNr":"","vervoerder":"DHL","puntType":"parcelShop","bezettingsgraad":50,"latitude":45.185933,"longitude":11.279099,"canPickup":true,"canDropoff":true,"openingstijden":{"ma":"07:30 - 13:00, 16:00 - 19:30","di":"07:30 - 13:00, 16:00 - 19:30","wo":"07:30 - 13:00, 16:00 - 19:30","do":"07:30 - 13:00, 16:00 - 19:30","vr":"07:30 - 13:00, 16:00 - 19:30","za":"07:30 - 12:30, 16:00 - 19:30","zo":"gesloten"}}},{"type":"Feature","geometry":{"type":"Point","coordinates":[11.318209,45.169547]},"properties":{"type":"pakketpunt","locatieNaam":"TABACCHERIA N. 12","straatNaam":"VIA ROVIGO 123","straatNr":"","vervoerder":"DHL","puntType":"parcelShop","bezettingsgraad":50,"latitude":45.169547,"longitude":11.318209,"canPickup":true,"canDropoff":true,"openingstijden":{"ma":"07:00 - 12:30, 15:30 - 19:30","di":"07:00 - 12:30, 15:30 - 19:30","wo":"07:00 - 12:30, 15:30 - 21:30","do":"07:00 - 12:30, 15:30 - 21:30","vr":"07:00 - 12:30, 15:30 - 21:30","za":"07:00 - 12:30, 15:30 - 21:30","zo":"08:00 - 12:00, 17:00 - 21:00"}}},{"type":"Feature","geometry":{"type":"Point","coordinates":[11.306877,45.186001]},"properties":{"type":"pakketpunt","locatieNaam":"Ufficio Postale CASETTE","straatNaam":"VIA LUCIANO MANARA 24-A","straatNr":"","vervoerder":"DHL","puntType":"postOffice","bezettingsgraad":50,"latitude":45.186001,"longitude":11.306877,"canPickup":true,"canDropoff":true,"openingstijden":{"ma":"08:20 - 13:45","di":"08:20 - 13:45","wo":"08:20 - 13:45","do":"08:20 - 13:45","vr":"08:20 - 13:45","za":"08:20 - 12:45","zo":"gesloten"}}},{"type":"Feature","geometry":{"type":"Point","coordinates":[11.303499,45.187606]},"properties":{"type":"pakketpunt","locatieNaam":"TABACCHERIA N. 25","straatNaam":"VIA GARBO 3","straatNr":"","vervoerder":"DHL","puntType":"parcelShop","bezettingsgraad":50,"latitude":45.187606,"longitude":11.303499,"canPickup":true,"canDropoff":true,"openingstijden":{"ma":"07:00 - 21:30","di":"07:00 - 21:30","wo":"07:00 - 21:30","do":"07:00 - 21:30","vr":"07:00 - 21:30","za":"07:00 - 21:30","zo":"07:00 - 21:30"}}},{"type":"Feature","geometry":{"type":"Point","coordinates":[11.309444,45.190425]},"properties":{"type":"pakketpunt","locatieNaam":"SALIERI VIAGGI LEGNAGO","straatNaam":"Dei Caduti, 44","straatNr":"","vervoerder":"DHL","puntType":"parcelShop","bezettingsgraad":50,"latitude":45.190425,"longitude":11.309444,"canPickup":false,"canDropoff":true,"openingstijden":{"ma":"09:00 - 19:30","di":"09:00 - 19:30","wo":"09:00 - 19:30","do":"09:00 - 19:30","vr":"09:00 - 19:30","za":"09:00 - 19:30","zo":"gesloten"}}},{"type":"Feature","geometry":{"type":"Point","coordinates":[11.311834,45.191735]},"properties":{"type":"pakketpunt","locatieNaam":"TABACCHERIA N. 3","straatNaam":"VIA PIER DOMENICO FRATTINI 32","straatNr":"","vervoerder":"DHL","puntType":"parcelShop","bezettingsgraad":50,"latitude":45.191735,"longitude":11.311834,"canPickup":true,"canDropoff":true,"openingstijden":{"ma":"07:00 - 13:00, 15:00 - 19:30","di":"07:00 - 13:00, 15:00 - 19:30","wo":"07:00 - 13:00, 15:00 - 19:30","do":"07:00 - 13:00, 15:00 - 19:30","vr":"07:00 - 13:00, 15:00 - 19:30","za":"07:00 - 13:00, 15:30 - 19:30","zo":"gesloten"}}},{"type":"Feature","geometry":{"type":"Point","coordinates":[11.289193,45.199312]},"properties":{"type":"pakketpunt","locatieNaam":"Ufficio Postale TERRANEGRA","straatNaam":"VIA BROLO 5","straatNr":"","vervoerder":"DHL","puntType":"postOffice","bezettingsgraad":50,"latitude":45.199312,"longitude":11.289193,"canPickup":true,"canDropoff":true,"openingstijden":{"ma":"08:20 - 13:45","di":"08:20 - 13:45","wo":"08:20 - 13:45","do":"08:20 - 13:45","vr":"08:20 - 13:45","za":"08:20 - 12:45","zo":"gesloten"}}},{"type":"Feature","geometry":{"type":"Point","coordinates":[11.291016,45.19937]},"properties":{"type":"pakketpunt","locatieNaam":"TABACCHERIA N. 32","straatNaam":"VIA TERRANEGRA 43","straatNr":"","vervoerder":"DHL","puntType":"parcelShop","bezettingsgraad":50,"latitude":45.19937,"longitude":11.291016,"canPickup":true,"canDropoff":true,"openingstijden":{"ma":"07:30 - 12:30, 16:00 - 19:00","di":"07:30 - 12:30, 16:00 - 19:00","wo":"07:30 - 12:30, 16:00 - 19:00","do":"07:30 - 12:30, 16:00 - 19:00","vr":"07:30 - 12:30, 16:00 - 19:00","za":"07:30 - 12:30","zo":"gesloten"}}},{"type":"Feature","geometry":{"type":"Point","coordinates":[11.307712,45.19496]},"properties":{"type":"pakketpunt","locatieNaam":"Ufficio Postale LEGNAGO","straatNaam":"PIAZZETTA CINQUE MARTIRI 1","straatNr":"","vervoerder":"DHL","puntType":"postOffice","bezettingsgraad":50,"latitude":45.19496,"longitude":11.307712,"canPickup":true,"canDropoff":true,"openingstijden":{"ma":"08:20 - 19:05","di":"08:20 - 19:05","wo":"08:20 - 19:05","do":"08:20 - 19:05","vr":"08:20 - 19:05","za":"08:20 - 12:35","zo":"gesloten"}}},{"type":"Feature","geometry":{"type":"Point","coordinates":[11.308991,45.192047]},"properties":{"type":"pakketpunt","locatieNaam":"TABACCHERIA N. 24","straatNaam":"VIA GIACOMO MATTEOTTI 42","straatNr":"","vervoerder":"DHL","puntType":"parcelShop","bezettingsgraad":50,"latitude":45.192047,"longitude":11.308991,"canPickup":true,"canDropoff":true,"openingstijden":{"ma":"06:30 - 12:30, 15:30 - 19:30","di":"06:30 - 12:30, 15:30 - 19:30","wo":"06:30 - 12:30, 15:30 - 19:30","do":"06:30 - 12:30, 15:30 - 19:30","vr":"06:30 - 12:30, 15:30 - 19:30","za":"06:30 - 12:30, 16:00 - 19:30","zo":"gesloten"}}},{"type":"Feature","geometry":{"type":"Point","coordinates":[11.30974,45.192745]},"properties":{"type":"pakketpunt","locatieNaam":"TABACCHERIA N. 5","straatNaam":"VIA ROMA 22","straatNr":"","vervoerder":"DHL","puntType":"parcelShop","bezettingsgraad":50,"latitude":45.192745,"longitude":11.30974,"canPickup":true,"canDropoff":true,"openingstijden":{"ma":"08:00 - 13:00","di":"08:00 - 13:00, 15:00 - 19:45","wo":"08:00 - 13:00, 15:00 - 19:45","do":"08:00 - 13:00, 15:00 - 19:45","vr":"08:00 - 13:00, 15:00 - 19:45","za":"08:00 - 13:00, 15:00 - 19:45","zo":"08:00 - 13:00, 15:00 - 19:00"}}},{"type":"Feature","geometry":{"type":"Point","coordinates":[11.311778,45.192731]},"properties":{"type":"pakketpunt","locatieNaam":"TABACCHERIA N. 6","straatNaam":"PIAZZA DELLA LIBERTA 21","straatNr":"","vervoerder":"DHL","puntType":"parcelShop","bezettingsgraad":50,"latitude":45.192731,"longitude":11.311778,"canPickup":true,"canDropoff":true,"openingstijden":{"ma":"06:50 - 13:00, 15:00 - 20:00","di":"06:50 - 13:00, 15:00 - 20:00","wo":"06:50 - 13:00, 15:00 - 20:00","do":"06:50 - 13:00, 15:00 - 20:00","vr":"06:50 - 13:00, 15:00 - 20:00","za":"06:50 - 13:00, 15:00 - 20:00","zo":"gesloten"}}},{"type":"Feature","geometry":{"type":"Point","coordinates":[11.315498,45.19685]},"properties":{"type":"pakketpunt","locatieNaam":"Ufficio Postale LEGNAGO 1","straatNaam":"VIA PIO X 10","straatNr":"","vervoerder":"DHL","puntType":"postOffice","bezettingsgraad":50,"latitude":45.19685,"longitude":11.315498,"canPickup":true,"canDropoff":true,"openingstijden":{"ma":"08:20 - 13:35","di":"08:20 - 13:35","wo":"08:20 - 13:35","do":"08:20 - 13:35","vr":"08:20 - 13:35","za":"08:20 - 12:35","zo":"gesloten"}}},{"type":"Feature","geometry":{"type":"Point","coordinates":[11.316234,45.195597]},"properties":{"type":"pakketpunt","locatieNaam":"TABACCHERIA N. 1","straatNaam":"VIA OSPITAL VECCHIO 34","straatNr":"","vervoerder":"DHL","puntType":"parcelShop","bezettingsgraad":50,"latitude":45.195597,"longitude":11.316234,"canPickup":true,"canDropoff":true,"openingstijden":{"ma":"06:00 - 20:00","di":"06:00 - 20:00","wo":"06:00 - 20:00","do":"06:00 - 20:00","vr":"06:00 - 20:00","za":"06:00 - 20:00","zo":"06:00 - 20:00"}}},{"type":"Feature","geometry":{"type":"Point","coordinates":[11.323546,45.220281]},"properties":{"type":"pakketpunt","locatieNaam":"DEFRO ITALIA","straatNaam":"Via Padana Inferiore Est 98","straatNr":"","vervoerder":"DHL","puntType":"parcelShop","bezettingsgraad":50,"latitude":45.220281,"longitude":11.323546,"canPickup":false,"canDropoff":true,"openingstijden":{"ma":"08:00 - 19:30","di":"08:00 - 19:30","wo":"08:00 - 19:30","do":"08:00 - 19:30","vr":"08:00 - 19:30","za":"08:00 - 19:30","zo":"gesloten"}}},{"type":"Feature","geometry":{"type":"Point","coordinates":[11.319296,45.197158]},"properties":{"type":"pakketpunt","locatieNaam":"TABACCHERIA N. 35","straatNaam":"VIA ANGELO SCARSELLINI 46","straatNr":"","vervoerder":"DHL","puntType":"parcelShop","bezettingsgraad":50,"latitude":45.197158,"longitude":11.319296,"canPickup":true,"canDropoff":true,"openingstijden":{"ma":"06:20 - 13:00, 15:00 - 19:45","di":"06:20 - 13:00, 15:00 - 19:45","wo":"06:20 - 13:00, 15:00 - 19:45","do":"06:20 - 13:00, 15:00 - 19:45","vr":"06:20 - 13:00, 15:00 - 19:45","za":"06:20 - 13:00, 15:00 - 19:45","zo":"gesloten"}}},{"type":"Feature","geometry":{"type":"Point","coordinates":[11.319322,45.197211]},"properties":{"type":"pakketpunt","locatieNaam":"TABACCHI EDICOLA COSTANTINI","straatNaam":"Via Angelo Scarsellini, 46","straatNr":"","vervoerder":"DHL","puntType":"parcelShop","bezettingsgraad":50,"latitude":45.197211,"longitude":11.319322,"canPickup":false,"canDropoff":true,"openingstijden":{"ma":"06:30 - 20:00","di":"06:30 - 20:00","wo":"06:30 - 20:00","do":"06:30 - 20:00","vr":"06:30 - 20:00","za":"06:30 - 20:00","zo":"gesloten"}}},{"type":"Feature","geometry":{"type":"Point","coordinates":[11.25306,45.18537]},"properties":{"type":"pakketpunt","locatieNaam":"Amazon Locker - filadora","straatNaam":"MaxFactory Fashion and Home Legnago","straatNr":"","vervoerder":"Amazon","puntType":"locker","bezettingsgraad":50,"latitude":45.18537,"longitude":11.25306,"canPickup":true,"canDropoff":false,"openingstijden":null}},{"type":"Feature","geometry":{"type":"Point","coordinates":[11.265842,45.1849]},"properties":{"type":"pakketpunt","locatieNaam":"Amazon Locker - erma","straatNaam":"Ni Hao Market Legnago","straatNr":"","vervoerder":"Amazon","puntType":"locker","bezettingsgraad":50,"latitude":45.1849,"longitude":11.265842,"canPickup":true,"canDropoff":false,"openingstijden":null}},{"type":"Feature","geometry":{"type":"Point","coordinates":[11.255228,45.183429]},"properties":{"type":"pakketpunt","locatieNaam":"Amazon Locker - fannuccia","straatNaam":"Palestra Centro DR Legnano  - PV 1189","straatNr":"","vervoerder":"Amazon","puntType":"locker","bezettingsgraad":50,"latitude":45.183429,"longitude":11.255228,"canPickup":true,"canDropoff":false,"openingstijden":null}},{"type":"Feature","geometry":{"type":"Point","coordinates":[11.298751,45.19312]},"properties":{"type":"pakketpunt","locatieNaam":"Amazon Locker - arsilio","straatNaam":"ENI Station pv.3768","straatNr":"","vervoerder":"Amazon","puntType":"locker","bezettingsgraad":50,"latitude":45.19312,"longitude":11.298751,"canPickup":true,"canDropoff":false,"openingstijden":null}},{"type":"Feature","geometry":{"type":"Point","coordinates":[11.314153,45.184092]},"properties":{"type":"pakketpunt","locatieNaam":"Amazon Locker - mariana","straatNaam":"Eni Station pv.3801","straatNr":"","vervoerder":"Amazon","puntType":"locker","bezettingsgraad":50,"latitude":45.184092,"longitude":11.314153,"canPickup":true,"canDropoff":false,"openingstijden":null}},{"type":"Feature","geometry":{"type":"Point","coordinates":[11.312367,45.188365]},"properties":{"type":"pakketpunt","locatieNaam":"Amazon Counter (fermopoint)","straatNaam":"Mail Boxes Etc. 2593","straatNr":"","vervoerder":"Amazon","puntType":"helix","bezettingsgraad":50,"latitude":45.188365,"longitude":11.312367,"canPickup":true,"canDropoff":false,"openingstijden":null}},{"type":"Feature","geometry":{"type":"Point","coordinates":[11.2821,45.1828]},"properties":{"type":"pakketpunt","locatieNaam":"Ufficio Postale SAN PIETRO DI LEGNAGO","straatNaam":"VIA SAN SALVARO 3","straatNr":"","vervoerder":"Amazon","puntType":"3p","bezettingsgraad":50,"latitude":45.1828,"longitude":11.2821,"canPickup":true,"canDropoff":false,"openingstijden":null}},{"type":"Feature","geometry":{"type":"Point","coordinates":[11.2766,45.1852]},"properties":{"type":"pakketpunt","locatieNaam":"PuntoPoste TABACCHERIA N. 10","straatNaam":"VIA CORRUBIO 2","straatNr":"","vervoerder":"Amazon","puntType":"3p","bezettingsgraad":50,"latitude":45.1852,"longitude":11.2766,"canPickup":true,"canDropoff":false,"openingstijden":null}},{"type":"Feature","geometry":{"type":"Point","coordinates":[11.279,45.1859]},"properties":{"type":"pakketpunt","locatieNaam":"PuntoPoste TABACCHERIA N. 9","straatNaam":"VIA VERONA 24","straatNr":"","vervoerder":"Amazon","puntType":"3p","bezettingsgraad":50,"latitude":45.1859,"longitude":11.279,"canPickup":true,"canDropoff":false,"openingstijden":null}},{"type":"Feature","geometry":{"type":"Point","coordinates":[11.279053,45.185904]},"properties":{"type":"pakketpunt","locatieNaam":"Amazon Counter - CENTIN ELISABETTA","straatNaam":"VIA VERONA 16","straatNr":"","vervoerder":"Amazon","puntType":"helix","bezettingsgraad":50,"latitude":45.185904,"longitude":11.279053,"canPickup":true,"canDropoff":false,"openingstijden":null}},{"type":"Feature","geometry":{"type":"Point","coordinates":[11.3015,45.1668]},"properties":{"type":"pakketpunt","locatieNaam":"Ufficio Postale VANGADIZZA","straatNaam":"VIA GIOACCHINO ROSSINI 93","straatNr":"","vervoerder":"Amazon","puntType":"3p","bezettingsgraad":50,"latitude":45.1668,"longitude":11.3015,"canPickup":true,"canDropoff":false,"openingstijden":null}},{"type":"Feature","geometry":{"type":"Point","coordinates":[11.296873,45.190745]},"properties":{"type":"pakketpunt","locatieNaam":"Amazon Counter (fermopoint)","straatNaam":"Telefonia Galassia","straatNr":"","vervoerder":"Amazon","puntType":"helix","bezettingsgraad":50,"latitude":45.190745,"longitude":11.296873,"canPickup":true,"canDropoff":false,"openingstijden":null}},{"type":"Feature","geometry":{"type":"Point","coordinates":[11.309462,45.192716]},"properties":{"type":"pakketpunt","locatieNaam":"Amazon Counter - PRIMAEDICOLA","straatNaam":"AMBROSO MATTEO","straatNr":"","vervoerder":"Amazon","puntType":"helix","bezettingsgraad":50,"latitude":45.192716,"longitude":11.309462,"canPickup":true,"canDropoff":false,"openingstijden":null}},{"type":"Feature","geometry":{"type":"Point","coordinates":[11.2891,45.1993]},"properties":{"type":"pakketpunt","locatieNaam":"Ufficio Postale TERRANEGRA","straatNaam":"VIA BROLO 5","straatNr":"","vervoerder":"Amazon","puntType":"3p","bezettingsgraad":50,"latitude":45.1993,"longitude":11.2891,"canPickup":true,"canDropoff":false,"openingstijden":null}},{"type":"Feature","geometry":{"type":"Point","coordinates":[11.291,45.1993]},"properties":{"type":"pakketpunt","locatieNaam":"PuntoPoste TABACCHERIA N. 32","straatNaam":"VIA TERRANEGRA 43","straatNr":"","vervoerder":"Amazon","puntType":"3p","bezettingsgraad":50,"latitude":45.1993,"longitude":11.291,"canPickup":true,"canDropoff":false,"openingstijden":null}},{"type":"Feature","geometry":{"type":"Point","coordinates":[11.3107102,45.1930813]},"properties":{"type":"pakketpunt","locatieNaam":"Amazon Counter","straatNaam":"AllTech (fermopoint)","straatNr":"","vervoerder":"Amazon","puntType":"helix","bezettingsgraad":50,"latitude":45.1930813,"longitude":11.3107102,"canPickup":true,"canDropoff":false,"openingstijden":null}},{"type":"Feature","geometry":{"type":"Point","coordinates":[11.3117,45.1927]},"properties":{"type":"pakketpunt","locatieNaam":"PuntoPoste TABACCHERIA N. 6","straatNaam":"PIAZZA DELLA LIBERTA' 21","straatNr":"","vervoerder":"Amazon","puntType":"3p","bezettingsgraad":50,"latitude":45.1927,"longitude":11.3117,"canPickup":true,"canDropoff":false,"openingstijden":null}},{"type":"Feature","geometry":{"type":"Point","coordinates":[11.3182,45.1695]},"properties":{"type":"pakketpunt","locatieNaam":"PuntoPoste TABACCHERIA N. 12","straatNaam":"VIA ROVIGO 123","straatNr":"","vervoerder":"Amazon","puntType":"3p","bezettingsgraad":50,"latitude":45.1695,"longitude":11.3182,"canPickup":true,"canDropoff":false,"openingstijden":null}},{"type":"Feature","geometry":{"type":"Point","coordinates":[11.3118,45.1917]},"properties":{"type":"pakketpunt","locatieNaam":"PuntoPoste TABACCHERIA N. 3","straatNaam":"VIA PIER DOMENICO FRATTINI 32","straatNr":"","vervoerder":"Amazon","puntType":"3p","bezettingsgraad":50,"latitude":45.1917,"longitude":11.3118,"canPickup":true,"canDropoff":false,"openingstijden":null}},{"type":"Feature","geometry":{"type":"Point","coordinates":[11.307749,45.186009]},"properties":{"type":"pakketpunt","locatieNaam":"Amazon Counter - TABACCHERIA N 34 DE TOGNI","straatNaam":"VIA CASETTE 38","straatNr":"","vervoerder":"Amazon","puntType":"helix","bezettingsgraad":50,"latitude":45.186009,"longitude":11.307749,"canPickup":true,"canDropoff":false,"openingstijden":null}},{"type":"Feature","geometry":{"type":"Point","coordinates":[11.3089,45.192]},"properties":{"type":"pakketpunt","locatieNaam":"PuntoPoste TABACCHERIA N. 24","straatNaam":"VIA GIACOMO MATTEOTTI 42","straatNr":"","vervoerder":"Amazon","puntType":"3p","bezettingsgraad":50,"latitude":45.192,"longitude":11.3089,"canPickup":true,"canDropoff":false,"openingstijden":null}},{"type":"Feature","geometry":{"type":"Point","coordinates":[11.3192,45.1971]},"properties":{"type":"pakketpunt","locatieNaam":"PuntoPoste TABACCHERIA N. 35","straatNaam":"VIA ANGELO SCARSELLINI 46","straatNr":"","vervoerder":"Amazon","puntType":"3p","bezettingsgraad":50,"latitude":45.1971,"longitude":11.3192,"canPickup":true,"canDropoff":false,"openingstijden":null}},{"type":"Feature","geometry":{"type":"Point","coordinates":[11.319373,45.197183]},"properties":{"type":"pakketpunt","locatieNaam":"Amazon Counter - PRIMAEDICOLA","straatNaam":"COSTANTINI PIERGIOVANNI","straatNr":"","vervoerder":"Amazon","puntType":"helix","bezettingsgraad":50,"latitude":45.197183,"longitude":11.319373,"canPickup":true,"canDropoff":false,"openingstijden":null}},{"type":"Feature","geometry":{"type":"Point","coordinates":[11.275555595490658,45.184928616844694]},"properties":{"type":"pakketpunt","locatieNaam":"FedEx OnSite","straatNaam":"via verona , 59a","straatNr":"","vervoerder":"FedEx","puntType":"servicepunt","bezettingsgraad":50,"latitude":45.184928616844694,"longitude":11.275555595490658,"canPickup":true,"canDropoff":true,"openingstijden":{"ma":"15:30 - 19:30","di":"09:00 - 12:30, 15:30 - 19:30","wo":"09:00 - 12:30, 15:30 - 19:30","do":"09:00 - 12:30, 15:30 - 19:30","vr":"09:00 - 12:30, 15:30 - 19:30","za":"gesloten","zo":"gesloten"}}},{"type":"Feature","geometry":{"type":"Point","coordinates":[11.27949986162796,45.18581449631398]},"properties":{"type":"pakketpunt","locatieNaam":"FedEx OnSite","straatNaam":"Via Verona, 5","straatNr":"","vervoerder":"FedEx","puntType":"servicepunt","bezettingsgraad":50,"latitude":45.18581449631398,"longitude":11.27949986162796,"canPickup":true,"canDropoff":true,"openingstijden":{"ma":"08:00 - 22:00","di":"08:00 - 22:00","wo":"08:00 - 22:00","do":"08:00 - 22:00","vr":"08:00 - 22:00","za":"08:00 - 22:00","zo":"gesloten"}}},{"type":"Feature","geometry":{"type":"Point","coordinates":[11.31156,45.19034]},"properties":{"type":"pakketpunt","locatieNaam":"FedEx OnSite","straatNaam":"VIALE DEI CADUTI 80","straatNr":"","vervoerder":"FedEx","puntType":"servicepunt","bezettingsgraad":50,"latitude":45.19034,"longitude":11.31156,"canPickup":true,"canDropoff":true,"openingstijden":{"ma":"08:30 - 12:30, 15:00 - 19:00","di":"08:30 - 12:30, 15:00 - 19:00","wo":"08:30 - 12:30, 15:00 - 19:00","do":"08:30 - 12:30, 15:00 - 19:00","vr":"08:30 - 12:30, 15:00 - 19:00","za":"gesloten","zo":"gesloten"}}},{"type":"Feature","geometry":{"type":"Point","coordinates":[11.308913,45.19212]},"properties":{"type":"pakketpunt","locatieNaam":"FedEx OnSite","straatNaam":"Via Giacomo Matteotti, 44","straatNr":"","vervoerder":"FedEx","puntType":"servicepunt","bezettingsgraad":50,"latitude":45.19212,"longitude":11.308913,"canPickup":true,"canDropoff":true,"openingstijden":{"ma":"06:30 - 12:30, 15:30 - 19:30","di":"06:30 - 12:30, 15:30 - 19:30","wo":"06:30 - 12:30, 15:30 - 19:30","do":"06:30 - 12:30, 15:30 - 19:30","vr":"06:30 - 12:30, 15:30 - 19:30","za":"06:30 - 12:30, 16:00 - 19:30","zo":"07:30 - 12:30"}}},{"type":"Feature","geometry":{"type":"Point","coordinates":[11.320141,45.218362]},"properties":{"type":"pakketpunt","locatieNaam":"FedEx OnSite","straatNaam":"Via Padana Inferiore Est, 98","straatNr":"","vervoerder":"FedEx","puntType":"servicepunt","bezettingsgraad":50,"latitude":45.218362,"longitude":11.320141,"canPickup":true,"canDropoff":true,"openingstijden":{"ma":"08:00 - 13:00, 14:00 - 19:00","di":"08:00 - 13:00, 14:00 - 19:00","wo":"08:00 - 13:00, 14:00 - 19:00","do":"08:00 - 13:00, 14:00 - 19:00","vr":"08:00 - 13:00, 14:00 - 19:00","za":"08:00 - 13:00, 14:00 - 19:00","zo":"09:00 - 13:00"}}},{"type":"Feature","geometry":{"type":"Polygon","coordinates":[[[11.2435079,45.0913264],[11.2432598,45.0917045],[11.2443464,45.0930666],[11.2463825,45.0952185],[11.2481229,45.0973041],[11.2524193,45.1021703],[11.2530341,45.1026477],[11.2535372,45.1032548],[11.2536682,45.1035454],[11.2554192,45.1056037],[11.2554978,45.1058227],[11.2560035,45.1061998],[11.2701687,45.1150056],[11.2715933,45.1133031],[11.271832,45.1127527],[11.2724728,45.1117693],[11.2726899,45.1116282],[11.2735777,45.1179853],[11.2755199,45.1303373],[11.271317,45.1326578],[11.2690468,45.1336572],[11.2668952,45.134438],[11.2656242,45.1347783],[11.2615191,45.1351658],[11.2605502,45.135428],[11.2603141,45.1356487],[11.2595444,45.1383779],[11.2581865,45.1400622],[11.2649211,45.1416754],[11.2619173,45.1479511],[11.2612606,45.149095],[11.2610009,45.1497519],[11.2676419,45.1529758],[11.2689212,45.1535222],[11.2687364,45.1537593],[11.2666574,45.1579411],[11.2650757,45.1590624],[11.2644664,45.1588129],[11.264258,45.1589701],[11.2634401,45.1592788],[11.2632529,45.1594941],[11.2632842,45.1600426],[11.26311,45.1602621],[11.2629561,45.1610347],[11.2631773,45.1613589],[11.2631227,45.1624794],[11.2635229,45.1629363],[11.2638925,45.1644368],[11.2642585,45.1650821],[11.2642158,45.165209],[11.263675,45.1656923],[11.2633371,45.1662346],[11.2627609,45.1664665],[11.2625005,45.1668407],[11.261956,45.1671081],[11.2615283,45.1677152],[11.2613632,45.1678039],[11.2608738,45.1678586],[11.2604666,45.1682178],[11.2600421,45.1689058],[11.2601577,45.1698982],[11.2599646,45.1703656],[11.2583665,45.1709418],[11.2582297,45.171102],[11.2581691,45.1719043],[11.2578806,45.1722521],[11.2568962,45.1722581],[11.2565127,45.1727382],[11.256043,45.1729275],[11.2557297,45.1732938],[11.2556268,45.1735884],[11.2556903,45.1739472],[11.2555945,45.1746647],[11.2553802,45.175038],[11.2552692,45.1755308],[11.2555585,45.1761281],[11.2555917,45.1767261],[11.2555092,45.1768943],[11.2554867,45.1773718],[11.2559117,45.178061],[11.2556863,45.1781555],[11.2552779,45.1780465],[11.2548843,45.1783108],[11.2548433,45.1784827],[11.2551476,45.1788547],[11.255087,45.1790134],[11.2548915,45.1791793],[11.254831,45.1793786],[11.2550541,45.1798332],[11.2559128,45.1807479],[11.2560048,45.1810252],[11.2559422,45.1812919],[11.2556779,45.1814862],[11.2552487,45.1820213],[11.2550002,45.1821747],[11.2537369,45.1824157],[11.2529426,45.1827689],[11.252186,45.1828693],[11.2514156,45.1831411],[11.2513548,45.1833358],[11.2514053,45.1837669],[11.2518259,45.1841052],[11.2519952,45.1848084],[11.2525409,45.1859769],[11.2523868,45.1861419],[11.2519047,45.1861829],[11.2513132,45.1883325],[11.2506903,45.1882727],[11.2500481,45.1885329],[11.2499422,45.1887106],[11.2501626,45.1890528],[11.2501156,45.1892337],[11.2495599,45.1891457],[11.2491777,45.1893377],[11.2490751,45.1895603],[11.2487191,45.1898958],[11.248683,45.1913638],[11.2482022,45.1918818],[11.2477266,45.1920487],[11.2473458,45.1925917],[11.2468039,45.1927825],[11.2468267,45.1929981],[11.247094,45.1935239],[11.2467631,45.193607],[11.2465117,45.1937694],[11.2463975,45.1939787],[11.2464393,45.1941939],[11.2476449,45.1949038],[11.2477595,45.1953471],[11.2480457,45.1956656],[11.2486348,45.196077],[11.2487379,45.1965116],[11.2487199,45.196782],[11.248572,45.1971089],[11.2481121,45.197271],[11.2479789,45.1974447],[11.2480443,45.198339],[11.2478949,45.198747],[11.2478638,45.1994498],[11.2479872,45.1997174],[11.2482801,45.1999186],[11.2483225,45.2000663],[11.248059,45.2008501],[11.2485302,45.2012189],[11.248622,45.2015277],[11.2484235,45.2022652],[11.2479531,45.2032151],[11.2480379,45.2035465],[11.248311,45.2038967],[11.2482776,45.2044599],[11.2480471,45.204793],[11.2476563,45.2049717],[11.2475479,45.2051314],[11.2475185,45.205312],[11.2476246,45.205742],[11.2483549,45.2059797],[11.2489843,45.2064833],[11.2493102,45.2066041],[11.2513599,45.2062895],[11.2519165,45.2062852],[11.2518967,45.2053882],[11.2516128,45.2048987],[11.2546591,45.2043984],[11.2546803,45.2045411],[11.2561782,45.2046325],[11.2562127,45.2047199],[11.2594825,45.2047542],[11.259397,45.2061313],[11.2614673,45.2061343],[11.2624885,45.205982],[11.2628871,45.2058311],[11.2643123,45.2056598],[11.2643894,45.2060324],[11.2656175,45.205997],[11.2655551,45.2044248],[11.2684184,45.204412],[11.2686315,45.2046828],[11.2710513,45.2040845],[11.2752817,45.204853],[11.2783144,45.2056423],[11.27993,45.2058846],[11.2817379,45.206276],[11.2818945,45.2058948],[11.2878004,45.2067083],[11.287923,45.2064313],[11.288043,45.2064064],[11.2948239,45.2084945],[11.2948509,45.2091651],[11.2950107,45.2100422],[11.2955691,45.2111533],[11.2963724,45.2117752],[11.2971308,45.2121149],[11.2993609,45.2126546],[11.3007348,45.2128038],[11.3012761,45.2129932],[11.302549,45.2131208],[11.303092,45.2133457],[11.3040658,45.2139156],[11.3043468,45.2142636],[11.3052001,45.2143289],[11.3051658,45.2147187],[11.306371,45.2148107],[11.3062626,45.2154394],[11.3089975,45.2150068],[11.3100053,45.216413],[11.3118372,45.2183922],[11.3107276,45.2190041],[11.3103575,45.2189291],[11.3090178,45.2196282],[11.309759,45.2206273],[11.310057,45.2205741],[11.3115856,45.2220641],[11.3129649,45.2215174],[11.3143997,45.221111],[11.3151444,45.2217797],[11.3138194,45.2224315],[11.3140157,45.2227459],[11.3145324,45.2227354],[11.3148201,45.2228357],[11.315409,45.2233661],[11.316975,45.225775],[11.3190501,45.225108],[11.31951,45.2257471],[11.320356,45.2264491],[11.3209307,45.2267227],[11.3197109,45.2271831],[11.3202632,45.2282668],[11.3202486,45.2291395],[11.3220053,45.2294498],[11.3222016,45.2291463],[11.3222397,45.2288808],[11.3234497,45.2288638],[11.3241334,45.2289881],[11.3258977,45.2291146],[11.3264562,45.2292298],[11.3267941,45.2293918],[11.3273621,45.2294761],[11.3284639,45.2293315],[11.3290476,45.2294001],[11.3307665,45.2293448],[11.3307147,45.2290544],[11.3294311,45.2279388],[11.3292297,45.2276315],[11.3327252,45.2279507],[11.3335018,45.2278977],[11.3350377,45.228134],[11.3367167,45.2282707],[11.3371988,45.2284765],[11.3383933,45.2286008],[11.3400271,45.2284037],[11.3404921,45.2287066],[11.3414414,45.2287541],[11.3442813,45.2293504],[11.3450443,45.2293186],[11.3462766,45.2297012],[11.3469449,45.2296583],[11.3483994,45.2301456],[11.34902,45.2299435],[11.3497551,45.2300157],[11.3501838,45.2299122],[11.3502423,45.2298309],[11.3502127,45.2293652],[11.3512663,45.2263209],[11.3514282,45.2255278],[11.3506529,45.2250698],[11.3505332,45.2247805],[11.3502464,45.2247864],[11.3491598,45.2241113],[11.3481124,45.2230803],[11.3476769,45.2229624],[11.3470634,45.2220111],[11.3465431,45.221578],[11.3464826,45.2214144],[11.3467231,45.2211558],[11.3470908,45.2209326],[11.3470502,45.2208193],[11.3460469,45.2204215],[11.3445787,45.2196273],[11.3437728,45.2179191],[11.34372,45.2170705],[11.3432385,45.2162687],[11.3432122,45.2160664],[11.3462131,45.2148634],[11.3466027,45.2147412],[11.3471785,45.21478],[11.3467367,45.2145102],[11.3461347,45.2133939],[11.344739,45.2121797],[11.3431794,45.2113367],[11.3418926,45.2110207],[11.3412864,45.210678],[11.340469,45.2099972],[11.3388807,45.2080134],[11.3392151,45.2078543],[11.3395245,45.2079621],[11.3417639,45.2071164],[11.3421573,45.207083],[11.3432689,45.2065283],[11.3435015,45.2065109],[11.3436675,45.2066216],[11.3444846,45.2064273],[11.3455886,45.2066582],[11.3466113,45.2066626],[11.3474498,45.2061127],[11.3487284,45.2057948],[11.3489831,45.2054471],[11.349211,45.2053156],[11.3493579,45.2053248],[11.3496453,45.2062938],[11.3500334,45.2069693],[11.3500665,45.2073133],[11.3521453,45.2068657],[11.3543462,45.2071628],[11.3547758,45.2071413],[11.3554085,45.2068238],[11.3566905,45.2057194],[11.3571968,45.2053793],[11.3579908,45.2050584],[11.3582481,45.2047742],[11.3582714,45.2044693],[11.3581181,45.2042315],[11.3582114,45.2017186],[11.3584991,45.2004317],[11.3587185,45.2000974],[11.3586107,45.1992246],[11.3584968,45.1991016],[11.3585608,45.1983245],[11.3588925,45.1986231],[11.359062,45.1986329],[11.3604171,45.1977949],[11.3604127,45.1976887],[11.3599949,45.1975779],[11.3600767,45.1972841],[11.3602671,45.1973465],[11.3603582,45.1972782],[11.3603091,45.1970004],[11.3606542,45.196263],[11.3612806,45.1964226],[11.3620118,45.1963942],[11.3622851,45.1961894],[11.3624259,45.1959608],[11.3623829,45.1958289],[11.3612576,45.195414],[11.3611991,45.1953621],[11.3612621,45.1950686],[11.3610844,45.1948598],[11.3616879,45.1940108],[11.3621718,45.1939078],[11.3628672,45.19392],[11.3634159,45.1931119],[11.3642994,45.1931335],[11.3644385,45.1928651],[11.3651296,45.1923196],[11.3656881,45.1912988],[11.3647248,45.190708],[11.3647896,45.1895515],[11.3649303,45.1888713],[11.3653305,45.1881061],[11.3666493,45.1882116],[11.3668336,45.1881281],[11.3652617,45.1873507],[11.362929,45.1858852],[11.3642892,45.1847284],[11.3642667,45.1846359],[11.3618315,45.1834116],[11.3615113,45.1830822],[11.3594967,45.1816229],[11.3578127,45.1806696],[11.3559116,45.1800211],[11.3549512,45.1798847],[11.3546904,45.1797775],[11.3541153,45.1789078],[11.3540255,45.178447],[11.3532664,45.1774005],[11.3506841,45.1748013],[11.3500114,45.1739212],[11.3491024,45.1730967],[11.3480829,45.1723798],[11.3472978,45.1719732],[11.345158,45.1704128],[11.3465944,45.1696196],[11.3492076,45.1679047],[11.3508425,45.1669483],[11.3500648,45.1662197],[11.3482615,45.1661905],[11.3477573,45.166254],[11.3468921,45.1657539],[11.3459449,45.165999],[11.3447631,45.1664748],[11.3437322,45.1665092],[11.3412259,45.1661999],[11.3404166,45.1662112],[11.3387236,45.1665854],[11.3381896,45.1635649],[11.3379392,45.16289],[11.3375468,45.1621963],[11.3373718,45.1611467],[11.3371113,45.160999],[11.3371058,45.1608641],[11.337254,45.1606],[11.3372175,45.1600967],[11.3369489,45.1594766],[11.3369388,45.1592292],[11.3373783,45.1569114],[11.334316,45.1557993],[11.3323443,45.155206],[11.3318397,45.1551298],[11.3315283,45.1553297],[11.3313801,45.1553237],[11.3305173,45.1549903],[11.3306588,45.1547332],[11.3307651,45.1537167],[11.3311698,45.1534599],[11.3316344,45.153004],[11.3321365,45.1529824],[11.3322521,45.1528784],[11.3323451,45.1524788],[11.3326278,45.1521589],[11.3330261,45.1519145],[11.3332917,45.1511475],[11.3336651,45.1507459],[11.3351844,45.1497826],[11.3353481,45.1497317],[11.3356836,45.1497869],[11.3369928,45.1491687],[11.3364441,45.1476724],[11.3356499,45.1450872],[11.3352914,45.144991],[11.3350912,45.144644],[11.3347824,45.1444028],[11.3344545,45.1438064],[11.3338977,45.1437998],[11.3336304,45.1436027],[11.3336419,45.143454],[11.3340232,45.1431761],[11.3340659,45.1430537],[11.3337632,45.1427269],[11.3335059,45.1416429],[11.3333066,45.1413139],[11.3326958,45.1408403],[11.3310629,45.139925],[11.3302679,45.139626],[11.3298063,45.139559],[11.3278441,45.138768],[11.3264079,45.1383006],[11.3262293,45.1385526],[11.3259276,45.1387689],[11.3249126,45.1393627],[11.3243358,45.1394509],[11.3239236,45.1396025],[11.3232914,45.1399879],[11.3211969,45.1399255],[11.3177713,45.1399855],[11.3174491,45.1400303],[11.3160514,45.1405075],[11.3151076,45.1405362],[11.3146426,45.1407177],[11.3142258,45.1407547],[11.3128946,45.1406053],[11.3124987,45.140108],[11.3119515,45.1399436],[11.3115657,45.1396814],[11.3110537,45.1396377],[11.3099869,45.1398753],[11.3094216,45.1401658],[11.3091621,45.1404321],[11.3090191,45.1409481],[11.3088386,45.1412803],[11.3084917,45.1415889],[11.3081917,45.1415994],[11.3077188,45.141384],[11.3072248,45.1414345],[11.3067644,45.1412952],[11.3066235,45.1412306],[11.3060236,45.1402345],[11.3039225,45.1365413],[11.303619,45.1362279],[11.3020467,45.133145],[11.3016311,45.1326943],[11.3011793,45.1319743],[11.3007383,45.130732],[11.300677,45.1302741],[11.3003072,45.1294985],[11.3002976,45.1292601],[11.3018102,45.1279019],[11.3015724,45.127164],[11.3015751,45.1256922],[11.3013007,45.1236499],[11.3011183,45.1214077],[11.3009378,45.1204752],[11.3009965,45.1202759],[11.3207135,45.0887342],[11.3228574,45.0851159],[11.3257234,45.0806289],[11.3263009,45.0793599],[11.3212851,45.0814487],[11.3204298,45.0819669],[11.3200547,45.0823491],[11.3194379,45.0832896],[11.318235,45.0875904],[11.317405,45.0885296],[11.315144,45.0901854],[11.314236,45.0902541],[11.3108706,45.0895709],[11.3100155,45.0896456],[11.3080421,45.0903752],[11.3071208,45.090571],[11.3059339,45.0912597],[11.305109,45.0918615],[11.3043045,45.0921173],[11.3034355,45.092233],[11.3009259,45.0921005],[11.3005938,45.0921452],[11.2994743,45.0919796],[11.2966626,45.09175],[11.2957419,45.0915055],[11.2950779,45.091161],[11.2943474,45.0909029],[11.2915006,45.0906624],[11.290777,45.0907551],[11.2895862,45.0913671],[11.2890633,45.0913821],[11.2873154,45.0910901],[11.2866169,45.0907882],[11.2862592,45.0905271],[11.2860974,45.0902285],[11.2857856,45.0901285],[11.2850655,45.0901008],[11.2827935,45.0903198],[11.2817253,45.0903353],[11.281341,45.0903843],[11.2806861,45.0906418],[11.2803193,45.0909751],[11.2793582,45.0922454],[11.2788664,45.0926414],[11.2785616,45.0927147],[11.2762937,45.0927372],[11.2745004,45.0924595],[11.2741284,45.0924995],[11.2728649,45.0930063],[11.2726029,45.0929668],[11.2723599,45.0926083],[11.2724138,45.0923892],[11.2728917,45.0917928],[11.2704169,45.090875],[11.2695578,45.0907548],[11.2683691,45.0910518],[11.2668515,45.091218],[11.2665762,45.0914745],[11.2661673,45.0923916],[11.2658229,45.0929222],[11.2654054,45.0931462],[11.2646064,45.0934023],[11.262918,45.0936022],[11.262378,45.0935882],[11.261546,45.093343],[11.2612399,45.0929857],[11.2611539,45.0924061],[11.2609611,45.0921192],[11.2601137,45.0915435],[11.2585999,45.0911766],[11.2514756,45.0902106],[11.250592,45.0907199],[11.2499317,45.0909844],[11.2490085,45.0916134],[11.2470725,45.0926283],[11.2469998,45.0923736],[11.2454728,45.0923586],[11.2435079,45.0913264]]]},"properties":{"type":"boundary","gemeente":"Legnago"}}]}