{"type":"FeatureCollection","metadata":{"gemeente":"Lei","slug":"lei","generated_at":"2026-09-26T14:27:27.683726Z","total_points":1,"providers":["PosteItaliane"],"bounds":[8.91948177,40.306047,8.91948177,40.306047]},"features":[{"type":"Feature","geometry":{"type":"Point","coordinates":[8.91948177,40.306047]},"properties":{"type":"pakketpunt","locatieNaam":"Lei","straatNaam":"Piazza Giovanni Xxiii","straatNr":"3","vervoerder":"PosteItaliane","puntType":"postkantoor","bezettingsgraad":50,"latitude":40.306047,"longitude":8.91948177,"canPickup":true,"canDropoff":true,"openingstijden":{"za":"08:20 - 12:45","zo":"gesloten","ma":"gesloten","di":"08:20 - 13:45","wo":"gesloten","do":"08:20 - 13:45","vr":"gesloten"}}},{"type":"Feature","geometry":{"type":"Polygon","coordinates":[[[8.8674952,40.34135],[8.8676948,40.3416656],[8.8682243,40.3418013],[8.8693311,40.3417665],[8.8706845,40.3420834],[8.871332,40.3421471],[8.8725332,40.3420224],[8.873322,40.3420412],[8.876512,40.3424231],[8.8771591,40.3427211],[8.8777588,40.3431271],[8.8784523,40.3437765],[8.8792875,40.3442188],[8.8800048,40.3447241],[8.8805109,40.3448868],[8.8809225,40.3451305],[8.8821466,40.345411],[8.882618,40.3451412],[8.883784,40.3449802],[8.8879752,40.3452726],[8.8899534,40.3452295],[8.8922728,40.3453308],[8.8953921,40.3459823],[8.897975,40.3431467],[8.8993896,40.3420488],[8.9007094,40.3412752],[8.9020995,40.3406818],[8.9034422,40.3403495],[8.9043611,40.339999],[8.9074126,40.3384248],[8.9103338,40.337355],[8.910746,40.3372653],[8.911583,40.336365],[8.9144119,40.3337184],[8.9156021,40.3327823],[8.9162264,40.3324855],[8.9193353,40.3316318],[8.9211485,40.3313898],[8.9215611,40.3309306],[8.9216909,40.3305884],[8.9218332,40.3297416],[8.9225994,40.3287961],[8.9232839,40.3273191],[8.9241798,40.3261124],[8.9247344,40.3249236],[8.9253593,40.323951],[8.9263728,40.3228796],[8.9268326,40.3222132],[8.9284472,40.3202862],[8.9297903,40.3190167],[8.932052,40.3171982],[8.9330771,40.3160186],[8.9341136,40.3151994],[8.9344556,40.3144968],[8.9347973,40.3140736],[8.9355039,40.3135785],[8.9356811,40.3128939],[8.9356231,40.3119659],[8.9347788,40.3087852],[8.9347562,40.3078212],[8.9351109,40.3061456],[8.9351828,40.3048033],[8.9353245,40.3042178],[8.9359493,40.3030739],[8.9369739,40.3021556],[8.9373154,40.3019215],[8.9381627,40.3017688],[8.9386338,40.3013636],[8.9390225,40.3008413],[8.9398585,40.3002201],[8.9410357,40.2996441],[8.9420374,40.2978158],[8.9423561,40.2967168],[8.9427096,40.2960052],[8.9428046,40.2950503],[8.9434291,40.2939154],[8.9447603,40.291862],[8.946397,40.290196],[8.9474801,40.2892505],[8.9500233,40.2865129],[8.9504124,40.2852878],[8.9520247,40.2823469],[8.9520251,40.2818829],[8.9526505,40.2811534],[8.9532395,40.2800185],[8.9542528,40.2775233],[8.954465,40.2767396],[8.9560793,40.2724608],[8.9566211,40.2712808],[8.9569864,40.2700917],[8.9569631,40.2697764],[8.9566696,40.2689654],[8.9551642,40.2689649],[8.9548347,40.269199],[8.9545754,40.2700277],[8.9543752,40.270352],[8.9540458,40.2705411],[8.9520257,40.2706033],[8.9508461,40.2712425],[8.9504226,40.2713414],[8.9494699,40.27135],[8.9489643,40.2711876],[8.9484702,40.2712414],[8.9481996,40.2713855],[8.9475521,40.272205],[8.9466109,40.2724839],[8.9452812,40.2733031],[8.9444688,40.2742577],[8.9440923,40.2743927],[8.9431749,40.2743021],[8.9423868,40.2743288],[8.9415044,40.2746076],[8.9409631,40.2748956],[8.940492,40.275544],[8.9402331,40.2757241],[8.9398561,40.2764086],[8.9388442,40.2767955],[8.9386087,40.2770386],[8.9383021,40.2778493],[8.9378901,40.2781914],[8.9371246,40.2792541],[8.9365124,40.2797853],[8.9357828,40.2800732],[8.9354767,40.2803343],[8.9352171,40.2812261],[8.9350051,40.2814602],[8.9336282,40.282072],[8.932745,40.2829635],[8.9324267,40.283693],[8.9321793,40.2839722],[8.9310378,40.284431],[8.9308492,40.2848002],[8.931107,40.2858094],[8.9310596,40.2860707],[8.930812,40.2866291],[8.9303998,40.2870973],[8.9301405,40.2875566],[8.9301402,40.2878089],[8.9304104,40.2881784],[8.9305159,40.288611],[8.9303509,40.2888631],[8.9292798,40.289403],[8.9290913,40.2896011],[8.9289731,40.2901776],[8.9286432,40.2905738],[8.9279838,40.291141],[8.9274777,40.2913479],[8.9270071,40.2913296],[8.9265834,40.2914104],[8.9262185,40.2916444],[8.9260535,40.2919146],[8.9256297,40.2920855],[8.9248404,40.293076],[8.9250633,40.2936257],[8.9254156,40.2942025],[8.9254388,40.2945269],[8.922943,40.2957865],[8.9147028,40.2990241],[8.9114181,40.3004541],[8.9097806,40.3018853],[8.9075307,40.3036223],[8.906188,40.3045492],[8.9049156,40.3056383],[8.9022884,40.3077262],[8.9011339,40.3085361],[8.8997435,40.3097421],[8.8975638,40.3114069],[8.89503,40.313684],[8.8940397,40.3148272],[8.8930369,40.3163489],[8.8924818,40.3175646],[8.8922804,40.3183572],[8.8917847,40.3192577],[8.8917135,40.3195729],[8.8917225,40.3213388],[8.8916153,40.3221044],[8.8909525,40.3243832],[8.890634,40.3248063],[8.8898917,40.325247],[8.889467,40.3258142],[8.8890414,40.326949],[8.8887205,40.3288045],[8.8884957,40.3295251],[8.8882009,40.3298401],[8.8863861,40.3310005],[8.8843833,40.3319175],[8.883157,40.3330604],[8.8822141,40.3336901],[8.8811716,40.3340224],[8.8799166,40.3347058],[8.8780423,40.3360642],[8.8752613,40.3374937],[8.8736002,40.3380865],[8.8701826,40.3398125],[8.8674952,40.34135]]]},"properties":{"type":"boundary","gemeente":"Lei"}}]}