{"type":"FeatureCollection","metadata":{"gemeente":"Leini","slug":"leini","generated_at":"2026-09-26T13:10:04.380370Z","total_points":35,"providers":["PosteItaliane","DPD","InPost","GLS","DHL","Amazon"],"bounds":[7.70137794,45.15092163,7.73628521,45.19881038]},"features":[{"type":"Feature","geometry":{"type":"Point","coordinates":[7.71799325,45.18226202]},"properties":{"type":"pakketpunt","locatieNaam":"Leini'","straatNaam":"Via Ricciolio","straatNr":"31","vervoerder":"PosteItaliane","puntType":"postkantoor","bezettingsgraad":50,"latitude":45.18226202,"longitude":7.71799325,"canPickup":true,"canDropoff":true,"openingstijden":{"za":"08:20 - 12:35","zo":"gesloten","ma":"08:20 - 19:05","di":"08:20 - 19:05","wo":"08:20 - 19:05","do":"08:20 - 19:05","vr":"08:20 - 19:05"}}},{"type":"Feature","geometry":{"type":"Point","coordinates":[7.72575753,45.18463858]},"properties":{"type":"pakketpunt","locatieNaam":"Stazione Di Servizio Tamoil","straatNaam":"Via Volpiano","straatNr":"42","vervoerder":"PosteItaliane","puntType":"automaat","bezettingsgraad":50,"latitude":45.18463858,"longitude":7.72575753,"canPickup":true,"canDropoff":true,"openingstijden":{"za":"00:01 - 23:59","zo":"00:01 - 23:59","ma":"00:01 - 23:59","di":"00:01 - 23:59","wo":"00:01 - 23:59","do":"00:01 - 23:59","vr":"00:01 - 23:59"}}},{"type":"Feature","geometry":{"type":"Point","coordinates":[7.71211016,45.16682037]},"properties":{"type":"pakketpunt","locatieNaam":"Stazione Di Servizio","straatNaam":"Via Torino","straatNr":"131","vervoerder":"PosteItaliane","puntType":"automaat","bezettingsgraad":50,"latitude":45.16682037,"longitude":7.71211016,"canPickup":true,"canDropoff":true,"openingstijden":{"za":"00:01 - 23:59","zo":"00:01 - 23:59","ma":"00:01 - 23:59","di":"00:01 - 23:59","wo":"00:01 - 23:59","do":"00:01 - 23:59","vr":"00:01 - 23:59"}}},{"type":"Feature","geometry":{"type":"Point","coordinates":[7.71735552,45.17927162]},"properties":{"type":"pakketpunt","locatieNaam":"Lavanderia H2o","straatNaam":"Via Tiziano","straatNr":"3","vervoerder":"PosteItaliane","puntType":"automaat","bezettingsgraad":50,"latitude":45.17927162,"longitude":7.71735552,"canPickup":true,"canDropoff":true,"openingstijden":{"za":"07:00 - 22:00","zo":"07:00 - 22:00","ma":"07:00 - 22:00","di":"07:00 - 22:00","wo":"07:00 - 22:00","do":"07:00 - 22:00","vr":"07:00 - 22:00"}}},{"type":"Feature","geometry":{"type":"Point","coordinates":[7.7176625,45.1841112]},"properties":{"type":"pakketpunt","locatieNaam":"Tabaccheria N. 5","straatNaam":"Via Carlo Alberto","straatNr":"163","vervoerder":"PosteItaliane","puntType":"servicepunt","bezettingsgraad":50,"latitude":45.1841112,"longitude":7.7176625,"canPickup":true,"canDropoff":true,"openingstijden":{"za":"08:30 - 12:30, 15:00 - 19:00","zo":"gesloten","ma":"08:00 - 12:30, 15:00 - 19:00","di":"08:00 - 12:30, 15:00 - 19:00","wo":"08:00 - 12:30, 15:00 - 19:00","do":"08:00 - 12:30, 15:00 - 19:00","vr":"08:00 - 12:30, 15:00 - 19:00"}}},{"type":"Feature","geometry":{"type":"Point","coordinates":[7.70137794,45.1839481]},"properties":{"type":"pakketpunt","locatieNaam":"Tabaccheria N. 10","straatNaam":"Via Caselle","straatNr":"74","vervoerder":"PosteItaliane","puntType":"servicepunt","bezettingsgraad":50,"latitude":45.1839481,"longitude":7.70137794,"canPickup":true,"canDropoff":true,"openingstijden":{"za":"09:00 - 20:00","zo":"09:00 - 13:00","ma":"09:00 - 20:00","di":"09:00 - 20:00","wo":"09:00 - 20:00","do":"09:00 - 20:00","vr":"09:00 - 20:00"}}},{"type":"Feature","geometry":{"type":"Point","coordinates":[7.71538273,45.1819916]},"properties":{"type":"pakketpunt","locatieNaam":"Tabaccheria N. 1","straatNaam":"Piazza Ricciolio","straatNr":"1","vervoerder":"PosteItaliane","puntType":"servicepunt","bezettingsgraad":50,"latitude":45.1819916,"longitude":7.71538273,"canPickup":true,"canDropoff":true,"openingstijden":{"za":"08:00 - 13:00, 15:00 - 19:00","zo":"gesloten","ma":"08:00 - 13:00, 15:00 - 19:00","di":"08:00 - 13:00, 15:00 - 19:00","wo":"08:00 - 13:00, 15:00 - 19:00","do":"08:00 - 13:00, 15:00 - 19:00","vr":"08:00 - 13:00, 15:00 - 19:00"}}},{"type":"Feature","geometry":{"type":"Point","coordinates":[7.73628521,45.15092163]},"properties":{"type":"pakketpunt","locatieNaam":"Tabaccheria N. 3","straatNaam":"Strada Fornacino","straatNr":"205","vervoerder":"PosteItaliane","puntType":"servicepunt","bezettingsgraad":50,"latitude":45.15092163,"longitude":7.73628521,"canPickup":true,"canDropoff":true,"openingstijden":{"za":"07:00 - 13:30, 15:00 - 19:00","zo":"gesloten","ma":"07:00 - 13:30, 15:00 - 19:00","di":"07:00 - 13:30, 15:00 - 19:00","wo":"07:00 - 13:30, 15:00 - 19:00","do":"07:00 - 13:30, 15:00 - 19:00","vr":"07:00 - 13:30, 15:00 - 19:00"}}},{"type":"Feature","geometry":{"type":"Point","coordinates":[7.72408695,45.19881038]},"properties":{"type":"pakketpunt","locatieNaam":"Tabaccheria N. 6","straatNaam":"Via Lombardore","straatNr":"193","vervoerder":"PosteItaliane","puntType":"servicepunt","bezettingsgraad":50,"latitude":45.19881038,"longitude":7.72408695,"canPickup":true,"canDropoff":true,"openingstijden":{"za":"07:00 - 12:30, 15:00 - 19:30","zo":"gesloten","ma":"06:00 - 19:30","di":"06:00 - 19:30","wo":"06:00 - 19:30","do":"06:00 - 19:30","vr":"06:00 - 19:30"}}},{"type":"Feature","geometry":{"type":"Point","coordinates":[7.714168,45.18337845]},"properties":{"type":"pakketpunt","locatieNaam":"Tabaccheria N. 4","straatNaam":"Via Bonis","straatNr":"22","vervoerder":"PosteItaliane","puntType":"servicepunt","bezettingsgraad":50,"latitude":45.18337845,"longitude":7.714168,"canPickup":true,"canDropoff":true,"openingstijden":{"za":"06:30 - 12:30, 15:00 - 19:00","zo":"gesloten","ma":"06:30 - 12:30, 15:00 - 19:00","di":"06:30 - 12:30, 15:00 - 19:00","wo":"06:30 - 12:30, 15:00 - 19:00","do":"06:30 - 12:30, 15:00 - 19:00","vr":"06:30 - 12:30, 15:00 - 19:00"}}},{"type":"Feature","geometry":{"type":"Point","coordinates":[7.71536588,45.18079445]},"properties":{"type":"pakketpunt","locatieNaam":"Sportissimo","straatNaam":"VIA CARLO ALBERTO","straatNr":"8","vervoerder":"DPD","puntType":"pickup_point","bezettingsgraad":50,"latitude":45.18079445,"longitude":7.71536588,"canPickup":true,"canDropoff":true,"openingstijden":{"ma":"09:30 - 12:30, 16:00 - 19:00","di":"09:30 - 12:30, 16:00 - 19:00","wo":"09:30 - 12:30, 16:00 - 19:00","do":"09:30 - 12:30","vr":"09:30 - 12:30, 16:00 - 19:00","za":"09:30 - 12:30, 16:00 - 19:00","zo":"gesloten"}}},{"type":"Feature","geometry":{"type":"Point","coordinates":[7.71958,45.18929]},"properties":{"type":"pakketpunt","locatieNaam":"InPost Locker","straatNaam":"Via Lombardore","straatNr":"63","vervoerder":"InPost","puntType":"automaat","bezettingsgraad":50,"latitude":45.18929,"longitude":7.71958,"canPickup":true,"canDropoff":true,"openingstijden":null}},{"type":"Feature","geometry":{"type":"Point","coordinates":[7.71236,45.16681]},"properties":{"type":"pakketpunt","locatieNaam":"InPost Locker 24/7","straatNaam":"Via Torino","straatNr":"131","vervoerder":"InPost","puntType":"automaat","bezettingsgraad":50,"latitude":45.16681,"longitude":7.71236,"canPickup":true,"canDropoff":true,"openingstijden":null}},{"type":"Feature","geometry":{"type":"Point","coordinates":[7.70332,45.18323]},"properties":{"type":"pakketpunt","locatieNaam":"InPost Locker 24/7","straatNaam":"Via Cristoforo Colombo","straatNr":"01/02/2003","vervoerder":"InPost","puntType":"automaat","bezettingsgraad":50,"latitude":45.18323,"longitude":7.70332,"canPickup":true,"canDropoff":true,"openingstijden":null}},{"type":"Feature","geometry":{"type":"Point","coordinates":[7.7153,45.18206]},"properties":{"type":"pakketpunt","locatieNaam":"InPost Point","straatNaam":"Piazza Ricciolio","straatNr":"1","vervoerder":"InPost","puntType":"servicepunt","bezettingsgraad":50,"latitude":45.18206,"longitude":7.7153,"canPickup":true,"canDropoff":true,"openingstijden":"Lun-Sab: 06:00 - 13:00 - 15:00 - 19:00"}},{"type":"Feature","geometry":{"type":"Point","coordinates":[7.71538734,45.18083788]},"properties":{"type":"pakketpunt","locatieNaam":"SPORTISSIMO","straatNaam":"Via Carlo Alberto","straatNr":"8","vervoerder":"GLS","puntType":"parcel_shop","bezettingsgraad":50,"latitude":45.18083788,"longitude":7.71538734,"canPickup":true,"canDropoff":true,"openingstijden":"za: 09:30 - 12:30, 16:00 - 19:00; ma: 09:30 - 12:30, 16:00 - 19:00"}},{"type":"Feature","geometry":{"type":"Point","coordinates":[7.7174616,45.1833367]},"properties":{"type":"pakketpunt","locatieNaam":"Svapangolo","straatNaam":"Via Cottin","straatNr":"46","vervoerder":"GLS","puntType":"parcel_shop","bezettingsgraad":50,"latitude":45.1833367,"longitude":7.7174616,"canPickup":true,"canDropoff":true,"openingstijden":"za: 10:00 - 12:30, 15:30 - 17:30; di: 10:00 - 12:30, 15:30 - 19:00"}},{"type":"Feature","geometry":{"type":"Point","coordinates":[7.7258576,45.1843704]},"properties":{"type":"pakketpunt","locatieNaam":"GLS Locker TO064B presso stazione di servizio Tamoil Leini","straatNaam":"Via Volpiano","straatNr":"snc","vervoerder":"GLS","puntType":"locker","bezettingsgraad":50,"latitude":45.1843704,"longitude":7.7258576,"canPickup":true,"canDropoff":false,"openingstijden":"za: 00:00 - 23:30; zo: 00:00 - 23:30"}},{"type":"Feature","geometry":{"type":"Point","coordinates":[7.724087,45.19881]},"properties":{"type":"pakketpunt","locatieNaam":"TABACCHERIA N. 6","straatNaam":"VIA LOMBARDORE 193","straatNr":"","vervoerder":"DHL","puntType":"parcelShop","bezettingsgraad":50,"latitude":45.19881,"longitude":7.724087,"canPickup":true,"canDropoff":true,"openingstijden":{"ma":"06:00 - 19:30","di":"06:00 - 19:30","wo":"06:00 - 19:30","do":"06:00 - 19:30","vr":"06:00 - 19:30","za":"07:00 - 12:30, 15:00 - 19:30","zo":"gesloten"}}},{"type":"Feature","geometry":{"type":"Point","coordinates":[7.701378,45.183948]},"properties":{"type":"pakketpunt","locatieNaam":"TABACCHERIA N. 10","straatNaam":"VIA CASELLE 74","straatNr":"","vervoerder":"DHL","puntType":"parcelShop","bezettingsgraad":50,"latitude":45.183948,"longitude":7.701378,"canPickup":true,"canDropoff":true,"openingstijden":{"ma":"09:00 - 20:00","di":"09:00 - 20:00","wo":"09:00 - 20:00","do":"09:00 - 20:00","vr":"09:00 - 20:00","za":"09:00 - 20:00","zo":"09:00 - 13:00"}}},{"type":"Feature","geometry":{"type":"Point","coordinates":[7.714168,45.183378]},"properties":{"type":"pakketpunt","locatieNaam":"TABACCHERIA N. 4","straatNaam":"VIA BONIS 22","straatNr":"","vervoerder":"DHL","puntType":"parcelShop","bezettingsgraad":50,"latitude":45.183378,"longitude":7.714168,"canPickup":true,"canDropoff":true,"openingstijden":{"ma":"06:30 - 12:30, 15:00 - 19:00","di":"06:30 - 12:30, 15:00 - 19:00","wo":"06:30 - 12:30, 15:00 - 19:00","do":"06:30 - 12:30, 15:00 - 19:00","vr":"06:30 - 12:30, 15:00 - 19:00","za":"06:30 - 12:30, 15:00 - 19:00","zo":"gesloten"}}},{"type":"Feature","geometry":{"type":"Point","coordinates":[7.717663,45.184111]},"properties":{"type":"pakketpunt","locatieNaam":"TABACCHERIA N. 5","straatNaam":"VIA CARLO ALBERTO 163","straatNr":"","vervoerder":"DHL","puntType":"parcelShop","bezettingsgraad":50,"latitude":45.184111,"longitude":7.717663,"canPickup":true,"canDropoff":true,"openingstijden":{"ma":"08:00 - 12:30, 15:00 - 19:00","di":"08:00 - 12:30, 15:00 - 19:00","wo":"08:00 - 12:30, 15:00 - 19:00","do":"08:00 - 12:30, 15:00 - 19:00","vr":"08:00 - 12:30, 15:00 - 19:00","za":"08:30 - 12:30, 15:00 - 19:00","zo":"gesloten"}}},{"type":"Feature","geometry":{"type":"Point","coordinates":[7.715383,45.181992]},"properties":{"type":"pakketpunt","locatieNaam":"TABACCHERIA N. 1","straatNaam":"PIAZZA RICCIOLIO 1","straatNr":"","vervoerder":"DHL","puntType":"parcelShop","bezettingsgraad":50,"latitude":45.181992,"longitude":7.715383,"canPickup":true,"canDropoff":true,"openingstijden":{"ma":"08:00 - 13:00, 15:00 - 19:00","di":"08:00 - 13:00, 15:00 - 19:00","wo":"08:00 - 13:00, 15:00 - 19:00","do":"08:00 - 13:00, 15:00 - 19:00","vr":"08:00 - 13:00, 15:00 - 19:00","za":"08:00 - 13:00, 15:00 - 19:00","zo":"gesloten"}}},{"type":"Feature","geometry":{"type":"Point","coordinates":[7.717993,45.182262]},"properties":{"type":"pakketpunt","locatieNaam":"Ufficio Postale LEINI'","straatNaam":"VIA RICCIOLIO 31","straatNr":"","vervoerder":"DHL","puntType":"postOffice","bezettingsgraad":50,"latitude":45.182262,"longitude":7.717993,"canPickup":true,"canDropoff":true,"openingstijden":{"ma":"08:20 - 19:05","di":"08:20 - 19:05","wo":"08:20 - 19:05","do":"08:20 - 19:05","vr":"08:20 - 19:05","za":"08:20 - 12:35","zo":"gesloten"}}},{"type":"Feature","geometry":{"type":"Point","coordinates":[7.725758,45.184639]},"properties":{"type":"pakketpunt","locatieNaam":"STAZIONE DI SERVIZIO TAMOIL","straatNaam":"VIA VOLPIANO 42","straatNr":"","vervoerder":"DHL","puntType":"packStation","bezettingsgraad":50,"latitude":45.184639,"longitude":7.725758,"canPickup":true,"canDropoff":true,"openingstijden":{"ma":"00:01 - 23:59","di":"00:01 - 23:59","wo":"00:01 - 23:59","do":"00:01 - 23:59","vr":"00:01 - 23:59","za":"00:01 - 23:59","zo":"00:01 - 23:59"}}},{"type":"Feature","geometry":{"type":"Point","coordinates":[7.717356,45.179272]},"properties":{"type":"pakketpunt","locatieNaam":"LAVANDERIA H2O","straatNaam":"VIA TIZIANO 3","straatNr":"","vervoerder":"DHL","puntType":"packStation","bezettingsgraad":50,"latitude":45.179272,"longitude":7.717356,"canPickup":true,"canDropoff":true,"openingstijden":{"ma":"07:00 - 22:00","di":"07:00 - 22:00","wo":"07:00 - 22:00","do":"07:00 - 22:00","vr":"07:00 - 22:00","za":"07:00 - 22:00","zo":"07:00 - 22:00"}}},{"type":"Feature","geometry":{"type":"Point","coordinates":[7.712368,45.169357]},"properties":{"type":"pakketpunt","locatieNaam":"L'OFFICINA DEL VAPORE","straatNaam":"Via Torino, 138","straatNr":"","vervoerder":"DHL","puntType":"parcelShop","bezettingsgraad":50,"latitude":45.169357,"longitude":7.712368,"canPickup":false,"canDropoff":true,"openingstijden":{"ma":"09:00 - 19:30","di":"09:00 - 19:30","wo":"09:00 - 19:30","do":"09:00 - 19:30","vr":"09:00 - 19:30","za":"09:00 - 19:30","zo":"gesloten"}}},{"type":"Feature","geometry":{"type":"Point","coordinates":[7.71211,45.16682]},"properties":{"type":"pakketpunt","locatieNaam":"STAZIONE DI SERVIZIO","straatNaam":"VIA TORINO 131","straatNr":"","vervoerder":"DHL","puntType":"packStation","bezettingsgraad":50,"latitude":45.16682,"longitude":7.71211,"canPickup":true,"canDropoff":true,"openingstijden":{"ma":"00:01 - 23:59","di":"00:01 - 23:59","wo":"00:01 - 23:59","do":"00:01 - 23:59","vr":"00:01 - 23:59","za":"00:01 - 23:59","zo":"00:01 - 23:59"}}},{"type":"Feature","geometry":{"type":"Point","coordinates":[7.736285,45.150922]},"properties":{"type":"pakketpunt","locatieNaam":"TABACCHERIA N. 3","straatNaam":"STRADA FORNACINO 205","straatNr":"","vervoerder":"DHL","puntType":"parcelShop","bezettingsgraad":50,"latitude":45.150922,"longitude":7.736285,"canPickup":true,"canDropoff":true,"openingstijden":{"ma":"07:00 - 13:30, 15:00 - 19:00","di":"07:00 - 13:30, 15:00 - 19:00","wo":"07:00 - 13:30, 15:00 - 19:00","do":"07:00 - 13:30, 15:00 - 19:00","vr":"07:00 - 13:30, 15:00 - 19:00","za":"07:00 - 13:30, 15:00 - 19:00","zo":"gesloten"}}},{"type":"Feature","geometry":{"type":"Point","coordinates":[7.7256788,45.184422]},"properties":{"type":"pakketpunt","locatieNaam":"Amazon Locker - menio","straatNaam":"Stazione Tamoil - PV 7244","straatNr":"","vervoerder":"Amazon","puntType":"locker","bezettingsgraad":50,"latitude":45.184422,"longitude":7.7256788,"canPickup":true,"canDropoff":false,"openingstijden":null}},{"type":"Feature","geometry":{"type":"Point","coordinates":[7.716769,45.1794675]},"properties":{"type":"pakketpunt","locatieNaam":"Amazon Locker - zaffira","straatNaam":"PAM Leini","straatNr":"","vervoerder":"Amazon","puntType":"locker","bezettingsgraad":50,"latitude":45.1794675,"longitude":7.716769,"canPickup":true,"canDropoff":false,"openingstijden":null}},{"type":"Feature","geometry":{"type":"Point","coordinates":[7.725523,45.185529]},"properties":{"type":"pakketpunt","locatieNaam":"Amazon Locker - orestella","straatNaam":"GPadel - Leinì","straatNr":"","vervoerder":"Amazon","puntType":"locker","bezettingsgraad":50,"latitude":45.185529,"longitude":7.725523,"canPickup":true,"canDropoff":false,"openingstijden":null}},{"type":"Feature","geometry":{"type":"Point","coordinates":[7.72408,45.1988]},"properties":{"type":"pakketpunt","locatieNaam":"PuntoPoste TABACCHERIA N. 6","straatNaam":"VIA LOMBARDORE 193","straatNr":"","vervoerder":"Amazon","puntType":"3p","bezettingsgraad":50,"latitude":45.1988,"longitude":7.72408,"canPickup":true,"canDropoff":false,"openingstijden":null}},{"type":"Feature","geometry":{"type":"Point","coordinates":[7.723299,45.196166]},"properties":{"type":"pakketpunt","locatieNaam":"Amazon Counter - Bar Paolino","straatNaam":"Via Lombardone, 112","straatNr":"","vervoerder":"Amazon","puntType":"helix","bezettingsgraad":50,"latitude":45.196166,"longitude":7.723299,"canPickup":true,"canDropoff":false,"openingstijden":null}},{"type":"Feature","geometry":{"type":"Point","coordinates":[7.713559,45.175935]},"properties":{"type":"pakketpunt","locatieNaam":"Amazon Counter - Autoriparazioni F&M","straatNaam":"Via benna, 2A","straatNr":"","vervoerder":"Amazon","puntType":"helix","bezettingsgraad":50,"latitude":45.175935,"longitude":7.713559,"canPickup":true,"canDropoff":false,"openingstijden":null}},{"type":"Feature","geometry":{"type":"Polygon","coordinates":[[[7.6847513,45.1948302],[7.68412,45.1958986],[7.6840159,45.1962709],[7.6840392,45.1972479],[7.6842823,45.1976625],[7.6843701,45.1984264],[7.6854761,45.2008291],[7.6875908,45.2048321],[7.6879468,45.2058398],[7.687781,45.2060584],[7.6880854,45.206404],[7.687923,45.2066002],[7.6881661,45.2068595],[7.6889977,45.2083678],[7.6899627,45.2112661],[7.6902199,45.2113794],[7.6902367,45.2121717],[7.6907216,45.213901],[7.6910962,45.2164438],[7.6911594,45.2180468],[7.6912048,45.2230746],[7.6911239,45.2253331],[7.6912319,45.2300286],[7.6935199,45.2290287],[7.6965332,45.2279559],[7.6977319,45.2274475],[7.7024185,45.2259751],[7.7051095,45.2246374],[7.7061113,45.2242572],[7.7088551,45.222812],[7.709207,45.2225144],[7.7092922,45.2222138],[7.7089606,45.2218635],[7.7089357,45.2217327],[7.710234,45.2211353],[7.710734,45.2210824],[7.7116426,45.2212772],[7.7124165,45.2211689],[7.7137587,45.2212516],[7.7146721,45.2211458],[7.714636,45.2210589],[7.7147487,45.2209117],[7.7148932,45.2208415],[7.7152268,45.2208585],[7.7153456,45.2207259],[7.7154615,45.2207936],[7.7167548,45.2205381],[7.717562,45.2205922],[7.7185468,45.2200947],[7.7186547,45.2199159],[7.7186218,45.2196229],[7.7187543,45.2194849],[7.7189341,45.2194689],[7.7193138,45.2196338],[7.719952,45.2196244],[7.7204576,45.2197246],[7.7238019,45.2196314],[7.7242609,45.2198011],[7.7241866,45.2196177],[7.7244855,45.2196039],[7.7247595,45.2193451],[7.7249991,45.2189202],[7.725488,45.2183766],[7.7258889,45.2182685],[7.731176,45.2176793],[7.7337787,45.2170961],[7.7363533,45.216724],[7.7368641,45.2165541],[7.7372352,45.2165267],[7.7377616,45.2162805],[7.738423,45.2165399],[7.7386717,45.2135136],[7.7386443,45.2131352],[7.7387836,45.2118405],[7.7388879,45.2118012],[7.7371759,45.2089063],[7.735536,45.208384],[7.7360491,45.2076021],[7.7362485,45.2066501],[7.7360443,45.2042625],[7.7359138,45.2035589],[7.735619,45.1993204],[7.7353969,45.1988769],[7.7353374,45.1985071],[7.7349773,45.197864],[7.7362078,45.1969145],[7.7393898,45.1952259],[7.7439257,45.1926384],[7.7456668,45.192266],[7.7467869,45.1917472],[7.7480377,45.1909688],[7.7480474,45.1898887],[7.7483095,45.1896215],[7.7491978,45.1896942],[7.7494791,45.1884731],[7.7515255,45.1863756],[7.7524496,45.1845539],[7.7530211,45.1837005],[7.7542283,45.1813148],[7.7563756,45.1765178],[7.7570505,45.175805],[7.7576906,45.1753754],[7.7580944,45.1745112],[7.7587776,45.1739065],[7.7593542,45.1716578],[7.759262,45.1706487],[7.7591521,45.1701254],[7.7587,45.1689503],[7.7580557,45.1682591],[7.7591956,45.16779],[7.7571148,45.1648958],[7.754313,45.160612],[7.7525674,45.16089],[7.7512476,45.1594938],[7.7494039,45.158623],[7.7468309,45.1571095],[7.746636,45.1570759],[7.7454037,45.1564142],[7.7443653,45.1566639],[7.743357,45.1563242],[7.7408526,45.1535826],[7.7392318,45.1514719],[7.7369275,45.1493715],[7.7366266,45.1493007],[7.736293,45.1493735],[7.7355039,45.1493198],[7.7342351,45.1491212],[7.7329622,45.1494446],[7.7294468,45.14905],[7.7291197,45.1483712],[7.7287585,45.1478622],[7.7273157,45.1476535],[7.7259911,45.1476012],[7.7223907,45.1478945],[7.7223323,45.1479672],[7.7223507,45.14905],[7.7225188,45.1497444],[7.7235697,45.156346],[7.7195369,45.1567458],[7.715216,45.1582515],[7.7147482,45.1585328],[7.7113899,45.1611333],[7.7110163,45.161523],[7.7105529,45.1618273],[7.7101149,45.1624168],[7.7089307,45.163398],[7.7086755,45.1637029],[7.7086837,45.1637999],[7.7071766,45.1663397],[7.7066052,45.1673721],[7.7065812,45.1675854],[7.7055252,45.1678917],[7.7053696,45.1681791],[7.7051362,45.1683266],[7.7052221,45.1685479],[7.7050906,45.1687124],[7.7044442,45.1687597],[7.7034143,45.169032],[7.7019578,45.1691039],[7.7017924,45.1698522],[7.7012799,45.1705846],[7.7000687,45.1707328],[7.6995993,45.1709345],[7.699053,45.17146],[7.694253,45.1706556],[7.6939067,45.1725618],[7.6934797,45.1735111],[7.6933495,45.1736221],[7.6931998,45.1742055],[7.6925947,45.1747162],[7.6917149,45.1749807],[7.6884061,45.1762389],[7.6876859,45.1793362],[7.6875279,45.1811392],[7.6874918,45.1850635],[7.686475,45.1898316],[7.6851032,45.1931644],[7.6847513,45.1948302]]]},"properties":{"type":"boundary","gemeente":"Leini"}}]}