{"type":"FeatureCollection","metadata":{"gemeente":"Lendinara","slug":"lendinara","generated_at":"2026-09-26T13:10:04.408158Z","total_points":29,"providers":["PosteItaliane","DPD","InPost","GLS","DHL","Amazon"],"bounds":[11.5613,45.0553,11.64390444,45.08822]},"features":[{"type":"Feature","geometry":{"type":"Point","coordinates":[11.60095987,45.08390596]},"properties":{"type":"pakketpunt","locatieNaam":"Lendinara","straatNaam":"Piazzale Kennedy","straatNr":"6","vervoerder":"PosteItaliane","puntType":"postkantoor","bezettingsgraad":50,"latitude":45.08390596,"longitude":11.60095987,"canPickup":true,"canDropoff":true,"openingstijden":{"za":"08:20 - 12:35","zo":"gesloten","ma":"08:20 - 19:05","di":"08:20 - 19:05","wo":"08:20 - 19:05","do":"08:20 - 19:05","vr":"08:20 - 19:05"}}},{"type":"Feature","geometry":{"type":"Point","coordinates":[11.56131972,45.07952918]},"properties":{"type":"pakketpunt","locatieNaam":"Ramo Di Palo","straatNaam":"Via Ramodipalo Centro","straatNr":"11","vervoerder":"PosteItaliane","puntType":"postkantoor","bezettingsgraad":50,"latitude":45.07952918,"longitude":11.56131972,"canPickup":true,"canDropoff":true,"openingstijden":{"za":"08:20 - 12:45","zo":"gesloten","ma":"08:20 - 13:45","di":"08:20 - 13:45","wo":"08:20 - 13:45","do":"08:20 - 13:45","vr":"08:20 - 13:45"}}},{"type":"Feature","geometry":{"type":"Point","coordinates":[11.59503316,45.08790686]},"properties":{"type":"pakketpunt","locatieNaam":"Centro Commerciale Base","straatNaam":"Via Lorenzo Canozio","straatNr":"69","vervoerder":"PosteItaliane","puntType":"automaat","bezettingsgraad":50,"latitude":45.08790686,"longitude":11.59503316,"canPickup":true,"canDropoff":true,"openingstijden":{"za":"00:01 - 23:59","zo":"00:01 - 23:59","ma":"00:01 - 23:59","di":"00:01 - 23:59","wo":"00:01 - 23:59","do":"00:01 - 23:59","vr":"00:01 - 23:59"}}},{"type":"Feature","geometry":{"type":"Point","coordinates":[11.59328042,45.08357045]},"properties":{"type":"pakketpunt","locatieNaam":"Conad Spesa Facile","straatNaam":"Viale Lorenzo Fava","straatNr":"4","vervoerder":"PosteItaliane","puntType":"automaat","bezettingsgraad":50,"latitude":45.08357045,"longitude":11.59328042,"canPickup":true,"canDropoff":true,"openingstijden":{"za":"00:01 - 23:59","zo":"00:01 - 23:59","ma":"00:01 - 23:59","di":"00:01 - 23:59","wo":"00:01 - 23:59","do":"00:01 - 23:59","vr":"00:01 - 23:59"}}},{"type":"Feature","geometry":{"type":"Point","coordinates":[11.59503316,45.08790686]},"properties":{"type":"pakketpunt","locatieNaam":"Tabaccheria N. 14","straatNaam":"Via Lorenzo Canozio","straatNr":"69","vervoerder":"PosteItaliane","puntType":"servicepunt","bezettingsgraad":50,"latitude":45.08790686,"longitude":11.59503316,"canPickup":true,"canDropoff":true,"openingstijden":{"za":"09:00 - 13:00, 15:30 - 19:30","zo":"09:00 - 12:00","ma":"09:00 - 13:00, 15:30 - 19:30","di":"09:00 - 13:00, 15:30 - 19:30","wo":"09:00 - 13:00, 15:30 - 19:30","do":"09:00 - 13:00, 15:30 - 19:30","vr":"09:00 - 13:00, 15:30 - 19:30"}}},{"type":"Feature","geometry":{"type":"Point","coordinates":[11.64390444,45.05532571]},"properties":{"type":"pakketpunt","locatieNaam":"Tabaccheria N. 12","straatNaam":"Via Valdentro","straatNr":"46/a","vervoerder":"PosteItaliane","puntType":"servicepunt","bezettingsgraad":50,"latitude":45.05532571,"longitude":11.64390444,"canPickup":true,"canDropoff":true,"openingstijden":{"za":"07:45 - 12:30, 15:30 - 20:00","zo":"gesloten","ma":"07:45 - 12:30, 15:30 - 20:00","di":"07:45 - 12:30, 15:30 - 20:00","wo":"07:45 - 12:30, 15:30 - 20:00","do":"07:45 - 12:30, 15:30 - 20:00","vr":"07:45 - 12:30, 15:30 - 20:00"}}},{"type":"Feature","geometry":{"type":"Point","coordinates":[11.6024772387,45.0836547199]},"properties":{"type":"pakketpunt","locatieNaam":"Tipografia Lendinarese","straatNaam":"VIA S. SOFIA","straatNr":"20/B","vervoerder":"DPD","puntType":"pickup_point","bezettingsgraad":50,"latitude":45.0836547199,"longitude":11.6024772387,"canPickup":true,"canDropoff":true,"openingstijden":{"ma":"09:00 - 12:30, 15:00 - 18:30","di":"09:00 - 12:30, 15:00 - 18:30","wo":"09:00 - 12:30, 15:00 - 18:30","do":"09:00 - 12:30, 15:00 - 18:30","vr":"09:00 - 12:30, 15:00 - 18:30","za":"gesloten","zo":"gesloten"}}},{"type":"Feature","geometry":{"type":"Point","coordinates":[11.594943,45.08792]},"properties":{"type":"pakketpunt","locatieNaam":"BRT LOCKER - Centro Commerciale Bas","straatNaam":"VIA LORENZO CANOZIO","straatNr":"69","vervoerder":"DPD","puntType":"dpd_box","bezettingsgraad":50,"latitude":45.08792,"longitude":11.594943,"canPickup":true,"canDropoff":true,"openingstijden":{"ma":"08:30 - 20:00","di":"08:30 - 20:00","wo":"08:30 - 20:00","do":"08:30 - 20:00","vr":"08:30 - 20:00","za":"08:30 - 20:00","zo":"09:00 - 13:00"}}},{"type":"Feature","geometry":{"type":"Point","coordinates":[11.6096,45.08353]},"properties":{"type":"pakketpunt","locatieNaam":"","straatNaam":"Via Matteotti","straatNr":"388-11","vervoerder":"InPost","puntType":"automaat","bezettingsgraad":50,"latitude":45.08353,"longitude":11.6096,"canPickup":true,"canDropoff":true,"openingstijden":null}},{"type":"Feature","geometry":{"type":"Point","coordinates":[11.60292,45.08822]},"properties":{"type":"pakketpunt","locatieNaam":"InPost Locker 24/7","straatNaam":"Via Santa Maria Nuova","straatNr":"53","vervoerder":"InPost","puntType":"automaat","bezettingsgraad":50,"latitude":45.08822,"longitude":11.60292,"canPickup":true,"canDropoff":true,"openingstijden":null}},{"type":"Feature","geometry":{"type":"Point","coordinates":[11.59282,45.08303]},"properties":{"type":"pakketpunt","locatieNaam":"InPost Locker 24/7","straatNaam":"Viale Fava","straatNr":"4","vervoerder":"InPost","puntType":"automaat","bezettingsgraad":50,"latitude":45.08303,"longitude":11.59282,"canPickup":true,"canDropoff":true,"openingstijden":null}},{"type":"Feature","geometry":{"type":"Point","coordinates":[11.59494,45.08766]},"properties":{"type":"pakketpunt","locatieNaam":"InPost Locker","straatNaam":"Via Lorenzo Canozio","straatNr":"69","vervoerder":"InPost","puntType":"automaat","bezettingsgraad":50,"latitude":45.08766,"longitude":11.59494,"canPickup":true,"canDropoff":true,"openingstijden":null}},{"type":"Feature","geometry":{"type":"Point","coordinates":[11.60238,45.08389]},"properties":{"type":"pakketpunt","locatieNaam":"InPost Point","straatNaam":"Via S. Sofia","straatNr":"20/B","vervoerder":"InPost","puntType":"servicepunt","bezettingsgraad":50,"latitude":45.08389,"longitude":11.60238,"canPickup":true,"canDropoff":true,"openingstijden":"Lun-Ven: 09:00 - 12:30 - 15:00 - 18:30"}},{"type":"Feature","geometry":{"type":"Point","coordinates":[11.6024078,45.0836367]},"properties":{"type":"pakketpunt","locatieNaam":"Tipografia Lendinarese","straatNaam":"Via Santa Sofia","straatNr":"20/B","vervoerder":"GLS","puntType":"parcel_shop","bezettingsgraad":50,"latitude":45.0836367,"longitude":11.6024078,"canPickup":true,"canDropoff":true,"openingstijden":"ma: 09:00 - 12:30, 15:00 - 18:30; di: 09:00 - 12:30, 15:00 - 18:30"}},{"type":"Feature","geometry":{"type":"Point","coordinates":[11.56132,45.079529]},"properties":{"type":"pakketpunt","locatieNaam":"Ufficio Postale RAMO DI PALO","straatNaam":"VIA RAMO DI PALO CENTRO 11","straatNr":"","vervoerder":"DHL","puntType":"postOffice","bezettingsgraad":50,"latitude":45.079529,"longitude":11.56132,"canPickup":true,"canDropoff":true,"openingstijden":{"ma":"08:20 - 13:45","di":"08:20 - 13:45","wo":"08:20 - 13:45","do":"08:20 - 13:45","vr":"08:20 - 13:45","za":"08:20 - 12:45","zo":"gesloten"}}},{"type":"Feature","geometry":{"type":"Point","coordinates":[11.643904,45.055326]},"properties":{"type":"pakketpunt","locatieNaam":"TABACCHERIA n. 12","straatNaam":"VIA VALDENTRO 46-A","straatNr":"","vervoerder":"DHL","puntType":"parcelShop","bezettingsgraad":50,"latitude":45.055326,"longitude":11.643904,"canPickup":true,"canDropoff":true,"openingstijden":{"ma":"07:45 - 12:30, 15:30 - 20:00","di":"07:45 - 12:30, 15:30 - 20:00","wo":"07:45 - 12:30, 15:30 - 20:00","do":"07:45 - 12:30, 15:30 - 20:00","vr":"07:45 - 12:30, 15:30 - 20:00","za":"07:45 - 12:30, 15:30 - 20:00","zo":"gesloten"}}},{"type":"Feature","geometry":{"type":"Point","coordinates":[11.61283,45.08137]},"properties":{"type":"pakketpunt","locatieNaam":"VIDEOUNO SNC","straatNaam":"Via Pietro Nenni , 4","straatNr":"","vervoerder":"DHL","puntType":"parcelShop","bezettingsgraad":50,"latitude":45.08137,"longitude":11.61283,"canPickup":false,"canDropoff":true,"openingstijden":{"ma":"09:00 - 19:30","di":"09:00 - 19:30","wo":"09:00 - 19:30","do":"09:00 - 19:30","vr":"09:00 - 19:30","za":"09:00 - 19:30","zo":"gesloten"}}},{"type":"Feature","geometry":{"type":"Point","coordinates":[11.595033,45.087907]},"properties":{"type":"pakketpunt","locatieNaam":"CENTRO COMMERCIALE BASE","straatNaam":"VIA LORENZO CANOZIO 69","straatNr":"","vervoerder":"DHL","puntType":"packStation","bezettingsgraad":50,"latitude":45.087907,"longitude":11.595033,"canPickup":true,"canDropoff":true,"openingstijden":{"ma":"00:01 - 23:59","di":"00:01 - 23:59","wo":"00:01 - 23:59","do":"00:01 - 23:59","vr":"00:01 - 23:59","za":"00:01 - 23:59","zo":"00:01 - 23:59"}}},{"type":"Feature","geometry":{"type":"Point","coordinates":[11.595033,45.087907]},"properties":{"type":"pakketpunt","locatieNaam":"TABACCHERIA N. 14","straatNaam":"VIA LORENZO CANOZIO 69","straatNr":"","vervoerder":"DHL","puntType":"parcelShop","bezettingsgraad":50,"latitude":45.087907,"longitude":11.595033,"canPickup":true,"canDropoff":true,"openingstijden":{"ma":"09:00 - 13:00, 15:30 - 19:30","di":"09:00 - 13:00, 15:30 - 19:30","wo":"09:00 - 13:00, 15:30 - 19:30","do":"09:00 - 13:00, 15:30 - 19:30","vr":"09:00 - 13:00, 15:30 - 19:30","za":"09:00 - 13:00, 15:30 - 19:30","zo":"09:00 - 12:00"}}},{"type":"Feature","geometry":{"type":"Point","coordinates":[11.59328,45.08357]},"properties":{"type":"pakketpunt","locatieNaam":"CONAD SPESA FACILE","straatNaam":"VIALE LORENZO FAVA 4","straatNr":"","vervoerder":"DHL","puntType":"packStation","bezettingsgraad":50,"latitude":45.08357,"longitude":11.59328,"canPickup":true,"canDropoff":true,"openingstijden":{"ma":"00:01 - 23:59","di":"00:01 - 23:59","wo":"00:01 - 23:59","do":"00:01 - 23:59","vr":"00:01 - 23:59","za":"00:01 - 23:59","zo":"00:01 - 23:59"}}},{"type":"Feature","geometry":{"type":"Point","coordinates":[11.60096,45.083906]},"properties":{"type":"pakketpunt","locatieNaam":"Ufficio Postale LENDINARA","straatNaam":"PIAZZALE KENNEDY 6","straatNr":"","vervoerder":"DHL","puntType":"postOffice","bezettingsgraad":50,"latitude":45.083906,"longitude":11.60096,"canPickup":true,"canDropoff":true,"openingstijden":{"ma":"08:20 - 19:05","di":"08:20 - 19:05","wo":"08:20 - 19:05","do":"08:20 - 19:05","vr":"08:20 - 19:05","za":"08:20 - 12:35","zo":"gesloten"}}},{"type":"Feature","geometry":{"type":"Point","coordinates":[11.592172,45.083286]},"properties":{"type":"pakketpunt","locatieNaam":"Amazon Locker - creonte","straatNaam":"Conad Lendinara","straatNr":"","vervoerder":"Amazon","puntType":"locker","bezettingsgraad":50,"latitude":45.083286,"longitude":11.592172,"canPickup":true,"canDropoff":false,"openingstijden":null}},{"type":"Feature","geometry":{"type":"Point","coordinates":[11.6439,45.0553]},"properties":{"type":"pakketpunt","locatieNaam":"PuntoPoste TABACCHERIA n. 12","straatNaam":"VIA VALDENTRO 46/A","straatNr":"","vervoerder":"Amazon","puntType":"3p","bezettingsgraad":50,"latitude":45.0553,"longitude":11.6439,"canPickup":true,"canDropoff":false,"openingstijden":null}},{"type":"Feature","geometry":{"type":"Point","coordinates":[11.6095032,45.0832811]},"properties":{"type":"pakketpunt","locatieNaam":"Amazon Locker - giovambattista","straatNaam":"ENI Station pv.3402","straatNr":"","vervoerder":"Amazon","puntType":"locker","bezettingsgraad":50,"latitude":45.0832811,"longitude":11.6095032,"canPickup":true,"canDropoff":false,"openingstijden":null}},{"type":"Feature","geometry":{"type":"Point","coordinates":[11.600738,45.083307]},"properties":{"type":"pakketpunt","locatieNaam":"Amazon Counter - PRIMAEDICOLA","straatNaam":"CESTARI TANIA","straatNr":"","vervoerder":"Amazon","puntType":"helix","bezettingsgraad":50,"latitude":45.083307,"longitude":11.600738,"canPickup":true,"canDropoff":false,"openingstijden":null}},{"type":"Feature","geometry":{"type":"Point","coordinates":[11.6009,45.0839]},"properties":{"type":"pakketpunt","locatieNaam":"Ufficio Postale LENDINARA","straatNaam":"PIAZZALE KENNEDY 6","straatNr":"","vervoerder":"Amazon","puntType":"3p","bezettingsgraad":50,"latitude":45.0839,"longitude":11.6009,"canPickup":true,"canDropoff":false,"openingstijden":null}},{"type":"Feature","geometry":{"type":"Point","coordinates":[11.602447,45.08362]},"properties":{"type":"pakketpunt","locatieNaam":"Amazon Counter","straatNaam":"Tipografia Lendinarese (fermopoint)","straatNr":"","vervoerder":"Amazon","puntType":"helix","bezettingsgraad":50,"latitude":45.08362,"longitude":11.602447,"canPickup":true,"canDropoff":false,"openingstijden":null}},{"type":"Feature","geometry":{"type":"Point","coordinates":[11.595,45.0879]},"properties":{"type":"pakketpunt","locatieNaam":"PuntoPoste TABACCHERIA N. 14","straatNaam":"VIA LORENZO CANOZIO 69","straatNr":"","vervoerder":"Amazon","puntType":"3p","bezettingsgraad":50,"latitude":45.0879,"longitude":11.595,"canPickup":true,"canDropoff":false,"openingstijden":null}},{"type":"Feature","geometry":{"type":"Point","coordinates":[11.5613,45.0795]},"properties":{"type":"pakketpunt","locatieNaam":"Ufficio Postale RAMO DI PALO","straatNaam":"VIA RAMO DI PALO CENTRO 11","straatNr":"","vervoerder":"Amazon","puntType":"3p","bezettingsgraad":50,"latitude":45.0795,"longitude":11.5613,"canPickup":true,"canDropoff":false,"openingstijden":null}},{"type":"Feature","geometry":{"type":"Polygon","coordinates":[[[11.5482409,45.0508181],[11.5483604,45.0507576],[11.5487046,45.050182],[11.549392,45.0499336],[11.5507951,45.0496111],[11.5510523,45.0493869],[11.5511904,45.0491096],[11.5515566,45.0486951],[11.552156,45.0481873],[11.5523667,45.0478352],[11.5526694,45.0470133],[11.5532669,45.0462516],[11.5533194,45.0459498],[11.5532261,45.0451234],[11.5533578,45.044272],[11.5538224,45.0437003],[11.5537747,45.0431388],[11.5545562,45.0426149],[11.555128,45.0423348],[11.5561871,45.0419904],[11.556826,45.0419494],[11.5582921,45.0414355],[11.5590172,45.041633],[11.5593733,45.0420125],[11.5604949,45.042228],[11.5608407,45.0427948],[11.5620202,45.0434631],[11.5628394,45.0445004],[11.5639278,45.0450271],[11.5644726,45.0451952],[11.5659829,45.0452482],[11.5669354,45.045053],[11.5703097,45.045271],[11.5709086,45.0451774],[11.5714057,45.0453332],[11.571893,45.0450616],[11.5726365,45.0450382],[11.5779209,45.0451862],[11.5802157,45.0455019],[11.581198,45.0457602],[11.5823311,45.0458907],[11.5830609,45.0461089],[11.5900937,45.0437085],[11.5967592,45.0415682],[11.6008987,45.0403361],[11.6012458,45.0401004],[11.6014707,45.0397432],[11.6018953,45.0394436],[11.6029622,45.0393817],[11.6037238,45.038945],[11.6047125,45.0390104],[11.6056432,45.0389219],[11.6067759,45.0386991],[11.607418,45.0386897],[11.609141,45.0391629],[11.6098194,45.0391473],[11.6115972,45.0394631],[11.6126847,45.0397696],[11.6142135,45.0395067],[11.6147104,45.0396766],[11.6154171,45.0401991],[11.6165247,45.0401478],[11.6179301,45.0403796],[11.6193333,45.0404871],[11.6203596,45.0407328],[11.621395,45.0413355],[11.6225863,45.0418362],[11.6231169,45.0416538],[11.6243171,45.0420943],[11.6257438,45.0421751],[11.6280236,45.0415413],[11.6292674,45.0413323],[11.629797,45.0411664],[11.630538,45.0406816],[11.6314621,45.039872],[11.6321246,45.0395226],[11.6331708,45.0391177],[11.633958,45.0386117],[11.634642,45.038322],[11.6356913,45.0381909],[11.6373388,45.0377453],[11.6376446,45.0376313],[11.6387252,45.0369516],[11.6398193,45.0369731],[11.6399621,45.0370032],[11.6400888,45.0373009],[11.6400852,45.0380426],[11.6402523,45.0381924],[11.6408458,45.0377777],[11.6411539,45.0377172],[11.6412136,45.0379897],[11.6417197,45.0383388],[11.6421002,45.0384169],[11.6440183,45.0380887],[11.6444879,45.0380876],[11.6455314,45.0382865],[11.6458153,45.03843],[11.645997,45.0386479],[11.6461523,45.0391669],[11.6467261,45.0420316],[11.6467534,45.0427025],[11.6466207,45.0429902],[11.6466705,45.0432788],[11.6468563,45.0435073],[11.647634,45.0439135],[11.6478206,45.0441628],[11.6477642,45.0445211],[11.6467905,45.045656],[11.6466775,45.0462122],[11.6469188,45.046698],[11.6468616,45.0471961],[11.646436,45.0474645],[11.6455732,45.0477432],[11.6448363,45.0482207],[11.6446414,45.0484271],[11.644756,45.0493834],[11.6440753,45.0507586],[11.6440442,45.0510065],[11.6442664,45.0513057],[11.6445247,45.0514656],[11.6458626,45.0519725],[11.6460544,45.0521822],[11.6446899,45.0547464],[11.6442429,45.0557002],[11.6442365,45.0559348],[11.6432774,45.0568238],[11.642295,45.0574468],[11.6412599,45.0579222],[11.6402324,45.0581367],[11.6393288,45.0581204],[11.6381734,45.05784],[11.6368381,45.0573543],[11.6354873,45.0566224],[11.6336003,45.0554188],[11.6330621,45.0551892],[11.6325406,45.0551268],[11.6319153,45.0552343],[11.6314041,45.0553996],[11.6303747,45.0560004],[11.6293434,45.0573551],[11.6286903,45.0587197],[11.6283892,45.0590989],[11.6271358,45.0598304],[11.6256253,45.0620443],[11.6278319,45.0627017],[11.629064,45.063478],[11.6292877,45.0639855],[11.6294339,45.06414],[11.6301441,45.0644549],[11.6299704,45.0633387],[11.6300377,45.0625009],[11.6321127,45.0623585],[11.6322935,45.0632654],[11.6318412,45.0634771],[11.6324111,45.0644934],[11.6338752,45.0642584],[11.6349545,45.0642493],[11.6356433,45.0643398],[11.6374915,45.0643484],[11.6374475,45.0647242],[11.6396684,45.064728],[11.6403452,45.0638328],[11.6408136,45.0636089],[11.6423904,45.0632846],[11.6436296,45.063244],[11.6444529,45.0664909],[11.6445658,45.0665277],[11.6461632,45.0694173],[11.6435169,45.0703861],[11.6417636,45.0702882],[11.6407951,45.0707112],[11.6387662,45.0707207],[11.6375063,45.0708184],[11.6362722,45.0710827],[11.6350941,45.0724495],[11.6345347,45.072687],[11.6340851,45.072764],[11.634082,45.0729943],[11.6342778,45.0733803],[11.6353767,45.0745185],[11.6353946,45.074664],[11.6351285,45.0750527],[11.6348237,45.0758092],[11.6343628,45.0761986],[11.6343397,45.0763016],[11.6345255,45.076537],[11.6345964,45.0767966],[11.6344457,45.077514],[11.6352402,45.0814755],[11.6355219,45.0838475],[11.6345164,45.0848646],[11.6343977,45.0851869],[11.6343412,45.0857759],[11.6358998,45.0871505],[11.6341896,45.0874115],[11.6333322,45.087382],[11.6317694,45.0871518],[11.6312294,45.0872135],[11.6305163,45.0875998],[11.6304584,45.0877046],[11.6306175,45.0887414],[11.6311074,45.0894055],[11.6323913,45.0905346],[11.6323444,45.0911817],[11.6321333,45.091433],[11.631543,45.0917672],[11.6292806,45.0923715],[11.6285948,45.093048],[11.6281631,45.0933455],[11.6268199,45.0941566],[11.6263401,45.0943108],[11.6255314,45.094285],[11.6234427,45.0938993],[11.617625,45.0940822],[11.616622,45.0942186],[11.614936,45.0941882],[11.6144775,45.0942085],[11.612953,45.0946626],[11.6112862,45.0948979],[11.6104127,45.09513],[11.6088067,45.0950187],[11.6080357,45.0950561],[11.6073659,45.0953278],[11.6060027,45.0965767],[11.6057241,45.0967261],[11.601693,45.0976315],[11.5999201,45.0981404],[11.5993966,45.0984136],[11.5988945,45.0991083],[11.5987156,45.1008055],[11.598506,45.1009539],[11.5987102,45.1012844],[11.599061,45.1015638],[11.5996928,45.1017793],[11.6002733,45.1017564],[11.6014624,45.1020358],[11.602547,45.1020973],[11.6027806,45.1021782],[11.6024367,45.1029426],[11.6017514,45.1039302],[11.6017906,45.1041975],[11.6009677,45.1057294],[11.6010138,45.1061497],[11.6006885,45.1079193],[11.6007389,45.109029],[11.6017857,45.1094457],[11.6027349,45.1095008],[11.6037041,45.109402],[11.6047205,45.109149],[11.6065858,45.1085318],[11.6071776,45.1084608],[11.6090333,45.1088207],[11.6111003,45.109608],[11.6096576,45.1122525],[11.6091674,45.1128935],[11.6074298,45.1136112],[11.6048938,45.1139128],[11.6039012,45.1141844],[11.6034204,45.114425],[11.6026961,45.1150416],[11.6008313,45.1171036],[11.5998321,45.1175531],[11.5982152,45.1181275],[11.5971691,45.118362],[11.595284,45.1184345],[11.5888027,45.1173208],[11.5853827,45.1166106],[11.584304,45.1165795],[11.583695,45.1168748],[11.5827935,45.1178807],[11.5816717,45.1198606],[11.580639,45.1224675],[11.5798134,45.1230416],[11.5782013,45.1238494],[11.5765759,45.1243679],[11.5756053,45.1245038],[11.574695,45.1245259],[11.5706302,45.1228634],[11.5698677,45.1226516],[11.5698334,45.1208548],[11.570098,45.1204053],[11.5709411,45.1195193],[11.570899,45.1192178],[11.5714111,45.1192063],[11.5717995,45.1189757],[11.572675,45.1188149],[11.5736711,45.1181674],[11.573669,45.1174869],[11.5740336,45.1170452],[11.5742206,45.1164563],[11.5746937,45.1155786],[11.5714016,45.1126586],[11.5702238,45.1113961],[11.5681681,45.1116729],[11.5635921,45.1120238],[11.5635269,45.1116764],[11.561964,45.1107941],[11.56223,45.1098049],[11.5615054,45.1094535],[11.5613219,45.1090326],[11.5616856,45.1077558],[11.5621851,45.1072106],[11.5620219,45.106613],[11.5617492,45.1063127],[11.5620289,45.1052479],[11.5619341,45.1050383],[11.5595934,45.103629],[11.5589892,45.1031688],[11.5609916,45.1023944],[11.5624907,45.101918],[11.5627196,45.1016994],[11.5627848,45.101471],[11.5628102,45.1010567],[11.5626263,45.1008784],[11.5617923,45.1004582],[11.5615845,45.1002693],[11.5618777,45.0994751],[11.5618119,45.0991178],[11.561425,45.0983636],[11.5615178,45.0968307],[11.5613887,45.0961475],[11.5610803,45.0954684],[11.5612053,45.0953248],[11.5583147,45.0943534],[11.5579403,45.0942497],[11.5573942,45.0942284],[11.5561054,45.0950655],[11.5557725,45.095437],[11.555497,45.0959456],[11.5553672,45.0960286],[11.5546658,45.0961542],[11.5541532,45.0960121],[11.5538035,45.0960053],[11.5527126,45.0966705],[11.5522858,45.096782],[11.5518832,45.0965143],[11.5517553,45.0961822],[11.5510257,45.0959582],[11.5503399,45.0960245],[11.5499865,45.0959378],[11.5491296,45.0951633],[11.5472321,45.0947979],[11.5466559,45.0945558],[11.5463342,45.0942572],[11.5460148,45.0942424],[11.5445731,45.094646],[11.5441335,45.0951655],[11.544143,45.0955599],[11.5448807,45.0959857],[11.5445987,45.0966114],[11.5446897,45.097039],[11.5446034,45.0971793],[11.5430588,45.097585],[11.5416516,45.0983081],[11.5400914,45.0980003],[11.5386888,45.0981282],[11.5372219,45.0976421],[11.5349602,45.0974874],[11.5341865,45.0972198],[11.5333554,45.0971053],[11.5328058,45.0971672],[11.5318651,45.097522],[11.5313256,45.0975199],[11.5303767,45.0972236],[11.5278399,45.0959672],[11.5274031,45.095259],[11.5273368,45.0944052],[11.5270828,45.0931187],[11.5269711,45.0930334],[11.5256154,45.0932234],[11.5243307,45.0927275],[11.5234836,45.0927674],[11.5226619,45.0926785],[11.5214264,45.0919339],[11.520892,45.0917054],[11.5189916,45.0912668],[11.5178919,45.0908033],[11.5177479,45.0906398],[11.5177052,45.0902976],[11.5177565,45.0893688],[11.5176843,45.0884195],[11.5169529,45.0878623],[11.5162754,45.0871521],[11.5163221,45.0864153],[11.5186591,45.0857277],[11.5202445,45.0848471],[11.5224126,45.0841259],[11.522777,45.0841048],[11.5234084,45.0842651],[11.5236546,45.0843878],[11.5244564,45.0851228],[11.5255214,45.0855351],[11.5263657,45.0856463],[11.5274742,45.0864192],[11.5279552,45.0866052],[11.5284221,45.086704],[11.5287699,45.0866672],[11.5292871,45.0862771],[11.5300461,45.0852198],[11.5301666,45.0847794],[11.5307948,45.0833948],[11.5313838,45.0831569],[11.5312839,45.082371],[11.5314113,45.081767],[11.5307401,45.0812425],[11.5292124,45.0797536],[11.5285461,45.0785678],[11.5282694,45.0774236],[11.5289019,45.0773567],[11.5284475,45.0769942],[11.5284032,45.0768597],[11.528441,45.0754902],[11.5285751,45.0750859],[11.5284978,45.0742215],[11.5294953,45.0740759],[11.5296289,45.0745334],[11.5309756,45.0742398],[11.5309091,45.0738991],[11.5327287,45.0734509],[11.5325805,45.0728863],[11.5351407,45.0725886],[11.5351902,45.0725215],[11.5346682,45.0712963],[11.5344593,45.0705401],[11.5345441,45.0689544],[11.5348241,45.0683147],[11.5373316,45.0687788],[11.5389149,45.0689198],[11.5402776,45.0689507],[11.5414107,45.0687578],[11.5421628,45.0683406],[11.5434305,45.0668052],[11.5440688,45.065677],[11.5449893,45.0646589],[11.545761,45.0642194],[11.5469187,45.0639168],[11.5473579,45.0638561],[11.5482067,45.0639974],[11.5452343,45.0609182],[11.537893,45.0575357],[11.5390679,45.0562281],[11.5410422,45.0553468],[11.5457588,45.0542224],[11.5491509,45.0540411],[11.549212,45.0522403],[11.5482409,45.0508181]]]},"properties":{"type":"boundary","gemeente":"Lendinara"}}]}