{"type":"FeatureCollection","metadata":{"gemeente":"Lenola","slug":"lenola","generated_at":"2026-09-26T14:27:27.768021Z","total_points":7,"providers":["PosteItaliane","DHL","Amazon"],"bounds":[13.4619,41.3992,13.467426,41.40995]},"features":[{"type":"Feature","geometry":{"type":"Point","coordinates":[13.46198958,41.40692965]},"properties":{"type":"pakketpunt","locatieNaam":"Lenola","straatNaam":"Via Napoli","straatNr":"17","vervoerder":"PosteItaliane","puntType":"postkantoor","bezettingsgraad":50,"latitude":41.40692965,"longitude":13.46198958,"canPickup":true,"canDropoff":true,"openingstijden":{"za":"08:20 - 12:35","zo":"gesloten","ma":"08:20 - 13:35","di":"08:20 - 13:35","wo":"08:20 - 13:35","do":"08:20 - 13:35","vr":"08:20 - 13:35"}}},{"type":"Feature","geometry":{"type":"Point","coordinates":[13.46742578,41.39929978]},"properties":{"type":"pakketpunt","locatieNaam":"Tabaccheria N. 5","straatNaam":"Via San Martino Snc","straatNr":"1","vervoerder":"PosteItaliane","puntType":"servicepunt","bezettingsgraad":50,"latitude":41.39929978,"longitude":13.46742578,"canPickup":true,"canDropoff":true,"openingstijden":{"za":"05:00 - 21:00","zo":"05:00 - 21:00","ma":"05:00 - 21:00","di":"05:00 - 21:00","wo":"05:00 - 21:00","do":"05:00 - 21:00","vr":"05:00 - 21:00"}}},{"type":"Feature","geometry":{"type":"Point","coordinates":[13.467426,41.3993]},"properties":{"type":"pakketpunt","locatieNaam":"TABACCHERIA N. 5","straatNaam":"VIA SAN MARTINO SNC 1","straatNr":"","vervoerder":"DHL","puntType":"parcelShop","bezettingsgraad":50,"latitude":41.3993,"longitude":13.467426,"canPickup":true,"canDropoff":true,"openingstijden":{"ma":"05:00 - 21:00","di":"05:00 - 21:00","wo":"05:00 - 21:00","do":"05:00 - 21:00","vr":"05:00 - 21:00","za":"05:00 - 21:00","zo":"05:00 - 21:00"}}},{"type":"Feature","geometry":{"type":"Point","coordinates":[13.46199,41.40693]},"properties":{"type":"pakketpunt","locatieNaam":"Ufficio Postale LENOLA","straatNaam":"VIA NAPOLI 17","straatNr":"","vervoerder":"DHL","puntType":"postOffice","bezettingsgraad":50,"latitude":41.40693,"longitude":13.46199,"canPickup":true,"canDropoff":true,"openingstijden":{"ma":"08:20 - 13:35","di":"08:20 - 13:35","wo":"08:20 - 13:35","do":"08:20 - 13:35","vr":"08:20 - 13:35","za":"08:20 - 12:35","zo":"gesloten"}}},{"type":"Feature","geometry":{"type":"Point","coordinates":[13.46302,41.40995]},"properties":{"type":"pakketpunt","locatieNaam":"Amazon Counter - PRIMAEDICOLA","straatNaam":"TOTOEDICOLA DI PANNONE SALVATO","straatNr":"","vervoerder":"Amazon","puntType":"helix","bezettingsgraad":50,"latitude":41.40995,"longitude":13.46302,"canPickup":true,"canDropoff":false,"openingstijden":null}},{"type":"Feature","geometry":{"type":"Point","coordinates":[13.4619,41.4069]},"properties":{"type":"pakketpunt","locatieNaam":"Ufficio Postale LENOLA","straatNaam":"VIA NAPOLI 17","straatNr":"","vervoerder":"Amazon","puntType":"3p","bezettingsgraad":50,"latitude":41.4069,"longitude":13.4619,"canPickup":true,"canDropoff":false,"openingstijden":null}},{"type":"Feature","geometry":{"type":"Point","coordinates":[13.4674,41.3992]},"properties":{"type":"pakketpunt","locatieNaam":"PuntoPoste TABACCHERIA N. 5","straatNaam":"VIA SAN MARTINO SNC 1","straatNr":"","vervoerder":"Amazon","puntType":"3p","bezettingsgraad":50,"latitude":41.3992,"longitude":13.4674,"canPickup":true,"canDropoff":false,"openingstijden":null}},{"type":"Feature","geometry":{"type":"Polygon","coordinates":[[[13.42729,41.3972875],[13.4274955,41.3981569],[13.4282524,41.4000005],[13.4285167,41.4009628],[13.427943,41.4034295],[13.4283985,41.4043349],[13.4301439,41.4069283],[13.4305871,41.4078611],[13.4307505,41.4085481],[13.4308085,41.4102117],[13.4317184,41.4105773],[13.4324393,41.4109771],[13.4343878,41.4125181],[13.4346197,41.4133105],[13.4349902,41.4158399],[13.4352876,41.4164092],[13.4356726,41.416858],[13.4357324,41.4173509],[13.435408,41.4194029],[13.4359037,41.4206533],[13.4373152,41.4226697],[13.4380357,41.424069],[13.4384995,41.4251901],[13.4387964,41.4267904],[13.4384235,41.428295],[13.4364008,41.4323485],[13.4354261,41.4340654],[13.4343151,41.4354724],[13.4335308,41.4367138],[13.4334293,41.4379558],[13.4336255,41.4392763],[13.434073,41.4410553],[13.4337973,41.4420789],[13.4329478,41.4435614],[13.4320808,41.4447654],[13.4309153,41.4474171],[13.4278719,41.4505014],[13.4277377,41.4511008],[13.4280577,41.4517368],[13.4284026,41.4528129],[13.4282964,41.4562161],[13.4289037,41.4568725],[13.4299568,41.4573631],[13.4308848,41.4581151],[13.4320013,41.4584727],[13.4337321,41.458721],[13.4352173,41.4591949],[13.4361327,41.4599699],[13.4367435,41.4609593],[13.4376226,41.4617492],[13.4403452,41.4625398],[13.4431176,41.4637966],[13.4449709,41.4648819],[13.4453399,41.4649937],[13.4464881,41.4640398],[13.4475929,41.4634028],[13.4491935,41.4620757],[13.4505324,41.4611407],[13.4521447,41.4606557],[13.4525221,41.4585431],[13.4534879,41.4556738],[13.4539685,41.4546197],[13.4541251,41.4535647],[13.4540012,41.4527186],[13.4543697,41.4518309],[13.4548411,41.4501198],[13.4556493,41.4493727],[13.4582361,41.4483088],[13.4616695,41.4474191],[13.4632612,41.446898],[13.464593,41.4462835],[13.4670214,41.4448024],[13.4697844,41.4439025],[13.472219,41.4432089],[13.4731904,41.4431215],[13.4769845,41.4446844],[13.4775279,41.4444741],[13.4781452,41.4436532],[13.478646,41.4427153],[13.4813522,41.4406153],[13.4844974,41.4387142],[13.4866372,41.4372439],[13.4882622,41.4363655],[13.4879711,41.4339684],[13.4893276,41.434262],[13.4921458,41.4355789],[13.4946392,41.4364582],[13.4955571,41.4366249],[13.4967288,41.436678],[13.5023036,41.4357572],[13.5052762,41.4350779],[13.507436,41.4343043],[13.5096624,41.4332399],[13.512487,41.432188],[13.5118797,41.4315501],[13.5115127,41.4310023],[13.5115096,41.428877],[13.511588,41.428068],[13.5121384,41.4280689],[13.5119326,41.4260826],[13.51194,41.4252089],[13.5114987,41.4236243],[13.5097226,41.4238014],[13.5097581,41.4233543],[13.5092833,41.4225986],[13.5085854,41.4222478],[13.507135,41.42185],[13.5046491,41.4206736],[13.5032145,41.4206308],[13.5029568,41.4203753],[13.5031215,41.4199681],[13.5026898,41.4194673],[13.5017012,41.4187723],[13.5005083,41.4175765],[13.4996742,41.4168979],[13.4989204,41.4163646],[13.497857,41.415776],[13.4969651,41.4150186],[13.4958816,41.4137599],[13.4954125,41.4127699],[13.4954109,41.4118695],[13.4949293,41.4114877],[13.4937583,41.4114075],[13.4931216,41.4110407],[13.4927441,41.4102406],[13.4925753,41.4092568],[13.4927502,41.4074041],[13.493048,41.406456],[13.4937077,41.404796],[13.4949051,41.4026962],[13.4955277,41.4011366],[13.4958195,41.3998421],[13.4959559,41.3986573],[13.4959046,41.3977094],[13.4962297,41.3966161],[13.4971026,41.3956095],[13.4994482,41.3934422],[13.5007706,41.3921073],[13.5017069,41.3909496],[13.5019498,41.389729],[13.5023331,41.3892098],[13.5036216,41.3888126],[13.5044834,41.3882656],[13.5040809,41.3870163],[13.5038802,41.3858536],[13.5039748,41.384855],[13.5048196,41.3829265],[13.5048266,41.3821429],[13.5051453,41.381284],[13.5056813,41.3803265],[13.5060024,41.3788553],[13.5020545,41.3778936],[13.5005779,41.3776408],[13.4983433,41.3770351],[13.495297,41.3757858],[13.4944174,41.3756311],[13.493215,41.3768937],[13.4921725,41.3775738],[13.4914764,41.3781503],[13.4912468,41.3787985],[13.4911972,41.3794197],[13.491286,41.3801216],[13.4906544,41.380663],[13.4891695,41.3811237],[13.485946,41.381959],[13.4853608,41.3819234],[13.4839205,41.3807011],[13.4809984,41.3787802],[13.4793195,41.3774861],[13.4769285,41.3758415],[13.4764515,41.3758466],[13.4701592,41.3779691],[13.4662663,41.3782601],[13.4648975,41.3785204],[13.4598583,41.3791259],[13.4583187,41.3790641],[13.4541842,41.3784232],[13.4510562,41.3772254],[13.4483089,41.3765125],[13.4471672,41.3763361],[13.446072,41.3760408],[13.4446798,41.3753023],[13.4439413,41.3747277],[13.4430819,41.3746258],[13.4423992,41.374157],[13.4414255,41.3733213],[13.4404008,41.3726676],[13.4390327,41.3728736],[13.4377315,41.3733695],[13.4358913,41.3742465],[13.4356601,41.37503],[13.4359487,41.3763287],[13.4359697,41.3775007],[13.4355066,41.3803932],[13.4352262,41.3815971],[13.4346686,41.3829332],[13.4344643,41.3839686],[13.4345559,41.3850535],[13.4349258,41.3861137],[13.4348787,41.3865898],[13.4340689,41.3879762],[13.4327926,41.3898218],[13.4319423,41.3908765],[13.4313262,41.3915306],[13.4298874,41.3922524],[13.4291398,41.3930061],[13.4285109,41.3937912],[13.4278087,41.3956191],[13.4273166,41.3966375],[13.42729,41.3972875]]]},"properties":{"type":"boundary","gemeente":"Lenola"}}]}