{"type":"FeatureCollection","metadata":{"gemeente":"Lettomanoppello","slug":"lettomanoppello","generated_at":"2026-09-26T14:27:28.023521Z","total_points":4,"providers":["PosteItaliane","DHL"],"bounds":[14.037007,42.23643977,14.03911432,42.239527]},"features":[{"type":"Feature","geometry":{"type":"Point","coordinates":[14.03911432,42.2395267]},"properties":{"type":"pakketpunt","locatieNaam":"Lettomanoppello","straatNaam":"Via Guglielmo Marconi","straatNr":"18","vervoerder":"PosteItaliane","puntType":"postkantoor","bezettingsgraad":50,"latitude":42.2395267,"longitude":14.03911432,"canPickup":true,"canDropoff":true,"openingstijden":{"za":"08:20 - 12:35","zo":"gesloten","ma":"08:20 - 13:35","di":"08:20 - 13:35","wo":"08:20 - 13:35","do":"08:20 - 13:35","vr":"08:20 - 13:35"}}},{"type":"Feature","geometry":{"type":"Point","coordinates":[14.03700713,42.23643977]},"properties":{"type":"pakketpunt","locatieNaam":"Tabaccheria N. 2","straatNaam":"Piazza Umberto I","straatNr":"7","vervoerder":"PosteItaliane","puntType":"servicepunt","bezettingsgraad":50,"latitude":42.23643977,"longitude":14.03700713,"canPickup":true,"canDropoff":true,"openingstijden":{"za":"08:30 - 12:30, 16:00 - 19:30","zo":"08:30 - 12:30","ma":"08:30 - 12:30, 16:00 - 19:30","di":"08:30 - 12:30, 16:00 - 19:30","wo":"08:30 - 12:30, 16:00 - 19:30","do":"gesloten","vr":"08:30 - 12:30, 16:00 - 19:30"}}},{"type":"Feature","geometry":{"type":"Point","coordinates":[14.037007,42.23644]},"properties":{"type":"pakketpunt","locatieNaam":"TABACCHERIA N. 2","straatNaam":"PIAZZA UMBERTO I 7","straatNr":"","vervoerder":"DHL","puntType":"parcelShop","bezettingsgraad":50,"latitude":42.23644,"longitude":14.037007,"canPickup":true,"canDropoff":true,"openingstijden":{"ma":"08:30 - 12:30, 16:00 - 19:30","di":"08:30 - 12:30, 16:00 - 19:30","wo":"08:30 - 12:30, 16:00 - 19:30","do":"gesloten","vr":"08:30 - 12:30, 16:00 - 19:30","za":"08:30 - 12:30, 16:00 - 19:30","zo":"08:30 - 12:30"}}},{"type":"Feature","geometry":{"type":"Point","coordinates":[14.039114,42.239527]},"properties":{"type":"pakketpunt","locatieNaam":"Ufficio Postale LETTOMANOPPELLO","straatNaam":"VIA GUGLIELMO MARCONI 18","straatNr":"","vervoerder":"DHL","puntType":"postOffice","bezettingsgraad":50,"latitude":42.239527,"longitude":14.039114,"canPickup":true,"canDropoff":true,"openingstijden":{"ma":"08:20 - 13:35","di":"08:20 - 13:35","wo":"08:20 - 13:35","do":"08:20 - 13:35","vr":"08:20 - 13:35","za":"08:20 - 12:35","zo":"gesloten"}}},{"type":"Feature","geometry":{"type":"Polygon","coordinates":[[[14.0126698,42.2543258],[14.0216378,42.2546593],[14.0227991,42.2548244],[14.0275706,42.2565638],[14.0354171,42.2596848],[14.0423113,42.2599212],[14.0451211,42.2585055],[14.0503602,42.2527287],[14.0499064,42.2490531],[14.0494522,42.2477858],[14.0490744,42.246263],[14.0495475,42.2438159],[14.0510951,42.2408397],[14.0514788,42.2403457],[14.0601612,42.2302526],[14.0645687,42.2255067],[14.0778449,42.2141558],[14.0823755,42.2099528],[14.092319,42.1999724],[14.0996429,42.1916608],[14.1016918,42.1901537],[14.0969725,42.1868885],[14.0919164,42.1925451],[14.0883013,42.1963385],[14.0873593,42.1969791],[14.0862302,42.1972498],[14.0739302,42.2018156],[14.0528266,42.2102713],[14.043294,42.2148916],[14.0413914,42.2173252],[14.0412857,42.2179825],[14.0413061,42.2186748],[14.0414946,42.2193687],[14.0414115,42.2201016],[14.0388223,42.2261935],[14.0382795,42.2268295],[14.036282,42.2283534],[14.0328058,42.2305905],[14.0321966,42.2307749],[14.0311486,42.2396966],[14.0308438,42.2406745],[14.0302321,42.2413058],[14.0267778,42.2437905],[14.0258263,42.244378],[14.0248569,42.2446206],[14.0234245,42.2447447],[14.02202,42.2450168],[14.0208745,42.245472],[14.0189863,42.2466917],[14.0141387,42.2512165],[14.013716,42.2516977],[14.0126698,42.2543258]]]},"properties":{"type":"boundary","gemeente":"Lettomanoppello"}}]}