{"type":"FeatureCollection","metadata":{"gemeente":"Lòcula/Loculi","slug":"locula-loculi","generated_at":"2026-09-26T13:10:06.680445Z","total_points":6,"providers":["PosteItaliane","DPD","GLS","DHL","Amazon"],"bounds":[9.61036116,40.40541762,9.61207826,40.407828]},"features":[{"type":"Feature","geometry":{"type":"Point","coordinates":[9.61036116,40.40541762]},"properties":{"type":"pakketpunt","locatieNaam":"Loculi","straatNaam":"Via Carmine Angioi","straatNr":"40","vervoerder":"PosteItaliane","puntType":"postkantoor","bezettingsgraad":50,"latitude":40.40541762,"longitude":9.61036116,"canPickup":true,"canDropoff":true,"openingstijden":{"za":"08:20 - 12:45","zo":"gesloten","ma":"gesloten","di":"gesloten","wo":"gesloten","do":"08:20 - 13:45","vr":"gesloten"}}},{"type":"Feature","geometry":{"type":"Point","coordinates":[9.61207826,40.40771481]},"properties":{"type":"pakketpunt","locatieNaam":"Tabaccheria N. 1","straatNaam":"Via San Pietro","straatNr":"2","vervoerder":"PosteItaliane","puntType":"servicepunt","bezettingsgraad":50,"latitude":40.40771481,"longitude":9.61207826,"canPickup":true,"canDropoff":true,"openingstijden":{"za":"07:00 - 13:00, 16:00 - 19:30","zo":"gesloten","ma":"07:00 - 13:00, 16:00 - 19:30","di":"07:00 - 13:00, 16:00 - 19:30","wo":"07:00 - 13:00, 16:00 - 19:30","do":"07:00 - 13:00, 16:00 - 19:30","vr":"07:00 - 13:00, 16:00 - 19:30"}}},{"type":"Feature","geometry":{"type":"Point","coordinates":[9.6117713,40.4077925]},"properties":{"type":"pakketpunt","locatieNaam":"Rivendita Tabacchi n. 1","straatNaam":"VIA SAN PIETRO","straatNr":"4","vervoerder":"DPD","puntType":"pickup_point","bezettingsgraad":50,"latitude":40.4077925,"longitude":9.6117713,"canPickup":true,"canDropoff":true,"openingstijden":{"ma":"07:00 - 13:00, 15:30 - 19:30","di":"07:00 - 13:00, 15:30 - 19:30","wo":"07:00 - 13:00, 15:30 - 19:30","do":"07:00 - 13:00, 15:30 - 19:30","vr":"07:00 - 13:00, 15:30 - 19:30","za":"07:00 - 13:00, 15:30 - 19:30","zo":"gesloten"}}},{"type":"Feature","geometry":{"type":"Point","coordinates":[9.6112711,40.407828]},"properties":{"type":"pakketpunt","locatieNaam":"Rivendita tabacchi n1","straatNaam":"Via San Pietro","straatNr":"4","vervoerder":"GLS","puntType":"parcel_shop","bezettingsgraad":50,"latitude":40.407828,"longitude":9.6112711,"canPickup":true,"canDropoff":true,"openingstijden":"za: 08:00 - 13:00, 16:00 - 19:30; ma: 08:00 - 13:00, 16:00 - 19:30"}},{"type":"Feature","geometry":{"type":"Point","coordinates":[9.612078,40.407715]},"properties":{"type":"pakketpunt","locatieNaam":"TABACCHERIA N. 1","straatNaam":"VIA SAN PIETRO 2","straatNr":"","vervoerder":"DHL","puntType":"parcelShop","bezettingsgraad":50,"latitude":40.407715,"longitude":9.612078,"canPickup":true,"canDropoff":true,"openingstijden":{"ma":"07:00 - 13:00, 16:00 - 19:30","di":"07:00 - 13:00, 16:00 - 19:30","wo":"07:00 - 13:00, 16:00 - 19:30","do":"07:00 - 13:00, 16:00 - 19:30","vr":"07:00 - 13:00, 16:00 - 19:30","za":"07:00 - 13:00, 16:00 - 19:30","zo":"gesloten"}}},{"type":"Feature","geometry":{"type":"Point","coordinates":[9.6117713,40.4077925]},"properties":{"type":"pakketpunt","locatieNaam":"Amazon Counter (fermopoint)","straatNaam":"Rivendita Tabacchi n. 1","straatNr":"","vervoerder":"Amazon","puntType":"helix","bezettingsgraad":50,"latitude":40.4077925,"longitude":9.6117713,"canPickup":true,"canDropoff":false,"openingstijden":null}},{"type":"Feature","geometry":{"type":"Polygon","coordinates":[[[9.5301841,40.4297879],[9.5304645,40.4294713],[9.5308865,40.429163],[9.5316264,40.4288083],[9.532568,40.4286147],[9.5436167,40.4215904],[9.5505561,40.4173503],[9.561023,40.4097324],[9.5655222,40.4065664],[9.5692447,40.4035841],[9.5768449,40.3979519],[9.5778811,40.3978656],[9.5791266,40.397445],[9.5805515,40.3973387],[9.5827397,40.3969313],[9.5841612,40.3964377],[9.5853735,40.3962784],[9.5903337,40.3962081],[9.5908966,40.3959079],[9.5928267,40.3942945],[9.5940824,40.3937114],[9.5951522,40.3934357],[9.5978508,40.3934758],[9.59858,40.3933189],[9.5992129,40.3929462],[9.6019738,40.3907157],[9.6028872,40.3900893],[9.6037556,40.3896974],[9.6042496,40.3895957],[9.6056283,40.3896245],[9.6086869,40.3904012],[9.609952,40.3908901],[9.6103192,40.3911043],[9.6121968,40.3928692],[9.6135598,40.3937449],[9.6141295,40.3942013],[9.6170171,40.3955733],[9.6176551,40.3957591],[9.6179046,40.395992],[9.6179193,40.3963072],[9.6170914,40.3972576],[9.6170501,40.3978975],[9.6172409,40.3981487],[9.6176198,40.3983449],[9.6187278,40.398384],[9.6192007,40.3985526],[9.6193454,40.3989122],[9.619424,40.3997767],[9.6195441,40.4000193],[9.6198304,40.4004051],[9.6201858,40.4006104],[9.6207639,40.4006794],[9.6213327,40.402307],[9.6215123,40.4039006],[9.6214643,40.405081],[9.6212438,40.4067399],[9.6206189,40.4092747],[9.6202744,40.4102586],[9.620223,40.4110787],[9.6204011,40.4125101],[9.6201178,40.4137459],[9.6203139,40.4145647],[9.620553,40.4149237],[9.6206262,40.4151936],[9.6204299,40.4156451],[9.6201384,40.415989],[9.6200478,40.4163859],[9.6201103,40.416773],[9.6198665,40.4171797],[9.6192655,40.4173541],[9.6184223,40.417791],[9.617126,40.417825],[9.6165895,40.4184494],[9.616032,40.4193623],[9.6150636,40.4204486],[9.6142216,40.4211828],[9.6129958,40.4224956],[9.611933,40.4248886],[9.610182,40.428105],[9.6093036,40.4313529],[9.608984,40.433823],[9.6086857,40.4347435],[9.6025559,40.4414603],[9.601638,40.4429786],[9.6013288,40.4440072],[9.6008069,40.4476405],[9.6000853,40.4513649],[9.5990789,40.4575503],[9.5984905,40.4590308],[9.5964172,40.4619784],[9.5950678,40.4641025],[9.5930383,40.4667075],[9.5911901,40.469816],[9.5898932,40.4712461],[9.5890493,40.471863],[9.5886381,40.4720542],[9.5828901,40.4744347],[9.5826687,40.4747511],[9.5789822,40.4713283],[9.5778073,40.4705053],[9.5770366,40.4696984],[9.5633854,40.456982],[9.5576701,40.4518476],[9.5506393,40.4458003],[9.5375517,40.4356367],[9.5306015,40.4303986],[9.5301841,40.4297879]]]},"properties":{"type":"boundary","gemeente":"Lòcula/Loculi"}}]}