{"type":"FeatureCollection","metadata":{"gemeente":"Lonato del Garda","slug":"lonato-del-garda","generated_at":"2026-09-26T14:27:28.858893Z","total_points":33,"providers":["PosteItaliane","DPD","InPost","DHL","Amazon","FedEx"],"bounds":[10.46642,45.4278757,10.54577536,45.476546]},"features":[{"type":"Feature","geometry":{"type":"Point","coordinates":[10.48438666,45.46212528]},"properties":{"type":"pakketpunt","locatieNaam":"Lonato","straatNaam":"Via Repubblica","straatNr":"50/c","vervoerder":"PosteItaliane","puntType":"postkantoor","bezettingsgraad":50,"latitude":45.46212528,"longitude":10.48438666,"canPickup":true,"canDropoff":true,"openingstijden":{"za":"08:20 - 12:35","zo":"gesloten","ma":"08:20 - 13:35","di":"08:20 - 13:35","wo":"08:20 - 13:35","do":"08:20 - 13:35","vr":"08:20 - 13:35"}}},{"type":"Feature","geometry":{"type":"Point","coordinates":[10.54577536,45.43108341]},"properties":{"type":"pakketpunt","locatieNaam":"Centenaro","straatNaam":"Via Centenaro","straatNr":"26","vervoerder":"PosteItaliane","puntType":"postkantoor","bezettingsgraad":50,"latitude":45.43108341,"longitude":10.54577536,"canPickup":true,"canDropoff":true,"openingstijden":{"za":"08:20 - 12:45","zo":"gesloten","ma":"08:20 - 13:45","di":"08:20 - 13:45","wo":"08:20 - 13:45","do":"08:20 - 13:45","vr":"08:20 - 13:45"}}},{"type":"Feature","geometry":{"type":"Point","coordinates":[10.48275414,45.45575939]},"properties":{"type":"pakketpunt","locatieNaam":"Tabaccheria N. 12","straatNaam":"Via Rassica","straatNr":"2","vervoerder":"PosteItaliane","puntType":"servicepunt","bezettingsgraad":50,"latitude":45.45575939,"longitude":10.48275414,"canPickup":true,"canDropoff":true,"openingstijden":{"za":"06:00 - 21:00","zo":"gesloten","ma":"06:00 - 21:00","di":"06:00 - 21:00","wo":"06:00 - 21:00","do":"06:00 - 21:00","vr":"06:00 - 21:00"}}},{"type":"Feature","geometry":{"type":"Point","coordinates":[10.51287145,45.43079219]},"properties":{"type":"pakketpunt","locatieNaam":"Centro Commerciale Il Leone","straatNaam":"Via Mantova","straatNr":"36","vervoerder":"PosteItaliane","puntType":"automaat","bezettingsgraad":50,"latitude":45.43079219,"longitude":10.51287145,"canPickup":true,"canDropoff":true,"openingstijden":{"za":"09:00 - 22:00","zo":"09:00 - 22:00","ma":"09:00 - 22:00","di":"09:00 - 22:00","wo":"09:00 - 22:00","do":"09:00 - 22:00","vr":"09:00 - 22:00"}}},{"type":"Feature","geometry":{"type":"Point","coordinates":[10.4668801,45.46490831]},"properties":{"type":"pakketpunt","locatieNaam":"Stazione Di Servizio Ip","straatNaam":"Via Molini","straatNr":"26","vervoerder":"PosteItaliane","puntType":"automaat","bezettingsgraad":50,"latitude":45.46490831,"longitude":10.4668801,"canPickup":true,"canDropoff":true,"openingstijden":{"za":"00:01 - 23:59","zo":"00:01 - 23:59","ma":"00:01 - 23:59","di":"00:01 - 23:59","wo":"00:01 - 23:59","do":"00:01 - 23:59","vr":"00:01 - 23:59"}}},{"type":"Feature","geometry":{"type":"Point","coordinates":[10.48484197,45.46111129]},"properties":{"type":"pakketpunt","locatieNaam":"Tabaccheria N. 3","straatNaam":"Piazza Martiri Della Liberta'","straatNr":"20","vervoerder":"PosteItaliane","puntType":"servicepunt","bezettingsgraad":50,"latitude":45.46111129,"longitude":10.48484197,"canPickup":true,"canDropoff":true,"openingstijden":{"za":"08:00 - 12:00, 15:15 - 19:00","zo":"gesloten","ma":"08:00 - 12:00, 15:15 - 19:00","di":"08:00 - 12:00, 15:15 - 19:00","wo":"08:00 - 12:00, 15:15 - 19:00","do":"08:00 - 12:00, 15:15 - 19:00","vr":"08:00 - 12:00, 15:15 - 19:00"}}},{"type":"Feature","geometry":{"type":"Point","coordinates":[10.4848378773,45.4611200733]},"properties":{"type":"pakketpunt","locatieNaam":"Tabaccheria della Piazza","straatNaam":"P.ZA M.DELLA LIBERTA","straatNr":"19/20","vervoerder":"DPD","puntType":"pickup_point","bezettingsgraad":50,"latitude":45.4611200733,"longitude":10.4848378773,"canPickup":true,"canDropoff":true,"openingstijden":{"ma":"08:00 - 12:15, 15:00 - 19:00","di":"08:00 - 12:15, 15:00 - 19:00","wo":"08:00 - 12:15, 15:00 - 19:00","do":"08:00 - 12:15, 15:00 - 19:00","vr":"08:00 - 12:15, 15:00 - 19:00","za":"08:00 - 12:15, 15:00 - 19:00","zo":"gesloten"}}},{"type":"Feature","geometry":{"type":"Point","coordinates":[10.49121243,45.46031243]},"properties":{"type":"pakketpunt","locatieNaam":"CellularStore-Lonato del Garda","straatNaam":"VIA CESARE BATTISTI","straatNr":"2M","vervoerder":"DPD","puntType":"pickup_point","bezettingsgraad":50,"latitude":45.46031243,"longitude":10.49121243,"canPickup":true,"canDropoff":true,"openingstijden":{"ma":"09:15 - 20:00","di":"09:15 - 20:00","wo":"09:15 - 20:00","do":"11:00 - 20:00","vr":"09:15 - 20:00","za":"09:15 - 20:00","zo":"gesloten"}}},{"type":"Feature","geometry":{"type":"Point","coordinates":[10.481043,45.4677323]},"properties":{"type":"pakketpunt","locatieNaam":"La Nuova Tabaccheria","straatNaam":"VIA G. ZANARDELLI","straatNr":"4","vervoerder":"DPD","puntType":"pickup_point","bezettingsgraad":50,"latitude":45.4677323,"longitude":10.481043,"canPickup":true,"canDropoff":true,"openingstijden":{"ma":"09:00 - 12:30, 15:30 - 19:30","di":"09:00 - 12:30, 15:30 - 19:30","wo":"09:00 - 12:30, 15:30 - 19:30","do":"09:00 - 12:30, 15:30 - 19:30","vr":"09:00 - 12:30, 15:30 - 19:30","za":"09:00 - 12:30, 15:30 - 19:30","zo":"09:00 - 12:30, 15:30 - 19:30"}}},{"type":"Feature","geometry":{"type":"Point","coordinates":[10.490716,45.4760104]},"properties":{"type":"pakketpunt","locatieNaam":"Cantarane Point-Borgo Celestino","straatNaam":"VIA PREDESCHERA","straatNr":"5B","vervoerder":"DPD","puntType":"pickup_point","bezettingsgraad":50,"latitude":45.4760104,"longitude":10.490716,"canPickup":true,"canDropoff":true,"openingstijden":{"ma":"08:00 - 20:00","di":"08:00 - 20:00","wo":"08:00 - 20:00","do":"08:00 - 16:00","vr":"08:00 - 20:00","za":"08:00 - 20:00","zo":"gesloten"}}},{"type":"Feature","geometry":{"type":"Point","coordinates":[10.48163,45.46206]},"properties":{"type":"pakketpunt","locatieNaam":"InPost Point","straatNaam":"Via della Repubblica","straatNr":"51/A","vervoerder":"InPost","puntType":"servicepunt","bezettingsgraad":50,"latitude":45.46206,"longitude":10.48163,"canPickup":true,"canDropoff":true,"openingstijden":"Lun-Gio: 08:30 - 12:30 - 15:00 - 18:00 Ven: 08:30 - 15:30"}},{"type":"Feature","geometry":{"type":"Point","coordinates":[10.49261,45.46009]},"properties":{"type":"pakketpunt","locatieNaam":"InPost Point","straatNaam":"Via Cesare Battisti","straatNr":"2","vervoerder":"InPost","puntType":"servicepunt","bezettingsgraad":50,"latitude":45.46009,"longitude":10.49261,"canPickup":true,"canDropoff":true,"openingstijden":"Lun-Sab: 09:00 - 12:30 - 15:00 - 19:00"}},{"type":"Feature","geometry":{"type":"Point","coordinates":[10.518,45.43177]},"properties":{"type":"pakketpunt","locatieNaam":"InPost Locker 24/7","straatNaam":"Via Battaglie","straatNr":"2B","vervoerder":"InPost","puntType":"automaat","bezettingsgraad":50,"latitude":45.43177,"longitude":10.518,"canPickup":true,"canDropoff":true,"openingstijden":null}},{"type":"Feature","geometry":{"type":"Point","coordinates":[10.47174,45.44989]},"properties":{"type":"pakketpunt","locatieNaam":"InPost Locker 24/7","straatNaam":"Via Trivellino","straatNr":"2","vervoerder":"InPost","puntType":"automaat","bezettingsgraad":50,"latitude":45.44989,"longitude":10.47174,"canPickup":true,"canDropoff":true,"openingstijden":null}},{"type":"Feature","geometry":{"type":"Point","coordinates":[10.46642,45.46508]},"properties":{"type":"pakketpunt","locatieNaam":"InPost Locker 24/7","straatNaam":"Via Molini","straatNr":"26","vervoerder":"InPost","puntType":"automaat","bezettingsgraad":50,"latitude":45.46508,"longitude":10.46642,"canPickup":true,"canDropoff":true,"openingstijden":null}},{"type":"Feature","geometry":{"type":"Point","coordinates":[10.51428,45.43088]},"properties":{"type":"pakketpunt","locatieNaam":"vicino al negozio LOVABLE nel corridoio di accesso ai servizi igienici","straatNaam":"Via Mantova","straatNr":"36","vervoerder":"InPost","puntType":"automaat","bezettingsgraad":50,"latitude":45.43088,"longitude":10.51428,"canPickup":true,"canDropoff":true,"openingstijden":null}},{"type":"Feature","geometry":{"type":"Point","coordinates":[10.482754,45.455759]},"properties":{"type":"pakketpunt","locatieNaam":"TABACCHERIA N. 12","straatNaam":"VIA RASSICA 2","straatNr":"","vervoerder":"DHL","puntType":"parcelShop","bezettingsgraad":50,"latitude":45.455759,"longitude":10.482754,"canPickup":true,"canDropoff":true,"openingstijden":{"ma":"06:00 - 21:00","di":"06:00 - 21:00","wo":"06:00 - 21:00","do":"06:00 - 21:00","vr":"06:00 - 21:00","za":"06:00 - 21:00","zo":"gesloten"}}},{"type":"Feature","geometry":{"type":"Point","coordinates":[10.484842,45.461111]},"properties":{"type":"pakketpunt","locatieNaam":"TABACCHERIA N. 3","straatNaam":"PIAZZA MARTIRI DELLA LIBERTA 20","straatNr":"","vervoerder":"DHL","puntType":"parcelShop","bezettingsgraad":50,"latitude":45.461111,"longitude":10.484842,"canPickup":true,"canDropoff":true,"openingstijden":{"ma":"08:00 - 12:00, 15:15 - 19:00","di":"08:00 - 12:00, 15:15 - 19:00","wo":"08:00 - 12:00, 15:15 - 19:00","do":"08:00 - 12:00, 15:15 - 19:00","vr":"08:00 - 12:00, 15:15 - 19:00","za":"08:00 - 12:00, 15:15 - 19:00","zo":"gesloten"}}},{"type":"Feature","geometry":{"type":"Point","coordinates":[10.484387,45.462125]},"properties":{"type":"pakketpunt","locatieNaam":"Ufficio Postale LONATO","straatNaam":"VIA REPUBBLICA 50-C","straatNr":"","vervoerder":"DHL","puntType":"postOffice","bezettingsgraad":50,"latitude":45.462125,"longitude":10.484387,"canPickup":true,"canDropoff":true,"openingstijden":{"ma":"08:20 - 13:35","di":"08:20 - 13:35","wo":"08:20 - 13:35","do":"08:20 - 13:35","vr":"08:20 - 13:35","za":"08:20 - 12:35","zo":"gesloten"}}},{"type":"Feature","geometry":{"type":"Point","coordinates":[10.512871,45.430792]},"properties":{"type":"pakketpunt","locatieNaam":"CENTRO COMMERCIALE IL LEONE","straatNaam":"VIA MANTOVA 36","straatNr":"","vervoerder":"DHL","puntType":"packStation","bezettingsgraad":50,"latitude":45.430792,"longitude":10.512871,"canPickup":true,"canDropoff":true,"openingstijden":{"ma":"09:00 - 22:00","di":"09:00 - 22:00","wo":"09:00 - 22:00","do":"09:00 - 22:00","vr":"09:00 - 22:00","za":"09:00 - 22:00","zo":"09:00 - 22:00"}}},{"type":"Feature","geometry":{"type":"Point","coordinates":[10.545775,45.431083]},"properties":{"type":"pakketpunt","locatieNaam":"Ufficio Postale CENTENARO","straatNaam":"VIA CENTENARO 26","straatNr":"","vervoerder":"DHL","puntType":"postOffice","bezettingsgraad":50,"latitude":45.431083,"longitude":10.545775,"canPickup":true,"canDropoff":true,"openingstijden":{"ma":"08:20 - 13:45","di":"08:20 - 13:45","wo":"08:20 - 13:45","do":"08:20 - 13:45","vr":"08:20 - 13:45","za":"08:20 - 12:45","zo":"gesloten"}}},{"type":"Feature","geometry":{"type":"Point","coordinates":[10.471259,45.46365]},"properties":{"type":"pakketpunt","locatieNaam":"Amazon Locker - festuca","straatNaam":"Stazione Tamoil - PV 4223","straatNr":"","vervoerder":"Amazon","puntType":"locker","bezettingsgraad":50,"latitude":45.46365,"longitude":10.471259,"canPickup":true,"canDropoff":false,"openingstijden":null}},{"type":"Feature","geometry":{"type":"Point","coordinates":[10.490533,45.457245]},"properties":{"type":"pakketpunt","locatieNaam":"Amazon Locker - cima","straatNaam":"PENNY MARKET - Lonato","straatNr":"","vervoerder":"Amazon","puntType":"locker","bezettingsgraad":50,"latitude":45.457245,"longitude":10.490533,"canPickup":true,"canDropoff":false,"openingstijden":null}},{"type":"Feature","geometry":{"type":"Point","coordinates":[10.482774,45.455743]},"properties":{"type":"pakketpunt","locatieNaam":"Amazon Counter - MOLINO LEVADORE","straatNaam":"VIA RASSICA 2","straatNr":"","vervoerder":"Amazon","puntType":"helix","bezettingsgraad":50,"latitude":45.455743,"longitude":10.482774,"canPickup":true,"canDropoff":false,"openingstijden":null}},{"type":"Feature","geometry":{"type":"Point","coordinates":[10.4912811,45.4603627]},"properties":{"type":"pakketpunt","locatieNaam":"Amazon Counter - CellularStore","straatNaam":"Via Cesare Battisti 2","straatNr":"","vervoerder":"Amazon","puntType":"helix","bezettingsgraad":50,"latitude":45.4603627,"longitude":10.4912811,"canPickup":true,"canDropoff":false,"openingstijden":null}},{"type":"Feature","geometry":{"type":"Point","coordinates":[10.4848378773155,45.4611200732945]},"properties":{"type":"pakketpunt","locatieNaam":"Amazon Counter (fermopoint)","straatNaam":"Tabaccheria della Piazza","straatNr":"","vervoerder":"Amazon","puntType":"helix","bezettingsgraad":50,"latitude":45.4611200732945,"longitude":10.4848378773155,"canPickup":true,"canDropoff":false,"openingstijden":null}},{"type":"Feature","geometry":{"type":"Point","coordinates":[10.4843,45.4621]},"properties":{"type":"pakketpunt","locatieNaam":"Ufficio Postale LONATO","straatNaam":"VIA REPUBBLICA 50-C","straatNr":"","vervoerder":"Amazon","puntType":"3p","bezettingsgraad":50,"latitude":45.4621,"longitude":10.4843,"canPickup":true,"canDropoff":false,"openingstijden":null}},{"type":"Feature","geometry":{"type":"Point","coordinates":[10.48434,45.461977]},"properties":{"type":"pakketpunt","locatieNaam":"Amazon Counter - QuiPoste Lonato","straatNaam":"Via Repubblica 51/A","straatNr":"","vervoerder":"Amazon","puntType":"helix","bezettingsgraad":50,"latitude":45.461977,"longitude":10.48434,"canPickup":true,"canDropoff":false,"openingstijden":null}},{"type":"Feature","geometry":{"type":"Point","coordinates":[10.5156127,45.4278757]},"properties":{"type":"pakketpunt","locatieNaam":"Amazon Locker - galoppo","straatNaam":"IperStation Lonato del Garda","straatNr":"","vervoerder":"Amazon","puntType":"locker","bezettingsgraad":50,"latitude":45.4278757,"longitude":10.5156127,"canPickup":true,"canDropoff":false,"openingstijden":null}},{"type":"Feature","geometry":{"type":"Point","coordinates":[10.4848,45.4611]},"properties":{"type":"pakketpunt","locatieNaam":"PuntoPoste TABACCHERIA N. 3","straatNaam":"PIAZZA MARTIRI DELLA LIBERTA' 20","straatNr":"","vervoerder":"Amazon","puntType":"3p","bezettingsgraad":50,"latitude":45.4611,"longitude":10.4848,"canPickup":true,"canDropoff":false,"openingstijden":null}},{"type":"Feature","geometry":{"type":"Point","coordinates":[10.491082,45.476546]},"properties":{"type":"pakketpunt","locatieNaam":"Amazon Counter (fermopoint)","straatNaam":"Cantarane Point-Borgo Celestino","straatNr":"","vervoerder":"Amazon","puntType":"helix","bezettingsgraad":50,"latitude":45.476546,"longitude":10.491082,"canPickup":true,"canDropoff":false,"openingstijden":null}},{"type":"Feature","geometry":{"type":"Point","coordinates":[10.5457,45.431]},"properties":{"type":"pakketpunt","locatieNaam":"Ufficio Postale CENTENARO","straatNaam":"VIA CENTENARO 26","straatNr":"","vervoerder":"Amazon","puntType":"3p","bezettingsgraad":50,"latitude":45.431,"longitude":10.5457,"canPickup":true,"canDropoff":false,"openingstijden":null}},{"type":"Feature","geometry":{"type":"Point","coordinates":[10.484305,45.462035]},"properties":{"type":"pakketpunt","locatieNaam":"FedEx OnSite","straatNaam":"VIA DELLA REPUBBLICA 51 A","straatNr":"","vervoerder":"FedEx","puntType":"servicepunt","bezettingsgraad":50,"latitude":45.462035,"longitude":10.484305,"canPickup":true,"canDropoff":true,"openingstijden":{"ma":"08:30 - 12:30, 15:00 - 18:00","di":"08:30 - 12:30, 15:00 - 18:00","wo":"08:30 - 12:30, 15:00 - 18:00","do":"08:30 - 12:30, 15:00 - 18:00","vr":"08:30 - 15:30","za":"gesloten","zo":"gesloten"}}},{"type":"Feature","geometry":{"type":"Polygon","coordinates":[[[10.4407766,45.4747475],[10.4404774,45.4721297],[10.440467,45.4712005],[10.4407616,45.4707779],[10.4418813,45.4704715],[10.4427635,45.4691372],[10.4429269,45.4683341],[10.4429709,45.4677394],[10.4429043,45.4672002],[10.4430793,45.4645967],[10.4430176,45.4604255],[10.4434386,45.4596956],[10.4436668,45.4574874],[10.4434665,45.4554017],[10.443988,45.454351],[10.4451829,45.4468426],[10.4452266,45.4465033],[10.4450985,45.4447597],[10.4450637,45.4422714],[10.4451776,45.4397234],[10.4453369,45.4389518],[10.4459301,45.4372313],[10.4475069,45.435936],[10.4499655,45.4340911],[10.452614,45.4321798],[10.4545138,45.430927],[10.4576594,45.4305853],[10.4578758,45.430362],[10.4568018,45.4290526],[10.4567727,45.4287919],[10.4569684,45.4284474],[10.4511728,45.4191419],[10.4543008,45.4159833],[10.4576281,45.415599],[10.462944,45.4153479],[10.4665745,45.4155982],[10.4676264,45.4155589],[10.4731362,45.4149994],[10.4778726,45.4146594],[10.4834843,45.4135692],[10.4851937,45.4133309],[10.4862836,45.4135868],[10.4871449,45.4135351],[10.4882885,45.4133446],[10.4893131,45.4134303],[10.4900338,45.4136189],[10.4921751,45.413888],[10.492728,45.4140743],[10.4938331,45.4148475],[10.4968881,45.4149875],[10.4985893,45.4149202],[10.5002141,45.4145028],[10.5014024,45.4139516],[10.503199,45.4134464],[10.5062153,45.4124346],[10.5091115,45.4122523],[10.5111748,45.412288],[10.5124018,45.4119972],[10.5184753,45.4091353],[10.5206323,45.4075494],[10.5216941,45.4066396],[10.5240254,45.4057219],[10.5251204,45.4055183],[10.5259906,45.4049711],[10.5263303,45.404539],[10.5273184,45.4036257],[10.5290922,45.4014102],[10.5307123,45.3996602],[10.5318963,45.3989693],[10.5325538,45.3983034],[10.5328465,45.3982589],[10.5361255,45.395501],[10.5363092,45.3953256],[10.5369286,45.3942531],[10.537752,45.3934356],[10.5393495,45.3923117],[10.541483,45.3904377],[10.5432184,45.3898382],[10.5437402,45.3898221],[10.544411,45.3892415],[10.5453492,45.3888057],[10.5463849,45.3879636],[10.5484149,45.3859378],[10.5512335,45.3863587],[10.5521124,45.3867923],[10.555569,45.3880594],[10.5580134,45.3893853],[10.5587658,45.3896271],[10.5596139,45.389692],[10.5606311,45.3894036],[10.5608634,45.3893149],[10.5609159,45.3891926],[10.5613562,45.3891191],[10.5626,45.3886521],[10.5649183,45.3880622],[10.5656485,45.3877912],[10.5662348,45.3873961],[10.5667613,45.3865158],[10.5676194,45.3857884],[10.5690924,45.3853001],[10.5697335,45.3849268],[10.5709303,45.3844377],[10.5735945,45.3839555],[10.5737745,45.3838225],[10.5738979,45.3832672],[10.5741163,45.3831382],[10.575444,45.3828274],[10.5797789,45.3821419],[10.5800806,45.3810486],[10.5800459,45.380779],[10.5805656,45.3808663],[10.5814475,45.3812862],[10.581682,45.381625],[10.5820327,45.3818901],[10.5822407,45.3822473],[10.5833268,45.3827768],[10.5835887,45.3828362],[10.583757,45.3829734],[10.5855748,45.3835197],[10.5875153,45.3838798],[10.590224,45.3848772],[10.5929536,45.3853027],[10.5937789,45.3853541],[10.5950375,45.3850845],[10.5955723,45.3850816],[10.5958276,45.385132],[10.5967516,45.3855691],[10.5971956,45.3858554],[10.5974981,45.3861663],[10.5978678,45.3868767],[10.5980829,45.3875937],[10.5989254,45.3888736],[10.6005659,45.3904213],[10.6016403,45.391995],[10.6019739,45.3923278],[10.6024538,45.3925821],[10.6018439,45.3928697],[10.6012599,45.393283],[10.6011674,45.3934553],[10.6012617,45.3938545],[10.6015216,45.3941794],[10.6015782,45.3943721],[10.6014418,45.3951391],[10.6013031,45.3953166],[10.5997419,45.3961891],[10.5977129,45.3967261],[10.5972464,45.3967777],[10.5966537,45.3967139],[10.5944745,45.3960018],[10.5926046,45.3947588],[10.5916317,45.3944033],[10.5910841,45.3944109],[10.5897421,45.3947897],[10.5883648,45.3945343],[10.5883496,45.3947326],[10.5885496,45.3950898],[10.5893811,45.3958658],[10.5907699,45.3968681],[10.5911393,45.3976821],[10.5913591,45.3984576],[10.5913964,45.3988757],[10.5917024,45.3991954],[10.5924226,45.3994194],[10.5922129,45.3994583],[10.5892704,45.3990358],[10.5859047,45.3982725],[10.5827805,45.3973438],[10.5814737,45.3971009],[10.577336,45.3968206],[10.5756775,45.3967355],[10.5753801,45.3967801],[10.5748293,45.3971882],[10.5739602,45.3976368],[10.5728183,45.3984986],[10.571141,45.3991788],[10.568604,45.4006493],[10.5679111,45.4012349],[10.5671621,45.4022758],[10.5656421,45.4039124],[10.5650092,45.4054017],[10.5638414,45.4071865],[10.5631454,45.4080106],[10.5622589,45.4102326],[10.5626772,45.4113653],[10.5633771,45.41225],[10.5641671,45.4129146],[10.5647805,45.413821],[10.5645141,45.4140203],[10.5641137,45.4146933],[10.5639032,45.415662],[10.5634726,45.4165323],[10.5631092,45.4168412],[10.5626687,45.4176695],[10.5609473,45.418858],[10.5606153,45.4192021],[10.5597751,45.4203657],[10.5582167,45.4213276],[10.5573101,45.4217675],[10.5557108,45.4220594],[10.5541789,45.4229443],[10.5535336,45.4235337],[10.5531872,45.4240695],[10.5529004,45.4248564],[10.5523783,45.4254531],[10.5521771,45.4258069],[10.551579,45.4272462],[10.5514458,45.4281571],[10.5512455,45.4284299],[10.5518039,45.4288048],[10.550336,45.4303414],[10.5486864,45.4327234],[10.5474081,45.4317182],[10.5468136,45.4313586],[10.5466547,45.4312869],[10.546165,45.4313425],[10.5448242,45.4308233],[10.5436614,45.4302161],[10.5422261,45.4319769],[10.5404711,45.4346649],[10.5399154,45.4353835],[10.5339625,45.4394556],[10.5324399,45.4402997],[10.5312476,45.4401221],[10.5293565,45.44017],[10.5283022,45.4406611],[10.5275533,45.4404506],[10.5266936,45.4404576],[10.5198358,45.4408281],[10.5188273,45.4407696],[10.5155223,45.4411375],[10.5155232,45.4418846],[10.515841,45.4436626],[10.5157376,45.4438082],[10.515723,45.4444549],[10.5158256,45.445226],[10.5156518,45.4453308],[10.5144301,45.4455653],[10.5128547,45.4462273],[10.5122431,45.4467121],[10.5118054,45.4473454],[10.5115397,45.4475908],[10.5109126,45.4479412],[10.5105821,45.4482468],[10.5104544,45.4485919],[10.5101352,45.4487605],[10.5097935,45.4488211],[10.5102554,45.4500902],[10.5110703,45.450141],[10.5114907,45.450318],[10.5115679,45.450695],[10.5115261,45.451106],[10.5116863,45.4517741],[10.5127589,45.4534815],[10.5127364,45.4538587],[10.5123773,45.4545284],[10.5123947,45.4550289],[10.5124663,45.4551426],[10.5129637,45.4554327],[10.5132512,45.455849],[10.5148516,45.4559775],[10.5149106,45.456158],[10.5142285,45.457062],[10.5138122,45.4574386],[10.5137944,45.4576684],[10.5134089,45.4583171],[10.510922,45.4609733],[10.5095001,45.4618679],[10.5083522,45.4621666],[10.5083105,45.4627546],[10.5074239,45.4631443],[10.5066814,45.4632396],[10.5052627,45.4641854],[10.5049758,45.4644619],[10.504396,45.4645084],[10.5037532,45.4648464],[10.5033937,45.4651329],[10.5030318,45.4656956],[10.502392,45.4674854],[10.5024442,45.4687615],[10.5020493,45.4695663],[10.5020111,45.4698743],[10.5021119,45.4705907],[10.5023771,45.4714381],[10.5032609,45.4716459],[10.5028068,45.4720918],[10.5037185,45.4723639],[10.5036439,45.4727533],[10.504791,45.4732512],[10.5050488,45.4732028],[10.5053591,45.4729647],[10.5066642,45.47333],[10.5074033,45.4732798],[10.5086521,45.4727952],[10.5097338,45.4734785],[10.5098841,45.473778],[10.5093389,45.4740193],[10.5092919,45.4742359],[10.5099451,45.4752804],[10.5102352,45.4756051],[10.5110209,45.4757387],[10.5121443,45.4764844],[10.5131288,45.4774165],[10.5146752,45.4784221],[10.5164169,45.4802712],[10.517677,45.4813346],[10.5182715,45.4822088],[10.5187464,45.482621],[10.5193355,45.4834098],[10.5185317,45.483794],[10.5184253,45.4840025],[10.5183021,45.4843596],[10.5181756,45.4857205],[10.5206068,45.4874388],[10.5203097,45.4876318],[10.520957,45.4883253],[10.5199279,45.48896],[10.5183465,45.4901152],[10.5180834,45.4901457],[10.5178304,45.4903741],[10.5147428,45.4890559],[10.5136121,45.4901961],[10.5132872,45.4908484],[10.5125708,45.4904979],[10.5107914,45.4901794],[10.5099697,45.4899022],[10.508063,45.4894867],[10.5043874,45.4890803],[10.504728,45.4902775],[10.5043455,45.4911106],[10.5044915,45.4922653],[10.503591,45.4925112],[10.5032959,45.4925466],[10.5030219,45.4924062],[10.5017186,45.4926664],[10.5009835,45.4931171],[10.5005074,45.4937444],[10.4998918,45.4943556],[10.4997738,45.4946722],[10.4994208,45.4931871],[10.4980245,45.493318],[10.4974625,45.4934829],[10.4974446,45.4931681],[10.4954865,45.4932297],[10.4953392,45.4934072],[10.4951244,45.4932705],[10.4952367,45.4932195],[10.4952302,45.492855],[10.4954174,45.4924925],[10.4949907,45.4924486],[10.4946667,45.4925384],[10.4945323,45.4925986],[10.4945711,45.4929762],[10.4941359,45.4929729],[10.4941988,45.49263],[10.4931445,45.4926258],[10.4920454,45.4921991],[10.490421,45.4919323],[10.4902595,45.492479],[10.4882539,45.4923161],[10.4873078,45.4923509],[10.4868844,45.4931036],[10.4853017,45.4933852],[10.4848967,45.4933769],[10.4846412,45.4935738],[10.4835619,45.4934753],[10.4836231,45.4941001],[10.4831298,45.494138],[10.4831006,45.4943679],[10.4833424,45.4945583],[10.4833338,45.4949004],[10.4829066,45.4953875],[10.4831259,45.4955737],[10.482946,45.4957876],[10.4836196,45.4965214],[10.4837268,45.4968891],[10.4837685,45.4987787],[10.4833472,45.4991847],[10.4827057,45.4995531],[10.4825855,45.4995457],[10.4824674,45.4996777],[10.4819351,45.4995766],[10.4811774,45.500212],[10.4810703,45.5007625],[10.4808493,45.5011209],[10.4806281,45.5022039],[10.4811134,45.5022831],[10.4810845,45.503071],[10.4799746,45.503702],[10.4795247,45.5037663],[10.4790247,45.5040694],[10.4786169,45.5047003],[10.4785614,45.5049139],[10.4786383,45.5055262],[10.4785534,45.5056304],[10.4780534,45.5058942],[10.4776529,45.5060032],[10.4758268,45.5060143],[10.4725213,45.506516],[10.4699969,45.5070459],[10.4694094,45.5071026],[10.4663337,45.5067017],[10.4638387,45.5067706],[10.4640919,45.5055332],[10.4633504,45.5048987],[10.4631877,45.5045669],[10.4624193,45.5039867],[10.4611906,45.5028638],[10.4605527,45.5022059],[10.4603823,45.5018661],[10.4598096,45.5016844],[10.4585705,45.5008496],[10.4580398,45.5002488],[10.4575871,45.4992645],[10.4572308,45.4987245],[10.4558578,45.4972253],[10.4554744,45.4970592],[10.4549807,45.4962779],[10.4550941,45.4959614],[10.4570798,45.4944869],[10.4577026,45.4938219],[10.4578567,45.4933474],[10.4579662,45.4925089],[10.4577483,45.4923721],[10.4541319,45.4922697],[10.4523793,45.4923596],[10.4524165,45.4924356],[10.4518696,45.492384],[10.4502593,45.4929671],[10.4485342,45.4910763],[10.4473546,45.4902406],[10.4459403,45.4894214],[10.445784,45.4892524],[10.445781,45.4890724],[10.4455223,45.4884636],[10.4442031,45.4858546],[10.4433067,45.4829515],[10.442197,45.479822],[10.441426,45.4773975],[10.4410415,45.4754777],[10.4407766,45.4747475]]]},"properties":{"type":"boundary","gemeente":"Lonato del Garda"}}]}