{"type":"FeatureCollection","metadata":{"gemeente":"Lonate Pozzolo","slug":"lonate-pozzolo","generated_at":"2026-09-26T13:10:05.442891Z","total_points":23,"providers":["PosteItaliane","DPD","InPost","GLS","DHL","Amazon"],"bounds":[8.7154737,45.5830091,8.75838903,45.6087054]},"features":[{"type":"Feature","geometry":{"type":"Point","coordinates":[8.75378228,45.59927069]},"properties":{"type":"pakketpunt","locatieNaam":"Tabaccheria N. 2","straatNaam":"Via Roma","straatNr":"1","vervoerder":"PosteItaliane","puntType":"servicepunt","bezettingsgraad":50,"latitude":45.59927069,"longitude":8.75378228,"canPickup":true,"canDropoff":true,"openingstijden":{"za":"06:00 - 23:59","zo":"06:00 - 23:59","ma":"06:00 - 23:59","di":"06:00 - 23:59","wo":"06:00 - 23:59","do":"06:00 - 23:59","vr":"06:00 - 23:59"}}},{"type":"Feature","geometry":{"type":"Point","coordinates":[8.75838903,45.58620253]},"properties":{"type":"pakketpunt","locatieNaam":"Sant'antonino Ticino","straatNaam":"Via Madonna","straatNr":"3","vervoerder":"PosteItaliane","puntType":"postkantoor","bezettingsgraad":50,"latitude":45.58620253,"longitude":8.75838903,"canPickup":true,"canDropoff":true,"openingstijden":{"za":"08:20 - 12:45","zo":"gesloten","ma":"08:20 - 13:45","di":"08:20 - 13:45","wo":"08:20 - 13:45","do":"08:20 - 13:45","vr":"08:20 - 13:45"}}},{"type":"Feature","geometry":{"type":"Point","coordinates":[8.75636366,45.59964217]},"properties":{"type":"pakketpunt","locatieNaam":"Lonate Pozzolo","straatNaam":"Piazza San Francesco","straatNr":"5","vervoerder":"PosteItaliane","puntType":"postkantoor","bezettingsgraad":50,"latitude":45.59964217,"longitude":8.75636366,"canPickup":true,"canDropoff":true,"openingstijden":{"za":"08:20 - 12:35","zo":"gesloten","ma":"08:20 - 19:05","di":"08:20 - 19:05","wo":"08:20 - 19:05","do":"08:20 - 19:05","vr":"08:20 - 19:05"}}},{"type":"Feature","geometry":{"type":"Point","coordinates":[8.7498554,45.59856869]},"properties":{"type":"pakketpunt","locatieNaam":"Tabaccheria N. 5","straatNaam":"Via Dante Alighieri","straatNr":"4","vervoerder":"PosteItaliane","puntType":"servicepunt","bezettingsgraad":50,"latitude":45.59856869,"longitude":8.7498554,"canPickup":true,"canDropoff":true,"openingstijden":{"za":"07:00 - 13:00, 15:00 - 19:00","zo":"gesloten","ma":"07:00 - 13:00, 15:00 - 19:00","di":"07:00 - 13:00, 15:00 - 19:00","wo":"07:00 - 13:00, 15:00 - 19:00","do":"07:00 - 13:00, 15:00 - 19:00","vr":"07:00 - 13:00, 15:00 - 19:00"}}},{"type":"Feature","geometry":{"type":"Point","coordinates":[8.7582724491,45.5866075753]},"properties":{"type":"pakketpunt","locatieNaam":"Alimentari e Panetteria","straatNaam":"VIA MADONNA","straatNr":"1","vervoerder":"DPD","puntType":"pickup_point","bezettingsgraad":50,"latitude":45.5866075753,"longitude":8.7582724491,"canPickup":true,"canDropoff":true,"openingstijden":{"ma":"06:30 - 12:30","di":"06:30 - 12:30","wo":"06:30 - 12:30","do":"06:30 - 12:30","vr":"06:30 - 12:30","za":"06:30 - 12:30","zo":"gesloten"}}},{"type":"Feature","geometry":{"type":"Point","coordinates":[8.7573153,45.5960763]},"properties":{"type":"pakketpunt","locatieNaam":"Mail Boxes Etc-3290 - Lonate","straatNaam":"VIA MATTEOTTI","straatNr":"36","vervoerder":"DPD","puntType":"pickup_point","bezettingsgraad":50,"latitude":45.5960763,"longitude":8.7573153,"canPickup":true,"canDropoff":true,"openingstijden":{"ma":"08:30 - 13:00, 14:00 - 18:30","di":"08:30 - 13:00, 14:00 - 18:30","wo":"08:30 - 13:00, 14:00 - 18:30","do":"08:30 - 13:00, 14:00 - 18:30","vr":"08:30 - 13:00, 14:00 - 18:30","za":"09:00 - 12:00","zo":"gesloten"}}},{"type":"Feature","geometry":{"type":"Point","coordinates":[8.75732,45.59692]},"properties":{"type":"pakketpunt","locatieNaam":"InPost Point","straatNaam":"Via Matteotti","straatNr":"38","vervoerder":"InPost","puntType":"servicepunt","bezettingsgraad":50,"latitude":45.59692,"longitude":8.75732,"canPickup":true,"canDropoff":true,"openingstijden":"Lun-Ven: 08:30 - 13:00 - 14:00 - 18:30 Sab: 09:00 - 12:00"}},{"type":"Feature","geometry":{"type":"Point","coordinates":[8.75771,45.58602]},"properties":{"type":"pakketpunt","locatieNaam":"InPost Point","straatNaam":"Via Madonna, 1, Lonate Pozzolo VA, Italia","straatNr":"1","vervoerder":"InPost","puntType":"servicepunt","bezettingsgraad":50,"latitude":45.58602,"longitude":8.75771,"canPickup":true,"canDropoff":true,"openingstijden":"Lun-Ven 07:00-12:30, 15:30-19:00; Sab 07:00-12:30"}},{"type":"Feature","geometry":{"type":"Point","coordinates":[8.757705,45.5860152]},"properties":{"type":"pakketpunt","locatieNaam":"CartAmica","straatNaam":"Via Madonna","straatNr":"1","vervoerder":"GLS","puntType":"parcel_shop","bezettingsgraad":50,"latitude":45.5860152,"longitude":8.757705,"canPickup":true,"canDropoff":true,"openingstijden":"za: 07:30 - 12:30; zo: 08:00 - 12:00"}},{"type":"Feature","geometry":{"type":"Point","coordinates":[8.7573153,45.5960763]},"properties":{"type":"pakketpunt","locatieNaam":"MAIL BOXES ETC","straatNaam":"Via G. Matteotti","straatNr":"36","vervoerder":"GLS","puntType":"parcel_shop","bezettingsgraad":50,"latitude":45.5960763,"longitude":8.7573153,"canPickup":true,"canDropoff":true,"openingstijden":"za: 09:00 - 12:00; ma: 08:30 - 13:00, 14:00 - 18:30"}},{"type":"Feature","geometry":{"type":"Point","coordinates":[8.758389,45.586203]},"properties":{"type":"pakketpunt","locatieNaam":"Ufficio Postale SANT'ANTONINO TICIN","straatNaam":"VIA MADONNA 3","straatNr":"","vervoerder":"DHL","puntType":"postOffice","bezettingsgraad":50,"latitude":45.586203,"longitude":8.758389,"canPickup":true,"canDropoff":true,"openingstijden":{"ma":"08:20 - 13:45","di":"08:20 - 13:45","wo":"08:20 - 13:45","do":"08:20 - 13:45","vr":"08:20 - 13:45","za":"08:20 - 12:45","zo":"gesloten"}}},{"type":"Feature","geometry":{"type":"Point","coordinates":[8.756364,45.599642]},"properties":{"type":"pakketpunt","locatieNaam":"Ufficio Postale LONATE POZZOLO","straatNaam":"PIAZZA SAN FRANCESCO 5","straatNr":"","vervoerder":"DHL","puntType":"postOffice","bezettingsgraad":50,"latitude":45.599642,"longitude":8.756364,"canPickup":true,"canDropoff":true,"openingstijden":{"ma":"08:20 - 19:05","di":"08:20 - 19:05","wo":"08:20 - 19:05","do":"08:20 - 19:05","vr":"08:20 - 19:05","za":"08:20 - 12:35","zo":"gesloten"}}},{"type":"Feature","geometry":{"type":"Point","coordinates":[8.753782,45.599271]},"properties":{"type":"pakketpunt","locatieNaam":"TABACCHERIA n. 2","straatNaam":"VIA ROMA 1","straatNr":"","vervoerder":"DHL","puntType":"parcelShop","bezettingsgraad":50,"latitude":45.599271,"longitude":8.753782,"canPickup":true,"canDropoff":true,"openingstijden":{"ma":"06:00 - 23:59","di":"06:00 - 23:59","wo":"06:00 - 23:59","do":"06:00 - 23:59","vr":"06:00 - 23:59","za":"06:00 - 23:59","zo":"06:00 - 23:59"}}},{"type":"Feature","geometry":{"type":"Point","coordinates":[8.754044,45.599627]},"properties":{"type":"pakketpunt","locatieNaam":"SICILIANA RECAPITI","straatNaam":"Via Giovanni Fattori 30-32","straatNr":"","vervoerder":"DHL","puntType":"parcelShop","bezettingsgraad":50,"latitude":45.599627,"longitude":8.754044,"canPickup":false,"canDropoff":true,"openingstijden":{"ma":"09:00 - 18:30","di":"09:00 - 18:30","wo":"09:00 - 18:30","do":"09:00 - 18:30","vr":"09:00 - 18:30","za":"09:00 - 12:30","zo":"gesloten"}}},{"type":"Feature","geometry":{"type":"Point","coordinates":[8.749855,45.598569]},"properties":{"type":"pakketpunt","locatieNaam":"TABACCHERIA N. 5","straatNaam":"VIA DANTE ALIGHIERI 4","straatNr":"","vervoerder":"DHL","puntType":"parcelShop","bezettingsgraad":50,"latitude":45.598569,"longitude":8.749855,"canPickup":true,"canDropoff":true,"openingstijden":{"ma":"07:00 - 13:00, 15:00 - 19:00","di":"07:00 - 13:00, 15:00 - 19:00","wo":"07:00 - 13:00, 15:00 - 19:00","do":"07:00 - 13:00, 15:00 - 19:00","vr":"07:00 - 13:00, 15:00 - 19:00","za":"07:00 - 13:00, 15:00 - 19:00","zo":"gesloten"}}},{"type":"Feature","geometry":{"type":"Point","coordinates":[8.718204,45.607789]},"properties":{"type":"pakketpunt","locatieNaam":"Malpensa Hub Service Point","straatNaam":"Cargo City Sud - Edificio 236","straatNr":"","vervoerder":"DHL","puntType":"parcelShop","bezettingsgraad":50,"latitude":45.607789,"longitude":8.718204,"canPickup":false,"canDropoff":true,"openingstijden":{"ma":"09:00 - 19:00","di":"09:00 - 19:00","wo":"09:00 - 19:00","do":"09:00 - 19:00","vr":"09:00 - 19:00","za":"gesloten","zo":"gesloten"}}},{"type":"Feature","geometry":{"type":"Point","coordinates":[8.7550083,45.6087054]},"properties":{"type":"pakketpunt","locatieNaam":"Amazon Locker - nazzarena","straatNaam":"Ferrovienord / Ferno - Lonate Pozzolo","straatNr":"","vervoerder":"Amazon","puntType":"locker","bezettingsgraad":50,"latitude":45.6087054,"longitude":8.7550083,"canPickup":true,"canDropoff":false,"openingstijden":null}},{"type":"Feature","geometry":{"type":"Point","coordinates":[8.7557433,45.59357]},"properties":{"type":"pakketpunt","locatieNaam":"Amazon Locker - pasquino","straatNaam":"Tigros Lonate Pozzolo","straatNr":"","vervoerder":"Amazon","puntType":"locker","bezettingsgraad":50,"latitude":45.59357,"longitude":8.7557433,"canPickup":true,"canDropoff":false,"openingstijden":null}},{"type":"Feature","geometry":{"type":"Point","coordinates":[8.7154737,45.5830091]},"properties":{"type":"pakketpunt","locatieNaam":"Amazon Locker - orieldo","straatNaam":"Caffè 20Venti Lonate Pozzolo","straatNr":"","vervoerder":"Amazon","puntType":"locker","bezettingsgraad":50,"latitude":45.5830091,"longitude":8.7154737,"canPickup":true,"canDropoff":false,"openingstijden":null}},{"type":"Feature","geometry":{"type":"Point","coordinates":[8.75731,45.59605]},"properties":{"type":"pakketpunt","locatieNaam":"Amazon Counter - Mail boxes etc","straatNaam":"Via Matteotti 36","straatNr":"","vervoerder":"Amazon","puntType":"helix","bezettingsgraad":50,"latitude":45.59605,"longitude":8.75731,"canPickup":true,"canDropoff":false,"openingstijden":null}},{"type":"Feature","geometry":{"type":"Point","coordinates":[8.758382,45.586566]},"properties":{"type":"pakketpunt","locatieNaam":"Amazon Counter - PRIMAEDICOLA","straatNaam":"CARTAMICA DI STRINGARI ROSANNA","straatNr":"","vervoerder":"Amazon","puntType":"helix","bezettingsgraad":50,"latitude":45.586566,"longitude":8.758382,"canPickup":true,"canDropoff":false,"openingstijden":null}},{"type":"Feature","geometry":{"type":"Point","coordinates":[8.75838,45.5862]},"properties":{"type":"pakketpunt","locatieNaam":"Ufficio Postale SANT'ANTONINO TICINO","straatNaam":"VIA MADONNA 3","straatNr":"","vervoerder":"Amazon","puntType":"3p","bezettingsgraad":50,"latitude":45.5862,"longitude":8.75838,"canPickup":true,"canDropoff":false,"openingstijden":null}},{"type":"Feature","geometry":{"type":"Point","coordinates":[8.75827244907373,45.586607575324]},"properties":{"type":"pakketpunt","locatieNaam":"Amazon Counter (fermopoint)","straatNaam":"Alimentari e Panetteria","straatNr":"","vervoerder":"Amazon","puntType":"helix","bezettingsgraad":50,"latitude":45.586607575324,"longitude":8.75827244907373,"canPickup":true,"canDropoff":false,"openingstijden":null}},{"type":"Feature","geometry":{"type":"Polygon","coordinates":[[[8.6944183,45.5760015],[8.693502,45.5771602],[8.6933449,45.5777808],[8.6933903,45.578843],[8.6938338,45.5797893],[8.6942913,45.5805106],[8.6954122,45.5818278],[8.6974023,45.5835973],[8.6981381,45.5840627],[8.6985515,45.5844374],[8.7002001,45.5853868],[8.7029747,45.5867352],[8.7035879,45.5871418],[8.7041363,45.5876833],[8.7044406,45.5883142],[8.7046666,45.5892148],[8.7048927,45.5925638],[8.7047556,45.5942466],[8.7043239,45.5959016],[8.7038042,45.5971874],[8.703148,45.600057],[8.701965,45.6017596],[8.7008638,45.6028233],[8.7004116,45.6034522],[8.699829,45.6044948],[8.6987759,45.6032968],[8.699082,45.6027016],[8.6992668,45.601712],[8.6953262,45.6024667],[8.6928588,45.6034502],[8.691855,45.6041045],[8.6907193,45.6054336],[8.6889909,45.6072561],[8.6887313,45.6078044],[8.6887803,45.6082276],[8.6921107,45.6089297],[8.6929428,45.609211],[8.6938638,45.6096455],[8.6943046,45.6096825],[8.6958322,45.6088135],[8.6970809,45.6082137],[8.6974673,45.6088043],[8.6978994,45.6098315],[8.6987863,45.6100724],[8.6999783,45.6092835],[8.7002856,45.6096848],[8.700544,45.6096315],[8.7012506,45.6109114],[8.7017206,45.6114572],[8.7018737,45.6119076],[8.7015407,45.6121273],[8.7028948,45.6131389],[8.7026435,45.6133678],[8.7060186,45.613903],[8.7058647,45.6145237],[8.7077564,45.6148346],[8.7081612,45.6140616],[8.7088807,45.6141399],[8.7081486,45.6174368],[8.7086219,45.6175661],[8.7091727,45.6176958],[8.7178991,45.6174715],[8.7179813,45.6171991],[8.7180688,45.6147345],[8.718826,45.6146373],[8.718814,45.6147948],[8.7221481,45.6143457],[8.7218856,45.6138482],[8.7267088,45.6128826],[8.7282538,45.6130208],[8.7314134,45.6124429],[8.7316133,45.6128203],[8.7323865,45.6129648],[8.7322329,45.6117442],[8.7347172,45.611534],[8.7348074,45.6117817],[8.7361853,45.6108524],[8.7374951,45.6105683],[8.7387042,45.6101435],[8.7387829,45.6104407],[8.7406763,45.610418],[8.7407927,45.6105488],[8.7418171,45.6105511],[8.741969,45.6111597],[8.7428549,45.611144],[8.7430428,45.6115898],[8.7435822,45.6115307],[8.7436969,45.6116397],[8.7465957,45.6111642],[8.746561,45.6110109],[8.7487483,45.6104701],[8.7505693,45.6102406],[8.7505983,45.6103216],[8.7528302,45.6098917],[8.7523742,45.6090713],[8.7523652,45.6089067],[8.75452,45.6083802],[8.7547631,45.6088746],[8.7572014,45.608301],[8.7582225,45.6081598],[8.7590817,45.6079351],[8.7596538,45.6076966],[8.7597692,45.6078431],[8.7613355,45.6074261],[8.7614323,45.6075559],[8.7615398,45.6075426],[8.7626131,45.6073378],[8.7629262,45.607199],[8.7702233,45.6059672],[8.7703946,45.6060171],[8.7710137,45.6067069],[8.7711562,45.6067612],[8.7715267,45.6067079],[8.7748404,45.6058144],[8.7762339,45.6048765],[8.776601,45.6048548],[8.776812,45.6046032],[8.7767648,45.6043825],[8.7768163,45.6043331],[8.7775039,45.6043345],[8.7781753,45.6039847],[8.782423,45.6031603],[8.78218,45.6029978],[8.7834185,45.6027257],[8.7835726,45.603068],[8.7861102,45.6025777],[8.786793,45.6004683],[8.786813,45.6002658],[8.7865038,45.5989556],[8.7862616,45.5990001],[8.7858495,45.5973657],[8.7835274,45.5906242],[8.7838385,45.5905798],[8.7826362,45.5886018],[8.7828784,45.5885303],[8.7828011,45.587801],[8.7823186,45.586594],[8.7754673,45.5872558],[8.7709796,45.5878815],[8.7708237,45.5871881],[8.7692865,45.5873156],[8.7690156,45.5857804],[8.7687316,45.5854603],[8.7690991,45.585344],[8.7683827,45.582937],[8.7687003,45.5828386],[8.7683628,45.5816126],[8.7674844,45.5817099],[8.7671207,45.579764],[8.7675407,45.5797243],[8.7674186,45.5782524],[8.7659697,45.5783665],[8.7657928,45.577367],[8.766537,45.5771795],[8.7665048,45.5760588],[8.764471,45.5758387],[8.7627701,45.5753401],[8.7626234,45.5751688],[8.7618214,45.5750096],[8.7603452,45.5747995],[8.7575907,45.5745552],[8.7573066,45.5742935],[8.757188,45.5739333],[8.7566341,45.5738556],[8.7565844,45.5734729],[8.7507668,45.5732624],[8.7481029,45.5724735],[8.7421188,45.5716488],[8.7509272,45.5652294],[8.74963,45.5644435],[8.749068,45.5643838],[8.7466895,45.5632805],[8.7451304,45.5627099],[8.7448689,45.563857],[8.7418686,45.5635577],[8.7417782,45.5640571],[8.7403757,45.5639217],[8.7397439,45.5608131],[8.7384837,45.5598122],[8.729915,45.5610299],[8.7262986,45.5639963],[8.7239317,45.5667617],[8.7232674,45.5685338],[8.7225318,45.5737857],[8.7219647,45.5733527],[8.7184605,45.5728451],[8.7191567,45.5701397],[8.719277,45.5675082],[8.7193482,45.5675059],[8.7195236,45.5667959],[8.7190316,45.5667111],[8.7193172,45.5659888],[8.7187827,45.5658311],[8.7171067,45.5643815],[8.7169069,45.5639633],[8.7168657,45.5633598],[8.7167624,45.5636185],[8.7165533,45.5634396],[8.7161789,45.5633773],[8.7162273,45.56312],[8.7151661,45.5631089],[8.7146203,45.5632527],[8.7144824,45.5631411],[8.7144724,45.5626941],[8.7142913,45.5621849],[8.7132747,45.5621471],[8.7120224,45.5619235],[8.7079437,45.5605949],[8.7068786,45.5583143],[8.7069628,45.5593736],[8.7064708,45.5628197],[8.7061319,45.5639259],[8.7058165,45.5678856],[8.7055279,45.569154],[8.7048574,45.5699353],[8.7033672,45.5706155],[8.7024045,45.5709101],[8.7019643,45.5709269],[8.698896,45.572746],[8.6954739,45.5751582],[8.6944183,45.5760015]]]},"properties":{"type":"boundary","gemeente":"Lonate Pozzolo"}}]}