{"type":"FeatureCollection","metadata":{"gemeente":"Longone Sabino","slug":"longone-sabino","generated_at":"2026-09-26T13:10:05.557270Z","total_points":1,"providers":["PosteItaliane"],"bounds":[12.96614359,42.33322468,12.96614359,42.33322468]},"features":[{"type":"Feature","geometry":{"type":"Point","coordinates":[12.96614359,42.33322468]},"properties":{"type":"pakketpunt","locatieNaam":"Roccaranieri","straatNaam":"Via Chiesa Nuova","straatNr":"35","vervoerder":"PosteItaliane","puntType":"postkantoor","bezettingsgraad":50,"latitude":42.33322468,"longitude":12.96614359,"canPickup":true,"canDropoff":true,"openingstijden":{"za":"08:20 - 12:45","zo":"gesloten","ma":"gesloten","di":"08:20 - 13:45","wo":"gesloten","do":"08:20 - 13:45","vr":"gesloten"}}},{"type":"Feature","geometry":{"type":"MultiPolygon","coordinates":[[[[12.9027019,42.3256302],[12.9033512,42.3272007],[12.9043436,42.3274506],[12.9056096,42.3287276],[12.9059071,42.3298135],[12.9068479,42.3307186],[12.9102444,42.3323761],[12.9128301,42.3341527],[12.9129374,42.3359213],[12.9137528,42.337444],[12.9137957,42.3379515],[12.9124653,42.3380943],[12.9122078,42.3387129],[12.9119074,42.3389191],[12.9100728,42.3390856],[12.9098582,42.3392125],[12.9097295,42.3394821],[12.9104161,42.3394821],[12.9106307,42.3400214],[12.9114032,42.3400293],[12.9116177,42.3403703],[12.9127014,42.3402276],[12.9134037,42.3403465],[12.9138172,42.3411158],[12.9144394,42.3413537],[12.9151904,42.3430031],[12.917266,42.3455899],[12.9186559,42.344605],[12.9196,42.3441926],[12.9202545,42.3440895],[12.9216814,42.3435741],[12.9216921,42.3433758],[12.9211878,42.3428049],[12.9267561,42.3422656],[12.9290199,42.3418929],[12.9305971,42.3415361],[12.930479,42.3402355],[12.9308867,42.3397756],[12.9314554,42.3386653],[12.9318902,42.3387057],[12.9379003,42.337344],[12.940335,42.3372891],[12.9413788,42.3388756],[12.9423344,42.3392284],[12.9428923,42.3391173],[12.9436486,42.3385187],[12.9459688,42.3386645],[12.9468727,42.3393711],[12.9469371,42.3397835],[12.9474735,42.3400055],[12.9476237,42.3408303],[12.9486108,42.3417343],[12.950102,42.3419563],[12.9502737,42.3426146],[12.9502921,42.3430091],[12.950037,42.3436125],[12.9487284,42.3431682],[12.9485142,42.3438278],[12.9484927,42.3440974],[12.9491218,42.3451031],[12.9493887,42.3453772],[12.9489397,42.3466593],[12.949115,42.3471821],[12.9493725,42.3474675],[12.9507243,42.3472851],[12.9509496,42.3476023],[12.9511642,42.3483873],[12.9516578,42.3489107],[12.9524624,42.3489345],[12.9540717,42.3494181],[12.9547047,42.3490614],[12.9554987,42.3490772],[12.9561317,42.34876],[12.9567754,42.3487759],[12.9595166,42.3483398],[12.9606485,42.3483398],[12.9634725,42.3489178],[12.964189,42.3481415],[12.9648435,42.3469997],[12.9666996,42.3442561],[12.9673648,42.344145],[12.9686093,42.3437485],[12.9696178,42.3415281],[12.9701757,42.3410523],[12.9703045,42.3404021],[12.9713988,42.33972],[12.9716979,42.3391996],[12.9720138,42.3382978],[12.9710555,42.3372299],[12.9713988,42.3366906],[12.9719138,42.3363733],[12.9741883,42.3354534],[12.9782009,42.3350251],[12.9790377,42.3348506],[12.9795895,42.3343096],[12.9788481,42.3333045],[12.9780524,42.3326625],[12.9770422,42.3325982],[12.9755777,42.3328916],[12.9751834,42.3331157],[12.9742097,42.3333913],[12.9740381,42.3328916],[12.9740257,42.3319922],[12.9741883,42.3305043],[12.9740166,42.3300284],[12.9739363,42.3292634],[12.9734618,42.3281512],[12.9731154,42.3277758],[12.972579,42.327395],[12.9722571,42.3266494],[12.9716348,42.3265701],[12.9707765,42.3268557],[12.9701757,42.3268557],[12.9711842,42.3264115],[12.971549,42.3256976],[12.9719996,42.3257293],[12.9727721,42.3265225],[12.9741239,42.3267605],[12.9760122,42.3268557],[12.9757118,42.3258404],[12.9757547,42.3246823],[12.9755401,42.3233814],[12.9739094,42.3227944],[12.9726648,42.3218583],[12.9719782,42.3219694],[12.9708195,42.3201766],[12.9698968,42.3191136],[12.9703474,42.3187962],[12.970283,42.3182727],[12.9708409,42.3179395],[12.9705834,42.3174793],[12.9698188,42.3173661],[12.9698753,42.3173366],[12.9697251,42.3156071],[12.9682231,42.3152263],[12.9680729,42.3155912],[12.9668069,42.3155595],[12.9642963,42.3135602],[12.9645538,42.3131636],[12.9629446,42.3106026],[12.9643178,42.3099582],[12.9638672,42.3092124],[12.9634595,42.3087205],[12.963953,42.3084031],[12.9648328,42.3088792],[12.9656267,42.3099107],[12.9653263,42.3097837],[12.9655194,42.3102121],[12.9668069,42.3102597],[12.9698753,42.3094663],[12.9694891,42.3077525],[12.9683303,42.3058165],[12.9650259,42.3058165],[12.9591466,42.3066021],[12.9591465,42.3061022],[12.9551553,42.3056896],[12.9516865,42.3054619],[12.9510784,42.305515],[12.9504186,42.3051921],[12.947731,42.3015317],[12.947731,42.300389],[12.9443836,42.300135],[12.9398775,42.2979766],[12.9394149,42.2981978],[12.9386329,42.2971195],[12.9380384,42.293836],[12.9364013,42.2939134],[12.9276466,42.2980401],[12.9230301,42.2987513],[12.9218101,42.2984686],[12.9214453,42.2990399],[12.9217243,42.3006588],[12.9234624,42.3021347],[12.9249859,42.3027219],[12.9278967,42.3035106],[12.9292961,42.3039809],[12.9297308,42.305439],[12.9305264,42.3064538],[12.9300713,42.3066576],[12.9292559,42.306848],[12.9273462,42.3069273],[12.9289984,42.3095615],[12.9300495,42.3107885],[12.9282689,42.3115609],[12.927475,42.3122908],[12.926209,42.3129255],[12.9253721,42.3136554],[12.9233621,42.3150475],[12.9221535,42.3146075],[12.9202437,42.3148931],[12.9185222,42.3155619],[12.9179048,42.3165432],[12.9165101,42.3169399],[12.9164028,42.3177649],[12.9151368,42.3184631],[12.9128608,42.3186521],[12.9108131,42.3172175],[12.9102445,42.3173683],[12.9089785,42.3170985],[12.9082167,42.3160276],[12.9073048,42.316099],[12.90694,42.3158054],[12.9064992,42.3157716],[12.9059636,42.3163052],[12.9051375,42.3165908],[12.9046869,42.3180426],[12.902627,42.3198117],[12.9012215,42.3202876],[12.9011786,42.3225564],[12.9024553,42.3247298],[12.9029703,42.3253168],[12.90304,42.3254636],[12.9027019,42.3256302]]],[[[12.934653,42.256244],[12.9338479,42.2576665],[12.9328287,42.2578412],[12.9323137,42.2577142],[12.9318309,42.2574124],[12.9309511,42.2574998],[12.9298568,42.2583971],[12.9298564,42.2590855],[12.9303825,42.2601916],[12.9325765,42.261875],[12.9337674,42.2622561],[12.9343575,42.2623275],[12.9351232,42.2626592],[12.9353607,42.2630779],[12.9352105,42.2635066],[12.9346526,42.2643443],[12.9346204,42.264785],[12.9344702,42.2652097],[12.9345131,42.2656663],[12.9353821,42.2660573],[12.9355699,42.2664205],[12.9352748,42.266891],[12.9348323,42.2672145],[12.9344568,42.2673336],[12.934261,42.2679112],[12.9337701,42.2684213],[12.9336977,42.2687547],[12.933931,42.2690763],[12.9355538,42.2695943],[12.9378873,42.2712595],[12.9380429,42.2714779],[12.9379651,42.2718272],[12.9374474,42.2719979],[12.937485,42.2720634],[12.9411435,42.2743676],[12.9414681,42.2743239],[12.9419213,42.2747348],[12.9421842,42.2775549],[12.9421681,42.2785749],[12.9413205,42.2792854],[12.940371,42.2798926],[12.9399204,42.2806269],[12.9396415,42.2813572],[12.9399311,42.2824089],[12.939384,42.2829288],[12.9407626,42.2845401],[12.9411343,42.2846756],[12.9409863,42.2849531],[12.9418522,42.286004],[12.9446415,42.2850031],[12.9472185,42.2837816],[12.9523085,42.2833132],[12.9546189,42.2830241],[12.958218,42.2823189],[12.9623499,42.2825905],[12.9639267,42.2829474],[12.9657147,42.2836483],[12.9660129,42.2843655],[12.9672369,42.2841542],[12.9683738,42.2834],[12.9692531,42.2839924],[12.9705083,42.2836749],[12.9709268,42.2841671],[12.972646,42.2836079],[12.972312,42.2830085],[12.9741132,42.2823811],[12.9736948,42.281508],[12.9744458,42.2812937],[12.9766559,42.2808809],[12.9774821,42.2805554],[12.979145,42.2807539],[12.9797412,42.2803676],[12.9806685,42.2799442],[12.9807329,42.2793648],[12.9809675,42.2789313],[12.9808953,42.2784986],[12.9809504,42.2781893],[12.9807866,42.2780788],[12.9812372,42.2773008],[12.9816782,42.2773889],[12.982078,42.2761269],[12.9828411,42.2753241],[12.983855,42.2750543],[12.9846489,42.2740143],[12.9861188,42.2729267],[12.9864085,42.2725615],[12.9881134,42.2720859],[12.9885781,42.2714618],[12.9891328,42.2712003],[12.9900348,42.2700131],[12.9905069,42.2688937],[12.9939444,42.2678699],[12.9940669,42.2674469],[12.9937932,42.2646158],[12.9934897,42.2631452],[12.991583,42.2616855],[12.9904475,42.2611714],[12.9883932,42.2605857],[12.9859166,42.2591547],[12.9838686,42.2576233],[12.9817592,42.2551665],[12.9793978,42.2533963],[12.9794669,42.2523222],[12.9801038,42.2513187],[12.9705907,42.2533018],[12.9657371,42.2557267],[12.9583791,42.2579581],[12.9568986,42.2580341],[12.9536211,42.2566263],[12.9460895,42.2584844],[12.9458052,42.2584884],[12.9450488,42.2581628],[12.9440778,42.2582502],[12.943697,42.2581668],[12.9433322,42.2578174],[12.9427582,42.2578055],[12.9420769,42.2576149],[12.9394859,42.2577181],[12.9379041,42.2573803],[12.9370472,42.2574637],[12.9357925,42.2572337],[12.934653,42.256244]]]]},"properties":{"type":"boundary","gemeente":"Longone Sabino"}}]}