{"type":"FeatureCollection","metadata":{"gemeente":"Madonna del Sasso","slug":"madonna-del-sasso","generated_at":"2026-09-26T14:27:29.924957Z","total_points":1,"providers":["PosteItaliane"],"bounds":[8.3681484,45.792328,8.3681484,45.792328]},"features":[{"type":"Feature","geometry":{"type":"Point","coordinates":[8.3681484,45.792328]},"properties":{"type":"pakketpunt","locatieNaam":"Madonna Del Sasso","straatNaam":"Piazza Primo Maggio","straatNr":"1","vervoerder":"PosteItaliane","puntType":"postkantoor","bezettingsgraad":50,"latitude":45.792328,"longitude":8.3681484,"canPickup":true,"canDropoff":true,"openingstijden":{"za":"08:20 - 12:45","zo":"gesloten","ma":"gesloten","di":"08:20 - 13:45","wo":"gesloten","do":"08:20 - 13:45","vr":"gesloten"}}},{"type":"Feature","geometry":{"type":"Polygon","coordinates":[[[8.3172382,45.792423],[8.3202189,45.7918873],[8.3212107,45.7905386],[8.3205465,45.7899091],[8.3187785,45.7888365],[8.3183646,45.7884875],[8.3182379,45.7879287],[8.3184434,45.7875969],[8.3187326,45.786496],[8.3180597,45.7852634],[8.3173638,45.7847102],[8.3167966,45.7844728],[8.3153732,45.7841358],[8.3151846,45.7838421],[8.3151098,45.7833872],[8.3156082,45.7831246],[8.3165868,45.783153],[8.3173938,45.7830093],[8.3176835,45.7828535],[8.3180004,45.7825134],[8.3180772,45.7823203],[8.3180417,45.7811725],[8.318197,45.7806289],[8.3187387,45.7798851],[8.3202736,45.7792147],[8.3205369,45.7789553],[8.3206451,45.7787129],[8.320234,45.7784089],[8.3198673,45.7782537],[8.3197579,45.7780866],[8.3197647,45.7777626],[8.3199144,45.7774214],[8.3197841,45.7771956],[8.3199595,45.7762516],[8.3193948,45.7753257],[8.3186868,45.7747454],[8.3192487,45.7738532],[8.3191451,45.7737131],[8.3191664,45.7732497],[8.3193599,45.7731068],[8.3193487,45.7730348],[8.3173618,45.7719293],[8.3173504,45.7718347],[8.3180996,45.7716097],[8.3181656,45.7712726],[8.3180175,45.7709567],[8.3173159,45.7703539],[8.3177435,45.7700595],[8.3171294,45.7696643],[8.3168584,45.7692756],[8.3168621,45.7689741],[8.3172112,45.7677701],[8.3173698,45.7677081],[8.3178004,45.7671706],[8.3182151,45.7669327],[8.3182731,45.7672679],[8.3184726,45.7676111],[8.318525,45.7680975],[8.3187762,45.768459],[8.3190995,45.7686725],[8.3197373,45.7688068],[8.3219681,45.7689865],[8.3235871,45.7697117],[8.3249659,45.7701564],[8.3270091,45.7704384],[8.328246,45.7710533],[8.328741,45.7715062],[8.329551,45.7718305],[8.3310146,45.7719831],[8.3320396,45.7718451],[8.3340347,45.7713077],[8.3344354,45.7728311],[8.3348078,45.7737919],[8.3362678,45.7761855],[8.3376755,45.7761442],[8.3388292,45.7759663],[8.3395759,45.7757817],[8.3407321,45.7753563],[8.3432963,45.7748985],[8.343717,45.7747344],[8.3441408,45.7742778],[8.3450525,45.7729015],[8.34521,45.7723893],[8.3451327,45.7720199],[8.3448495,45.7713927],[8.346694,45.7717588],[8.3493767,45.7721004],[8.3509201,45.7729215],[8.3514513,45.773073],[8.3516741,45.7735468],[8.3519461,45.7737283],[8.3528876,45.7739587],[8.3534356,45.7739798],[8.3542055,45.7741417],[8.3551236,45.7745564],[8.3558722,45.7750241],[8.3578962,45.7757106],[8.360776,45.7768563],[8.3613141,45.7771428],[8.3618146,45.7777397],[8.3620671,45.7778446],[8.3640484,45.7776666],[8.3659717,45.7781408],[8.3672577,45.77813],[8.3678289,45.7784841],[8.3669664,45.7799285],[8.3675835,45.780706],[8.3680311,45.7815455],[8.3680458,45.7832287],[8.3679367,45.7838851],[8.3703035,45.7840512],[8.3747793,45.7841928],[8.3750095,45.7858142],[8.3753107,45.7866394],[8.3755403,45.7869512],[8.375563,45.7876578],[8.3755043,45.7879815],[8.3752545,45.7883537],[8.3744291,45.7891817],[8.3745411,45.7901319],[8.3749208,45.7918441],[8.3756961,45.793383],[8.3759172,45.7940322],[8.376159,45.7942045],[8.3762595,45.7951051],[8.3764498,45.7956687],[8.376331,45.7958301],[8.3766883,45.7962821],[8.3769863,45.7970667],[8.3772072,45.7982065],[8.3770036,45.7982954],[8.3769046,45.7989159],[8.376786,45.7990953],[8.3755101,45.7991243],[8.3748522,45.7993457],[8.3745298,45.799587],[8.3738326,45.8006183],[8.3723627,45.8012717],[8.3715744,45.8009254],[8.371242,45.800658],[8.3708783,45.800494],[8.3706084,45.80011],[8.3705813,45.7997993],[8.3703637,45.7997036],[8.3704248,45.7992044],[8.3694826,45.7989157],[8.3681,45.7978073],[8.3671738,45.798975],[8.367391,45.7991472],[8.3679548,45.7991773],[8.3683855,45.7994992],[8.3689489,45.7995653],[8.3692329,45.7996974],[8.3683378,45.8003232],[8.3687163,45.8006168],[8.3695676,45.8005093],[8.3698587,45.8005469],[8.3698965,45.8006551],[8.3702655,45.8007066],[8.3708072,45.8009932],[8.3720345,45.8014229],[8.3732069,45.8020549],[8.3733839,45.8024744],[8.3733417,45.8027219],[8.3737232,45.8028858],[8.3737831,45.8029896],[8.3735895,45.8032901],[8.3740613,45.8033962],[8.3740073,45.8036135],[8.3745445,45.8040919],[8.3753137,45.8045056],[8.3756413,45.8048404],[8.3751916,45.8055355],[8.3751914,45.8057795],[8.3747144,45.8060144],[8.372757,45.8065618],[8.3714837,45.8068068],[8.3712632,45.8068866],[8.3707015,45.8073785],[8.3698511,45.8078553],[8.3687001,45.8078175],[8.368535,45.8078706],[8.3682294,45.8082559],[8.3679953,45.8083626],[8.3676788,45.8083249],[8.3664483,45.80785],[8.3659822,45.8070689],[8.3650933,45.8060109],[8.3647425,45.8057389],[8.363548,45.8056333],[8.3622284,45.8056394],[8.3614811,45.8052572],[8.3609517,45.8051327],[8.3603939,45.8047516],[8.3599776,45.8047853],[8.359468,45.8050749],[8.3588557,45.8049545],[8.3586559,45.8052279],[8.3585345,45.8057807],[8.3584059,45.805879],[8.3579926,45.8059397],[8.3571367,45.8057999],[8.3561002,45.8057445],[8.3550899,45.8053293],[8.3540244,45.8050668],[8.3531085,45.8050751],[8.3523737,45.8049764],[8.3517855,45.8053466],[8.3502014,45.8058957],[8.3490121,45.8061769],[8.3485059,45.806165],[8.3481353,45.8062484],[8.3475501,45.8066681],[8.3472858,45.8066756],[8.346751,45.806461],[8.3456869,45.8063829],[8.344954,45.8066397],[8.3444756,45.806925],[8.3442049,45.806964],[8.3442036,45.807351],[8.3440627,45.8074672],[8.3435249,45.8075046],[8.3424399,45.8073318],[8.3418928,45.8073782],[8.3413505,45.8075596],[8.3411568,45.807923],[8.3409848,45.8080075],[8.3404494,45.8078469],[8.3394972,45.8077649],[8.3391574,45.8075919],[8.3389959,45.8073345],[8.3390781,45.8069524],[8.3387685,45.8066041],[8.3387156,45.8063518],[8.3383932,45.8065749],[8.338099,45.8065237],[8.3377675,45.8061978],[8.3370269,45.8063105],[8.3368237,45.8061563],[8.3366511,45.8057863],[8.3363705,45.8056407],[8.3359958,45.8058005],[8.3355854,45.8058476],[8.3348236,45.8061942],[8.3345322,45.806143],[8.3337184,45.8058907],[8.3334072,45.8056864],[8.3328084,45.8056514],[8.3324494,45.8052983],[8.3319523,45.8051334],[8.3320552,45.8053095],[8.3320438,45.8056244],[8.3317499,45.8058432],[8.3317459,45.8061852],[8.3316229,45.806414],[8.3302785,45.8068382],[8.3288291,45.8069737],[8.3284274,45.8071288],[8.3283487,45.8072229],[8.3282457,45.8080278],[8.327953,45.8084896],[8.3272475,45.808724],[8.3255816,45.8090922],[8.3253645,45.8090864],[8.3241548,45.8086518],[8.3233706,45.8086381],[8.3227792,45.8087606],[8.3223096,45.8091284],[8.3213171,45.8084729],[8.3211865,45.8076036],[8.3206645,45.8070965],[8.3201788,45.8056355],[8.320103,45.804789],[8.3196665,45.8033193],[8.3199191,45.8032488],[8.3200004,45.8031457],[8.320177,45.8022422],[8.3204221,45.8017666],[8.3203347,45.8013791],[8.3206002,45.8012772],[8.3206074,45.8011782],[8.31943,45.7990561],[8.3186417,45.7982458],[8.3170322,45.7963191],[8.3166414,45.7956642],[8.316493,45.7952313],[8.3164451,45.7947495],[8.3170111,45.7927817],[8.3172382,45.792423]]]},"properties":{"type":"boundary","gemeente":"Madonna del Sasso"}}]}