{"type":"FeatureCollection","metadata":{"gemeente":"Madone","slug":"madone","generated_at":"2026-09-26T13:10:07.029818Z","total_points":14,"providers":["PosteItaliane","DPD","DHL","Amazon"],"bounds":[9.54743687,45.65082874,9.555019,45.655739]},"features":[{"type":"Feature","geometry":{"type":"Point","coordinates":[9.5517151,45.6516834]},"properties":{"type":"pakketpunt","locatieNaam":"Madone","straatNaam":"Piazzale Dei Vignali","straatNr":"11","vervoerder":"PosteItaliane","puntType":"postkantoor","bezettingsgraad":50,"latitude":45.6516834,"longitude":9.5517151,"canPickup":true,"canDropoff":true,"openingstijden":{"za":"08:20 - 12:35","zo":"gesloten","ma":"08:20 - 13:35","di":"08:20 - 13:35","wo":"08:20 - 13:35","do":"08:20 - 13:35","vr":"08:20 - 13:35"}}},{"type":"Feature","geometry":{"type":"Point","coordinates":[9.5517151,45.6516834]},"properties":{"type":"pakketpunt","locatieNaam":"Ufficio Postale Madone","straatNaam":"Piazzale Dei Vignali","straatNr":"11","vervoerder":"PosteItaliane","puntType":"automaat","bezettingsgraad":50,"latitude":45.6516834,"longitude":9.5517151,"canPickup":true,"canDropoff":true,"openingstijden":{"za":"00:01 - 23:59","zo":"00:01 - 23:59","ma":"00:01 - 23:59","di":"00:01 - 23:59","wo":"00:01 - 23:59","do":"00:01 - 23:59","vr":"00:01 - 23:59"}}},{"type":"Feature","geometry":{"type":"Point","coordinates":[9.54743687,45.65082874]},"properties":{"type":"pakketpunt","locatieNaam":"Edicola F.lli Vavassori","straatNaam":"VIA VITTORIO VENETO","straatNr":"13","vervoerder":"DPD","puntType":"pickup_point","bezettingsgraad":50,"latitude":45.65082874,"longitude":9.54743687,"canPickup":true,"canDropoff":true,"openingstijden":{"ma":"07:00 - 12:30, 15:30 - 19:30","di":"07:00 - 12:30, 15:30 - 19:30","wo":"07:00 - 12:30, 15:30 - 19:30","do":"07:00 - 12:30, 15:30 - 19:30","vr":"07:00 - 12:30, 15:30 - 19:30","za":"07:00 - 12:30, 15:30 - 19:30","zo":"07:00 - 12:30"}}},{"type":"Feature","geometry":{"type":"Point","coordinates":[9.551715,45.651683]},"properties":{"type":"pakketpunt","locatieNaam":"Ufficio Postale MADONE","straatNaam":"PIAZZALE DEI VIGNALI 11","straatNr":"","vervoerder":"DHL","puntType":"postOffice","bezettingsgraad":50,"latitude":45.651683,"longitude":9.551715,"canPickup":true,"canDropoff":true,"openingstijden":{"ma":"08:20 - 13:35","di":"08:20 - 13:35","wo":"08:20 - 13:35","do":"08:20 - 13:35","vr":"08:20 - 13:35","za":"08:20 - 12:35","zo":"gesloten"}}},{"type":"Feature","geometry":{"type":"Point","coordinates":[9.551715,45.651683]},"properties":{"type":"pakketpunt","locatieNaam":"UFFICIO POSTALE MADONE","straatNaam":"PIAZZALE DEI VIGNALI 11","straatNr":"","vervoerder":"DHL","puntType":"packStation","bezettingsgraad":50,"latitude":45.651683,"longitude":9.551715,"canPickup":true,"canDropoff":true,"openingstijden":{"ma":"00:01 - 23:59","di":"00:01 - 23:59","wo":"00:01 - 23:59","do":"00:01 - 23:59","vr":"00:01 - 23:59","za":"00:01 - 23:59","zo":"00:01 - 23:59"}}},{"type":"Feature","geometry":{"type":"Point","coordinates":[9.5536511,45.6548697]},"properties":{"type":"pakketpunt","locatieNaam":"Amazon Locker - Test retrofit2","straatNaam":"Test retrofit","straatNr":"","vervoerder":"Amazon","puntType":"locker","bezettingsgraad":50,"latitude":45.6548697,"longitude":9.5536511,"canPickup":true,"canDropoff":false,"openingstijden":null}},{"type":"Feature","geometry":{"type":"Point","coordinates":[9.5536511,45.6548697]},"properties":{"type":"pakketpunt","locatieNaam":"Amazon Locker - Retro_Gen2.5-N","straatNaam":"XXX","straatNr":"","vervoerder":"Amazon","puntType":"locker","bezettingsgraad":50,"latitude":45.6548697,"longitude":9.5536511,"canPickup":true,"canDropoff":false,"openingstijden":null}},{"type":"Feature","geometry":{"type":"Point","coordinates":[9.5538138,45.655566]},"properties":{"type":"pakketpunt","locatieNaam":"Amazon Locker - brillantino","straatNaam":"Melania","straatNr":"","vervoerder":"Amazon","puntType":"locker","bezettingsgraad":50,"latitude":45.655566,"longitude":9.5538138,"canPickup":true,"canDropoff":false,"openingstijden":null}},{"type":"Feature","geometry":{"type":"Point","coordinates":[9.5536511,45.6548697]},"properties":{"type":"pakketpunt","locatieNaam":"Amazon Locker - Retrofit 3.0n","straatNaam":"Test","straatNr":"","vervoerder":"Amazon","puntType":"locker","bezettingsgraad":50,"latitude":45.6548697,"longitude":9.5536511,"canPickup":true,"canDropoff":false,"openingstijden":null}},{"type":"Feature","geometry":{"type":"Point","coordinates":[9.5536511,45.6548697]},"properties":{"type":"pakketpunt","locatieNaam":"Amazon Locker - Gen4 retro new2","straatNaam":"Paoli Trasporti","straatNr":"","vervoerder":"Amazon","puntType":"locker","bezettingsgraad":50,"latitude":45.6548697,"longitude":9.5536511,"canPickup":true,"canDropoff":false,"openingstijden":null}},{"type":"Feature","geometry":{"type":"Point","coordinates":[9.555019,45.655739]},"properties":{"type":"pakketpunt","locatieNaam":"Amazon Locker - Test retrofit","straatNaam":"V11 test Bidors 2","straatNr":"","vervoerder":"Amazon","puntType":"locker","bezettingsgraad":50,"latitude":45.655739,"longitude":9.555019,"canPickup":true,"canDropoff":false,"openingstijden":null}},{"type":"Feature","geometry":{"type":"Point","coordinates":[9.547838,45.651832]},"properties":{"type":"pakketpunt","locatieNaam":"Amazon Counter - Bar Sun flower ","straatNaam":"Via Carso , 1","straatNr":"","vervoerder":"Amazon","puntType":"helix","bezettingsgraad":50,"latitude":45.651832,"longitude":9.547838,"canPickup":true,"canDropoff":false,"openingstijden":null}},{"type":"Feature","geometry":{"type":"Point","coordinates":[9.547469,45.65083]},"properties":{"type":"pakketpunt","locatieNaam":"Amazon Counter - PRIMAEDICOLA","straatNaam":"F.LLI VAVASSORI S.A.S.","straatNr":"","vervoerder":"Amazon","puntType":"helix","bezettingsgraad":50,"latitude":45.65083,"longitude":9.547469,"canPickup":true,"canDropoff":false,"openingstijden":null}},{"type":"Feature","geometry":{"type":"Point","coordinates":[9.55171,45.6516]},"properties":{"type":"pakketpunt","locatieNaam":"Ufficio Postale MADONE","straatNaam":"PIAZZALE DEI VIGNALI 11","straatNr":"","vervoerder":"Amazon","puntType":"3p","bezettingsgraad":50,"latitude":45.6516,"longitude":9.55171,"canPickup":true,"canDropoff":false,"openingstijden":null}},{"type":"Feature","geometry":{"type":"Polygon","coordinates":[[[9.528074,45.6486733],[9.5283173,45.6483764],[9.5290165,45.6480327],[9.5291147,45.6478444],[9.5291062,45.6472976],[9.5291848,45.647141],[9.5294641,45.6469223],[9.5296497,45.6468758],[9.5298917,45.6465501],[9.53009,45.6464738],[9.530261,45.6462376],[9.5309115,45.6460384],[9.5310984,45.6457518],[9.5320949,45.6451831],[9.5337487,45.6440056],[9.5384456,45.6450653],[9.5430536,45.6447595],[9.5431697,45.6450153],[9.5429602,45.6453226],[9.5429843,45.6454667],[9.5443488,45.6452625],[9.5447126,45.6450918],[9.5451124,45.6445343],[9.5452281,45.6439186],[9.5459172,45.6436506],[9.5461458,45.6432905],[9.5462004,45.6427871],[9.5454429,45.6426574],[9.5446541,45.642276],[9.546076,45.6411017],[9.5503989,45.6418558],[9.5505645,45.6413886],[9.5512074,45.6414683],[9.5516932,45.6426674],[9.5545981,45.6434383],[9.554541,45.6440402],[9.5558302,45.6441861],[9.5556838,45.6450171],[9.5592174,45.6453233],[9.5626625,45.6459317],[9.562578,45.6463598],[9.56328,45.6464828],[9.5635141,45.647186],[9.5634476,45.6477264],[9.5633001,45.6480843],[9.5624268,45.6479194],[9.5625355,45.6486049],[9.5614966,45.648801],[9.5612645,45.6486433],[9.5604671,45.6487602],[9.5601637,45.6485497],[9.5592705,45.6489866],[9.5595861,45.6509883],[9.558811,45.6508501],[9.558668,45.6508854],[9.5585278,45.6510878],[9.5582528,45.6520462],[9.5576865,45.6533569],[9.5576426,45.6544943],[9.5569243,45.6544494],[9.5568721,45.6550629],[9.5569279,45.6559044],[9.5564245,45.6558327],[9.5563887,45.6554326],[9.5561884,45.6553449],[9.5561933,45.6552419],[9.5557622,45.6552085],[9.5554113,45.6563231],[9.5533781,45.6560478],[9.5533466,45.656119],[9.5540528,45.657658],[9.5532223,45.657536],[9.5531991,45.6577193],[9.5525321,45.657619],[9.5520404,45.6574717],[9.5513969,45.6574079],[9.5514002,45.6572065],[9.5482885,45.6570055],[9.5474864,45.6570275],[9.5473191,45.658413],[9.5469375,45.6584158],[9.5467534,45.6601971],[9.5466883,45.6602045],[9.5458953,45.659556],[9.5451044,45.6594612],[9.5449933,45.6590411],[9.5450987,45.6586857],[9.5440403,45.6585883],[9.5438171,45.6582903],[9.5435968,45.6581775],[9.5431439,45.6582037],[9.5427116,45.658104],[9.5425333,45.6577507],[9.5418025,45.6575296],[9.5409801,45.6570276],[9.5408698,45.6569211],[9.5407787,45.6565167],[9.540977,45.6556345],[9.5395039,45.6555058],[9.5375742,45.6549572],[9.5371001,45.6548852],[9.5368171,45.654933],[9.5360227,45.6546116],[9.5363299,45.6542251],[9.5364502,45.6537872],[9.5362863,45.6535138],[9.5355941,45.6530591],[9.5352698,45.6529608],[9.5355056,45.6521812],[9.5332712,45.651979],[9.5312241,45.651604],[9.5313086,45.6505281],[9.5305747,45.6505266],[9.5300118,45.6504003],[9.5289243,45.6492482],[9.528074,45.6486733]]]},"properties":{"type":"boundary","gemeente":"Madone"}}]}