{"type":"FeatureCollection","metadata":{"gemeente":"Magliano Alfieri","slug":"magliano-alfieri","generated_at":"2026-09-26T13:10:07.259887Z","total_points":6,"providers":["PosteItaliane","DPD","InPost","DHL","Amazon"],"bounds":[8.068742,44.754866,8.0733994,44.7591866]},"features":[{"type":"Feature","geometry":{"type":"Point","coordinates":[8.07226648,44.7591694]},"properties":{"type":"pakketpunt","locatieNaam":"Sant'antonio Magliano Alfieri","straatNaam":"Via Quattro Novembre","straatNr":"37","vervoerder":"PosteItaliane","puntType":"postkantoor","bezettingsgraad":50,"latitude":44.7591694,"longitude":8.07226648,"canPickup":true,"canDropoff":true,"openingstijden":{"za":"08:20 - 12:45","zo":"gesloten","ma":"08:20 - 13:45","di":"08:20 - 13:45","wo":"08:20 - 13:45","do":"08:20 - 13:45","vr":"08:20 - 13:45"}}},{"type":"Feature","geometry":{"type":"Point","coordinates":[8.068742,44.754866]},"properties":{"type":"pakketpunt","locatieNaam":"BRT LOCKER - Discar Magliano Alfier","straatNaam":"CORSO MARCONI","straatNr":"7","vervoerder":"DPD","puntType":"dpd_box","bezettingsgraad":50,"latitude":44.754866,"longitude":8.068742,"canPickup":true,"canDropoff":true,"openingstijden":{"ma":"00:00 - 23:45","di":"00:00 - 23:45","wo":"00:00 - 23:45","do":"00:00 - 23:45","vr":"00:00 - 23:45","za":"00:00 - 23:45","zo":"00:00 - 23:45"}}},{"type":"Feature","geometry":{"type":"Point","coordinates":[8.06882,44.75489]},"properties":{"type":"pakketpunt","locatieNaam":"InPost Locker 24/7","straatNaam":"SS 231","straatNr":"","vervoerder":"InPost","puntType":"automaat","bezettingsgraad":50,"latitude":44.75489,"longitude":8.06882,"canPickup":true,"canDropoff":true,"openingstijden":null}},{"type":"Feature","geometry":{"type":"Point","coordinates":[8.072266,44.759169]},"properties":{"type":"pakketpunt","locatieNaam":"Ufficio Postale SANT'ANTONIO MAGLIA","straatNaam":"VIA QUATTRO NOVEMBRE 37","straatNr":"","vervoerder":"DHL","puntType":"postOffice","bezettingsgraad":50,"latitude":44.759169,"longitude":8.072266,"canPickup":true,"canDropoff":true,"openingstijden":{"ma":"08:20 - 13:45","di":"08:20 - 13:45","wo":"08:20 - 13:45","do":"08:20 - 13:45","vr":"08:20 - 13:45","za":"08:20 - 12:45","zo":"gesloten"}}},{"type":"Feature","geometry":{"type":"Point","coordinates":[8.0733994,44.7591866]},"properties":{"type":"pakketpunt","locatieNaam":"Amazon Counter - Caffè sport","straatNaam":"Piazza Cecilia Arione Morando, 3","straatNr":"","vervoerder":"Amazon","puntType":"helix","bezettingsgraad":50,"latitude":44.7591866,"longitude":8.0733994,"canPickup":true,"canDropoff":false,"openingstijden":null}},{"type":"Feature","geometry":{"type":"Point","coordinates":[8.07226,44.7591]},"properties":{"type":"pakketpunt","locatieNaam":"Ufficio Postale SANT'ANTONIO MAGLIANO ALFIERI","straatNaam":"VIA QUATTRO NOVEMBRE 37","straatNr":"","vervoerder":"Amazon","puntType":"3p","bezettingsgraad":50,"latitude":44.7591,"longitude":8.07226,"canPickup":true,"canDropoff":false,"openingstijden":null}},{"type":"Feature","geometry":{"type":"Polygon","coordinates":[[[8.0493799,44.7638223],[8.050253,44.7654447],[8.0539659,44.7679104],[8.0553503,44.7728122],[8.0539358,44.7736108],[8.0539565,44.7745297],[8.0559467,44.774677],[8.0563789,44.7754568],[8.0573667,44.7758359],[8.0608449,44.7765165],[8.0645094,44.7762043],[8.0699083,44.7765569],[8.074691,44.7780238],[8.0800329,44.7802989],[8.0804507,44.7811316],[8.0819376,44.7833333],[8.0834912,44.7824365],[8.0837169,44.7820377],[8.0856477,44.7806731],[8.0878696,44.7783682],[8.0880004,44.778033],[8.0871012,44.7762394],[8.0895453,44.7747434],[8.0895616,44.7739832],[8.0950208,44.7714623],[8.0960234,44.7678404],[8.0996423,44.765577],[8.1040989,44.7641935],[8.1043237,44.7633941],[8.104381,44.7628544],[8.1043091,44.7625747],[8.103664,44.7622591],[8.1028592,44.7605217],[8.1011388,44.7598447],[8.099825,44.7596003],[8.0975177,44.7593615],[8.0962292,44.7591397],[8.095085,44.758505],[8.0969739,44.7572642],[8.0975673,44.7569628],[8.0911269,44.7516494],[8.0895832,44.750827],[8.0870166,44.7499552],[8.08129,44.7508015],[8.0770185,44.7504242],[8.0740911,44.7516967],[8.066549,44.7512341],[8.0647849,44.751453],[8.0641527,44.7509346],[8.0620388,44.7522758],[8.0610744,44.7541676],[8.0616249,44.7548972],[8.061462,44.7566397],[8.060875,44.7578726],[8.0584231,44.7610166],[8.0535768,44.763119],[8.0522098,44.7634633],[8.0493799,44.7638223]]]},"properties":{"type":"boundary","gemeente":"Magliano Alfieri"}}]}