{"type":"FeatureCollection","metadata":{"gemeente":"Magliolo","slug":"magliolo","generated_at":"2026-09-26T13:10:07.452949Z","total_points":3,"providers":["PosteItaliane","DHL","Amazon"],"bounds":[8.25108,44.1901,8.251084,44.19013117]},"features":[{"type":"Feature","geometry":{"type":"Point","coordinates":[8.25108391,44.19013117]},"properties":{"type":"pakketpunt","locatieNaam":"Magliolo","straatNaam":"Piazza Plebiscito","straatNr":"20","vervoerder":"PosteItaliane","puntType":"postkantoor","bezettingsgraad":50,"latitude":44.19013117,"longitude":8.25108391,"canPickup":true,"canDropoff":true,"openingstijden":{"za":"gesloten","zo":"gesloten","ma":"08:20 - 13:45","di":"08:20 - 13:45","wo":"08:20 - 13:45","do":"08:20 - 13:45","vr":"08:20 - 13:45"}}},{"type":"Feature","geometry":{"type":"Point","coordinates":[8.251084,44.190131]},"properties":{"type":"pakketpunt","locatieNaam":"Ufficio Postale MAGLIOLO","straatNaam":"PIAZZA PLEBISCITO 20","straatNr":"","vervoerder":"DHL","puntType":"postOffice","bezettingsgraad":50,"latitude":44.190131,"longitude":8.251084,"canPickup":true,"canDropoff":true,"openingstijden":{"ma":"08:20 - 13:45","di":"08:20 - 13:45","wo":"08:20 - 13:45","do":"08:20 - 13:45","vr":"08:20 - 13:45","za":"gesloten","zo":"gesloten"}}},{"type":"Feature","geometry":{"type":"Point","coordinates":[8.25108,44.1901]},"properties":{"type":"pakketpunt","locatieNaam":"Ufficio Postale MAGLIOLO","straatNaam":"PIAZZA PLEBISCITO 20","straatNr":"","vervoerder":"Amazon","puntType":"3p","bezettingsgraad":50,"latitude":44.1901,"longitude":8.25108,"canPickup":true,"canDropoff":false,"openingstijden":null}},{"type":"Feature","geometry":{"type":"Polygon","coordinates":[[[8.1727169,44.2144706],[8.1755374,44.2157154],[8.1770348,44.2161599],[8.1777497,44.2165739],[8.1783158,44.2170998],[8.1786224,44.2176748],[8.1793111,44.2183784],[8.1795676,44.2188256],[8.1800819,44.2193935],[8.180541,44.2197499],[8.1824113,44.2208572],[8.1832445,44.2216722],[8.1838751,44.2221499],[8.1846566,44.223618],[8.1844213,44.2243506],[8.1844491,44.224466],[8.1860704,44.2241868],[8.1876845,44.2232482],[8.1883966,44.2229755],[8.1908079,44.223562],[8.1918803,44.224071],[8.1922543,44.224465],[8.1921875,44.2246397],[8.1925656,44.2252552],[8.1941454,44.2267603],[8.1958738,44.2273861],[8.1961312,44.2276699],[8.1967204,44.228891],[8.1974105,44.2296823],[8.197696,44.2302333],[8.1982203,44.2307529],[8.1975476,44.2322296],[8.1975064,44.2325606],[8.1976102,44.2334059],[8.1979705,44.2336252],[8.1989077,44.234628],[8.1997134,44.2352906],[8.2000163,44.2355138],[8.2006966,44.2357242],[8.2012695,44.2361293],[8.2016159,44.2368442],[8.2020919,44.2371314],[8.2026503,44.2381818],[8.2031388,44.2394126],[8.2031404,44.2395796],[8.2026573,44.2406812],[8.2019997,44.24152],[8.1994784,44.2428159],[8.1974801,44.244058],[8.1975792,44.2440368],[8.1995392,44.2428942],[8.2021174,44.2415334],[8.2034058,44.2396988],[8.2036772,44.2394942],[8.2051465,44.2389236],[8.2062208,44.2382923],[8.2069836,44.2374675],[8.207386,44.2368974],[8.2095776,44.2352494],[8.2142522,44.2313092],[8.2147993,44.2305085],[8.2151892,44.2300608],[8.2153843,44.2299877],[8.2157188,44.2293892],[8.2167177,44.2286011],[8.2170252,44.2284858],[8.2175167,44.2281226],[8.2177386,44.2271209],[8.2182935,44.226905],[8.2201786,44.2266241],[8.2209824,44.2262655],[8.2214342,44.2259183],[8.222701,44.2255882],[8.2229086,44.2251678],[8.2237503,44.2243878],[8.2242386,44.2240428],[8.2244851,44.2239902],[8.2249185,44.2237419],[8.2265281,44.2239078],[8.226969,44.2243524],[8.2275511,44.2234579],[8.22815,44.2227891],[8.2283869,44.2222397],[8.2285451,44.2220585],[8.2285858,44.2218092],[8.2298054,44.2197034],[8.2298376,44.2195055],[8.2304233,44.2190451],[8.2307603,44.218534],[8.2311305,44.218178],[8.2320625,44.2180736],[8.2336773,44.2170526],[8.233639,44.2168451],[8.234,44.2163547],[8.2347594,44.2159171],[8.2349872,44.2159904],[8.2348517,44.2157572],[8.2349183,44.2156746],[8.2351728,44.2156182],[8.2354409,44.2154069],[8.2361379,44.2153286],[8.2373088,44.2148882],[8.2375695,44.2146492],[8.2374405,44.2141834],[8.2377925,44.2136762],[8.2380856,44.2136392],[8.2389938,44.2131682],[8.239847,44.2128279],[8.2400735,44.2128068],[8.2408048,44.2124501],[8.2417463,44.2122477],[8.2421258,44.2122502],[8.2430618,44.2118088],[8.244191,44.21142],[8.2448798,44.2113333],[8.2466751,44.2113981],[8.2489681,44.2092066],[8.2506601,44.2088043],[8.2520813,44.2080886],[8.2523113,44.2079051],[8.2548443,44.2069689],[8.256604,44.2069587],[8.2565705,44.2064373],[8.2569487,44.206143],[8.2571556,44.2061121],[8.2570769,44.2051434],[8.2572448,44.2049614],[8.2571294,44.2046527],[8.2574704,44.203433],[8.2573688,44.2031971],[8.2574271,44.2028926],[8.2572416,44.202562],[8.2572493,44.2021479],[8.2575637,44.2017396],[8.2574454,44.2009451],[8.2576233,44.2004905],[8.2573583,44.1998701],[8.2572888,44.1996148],[8.2573377,44.199275],[8.2571528,44.1990053],[8.2571375,44.1987976],[8.257727,44.1981273],[8.2582489,44.1971052],[8.2585268,44.1968086],[8.2594083,44.1962092],[8.2594692,44.1959101],[8.2592164,44.1954865],[8.2586723,44.1950246],[8.2585175,44.1945576],[8.2582196,44.1940508],[8.2574501,44.1932687],[8.257055,44.1929913],[8.2570234,44.1927387],[8.2568993,44.1925692],[8.2561851,44.1920197],[8.2558893,44.1915958],[8.2555329,44.1913611],[8.2557756,44.1909693],[8.2557577,44.1905281],[8.2555881,44.190119],[8.2546947,44.1894894],[8.2542771,44.1889854],[8.254202,44.1884043],[8.2533792,44.1874504],[8.2532672,44.1868085],[8.2530499,44.1864714],[8.2524202,44.1860242],[8.2516117,44.1860404],[8.2500077,44.1859095],[8.2485066,44.1855877],[8.2475048,44.1851009],[8.2471055,44.1847174],[8.2467228,44.1841289],[8.246203,44.1838117],[8.2458494,44.1836652],[8.2452716,44.1836582],[8.2444885,44.1838856],[8.2431736,44.1845954],[8.2420725,44.1848309],[8.2415619,44.1850216],[8.2409534,44.1855584],[8.2402647,44.1867212],[8.2380133,44.1876822],[8.2378822,44.1878053],[8.2378386,44.1881305],[8.2380383,44.1889192],[8.2379216,44.1891304],[8.2377444,44.1892474],[8.2365173,44.1896004],[8.2362778,44.1897476],[8.2361434,44.1899552],[8.2361091,44.1907374],[8.2363149,44.1913437],[8.2362382,44.1914759],[8.2354078,44.1920262],[8.2349544,44.1927234],[8.2344936,44.1931127],[8.2337302,44.1935059],[8.2330349,44.1940622],[8.2322074,44.1950518],[8.230668,44.1952356],[8.2301613,44.1957968],[8.2296123,44.1960372],[8.2293285,44.1963594],[8.2290899,44.1964005],[8.2289858,44.1964918],[8.2290812,44.1969233],[8.22904,44.1970285],[8.2285164,44.1975576],[8.2284268,44.1978172],[8.2282493,44.197922],[8.2274294,44.1981091],[8.2268296,44.1984229],[8.2261802,44.1986273],[8.2260454,44.1988274],[8.2262604,44.200092],[8.2258757,44.2006552],[8.2255081,44.2009227],[8.2237619,44.2009101],[8.2226236,44.2011814],[8.2220326,44.2016055],[8.2214783,44.2022248],[8.2212102,44.2022489],[8.2209218,44.2023907],[8.2191206,44.2027972],[8.2176281,44.2028701],[8.2161589,44.202429],[8.2155764,44.202057],[8.2153081,44.2018082],[8.2150935,44.2014487],[8.2146114,44.201441],[8.213752,44.2016915],[8.2120851,44.2016787],[8.211549,44.2015923],[8.2105441,44.2008186],[8.209992,44.2006156],[8.2091401,44.2005109],[8.2089055,44.2005659],[8.2084079,44.2009841],[8.2080607,44.2011065],[8.2069965,44.2012577],[8.2066745,44.2011496],[8.2063751,44.2012266],[8.2056284,44.2011089],[8.2047053,44.2008372],[8.2044178,44.2005953],[8.2042967,44.2003145],[8.2035596,44.200247],[8.2030266,44.2000616],[8.2028142,44.2000401],[8.2020256,44.2003509],[8.2016388,44.2003457],[8.2012677,44.2002046],[8.200467,44.2000823],[8.2000307,44.1998967],[8.1990984,44.1997038],[8.1989109,44.199543],[8.199192,44.1990031],[8.1992121,44.1986119],[8.1990818,44.1984628],[8.1978491,44.19787],[8.1974101,44.1975274],[8.1970692,44.1968581],[8.1971113,44.1965641],[8.197238,44.1963385],[8.1970412,44.1962351],[8.1950441,44.1962969],[8.1929537,44.1967954],[8.1911018,44.1969416],[8.1887595,44.1979491],[8.1875773,44.1979383],[8.1873807,44.1980336],[8.1847608,44.1985098],[8.1814166,44.1996699],[8.180673,44.1998574],[8.1801458,44.2001478],[8.1784109,44.2006212],[8.1788587,44.200903],[8.1790555,44.2011204],[8.1784815,44.2014414],[8.1786548,44.2020631],[8.1785869,44.2022779],[8.1783824,44.2027205],[8.1780182,44.204004],[8.177509,44.204439],[8.1773668,44.2051253],[8.1773127,44.2060008],[8.1775067,44.2064114],[8.177232,44.2071009],[8.1763587,44.2079804],[8.1759757,44.2084901],[8.1758806,44.2093854],[8.1755897,44.2098364],[8.1752971,44.2101166],[8.1744121,44.210345],[8.1738415,44.2104012],[8.1732287,44.210661],[8.1729297,44.2111119],[8.1729031,44.2115906],[8.17275,44.2120029],[8.171883,44.212974],[8.1727169,44.2144706]]]},"properties":{"type":"boundary","gemeente":"Magliolo"}}]}