{"type":"FeatureCollection","metadata":{"gemeente":"Malnate","slug":"malnate","generated_at":"2026-09-26T14:27:30.421295Z","total_points":46,"providers":["PosteItaliane","DPD","InPost","GLS","DHL","Amazon","FedEx"],"bounds":[8.86686,45.7869,8.89851726,45.80109844]},"features":[{"type":"Feature","geometry":{"type":"Point","coordinates":[8.87202136,45.7896873]},"properties":{"type":"pakketpunt","locatieNaam":"Gurone","straatNaam":"Via Del Bollerino","straatNr":"3","vervoerder":"PosteItaliane","puntType":"postkantoor","bezettingsgraad":50,"latitude":45.7896873,"longitude":8.87202136,"canPickup":true,"canDropoff":true,"openingstijden":{"za":"08:20 - 12:45","zo":"gesloten","ma":"gesloten","di":"08:20 - 13:45","wo":"gesloten","do":"08:20 - 13:45","vr":"gesloten"}}},{"type":"Feature","geometry":{"type":"Point","coordinates":[8.88109089,45.80109844]},"properties":{"type":"pakketpunt","locatieNaam":"Malnate","straatNaam":"Via Giuseppe Brusa","straatNr":"1","vervoerder":"PosteItaliane","puntType":"postkantoor","bezettingsgraad":50,"latitude":45.80109844,"longitude":8.88109089,"canPickup":true,"canDropoff":true,"openingstijden":{"za":"08:20 - 12:35","zo":"gesloten","ma":"08:20 - 19:05","di":"08:20 - 19:05","wo":"08:20 - 19:05","do":"08:20 - 19:05","vr":"08:20 - 19:05"}}},{"type":"Feature","geometry":{"type":"Point","coordinates":[8.87803453,45.79550653]},"properties":{"type":"pakketpunt","locatieNaam":"Tabaccheria N. 7","straatNaam":"Piazza Antonio Bianchi Luraschi","straatNr":"2","vervoerder":"PosteItaliane","puntType":"servicepunt","bezettingsgraad":50,"latitude":45.79550653,"longitude":8.87803453,"canPickup":true,"canDropoff":true,"openingstijden":{"za":"06:00 - 20:00","zo":"gesloten","ma":"06:00 - 20:00","di":"06:00 - 20:00","wo":"06:00 - 20:00","do":"06:00 - 20:00","vr":"06:00 - 20:00"}}},{"type":"Feature","geometry":{"type":"Point","coordinates":[8.87847309,45.80044888]},"properties":{"type":"pakketpunt","locatieNaam":"Tabaccheria N. 1","straatNaam":"Piazza Repubblica","straatNr":"7","vervoerder":"PosteItaliane","puntType":"servicepunt","bezettingsgraad":50,"latitude":45.80044888,"longitude":8.87847309,"canPickup":true,"canDropoff":true,"openingstijden":{"za":"07:30 - 19:30","zo":"gesloten","ma":"07:30 - 19:30","di":"07:30 - 19:30","wo":"07:30 - 19:30","do":"07:30 - 19:30","vr":"07:30 - 19:30"}}},{"type":"Feature","geometry":{"type":"Point","coordinates":[8.88129922,45.79840923]},"properties":{"type":"pakketpunt","locatieNaam":"C Era Una Volta","straatNaam":"Via Martiri Patrioti","straatNr":"28","vervoerder":"PosteItaliane","puntType":"servicepunt","bezettingsgraad":50,"latitude":45.79840923,"longitude":8.88129922,"canPickup":true,"canDropoff":true,"openingstijden":{"za":"10:00 - 12:30, 15:30 - 18:30","zo":"gesloten","ma":"15:30 - 18:30","di":"10:00 - 12:30, 15:30 - 18:30","wo":"10:00 - 12:30, 15:30 - 18:30","do":"10:00 - 12:30, 15:30 - 18:30","vr":"10:00 - 12:30, 15:30 - 18:30"}}},{"type":"Feature","geometry":{"type":"Point","coordinates":[8.87352957,45.79053]},"properties":{"type":"pakketpunt","locatieNaam":"Tabaccheria N. 9","straatNaam":"Via Isola Bella","straatNr":"20","vervoerder":"PosteItaliane","puntType":"servicepunt","bezettingsgraad":50,"latitude":45.79053,"longitude":8.87352957,"canPickup":true,"canDropoff":true,"openingstijden":{"za":"07:30 - 13:00, 14:30 - 19:00","zo":"gesloten","ma":"07:30 - 13:00, 14:30 - 19:00","di":"07:30 - 13:00, 14:30 - 19:00","wo":"07:30 - 13:00, 14:30 - 19:00","do":"07:30 - 13:00, 14:30 - 19:00","vr":"07:30 - 13:00, 14:30 - 19:00"}}},{"type":"Feature","geometry":{"type":"Point","coordinates":[8.87635672,45.79058175]},"properties":{"type":"pakketpunt","locatieNaam":"Cartoleria Scarabocchio","straatNaam":"Via Caprera","straatNr":"30","vervoerder":"PosteItaliane","puntType":"servicepunt","bezettingsgraad":50,"latitude":45.79058175,"longitude":8.87635672,"canPickup":true,"canDropoff":true,"openingstijden":{"za":"09:30 - 12:00, 15:00 - 18:00","zo":"gesloten","ma":"08:30 - 12:00","di":"08:30 - 12:00, 15:00 - 19:00","wo":"08:30 - 12:00, 15:00 - 19:00","do":"08:30 - 12:00, 15:00 - 19:00","vr":"08:30 - 12:00, 15:00 - 19:00"}}},{"type":"Feature","geometry":{"type":"Point","coordinates":[8.89339756,45.79414379]},"properties":{"type":"pakketpunt","locatieNaam":"Tabaccheria N. 5","straatNaam":"Via Monte Grappa","straatNr":"18","vervoerder":"PosteItaliane","puntType":"servicepunt","bezettingsgraad":50,"latitude":45.79414379,"longitude":8.89339756,"canPickup":true,"canDropoff":true,"openingstijden":{"za":"07:00 - 19:00","zo":"gesloten","ma":"07:00 - 19:00","di":"07:00 - 19:00","wo":"07:00 - 19:00","do":"07:00 - 19:00","vr":"07:00 - 19:00"}}},{"type":"Feature","geometry":{"type":"Point","coordinates":[8.86686015,45.78942678]},"properties":{"type":"pakketpunt","locatieNaam":"Tabaccheria N. 6","straatNaam":"Via Quattro Novembre","straatNr":"3","vervoerder":"PosteItaliane","puntType":"servicepunt","bezettingsgraad":50,"latitude":45.78942678,"longitude":8.86686015,"canPickup":true,"canDropoff":true,"openingstijden":{"za":"08:00 - 23:59","zo":"gesloten","ma":"08:00 - 23:59","di":"08:00 - 23:59","wo":"08:00 - 23:59","do":"08:00 - 23:59","vr":"08:00 - 23:59"}}},{"type":"Feature","geometry":{"type":"Point","coordinates":[8.89851726,45.78693119]},"properties":{"type":"pakketpunt","locatieNaam":"Tabaccheria N. 4","straatNaam":"Via Como","straatNr":"25","vervoerder":"PosteItaliane","puntType":"servicepunt","bezettingsgraad":50,"latitude":45.78693119,"longitude":8.89851726,"canPickup":true,"canDropoff":true,"openingstijden":{"za":"06:15 - 13:00","zo":"gesloten","ma":"06:15 - 19:00","di":"06:15 - 19:00","wo":"06:15 - 19:00","do":"06:15 - 19:00","vr":"06:15 - 19:00"}}},{"type":"Feature","geometry":{"type":"Point","coordinates":[8.8786603,45.7972997]},"properties":{"type":"pakketpunt","locatieNaam":"Punto a Capo","straatNaam":"VIA G. MATTEOTTI","straatNr":"42","vervoerder":"DPD","puntType":"pickup_point","bezettingsgraad":50,"latitude":45.7972997,"longitude":8.8786603,"canPickup":true,"canDropoff":true,"openingstijden":{"ma":"16:00 - 19:00","di":"09:00 - 12:00, 16:00 - 19:00","wo":"09:00 - 12:00, 16:00 - 19:00","do":"09:00 - 12:00, 16:00 - 19:00","vr":"09:00 - 12:00, 16:00 - 19:00","za":"09:00 - 12:30","zo":"gesloten"}}},{"type":"Feature","geometry":{"type":"Point","coordinates":[8.8811919,45.7983879]},"properties":{"type":"pakketpunt","locatieNaam":"C'era Una Volta","straatNaam":"VIA MARTIRI PATRIOTI","straatNr":"28","vervoerder":"DPD","puntType":"pickup_point","bezettingsgraad":50,"latitude":45.7983879,"longitude":8.8811919,"canPickup":true,"canDropoff":true,"openingstijden":{"ma":"15:30 - 18:30","di":"10:00 - 12:30, 15:30 - 18:30","wo":"10:00 - 12:30, 15:30 - 18:30","do":"10:00 - 12:30, 15:30 - 18:30","vr":"10:00 - 12:30, 15:30 - 18:30","za":"10:00 - 12:30, 15:30 - 18:30","zo":"gesloten"}}},{"type":"Feature","geometry":{"type":"Point","coordinates":[8.8883335,45.7906468]},"properties":{"type":"pakketpunt","locatieNaam":"Officine del Pulito","straatNaam":"VIA KENNEDY","straatNr":"34","vervoerder":"DPD","puntType":"pickup_point","bezettingsgraad":50,"latitude":45.7906468,"longitude":8.8883335,"canPickup":true,"canDropoff":true,"openingstijden":{"ma":"09:00 - 12:30, 15:00 - 18:00","di":"09:00 - 12:30, 15:00 - 18:00","wo":"09:00 - 12:30, 15:00 - 18:00","do":"09:00 - 12:30, 15:00 - 18:00","vr":"09:00 - 12:30, 15:00 - 18:00","za":"09:00 - 13:00","zo":"gesloten"}}},{"type":"Feature","geometry":{"type":"Point","coordinates":[8.87617,45.79084]},"properties":{"type":"pakketpunt","locatieNaam":"InPost Point","straatNaam":"Via Caprera","straatNr":"30","vervoerder":"InPost","puntType":"servicepunt","bezettingsgraad":50,"latitude":45.79084,"longitude":8.87617,"canPickup":true,"canDropoff":true,"openingstijden":"Lun: 08:00 - 12:00 Mar-Ven: 08:00 - 12:00 - 15:00 - 19:00 Sab: 09:00 - 12:00 - 15:00 - 19:00"}},{"type":"Feature","geometry":{"type":"Point","coordinates":[8.87749,45.8005]},"properties":{"type":"pakketpunt","locatieNaam":"InPost Point","straatNaam":"Piazza Repubblica","straatNr":"6","vervoerder":"InPost","puntType":"servicepunt","bezettingsgraad":50,"latitude":45.8005,"longitude":8.87749,"canPickup":true,"canDropoff":true,"openingstijden":"Lun-Sab: 07:30 - 12:30 - 15:00 - 19:30"}},{"type":"Feature","geometry":{"type":"Point","coordinates":[8.88466,45.79534]},"properties":{"type":"pakketpunt","locatieNaam":"InPost Locker 24/7","straatNaam":"Via Kennedy","straatNr":"8","vervoerder":"InPost","puntType":"automaat","bezettingsgraad":50,"latitude":45.79534,"longitude":8.88466,"canPickup":true,"canDropoff":true,"openingstijden":null}},{"type":"Feature","geometry":{"type":"Point","coordinates":[8.8883335,45.7906468]},"properties":{"type":"pakketpunt","locatieNaam":"Officine del pulito","straatNaam":"Via Kennedy","straatNr":"34","vervoerder":"GLS","puntType":"parcel_shop","bezettingsgraad":50,"latitude":45.7906468,"longitude":8.8883335,"canPickup":true,"canDropoff":true,"openingstijden":"za: 09:00 - 13:00; ma: 09:00 - 12:30, 15:00 - 18:00"}},{"type":"Feature","geometry":{"type":"Point","coordinates":[8.8835433,45.7962151]},"properties":{"type":"pakketpunt","locatieNaam":"L'ISOLA DEI CELIACI","straatNaam":"Via Martiri Patrioti","straatNr":"64","vervoerder":"GLS","puntType":"parcel_shop","bezettingsgraad":50,"latitude":45.7962151,"longitude":8.8835433,"canPickup":true,"canDropoff":true,"openingstijden":"za: 08:30 - 12:30, 15:00 - 19:00; ma: 15:00 - 19:00"}},{"type":"Feature","geometry":{"type":"Point","coordinates":[8.8786603,45.7972997]},"properties":{"type":"pakketpunt","locatieNaam":"Punto a Capo","straatNaam":"Via G. Matteotti","straatNr":"42","vervoerder":"GLS","puntType":"parcel_shop","bezettingsgraad":50,"latitude":45.7972997,"longitude":8.8786603,"canPickup":true,"canDropoff":true,"openingstijden":"za: 09:00 - 13:00; di: 08:00 - 13:00, 16:00 - 19:00"}},{"type":"Feature","geometry":{"type":"Point","coordinates":[8.8811919,45.7983879]},"properties":{"type":"pakketpunt","locatieNaam":"C era una volta","straatNaam":"Via Martiri Patrioti","straatNr":"28","vervoerder":"GLS","puntType":"parcel_shop","bezettingsgraad":50,"latitude":45.7983879,"longitude":8.8811919,"canPickup":true,"canDropoff":true,"openingstijden":"za: 10:00 - 12:30, 15:30 - 18:30; ma: 15:30 - 18:30"}},{"type":"Feature","geometry":{"type":"Point","coordinates":[8.898517,45.786931]},"properties":{"type":"pakketpunt","locatieNaam":"TABACCHERIA N. 4","straatNaam":"VIA COMO 25","straatNr":"","vervoerder":"DHL","puntType":"parcelShop","bezettingsgraad":50,"latitude":45.786931,"longitude":8.898517,"canPickup":true,"canDropoff":true,"openingstijden":{"ma":"06:15 - 19:00","di":"06:15 - 19:00","wo":"06:15 - 19:00","do":"06:15 - 19:00","vr":"06:15 - 19:00","za":"06:15 - 13:00","zo":"gesloten"}}},{"type":"Feature","geometry":{"type":"Point","coordinates":[8.893398,45.794144]},"properties":{"type":"pakketpunt","locatieNaam":"TABACCHERIA N. 5","straatNaam":"VIA MONTE GRAPPA 18","straatNr":"","vervoerder":"DHL","puntType":"parcelShop","bezettingsgraad":50,"latitude":45.794144,"longitude":8.893398,"canPickup":true,"canDropoff":true,"openingstijden":{"ma":"07:00 - 19:00","di":"07:00 - 19:00","wo":"07:00 - 19:00","do":"07:00 - 19:00","vr":"07:00 - 19:00","za":"07:00 - 19:00","zo":"gesloten"}}},{"type":"Feature","geometry":{"type":"Point","coordinates":[8.881091,45.801098]},"properties":{"type":"pakketpunt","locatieNaam":"Ufficio Postale MALNATE","straatNaam":"VIA GIUSEPPE BRUSA 1","straatNr":"","vervoerder":"DHL","puntType":"postOffice","bezettingsgraad":50,"latitude":45.801098,"longitude":8.881091,"canPickup":true,"canDropoff":true,"openingstijden":{"ma":"08:20 - 19:05","di":"08:20 - 19:05","wo":"08:20 - 19:05","do":"08:20 - 19:05","vr":"08:20 - 19:05","za":"08:20 - 12:35","zo":"gesloten"}}},{"type":"Feature","geometry":{"type":"Point","coordinates":[8.878473,45.800449]},"properties":{"type":"pakketpunt","locatieNaam":"TABACCHERIA N. 1","straatNaam":"PIAZZA REPUBBLICA 7","straatNr":"","vervoerder":"DHL","puntType":"parcelShop","bezettingsgraad":50,"latitude":45.800449,"longitude":8.878473,"canPickup":true,"canDropoff":true,"openingstijden":{"ma":"07:30 - 19:30","di":"07:30 - 19:30","wo":"07:30 - 19:30","do":"07:30 - 19:30","vr":"07:30 - 19:30","za":"07:30 - 19:30","zo":"gesloten"}}},{"type":"Feature","geometry":{"type":"Point","coordinates":[8.8781,45.8003]},"properties":{"type":"pakketpunt","locatieNaam":"TABACCHERIA PIATTI","straatNaam":"Piazza   Repubblica , 7","straatNr":"","vervoerder":"DHL","puntType":"parcelShop","bezettingsgraad":50,"latitude":45.8003,"longitude":8.8781,"canPickup":false,"canDropoff":true,"openingstijden":{"ma":"07:30 - 19:30","di":"07:30 - 19:30","wo":"07:30 - 19:30","do":"07:30 - 19:30","vr":"07:30 - 19:30","za":"07:30 - 19:30","zo":"gesloten"}}},{"type":"Feature","geometry":{"type":"Point","coordinates":[8.86686,45.789427]},"properties":{"type":"pakketpunt","locatieNaam":"TABACCHERIA N. 6","straatNaam":"VIA QUATTRO NOVEMBRE 3","straatNr":"","vervoerder":"DHL","puntType":"parcelShop","bezettingsgraad":50,"latitude":45.789427,"longitude":8.86686,"canPickup":true,"canDropoff":true,"openingstijden":{"ma":"08:00 - 23:59","di":"08:00 - 23:59","wo":"08:00 - 23:59","do":"08:00 - 23:59","vr":"08:00 - 23:59","za":"08:00 - 23:59","zo":"gesloten"}}},{"type":"Feature","geometry":{"type":"Point","coordinates":[8.87353,45.79053]},"properties":{"type":"pakketpunt","locatieNaam":"TABACCHERIA N. 9","straatNaam":"VIA ISOLA BELLA 20","straatNr":"","vervoerder":"DHL","puntType":"parcelShop","bezettingsgraad":50,"latitude":45.79053,"longitude":8.87353,"canPickup":true,"canDropoff":true,"openingstijden":{"ma":"07:30 - 13:00, 14:30 - 19:00","di":"07:30 - 13:00, 14:30 - 19:00","wo":"07:30 - 13:00, 14:30 - 19:00","do":"07:30 - 13:00, 14:30 - 19:00","vr":"07:30 - 13:00, 14:30 - 19:00","za":"07:30 - 13:00, 14:30 - 19:00","zo":"gesloten"}}},{"type":"Feature","geometry":{"type":"Point","coordinates":[8.876357,45.790582]},"properties":{"type":"pakketpunt","locatieNaam":"CARTOLERIA SCARABOCCHIO","straatNaam":"VIA CAPRERA 30","straatNr":"","vervoerder":"DHL","puntType":"parcelShop","bezettingsgraad":50,"latitude":45.790582,"longitude":8.876357,"canPickup":true,"canDropoff":true,"openingstijden":{"ma":"08:30 - 12:00","di":"08:30 - 12:00, 15:00 - 19:00","wo":"08:30 - 12:00, 15:00 - 19:00","do":"08:30 - 12:00, 15:00 - 19:00","vr":"08:30 - 12:00, 15:00 - 19:00","za":"09:30 - 12:00, 15:00 - 18:00","zo":"gesloten"}}},{"type":"Feature","geometry":{"type":"Point","coordinates":[8.878035,45.795507]},"properties":{"type":"pakketpunt","locatieNaam":"TABACCHERIA N. 7","straatNaam":"PIAZZA ANTONIO BIANCHI LURASCHI 2","straatNr":"","vervoerder":"DHL","puntType":"parcelShop","bezettingsgraad":50,"latitude":45.795507,"longitude":8.878035,"canPickup":true,"canDropoff":true,"openingstijden":{"ma":"06:00 - 20:00","di":"06:00 - 20:00","wo":"06:00 - 20:00","do":"06:00 - 20:00","vr":"06:00 - 20:00","za":"06:00 - 20:00","zo":"gesloten"}}},{"type":"Feature","geometry":{"type":"Point","coordinates":[8.881299,45.798409]},"properties":{"type":"pakketpunt","locatieNaam":"C ERA UNA VOLTA","straatNaam":"VIA MARTIRI PATRIOTI 28","straatNr":"","vervoerder":"DHL","puntType":"parcelShop","bezettingsgraad":50,"latitude":45.798409,"longitude":8.881299,"canPickup":true,"canDropoff":true,"openingstijden":{"ma":"15:30 - 18:30","di":"10:00 - 12:30, 15:30 - 18:30","wo":"10:00 - 12:30, 15:30 - 18:30","do":"10:00 - 12:30, 15:30 - 18:30","vr":"10:00 - 12:30, 15:30 - 18:30","za":"10:00 - 12:30, 15:30 - 18:30","zo":"gesloten"}}},{"type":"Feature","geometry":{"type":"Point","coordinates":[8.888563,45.790898]},"properties":{"type":"pakketpunt","locatieNaam":"Amazon Locker - adelfio","straatNaam":"Tigros Malnate","straatNr":"","vervoerder":"Amazon","puntType":"locker","bezettingsgraad":50,"latitude":45.790898,"longitude":8.888563,"canPickup":true,"canDropoff":false,"openingstijden":null}},{"type":"Feature","geometry":{"type":"Point","coordinates":[8.8845258,45.7952104]},"properties":{"type":"pakketpunt","locatieNaam":"Amazon Locker - consiglio","straatNaam":"ENI Station pv.2824","straatNr":"","vervoerder":"Amazon","puntType":"locker","bezettingsgraad":50,"latitude":45.7952104,"longitude":8.8845258,"canPickup":true,"canDropoff":false,"openingstijden":null}},{"type":"Feature","geometry":{"type":"Point","coordinates":[8.86686,45.7894]},"properties":{"type":"pakketpunt","locatieNaam":"PuntoPoste TABACCHERIA N. 6","straatNaam":"VIA QUATTRO NOVEMBRE 3","straatNr":"","vervoerder":"Amazon","puntType":"3p","bezettingsgraad":50,"latitude":45.7894,"longitude":8.86686,"canPickup":true,"canDropoff":false,"openingstijden":null}},{"type":"Feature","geometry":{"type":"Point","coordinates":[8.8776943,45.7953725]},"properties":{"type":"pakketpunt","locatieNaam":"Amazon Locker - fidelina","straatNaam":"Ferrovienord / Malnate","straatNr":"","vervoerder":"Amazon","puntType":"locker","bezettingsgraad":50,"latitude":45.7953725,"longitude":8.8776943,"canPickup":true,"canDropoff":false,"openingstijden":null}},{"type":"Feature","geometry":{"type":"Point","coordinates":[8.87352,45.7905]},"properties":{"type":"pakketpunt","locatieNaam":"PuntoPoste TABACCHERIA N. 9","straatNaam":"VIA ISOLA BELLA 20","straatNr":"","vervoerder":"Amazon","puntType":"3p","bezettingsgraad":50,"latitude":45.7905,"longitude":8.87352,"canPickup":true,"canDropoff":false,"openingstijden":null}},{"type":"Feature","geometry":{"type":"Point","coordinates":[8.876333,45.790594]},"properties":{"type":"pakketpunt","locatieNaam":"Amazon Counter - Cartoleria Scarabocchio","straatNaam":"Via Caprera, 30","straatNr":"","vervoerder":"Amazon","puntType":"helix","bezettingsgraad":50,"latitude":45.790594,"longitude":8.876333,"canPickup":true,"canDropoff":false,"openingstijden":null}},{"type":"Feature","geometry":{"type":"Point","coordinates":[8.8884786,45.7909306]},"properties":{"type":"pakketpunt","locatieNaam":"Amazon Counter (fermopoint)","straatNaam":"Officine del Pulito","straatNr":"","vervoerder":"Amazon","puntType":"helix","bezettingsgraad":50,"latitude":45.7909306,"longitude":8.8884786,"canPickup":true,"canDropoff":false,"openingstijden":null}},{"type":"Feature","geometry":{"type":"Point","coordinates":[8.87803,45.7955]},"properties":{"type":"pakketpunt","locatieNaam":"PuntoPoste TABACCHERIA N. 7","straatNaam":"PIAZZA ANTONIO BIANCHI LURASCHI 2","straatNr":"","vervoerder":"Amazon","puntType":"3p","bezettingsgraad":50,"latitude":45.7955,"longitude":8.87803,"canPickup":true,"canDropoff":false,"openingstijden":null}},{"type":"Feature","geometry":{"type":"Point","coordinates":[8.87847,45.8004]},"properties":{"type":"pakketpunt","locatieNaam":"PuntoPoste TABACCHERIA N. 1","straatNaam":"PIAZZA REPUBBLICA 7","straatNr":"","vervoerder":"Amazon","puntType":"3p","bezettingsgraad":50,"latitude":45.8004,"longitude":8.87847,"canPickup":true,"canDropoff":false,"openingstijden":null}},{"type":"Feature","geometry":{"type":"Point","coordinates":[8.89851,45.7869]},"properties":{"type":"pakketpunt","locatieNaam":"PuntoPoste TABACCHERIA N. 4","straatNaam":"VIA COMO 25","straatNr":"","vervoerder":"Amazon","puntType":"3p","bezettingsgraad":50,"latitude":45.7869,"longitude":8.89851,"canPickup":true,"canDropoff":false,"openingstijden":null}},{"type":"Feature","geometry":{"type":"Point","coordinates":[8.89339,45.7941]},"properties":{"type":"pakketpunt","locatieNaam":"PuntoPoste TABACCHERIA N. 5","straatNaam":"VIA MONTE GRAPPA 18","straatNr":"","vervoerder":"Amazon","puntType":"3p","bezettingsgraad":50,"latitude":45.7941,"longitude":8.89339,"canPickup":true,"canDropoff":false,"openingstijden":null}},{"type":"Feature","geometry":{"type":"Point","coordinates":[8.881313,45.798438]},"properties":{"type":"pakketpunt","locatieNaam":"Amazon Counter","straatNaam":"C'era Una Volta (fermopoint)","straatNr":"","vervoerder":"Amazon","puntType":"helix","bezettingsgraad":50,"latitude":45.798438,"longitude":8.881313,"canPickup":true,"canDropoff":false,"openingstijden":null}},{"type":"Feature","geometry":{"type":"Point","coordinates":[8.878629018177113,45.79728994144291]},"properties":{"type":"pakketpunt","locatieNaam":"FedEx OnSite","straatNaam":"via G. Matteotti, 42","straatNr":"","vervoerder":"FedEx","puntType":"servicepunt","bezettingsgraad":50,"latitude":45.79728994144291,"longitude":8.878629018177113,"canPickup":true,"canDropoff":true,"openingstijden":{"ma":"16:00 - 19:00","di":"09:00 - 13:00, 16:00 - 19:00","wo":"09:00 - 13:00, 16:00 - 19:00","do":"09:00 - 13:00, 16:00 - 19:00","vr":"09:00 - 13:00, 16:00 - 19:00","za":"09:00 - 13:00","zo":"gesloten"}}},{"type":"Feature","geometry":{"type":"Point","coordinates":[8.878566,45.799971]},"properties":{"type":"pakketpunt","locatieNaam":"FedEx OnSite","straatNaam":"VIA GIUSEPPE GARIBALDI 35","straatNr":"","vervoerder":"FedEx","puntType":"servicepunt","bezettingsgraad":50,"latitude":45.799971,"longitude":8.878566,"canPickup":true,"canDropoff":true,"openingstijden":{"ma":"15:00 - 19:00","di":"09:00 - 12:30, 15:00 - 19:00","wo":"09:00 - 12:30, 15:00 - 19:00","do":"09:00 - 12:30, 15:00 - 19:00","vr":"09:00 - 12:30, 15:00 - 19:00","za":"09:00 - 12:30","zo":"gesloten"}}},{"type":"Feature","geometry":{"type":"Point","coordinates":[8.883543,45.796215]},"properties":{"type":"pakketpunt","locatieNaam":"FedEx OnSite","straatNaam":"VIA Martiri Patrioti, 64","straatNr":"","vervoerder":"FedEx","puntType":"servicepunt","bezettingsgraad":50,"latitude":45.796215,"longitude":8.883543,"canPickup":true,"canDropoff":true,"openingstijden":{"ma":"15:00 - 19:00","di":"08:30 - 12:30, 15:00 - 19:00","wo":"08:30 - 12:30, 15:00 - 19:00","do":"08:30 - 12:30, 15:00 - 19:00","vr":"08:30 - 12:30, 15:00 - 19:00","za":"08:30 - 12:30, 15:00 - 19:00","zo":"gesloten"}}},{"type":"Feature","geometry":{"type":"Point","coordinates":[8.881153815434416,45.79842381713373]},"properties":{"type":"pakketpunt","locatieNaam":"FedEx OnSite","straatNaam":"via martiri patrioti, 28","straatNr":"","vervoerder":"FedEx","puntType":"servicepunt","bezettingsgraad":50,"latitude":45.79842381713373,"longitude":8.881153815434416,"canPickup":true,"canDropoff":true,"openingstijden":{"ma":"15:30 - 18:30","di":"10:00 - 12:30, 15:30 - 18:30","wo":"10:00 - 12:30, 15:30 - 18:30","do":"10:00 - 12:30, 15:30 - 18:30","vr":"10:00 - 12:30, 15:30 - 18:30","za":"10:00 - 12:30, 15:30 - 18:30","zo":"gesloten"}}},{"type":"Feature","geometry":{"type":"Polygon","coordinates":[[[8.8660339,45.7839777],[8.8648009,45.7846242],[8.8640078,45.7848978],[8.8624534,45.7858539],[8.8614604,45.7860239],[8.8613526,45.7861188],[8.8611024,45.7867076],[8.8607892,45.7869123],[8.859933,45.7871151],[8.8585658,45.7871479],[8.8579833,45.7874992],[8.8567486,45.7877811],[8.8564869,45.7880375],[8.8563699,45.7887316],[8.8561633,45.7889635],[8.8562931,45.7892031],[8.8568491,45.789501],[8.8570569,45.7897765],[8.857723,45.7901144],[8.8575834,45.7905305],[8.8577302,45.7911167],[8.8585127,45.791963],[8.8594198,45.7926125],[8.8597373,45.7927471],[8.8601283,45.7927808],[8.8611826,45.7926275],[8.8612815,45.792738],[8.8613684,45.7932017],[8.8615443,45.7934171],[8.8619848,45.7937051],[8.8620158,45.7938515],[8.8618773,45.7941189],[8.8619033,45.7942214],[8.8625017,45.7946665],[8.8628657,45.7951825],[8.8633223,45.7953576],[8.8641493,45.7953345],[8.8646052,45.7957474],[8.8650952,45.7960538],[8.8651731,45.7962615],[8.8653644,45.7963936],[8.8662179,45.7968114],[8.8670508,45.7967871],[8.8673607,45.7970398],[8.8678923,45.7972365],[8.8682494,45.7976249],[8.8689431,45.7979754],[8.8693392,45.7982786],[8.8694031,45.7988285],[8.8698121,45.7992333],[8.8699435,45.799529],[8.8699458,45.7999303],[8.8696408,45.8001287],[8.8683165,45.8003143],[8.8676183,45.8005076],[8.8666262,45.8009027],[8.8648392,45.8017716],[8.8638973,45.8023567],[8.864047,45.802862],[8.8640593,45.8035026],[8.863903,45.8049062],[8.8640382,45.8053848],[8.8673594,45.8078707],[8.868614,45.8102535],[8.868754,45.811195],[8.8686825,45.8117098],[8.8677947,45.813377],[8.8677502,45.8143372],[8.8755603,45.8121282],[8.8759548,45.8123983],[8.8779682,45.8120059],[8.8844909,45.8112601],[8.8845594,45.8104938],[8.8836152,45.8100809],[8.8843591,45.8090375],[8.8854947,45.8092904],[8.8865216,45.8099773],[8.8869695,45.8095657],[8.8869786,45.8092027],[8.8877787,45.8095379],[8.8878948,45.8094651],[8.8886166,45.8095144],[8.8885931,45.8096543],[8.8883551,45.809794],[8.8885311,45.8102422],[8.8893336,45.8105288],[8.8899779,45.8101402],[8.8910243,45.8102231],[8.8911072,45.8108326],[8.8915217,45.8108878],[8.8918293,45.8110427],[8.8924259,45.8110711],[8.8929214,45.8111993],[8.8931531,45.8113516],[8.8933348,45.8118484],[8.8936228,45.8118797],[8.8939027,45.8120132],[8.8943955,45.8120603],[8.8946255,45.8126759],[8.8954726,45.8128134],[8.8956318,45.8129616],[8.8958803,45.8129973],[8.8960347,45.8129914],[8.8964102,45.8126903],[8.8967688,45.812712],[8.897093,45.8115855],[8.8965882,45.8113871],[8.8973784,45.8107323],[8.8974124,45.8100465],[8.8975973,45.8096178],[8.8980563,45.8091567],[8.898405,45.8085778],[8.8984756,45.8082055],[8.8984362,45.8078322],[8.8985914,45.8076246],[8.8986116,45.8072475],[8.8991811,45.8072836],[8.8999915,45.8071108],[8.9000497,45.8069969],[8.9000628,45.8061186],[8.8995251,45.8058336],[8.8998351,45.8054074],[8.9000821,45.8052295],[8.9005971,45.8044047],[8.9004416,45.8036443],[8.9004643,45.8030473],[8.9003315,45.8026555],[8.9002021,45.802514],[8.9001767,45.8022274],[8.9005553,45.8022132],[8.900535,45.8019448],[8.9006962,45.8016911],[8.9007822,45.7999628],[8.9017074,45.7985348],[8.9017846,45.7985556],[8.9024142,45.7977358],[8.9034782,45.797073],[8.9037885,45.7975629],[8.9040754,45.7975105],[8.9042686,45.7972396],[8.9045269,45.7962905],[8.9046825,45.7962508],[8.9058023,45.7952387],[8.9060732,45.7949048],[8.9070893,45.7950483],[8.9072432,45.7948651],[8.9071481,45.7945555],[8.9073357,45.7944692],[8.9076137,45.7946134],[8.9082994,45.7943606],[8.9083516,45.794143],[8.9088455,45.7938533],[8.9091378,45.793152],[8.9065395,45.7914813],[8.9062608,45.7916752],[8.9055109,45.791241],[8.902637,45.7874719],[8.9019612,45.7867872],[8.9019537,45.7864587],[8.9016427,45.7858824],[8.9008277,45.7850104],[8.9000451,45.7855284],[8.8992738,45.7850485],[8.8986385,45.7857784],[8.8994114,45.7861959],[8.8992236,45.7864127],[8.898552,45.7861815],[8.8979689,45.7862815],[8.8974897,45.786235],[8.8970836,45.7863277],[8.896618,45.7862386],[8.8960754,45.78666],[8.8955509,45.786618],[8.8953712,45.7867355],[8.8950041,45.7868035],[8.8942846,45.7867885],[8.893793,45.7866392],[8.8930261,45.7866581],[8.8923505,45.7863884],[8.8918657,45.7864388],[8.8909758,45.7868052],[8.8906064,45.7864966],[8.8890593,45.7861016],[8.8887976,45.7863752],[8.8882093,45.7862313],[8.8885376,45.7855406],[8.8868974,45.7850459],[8.8866462,45.7855711],[8.8863877,45.7855515],[8.881629,45.7841674],[8.8813587,45.7848595],[8.8765141,45.7841553],[8.8766496,45.7833133],[8.8728404,45.7828705],[8.8723149,45.7828758],[8.8713002,45.7830494],[8.8712969,45.7825571],[8.8701214,45.7820135],[8.8684808,45.7838081],[8.8684023,45.7838427],[8.8683138,45.7837222],[8.8666146,45.784021],[8.8660339,45.7839777]]]},"properties":{"type":"boundary","gemeente":"Malnate"}}]}