{"type":"FeatureCollection","metadata":{"gemeente":"Marcheno","slug":"marcheno","generated_at":"2026-09-26T13:10:08.869193Z","total_points":14,"providers":["PosteItaliane","DPD","GLS","DHL","Amazon"],"bounds":[10.207801,45.701026,10.23244,45.726445]},"features":[{"type":"Feature","geometry":{"type":"Point","coordinates":[10.23115666,45.7241662]},"properties":{"type":"pakketpunt","locatieNaam":"Tabaccheria N. 2","straatNaam":"Via Provinciale","straatNr":"26","vervoerder":"PosteItaliane","puntType":"servicepunt","bezettingsgraad":50,"latitude":45.7241662,"longitude":10.23115666,"canPickup":true,"canDropoff":true,"openingstijden":{"za":"07:00 - 23:50","zo":"07:00 - 23:50","ma":"07:00 - 23:50","di":"07:00 - 23:50","wo":"07:00 - 13:30","do":"07:00 - 23:50","vr":"07:00 - 23:50"}}},{"type":"Feature","geometry":{"type":"Point","coordinates":[10.21407915,45.7059281]},"properties":{"type":"pakketpunt","locatieNaam":"Marcheno","straatNaam":"Via Giuseppe Zanardelli","straatNr":"111","vervoerder":"PosteItaliane","puntType":"postkantoor","bezettingsgraad":50,"latitude":45.7059281,"longitude":10.21407915,"canPickup":true,"canDropoff":true,"openingstijden":{"za":"08:20 - 12:35","zo":"gesloten","ma":"08:20 - 13:35","di":"08:20 - 13:35","wo":"08:20 - 13:35","do":"08:20 - 13:35","vr":"08:20 - 13:35"}}},{"type":"Feature","geometry":{"type":"Point","coordinates":[10.21470489,45.70552743]},"properties":{"type":"pakketpunt","locatieNaam":"Intimo Gioia","straatNaam":"VIA ZANARDELLI","straatNr":"103E","vervoerder":"DPD","puntType":"pickup_point","bezettingsgraad":50,"latitude":45.70552743,"longitude":10.21470489,"canPickup":true,"canDropoff":true,"openingstijden":{"ma":"15:30 - 18:30","di":"09:00 - 12:00, 15:30 - 18:30","wo":"09:00 - 12:00, 15:30 - 18:30","do":"09:00 - 12:00, 15:30 - 18:30","vr":"09:00 - 12:00, 15:30 - 18:30","za":"09:00 - 12:00, 15:30 - 18:30","zo":"gesloten"}}},{"type":"Feature","geometry":{"type":"Point","coordinates":[10.2146888,45.7055574]},"properties":{"type":"pakketpunt","locatieNaam":"INTIMO GIOIA","straatNaam":"Via Zanardelli","straatNr":"103E","vervoerder":"GLS","puntType":"parcel_shop","bezettingsgraad":50,"latitude":45.7055574,"longitude":10.2146888,"canPickup":true,"canDropoff":true,"openingstijden":"za: 09:00 - 12:00, 15:30 - 18:30; ma: 00:00 - 18:30"}},{"type":"Feature","geometry":{"type":"Point","coordinates":[10.214079,45.705928]},"properties":{"type":"pakketpunt","locatieNaam":"Ufficio Postale MARCHENO","straatNaam":"VIA GIUSEPPE ZANARDELLI 111","straatNr":"","vervoerder":"DHL","puntType":"postOffice","bezettingsgraad":50,"latitude":45.705928,"longitude":10.214079,"canPickup":true,"canDropoff":true,"openingstijden":{"ma":"08:20 - 13:35","di":"08:20 - 13:35","wo":"gesloten","do":"08:20 - 13:35","vr":"08:20 - 13:35","za":"08:20 - 12:35","zo":"gesloten"}}},{"type":"Feature","geometry":{"type":"Point","coordinates":[10.231157,45.724166]},"properties":{"type":"pakketpunt","locatieNaam":"TABACCHERIA N. 2","straatNaam":"VIA PROVINCIALE 26","straatNr":"","vervoerder":"DHL","puntType":"parcelShop","bezettingsgraad":50,"latitude":45.724166,"longitude":10.231157,"canPickup":true,"canDropoff":true,"openingstijden":{"ma":"07:00 - 23:50","di":"07:00 - 23:50","wo":"07:00 - 13:30","do":"07:00 - 23:50","vr":"07:00 - 23:50","za":"07:00 - 23:50","zo":"07:00 - 23:50"}}},{"type":"Feature","geometry":{"type":"Point","coordinates":[10.21983,45.71091]},"properties":{"type":"pakketpunt","locatieNaam":"Amazon Locker - nido","straatNaam":"Sigma - Marcheno","straatNr":"","vervoerder":"Amazon","puntType":"locker","bezettingsgraad":50,"latitude":45.71091,"longitude":10.21983,"canPickup":true,"canDropoff":false,"openingstijden":null}},{"type":"Feature","geometry":{"type":"Point","coordinates":[10.23244,45.726445]},"properties":{"type":"pakketpunt","locatieNaam":"Amazon Counter - Casa agricola valtrumplina ","straatNaam":"SP345 53","straatNr":"","vervoerder":"Amazon","puntType":"helix","bezettingsgraad":50,"latitude":45.726445,"longitude":10.23244,"canPickup":true,"canDropoff":false,"openingstijden":null}},{"type":"Feature","geometry":{"type":"Point","coordinates":[10.2313186,45.7216319]},"properties":{"type":"pakketpunt","locatieNaam":"Amazon Counter - PRIMAEDICOLA","straatNaam":"FAUSTI WILLIAM","straatNr":"","vervoerder":"Amazon","puntType":"helix","bezettingsgraad":50,"latitude":45.7216319,"longitude":10.2313186,"canPickup":true,"canDropoff":false,"openingstijden":null}},{"type":"Feature","geometry":{"type":"Point","coordinates":[10.231219,45.724021]},"properties":{"type":"pakketpunt","locatieNaam":"Amazon Counter - Bar cascata","straatNaam":"Via provinciale , 26","straatNr":"","vervoerder":"Amazon","puntType":"helix","bezettingsgraad":50,"latitude":45.724021,"longitude":10.231219,"canPickup":true,"canDropoff":false,"openingstijden":null}},{"type":"Feature","geometry":{"type":"Point","coordinates":[10.214,45.7059]},"properties":{"type":"pakketpunt","locatieNaam":"Ufficio Postale MARCHENO","straatNaam":"VIA GIUSEPPE ZANARDELLI 111","straatNr":"","vervoerder":"Amazon","puntType":"3p","bezettingsgraad":50,"latitude":45.7059,"longitude":10.214,"canPickup":true,"canDropoff":false,"openingstijden":null}},{"type":"Feature","geometry":{"type":"Point","coordinates":[10.207801,45.701026]},"properties":{"type":"pakketpunt","locatieNaam":"Amazon Counter - PRIMAEDICOLA","straatNaam":"ZUBANI SIMONE","straatNr":"","vervoerder":"Amazon","puntType":"helix","bezettingsgraad":50,"latitude":45.701026,"longitude":10.207801,"canPickup":true,"canDropoff":false,"openingstijden":null}},{"type":"Feature","geometry":{"type":"Point","coordinates":[10.2311,45.7241]},"properties":{"type":"pakketpunt","locatieNaam":"PuntoPoste TABACCHERIA N. 2","straatNaam":"VIA PROVINCIALE 26","straatNr":"","vervoerder":"Amazon","puntType":"3p","bezettingsgraad":50,"latitude":45.7241,"longitude":10.2311,"canPickup":true,"canDropoff":false,"openingstijden":null}},{"type":"Feature","geometry":{"type":"Point","coordinates":[10.214643,45.705923]},"properties":{"type":"pakketpunt","locatieNaam":"Amazon Counter","straatNaam":"Intimo Gioia (fermopoint)","straatNr":"","vervoerder":"Amazon","puntType":"helix","bezettingsgraad":50,"latitude":45.705923,"longitude":10.214643,"canPickup":true,"canDropoff":false,"openingstijden":null}},{"type":"Feature","geometry":{"type":"Polygon","coordinates":[[[10.1617585,45.7322382],[10.1623883,45.7326998],[10.1634256,45.7331392],[10.1639802,45.7336196],[10.1640235,45.7340017],[10.1641868,45.7342026],[10.1641418,45.7348196],[10.1642652,45.7352683],[10.1653406,45.7354509],[10.1659111,45.7356881],[10.1676656,45.7361517],[10.1706209,45.7358739],[10.1725619,45.735575],[10.1727271,45.7358658],[10.1727432,45.7362527],[10.173341,45.7373311],[10.1736203,45.7381608],[10.1738602,45.7384148],[10.1741106,45.7391683],[10.1745757,45.7401221],[10.1743287,45.7425908],[10.1745399,45.7428542],[10.1745704,45.7430069],[10.1742038,45.7433031],[10.1739446,45.7443499],[10.1742383,45.7451749],[10.1746302,45.746773],[10.1753893,45.7474132],[10.1758727,45.7479348],[10.1759243,45.7486318],[10.1760993,45.749386],[10.1744455,45.7511402],[10.1748982,45.751347],[10.1728418,45.7519172],[10.171828,45.7523912],[10.1715723,45.7525333],[10.1712926,45.7531482],[10.1721578,45.7529413],[10.17303,45.7528423],[10.1742369,45.7529154],[10.1751132,45.7528569],[10.1763557,45.7525606],[10.1776135,45.7520751],[10.1783593,45.7521529],[10.1787733,45.7518966],[10.1795129,45.751223],[10.1807127,45.750657],[10.1833741,45.7491399],[10.1854134,45.7480792],[10.186061,45.7475459],[10.188004,45.7452036],[10.1883993,45.7448259],[10.1890016,45.7438296],[10.1894434,45.7436],[10.1920973,45.7426632],[10.1929319,45.7407329],[10.1937006,45.7407609],[10.1937653,45.7407062],[10.1938343,45.7404759],[10.1944643,45.7395783],[10.1967145,45.7372866],[10.1969577,45.7369375],[10.199601,45.7374723],[10.1996758,45.7375165],[10.1998894,45.7381128],[10.2007368,45.738815],[10.2023914,45.7388741],[10.2039828,45.7395773],[10.205654,45.7401808],[10.2068209,45.7399749],[10.2079647,45.7395128],[10.2086697,45.7388258],[10.2090364,45.7381738],[10.2095628,45.7377767],[10.2096413,45.7373169],[10.2100382,45.7364306],[10.2108149,45.7354953],[10.2113913,45.7350302],[10.2116336,45.733979],[10.2121653,45.7340499],[10.2122018,45.7332844],[10.2128776,45.7328857],[10.2133327,45.7326829],[10.2136132,45.7330984],[10.2139428,45.7331129],[10.2150378,45.7327097],[10.2173315,45.7324648],[10.2175098,45.7325349],[10.2179296,45.7329985],[10.218113,45.732938],[10.2184317,45.7323721],[10.2186295,45.7323114],[10.2195065,45.7322256],[10.2207628,45.7319286],[10.2209797,45.7325923],[10.2241822,45.731811],[10.2258275,45.7310103],[10.226243,45.7306188],[10.2274088,45.7298592],[10.2288999,45.7292851],[10.2294452,45.7289552],[10.2310251,45.7283262],[10.2325583,45.7275536],[10.2329604,45.7274322],[10.2333969,45.7274815],[10.2338882,45.7277642],[10.2349768,45.728171],[10.2350654,45.727675],[10.2351411,45.7276112],[10.2359713,45.7270846],[10.2367295,45.7264284],[10.2373009,45.7262647],[10.2369333,45.7252561],[10.2390744,45.7244498],[10.2407674,45.7254575],[10.241474,45.7256721],[10.2418514,45.7261756],[10.2467538,45.7282143],[10.2469225,45.7281015],[10.2469799,45.7279373],[10.2470153,45.7268426],[10.2460122,45.725943],[10.2473666,45.7240265],[10.2474,45.7232161],[10.247307,45.7230821],[10.2456049,45.7233977],[10.2454903,45.7235159],[10.2451507,45.7234116],[10.2442352,45.7229851],[10.2436178,45.7224518],[10.2439367,45.7223448],[10.2436296,45.7218261],[10.2442526,45.7221073],[10.2483984,45.7221551],[10.2484546,45.7216316],[10.2478426,45.7207875],[10.2461955,45.720484],[10.2457972,45.7204884],[10.245679,45.7203726],[10.2437197,45.7195209],[10.2435348,45.7175608],[10.2435852,45.7175153],[10.2449691,45.7184993],[10.2453812,45.7185398],[10.2453939,45.7179546],[10.2455356,45.717971],[10.2465918,45.7186616],[10.2468891,45.7187393],[10.2468846,45.7185413],[10.2480585,45.7187445],[10.2481476,45.7181315],[10.2448074,45.7118045],[10.2450664,45.7107396],[10.2453707,45.7105563],[10.2453455,45.7094225],[10.2452154,45.7093519],[10.2436279,45.707417],[10.2436459,45.7063703],[10.2405493,45.7049631],[10.2396653,45.7036312],[10.2403162,45.7020067],[10.2412192,45.6989925],[10.244799,45.6997169],[10.2465257,45.6996529],[10.2500045,45.700141],[10.2513092,45.7001139],[10.2517499,45.6999377],[10.2526726,45.6998376],[10.2530548,45.6996984],[10.2552672,45.69926],[10.2607058,45.697448],[10.2619723,45.697548],[10.2644681,45.6965843],[10.2650682,45.6964246],[10.2657486,45.6964081],[10.2662533,45.6965735],[10.2668528,45.6952528],[10.2674405,45.6934101],[10.2679352,45.6925675],[10.2679393,45.6916134],[10.2681115,45.6912785],[10.2681926,45.6908905],[10.268039,45.6903432],[10.2683321,45.6896739],[10.2685854,45.6895181],[10.2685045,45.6893479],[10.2665885,45.6886762],[10.2660453,45.6873681],[10.2655183,45.6867799],[10.2652449,45.6860449],[10.2646784,45.6854121],[10.2640779,45.6849777],[10.2625443,45.6841666],[10.2621302,45.6840272],[10.2604961,45.6838832],[10.2592579,45.6836449],[10.2571966,45.6827765],[10.2564221,45.682596],[10.2556835,45.6822981],[10.2547587,45.6817143],[10.2536445,45.6807004],[10.2527403,45.6804583],[10.2521298,45.68015],[10.2520554,45.6802678],[10.2498299,45.6818133],[10.2475674,45.6828552],[10.2465367,45.6838565],[10.2451768,45.6839163],[10.2448393,45.6843341],[10.2445613,45.6845351],[10.2435424,45.6843392],[10.2417796,45.6841784],[10.2411875,45.6844104],[10.2396026,45.6848102],[10.2382604,45.6845569],[10.2363927,45.6844799],[10.233617,45.6849779],[10.232454,45.6846485],[10.2319892,45.6842439],[10.2313961,45.6842818],[10.2310401,45.6842102],[10.2305331,45.683983],[10.2302924,45.6837848],[10.2300981,45.6837467],[10.2289507,45.6842029],[10.2288499,45.6843438],[10.2284271,45.6838064],[10.2280685,45.6835808],[10.2276831,45.6835519],[10.2272098,45.6837444],[10.2258958,45.6838291],[10.2248314,45.6837268],[10.2245687,45.683549],[10.2244053,45.6833161],[10.2229136,45.682775],[10.2228246,45.6829954],[10.2224294,45.6826515],[10.221883,45.6825549],[10.2215585,45.6828423],[10.2212219,45.6827469],[10.2210405,45.6827963],[10.2209007,45.683086],[10.2201567,45.6826742],[10.2193102,45.6829963],[10.2182003,45.6829185],[10.2173269,45.6834326],[10.2165886,45.6837575],[10.2158592,45.6836393],[10.2154462,45.6838836],[10.2151014,45.6837876],[10.21452,45.6839097],[10.2136052,45.6830514],[10.213354,45.6829895],[10.2123522,45.6830037],[10.2115199,45.6831417],[10.2110937,45.6839358],[10.2109298,45.6839565],[10.2107896,45.6838617],[10.2103702,45.6839049],[10.2080601,45.6854816],[10.2075861,45.6857134],[10.2066064,45.6864759],[10.2060626,45.6872669],[10.2057664,45.6875585],[10.2053398,45.6878823],[10.2047341,45.6880727],[10.2042746,45.6883514],[10.201944,45.6904981],[10.2011145,45.6904613],[10.2003377,45.6906692],[10.2000638,45.6911512],[10.1991895,45.6932077],[10.2006616,45.6939489],[10.2008011,45.6940575],[10.2009012,45.6945063],[10.2024891,45.6954609],[10.2032239,45.6960569],[10.203553,45.6964836],[10.2036399,45.6968165],[10.2035741,45.6970372],[10.2032923,45.6973241],[10.202181,45.6981113],[10.2027565,45.6992673],[10.2028606,45.6993293],[10.2028517,45.6995094],[10.2027075,45.6996729],[10.2018919,45.7014726],[10.2066057,45.702197],[10.2074275,45.7024043],[10.2070677,45.7029931],[10.2063811,45.7035438],[10.2046871,45.7043702],[10.2038469,45.7057723],[10.2035266,45.7070088],[10.2032782,45.7074075],[10.2038416,45.7073205],[10.204818,45.7067252],[10.2050243,45.706759],[10.2052735,45.7075934],[10.2057142,45.7083718],[10.2054415,45.7088337],[10.2052268,45.7096011],[10.205298,45.7111214],[10.2047943,45.7133859],[10.2049377,45.7140775],[10.2048151,45.7149518],[10.2051032,45.7152008],[10.2054146,45.7153415],[10.205718,45.7157073],[10.2057773,45.7160757],[10.2057308,45.7163012],[10.2061256,45.7167381],[10.2060894,45.7168465],[10.2065252,45.7173909],[10.2073366,45.7180754],[10.2078691,45.7183398],[10.2089562,45.7192913],[10.2093441,45.7199983],[10.2094073,45.7205467],[10.2093003,45.7209438],[10.2093415,45.7210694],[10.2100427,45.721998],[10.2098553,45.7228416],[10.2094413,45.723161],[10.2090274,45.7233319],[10.2084903,45.7241971],[10.2076029,45.7249086],[10.2071291,45.7249901],[10.206722,45.7251789],[10.2056821,45.7247804],[10.2048417,45.7245462],[10.2038746,45.7243944],[10.2022191,45.7238988],[10.201035,45.7238123],[10.1995859,45.7239535],[10.1990365,45.7241033],[10.1988774,45.724474],[10.1986147,45.7248098],[10.1982481,45.7250926],[10.1978271,45.7258351],[10.1971329,45.7264274],[10.1962704,45.7269585],[10.195761,45.7259738],[10.1950085,45.7250366],[10.1936966,45.7243843],[10.19274,45.7241152],[10.1921768,45.7248232],[10.1916082,45.7252791],[10.1912741,45.7258857],[10.1912164,45.7261923],[10.1913011,45.7265514],[10.1918195,45.7273561],[10.1916497,45.7278349],[10.1916083,45.7283033],[10.1914253,45.7287643],[10.1910638,45.7304962],[10.1903241,45.7313679],[10.1910787,45.7318011],[10.1914888,45.7321974],[10.1923353,45.7325666],[10.1930074,45.7329691],[10.1927733,45.7342721],[10.1934904,45.7350522],[10.1935883,45.7352717],[10.1932123,45.7364772],[10.1907981,45.7375644],[10.1894729,45.7387888],[10.1883216,45.7390528],[10.1880699,45.739303],[10.1865069,45.7403858],[10.1852543,45.7406463],[10.183745,45.74176],[10.1827234,45.7414736],[10.1815563,45.7407611],[10.1815598,45.7405496],[10.1818679,45.7400694],[10.1802036,45.739173],[10.1787005,45.7368484],[10.1775487,45.7364012],[10.177242,45.7364854],[10.1763812,45.7369623],[10.1759445,45.7369758],[10.1755418,45.7368539],[10.1751849,45.7364616],[10.1747027,45.7362955],[10.173242,45.735136],[10.1715755,45.7344285],[10.173236,45.734623],[10.1733758,45.7330915],[10.1737316,45.7323587],[10.1737368,45.7315351],[10.1735225,45.7310423],[10.173029,45.7307999],[10.172394,45.7301673],[10.1720953,45.7300174],[10.1716784,45.7295941],[10.1712775,45.7294002],[10.1709857,45.7291197],[10.1705604,45.728602],[10.1703671,45.7281945],[10.1704051,45.7277081],[10.1699231,45.7285501],[10.1689831,45.7292302],[10.1668495,45.7300666],[10.1638527,45.7314248],[10.1633454,45.731601],[10.1628632,45.7316644],[10.1620433,45.7321813],[10.1617585,45.7322382]]]},"properties":{"type":"boundary","gemeente":"Marcheno"}}]}