{"type":"FeatureCollection","metadata":{"gemeente":"Mariano Comense","slug":"mariano-comense","generated_at":"2026-09-26T14:27:31.216321Z","total_points":44,"providers":["PosteItaliane","DPD","InPost","GLS","DHL","Amazon","FedEx"],"bounds":[9.1654509,45.67189477,9.19011325,45.70867714]},"features":[{"type":"Feature","geometry":{"type":"Point","coordinates":[9.18125654,45.69902204]},"properties":{"type":"pakketpunt","locatieNaam":"Tabaccheria N. 7","straatNaam":"Via Montebello","straatNr":"77","vervoerder":"PosteItaliane","puntType":"servicepunt","bezettingsgraad":50,"latitude":45.69902204,"longitude":9.18125654,"canPickup":true,"canDropoff":true,"openingstijden":{"za":"08:00 - 19:30","zo":"gesloten","ma":"08:00 - 19:30","di":"08:00 - 19:30","wo":"08:00 - 19:30","do":"08:00 - 19:30","vr":"08:00 - 19:30"}}},{"type":"Feature","geometry":{"type":"Point","coordinates":[9.18487872,45.70138203]},"properties":{"type":"pakketpunt","locatieNaam":"Tabaccheria N. 13","straatNaam":"Via Quattro Novembre","straatNr":"63/d","vervoerder":"PosteItaliane","puntType":"servicepunt","bezettingsgraad":50,"latitude":45.70138203,"longitude":9.18487872,"canPickup":true,"canDropoff":true,"openingstijden":{"za":"06:30 - 20:00","zo":"07:00 - 13:00","ma":"06:30 - 20:00","di":"06:30 - 20:00","wo":"06:30 - 20:00","do":"06:30 - 20:00","vr":"06:30 - 20:00"}}},{"type":"Feature","geometry":{"type":"Point","coordinates":[9.1801785,45.69384456]},"properties":{"type":"pakketpunt","locatieNaam":"Mariano Comense","straatNaam":"Via Venti Settembre","straatNr":"41","vervoerder":"PosteItaliane","puntType":"postkantoor","bezettingsgraad":50,"latitude":45.69384456,"longitude":9.1801785,"canPickup":true,"canDropoff":true,"openingstijden":{"za":"08:20 - 12:35","zo":"gesloten","ma":"08:20 - 19:05","di":"08:20 - 19:05","wo":"08:20 - 19:05","do":"08:20 - 19:05","vr":"08:20 - 19:05"}}},{"type":"Feature","geometry":{"type":"Point","coordinates":[9.18920869,45.67256855]},"properties":{"type":"pakketpunt","locatieNaam":"Perticato","straatNaam":"Via Alessandro Manzoni","straatNr":"2","vervoerder":"PosteItaliane","puntType":"postkantoor","bezettingsgraad":50,"latitude":45.67256855,"longitude":9.18920869,"canPickup":true,"canDropoff":true,"openingstijden":{"za":"08:20 - 12:45","zo":"gesloten","ma":"08:20 - 13:45","di":"08:20 - 13:45","wo":"08:20 - 13:45","do":"08:20 - 13:45","vr":"08:20 - 13:45"}}},{"type":"Feature","geometry":{"type":"Point","coordinates":[9.18502645,45.68716213]},"properties":{"type":"pakketpunt","locatieNaam":"Supermercato Md","straatNaam":"Viale Lombardia","straatNr":"76","vervoerder":"PosteItaliane","puntType":"automaat","bezettingsgraad":50,"latitude":45.68716213,"longitude":9.18502645,"canPickup":true,"canDropoff":true,"openingstijden":{"za":"00:01 - 23:59","zo":"00:01 - 23:59","ma":"00:01 - 23:59","di":"00:01 - 23:59","wo":"00:01 - 23:59","do":"00:01 - 23:59","vr":"00:01 - 23:59"}}},{"type":"Feature","geometry":{"type":"Point","coordinates":[9.17875597,45.69691512]},"properties":{"type":"pakketpunt","locatieNaam":"Tabaccheria N. 8","straatNaam":"Piazza Roma","straatNr":"35","vervoerder":"PosteItaliane","puntType":"servicepunt","bezettingsgraad":50,"latitude":45.69691512,"longitude":9.17875597,"canPickup":true,"canDropoff":true,"openingstijden":{"za":"06:30 - 22:00","zo":"06:30 - 22:00","ma":"06:30 - 22:00","di":"06:30 - 22:00","wo":"06:30 - 22:00","do":"06:30 - 22:00","vr":"06:30 - 22:00"}}},{"type":"Feature","geometry":{"type":"Point","coordinates":[9.16628985,45.70638779]},"properties":{"type":"pakketpunt","locatieNaam":"Stazione Di Servizio Tamoil","straatNaam":"Via Per Novedrate","straatNr":"22","vervoerder":"PosteItaliane","puntType":"automaat","bezettingsgraad":50,"latitude":45.70638779,"longitude":9.16628985,"canPickup":true,"canDropoff":true,"openingstijden":{"za":"00:01 - 23:59","zo":"00:01 - 23:59","ma":"00:01 - 23:59","di":"00:01 - 23:59","wo":"00:01 - 23:59","do":"00:01 - 23:59","vr":"00:01 - 23:59"}}},{"type":"Feature","geometry":{"type":"Point","coordinates":[9.18875866,45.68784339]},"properties":{"type":"pakketpunt","locatieNaam":"Supermercato Il Gigante","straatNaam":"Via Papa Giovanni Xxiii","straatNr":"57","vervoerder":"PosteItaliane","puntType":"automaat","bezettingsgraad":50,"latitude":45.68784339,"longitude":9.18875866,"canPickup":true,"canDropoff":true,"openingstijden":{"za":"08:00 - 20:30","zo":"08:30 - 20:30","ma":"08:00 - 20:30","di":"08:00 - 20:30","wo":"08:00 - 20:30","do":"08:00 - 20:30","vr":"08:00 - 20:30"}}},{"type":"Feature","geometry":{"type":"Point","coordinates":[9.1801785,45.69384456]},"properties":{"type":"pakketpunt","locatieNaam":"Ufficio Postale Mariano Comense","straatNaam":"Via Venti Settembre","straatNr":"41","vervoerder":"PosteItaliane","puntType":"automaat","bezettingsgraad":50,"latitude":45.69384456,"longitude":9.1801785,"canPickup":true,"canDropoff":true,"openingstijden":{"za":"00:01 - 23:59","zo":"00:01 - 23:59","ma":"00:01 - 23:59","di":"00:01 - 23:59","wo":"00:01 - 23:59","do":"00:01 - 23:59","vr":"00:01 - 23:59"}}},{"type":"Feature","geometry":{"type":"Point","coordinates":[9.17237784,45.70867714]},"properties":{"type":"pakketpunt","locatieNaam":"Stazione Di Servizio Ip","straatNaam":"Via Per Arosio","straatNr":"12","vervoerder":"PosteItaliane","puntType":"automaat","bezettingsgraad":50,"latitude":45.70867714,"longitude":9.17237784,"canPickup":true,"canDropoff":true,"openingstijden":{"za":"00:01 - 23:59","zo":"00:01 - 23:59","ma":"00:01 - 23:59","di":"00:01 - 23:59","wo":"00:01 - 23:59","do":"00:01 - 23:59","vr":"00:01 - 23:59"}}},{"type":"Feature","geometry":{"type":"Point","coordinates":[9.19011325,45.67189477]},"properties":{"type":"pakketpunt","locatieNaam":"Tabaccheria N. 4","straatNaam":"Via Sant'alessandro","straatNr":"10","vervoerder":"PosteItaliane","puntType":"servicepunt","bezettingsgraad":50,"latitude":45.67189477,"longitude":9.19011325,"canPickup":true,"canDropoff":true,"openingstijden":{"za":"07:00 - 19:30","zo":"gesloten","ma":"07:00 - 19:30","di":"07:00 - 19:30","wo":"07:00 - 19:30","do":"07:00 - 19:30","vr":"07:00 - 19:30"}}},{"type":"Feature","geometry":{"type":"Point","coordinates":[9.1835148,45.69347106]},"properties":{"type":"pakketpunt","locatieNaam":"Tabaccheria N. 5","straatNaam":"Via Isonzo","straatNr":"24","vervoerder":"PosteItaliane","puntType":"servicepunt","bezettingsgraad":50,"latitude":45.69347106,"longitude":9.1835148,"canPickup":true,"canDropoff":true,"openingstijden":{"za":"07:00 - 20:00","zo":"07:00 - 13:00","ma":"07:00 - 20:00","di":"07:00 - 20:00","wo":"07:00 - 20:00","do":"07:00 - 20:00","vr":"07:00 - 20:00"}}},{"type":"Feature","geometry":{"type":"Point","coordinates":[9.173951,45.7005341]},"properties":{"type":"pakketpunt","locatieNaam":"Green Harmony","straatNaam":"VIA MATTEOTTI","straatNr":"40","vervoerder":"DPD","puntType":"pickup_point","bezettingsgraad":50,"latitude":45.7005341,"longitude":9.173951,"canPickup":true,"canDropoff":true,"openingstijden":{"ma":"09:00 - 18:00","di":"gesloten","wo":"14:00 - 22:00","do":"09:00 - 19:00","vr":"09:00 - 19:00","za":"09:00 - 18:00","zo":"gesloten"}}},{"type":"Feature","geometry":{"type":"Point","coordinates":[9.1765469,45.6984515]},"properties":{"type":"pakketpunt","locatieNaam":"Asian African Mini Market","straatNaam":"VIA G.MATTEOTTI","straatNr":"3 B","vervoerder":"DPD","puntType":"pickup_point","bezettingsgraad":50,"latitude":45.6984515,"longitude":9.1765469,"canPickup":true,"canDropoff":true,"openingstijden":{"ma":"09:00 - 20:00","di":"09:00 - 20:00","wo":"09:00 - 20:00","do":"09:00 - 20:00","vr":"09:00 - 12:00, 14:00 - 20:00","za":"09:00 - 20:00","zo":"09:00 - 20:00"}}},{"type":"Feature","geometry":{"type":"Point","coordinates":[9.1761135,45.7023413]},"properties":{"type":"pakketpunt","locatieNaam":"Bajwa Mini Market","straatNaam":"VIA SAN ROCCO","straatNr":"34","vervoerder":"DPD","puntType":"pickup_point","bezettingsgraad":50,"latitude":45.7023413,"longitude":9.1761135,"canPickup":true,"canDropoff":true,"openingstijden":{"ma":"09:30 - 21:00","di":"09:30 - 21:00","wo":"09:30 - 21:00","do":"09:30 - 21:00","vr":"09:30 - 21:00","za":"09:30 - 21:00","zo":"09:30 - 21:00"}}},{"type":"Feature","geometry":{"type":"Point","coordinates":[9.1893534,45.6731571]},"properties":{"type":"pakketpunt","locatieNaam":"Il Caffè Ambrosiano","straatNaam":"VIA SANT'ALESSANDRO","straatNr":"24","vervoerder":"DPD","puntType":"pickup_point","bezettingsgraad":50,"latitude":45.6731571,"longitude":9.1893534,"canPickup":true,"canDropoff":true,"openingstijden":{"ma":"07:00 - 13:30, 16:00 - 21:00","di":"07:00 - 13:30, 16:00 - 21:00","wo":"07:00 - 13:30, 16:00 - 21:00","do":"07:00 - 13:30, 16:00 - 21:00","vr":"07:00 - 13:30, 16:00 - 21:00","za":"10:00 - 21:00","zo":"10:30 - 13:00, 16:30 - 21:00"}}},{"type":"Feature","geometry":{"type":"Point","coordinates":[9.18113,45.68852]},"properties":{"type":"pakketpunt","locatieNaam":"InPost Locker 24/7","straatNaam":"Viale Lombardia","straatNr":"46","vervoerder":"InPost","puntType":"automaat","bezettingsgraad":50,"latitude":45.68852,"longitude":9.18113,"canPickup":true,"canDropoff":true,"openingstijden":null}},{"type":"Feature","geometry":{"type":"Point","coordinates":[9.1723,45.70863]},"properties":{"type":"pakketpunt","locatieNaam":"InPost Locker 24/7","straatNaam":"Via per Arosio","straatNr":"12","vervoerder":"InPost","puntType":"automaat","bezettingsgraad":50,"latitude":45.70863,"longitude":9.1723,"canPickup":true,"canDropoff":true,"openingstijden":null}},{"type":"Feature","geometry":{"type":"Point","coordinates":[9.18146,45.69383]},"properties":{"type":"pakketpunt","locatieNaam":"InPost Locker 24/7","straatNaam":"via Armando Diaz","straatNr":"snc","vervoerder":"InPost","puntType":"automaat","bezettingsgraad":50,"latitude":45.69383,"longitude":9.18146,"canPickup":true,"canDropoff":true,"openingstijden":"24/7"}},{"type":"Feature","geometry":{"type":"Point","coordinates":[9.1765469,45.6984515]},"properties":{"type":"pakketpunt","locatieNaam":"asian african","straatNaam":"Via Giacomo Matteotti","straatNr":"3b","vervoerder":"GLS","puntType":"parcel_shop","bezettingsgraad":50,"latitude":45.6984515,"longitude":9.1765469,"canPickup":true,"canDropoff":true,"openingstijden":"za: 09:00 - 20:30; zo: 09:00 - 20:00"}},{"type":"Feature","geometry":{"type":"Point","coordinates":[9.1768424,45.6998701]},"properties":{"type":"pakketpunt","locatieNaam":"TUTTOCALZE","straatNaam":"Corso Brianza","straatNr":"12/b","vervoerder":"GLS","puntType":"parcel_shop","bezettingsgraad":50,"latitude":45.6998701,"longitude":9.1768424,"canPickup":true,"canDropoff":true,"openingstijden":"za: 16:00 - 19:00; ma: 16:00 - 19:00"}},{"type":"Feature","geometry":{"type":"Point","coordinates":[9.1761135,45.7023413]},"properties":{"type":"pakketpunt","locatieNaam":"BAJWA MINI MARKET DI SANI RAUF AHAMD","straatNaam":"Via San Rocco","straatNr":"34","vervoerder":"GLS","puntType":"parcel_shop","bezettingsgraad":50,"latitude":45.7023413,"longitude":9.1761135,"canPickup":true,"canDropoff":true,"openingstijden":"za: 08:30 - 21:00; zo: 08:30 - 21:00"}},{"type":"Feature","geometry":{"type":"Point","coordinates":[9.16629,45.706388]},"properties":{"type":"pakketpunt","locatieNaam":"STAZIONE DI SERVIZIO TAMOIL","straatNaam":"VIA PER NOVEDRATE 22","straatNr":"","vervoerder":"DHL","puntType":"packStation","bezettingsgraad":50,"latitude":45.706388,"longitude":9.16629,"canPickup":true,"canDropoff":true,"openingstijden":{"ma":"00:01 - 23:59","di":"00:01 - 23:59","wo":"00:01 - 23:59","do":"00:01 - 23:59","vr":"00:01 - 23:59","za":"00:01 - 23:59","zo":"00:01 - 23:59"}}},{"type":"Feature","geometry":{"type":"Point","coordinates":[9.180179,45.693845]},"properties":{"type":"pakketpunt","locatieNaam":"UFFICIO POSTALE MARIANO COM","straatNaam":"VIA VENTI SETTEMBRE 41","straatNr":"","vervoerder":"DHL","puntType":"packStation","bezettingsgraad":50,"latitude":45.693845,"longitude":9.180179,"canPickup":true,"canDropoff":true,"openingstijden":{"ma":"00:01 - 23:59","di":"00:01 - 23:59","wo":"00:01 - 23:59","do":"00:01 - 23:59","vr":"00:01 - 23:59","za":"00:01 - 23:59","zo":"00:01 - 23:59"}}},{"type":"Feature","geometry":{"type":"Point","coordinates":[9.180179,45.693845]},"properties":{"type":"pakketpunt","locatieNaam":"Ufficio Postale MARIANO COMENSE","straatNaam":"VIA XX SETTEMBRE 41","straatNr":"","vervoerder":"DHL","puntType":"postOffice","bezettingsgraad":50,"latitude":45.693845,"longitude":9.180179,"canPickup":true,"canDropoff":true,"openingstijden":{"ma":"08:20 - 19:05","di":"08:20 - 19:05","wo":"08:20 - 19:05","do":"08:20 - 19:05","vr":"08:20 - 19:05","za":"08:20 - 12:35","zo":"gesloten"}}},{"type":"Feature","geometry":{"type":"Point","coordinates":[9.178756,45.696915]},"properties":{"type":"pakketpunt","locatieNaam":"TABACCHERIA N. 8","straatNaam":"PIAZZA ROMA 35","straatNr":"","vervoerder":"DHL","puntType":"parcelShop","bezettingsgraad":50,"latitude":45.696915,"longitude":9.178756,"canPickup":true,"canDropoff":true,"openingstijden":{"ma":"06:30 - 22:00","di":"06:30 - 22:00","wo":"06:30 - 22:00","do":"06:30 - 22:00","vr":"06:30 - 22:00","za":"06:30 - 22:00","zo":"06:30 - 22:00"}}},{"type":"Feature","geometry":{"type":"Point","coordinates":[9.185026,45.687162]},"properties":{"type":"pakketpunt","locatieNaam":"SUPERMERCATO MD","straatNaam":"VIALE LOMBARDIA 76","straatNr":"","vervoerder":"DHL","puntType":"packStation","bezettingsgraad":50,"latitude":45.687162,"longitude":9.185026,"canPickup":true,"canDropoff":true,"openingstijden":{"ma":"00:01 - 23:59","di":"00:01 - 23:59","wo":"00:01 - 23:59","do":"00:01 - 23:59","vr":"00:01 - 23:59","za":"00:01 - 23:59","zo":"00:01 - 23:59"}}},{"type":"Feature","geometry":{"type":"Point","coordinates":[9.183515,45.693471]},"properties":{"type":"pakketpunt","locatieNaam":"TABACCHERIA N. 5","straatNaam":"VIA ISONZO 24","straatNr":"","vervoerder":"DHL","puntType":"parcelShop","bezettingsgraad":50,"latitude":45.693471,"longitude":9.183515,"canPickup":true,"canDropoff":true,"openingstijden":{"ma":"07:00 - 20:00","di":"07:00 - 20:00","wo":"07:00 - 20:00","do":"07:00 - 20:00","vr":"07:00 - 20:00","za":"07:00 - 20:00","zo":"07:00 - 13:00"}}},{"type":"Feature","geometry":{"type":"Point","coordinates":[9.181257,45.699022]},"properties":{"type":"pakketpunt","locatieNaam":"TABACCHERIA N. 7","straatNaam":"VIA MONTEBELLO 77","straatNr":"","vervoerder":"DHL","puntType":"parcelShop","bezettingsgraad":50,"latitude":45.699022,"longitude":9.181257,"canPickup":true,"canDropoff":true,"openingstijden":{"ma":"08:00 - 19:30","di":"08:00 - 19:30","wo":"08:00 - 19:30","do":"08:00 - 19:30","vr":"08:00 - 19:30","za":"08:00 - 19:30","zo":"gesloten"}}},{"type":"Feature","geometry":{"type":"Point","coordinates":[9.181322,45.698955]},"properties":{"type":"pakketpunt","locatieNaam":"TABACCHERIA PASWETH SING","straatNaam":"Via Montebello 77","straatNr":"","vervoerder":"DHL","puntType":"parcelShop","bezettingsgraad":50,"latitude":45.698955,"longitude":9.181322,"canPickup":false,"canDropoff":true,"openingstijden":{"ma":"09:00 - 18:00","di":"09:00 - 18:00","wo":"09:00 - 18:00","do":"09:00 - 18:00","vr":"09:00 - 18:00","za":"gesloten","zo":"gesloten"}}},{"type":"Feature","geometry":{"type":"Point","coordinates":[9.172378,45.708677]},"properties":{"type":"pakketpunt","locatieNaam":"STAZIONE DI SERVIZIO IP","straatNaam":"VIA PER AROSIO 12","straatNr":"","vervoerder":"DHL","puntType":"packStation","bezettingsgraad":50,"latitude":45.708677,"longitude":9.172378,"canPickup":true,"canDropoff":true,"openingstijden":{"ma":"00:01 - 23:59","di":"00:01 - 23:59","wo":"00:01 - 23:59","do":"00:01 - 23:59","vr":"00:01 - 23:59","za":"00:01 - 23:59","zo":"00:01 - 23:59"}}},{"type":"Feature","geometry":{"type":"Point","coordinates":[9.188759,45.687843]},"properties":{"type":"pakketpunt","locatieNaam":"SUPERMERCATO IL GIGANTE","straatNaam":"VIA PAPA GIOVANNI XXIII 57","straatNr":"","vervoerder":"DHL","puntType":"packStation","bezettingsgraad":50,"latitude":45.687843,"longitude":9.188759,"canPickup":true,"canDropoff":true,"openingstijden":{"ma":"08:00 - 20:30","di":"08:00 - 20:30","wo":"08:00 - 20:30","do":"08:00 - 20:30","vr":"08:00 - 20:30","za":"08:00 - 20:30","zo":"08:30 - 20:30"}}},{"type":"Feature","geometry":{"type":"Point","coordinates":[9.184879,45.701382]},"properties":{"type":"pakketpunt","locatieNaam":"TABACCHERIA n. 13","straatNaam":"VIA QUATTRO NOVEMBRE 63-D","straatNr":"","vervoerder":"DHL","puntType":"parcelShop","bezettingsgraad":50,"latitude":45.701382,"longitude":9.184879,"canPickup":true,"canDropoff":true,"openingstijden":{"ma":"06:30 - 20:00","di":"06:30 - 20:00","wo":"06:30 - 20:00","do":"06:30 - 20:00","vr":"06:30 - 20:00","za":"06:30 - 20:00","zo":"07:00 - 13:00"}}},{"type":"Feature","geometry":{"type":"Point","coordinates":[9.189209,45.672569]},"properties":{"type":"pakketpunt","locatieNaam":"Ufficio Postale PERTICATO","straatNaam":"VIA ALESSANDRO MANZONI 2","straatNr":"","vervoerder":"DHL","puntType":"postOffice","bezettingsgraad":50,"latitude":45.672569,"longitude":9.189209,"canPickup":true,"canDropoff":true,"openingstijden":{"ma":"08:20 - 13:45","di":"08:20 - 11:30","wo":"08:20 - 13:45","do":"08:20 - 13:45","vr":"08:20 - 13:45","za":"08:20 - 12:45","zo":"gesloten"}}},{"type":"Feature","geometry":{"type":"Point","coordinates":[9.190113,45.671895]},"properties":{"type":"pakketpunt","locatieNaam":"TABACCHERIA N. 4","straatNaam":"VIA SANTALESSANDRO 10","straatNr":"","vervoerder":"DHL","puntType":"parcelShop","bezettingsgraad":50,"latitude":45.671895,"longitude":9.190113,"canPickup":true,"canDropoff":true,"openingstijden":{"ma":"07:00 - 19:30","di":"07:00 - 19:30","wo":"07:00 - 19:30","do":"07:00 - 19:30","vr":"07:00 - 19:30","za":"07:00 - 19:30","zo":"gesloten"}}},{"type":"Feature","geometry":{"type":"Point","coordinates":[9.1654509,45.7058984]},"properties":{"type":"pakketpunt","locatieNaam":"Amazon Locker - orosimbo","straatNaam":"Stazione Tamoil - PV 4049","straatNr":"","vervoerder":"Amazon","puntType":"locker","bezettingsgraad":50,"latitude":45.7058984,"longitude":9.1654509,"canPickup":true,"canDropoff":false,"openingstijden":null}},{"type":"Feature","geometry":{"type":"Point","coordinates":[9.17349,45.689466]},"properties":{"type":"pakketpunt","locatieNaam":"Amazon Locker - pacifico","straatNaam":"PENNY MARKET - Mariano Comense","straatNr":"","vervoerder":"Amazon","puntType":"locker","bezettingsgraad":50,"latitude":45.689466,"longitude":9.17349,"canPickup":true,"canDropoff":false,"openingstijden":null}},{"type":"Feature","geometry":{"type":"Point","coordinates":[9.1817,45.693811]},"properties":{"type":"pakketpunt","locatieNaam":"Amazon Locker - trusiana","straatNaam":"Piazza Armando Diaz 3","straatNr":"","vervoerder":"Amazon","puntType":"locker","bezettingsgraad":50,"latitude":45.693811,"longitude":9.1817,"canPickup":true,"canDropoff":false,"openingstijden":null}},{"type":"Feature","geometry":{"type":"Point","coordinates":[9.1842027,45.6873473]},"properties":{"type":"pakketpunt","locatieNaam":"Amazon Locker - barsanofio","straatNaam":"Eni Station pv.1880","straatNr":"","vervoerder":"Amazon","puntType":"locker","bezettingsgraad":50,"latitude":45.6873473,"longitude":9.1842027,"canPickup":true,"canDropoff":false,"openingstijden":null}},{"type":"Feature","geometry":{"type":"Point","coordinates":[9.1766904,45.6983794]},"properties":{"type":"pakketpunt","locatieNaam":"Amazon Counter","straatNaam":"Asian African Mini Market (fermopoint)","straatNr":"","vervoerder":"Amazon","puntType":"helix","bezettingsgraad":50,"latitude":45.6983794,"longitude":9.1766904,"canPickup":true,"canDropoff":false,"openingstijden":null}},{"type":"Feature","geometry":{"type":"Point","coordinates":[9.1737763,45.7004089]},"properties":{"type":"pakketpunt","locatieNaam":"Amazon Counter","straatNaam":"Green Harmony (fermopoint)","straatNr":"","vervoerder":"Amazon","puntType":"helix","bezettingsgraad":50,"latitude":45.7004089,"longitude":9.1737763,"canPickup":true,"canDropoff":false,"openingstijden":null}},{"type":"Feature","geometry":{"type":"Point","coordinates":[9.176547,45.698452]},"properties":{"type":"pakketpunt","locatieNaam":"FedEx OnSite","straatNaam":"via giacomo matteotti, 3b","straatNr":"","vervoerder":"FedEx","puntType":"servicepunt","bezettingsgraad":50,"latitude":45.698452,"longitude":9.176547,"canPickup":true,"canDropoff":true,"openingstijden":{"ma":"09:00 - 20:30","di":"09:00 - 20:30","wo":"09:00 - 20:30","do":"09:00 - 20:30","vr":"09:00 - 12:30, 13:30 - 20:30","za":"09:00 - 20:30","zo":"09:00 - 20:00"}}},{"type":"Feature","geometry":{"type":"Point","coordinates":[9.176175167312577,45.70233314255424]},"properties":{"type":"pakketpunt","locatieNaam":"FedEx OnSite","straatNaam":"via san rocco, 34","straatNr":"","vervoerder":"FedEx","puntType":"servicepunt","bezettingsgraad":50,"latitude":45.70233314255424,"longitude":9.176175167312577,"canPickup":true,"canDropoff":true,"openingstijden":{"ma":"09:00 - 21:00","di":"09:00 - 21:00","wo":"09:00 - 21:00","do":"09:00 - 21:00","vr":"09:00 - 11:30, 13:00 - 21:00","za":"08:30 - 21:00","zo":"08:30 - 21:00"}}},{"type":"Feature","geometry":{"type":"Point","coordinates":[9.184829,45.701229]},"properties":{"type":"pakketpunt","locatieNaam":"FedEx OnSite","straatNaam":"VIA QUATTRO NOVEMBRE 44","straatNr":"","vervoerder":"FedEx","puntType":"servicepunt","bezettingsgraad":50,"latitude":45.701229,"longitude":9.184829,"canPickup":true,"canDropoff":true,"openingstijden":{"ma":"08:30 - 12:00, 14:30 - 19:00","di":"08:30 - 12:00, 14:30 - 19:00","wo":"08:30 - 12:00, 14:30 - 19:00","do":"08:30 - 12:00, 14:30 - 19:00","vr":"08:30 - 12:00, 14:30 - 19:00","za":"gesloten","zo":"gesloten"}}},{"type":"Feature","geometry":{"type":"Polygon","coordinates":[[[9.1477325,45.7035748],[9.1481787,45.7046993],[9.1499414,45.7051426],[9.1505106,45.7060014],[9.1503494,45.7063976],[9.1508454,45.7069055],[9.1510723,45.7076478],[9.1518077,45.7082183],[9.1520662,45.7087895],[9.1535115,45.7087921],[9.1535114,45.7093411],[9.1551848,45.7093568],[9.1550863,45.7085649],[9.1571496,45.7084765],[9.1574721,45.7083861],[9.1585977,45.708326],[9.1584978,45.7087852],[9.1579202,45.708975],[9.1577165,45.7096098],[9.1578893,45.7105277],[9.15718,45.7107312],[9.1569323,45.7123067],[9.157781,45.712562],[9.158107,45.7113959],[9.1588259,45.7095138],[9.1618328,45.7075069],[9.1624268,45.7085681],[9.1634341,45.7097862],[9.1629245,45.710174],[9.1615687,45.7105855],[9.1618098,45.7111972],[9.161134,45.7113377],[9.1614037,45.7118368],[9.1625094,45.7115652],[9.1626498,45.7117945],[9.1622662,45.7118761],[9.1626073,45.7126497],[9.1617858,45.7129029],[9.1620267,45.7140006],[9.1615475,45.7143613],[9.1623385,45.7151658],[9.162913,45.7150299],[9.1629286,45.7154214],[9.1631541,45.7156236],[9.1631082,45.7158757],[9.1628397,45.7163261],[9.1628779,45.7167581],[9.1630498,45.7173249],[9.1629118,45.7173566],[9.1627121,45.7171724],[9.1625836,45.7171681],[9.1629322,45.7177211],[9.1628681,45.7177932],[9.1626063,45.7177981],[9.1625826,45.7179106],[9.1629829,45.7180361],[9.1638794,45.7181383],[9.1640531,45.7187636],[9.1640245,45.7188626],[9.1638368,45.7189439],[9.1638451,45.7190339],[9.1641782,45.7192584],[9.1665528,45.7183684],[9.1666519,45.7187643],[9.1687036,45.7184102],[9.1690088,45.7189588],[9.1691956,45.719107],[9.1694655,45.7191516],[9.1698444,45.7190746],[9.1699898,45.7193489],[9.1702797,45.719614],[9.1702104,45.7200596],[9.1702897,45.7207975],[9.1712667,45.7214441],[9.171516,45.7220558],[9.1720217,45.7225096],[9.1723015,45.7226036],[9.1724337,45.7227429],[9.1725295,45.7230938],[9.1723685,45.7234901],[9.1724664,45.7239805],[9.1724075,45.7241471],[9.17289,45.7248574],[9.1726462,45.7249613],[9.1727202,45.7255372],[9.1725491,45.725785],[9.1727805,45.7258207],[9.1727016,45.7262663],[9.1729993,45.7264189],[9.1731124,45.7266257],[9.173258,45.726468],[9.1736886,45.7254637],[9.1773065,45.7255436],[9.1796922,45.7251169],[9.1800271,45.7248733],[9.1805078,45.724994],[9.1806183,45.7248994],[9.1809089,45.7248539],[9.1811795,45.7245654],[9.1815024,45.7245784],[9.1815933,45.7243668],[9.1817411,45.724371],[9.1818225,45.7242179],[9.1821339,45.7241589],[9.182154,45.7238978],[9.1825039,45.7238343],[9.1825243,45.7236677],[9.1823585,45.723569],[9.1823693,45.7234474],[9.1825635,45.7233796],[9.1827131,45.7234514],[9.1829982,45.7232124],[9.1828442,45.7227806],[9.1835573,45.723243],[9.1838704,45.7236655],[9.183958,45.7239444],[9.1840236,45.7243403],[9.1839898,45.7248264],[9.1835836,45.7258532],[9.1843149,45.7259735],[9.1846888,45.7248973],[9.1854882,45.7237394],[9.1854673,45.7222948],[9.185805,45.7209712],[9.1857478,45.7206832],[9.1858105,45.7202106],[9.1859387,45.7201069],[9.1859603,45.7198458],[9.1861267,45.719643],[9.1861273,45.7193415],[9.1864055,45.7189765],[9.1864286,45.7186659],[9.1879468,45.7168903],[9.1886638,45.715638],[9.1882729,45.7154631],[9.1866332,45.7150203],[9.1857783,45.7148777],[9.1839411,45.7134631],[9.1834843,45.7127843],[9.1857172,45.7110075],[9.1859705,45.7108901],[9.1875948,45.7096633],[9.1877826,45.7091319],[9.1894205,45.7086342],[9.1892151,45.7081935],[9.1888345,45.7077396],[9.1885002,45.7071641],[9.1866998,45.7056639],[9.1859216,45.7048866],[9.1876994,45.7040061],[9.1878,45.703826],[9.1891867,45.7031486],[9.1897707,45.7029946],[9.1904987,45.7036684],[9.1917647,45.7029102],[9.1909722,45.702205],[9.1912913,45.702065],[9.1908093,45.7014987],[9.1929124,45.7004916],[9.1931192,45.7008513],[9.193597,45.7006524],[9.1932646,45.700185],[9.1936893,45.6999502],[9.1930792,45.6994877],[9.1936736,45.6986721],[9.1950331,45.6990028],[9.1957148,45.6978811],[9.1961867,45.6969217],[9.1969383,45.6947152],[9.1961297,45.6948831],[9.1948697,45.6954208],[9.1944682,45.6949354],[9.1950277,45.6947095],[9.1946585,45.6942691],[9.1961189,45.6936365],[9.1956659,45.6931062],[9.1970576,45.6925863],[9.196553,45.6919751],[9.1971428,45.691704],[9.1966781,45.6910433],[9.1967338,45.6909127],[9.1984523,45.6897531],[9.1963212,45.6872546],[9.1957914,45.6867785],[9.1947741,45.6855336],[9.1944619,45.6853001],[9.1946126,45.6852414],[9.1941723,45.6846526],[9.1932798,45.6841951],[9.1926823,45.6831475],[9.192485,45.6831973],[9.1920502,45.682775],[9.1931661,45.6824176],[9.19406,45.681903],[9.1955077,45.68141],[9.1949966,45.6807583],[9.1957195,45.6804735],[9.1918983,45.6783106],[9.1922212,45.6769073],[9.1922474,45.6759066],[9.1925927,45.6743814],[9.1932135,45.6719827],[9.1938395,45.670422],[9.1940687,45.6701079],[9.1939685,45.6697138],[9.1939954,45.6694373],[9.1944577,45.667551],[9.1933472,45.667356],[9.1915009,45.6673379],[9.190771,45.667216],[9.1904815,45.667039],[9.1906876,45.665682],[9.1865655,45.6656225],[9.1864287,45.666853],[9.1861645,45.6670379],[9.1861899,45.668388],[9.184497,45.6684223],[9.1844754,45.6691784],[9.1859774,45.6691669],[9.1854079,45.6707448],[9.1816187,45.6764917],[9.1809952,45.6762587],[9.1800241,45.6772413],[9.1808392,45.6776315],[9.1801775,45.6785012],[9.1796241,45.6781105],[9.1792412,45.6783316],[9.1798418,45.6789247],[9.1774055,45.6804767],[9.1767159,45.6796722],[9.1747011,45.6805619],[9.1721858,45.6815334],[9.1707922,45.6819419],[9.1706587,45.6820095],[9.1707875,45.6822419],[9.1701706,45.6824292],[9.1685666,45.6832445],[9.1680372,45.6828222],[9.1679849,45.6825073],[9.1672922,45.6827468],[9.167671,45.6832908],[9.1670439,45.6834492],[9.1674761,45.6841102],[9.1674664,45.6846367],[9.1666908,45.6850744],[9.1662465,45.6857366],[9.1657721,45.6859938],[9.1647212,45.6850818],[9.1633544,45.6859253],[9.1617593,45.6866432],[9.1617213,45.6868188],[9.161826,45.6869536],[9.1624083,45.6873488],[9.162354,45.6874524],[9.1619435,45.687624],[9.1631791,45.6885358],[9.1639276,45.6881387],[9.1643873,45.6883271],[9.1638169,45.6887014],[9.1637901,45.688877],[9.1635059,45.6888594],[9.1636273,45.6891832],[9.1630018,45.6893821],[9.1631023,45.689733],[9.1622078,45.6896218],[9.1620931,45.68937],[9.1618356,45.6891408],[9.1604982,45.6885217],[9.160731,45.6874322],[9.160937,45.6870719],[9.1609733,45.6868468],[9.1608118,45.6865185],[9.1604757,45.6862895],[9.1602074,45.6862179],[9.1596841,45.6862321],[9.1593393,45.6863316],[9.1592625,45.6864487],[9.1590202,45.6864806],[9.1589084,45.6872368],[9.1591881,45.6873444],[9.1590698,45.6875246],[9.1592016,45.6876009],[9.1572451,45.6877162],[9.1570831,45.6872078],[9.1564136,45.6871728],[9.1560375,45.6869978],[9.1558457,45.6873041],[9.1545657,45.6876434],[9.1545367,45.6870493],[9.154314,45.6866221],[9.1539887,45.686249],[9.153663,45.6868885],[9.1533682,45.6871049],[9.1529286,45.6877761],[9.1522109,45.6882901],[9.1520316,45.6885129],[9.1519234,45.688853],[9.1520013,45.6891365],[9.1518331,45.6892987],[9.1519462,45.6895371],[9.1514352,45.6899563],[9.1514211,45.6900733],[9.1516141,45.6902261],[9.1514576,45.6905188],[9.1510752,45.6904023],[9.1509197,45.690479],[9.1506487,45.6911994],[9.1501928,45.6917806],[9.1499315,45.691934],[9.1482456,45.6918372],[9.147982,45.6923326],[9.1502313,45.6929551],[9.1503459,45.693216],[9.1500554,45.6944405],[9.1492449,45.6951256],[9.1492619,45.6954721],[9.1489955,45.6955085],[9.1493221,45.6957781],[9.1494216,45.6969481],[9.1488148,45.6976059],[9.1475067,45.6977561],[9.1476681,45.69808],[9.1473543,45.7002541],[9.147383,45.7012298],[9.1474761,45.701398],[9.1469084,45.7034196],[9.1477325,45.7035748]]]},"properties":{"type":"boundary","gemeente":"Mariano Comense"}}]}