{"type":"FeatureCollection","metadata":{"gemeente":"Massa","slug":"massa","generated_at":"2026-09-26T13:10:09.813115Z","total_points":126,"providers":["PosteItaliane","DPD","InPost","GLS","DHL","Amazon"],"bounds":[10.071131,43.9986,10.17473448,44.060384]},"features":[{"type":"Feature","geometry":{"type":"Point","coordinates":[10.14498,44.01877]},"properties":{"type":"pakketpunt","locatieNaam":"Tabaccheria N. 43","straatNaam":"Via Salicera","straatNr":"2","vervoerder":"PosteItaliane","puntType":"servicepunt","bezettingsgraad":50,"latitude":44.01877,"longitude":10.14498,"canPickup":true,"canDropoff":true,"openingstijden":{"za":"07:00 - 20:00","zo":"08:00 - 13:00","ma":"07:00 - 20:00","di":"07:00 - 20:00","wo":"07:00 - 20:00","do":"07:00 - 20:00","vr":"07:00 - 20:00"}}},{"type":"Feature","geometry":{"type":"Point","coordinates":[10.13543443,44.04426242]},"properties":{"type":"pakketpunt","locatieNaam":"Tabaccheria N. 14","straatNaam":"Via Foce","straatNr":"60","vervoerder":"PosteItaliane","puntType":"servicepunt","bezettingsgraad":50,"latitude":44.04426242,"longitude":10.13543443,"canPickup":true,"canDropoff":true,"openingstijden":{"za":"06:00 - 13:00, 14:00 - 21:00","zo":"06:00 - 13:00","ma":"06:00 - 13:00, 14:00 - 21:00","di":"06:00 - 13:00, 14:00 - 21:00","wo":"06:00 - 13:00, 14:00 - 21:00","do":"06:00 - 13:00, 14:00 - 21:00","vr":"06:00 - 13:00, 14:00 - 21:00"}}},{"type":"Feature","geometry":{"type":"Point","coordinates":[10.13606653,44.03534905]},"properties":{"type":"pakketpunt","locatieNaam":"Tabaccheria N. 71","straatNaam":"Via Enrico Fermi","straatNr":"13","vervoerder":"PosteItaliane","puntType":"servicepunt","bezettingsgraad":50,"latitude":44.03534905,"longitude":10.13606653,"canPickup":true,"canDropoff":true,"openingstijden":{"za":"07:30 - 13:00, 15:00 - 20:00","zo":"08:00 - 13:00","ma":"07:30 - 20:00","di":"07:30 - 20:00","wo":"07:30 - 20:00","do":"07:30 - 20:00","vr":"07:30 - 20:00"}}},{"type":"Feature","geometry":{"type":"Point","coordinates":[10.11467713,44.04024638]},"properties":{"type":"pakketpunt","locatieNaam":"Massa 4","straatNaam":"Piazza Albania","straatNr":"7","vervoerder":"PosteItaliane","puntType":"postkantoor","bezettingsgraad":50,"latitude":44.04024638,"longitude":10.11467713,"canPickup":true,"canDropoff":true,"openingstijden":{"za":"08:20 - 12:35","zo":"gesloten","ma":"08:20 - 13:35","di":"08:20 - 13:35","wo":"08:20 - 13:35","do":"08:20 - 13:35","vr":"08:20 - 13:35"}}},{"type":"Feature","geometry":{"type":"Point","coordinates":[10.11957078,43.99866902]},"properties":{"type":"pakketpunt","locatieNaam":"Ronchi","straatNaam":"Via Ronchi","straatNr":"48","vervoerder":"PosteItaliane","puntType":"postkantoor","bezettingsgraad":50,"latitude":43.99866902,"longitude":10.11957078,"canPickup":true,"canDropoff":true,"openingstijden":{"za":"08:20 - 12:35","zo":"gesloten","ma":"08:20 - 13:35","di":"08:20 - 13:35","wo":"08:20 - 13:35","do":"08:20 - 13:35","vr":"08:20 - 13:35"}}},{"type":"Feature","geometry":{"type":"Point","coordinates":[10.10112084,44.00963107]},"properties":{"type":"pakketpunt","locatieNaam":"Marina Di Massa","straatNaam":"Via San Leonardo","straatNr":"492","vervoerder":"PosteItaliane","puntType":"postkantoor","bezettingsgraad":50,"latitude":44.00963107,"longitude":10.10112084,"canPickup":true,"canDropoff":true,"openingstijden":{"za":"08:20 - 12:35","zo":"gesloten","ma":"08:20 - 19:05","di":"08:20 - 19:05","wo":"08:20 - 19:05","do":"08:20 - 19:05","vr":"08:20 - 19:05"}}},{"type":"Feature","geometry":{"type":"Point","coordinates":[10.13160557,44.02811347]},"properties":{"type":"pakketpunt","locatieNaam":"Massa 1","straatNaam":"Via Giosue' Carducci","straatNr":"40","vervoerder":"PosteItaliane","puntType":"postkantoor","bezettingsgraad":50,"latitude":44.02811347,"longitude":10.13160557,"canPickup":true,"canDropoff":true,"openingstijden":{"za":"08:20 - 12:35","zo":"gesloten","ma":"08:20 - 19:05","di":"08:20 - 19:05","wo":"08:20 - 19:05","do":"08:20 - 19:05","vr":"08:20 - 19:05"}}},{"type":"Feature","geometry":{"type":"Point","coordinates":[10.13769137,44.04592401]},"properties":{"type":"pakketpunt","locatieNaam":"Massa 2","straatNaam":"Via Frangola","straatNr":"2","vervoerder":"PosteItaliane","puntType":"postkantoor","bezettingsgraad":50,"latitude":44.04592401,"longitude":10.13769137,"canPickup":true,"canDropoff":true,"openingstijden":{"za":"08:20 - 12:35","zo":"gesloten","ma":"08:20 - 13:35","di":"08:20 - 13:35","wo":"08:20 - 13:35","do":"08:20 - 13:35","vr":"08:20 - 13:35"}}},{"type":"Feature","geometry":{"type":"Point","coordinates":[10.17473448,44.05352854]},"properties":{"type":"pakketpunt","locatieNaam":"Altagnana","straatNaam":"Via Dei Colli","straatNr":"137","vervoerder":"PosteItaliane","puntType":"postkantoor","bezettingsgraad":50,"latitude":44.05352854,"longitude":10.17473448,"canPickup":true,"canDropoff":true,"openingstijden":{"za":"08:20 - 12:45","zo":"gesloten","ma":"gesloten","di":"08:20 - 13:45","wo":"gesloten","do":"08:20 - 13:45","vr":"gesloten"}}},{"type":"Feature","geometry":{"type":"Point","coordinates":[10.12318672,44.01890544]},"properties":{"type":"pakketpunt","locatieNaam":"Massa 3","straatNaam":"Viale Roma","straatNr":"200","vervoerder":"PosteItaliane","puntType":"postkantoor","bezettingsgraad":50,"latitude":44.01890544,"longitude":10.12318672,"canPickup":true,"canDropoff":true,"openingstijden":{"za":"08:20 - 12:35","zo":"gesloten","ma":"08:20 - 13:35","di":"08:20 - 13:35","wo":"08:20 - 13:35","do":"08:20 - 13:35","vr":"08:20 - 13:35"}}},{"type":"Feature","geometry":{"type":"Point","coordinates":[10.13922591,44.03512839]},"properties":{"type":"pakketpunt","locatieNaam":"Massa Centro","straatNaam":"Viale Eugenio Chiesa","straatNr":"23","vervoerder":"PosteItaliane","puntType":"postkantoor","bezettingsgraad":50,"latitude":44.03512839,"longitude":10.13922591,"canPickup":true,"canDropoff":true,"openingstijden":{"za":"08:20 - 12:35","zo":"gesloten","ma":"08:20 - 19:05","di":"08:20 - 19:05","wo":"08:20 - 19:05","do":"08:20 - 19:05","vr":"08:20 - 19:05"}}},{"type":"Feature","geometry":{"type":"Point","coordinates":[10.16995194,44.06038357]},"properties":{"type":"pakketpunt","locatieNaam":"Canevara","straatNaam":"Via Bassa Tambura","straatNr":"149","vervoerder":"PosteItaliane","puntType":"postkantoor","bezettingsgraad":50,"latitude":44.06038357,"longitude":10.16995194,"canPickup":true,"canDropoff":true,"openingstijden":{"za":"08:20 - 12:45","zo":"gesloten","ma":"08:20 - 13:45","di":"08:20 - 13:45","wo":"08:20 - 13:45","do":"08:20 - 13:45","vr":"08:20 - 13:45"}}},{"type":"Feature","geometry":{"type":"Point","coordinates":[10.13829,44.02828]},"properties":{"type":"pakketpunt","locatieNaam":"Tabaccheria N. 80","straatNaam":"Via Ferdinando Martini","straatNr":"13","vervoerder":"PosteItaliane","puntType":"servicepunt","bezettingsgraad":50,"latitude":44.02828,"longitude":10.13829,"canPickup":true,"canDropoff":true,"openingstijden":{"za":"07:00 - 13:00, 14:00 - 20:00","zo":"07:00 - 13:00, 14:00 - 20:00","ma":"07:00 - 13:00, 14:00 - 20:00","di":"07:00 - 13:00, 14:00 - 20:00","wo":"07:00 - 13:00, 14:00 - 20:00","do":"07:00 - 13:00, 14:00 - 20:00","vr":"07:00 - 13:00, 14:00 - 20:00"}}},{"type":"Feature","geometry":{"type":"Point","coordinates":[10.14344297,44.03772962]},"properties":{"type":"pakketpunt","locatieNaam":"Gioca Gio'","straatNaam":"Via Dante Alighieri","straatNr":"28","vervoerder":"PosteItaliane","puntType":"servicepunt","bezettingsgraad":50,"latitude":44.03772962,"longitude":10.14344297,"canPickup":true,"canDropoff":true,"openingstijden":{"za":"10:00 - 12:30, 16:00 - 19:30","zo":"gesloten","ma":"gesloten","di":"10:00 - 12:30, 16:00 - 19:30","wo":"10:00 - 12:30, 16:00 - 19:30","do":"10:00 - 12:30, 16:00 - 19:30","vr":"10:00 - 12:30, 16:00 - 19:30"}}},{"type":"Feature","geometry":{"type":"Point","coordinates":[10.13703761,44.02449172]},"properties":{"type":"pakketpunt","locatieNaam":"Tabaccheria N. 25","straatNaam":"Piazza Quattro Novembre","straatNr":"9","vervoerder":"PosteItaliane","puntType":"servicepunt","bezettingsgraad":50,"latitude":44.02449172,"longitude":10.13703761,"canPickup":true,"canDropoff":true,"openingstijden":{"za":"08:00 - 13:00, 15:00 - 20:00","zo":"gesloten","ma":"08:00 - 13:00, 15:00 - 20:00","di":"08:00 - 13:00, 15:00 - 20:00","wo":"08:00 - 13:00, 15:00 - 20:00","do":"08:00 - 13:00, 15:00 - 20:00","vr":"08:00 - 13:00, 15:00 - 20:00"}}},{"type":"Feature","geometry":{"type":"Point","coordinates":[10.09977704,44.00892878]},"properties":{"type":"pakketpunt","locatieNaam":"Tabaccheria N. 26","straatNaam":"Piazza Francesco Betti","straatNr":"36","vervoerder":"PosteItaliane","puntType":"servicepunt","bezettingsgraad":50,"latitude":44.00892878,"longitude":10.09977704,"canPickup":true,"canDropoff":true,"openingstijden":{"za":"09:00 - 13:00, 15:00 - 20:00","zo":"09:00 - 13:00, 15:00 - 20:00","ma":"09:00 - 13:00, 15:00 - 20:00","di":"09:00 - 13:00, 15:00 - 20:00","wo":"09:00 - 13:00, 15:00 - 20:00","do":"09:00 - 13:00, 15:00 - 20:00","vr":"09:00 - 13:00, 15:00 - 20:00"}}},{"type":"Feature","geometry":{"type":"Point","coordinates":[10.09824239,44.01106922]},"properties":{"type":"pakketpunt","locatieNaam":"Tabaccheria N. 46","straatNaam":"Via Delle Pinete","straatNr":"62","vervoerder":"PosteItaliane","puntType":"servicepunt","bezettingsgraad":50,"latitude":44.01106922,"longitude":10.09824239,"canPickup":true,"canDropoff":true,"openingstijden":{"za":"08:30 - 13:00, 15:30 - 19:30","zo":"gesloten","ma":"08:30 - 13:00, 15:30 - 19:30","di":"08:30 - 13:00, 15:30 - 19:30","wo":"08:30 - 13:00, 15:30 - 19:30","do":"08:30 - 13:00, 15:30 - 19:30","vr":"08:30 - 13:00, 15:30 - 19:30"}}},{"type":"Feature","geometry":{"type":"Point","coordinates":[10.130616,44.02926]},"properties":{"type":"pakketpunt","locatieNaam":"Tabaccheria N. 9","straatNaam":"Via Marina Vecchia","straatNr":"135","vervoerder":"PosteItaliane","puntType":"servicepunt","bezettingsgraad":50,"latitude":44.02926,"longitude":10.130616,"canPickup":true,"canDropoff":true,"openingstijden":{"za":"08:00 - 13:00, 16:00 - 20:00","zo":"gesloten","ma":"08:00 - 13:00, 16:00 - 20:00","di":"08:00 - 13:00, 16:00 - 20:00","wo":"08:00 - 13:00, 16:00 - 20:00","do":"08:00 - 13:00, 16:00 - 20:00","vr":"08:00 - 13:00, 16:00 - 20:00"}}},{"type":"Feature","geometry":{"type":"Point","coordinates":[10.14107693,44.03643186]},"properties":{"type":"pakketpunt","locatieNaam":"Tabaccheria N. 1","straatNaam":"Via Porta Fabbrica","straatNr":"5","vervoerder":"PosteItaliane","puntType":"servicepunt","bezettingsgraad":50,"latitude":44.03643186,"longitude":10.14107693,"canPickup":true,"canDropoff":true,"openingstijden":{"za":"08:00 - 13:00, 15:00 - 20:00","zo":"gesloten","ma":"08:00 - 13:00, 15:00 - 20:00","di":"08:00 - 13:00, 15:00 - 20:00","wo":"08:00 - 13:00, 15:00 - 20:00","do":"08:00 - 13:00, 15:00 - 20:00","vr":"08:00 - 13:00, 15:00 - 20:00"}}},{"type":"Feature","geometry":{"type":"Point","coordinates":[10.13160557,44.02811347]},"properties":{"type":"pakketpunt","locatieNaam":"Ufficio Postale Massa 1","straatNaam":"Via Giosue' Carducci","straatNr":"40","vervoerder":"PosteItaliane","puntType":"automaat","bezettingsgraad":50,"latitude":44.02811347,"longitude":10.13160557,"canPickup":true,"canDropoff":true,"openingstijden":{"za":"08:20 - 12:35","zo":"gesloten","ma":"08:20 - 19:05","di":"08:20 - 19:05","wo":"08:20 - 19:05","do":"08:20 - 19:05","vr":"08:20 - 19:05"}}},{"type":"Feature","geometry":{"type":"Point","coordinates":[10.1288328,44.00628111]},"properties":{"type":"pakketpunt","locatieNaam":"Tabaccheria N. 79","straatNaam":"Via Stradella","straatNr":"57","vervoerder":"PosteItaliane","puntType":"servicepunt","bezettingsgraad":50,"latitude":44.00628111,"longitude":10.1288328,"canPickup":true,"canDropoff":true,"openingstijden":{"za":"07:00 - 13:00, 14:00 - 21:00","zo":"07:00 - 13:00","ma":"07:00 - 13:00, 14:00 - 21:00","di":"07:00 - 13:00, 14:00 - 21:00","wo":"07:00 - 13:00, 14:00 - 21:00","do":"07:00 - 13:00, 14:00 - 21:00","vr":"07:00 - 13:00, 14:00 - 21:00"}}},{"type":"Feature","geometry":{"type":"Point","coordinates":[10.11536892,44.00854925]},"properties":{"type":"pakketpunt","locatieNaam":"Le Fate Di Carta","straatNaam":"Via Arezzo","straatNr":"39","vervoerder":"PosteItaliane","puntType":"servicepunt","bezettingsgraad":50,"latitude":44.00854925,"longitude":10.11536892,"canPickup":true,"canDropoff":true,"openingstijden":{"za":"09:00 - 13:00, 16:00 - 19:00","zo":"gesloten","ma":"09:00 - 13:00, 16:00 - 19:30","di":"09:00 - 13:00, 16:00 - 19:30","wo":"09:00 - 13:00, 16:00 - 19:30","do":"09:00 - 13:00, 16:00 - 19:30","vr":"09:00 - 13:00, 16:00 - 19:30"}}},{"type":"Feature","geometry":{"type":"Point","coordinates":[10.13724015,44.02393604]},"properties":{"type":"pakketpunt","locatieNaam":"Stazione Di Servizio Eni","straatNaam":"Via Pietro Pellegrini Snc","straatNr":"1","vervoerder":"PosteItaliane","puntType":"automaat","bezettingsgraad":50,"latitude":44.02393604,"longitude":10.13724015,"canPickup":true,"canDropoff":true,"openingstijden":{"za":"00:01 - 23:59","zo":"00:01 - 23:59","ma":"00:01 - 23:59","di":"00:01 - 23:59","wo":"00:01 - 23:59","do":"00:01 - 23:59","vr":"00:01 - 23:59"}}},{"type":"Feature","geometry":{"type":"Point","coordinates":[10.12105827,44.01659173]},"properties":{"type":"pakketpunt","locatieNaam":"Tabaccheria N. 61","straatNaam":"Viale Roma","straatNr":"255","vervoerder":"PosteItaliane","puntType":"servicepunt","bezettingsgraad":50,"latitude":44.01659173,"longitude":10.12105827,"canPickup":true,"canDropoff":true,"openingstijden":{"za":"07:00 - 12:45, 15:00 - 19:30","zo":"gesloten","ma":"07:00 - 12:45, 15:00 - 19:30","di":"07:00 - 12:45, 15:00 - 19:30","wo":"07:00 - 12:45, 15:00 - 19:30","do":"07:00 - 12:45, 15:00 - 19:30","vr":"07:00 - 12:45, 15:00 - 19:30"}}},{"type":"Feature","geometry":{"type":"Point","coordinates":[10.11642987,44.01197005]},"properties":{"type":"pakketpunt","locatieNaam":"Tabaccheria N. 85","straatNaam":"Viale Roma","straatNr":"308","vervoerder":"PosteItaliane","puntType":"servicepunt","bezettingsgraad":50,"latitude":44.01197005,"longitude":10.11642987,"canPickup":true,"canDropoff":true,"openingstijden":{"za":"07:00 - 13:00, 15:00 - 19:45","zo":"gesloten","ma":"07:00 - 13:00, 15:00 - 19:45","di":"07:00 - 13:00, 15:00 - 19:45","wo":"07:00 - 13:00, 15:00 - 19:45","do":"07:00 - 13:00, 15:00 - 19:45","vr":"07:00 - 13:00, 15:00 - 19:45"}}},{"type":"Feature","geometry":{"type":"Point","coordinates":[10.13475536,44.02190319]},"properties":{"type":"pakketpunt","locatieNaam":"Tabaccheria N. 17","straatNaam":"Piazza Madonna Dei Quercioli","straatNr":"5","vervoerder":"PosteItaliane","puntType":"servicepunt","bezettingsgraad":50,"latitude":44.02190319,"longitude":10.13475536,"canPickup":true,"canDropoff":true,"openingstijden":{"za":"08:00 - 12:30, 16:00 - 19:30","zo":"gesloten","ma":"08:00 - 12:30, 16:00 - 19:30","di":"08:00 - 12:30, 16:00 - 19:30","wo":"08:00 - 12:30, 16:00 - 19:30","do":"08:00 - 12:30, 16:00 - 19:30","vr":"08:00 - 12:30, 16:00 - 19:30"}}},{"type":"Feature","geometry":{"type":"Point","coordinates":[10.13992449,44.03884691]},"properties":{"type":"pakketpunt","locatieNaam":"Tabaccheria N. 51","straatNaam":"Viale Trieste","straatNr":"55","vervoerder":"PosteItaliane","puntType":"servicepunt","bezettingsgraad":50,"latitude":44.03884691,"longitude":10.13992449,"canPickup":true,"canDropoff":true,"openingstijden":{"za":"07:30 - 12:30, 14:00 - 19:20","zo":"gesloten","ma":"07:30 - 12:30, 14:00 - 19:20","di":"07:30 - 12:30, 14:00 - 19:20","wo":"07:30 - 12:30, 14:00 - 19:20","do":"07:30 - 12:30, 14:00 - 19:20","vr":"07:30 - 12:30, 14:00 - 19:20"}}},{"type":"Feature","geometry":{"type":"Point","coordinates":[10.1446123,44.010012]},"properties":{"type":"pakketpunt","locatieNaam":"Tabaccheria N. 48","straatNaam":"Via Romana","straatNr":"269","vervoerder":"PosteItaliane","puntType":"servicepunt","bezettingsgraad":50,"latitude":44.010012,"longitude":10.1446123,"canPickup":true,"canDropoff":true,"openingstijden":{"za":"07:00 - 20:00","zo":"07:00 - 12:00","ma":"07:00 - 20:00","di":"07:00 - 20:00","wo":"07:00 - 20:00","do":"07:00 - 20:00","vr":"07:00 - 20:00"}}},{"type":"Feature","geometry":{"type":"Point","coordinates":[10.14137161,44.03463503]},"properties":{"type":"pakketpunt","locatieNaam":"Tabaccheria N. 3","straatNaam":"Via Vincenzo Giudice","straatNr":"7","vervoerder":"PosteItaliane","puntType":"servicepunt","bezettingsgraad":50,"latitude":44.03463503,"longitude":10.14137161,"canPickup":true,"canDropoff":true,"openingstijden":{"za":"08:00 - 12:30, 15:30 - 19:30","zo":"gesloten","ma":"07:30 - 12:30, 15:30 - 19:30","di":"07:30 - 12:30, 15:30 - 19:30","wo":"07:30 - 12:30, 15:30 - 19:30","do":"07:30 - 12:30, 15:30 - 19:30","vr":"07:30 - 12:30, 15:30 - 19:30"}}},{"type":"Feature","geometry":{"type":"Point","coordinates":[10.11150251,44.01671645]},"properties":{"type":"pakketpunt","locatieNaam":"Tabaccheria N. 56","straatNaam":"Via San Leonardo","straatNr":"139","vervoerder":"PosteItaliane","puntType":"servicepunt","bezettingsgraad":50,"latitude":44.01671645,"longitude":10.11150251,"canPickup":true,"canDropoff":true,"openingstijden":{"za":"08:00 - 13:00","zo":"gesloten","ma":"08:00 - 13:00, 15:30 - 18:30","di":"08:00 - 13:00, 15:30 - 18:30","wo":"08:00 - 13:00, 15:30 - 18:30","do":"08:00 - 13:00, 15:30 - 18:30","vr":"08:00 - 13:00, 15:30 - 18:30"}}},{"type":"Feature","geometry":{"type":"Point","coordinates":[10.137294,44.035995]},"properties":{"type":"pakketpunt","locatieNaam":"FuriaTechLab","straatNaam":"VIA SAN GIOVANNI BATTISTA LA SALLE","straatNr":"11","vervoerder":"DPD","puntType":"pickup_point","bezettingsgraad":50,"latitude":44.035995,"longitude":10.137294,"canPickup":true,"canDropoff":true,"openingstijden":{"ma":"09:00 - 13:00, 16:00 - 19:00","di":"09:00 - 13:00, 16:00 - 19:00","wo":"09:00 - 13:00, 16:00 - 19:00","do":"09:00 - 13:00, 16:00 - 19:00","vr":"09:00 - 13:00, 16:00 - 19:00","za":"gesloten","zo":"gesloten"}}},{"type":"Feature","geometry":{"type":"Point","coordinates":[10.1399877,44.0367736]},"properties":{"type":"pakketpunt","locatieNaam":"Artecna","straatNaam":"LARGO MATTEOTTI","straatNr":"15","vervoerder":"DPD","puntType":"pickup_point","bezettingsgraad":50,"latitude":44.0367736,"longitude":10.1399877,"canPickup":true,"canDropoff":true,"openingstijden":{"ma":"10:30 - 16:30","di":"10:30 - 16:30","wo":"10:30 - 16:30","do":"10:30 - 16:30","vr":"10:30 - 16:30","za":"gesloten","zo":"gesloten"}}},{"type":"Feature","geometry":{"type":"Point","coordinates":[10.1434030288,44.0375950722]},"properties":{"type":"pakketpunt","locatieNaam":"Gioca Gio'","straatNaam":"VIA D. ALIGHIERI","straatNr":"28","vervoerder":"DPD","puntType":"pickup_point","bezettingsgraad":50,"latitude":44.0375950722,"longitude":10.1434030288,"canPickup":true,"canDropoff":true,"openingstijden":{"ma":"gesloten","di":"10:00 - 12:30, 16:00 - 19:30","wo":"10:00 - 12:30, 16:00 - 19:30","do":"10:00 - 12:30, 16:00 - 19:30","vr":"10:00 - 12:30, 16:00 - 19:30","za":"10:00 - 12:30, 16:00 - 19:30","zo":"gesloten"}}},{"type":"Feature","geometry":{"type":"Point","coordinates":[10.1673841,44.0578431]},"properties":{"type":"pakketpunt","locatieNaam":"La Morza","straatNaam":"VIA BASSA TAMBURA","straatNr":"151","vervoerder":"DPD","puntType":"pickup_point","bezettingsgraad":50,"latitude":44.0578431,"longitude":10.1673841,"canPickup":true,"canDropoff":true,"openingstijden":{"ma":"07:00 - 13:30, 15:30 - 20:00","di":"07:00 - 13:30, 15:30 - 20:00","wo":"07:00 - 13:30, 15:30 - 20:00","do":"07:00 - 13:30, 15:30 - 20:00","vr":"07:00 - 13:30, 15:30 - 20:00","za":"07:00 - 13:30, 15:30 - 20:00","zo":"07:00 - 13:30"}}},{"type":"Feature","geometry":{"type":"Point","coordinates":[10.13885074,44.03891117]},"properties":{"type":"pakketpunt","locatieNaam":"Q8 Massa","straatNaam":"VIA X APRILE","straatNr":"3","vervoerder":"DPD","puntType":"pickup_point","bezettingsgraad":50,"latitude":44.03891117,"longitude":10.13885074,"canPickup":true,"canDropoff":true,"openingstijden":{"ma":"08:00 - 12:30, 15:00 - 19:00","di":"08:00 - 12:30, 15:00 - 19:00","wo":"08:00 - 12:30, 15:00 - 19:00","do":"08:00 - 12:30, 15:00 - 19:00","vr":"08:00 - 12:30, 15:00 - 19:00","za":"08:00 - 12:00","zo":"gesloten"}}},{"type":"Feature","geometry":{"type":"Point","coordinates":[10.13069164,44.02877402]},"properties":{"type":"pakketpunt","locatieNaam":"L'Aroma Del Caffè","straatNaam":"VIA CARDUCCI","straatNr":"54","vervoerder":"DPD","puntType":"pickup_point","bezettingsgraad":50,"latitude":44.02877402,"longitude":10.13069164,"canPickup":true,"canDropoff":true,"openingstijden":{"ma":"09:00 - 12:30, 16:00 - 19:30","di":"09:00 - 12:30, 16:00 - 19:30","wo":"09:00 - 12:30, 16:00 - 19:30","do":"09:00 - 12:30, 16:00 - 19:30","vr":"09:00 - 12:30, 16:00 - 19:30","za":"09:00 - 12:30, 16:00 - 19:30","zo":"gesloten"}}},{"type":"Feature","geometry":{"type":"Point","coordinates":[10.1211828,44.0165453]},"properties":{"type":"pakketpunt","locatieNaam":"Orange Telefonia","straatNaam":"VIALE ROMA","straatNr":"251","vervoerder":"DPD","puntType":"pickup_point","bezettingsgraad":50,"latitude":44.0165453,"longitude":10.1211828,"canPickup":true,"canDropoff":true,"openingstijden":{"ma":"09:00 - 13:00","di":"09:00 - 13:00, 15:30 - 19:30","wo":"09:00 - 13:00, 15:30 - 19:30","do":"09:00 - 13:00, 15:30 - 19:00","vr":"09:00 - 13:00, 15:30 - 19:30","za":"09:00 - 13:00, 15:30 - 19:30","zo":"gesloten"}}},{"type":"Feature","geometry":{"type":"Point","coordinates":[10.1347466,44.0343982]},"properties":{"type":"pakketpunt","locatieNaam":"Coffee Love","straatNaam":"P.ZZA A. DE GASPERI","straatNr":"15","vervoerder":"DPD","puntType":"pickup_point","bezettingsgraad":50,"latitude":44.0343982,"longitude":10.1347466,"canPickup":true,"canDropoff":true,"openingstijden":{"ma":"09:00 - 12:45","di":"09:00 - 12:45","wo":"09:00 - 12:45","do":"09:00 - 12:45","vr":"09:00 - 12:45","za":"gesloten","zo":"gesloten"}}},{"type":"Feature","geometry":{"type":"Point","coordinates":[10.1004452,44.0097314]},"properties":{"type":"pakketpunt","locatieNaam":"VintageClass.it","straatNaam":"VIA CRISTOFORO COLOMBO","straatNr":"6","vervoerder":"DPD","puntType":"pickup_point","bezettingsgraad":50,"latitude":44.0097314,"longitude":10.1004452,"canPickup":true,"canDropoff":true,"openingstijden":{"ma":"10:00 - 12:30","di":"10:00 - 12:30, 17:00 - 19:30","wo":"10:00 - 12:30, 17:00 - 19:30","do":"10:00 - 12:30, 17:00 - 19:30","vr":"10:00 - 12:30, 17:00 - 19:30","za":"10:00 - 12:30, 17:00 - 19:30","zo":"gesloten"}}},{"type":"Feature","geometry":{"type":"Point","coordinates":[10.11533762,44.00869316]},"properties":{"type":"pakketpunt","locatieNaam":"Le Fate di Carta","straatNaam":"VIA AREZZO","straatNr":"39","vervoerder":"DPD","puntType":"pickup_point","bezettingsgraad":50,"latitude":44.00869316,"longitude":10.11533762,"canPickup":true,"canDropoff":true,"openingstijden":{"ma":"09:00 - 13:00, 15:30 - 19:30","di":"09:00 - 13:00, 15:30 - 19:30","wo":"09:00 - 13:00, 15:30 - 19:30","do":"09:00 - 13:00, 15:30 - 19:30","vr":"09:00 - 13:00, 15:30 - 19:30","za":"09:00 - 13:00, 15:30 - 19:30","zo":"gesloten"}}},{"type":"Feature","geometry":{"type":"Point","coordinates":[10.125957,44.02079]},"properties":{"type":"pakketpunt","locatieNaam":"BRT LOCKER - Palestra Ferro&Ghisa v","straatNaam":"VIA DANTE MARCHETTI","straatNr":"6","vervoerder":"DPD","puntType":"dpd_box","bezettingsgraad":50,"latitude":44.02079,"longitude":10.125957,"canPickup":true,"canDropoff":true,"openingstijden":{"ma":"05:30 - 20:00","di":"05:30 - 20:00","wo":"05:30 - 20:00","do":"05:30 - 20:00","vr":"05:30 - 20:00","za":"08:00 - 18:00","zo":"08:00 - 12:00"}}},{"type":"Feature","geometry":{"type":"Point","coordinates":[10.11606573,44.02201823]},"properties":{"type":"pakketpunt","locatieNaam":"Bar Obelisco","straatNaam":"VIA MASSA AVENZA","straatNr":"2","vervoerder":"DPD","puntType":"pickup_point","bezettingsgraad":50,"latitude":44.02201823,"longitude":10.11606573,"canPickup":true,"canDropoff":true,"openingstijden":{"ma":"08:00 - 17:00","di":"08:00 - 17:00","wo":"08:00 - 17:00","do":"08:00 - 17:00","vr":"08:00 - 17:00","za":"gesloten","zo":"gesloten"}}},{"type":"Feature","geometry":{"type":"Point","coordinates":[10.12578,44.04132]},"properties":{"type":"pakketpunt","locatieNaam":"InPost Locker 24/7","straatNaam":"Via Aurelia Ovest","straatNr":"snc","vervoerder":"InPost","puntType":"automaat","bezettingsgraad":50,"latitude":44.04132,"longitude":10.12578,"canPickup":true,"canDropoff":true,"openingstijden":null}},{"type":"Feature","geometry":{"type":"Point","coordinates":[10.13342,44.03175]},"properties":{"type":"pakketpunt","locatieNaam":"InPost Locker","straatNaam":"Via Marina Vecchia","straatNr":"142","vervoerder":"InPost","puntType":"automaat","bezettingsgraad":50,"latitude":44.03175,"longitude":10.13342,"canPickup":true,"canDropoff":true,"openingstijden":null}},{"type":"Feature","geometry":{"type":"Point","coordinates":[10.10846,44.02567]},"properties":{"type":"pakketpunt","locatieNaam":"InPost Locker 24/7","straatNaam":"Via Dorsale","straatNr":"9","vervoerder":"InPost","puntType":"automaat","bezettingsgraad":50,"latitude":44.02567,"longitude":10.10846,"canPickup":true,"canDropoff":true,"openingstijden":null}},{"type":"Feature","geometry":{"type":"Point","coordinates":[10.11996,44.02248]},"properties":{"type":"pakketpunt","locatieNaam":"InPost Locker 24/7","straatNaam":"Via Marina Vecchia","straatNr":"456","vervoerder":"InPost","puntType":"automaat","bezettingsgraad":50,"latitude":44.02248,"longitude":10.11996,"canPickup":true,"canDropoff":true,"openingstijden":null}},{"type":"Feature","geometry":{"type":"Point","coordinates":[10.1412,44.0338]},"properties":{"type":"pakketpunt","locatieNaam":"InPost Locker 24/7","straatNaam":"Viale Democrazia","straatNr":"26","vervoerder":"InPost","puntType":"automaat","bezettingsgraad":50,"latitude":44.0338,"longitude":10.1412,"canPickup":true,"canDropoff":true,"openingstijden":null}},{"type":"Feature","geometry":{"type":"Point","coordinates":[10.10436,44.03717]},"properties":{"type":"pakketpunt","locatieNaam":"Di fronte a rivenditore auto","straatNaam":"Via Aurelia","straatNr":"","vervoerder":"InPost","puntType":"automaat","bezettingsgraad":50,"latitude":44.03717,"longitude":10.10436,"canPickup":true,"canDropoff":true,"openingstijden":null}},{"type":"Feature","geometry":{"type":"Point","coordinates":[10.14341,44.03768]},"properties":{"type":"pakketpunt","locatieNaam":"InPost Point","straatNaam":"Via D. Alighieri","straatNr":"28","vervoerder":"InPost","puntType":"servicepunt","bezettingsgraad":50,"latitude":44.03768,"longitude":10.14341,"canPickup":true,"canDropoff":true,"openingstijden":"Lun: 17:30 - 20:00 Mar-gio: 09:30 - 12:30 - 17:30 - 20:00 - Ven-sab: 09:30 - 12:30 - 17:30 - 23:59"}},{"type":"Feature","geometry":{"type":"Point","coordinates":[10.13763,44.03265]},"properties":{"type":"pakketpunt","locatieNaam":"InPost Point","straatNaam":"Viale Stazione","straatNr":"14","vervoerder":"InPost","puntType":"servicepunt","bezettingsgraad":50,"latitude":44.03265,"longitude":10.13763,"canPickup":true,"canDropoff":true,"openingstijden":"Lun-Dom: 10:00 - 21:00"}},{"type":"Feature","geometry":{"type":"Point","coordinates":[10.11557,44.00853]},"properties":{"type":"pakketpunt","locatieNaam":"InPost Point","straatNaam":"Via Arezzo, 39, 54100 Massa, Province of Massa and Carrara, Italy","straatNr":"39","vervoerder":"InPost","puntType":"servicepunt","bezettingsgraad":50,"latitude":44.00853,"longitude":10.11557,"canPickup":true,"canDropoff":true,"openingstijden":"Lun–Ven 09:00-13:00, 15:30-19:00; Sab 09:00-13:00"}},{"type":"Feature","geometry":{"type":"Point","coordinates":[10.1211828,44.0165453]},"properties":{"type":"pakketpunt","locatieNaam":"Orange telefonia fissa e mobile","straatNaam":"Viale Roma","straatNr":"251","vervoerder":"GLS","puntType":"parcel_shop","bezettingsgraad":50,"latitude":44.0165453,"longitude":10.1211828,"canPickup":true,"canDropoff":true,"openingstijden":"za: 09:00 - 13:00, 15:30 - 19:30; ma: 09:00 - 13:00"}},{"type":"Feature","geometry":{"type":"Point","coordinates":[10.0771767,44.023303]},"properties":{"type":"pakketpunt","locatieNaam":"Ottica Di Pietro","straatNaam":"Via Delle Pinete","straatNr":"117","vervoerder":"GLS","puntType":"parcel_shop","bezettingsgraad":50,"latitude":44.023303,"longitude":10.0771767,"canPickup":true,"canDropoff":true,"openingstijden":"za: 09:00 - 13:00, 16:00 - 19:30; ma: 09:00 - 13:00, 16:00 - 19:30"}},{"type":"Feature","geometry":{"type":"Point","coordinates":[10.0972831,44.0296433]},"properties":{"type":"pakketpunt","locatieNaam":"Tipografia Mori","straatNaam":"Via Dorsale","straatNr":"13/26","vervoerder":"GLS","puntType":"parcel_shop","bezettingsgraad":50,"latitude":44.0296433,"longitude":10.0972831,"canPickup":true,"canDropoff":true,"openingstijden":"ma: 08:30 - 13:00, 14:30 - 18:00; di: 08:30 - 13:00, 14:30 - 18:00"}},{"type":"Feature","geometry":{"type":"Point","coordinates":[10.1334164,44.0317501]},"properties":{"type":"pakketpunt","locatieNaam":"Essedi Shop","straatNaam":"Via Marina Vecchia","straatNr":"142","vervoerder":"GLS","puntType":"parcel_shop","bezettingsgraad":50,"latitude":44.0317501,"longitude":10.1334164,"canPickup":true,"canDropoff":true,"openingstijden":"za: 09:30 - 13:00; ma: 16:00 - 19:00"}},{"type":"Feature","geometry":{"type":"Point","coordinates":[10.139216,44.0350339]},"properties":{"type":"pakketpunt","locatieNaam":"RIVENDITA 6","straatNaam":"Viale Eugenio Chiesa","straatNr":"27","vervoerder":"GLS","puntType":"parcel_shop","bezettingsgraad":50,"latitude":44.0350339,"longitude":10.139216,"canPickup":true,"canDropoff":true,"openingstijden":"za: 07:30 - 12:30, 16:00 - 19:30; ma: 07:30 - 12:30, 16:00 - 19:30"}},{"type":"Feature","geometry":{"type":"Point","coordinates":[10.1416083,44.0357641]},"properties":{"type":"pakketpunt","locatieNaam":"Gamic","straatNaam":"Piazza Bertagnini","straatNr":"10","vervoerder":"GLS","puntType":"parcel_shop","bezettingsgraad":50,"latitude":44.0357641,"longitude":10.1416083,"canPickup":true,"canDropoff":true,"openingstijden":"za: 10:30 - 12:30, 15:30 - 19:30; ma: 15:30 - 19:30"}},{"type":"Feature","geometry":{"type":"Point","coordinates":[10.1405451,44.0372635]},"properties":{"type":"pakketpunt","locatieNaam":"Italiana Servizi Postali - MSI Multiservizi Infante","straatNaam":"Via Angelini","straatNr":"17","vervoerder":"GLS","puntType":"parcel_shop","bezettingsgraad":50,"latitude":44.0372635,"longitude":10.1405451,"canPickup":true,"canDropoff":true,"openingstijden":"ma: 09:30 - 12:30, 16:00 - 18:00; di: 09:30 - 12:30, 16:00 - 18:00"}},{"type":"Feature","geometry":{"type":"Point","coordinates":[10.1399761,44.0372736]},"properties":{"type":"pakketpunt","locatieNaam":"artecna","straatNaam":"Largo Matteotti","straatNr":"15","vervoerder":"GLS","puntType":"parcel_shop","bezettingsgraad":50,"latitude":44.0372736,"longitude":10.1399761,"canPickup":true,"canDropoff":true,"openingstijden":"ma: 10:00 - 16:30; di: 10:00 - 16:30"}},{"type":"Feature","geometry":{"type":"Point","coordinates":[10.119571,43.998669]},"properties":{"type":"pakketpunt","locatieNaam":"Ufficio Postale RONCHI","straatNaam":"VIA RONCHI 48","straatNr":"","vervoerder":"DHL","puntType":"postOffice","bezettingsgraad":50,"latitude":43.998669,"longitude":10.119571,"canPickup":true,"canDropoff":true,"openingstijden":{"ma":"08:20 - 13:35","di":"08:20 - 13:35","wo":"08:20 - 13:35","do":"08:20 - 13:35","vr":"08:20 - 13:35","za":"08:20 - 12:35","zo":"gesloten"}}},{"type":"Feature","geometry":{"type":"Point","coordinates":[10.099777,44.008929]},"properties":{"type":"pakketpunt","locatieNaam":"TABACCHERIA N. 26","straatNaam":"PIAZZA FRANCESCO BETTI 36","straatNr":"","vervoerder":"DHL","puntType":"parcelShop","bezettingsgraad":50,"latitude":44.008929,"longitude":10.099777,"canPickup":true,"canDropoff":true,"openingstijden":{"ma":"09:00 - 13:00, 15:00 - 20:00","di":"09:00 - 13:00, 15:00 - 20:00","wo":"09:00 - 13:00, 15:00 - 20:00","do":"09:00 - 13:00, 15:00 - 20:00","vr":"09:00 - 13:00, 15:00 - 20:00","za":"09:00 - 13:00, 15:00 - 20:00","zo":"09:00 - 13:00, 15:00 - 20:00"}}},{"type":"Feature","geometry":{"type":"Point","coordinates":[10.101121,44.009631]},"properties":{"type":"pakketpunt","locatieNaam":"Ufficio Postale MARINA DI MASSA","straatNaam":"VIA SAN LEONARDO 492","straatNr":"","vervoerder":"DHL","puntType":"postOffice","bezettingsgraad":50,"latitude":44.009631,"longitude":10.101121,"canPickup":true,"canDropoff":true,"openingstijden":{"ma":"08:20 - 19:05","di":"08:20 - 19:05","wo":"08:20 - 19:05","do":"08:20 - 19:05","vr":"08:20 - 19:05","za":"08:20 - 12:35","zo":"gesloten"}}},{"type":"Feature","geometry":{"type":"Point","coordinates":[10.098242,44.011069]},"properties":{"type":"pakketpunt","locatieNaam":"TABACCHERIA N. 46","straatNaam":"VIA DELLE PINETE 62","straatNr":"","vervoerder":"DHL","puntType":"parcelShop","bezettingsgraad":50,"latitude":44.011069,"longitude":10.098242,"canPickup":true,"canDropoff":true,"openingstijden":{"ma":"08:30 - 13:00, 15:30 - 19:30","di":"08:30 - 13:00, 15:30 - 19:30","wo":"08:30 - 13:00, 15:30 - 19:30","do":"08:30 - 13:00, 15:30 - 19:30","vr":"08:30 - 13:00, 15:30 - 19:30","za":"08:30 - 13:00, 15:30 - 19:30","zo":"gesloten"}}},{"type":"Feature","geometry":{"type":"Point","coordinates":[10.111503,44.016716]},"properties":{"type":"pakketpunt","locatieNaam":"TABACCHERIA N. 56","straatNaam":"VIA SAN LEONARDO 139","straatNr":"","vervoerder":"DHL","puntType":"parcelShop","bezettingsgraad":50,"latitude":44.016716,"longitude":10.111503,"canPickup":true,"canDropoff":true,"openingstijden":{"ma":"08:00 - 13:00, 15:30 - 18:30","di":"08:00 - 13:00, 15:30 - 18:30","wo":"08:00 - 13:00, 15:30 - 18:30","do":"08:00 - 13:00, 15:30 - 18:30","vr":"08:00 - 13:00, 15:30 - 18:30","za":"08:00 - 13:00","zo":"gesloten"}}},{"type":"Feature","geometry":{"type":"Point","coordinates":[10.114677,44.040246]},"properties":{"type":"pakketpunt","locatieNaam":"Ufficio Postale MASSA 4","straatNaam":"PIAZZA ALBANIA 7","straatNr":"","vervoerder":"DHL","puntType":"postOffice","bezettingsgraad":50,"latitude":44.040246,"longitude":10.114677,"canPickup":true,"canDropoff":true,"openingstijden":{"ma":"08:20 - 13:35","di":"08:20 - 13:35","wo":"08:20 - 13:35","do":"08:20 - 13:35","vr":"08:20 - 13:35","za":"08:20 - 12:35","zo":"gesloten"}}},{"type":"Feature","geometry":{"type":"Point","coordinates":[10.11643,44.01197]},"properties":{"type":"pakketpunt","locatieNaam":"TABACCHERIA N. 85","straatNaam":"VIALE ROMA 308","straatNr":"","vervoerder":"DHL","puntType":"parcelShop","bezettingsgraad":50,"latitude":44.01197,"longitude":10.11643,"canPickup":true,"canDropoff":true,"openingstijden":{"ma":"07:00 - 13:00, 15:00 - 19:45","di":"07:00 - 13:00, 15:00 - 19:45","wo":"07:00 - 13:00, 15:00 - 19:45","do":"07:00 - 13:00, 15:00 - 19:45","vr":"07:00 - 13:00, 15:00 - 19:45","za":"07:00 - 13:00, 15:00 - 19:45","zo":"gesloten"}}},{"type":"Feature","geometry":{"type":"Point","coordinates":[10.121058,44.016592]},"properties":{"type":"pakketpunt","locatieNaam":"TABACCHERIA N. 61","straatNaam":"VIALE ROMA 255","straatNr":"","vervoerder":"DHL","puntType":"parcelShop","bezettingsgraad":50,"latitude":44.016592,"longitude":10.121058,"canPickup":true,"canDropoff":true,"openingstijden":{"ma":"07:00 - 12:45, 15:00 - 19:30","di":"07:00 - 12:45, 15:00 - 19:30","wo":"07:00 - 12:45, 15:00 - 19:30","do":"07:00 - 12:45, 15:00 - 19:30","vr":"07:00 - 12:45, 15:00 - 19:30","za":"07:00 - 12:45, 15:00 - 19:30","zo":"gesloten"}}},{"type":"Feature","geometry":{"type":"Point","coordinates":[10.123187,44.018905]},"properties":{"type":"pakketpunt","locatieNaam":"Ufficio Postale MASSA 3","straatNaam":"VIALE ROMA 200","straatNr":"","vervoerder":"DHL","puntType":"postOffice","bezettingsgraad":50,"latitude":44.018905,"longitude":10.123187,"canPickup":true,"canDropoff":true,"openingstijden":{"ma":"08:20 - 13:35","di":"08:20 - 13:35","wo":"08:20 - 13:35","do":"08:20 - 13:35","vr":"08:20 - 13:35","za":"08:20 - 12:35","zo":"gesloten"}}},{"type":"Feature","geometry":{"type":"Point","coordinates":[10.115369,44.008549]},"properties":{"type":"pakketpunt","locatieNaam":"LE FATE DI CARTA","straatNaam":"VIA AREZZO 39","straatNr":"","vervoerder":"DHL","puntType":"parcelShop","bezettingsgraad":50,"latitude":44.008549,"longitude":10.115369,"canPickup":true,"canDropoff":true,"openingstijden":{"ma":"09:00 - 13:00, 16:00 - 19:30","di":"09:00 - 13:00, 16:00 - 19:30","wo":"09:00 - 13:00, 16:00 - 19:30","do":"09:00 - 13:00, 16:00 - 19:30","vr":"09:00 - 13:00, 16:00 - 19:30","za":"09:00 - 13:00, 16:00 - 19:00","zo":"gesloten"}}},{"type":"Feature","geometry":{"type":"Point","coordinates":[10.130616,44.02926]},"properties":{"type":"pakketpunt","locatieNaam":"TABACCHERIA N. 9","straatNaam":"VIA MARINA VECCHIA 135","straatNr":"","vervoerder":"DHL","puntType":"parcelShop","bezettingsgraad":50,"latitude":44.02926,"longitude":10.130616,"canPickup":true,"canDropoff":true,"openingstijden":{"ma":"08:00 - 13:00, 16:00 - 20:00","di":"08:00 - 13:00, 16:00 - 20:00","wo":"08:00 - 13:00, 16:00 - 20:00","do":"08:00 - 13:00, 16:00 - 20:00","vr":"08:00 - 13:00, 16:00 - 20:00","za":"08:00 - 13:00, 16:00 - 20:00","zo":"gesloten"}}},{"type":"Feature","geometry":{"type":"Point","coordinates":[10.131606,44.028113]},"properties":{"type":"pakketpunt","locatieNaam":"UFFICIO POSTALE MASSA 1","straatNaam":"VIA GIOSUE CARDUCCI 40","straatNr":"","vervoerder":"DHL","puntType":"packStation","bezettingsgraad":50,"latitude":44.028113,"longitude":10.131606,"canPickup":true,"canDropoff":true,"openingstijden":{"ma":"08:20 - 19:05","di":"08:20 - 19:05","wo":"08:20 - 19:05","do":"08:20 - 19:05","vr":"08:20 - 19:05","za":"08:20 - 12:35","zo":"gesloten"}}},{"type":"Feature","geometry":{"type":"Point","coordinates":[10.131606,44.028113]},"properties":{"type":"pakketpunt","locatieNaam":"Ufficio Postale MASSA 1","straatNaam":"VIA GIOSUE CARDUCCI 40","straatNr":"","vervoerder":"DHL","puntType":"postOffice","bezettingsgraad":50,"latitude":44.028113,"longitude":10.131606,"canPickup":true,"canDropoff":true,"openingstijden":{"ma":"08:20 - 19:05","di":"08:20 - 19:05","wo":"08:20 - 19:05","do":"08:20 - 19:05","vr":"08:20 - 19:05","za":"08:20 - 12:35","zo":"gesloten"}}},{"type":"Feature","geometry":{"type":"Point","coordinates":[10.134755,44.021903]},"properties":{"type":"pakketpunt","locatieNaam":"TABACCHERIA N. 17","straatNaam":"PIAZZA MADONNA DEI QUERCIOLI 5","straatNr":"","vervoerder":"DHL","puntType":"parcelShop","bezettingsgraad":50,"latitude":44.021903,"longitude":10.134755,"canPickup":true,"canDropoff":true,"openingstijden":{"ma":"08:00 - 12:30, 16:00 - 19:30","di":"08:00 - 12:30, 16:00 - 19:30","wo":"08:00 - 12:30, 16:00 - 19:30","do":"08:00 - 12:30, 16:00 - 19:30","vr":"08:00 - 12:30, 16:00 - 19:30","za":"08:00 - 12:30, 16:00 - 19:30","zo":"gesloten"}}},{"type":"Feature","geometry":{"type":"Point","coordinates":[10.136067,44.035349]},"properties":{"type":"pakketpunt","locatieNaam":"TABACCHERIA n. 71","straatNaam":"VIA ENRICO FERMI 13","straatNr":"","vervoerder":"DHL","puntType":"parcelShop","bezettingsgraad":50,"latitude":44.035349,"longitude":10.136067,"canPickup":true,"canDropoff":true,"openingstijden":{"ma":"07:30 - 20:00","di":"07:30 - 20:00","wo":"07:30 - 20:00","do":"07:30 - 20:00","vr":"07:30 - 20:00","za":"07:30 - 13:00, 15:00 - 20:00","zo":"08:00 - 13:00"}}},{"type":"Feature","geometry":{"type":"Point","coordinates":[10.136182,44.035327]},"properties":{"type":"pakketpunt","locatieNaam":"FAT ELETTRONICA","straatNaam":"Via Fermi 17","straatNr":"","vervoerder":"DHL","puntType":"parcelShop","bezettingsgraad":50,"latitude":44.035327,"longitude":10.136182,"canPickup":false,"canDropoff":true,"openingstijden":{"ma":"09:30 - 19:30","di":"09:30 - 19:30","wo":"09:30 - 19:30","do":"09:30 - 19:30","vr":"09:30 - 19:30","za":"gesloten","zo":"gesloten"}}},{"type":"Feature","geometry":{"type":"Point","coordinates":[10.137038,44.024492]},"properties":{"type":"pakketpunt","locatieNaam":"TABACCHERIA N. 25","straatNaam":"PIAZZA QUATTRO NOVEMBRE 9","straatNr":"","vervoerder":"DHL","puntType":"parcelShop","bezettingsgraad":50,"latitude":44.024492,"longitude":10.137038,"canPickup":true,"canDropoff":true,"openingstijden":{"ma":"08:00 - 13:00, 15:00 - 20:00","di":"08:00 - 13:00, 15:00 - 20:00","wo":"08:00 - 13:00, 15:00 - 20:00","do":"08:00 - 13:00, 15:00 - 20:00","vr":"08:00 - 13:00, 15:00 - 20:00","za":"08:00 - 13:00, 15:00 - 20:00","zo":"gesloten"}}},{"type":"Feature","geometry":{"type":"Point","coordinates":[10.13724,44.023936]},"properties":{"type":"pakketpunt","locatieNaam":"STAZIONE DI SERVIZIO ENI","straatNaam":"VIA PIETRO PELLEGRINI SNC 1","straatNr":"","vervoerder":"DHL","puntType":"packStation","bezettingsgraad":50,"latitude":44.023936,"longitude":10.13724,"canPickup":true,"canDropoff":true,"openingstijden":{"ma":"00:01 - 23:59","di":"00:01 - 23:59","wo":"00:01 - 23:59","do":"00:01 - 23:59","vr":"00:01 - 23:59","za":"00:01 - 23:59","zo":"00:01 - 23:59"}}},{"type":"Feature","geometry":{"type":"Point","coordinates":[10.13829,44.02828]},"properties":{"type":"pakketpunt","locatieNaam":"TABACCHERIA N. 80","straatNaam":"VIA FERDINANDO MARTINI 13","straatNr":"","vervoerder":"DHL","puntType":"parcelShop","bezettingsgraad":50,"latitude":44.02828,"longitude":10.13829,"canPickup":true,"canDropoff":true,"openingstijden":{"ma":"07:00 - 13:00, 14:00 - 20:00","di":"07:00 - 13:00, 14:00 - 20:00","wo":"07:00 - 13:00, 14:00 - 20:00","do":"07:00 - 13:00, 14:00 - 20:00","vr":"07:00 - 13:00, 14:00 - 20:00","za":"07:00 - 13:00, 14:00 - 20:00","zo":"07:00 - 13:00, 14:00 - 20:00"}}},{"type":"Feature","geometry":{"type":"Point","coordinates":[10.169952,44.060384]},"properties":{"type":"pakketpunt","locatieNaam":"Ufficio Postale CANEVARA","straatNaam":"VIA BASSA TAMBURA 149","straatNr":"","vervoerder":"DHL","puntType":"postOffice","bezettingsgraad":50,"latitude":44.060384,"longitude":10.169952,"canPickup":true,"canDropoff":true,"openingstijden":{"ma":"08:20 - 13:45","di":"08:20 - 13:45","wo":"08:20 - 13:45","do":"08:20 - 13:45","vr":"08:20 - 13:45","za":"08:20 - 12:45","zo":"gesloten"}}},{"type":"Feature","geometry":{"type":"Point","coordinates":[10.14498,44.01877]},"properties":{"type":"pakketpunt","locatieNaam":"TABACCHERIA n. 43","straatNaam":"VIA SALICERA 2","straatNr":"","vervoerder":"DHL","puntType":"parcelShop","bezettingsgraad":50,"latitude":44.01877,"longitude":10.14498,"canPickup":true,"canDropoff":true,"openingstijden":{"ma":"07:00 - 20:00","di":"07:00 - 20:00","wo":"07:00 - 20:00","do":"07:00 - 20:00","vr":"07:00 - 20:00","za":"07:00 - 20:00","zo":"08:00 - 13:00"}}},{"type":"Feature","geometry":{"type":"Point","coordinates":[10.143443,44.03773]},"properties":{"type":"pakketpunt","locatieNaam":"GIOCA GIO'","straatNaam":"VIA DANTE ALIGHIERI 28","straatNr":"","vervoerder":"DHL","puntType":"parcelShop","bezettingsgraad":50,"latitude":44.03773,"longitude":10.143443,"canPickup":true,"canDropoff":true,"openingstijden":{"ma":"gesloten","di":"10:00 - 12:30, 16:00 - 19:30","wo":"10:00 - 12:30, 16:00 - 19:30","do":"10:00 - 12:30, 16:00 - 19:30","vr":"10:00 - 12:30, 16:00 - 19:30","za":"10:00 - 12:30, 16:00 - 19:30","zo":"gesloten"}}},{"type":"Feature","geometry":{"type":"Point","coordinates":[10.141372,44.034635]},"properties":{"type":"pakketpunt","locatieNaam":"TABACCHERIA N. 3","straatNaam":"VIA VINCENZO GIUDICE 7","straatNr":"","vervoerder":"DHL","puntType":"parcelShop","bezettingsgraad":50,"latitude":44.034635,"longitude":10.141372,"canPickup":true,"canDropoff":true,"openingstijden":{"ma":"07:30 - 12:30, 15:30 - 19:30","di":"07:30 - 12:30, 15:30 - 19:30","wo":"07:30 - 12:30, 15:30 - 19:30","do":"07:30 - 12:30, 15:30 - 19:30","vr":"07:30 - 12:30, 15:30 - 19:30","za":"08:00 - 12:30, 15:30 - 19:30","zo":"gesloten"}}},{"type":"Feature","geometry":{"type":"Point","coordinates":[10.141077,44.036432]},"properties":{"type":"pakketpunt","locatieNaam":"TABACCHERIA N. 1","straatNaam":"VIA PORTA FABBRICA 5","straatNr":"","vervoerder":"DHL","puntType":"parcelShop","bezettingsgraad":50,"latitude":44.036432,"longitude":10.141077,"canPickup":true,"canDropoff":true,"openingstijden":{"ma":"08:00 - 13:00, 15:00 - 20:00","di":"08:00 - 13:00, 15:00 - 20:00","wo":"08:00 - 13:00, 15:00 - 20:00","do":"08:00 - 13:00, 15:00 - 20:00","vr":"08:00 - 13:00, 15:00 - 20:00","za":"08:00 - 13:00, 15:00 - 20:00","zo":"gesloten"}}},{"type":"Feature","geometry":{"type":"Point","coordinates":[10.144612,44.010012]},"properties":{"type":"pakketpunt","locatieNaam":"TABACCHERIA n. 48","straatNaam":"VIA ROMANA 269","straatNr":"","vervoerder":"DHL","puntType":"parcelShop","bezettingsgraad":50,"latitude":44.010012,"longitude":10.144612,"canPickup":true,"canDropoff":true,"openingstijden":{"ma":"07:00 - 20:00","di":"07:00 - 20:00","wo":"07:00 - 20:00","do":"07:00 - 20:00","vr":"07:00 - 20:00","za":"07:00 - 20:00","zo":"07:00 - 12:00"}}},{"type":"Feature","geometry":{"type":"Point","coordinates":[10.139924,44.038847]},"properties":{"type":"pakketpunt","locatieNaam":"TABACCHERIA N. 51","straatNaam":"VIALE TRIESTE 55","straatNr":"","vervoerder":"DHL","puntType":"parcelShop","bezettingsgraad":50,"latitude":44.038847,"longitude":10.139924,"canPickup":true,"canDropoff":true,"openingstijden":{"ma":"07:30 - 12:30, 14:00 - 19:20","di":"07:30 - 12:30, 14:00 - 19:20","wo":"07:30 - 12:30, 14:00 - 19:20","do":"07:30 - 12:30, 14:00 - 19:20","vr":"07:30 - 12:30, 14:00 - 19:20","za":"07:30 - 12:30, 14:00 - 19:20","zo":"gesloten"}}},{"type":"Feature","geometry":{"type":"Point","coordinates":[10.139831,44.038803]},"properties":{"type":"pakketpunt","locatieNaam":"TABACCHERIA GASSANI","straatNaam":"Viale Trieste, 55","straatNr":"","vervoerder":"DHL","puntType":"parcelShop","bezettingsgraad":50,"latitude":44.038803,"longitude":10.139831,"canPickup":false,"canDropoff":true,"openingstijden":{"ma":"07:15 - 19:00","di":"07:15 - 19:00","wo":"07:15 - 19:00","do":"07:15 - 19:00","vr":"07:15 - 19:00","za":"07:15 - 19:00","zo":"gesloten"}}},{"type":"Feature","geometry":{"type":"Point","coordinates":[10.139226,44.035128]},"properties":{"type":"pakketpunt","locatieNaam":"Ufficio Postale MASSA CENTRO","straatNaam":"VIALE EUGENIO CHIESA 23","straatNr":"","vervoerder":"DHL","puntType":"postOffice","bezettingsgraad":50,"latitude":44.035128,"longitude":10.139226,"canPickup":true,"canDropoff":true,"openingstijden":{"ma":"08:20 - 19:05","di":"08:20 - 19:05","wo":"08:20 - 19:05","do":"08:20 - 19:05","vr":"08:20 - 19:05","za":"08:20 - 12:35","zo":"gesloten"}}},{"type":"Feature","geometry":{"type":"Point","coordinates":[10.137691,44.045924]},"properties":{"type":"pakketpunt","locatieNaam":"Ufficio Postale MASSA 2","straatNaam":"VIA FRANGOLA 2","straatNr":"","vervoerder":"DHL","puntType":"postOffice","bezettingsgraad":50,"latitude":44.045924,"longitude":10.137691,"canPickup":true,"canDropoff":true,"openingstijden":{"ma":"08:20 - 13:35","di":"08:20 - 13:35","wo":"08:20 - 13:35","do":"08:20 - 13:35","vr":"08:20 - 13:35","za":"08:20 - 12:35","zo":"gesloten"}}},{"type":"Feature","geometry":{"type":"Point","coordinates":[10.135434,44.044262]},"properties":{"type":"pakketpunt","locatieNaam":"TABACCHERIA N. 14","straatNaam":"VIA FOCE 60","straatNr":"","vervoerder":"DHL","puntType":"parcelShop","bezettingsgraad":50,"latitude":44.044262,"longitude":10.135434,"canPickup":true,"canDropoff":true,"openingstijden":{"ma":"06:00 - 13:00, 14:00 - 21:00","di":"06:00 - 13:00, 14:00 - 21:00","wo":"06:00 - 13:00, 14:00 - 21:00","do":"06:00 - 13:00, 14:00 - 21:00","vr":"06:00 - 13:00, 14:00 - 21:00","za":"06:00 - 13:00, 14:00 - 21:00","zo":"06:00 - 13:00"}}},{"type":"Feature","geometry":{"type":"Point","coordinates":[10.128833,44.006281]},"properties":{"type":"pakketpunt","locatieNaam":"TABACCHERIA N. 79","straatNaam":"VIA STRADELLA 57","straatNr":"","vervoerder":"DHL","puntType":"parcelShop","bezettingsgraad":50,"latitude":44.006281,"longitude":10.128833,"canPickup":true,"canDropoff":true,"openingstijden":{"ma":"07:00 - 13:00, 14:00 - 21:00","di":"07:00 - 13:00, 14:00 - 21:00","wo":"07:00 - 13:00, 14:00 - 21:00","do":"07:00 - 13:00, 14:00 - 21:00","vr":"07:00 - 13:00, 14:00 - 21:00","za":"07:00 - 13:00, 14:00 - 21:00","zo":"07:00 - 13:00"}}},{"type":"Feature","geometry":{"type":"Point","coordinates":[10.0787411,44.0310049]},"properties":{"type":"pakketpunt","locatieNaam":"Amazon Locker - ezelinda","straatNaam":"Distributore Metano Massa","straatNr":"","vervoerder":"Amazon","puntType":"locker","bezettingsgraad":50,"latitude":44.0310049,"longitude":10.0787411,"canPickup":true,"canDropoff":false,"openingstijden":null}},{"type":"Feature","geometry":{"type":"Point","coordinates":[10.10516,44.013681]},"properties":{"type":"pakketpunt","locatieNaam":"Amazon Locker - eugenia","straatNaam":"Conad Massa","straatNr":"","vervoerder":"Amazon","puntType":"locker","bezettingsgraad":50,"latitude":44.013681,"longitude":10.10516,"canPickup":true,"canDropoff":false,"openingstijden":null}},{"type":"Feature","geometry":{"type":"Point","coordinates":[10.137865,44.023341]},"properties":{"type":"pakketpunt","locatieNaam":"Amazon Locker - baldassarre","straatNaam":"PENNY MARKET - Massa","straatNr":"","vervoerder":"Amazon","puntType":"locker","bezettingsgraad":50,"latitude":44.023341,"longitude":10.137865,"canPickup":true,"canDropoff":false,"openingstijden":null}},{"type":"Feature","geometry":{"type":"Point","coordinates":[10.139734,44.022068]},"properties":{"type":"pakketpunt","locatieNaam":"Amazon Locker - gioachino","straatNaam":"ENI Station pv.4504","straatNr":"","vervoerder":"Amazon","puntType":"locker","bezettingsgraad":50,"latitude":44.022068,"longitude":10.139734,"canPickup":true,"canDropoff":false,"openingstijden":null}},{"type":"Feature","geometry":{"type":"Point","coordinates":[10.119911,44.022488]},"properties":{"type":"pakketpunt","locatieNaam":"Amazon Locker - artemidio","straatNaam":"ENI Station pv.4509","straatNr":"","vervoerder":"Amazon","puntType":"locker","bezettingsgraad":50,"latitude":44.022488,"longitude":10.119911,"canPickup":true,"canDropoff":false,"openingstijden":null}},{"type":"Feature","geometry":{"type":"Point","coordinates":[10.1262768,44.0403055]},"properties":{"type":"pakketpunt","locatieNaam":"Amazon Counter - CA.SA. SOCIETA A RESPONSABILIT�","straatNaam":"VIA AURELIA OVEST SNC","straatNr":"","vervoerder":"Amazon","puntType":"helix","bezettingsgraad":50,"latitude":44.0403055,"longitude":10.1262768,"canPickup":true,"canDropoff":false,"openingstijden":null}},{"type":"Feature","geometry":{"type":"Point","coordinates":[10.1354,44.0442]},"properties":{"type":"pakketpunt","locatieNaam":"PuntoPoste TABACCHERIA N. 14","straatNaam":"VIA FOCE 60","straatNr":"","vervoerder":"Amazon","puntType":"3p","bezettingsgraad":50,"latitude":44.0442,"longitude":10.1354,"canPickup":true,"canDropoff":false,"openingstijden":null}},{"type":"Feature","geometry":{"type":"Point","coordinates":[10.1376,44.0459]},"properties":{"type":"pakketpunt","locatieNaam":"Ufficio Postale MASSA 2","straatNaam":"VIA FRANGOLA 2","straatNr":"","vervoerder":"Amazon","puntType":"3p","bezettingsgraad":50,"latitude":44.0459,"longitude":10.1376,"canPickup":true,"canDropoff":false,"openingstijden":null}},{"type":"Feature","geometry":{"type":"Point","coordinates":[10.1406414,44.03597910000001]},"properties":{"type":"pakketpunt","locatieNaam":"Giunti al Punto","straatNaam":"Viale Chiesa 1","straatNr":"","vervoerder":"Amazon","puntType":"helix","bezettingsgraad":50,"latitude":44.03597910000001,"longitude":10.1406414,"canPickup":true,"canDropoff":false,"openingstijden":null}},{"type":"Feature","geometry":{"type":"Point","coordinates":[10.139051,44.038683]},"properties":{"type":"pakketpunt","locatieNaam":"Amazon Counter","straatNaam":"Q8 Massa (fermopoint)","straatNr":"","vervoerder":"Amazon","puntType":"helix","bezettingsgraad":50,"latitude":44.038683,"longitude":10.139051,"canPickup":true,"canDropoff":false,"openingstijden":null}},{"type":"Feature","geometry":{"type":"Point","coordinates":[10.1146,44.0402]},"properties":{"type":"pakketpunt","locatieNaam":"Ufficio Postale MASSA 4","straatNaam":"PIAZZA ALBANIA 7","straatNr":"","vervoerder":"Amazon","puntType":"3p","bezettingsgraad":50,"latitude":44.0402,"longitude":10.1146,"canPickup":true,"canDropoff":false,"openingstijden":null}},{"type":"Feature","geometry":{"type":"Point","coordinates":[10.13342,44.03175]},"properties":{"type":"pakketpunt","locatieNaam":"Amazon Counter - Essedi Shop","straatNaam":"Via Marina Vecchia 142","straatNr":"","vervoerder":"Amazon","puntType":"helix","bezettingsgraad":50,"latitude":44.03175,"longitude":10.13342,"canPickup":true,"canDropoff":false,"openingstijden":null}},{"type":"Feature","geometry":{"type":"Point","coordinates":[10.110517,44.0223177]},"properties":{"type":"pakketpunt","locatieNaam":"Giunti al Punto","straatNaam":"Via Massa Avenza, 32","straatNr":"","vervoerder":"Amazon","puntType":"helix","bezettingsgraad":50,"latitude":44.0223177,"longitude":10.110517,"canPickup":true,"canDropoff":false,"openingstijden":null}},{"type":"Feature","geometry":{"type":"Point","coordinates":[10.137294,44.035995]},"properties":{"type":"pakketpunt","locatieNaam":"Amazon Counter","straatNaam":"FuriaTechLab (fermopoint)","straatNr":"","vervoerder":"Amazon","puntType":"helix","bezettingsgraad":50,"latitude":44.035995,"longitude":10.137294,"canPickup":true,"canDropoff":false,"openingstijden":null}},{"type":"Feature","geometry":{"type":"Point","coordinates":[10.1347466,44.0343982]},"properties":{"type":"pakketpunt","locatieNaam":"Amazon Counter","straatNaam":"Coffee Love (fermopoint)","straatNr":"","vervoerder":"Amazon","puntType":"helix","bezettingsgraad":50,"latitude":44.0343982,"longitude":10.1347466,"canPickup":true,"canDropoff":false,"openingstijden":null}},{"type":"Feature","geometry":{"type":"Point","coordinates":[10.1399877,44.0367736]},"properties":{"type":"pakketpunt","locatieNaam":"Amazon Counter","straatNaam":"Artecna (fermopoint)","straatNr":"","vervoerder":"Amazon","puntType":"helix","bezettingsgraad":50,"latitude":44.0367736,"longitude":10.1399877,"canPickup":true,"canDropoff":false,"openingstijden":null}},{"type":"Feature","geometry":{"type":"Point","coordinates":[10.1316,44.0281]},"properties":{"type":"pakketpunt","locatieNaam":"Ufficio Postale MASSA 1","straatNaam":"VIA GIOSUE CARDUCCI 40","straatNr":"","vervoerder":"Amazon","puntType":"3p","bezettingsgraad":50,"latitude":44.0281,"longitude":10.1316,"canPickup":true,"canDropoff":false,"openingstijden":null}},{"type":"Feature","geometry":{"type":"Point","coordinates":[10.1413,44.0346]},"properties":{"type":"pakketpunt","locatieNaam":"PuntoPoste TABACCHERIA N. 3","straatNaam":"VIA VINCENZO GIUDICE 7","straatNr":"","vervoerder":"Amazon","puntType":"3p","bezettingsgraad":50,"latitude":44.0346,"longitude":10.1413,"canPickup":true,"canDropoff":false,"openingstijden":null}},{"type":"Feature","geometry":{"type":"Point","coordinates":[10.130789,44.028782]},"properties":{"type":"pakketpunt","locatieNaam":"Amazon Counter - Aroma del caffe’","straatNaam":"Via G. Carducci, 54","straatNr":"","vervoerder":"Amazon","puntType":"helix","bezettingsgraad":50,"latitude":44.028782,"longitude":10.130789,"canPickup":true,"canDropoff":false,"openingstijden":null}},{"type":"Feature","geometry":{"type":"Point","coordinates":[10.1013573,44.0091579]},"properties":{"type":"pakketpunt","locatieNaam":"Amazon Counter - PRIMAEDICOLA","straatNaam":"GLORIA DI BERGAMASCHI","straatNr":"","vervoerder":"Amazon","puntType":"helix","bezettingsgraad":50,"latitude":44.0091579,"longitude":10.1013573,"canPickup":true,"canDropoff":false,"openingstijden":null}},{"type":"Feature","geometry":{"type":"Point","coordinates":[10.071131,44.030923]},"properties":{"type":"pakketpunt","locatieNaam":"Amazon Counter - NON SOLO FUMO","straatNaam":"VIA PARTACCIA 3","straatNr":"","vervoerder":"Amazon","puntType":"helix","bezettingsgraad":50,"latitude":44.030923,"longitude":10.071131,"canPickup":true,"canDropoff":false,"openingstijden":null}},{"type":"Feature","geometry":{"type":"Point","coordinates":[10.115314,44.008626]},"properties":{"type":"pakketpunt","locatieNaam":"Amazon Counter - Le Fate di carta di Bertolani","straatNaam":"VIA Arezzo 39","straatNr":"","vervoerder":"Amazon","puntType":"helix","bezettingsgraad":50,"latitude":44.008626,"longitude":10.115314,"canPickup":true,"canDropoff":false,"openingstijden":null}},{"type":"Feature","geometry":{"type":"Point","coordinates":[10.110674,44.005728]},"properties":{"type":"pakketpunt","locatieNaam":"Amazon Counter - FIGAIA STEFANIA","straatNaam":"VIALE ROMA 359","straatNr":"","vervoerder":"Amazon","puntType":"helix","bezettingsgraad":50,"latitude":44.005728,"longitude":10.110674,"canPickup":true,"canDropoff":false,"openingstijden":null}},{"type":"Feature","geometry":{"type":"Point","coordinates":[10.0982,44.011]},"properties":{"type":"pakketpunt","locatieNaam":"PuntoPoste TABACCHERIA N. 46","straatNaam":"VIA DELLE PINETE 62","straatNr":"","vervoerder":"Amazon","puntType":"3p","bezettingsgraad":50,"latitude":44.011,"longitude":10.0982,"canPickup":true,"canDropoff":false,"openingstijden":null}},{"type":"Feature","geometry":{"type":"Point","coordinates":[10.121115,44.016641]},"properties":{"type":"pakketpunt","locatieNaam":"Amazon Counter (fermopoint)","straatNaam":"Orange Telefonia","straatNr":"","vervoerder":"Amazon","puntType":"helix","bezettingsgraad":50,"latitude":44.016641,"longitude":10.121115,"canPickup":true,"canDropoff":false,"openingstijden":null}},{"type":"Feature","geometry":{"type":"Point","coordinates":[10.1115,44.0167]},"properties":{"type":"pakketpunt","locatieNaam":"PuntoPoste TABACCHERIA N. 56","straatNaam":"VIA SAN LEONARDO 139","straatNr":"","vervoerder":"Amazon","puntType":"3p","bezettingsgraad":50,"latitude":44.0167,"longitude":10.1115,"canPickup":true,"canDropoff":false,"openingstijden":null}},{"type":"Feature","geometry":{"type":"Point","coordinates":[10.1153,44.0085]},"properties":{"type":"pakketpunt","locatieNaam":"PuntoPoste LE FATE DI CARTA","straatNaam":"VIA AREZZO 39","straatNr":"","vervoerder":"Amazon","puntType":"3p","bezettingsgraad":50,"latitude":44.0085,"longitude":10.1153,"canPickup":true,"canDropoff":false,"openingstijden":null}},{"type":"Feature","geometry":{"type":"Point","coordinates":[10.145059,44.018813]},"properties":{"type":"pakketpunt","locatieNaam":"Amazon Counter - CAFFETTERIA STELLA","straatNaam":"VIA SALICERA 2","straatNr":"","vervoerder":"Amazon","puntType":"helix","bezettingsgraad":50,"latitude":44.018813,"longitude":10.145059,"canPickup":true,"canDropoff":false,"openingstijden":null}},{"type":"Feature","geometry":{"type":"Point","coordinates":[10.1446,44.01]},"properties":{"type":"pakketpunt","locatieNaam":"PuntoPoste TABACCHERIA n. 48","straatNaam":"VIA ROMANA 269","straatNr":"","vervoerder":"Amazon","puntType":"3p","bezettingsgraad":50,"latitude":44.01,"longitude":10.1446,"canPickup":true,"canDropoff":false,"openingstijden":null}},{"type":"Feature","geometry":{"type":"Point","coordinates":[10.1449,44.0187]},"properties":{"type":"pakketpunt","locatieNaam":"PuntoPoste TABACCHERIA n. 43","straatNaam":"VIA SALICERA 2","straatNr":"","vervoerder":"Amazon","puntType":"3p","bezettingsgraad":50,"latitude":44.0187,"longitude":10.1449,"canPickup":true,"canDropoff":false,"openingstijden":null}},{"type":"Feature","geometry":{"type":"Point","coordinates":[10.1699,44.0603]},"properties":{"type":"pakketpunt","locatieNaam":"Ufficio Postale CANEVARA","straatNaam":"VIA BASSA TAMBURA 149","straatNr":"","vervoerder":"Amazon","puntType":"3p","bezettingsgraad":50,"latitude":44.0603,"longitude":10.1699,"canPickup":true,"canDropoff":false,"openingstijden":null}},{"type":"Feature","geometry":{"type":"Point","coordinates":[10.1399,44.0388]},"properties":{"type":"pakketpunt","locatieNaam":"PuntoPoste TABACCHERIA N. 51","straatNaam":"VIALE TRIESTE 55","straatNr":"","vervoerder":"Amazon","puntType":"3p","bezettingsgraad":50,"latitude":44.0388,"longitude":10.1399,"canPickup":true,"canDropoff":false,"openingstijden":null}},{"type":"Feature","geometry":{"type":"Point","coordinates":[10.128039,44.006234]},"properties":{"type":"pakketpunt","locatieNaam":"Amazon Counter - TABACCHERIA DONADEL","straatNaam":"VIA STRADELLA 57","straatNr":"","vervoerder":"Amazon","puntType":"helix","bezettingsgraad":50,"latitude":44.006234,"longitude":10.128039,"canPickup":true,"canDropoff":false,"openingstijden":null}},{"type":"Feature","geometry":{"type":"Point","coordinates":[10.1195,43.9986]},"properties":{"type":"pakketpunt","locatieNaam":"Ufficio Postale RONCHI","straatNaam":"VIA RONCHI 48","straatNr":"","vervoerder":"Amazon","puntType":"3p","bezettingsgraad":50,"latitude":43.9986,"longitude":10.1195,"canPickup":true,"canDropoff":false,"openingstijden":null}},{"type":"Feature","geometry":{"type":"Point","coordinates":[10.12485,44.01747]},"properties":{"type":"pakketpunt","locatieNaam":"Amazon Counter - PRIMAEDICOLA","straatNaam":"E4 DI COBAJ ERIONA","straatNr":"","vervoerder":"Amazon","puntType":"helix","bezettingsgraad":50,"latitude":44.01747,"longitude":10.12485,"canPickup":true,"canDropoff":false,"openingstijden":null}},{"type":"Feature","geometry":{"type":"Point","coordinates":[10.116119,44.022149]},"properties":{"type":"pakketpunt","locatieNaam":"Amazon Counter (fermopoint)","straatNaam":"Bar Obelisco","straatNr":"","vervoerder":"Amazon","puntType":"helix","bezettingsgraad":50,"latitude":44.022149,"longitude":10.116119,"canPickup":true,"canDropoff":false,"openingstijden":null}},{"type":"Feature","geometry":{"type":"Polygon","coordinates":[[[10.0598637,44.0286507],[10.0597856,44.0287525],[10.0604204,44.029469],[10.060747,44.0300909],[10.0607947,44.0303395],[10.0609558,44.0305623],[10.0609513,44.0308758],[10.0611343,44.0311052],[10.061749,44.0312023],[10.062074,44.0315324],[10.0627633,44.0320168],[10.0643915,44.0328921],[10.0647126,44.0327347],[10.0651275,44.0331675],[10.0653113,44.0330434],[10.0660006,44.0337902],[10.0666309,44.0342826],[10.067015,44.0340345],[10.0675232,44.0344676],[10.0673359,44.0345521],[10.0675407,44.0346755],[10.0676551,44.0346415],[10.0682919,44.0351145],[10.0687493,44.0349064],[10.0691342,44.0352575],[10.0693311,44.035257],[10.0697931,44.0357341],[10.0728261,44.0369224],[10.0744495,44.0378974],[10.0775705,44.039426],[10.0774208,44.0395389],[10.0782759,44.0395599],[10.0794391,44.0408102],[10.0797759,44.0406253],[10.0800769,44.040928],[10.0804443,44.0406846],[10.0811715,44.0414182],[10.0817548,44.0421807],[10.0829232,44.0419942],[10.0848317,44.0411636],[10.0849512,44.0411719],[10.0850767,44.0413093],[10.0865765,44.0406035],[10.0876333,44.0403591],[10.0880609,44.0408272],[10.0880304,44.0410015],[10.0881135,44.0411449],[10.0886059,44.0417059],[10.0886965,44.041738],[10.0888936,44.0416136],[10.0899399,44.042381],[10.0906178,44.0426216],[10.0911339,44.0430787],[10.0915567,44.0431541],[10.09172,44.0434651],[10.091718,44.0437177],[10.0919779,44.0439353],[10.0918436,44.0441887],[10.0920578,44.0444657],[10.0919888,44.0445294],[10.092286,44.0449092],[10.0921846,44.0451623],[10.0921872,44.045734],[10.0916357,44.0462884],[10.09156,44.0467573],[10.0918234,44.0475066],[10.0921524,44.0477465],[10.0921554,44.0481105],[10.0922239,44.0482123],[10.0934937,44.0489279],[10.094781,44.049276],[10.0949066,44.0497101],[10.095537,44.0500811],[10.0958079,44.0500752],[10.0962173,44.0502826],[10.0967538,44.0504051],[10.0976168,44.0511689],[10.0978001,44.0512711],[10.0981426,44.0513027],[10.0982843,44.0514499],[10.0982401,44.0515802],[10.0984205,44.0516195],[10.0985391,44.0518196],[10.0988947,44.0517315],[10.0996448,44.0517926],[10.1010631,44.0515789],[10.1025385,44.0522901],[10.1028119,44.0527101],[10.1038611,44.0529466],[10.1044099,44.0532218],[10.1047443,44.0534943],[10.1048877,44.0540614],[10.1052036,44.0548036],[10.1051521,44.0561296],[10.1055775,44.0564243],[10.1061548,44.0566651],[10.107479,44.0569566],[10.1077755,44.0573198],[10.1077345,44.0579714],[10.1072305,44.0585304],[10.107338,44.0591851],[10.1077695,44.0596628],[10.1079998,44.0605125],[10.1083508,44.060621],[10.1085286,44.0608588],[10.1085945,44.0614087],[10.1084757,44.0618643],[10.1079704,44.0623934],[10.107851,44.062424],[10.1078592,44.0628184],[10.1075958,44.0630964],[10.1081915,44.0639012],[10.1081331,44.0642006],[10.1083604,44.0645263],[10.1092539,44.0645649],[10.1094651,44.0646914],[10.1101359,44.0648452],[10.1107051,44.0645076],[10.110768,44.064218],[10.1110012,44.0642837],[10.1113435,44.0642264],[10.1114482,44.0643154],[10.1115241,44.0647018],[10.1112281,44.0653187],[10.1112839,44.0653656],[10.1116555,44.0652711],[10.1124099,44.0654911],[10.115002,44.0644101],[10.1157434,44.0634743],[10.1163535,44.0631113],[10.1170972,44.063103],[10.1171042,44.0636044],[10.1168932,44.0638806],[10.1171948,44.0638329],[10.1178943,44.0634404],[10.1179167,44.0637378],[10.1182071,44.0635],[10.1187124,44.0632863],[10.1194178,44.0623382],[10.1195581,44.0623124],[10.12007,44.0617],[10.1206534,44.0613804],[10.1205507,44.0613217],[10.1213126,44.060642],[10.1215164,44.0601033],[10.1217114,44.0598172],[10.1221953,44.0599722],[10.1222515,44.0598302],[10.122544,44.0597002],[10.1229462,44.0593508],[10.1243316,44.0592885],[10.1254658,44.0596693],[10.1253547,44.0593104],[10.1249312,44.0585959],[10.124454,44.0582141],[10.1244747,44.0580331],[10.1259168,44.0581056],[10.1260621,44.0578599],[10.1272765,44.0585197],[10.1276469,44.0587971],[10.1294868,44.0593015],[10.1302746,44.0592565],[10.1304881,44.0591347],[10.130518,44.0594579],[10.1307456,44.0600008],[10.1316647,44.0608463],[10.1320671,44.0624204],[10.13235,44.0626022],[10.1330035,44.0627487],[10.1330427,44.0630049],[10.1333082,44.0631779],[10.1332974,44.0634256],[10.1338624,44.063591],[10.1344112,44.0641303],[10.1343935,44.064351],[10.134728,44.0653134],[10.1354735,44.065039],[10.136271,44.0661267],[10.137655,44.0671126],[10.1381326,44.0675736],[10.138419,44.0672866],[10.1405931,44.0671026],[10.1424446,44.0676442],[10.1439276,44.0675582],[10.1449342,44.0687996],[10.1457136,44.0690487],[10.14593,44.0690495],[10.1463948,44.0693426],[10.1464221,44.0695295],[10.1467505,44.0697366],[10.1468241,44.0701547],[10.1470718,44.0704176],[10.1469963,44.0705062],[10.1472981,44.0710087],[10.1473279,44.0713485],[10.1477097,44.0716259],[10.1476084,44.0718818],[10.1478873,44.0723215],[10.148032,44.0725073],[10.1486877,44.0729573],[10.148865,44.0732462],[10.1492319,44.0736019],[10.1500419,44.0737485],[10.1508036,44.0736739],[10.1512138,44.0737855],[10.1514107,44.0737144],[10.151684,44.0744084],[10.1512008,44.0746976],[10.1511099,44.074971],[10.1514622,44.0752824],[10.1513944,44.076043],[10.1516585,44.0768757],[10.1541261,44.0774445],[10.155261,44.0778659],[10.1571026,44.0792608],[10.1576502,44.0798846],[10.1578747,44.080276],[10.1585471,44.0802158],[10.1591254,44.0803793],[10.1596742,44.0807854],[10.1600693,44.0807734],[10.1605566,44.0811973],[10.1610817,44.081458],[10.1616605,44.0821043],[10.1627037,44.0827811],[10.1633011,44.0830577],[10.1641333,44.083209],[10.1645746,44.0831878],[10.1647177,44.083285],[10.1651672,44.0838264],[10.1655126,44.0845973],[10.1662538,44.0852787],[10.1665563,44.0857426],[10.1670091,44.0862346],[10.1678252,44.0868528],[10.168496,44.0874961],[10.1687996,44.0879515],[10.1697505,44.0884756],[10.1703347,44.0886268],[10.1705389,44.0887652],[10.1703925,44.0907031],[10.170553,44.091092],[10.1706732,44.092568],[10.1706256,44.0928196],[10.1706811,44.0929506],[10.1705658,44.0935188],[10.1706295,44.0944113],[10.1708167,44.0953815],[10.1711145,44.0963793],[10.171,44.0969605],[10.170883,44.0970399],[10.1708745,44.0971831],[10.1699795,44.0980973],[10.1698155,44.098429],[10.169706,44.0985033],[10.1693093,44.0985335],[10.169089,44.0989081],[10.1683063,44.0993189],[10.1679612,44.0996892],[10.1677277,44.0997258],[10.1673844,44.0999684],[10.167257,44.099965],[10.1668761,44.1002898],[10.1668799,44.1004078],[10.166715,44.1006603],[10.1666715,44.1011697],[10.1664193,44.1013395],[10.1663065,44.1018726],[10.1657088,44.1020819],[10.1653655,44.1023101],[10.1649361,44.1023914],[10.164606,44.1026191],[10.1643174,44.1026397],[10.1630288,44.1032301],[10.1628427,44.1039356],[10.1614787,44.1042931],[10.1611507,44.104661],[10.1611516,44.1057645],[10.160911,44.1061018],[10.1608896,44.1064728],[10.1606551,44.1069333],[10.1607493,44.1074698],[10.1599314,44.1079947],[10.1593041,44.1082681],[10.1591395,44.1087067],[10.1591154,44.1090622],[10.1592289,44.1092639],[10.1594848,44.1107467],[10.1593789,44.1108593],[10.1594382,44.1113901],[10.1595623,44.111673],[10.1595348,44.1119253],[10.1589416,44.1126876],[10.1587278,44.1130918],[10.1588474,44.1133226],[10.1585754,44.1134573],[10.1585027,44.1136381],[10.1587931,44.113967],[10.1591737,44.1141807],[10.1591633,44.1144817],[10.1589889,44.1148496],[10.1590218,44.1149882],[10.1589511,44.1151371],[10.1594045,44.1154942],[10.1601949,44.1155249],[10.1606308,44.1152645],[10.1616757,44.1152269],[10.1621915,44.1150771],[10.1634657,44.1151056],[10.1643244,44.1152331],[10.1644691,44.1157177],[10.1643663,44.1158262],[10.1646227,44.1159785],[10.1646083,44.1162595],[10.1651205,44.116528],[10.1656458,44.1169582],[10.1667,44.1166364],[10.1674671,44.1165397],[10.1680315,44.1163333],[10.168506,44.1163481],[10.1698859,44.1167949],[10.1709161,44.1162782],[10.1715551,44.1157364],[10.1718246,44.1156707],[10.1721825,44.1157074],[10.1725564,44.1156174],[10.1728906,44.1157686],[10.1743933,44.1161211],[10.1759676,44.1155112],[10.1766376,44.1155248],[10.1788553,44.1146688],[10.1795232,44.1150727],[10.1798763,44.1150004],[10.1807972,44.1151681],[10.1818962,44.1158886],[10.1820826,44.1160967],[10.1831367,44.116454],[10.1831512,44.116679],[10.1838593,44.1176041],[10.1841792,44.1177121],[10.1849475,44.1183117],[10.1856714,44.1190949],[10.187527,44.1197608],[10.1895848,44.1218419],[10.1917147,44.1215416],[10.1927631,44.1206546],[10.193013,44.1206659],[10.194399,44.1197659],[10.1952923,44.1202769],[10.1959623,44.1203567],[10.1967681,44.1203181],[10.1989466,44.1193326],[10.2007966,44.1187594],[10.2042149,44.1192188],[10.2049239,44.1189554],[10.2058539,44.1183639],[10.2074249,44.1186229],[10.2096527,44.1188282],[10.2112516,44.119317],[10.2122742,44.1191021],[10.2136176,44.1190954],[10.2138933,44.1192281],[10.2149813,44.1188126],[10.2160457,44.1170818],[10.2161809,44.1157569],[10.2168225,44.1153477],[10.2176682,44.1145188],[10.218074,44.1140339],[10.218267,44.1135656],[10.2192641,44.113778],[10.2211134,44.1139725],[10.22222,44.1132491],[10.2233489,44.1135959],[10.2237,44.1132478],[10.2238602,44.1128961],[10.2241639,44.1125947],[10.2253314,44.1116633],[10.2266557,44.1108217],[10.2272282,44.1106236],[10.2279318,44.1102505],[10.2280911,44.1100571],[10.2283927,44.1098808],[10.2290361,44.1097875],[10.2310663,44.1090097],[10.2313514,44.1090011],[10.2316954,44.108826],[10.2320807,44.1087893],[10.2333178,44.1079688],[10.2333823,44.1076851],[10.2330533,44.1069639],[10.2332196,44.1066393],[10.2329472,44.1056849],[10.2324576,44.1047083],[10.2325252,44.1044237],[10.2323711,44.1040766],[10.2324325,44.103821],[10.2327805,44.1034432],[10.232848,44.1032435],[10.2332623,44.1030622],[10.2336069,44.1026119],[10.2339405,44.1019257],[10.2344728,44.1002336],[10.2352165,44.0997126],[10.2356461,44.0982481],[10.2358963,44.0980732],[10.2362921,44.0970941],[10.2363457,44.0962848],[10.2366463,44.0958314],[10.2379388,44.0950262],[10.2380218,44.0943284],[10.2383653,44.093879],[10.2385348,44.0933078],[10.2384768,44.0926298],[10.2385389,44.0917194],[10.2387744,44.0910966],[10.239049,44.0907779],[10.2394399,44.0905251],[10.239661,44.0898112],[10.2397678,44.0897128],[10.2404686,44.0894414],[10.2417325,44.0887718],[10.2421333,44.0883299],[10.2424202,44.0876274],[10.2423732,44.0871416],[10.2425408,44.08689],[10.24286,44.0859045],[10.2429649,44.0853013],[10.2410175,44.0821161],[10.2410916,44.0814778],[10.2414323,44.0809542],[10.2415443,44.0798402],[10.2408162,44.0766871],[10.2395592,44.0752459],[10.2397128,44.0743007],[10.2396612,44.0740567],[10.2393396,44.0739085],[10.2391721,44.073491],[10.2395855,44.0731688],[10.2396512,44.0717076],[10.2389821,44.0717173],[10.2388645,44.0716501],[10.2386964,44.0714625],[10.2384001,44.0706208],[10.2366367,44.0706014],[10.2362147,44.0707131],[10.2360891,44.0704399],[10.2352799,44.0705963],[10.2350993,44.0705186],[10.2347529,44.0701803],[10.2342563,44.0700318],[10.2340805,44.0698508],[10.233765,44.0693134],[10.2334415,44.0690741],[10.2334726,44.0688241],[10.2327431,44.0685884],[10.2326326,44.0684086],[10.2315977,44.0679228],[10.2311629,44.0675523],[10.229571,44.0667964],[10.228443,44.0667375],[10.2283458,44.0666719],[10.2284944,44.066354],[10.2285215,44.0658913],[10.2284467,44.0654267],[10.2281789,44.065302],[10.2276378,44.0646986],[10.2274797,44.0641213],[10.2275568,44.0636388],[10.2271708,44.0632596],[10.2267063,44.0631107],[10.2265187,44.0629064],[10.2261144,44.0619599],[10.2260626,44.0617161],[10.2261327,44.0611472],[10.2259245,44.0607927],[10.2259515,44.0604197],[10.2242008,44.0596186],[10.2233885,44.0590277],[10.2218509,44.0585706],[10.2225027,44.0570388],[10.2222969,44.0564318],[10.2223726,44.0561431],[10.2228241,44.0559416],[10.2228216,44.0556978],[10.2230299,44.0549252],[10.2232397,44.054447],[10.2249284,44.0524079],[10.2254425,44.0522182],[10.2253893,44.0519211],[10.2229774,44.0503783],[10.2224574,44.0503051],[10.2215913,44.0491109],[10.2197459,44.0481493],[10.2190835,44.0476621],[10.2183702,44.0474697],[10.2159534,44.0455512],[10.2153158,44.0447815],[10.2153843,44.0446448],[10.2153193,44.0444678],[10.2148938,44.0440846],[10.214546,44.0436019],[10.214055,44.0435236],[10.2130905,44.043144],[10.2123946,44.0430015],[10.2120747,44.0430284],[10.2114832,44.0427313],[10.2106899,44.0424624],[10.2104653,44.0421928],[10.2099511,44.0419514],[10.2096395,44.0419759],[10.2078471,44.0409112],[10.2074024,44.0405349],[10.2074335,44.0403056],[10.2075537,44.0401637],[10.2076038,44.0395902],[10.2070224,44.0392685],[10.2069546,44.0388956],[10.2066342,44.0386096],[10.2061765,44.0385311],[10.2060278,44.038229],[10.2051314,44.0379196],[10.2038214,44.0376819],[10.2034824,44.0374415],[10.2032497,44.0369533],[10.2034734,44.0364618],[10.2028083,44.0363519],[10.2025589,44.0360897],[10.2023345,44.0360493],[10.2021665,44.0358759],[10.2016466,44.0346147],[10.1979416,44.0344083],[10.1951319,44.0349502],[10.1916882,44.0348234],[10.191039,44.0350689],[10.1900971,44.0358535],[10.1895058,44.0366445],[10.1891748,44.0372967],[10.1886345,44.0379143],[10.1883213,44.0384214],[10.1880478,44.0386163],[10.1873048,44.0388949],[10.1863466,44.0388465],[10.1858568,44.038955],[10.1842345,44.0390361],[10.1796584,44.0379369],[10.1771283,44.0372298],[10.1768648,44.0368995],[10.1749864,44.036218],[10.169977,44.0348478],[10.1692481,44.034295],[10.1687712,44.0340444],[10.1672798,44.0334692],[10.1663415,44.0332308],[10.1651522,44.0327789],[10.1651004,44.032533],[10.1647707,44.0323138],[10.1644912,44.0312804],[10.1635556,44.0306159],[10.1631628,44.0297315],[10.1627236,44.0283482],[10.1611116,44.0257856],[10.1597394,44.0231092],[10.1584702,44.0213137],[10.1545022,44.0178329],[10.1501056,44.0135275],[10.1497326,44.0133412],[10.1491434,44.012476],[10.1490103,44.0108175],[10.1487455,44.0099061],[10.1484308,44.0094894],[10.1476986,44.0088501],[10.1471434,44.0080998],[10.1476408,44.0067633],[10.1476583,44.0057487],[10.1480835,44.0046211],[10.1482295,44.0036626],[10.1499543,44.0016898],[10.1505699,44.0006228],[10.1512912,43.9999944],[10.1510086,43.9993442],[10.1499768,43.9984616],[10.149049,43.9975009],[10.1502845,43.996301],[10.1517846,43.9955456],[10.1520392,43.9952865],[10.1536565,43.9942153],[10.1538971,43.993924],[10.1523301,43.990987],[10.1523679,43.9909446],[10.1513674,43.989196],[10.1511232,43.9889219],[10.1369178,43.9801299],[10.1353212,43.9813827],[10.1344669,43.9821663],[10.1205171,43.9928964],[10.115006,43.9970305],[10.1145179,43.9972628],[10.1140932,43.9969218],[10.1139589,43.9969113],[10.114458,43.9973199],[10.1139907,43.9976556],[10.1136709,43.9974458],[10.1138122,43.9976567],[10.1136134,43.9977816],[10.1123913,43.9967711],[10.1112163,43.9975188],[10.1112289,43.9976014],[10.1113375,43.9975997],[10.1124471,43.9969213],[10.1130778,43.9974933],[10.1130311,43.9976307],[10.1133203,43.9977146],[10.1132686,43.9980526],[10.1131308,43.9981516],[10.1113162,43.9992347],[10.1111171,43.9992159],[10.110264,43.9985442],[10.1101175,43.9985365],[10.110073,43.9986369],[10.1108316,43.9991492],[10.1107548,43.9992722],[10.110087,43.9998584],[10.1094613,44.0002396],[10.1087949,44.0005095],[10.1082846,44.0005462],[10.1075877,43.9999844],[10.1074809,43.9998188],[10.1072314,44.0000946],[10.1075217,44.0000495],[10.107938,44.0003828],[10.1077112,44.000761],[10.1066735,44.0014099],[10.1063208,44.0014906],[10.1060277,44.001354],[10.1060568,44.0014793],[10.1057022,44.0015548],[10.1055397,44.0019146],[10.1053014,44.0021752],[10.1045705,44.002728],[10.1038866,44.0028935],[10.1034214,44.0024058],[10.1031853,44.0023663],[10.1031907,44.0024839],[10.1042453,44.0033659],[10.1039867,44.0035936],[10.1034127,44.0036603],[10.1026958,44.0030543],[10.1026636,44.002954],[10.1025832,44.002952],[10.1024383,44.0030215],[10.1033685,44.0037044],[10.1032531,44.0039533],[10.102604,44.0044028],[10.1018556,44.0046073],[10.1011656,44.0040257],[10.101226,44.0039331],[10.1009484,44.0039128],[10.1009779,44.0040556],[10.1010522,44.0040452],[10.1017175,44.004617],[10.1016518,44.0048774],[10.1011824,44.0053598],[10.1005226,44.0056231],[10.1000567,44.0053446],[10.0997534,44.0050878],[10.0996585,44.0048978],[10.0994557,44.0049489],[10.0994933,44.0050588],[10.0996312,44.0050689],[10.1003223,44.0057182],[10.1002444,44.005925],[10.0996267,44.0064252],[10.0988738,44.0066357],[10.0980905,44.0059197],[10.0979932,44.0060128],[10.098016,44.0061151],[10.098089,44.0060827],[10.0988791,44.0067257],[10.0987195,44.0069783],[10.0979966,44.0075395],[10.0976074,44.0077111],[10.0973984,44.0076925],[10.0966501,44.0070517],[10.0964892,44.0070276],[10.0974226,44.0078224],[10.0973173,44.0080938],[10.0970874,44.0082785],[10.0959767,44.0087763],[10.0950462,44.0081118],[10.094896,44.0081513],[10.0950579,44.0082983],[10.0949707,44.0084498],[10.0950364,44.0084903],[10.0952282,44.0083658],[10.0959347,44.0088417],[10.0956687,44.009063],[10.0947113,44.0084921],[10.0948404,44.0083763],[10.0947578,44.008324],[10.0945687,44.0084041],[10.0944561,44.0085613],[10.0955254,44.0090805],[10.0953278,44.0093575],[10.0946316,44.0098711],[10.0941812,44.0099685],[10.0941047,44.0098499],[10.093474,44.0094692],[10.0940943,44.0099817],[10.0940753,44.0100477],[10.0933738,44.0106852],[10.0929089,44.0109579],[10.0922578,44.0111744],[10.0916208,44.0106897],[10.0915578,44.0107233],[10.0923415,44.0113564],[10.0919697,44.0117462],[10.0912535,44.012212],[10.0905246,44.0124151],[10.0898185,44.0118041],[10.0896842,44.0117354],[10.089585,44.0117954],[10.0903676,44.0125389],[10.0901082,44.0129123],[10.0896938,44.0131949],[10.0885467,44.013421],[10.0878793,44.0128033],[10.0877385,44.0128351],[10.0886304,44.0137276],[10.0885472,44.0139694],[10.0882709,44.0142471],[10.0868869,44.0150496],[10.0860071,44.0154161],[10.0854631,44.0154463],[10.0847134,44.0149461],[10.0846179,44.014986],[10.0853263,44.0155445],[10.0848618,44.0162291],[10.0842208,44.0167065],[10.0831117,44.0172456],[10.0829494,44.017099],[10.0830299,44.0172958],[10.0819081,44.017968],[10.0812636,44.0185071],[10.0806635,44.0187742],[10.0799796,44.0192352],[10.0793144,44.019565],[10.0790059,44.0196345],[10.0785607,44.01954],[10.0782086,44.0195949],[10.0784038,44.02],[10.0782019,44.0200337],[10.0776165,44.0203809],[10.0774428,44.0204147],[10.0771129,44.0203269],[10.0771196,44.0202218],[10.0772383,44.020163],[10.0771894,44.0200993],[10.0752823,44.0209374],[10.0753735,44.0210087],[10.0752984,44.021082],[10.0750349,44.0209504],[10.0748951,44.0212648],[10.0738473,44.0221674],[10.0721079,44.0232971],[10.0714627,44.0238526],[10.0689819,44.0253328],[10.0678477,44.0257917],[10.0671728,44.0261864],[10.0668354,44.0266453],[10.0659474,44.0269675],[10.065588,44.0273956],[10.0646358,44.0278703],[10.064271,44.0279687],[10.064086,44.0279879],[10.0637936,44.0276042],[10.0630524,44.0280522],[10.062996,44.0279367],[10.0628438,44.0279185],[10.062469,44.0281657],[10.062022,44.028318],[10.0619702,44.0282593],[10.0618306,44.0288645],[10.0611101,44.0292255],[10.0608899,44.0290601],[10.0617289,44.0286639],[10.0616666,44.0286321],[10.0617691,44.0285534],[10.0618179,44.0283136],[10.0617278,44.0283177],[10.0615974,44.0281124],[10.062903,44.0274767],[10.0636149,44.0273964],[10.0636656,44.0273113],[10.0634514,44.0272829],[10.0628426,44.0273964],[10.0615969,44.0280083],[10.0611066,44.028136],[10.0600609,44.0287216],[10.0598637,44.0286507]]]},"properties":{"type":"boundary","gemeente":"Massa"}}]}