{"type":"FeatureCollection","metadata":{"gemeente":"Massa Martana","slug":"massa-martana","generated_at":"2026-09-26T13:10:09.900232Z","total_points":8,"providers":["PosteItaliane","DHL","Amazon"],"bounds":[12.523774,42.738826,12.550423,42.77715221]},"features":[{"type":"Feature","geometry":{"type":"Point","coordinates":[12.52444084,42.77715221]},"properties":{"type":"pakketpunt","locatieNaam":"Massa Martana","straatNaam":"Via Della Pace","straatNr":"17","vervoerder":"PosteItaliane","puntType":"postkantoor","bezettingsgraad":50,"latitude":42.77715221,"longitude":12.52444084,"canPickup":true,"canDropoff":true,"openingstijden":{"za":"08:20 - 12:45","zo":"gesloten","ma":"08:20 - 13:45","di":"08:20 - 13:45","wo":"08:20 - 13:45","do":"08:20 - 13:45","vr":"08:20 - 13:45"}}},{"type":"Feature","geometry":{"type":"Point","coordinates":[12.55042258,42.73882618]},"properties":{"type":"pakketpunt","locatieNaam":"Colpetrazzo","straatNaam":"Piazza Bernardino","straatNr":"1","vervoerder":"PosteItaliane","puntType":"postkantoor","bezettingsgraad":50,"latitude":42.73882618,"longitude":12.55042258,"canPickup":true,"canDropoff":true,"openingstijden":{"za":"08:20 - 12:45","zo":"gesloten","ma":"08:20 - 13:45","di":"gesloten","wo":"08:20 - 13:45","do":"08:20 - 13:45","vr":"08:20 - 13:45"}}},{"type":"Feature","geometry":{"type":"Point","coordinates":[12.52377438,42.77619973]},"properties":{"type":"pakketpunt","locatieNaam":"Tabaccheria N. 12","straatNaam":"Via Vittorio Emanuele Ii","straatNr":"2","vervoerder":"PosteItaliane","puntType":"servicepunt","bezettingsgraad":50,"latitude":42.77619973,"longitude":12.52377438,"canPickup":true,"canDropoff":true,"openingstijden":{"za":"08:00 - 13:00, 17:00 - 20:00","zo":"gesloten","ma":"08:00 - 13:00, 17:00 - 20:00","di":"08:00 - 13:00, 17:00 - 20:00","wo":"08:00 - 13:00, 17:00 - 20:00","do":"08:00 - 13:00, 17:00 - 20:00","vr":"08:00 - 13:00, 17:00 - 20:00"}}},{"type":"Feature","geometry":{"type":"Point","coordinates":[12.550423,42.738826]},"properties":{"type":"pakketpunt","locatieNaam":"Ufficio Postale COLPETRAZZO","straatNaam":"PIAZZA BERNARDINO 1","straatNr":"","vervoerder":"DHL","puntType":"postOffice","bezettingsgraad":50,"latitude":42.738826,"longitude":12.550423,"canPickup":true,"canDropoff":true,"openingstijden":{"ma":"08:20 - 13:45","di":"gesloten","wo":"08:20 - 13:45","do":"08:20 - 13:45","vr":"gesloten","za":"08:20 - 12:45","zo":"gesloten"}}},{"type":"Feature","geometry":{"type":"Point","coordinates":[12.523774,42.7762]},"properties":{"type":"pakketpunt","locatieNaam":"TABACCHERIA N. 12","straatNaam":"VIA VITTORIO EMANUELE II 2","straatNr":"","vervoerder":"DHL","puntType":"parcelShop","bezettingsgraad":50,"latitude":42.7762,"longitude":12.523774,"canPickup":true,"canDropoff":true,"openingstijden":{"ma":"08:00 - 13:00, 17:00 - 20:00","di":"08:00 - 13:00, 17:00 - 20:00","wo":"08:00 - 13:00, 17:00 - 20:00","do":"08:00 - 13:00, 17:00 - 20:00","vr":"08:00 - 13:00, 17:00 - 20:00","za":"08:00 - 13:00, 17:00 - 20:00","zo":"gesloten"}}},{"type":"Feature","geometry":{"type":"Point","coordinates":[12.524441,42.777152]},"properties":{"type":"pakketpunt","locatieNaam":"Ufficio Postale MASSA MARTANA","straatNaam":"VIA DELLA PACE 17","straatNr":"","vervoerder":"DHL","puntType":"postOffice","bezettingsgraad":50,"latitude":42.777152,"longitude":12.524441,"canPickup":true,"canDropoff":true,"openingstijden":{"ma":"08:20 - 13:45","di":"08:20 - 13:45","wo":"08:20 - 13:45","do":"gesloten","vr":"08:20 - 13:45","za":"08:20 - 12:45","zo":"gesloten"}}},{"type":"Feature","geometry":{"type":"Point","coordinates":[12.52605,42.77592]},"properties":{"type":"pakketpunt","locatieNaam":"Amazon Counter - BAR JOLLY","straatNaam":"VIA ROMA 16","straatNr":"","vervoerder":"Amazon","puntType":"helix","bezettingsgraad":50,"latitude":42.77592,"longitude":12.52605,"canPickup":true,"canDropoff":false,"openingstijden":null}},{"type":"Feature","geometry":{"type":"Point","coordinates":[12.5244,42.7771]},"properties":{"type":"pakketpunt","locatieNaam":"Ufficio Postale MASSA MARTANA","straatNaam":"VIA DELLA PACE 17","straatNr":"","vervoerder":"Amazon","puntType":"3p","bezettingsgraad":50,"latitude":42.7771,"longitude":12.5244,"canPickup":true,"canDropoff":false,"openingstijden":null}},{"type":"Feature","geometry":{"type":"Polygon","coordinates":[[[12.4880344,42.835536],[12.4881246,42.8359891],[12.4888039,42.8370398],[12.4889754,42.837953],[12.4891625,42.8384785],[12.4888976,42.8395716],[12.4892201,42.840057],[12.4903478,42.8402972],[12.4912669,42.8402691],[12.4925591,42.8403872],[12.493856,42.8407258],[12.494559,42.8411905],[12.4954231,42.8425057],[12.4967689,42.8449137],[12.4966792,42.8456412],[12.4981961,42.8446989],[12.4987746,42.8440285],[12.4995599,42.8436758],[12.5009285,42.8433998],[12.5029525,42.8433288],[12.5047937,42.8431328],[12.5055258,42.8432319],[12.5062014,42.8434408],[12.5078878,42.8432],[12.5084805,42.8442938],[12.509249,42.844941],[12.5103486,42.8449928],[12.5117713,42.844607],[12.5120032,42.8452437],[12.5135138,42.8451252],[12.5136879,42.8450118],[12.5135802,42.844664],[12.5137903,42.844608],[12.5139809,42.8444221],[12.5143083,42.8435747],[12.5148327,42.8430183],[12.5156157,42.8427196],[12.5165078,42.8427687],[12.517086,42.8426609],[12.5177862,42.8423062],[12.5181666,42.8419749],[12.5180878,42.8415316],[12.5181081,42.8409727],[12.5184951,42.8408122],[12.5214497,42.8403521],[12.5223415,42.8397754],[12.5225961,42.83952],[12.5231483,42.8386071],[12.5231469,42.838301],[12.5234595,42.8378276],[12.5245986,42.8375134],[12.5251984,42.8372113],[12.5254968,42.8367564],[12.5254267,42.8363579],[12.5264177,42.8363723],[12.5275802,42.8360529],[12.5274779,42.8367538],[12.5275248,42.8371351],[12.528182,42.8378396],[12.528642,42.8370421],[12.5305859,42.8355414],[12.5337046,42.8334327],[12.5335953,42.8324817],[12.5338214,42.8317139],[12.5332317,42.83053],[12.5336063,42.8297666],[12.5345209,42.8291801],[12.5354748,42.8282908],[12.5365606,42.8277575],[12.5373518,42.8272333],[12.5383463,42.8253027],[12.5389803,42.8244232],[12.5398201,42.8236138],[12.5405121,42.8231332],[12.5409426,42.8233765],[12.5406807,42.8244246],[12.5406642,42.8251544],[12.5414466,42.8267104],[12.5424459,42.826792],[12.5451164,42.8261239],[12.5460861,42.8263415],[12.5471725,42.8269966],[12.5475494,42.8276782],[12.547588,42.8282713],[12.5481549,42.8281321],[12.5503257,42.8217845],[12.5507149,42.8203183],[12.5505866,42.8179992],[12.5510903,42.8170112],[12.5523826,42.8161922],[12.5551152,42.8138833],[12.5564395,42.812559],[12.5575807,42.811254],[12.5595058,42.8095464],[12.5608676,42.8081984],[12.562553,42.8066828],[12.5637644,42.8057266],[12.5646308,42.8048848],[12.565771,42.8022786],[12.5660846,42.8011388],[12.5663236,42.8006586],[12.5692591,42.7990814],[12.5688861,42.7986158],[12.5678867,42.7978997],[12.5658485,42.7968873],[12.5654242,42.7964728],[12.5651108,42.7957262],[12.5651337,42.7951403],[12.5656059,42.7940361],[12.5655264,42.7935568],[12.5647238,42.7934468],[12.563545,42.7935691],[12.5623793,42.7933623],[12.5614719,42.7928233],[12.5608631,42.7921219],[12.5601854,42.7916433],[12.5600409,42.7912696],[12.5621418,42.788521],[12.5634129,42.7875855],[12.5636485,42.7872045],[12.5625551,42.7864057],[12.5617462,42.785517],[12.5612944,42.7845677],[12.5601912,42.7827697],[12.5599075,42.7819006],[12.5590863,42.780409],[12.5586757,42.7799761],[12.5581042,42.7795752],[12.5582347,42.7794087],[12.5604017,42.7786618],[12.5623492,42.7766833],[12.5626527,42.7758095],[12.5625574,42.7751326],[12.5627889,42.7745357],[12.5639821,42.7740168],[12.5647587,42.773853],[12.565107,42.7733875],[12.5652975,42.7728863],[12.5658164,42.7724379],[12.5663412,42.7715212],[12.5666347,42.7705801],[12.5665925,42.7697801],[12.567123,42.7684039],[12.5672833,42.7677506],[12.5675586,42.7672783],[12.5690765,42.7668978],[12.5697303,42.7664317],[12.5699064,42.7653638],[12.5702918,42.7652122],[12.5733874,42.766367],[12.5745245,42.7669753],[12.5763541,42.7676969],[12.577107,42.7685558],[12.5786048,42.7690312],[12.5821682,42.7685595],[12.5864623,42.7678036],[12.5866684,42.7667842],[12.5867885,42.7654659],[12.5872844,42.7577744],[12.5871664,42.7571208],[12.5863093,42.7543249],[12.586122,42.7534214],[12.5853472,42.750794],[12.5847375,42.7497957],[12.5838942,42.7455704],[12.5830041,42.7446234],[12.5818622,42.7437957],[12.5769504,42.7398874],[12.5766226,42.7388622],[12.5771076,42.7356146],[12.5805,42.7192967],[12.5771051,42.716454],[12.5737009,42.7138952],[12.5733125,42.7137768],[12.5663302,42.7150077],[12.5605698,42.7161641],[12.5543667,42.7161364],[12.5535468,42.7149688],[12.543993,42.7156929],[12.5438098,42.7166035],[12.5433563,42.7172703],[12.5424785,42.7163161],[12.5418753,42.7155199],[12.5420794,42.7124702],[12.5375265,42.7127776],[12.5371203,42.7122094],[12.5368858,42.7110642],[12.5363115,42.7107623],[12.5324299,42.7110488],[12.5320795,42.7112487],[12.5318227,42.7118464],[12.5312095,42.7119328],[12.5309821,42.7124036],[12.5305037,42.7124724],[12.5294314,42.7124424],[12.5290062,42.7129643],[12.5271018,42.7136173],[12.525833,42.7141741],[12.5246972,42.715114],[12.5231709,42.7157193],[12.5224477,42.7161018],[12.5214601,42.7163573],[12.5184466,42.7169137],[12.5160658,42.7177973],[12.5155426,42.7183716],[12.5154286,42.7187578],[12.5158248,42.7189482],[12.5164163,42.7197314],[12.5159417,42.7203267],[12.513915,42.7211994],[12.5136879,42.7238535],[12.514296,42.7241995],[12.515236,42.7245443],[12.5155405,42.7247543],[12.5154727,42.7271527],[12.5151987,42.729124],[12.5141502,42.7302908],[12.5134169,42.7309166],[12.5119253,42.7324841],[12.5109745,42.7327068],[12.5095089,42.732126],[12.508709,42.7316689],[12.5077961,42.7312782],[12.5057953,42.7309118],[12.5039172,42.7311494],[12.5023008,42.7317624],[12.5020923,42.7325141],[12.5020923,42.7330917],[12.5024692,42.7337374],[12.5030668,42.734372],[12.5034566,42.7350038],[12.5036939,42.7360995],[12.5060871,42.7406858],[12.5065483,42.7429047],[12.5069392,42.7441083],[12.5074487,42.7451281],[12.5089725,42.7470443],[12.5090837,42.7475734],[12.5084689,42.7480231],[12.5068125,42.7484926],[12.5062608,42.7488517],[12.5055857,42.7495387],[12.5049161,42.7500814],[12.5022189,42.7518523],[12.5006542,42.7530572],[12.4995006,42.7541055],[12.4987865,42.7545505],[12.498282,42.754638],[12.4980876,42.7549399],[12.4981502,42.7560658],[12.4977508,42.7566081],[12.49692,42.7568946],[12.495442,42.7571874],[12.4931094,42.7573577],[12.4910217,42.7589252],[12.4898061,42.7599617],[12.4894867,42.7606107],[12.4885295,42.7610136],[12.487917,42.7610548],[12.4875006,42.7613511],[12.486973,42.7620335],[12.4860931,42.7629427],[12.4852139,42.7632396],[12.4843904,42.763958],[12.4842258,42.7643862],[12.4833714,42.7652767],[12.4825994,42.7656198],[12.4825175,42.7661588],[12.4840186,42.7673909],[12.4855325,42.7683442],[12.4868239,42.7690477],[12.4884067,42.7703945],[12.4882263,42.771302],[12.4891026,42.7716344],[12.4894186,42.771985],[12.4895934,42.7724128],[12.4892871,42.7725112],[12.4889114,42.7724326],[12.4885125,42.7726204],[12.4884147,42.7735472],[12.4886654,42.7739934],[12.4889025,42.7741612],[12.488678,42.7755085],[12.488796,42.7758982],[12.489488,42.775706],[12.4901738,42.7756761],[12.4904261,42.7760871],[12.4904696,42.7768331],[12.4906628,42.7773944],[12.4902875,42.7773969],[12.4899108,42.7776603],[12.4899131,42.7784978],[12.4899403,42.7787221],[12.4903168,42.7787826],[12.4902737,42.7792612],[12.4906897,42.779253],[12.4908068,42.7796062],[12.4899754,42.7799726],[12.4895453,42.7800262],[12.4893033,42.7803868],[12.4899711,42.780684],[12.490963,42.7818693],[12.4925252,42.7834423],[12.4932563,42.7849794],[12.4931401,42.785463],[12.4926432,42.7859599],[12.4924797,42.7864263],[12.4928174,42.7868009],[12.4931392,42.7869937],[12.493304,42.787763],[12.4936361,42.7885381],[12.4922995,42.7893289],[12.4915301,42.7894818],[12.4919429,42.7899971],[12.4925889,42.790342],[12.4926615,42.7906089],[12.4922557,42.7913904],[12.4931571,42.792319],[12.493145,42.7932207],[12.4928751,42.7941375],[12.4896452,42.7956992],[12.4892367,42.7960169],[12.489721,42.7962597],[12.4898705,42.7964474],[12.4897775,42.7969886],[12.4901835,42.7975106],[12.4903841,42.7982665],[12.4902675,42.7988005],[12.4919124,42.7991866],[12.4922544,42.7993803],[12.4915436,42.8001703],[12.4914624,42.8004206],[12.4942929,42.8005185],[12.4946367,42.8007872],[12.4947409,42.8014666],[12.4942892,42.8021214],[12.4935002,42.8028883],[12.4932012,42.8036177],[12.4931696,42.804123],[12.4968733,42.8041583],[12.4979325,42.8042925],[12.4982439,42.8043589],[12.4980806,42.8051568],[12.4984491,42.8051051],[12.4988527,42.8047956],[12.499244,42.8047344],[12.4990951,42.8052087],[12.4997531,42.805826],[12.4998697,42.8062578],[12.499786,42.8071322],[12.5003188,42.8090772],[12.5006565,42.811633],[12.5008858,42.8126209],[12.5012161,42.8135292],[12.5016578,42.814137],[12.5018729,42.8146897],[12.50096,42.8150182],[12.4982149,42.8157595],[12.4981466,42.8153339],[12.4974674,42.8151926],[12.4961791,42.8152815],[12.4936504,42.8158495],[12.4929628,42.8161947],[12.49226,42.8163512],[12.4921183,42.8165845],[12.4924734,42.817074],[12.4931939,42.8186412],[12.4948423,42.8196218],[12.4957291,42.820369],[12.4975271,42.8237131],[12.4976368,42.8246194],[12.4974647,42.8255743],[12.4970331,42.8265554],[12.4964989,42.8273731],[12.4962296,42.8282772],[12.496833,42.8287945],[12.4984102,42.8294036],[12.4987753,42.8297751],[12.4990665,42.83041],[12.499504,42.8308063],[12.4995791,42.8313757],[12.4999124,42.8321054],[12.4984721,42.8327197],[12.497132,42.8335215],[12.4970831,42.8338164],[12.4979029,42.834274],[12.4975767,42.8346289],[12.4963826,42.8350796],[12.4952007,42.8349626],[12.492754,42.8352625],[12.4907145,42.8348926],[12.4897861,42.8348354],[12.4888601,42.8350392],[12.4880344,42.835536]]]},"properties":{"type":"boundary","gemeente":"Massa Martana"}}]}