{"type":"FeatureCollection","metadata":{"gemeente":"Meana/Meana Sardo","slug":"meana-meana-sardo","generated_at":"2026-09-26T13:10:10.209581Z","total_points":8,"providers":["PosteItaliane","DPD","GLS","DHL","Amazon"],"bounds":[9.0721,39.9446470666507,9.07586304237994,39.94513205]},"features":[{"type":"Feature","geometry":{"type":"Point","coordinates":[9.07210987,39.94513205]},"properties":{"type":"pakketpunt","locatieNaam":"Meana Sardo","straatNaam":"Piazza Quattro Novembre","straatNr":"1","vervoerder":"PosteItaliane","puntType":"postkantoor","bezettingsgraad":50,"latitude":39.94513205,"longitude":9.07210987,"canPickup":true,"canDropoff":true,"openingstijden":{"za":"08:20 - 12:45","zo":"gesloten","ma":"08:20 - 13:45","di":"08:20 - 13:45","wo":"08:20 - 13:45","do":"08:20 - 13:45","vr":"08:20 - 13:45"}}},{"type":"Feature","geometry":{"type":"Point","coordinates":[9.07262217,39.94477835]},"properties":{"type":"pakketpunt","locatieNaam":"Tabaccheria N. 1","straatNaam":"Piazza John Fitzgerald Kennedy","straatNr":"7","vervoerder":"PosteItaliane","puntType":"servicepunt","bezettingsgraad":50,"latitude":39.94477835,"longitude":9.07262217,"canPickup":true,"canDropoff":true,"openingstijden":{"za":"08:00 - 13:00, 17:00 - 20:00","zo":"gesloten","ma":"08:00 - 13:00, 17:00 - 20:00","di":"08:00 - 13:00, 17:00 - 20:00","wo":"08:00 - 13:00, 17:00 - 20:00","do":"08:00 - 13:00, 17:00 - 20:00","vr":"08:00 - 13:00, 17:00 - 20:00"}}},{"type":"Feature","geometry":{"type":"Point","coordinates":[9.07586304,39.94464707]},"properties":{"type":"pakketpunt","locatieNaam":"Market Demurtas","straatNaam":"VIA ROMA","straatNr":"30","vervoerder":"DPD","puntType":"pickup_point","bezettingsgraad":50,"latitude":39.94464707,"longitude":9.07586304,"canPickup":true,"canDropoff":true,"openingstijden":{"ma":"08:00 - 13:00, 17:00 - 20:00","di":"08:00 - 13:00, 17:00 - 20:00","wo":"08:00 - 13:00","do":"08:00 - 13:00, 17:00 - 20:00","vr":"08:00 - 13:00, 17:00 - 20:00","za":"08:00 - 13:00, 17:00 - 20:00","zo":"gesloten"}}},{"type":"Feature","geometry":{"type":"Point","coordinates":[9.0755011,39.9447134]},"properties":{"type":"pakketpunt","locatieNaam":"Supermercati DIMEGLIO","straatNaam":"Via Roma","straatNr":"30","vervoerder":"GLS","puntType":"parcel_shop","bezettingsgraad":50,"latitude":39.9447134,"longitude":9.0755011,"canPickup":true,"canDropoff":true,"openingstijden":"za: 08:00 - 13:00, 17:00 - 20:00; ma: 08:00 - 13:00, 17:00 - 20:00"}},{"type":"Feature","geometry":{"type":"Point","coordinates":[9.07211,39.945132]},"properties":{"type":"pakketpunt","locatieNaam":"Ufficio Postale MEANA SARDO","straatNaam":"PIAZZA IV NOVEMBRE 1","straatNr":"","vervoerder":"DHL","puntType":"postOffice","bezettingsgraad":50,"latitude":39.945132,"longitude":9.07211,"canPickup":true,"canDropoff":true,"openingstijden":{"ma":"08:20 - 13:45","di":"08:20 - 13:45","wo":"08:20 - 13:45","do":"08:20 - 13:45","vr":"08:20 - 13:45","za":"08:20 - 12:45","zo":"gesloten"}}},{"type":"Feature","geometry":{"type":"Point","coordinates":[9.072622,39.944778]},"properties":{"type":"pakketpunt","locatieNaam":"TABACCHERIA N. 1","straatNaam":"PIAZZA JOHN FITZGERALD KENNEDY 7","straatNr":"","vervoerder":"DHL","puntType":"parcelShop","bezettingsgraad":50,"latitude":39.944778,"longitude":9.072622,"canPickup":true,"canDropoff":true,"openingstijden":{"ma":"08:00 - 13:00, 17:00 - 20:00","di":"08:00 - 13:00, 17:00 - 20:00","wo":"08:00 - 13:00, 17:00 - 20:00","do":"08:00 - 13:00, 17:00 - 20:00","vr":"08:00 - 13:00, 17:00 - 20:00","za":"08:00 - 13:00, 17:00 - 20:00","zo":"gesloten"}}},{"type":"Feature","geometry":{"type":"Point","coordinates":[9.07586304237994,39.9446470666507]},"properties":{"type":"pakketpunt","locatieNaam":"Amazon Counter","straatNaam":"Supermercati Dimeglio (fermopoint)","straatNr":"","vervoerder":"Amazon","puntType":"helix","bezettingsgraad":50,"latitude":39.9446470666507,"longitude":9.07586304237994,"canPickup":true,"canDropoff":false,"openingstijden":null}},{"type":"Feature","geometry":{"type":"Point","coordinates":[9.0721,39.9451]},"properties":{"type":"pakketpunt","locatieNaam":"Ufficio Postale MEANA SARDO","straatNaam":"PIAZZA IV NOVEMBRE 1","straatNr":"","vervoerder":"Amazon","puntType":"3p","bezettingsgraad":50,"latitude":39.9451,"longitude":9.0721,"canPickup":true,"canDropoff":false,"openingstijden":null}},{"type":"Feature","geometry":{"type":"Polygon","coordinates":[[[8.9880988,39.9147344],[8.9892338,39.9144552],[8.9896666,39.9152931],[8.9899825,39.9155364],[8.9912929,39.9161582],[8.9921119,39.9163745],[8.99375,39.9164467],[8.9954466,39.9169423],[8.9962189,39.9170865],[8.9970145,39.9175911],[8.9976814,39.9179064],[8.9983952,39.9181137],[8.9989217,39.9180236],[9.0006886,39.9170865],[9.0022214,39.9167171],[9.0027713,39.9165099],[9.0035202,39.9160053],[9.0041286,39.9158611],[9.0056848,39.9160052],[9.010096,39.9167077],[9.0111842,39.9167887],[9.011898,39.9167346],[9.0126234,39.9165182],[9.0131148,39.9162299],[9.0158877,39.915797],[9.0182745,39.9150849],[9.0202984,39.9142557],[9.0217491,39.9135346],[9.022685,39.9132011],[9.0239018,39.9132008],[9.027389,39.9146597],[9.0281028,39.9147045],[9.0315188,39.9136315],[9.0333089,39.9134418],[9.03738,39.9123143],[9.0383042,39.9122149],[9.0390997,39.9120254],[9.0406431,39.9103401],[9.042093,39.908934],[9.0431452,39.9076902],[9.0458575,39.904752],[9.0487096,39.9014442],[9.0492241,39.9010385],[9.0498906,39.9006959],[9.0514461,39.9001816],[9.05499,39.8994772],[9.0583355,39.8993675],[9.0594115,39.8990966],[9.0597154,39.8987902],[9.0603704,39.8987177],[9.0616456,39.8988702],[9.0621485,39.8987889],[9.0624993,39.8986085],[9.0629433,39.8981217],[9.0630948,39.8975],[9.0631524,39.8965359],[9.0634445,39.8961843],[9.0639942,39.8960579],[9.0649767,39.8960213],[9.065538,39.8958138],[9.0659586,39.8953],[9.0665425,39.8942365],[9.0671036,39.8939388],[9.0703314,39.8933332],[9.0768688,39.89232],[9.0773364,39.8920944],[9.0781074,39.8912109],[9.0796251,39.8888223],[9.0812094,39.886518],[9.0815985,39.8861089],[9.0819024,39.8859285],[9.0828962,39.8856034],[9.0840539,39.8855486],[9.0854107,39.8856467],[9.087001,39.8853842],[9.0875737,39.8850684],[9.0889057,39.8841124],[9.0903901,39.8834265],[9.0928333,39.8826046],[9.0933124,39.8823069],[9.0940598,39.8815134],[9.0943164,39.8810357],[9.0945145,39.8804679],[9.0946873,39.8785937],[9.0949206,39.8781881],[9.0951775,39.8778906],[9.0955397,39.877665],[9.0966465,39.8772896],[9.0969422,39.8770782],[9.0988086,39.8738601],[9.0997654,39.8724177],[9.1000456,39.8721201],[9.1005013,39.8719035],[9.1009691,39.8719571],[9.1013321,39.8723172],[9.1017406,39.8717673],[9.1027332,39.8708654],[9.1040764,39.8699091],[9.1051863,39.8692774],[9.1053846,39.8689619],[9.1055932,39.8677724],[9.1059209,39.8679613],[9.1064128,39.8684744],[9.1066359,39.8690689],[9.1069993,39.8697263],[9.1074909,39.8700051],[9.1082863,39.8701846],[9.1089298,39.8704363],[9.1093511,39.8706972],[9.1096209,39.8711834],[9.1094703,39.8721116],[9.1090273,39.8729229],[9.1084334,39.8745362],[9.1080713,39.8747889],[9.1078146,39.8750954],[9.1078384,39.8753747],[9.1076401,39.8757083],[9.1067873,39.8762316],[9.1064605,39.8766464],[9.1064029,39.8772051],[9.1066611,39.8778355],[9.1068721,39.8781146],[9.1080901,39.8792938],[9.1085128,39.8803836],[9.1090877,39.8815273],[9.1097336,39.8832296],[9.1101199,39.8834545],[9.1105644,39.8834811],[9.1121654,39.8827407],[9.1124691,39.8825332],[9.1128553,39.882659],[9.1130899,39.8831182],[9.1133368,39.8839199],[9.1139933,39.8848563],[9.1153753,39.8859992],[9.1168383,39.8866194],[9.1190029,39.8871668],[9.1198106,39.8875173],[9.1210166,39.8882999],[9.1216019,39.8885786],[9.1207629,39.8903635],[9.1202845,39.8910217],[9.1189288,39.8916177],[9.1185201,39.8920236],[9.1183579,39.8929248],[9.1180783,39.8936008],[9.1180789,39.8939612],[9.1186328,39.8963122],[9.1188219,39.8974382],[9.118777,39.8985735],[9.1189301,39.89915],[9.1191884,39.8996813],[9.1198218,39.9007078],[9.1203375,39.9012478],[9.1220245,39.9026156],[9.1221772,39.9029668],[9.1220613,39.9035976],[9.1221322,39.904003],[9.1224485,39.9042549],[9.1231389,39.9043623],[9.1235721,39.904533],[9.1236663,39.9048573],[9.123433,39.905254],[9.1227202,39.9057052],[9.1218787,39.9061656],[9.1206044,39.9067166],[9.1191674,39.9078263],[9.1190391,39.9080696],[9.1193552,39.9081774],[9.1211445,39.9077972],[9.1217763,39.9078235],[9.1223502,39.9081473],[9.1227251,39.9084803],[9.1228426,39.9087234],[9.1229133,39.9090477],[9.122867,39.909309],[9.1214083,39.9114099],[9.1213038,39.9118695],[9.1212931,39.9124191],[9.1216096,39.9127972],[9.1207682,39.9133386],[9.1211668,39.9138157],[9.1203723,39.9144563],[9.1203965,39.9148797],[9.1207953,39.9154469],[9.1209833,39.9159062],[9.1213178,39.9173384],[9.1210449,39.9176991],[9.122229,39.9189683],[9.1198917,39.9206736],[9.1192493,39.921359],[9.1194139,39.9217823],[9.1194615,39.9222507],[9.1192053,39.9229537],[9.1166778,39.9230104],[9.1160111,39.9231732],[9.1156839,39.9234709],[9.1154389,39.9239126],[9.1153346,39.9244893],[9.1154754,39.9247415],[9.1159795,39.9252545],[9.1162966,39.9259299],[9.1166598,39.9261999],[9.1179706,39.9262706],[9.122315,39.9278609],[9.1229589,39.9279863],[9.1232869,39.9281391],[9.1236034,39.9284812],[9.1235576,39.9290038],[9.1231489,39.9295088],[9.1228684,39.9297433],[9.1213628,39.9304026],[9.1222035,39.9309423],[9.1223564,39.9313927],[9.1219372,39.9325734],[9.1225379,39.9346901],[9.1224452,39.9352398],[9.1221306,39.936051],[9.121935,39.9379343],[9.1217723,39.9385831],[9.1212361,39.9398541],[9.1208763,39.9415393],[9.1204575,39.9430444],[9.1197006,39.9453156],[9.1196086,39.9462347],[9.1201848,39.9477658],[9.1231564,39.9532857],[9.1234027,39.9535197],[9.126495,39.9544083],[9.1256528,39.9548327],[9.1250442,39.9549054],[9.125268,39.95568],[9.1244724,39.9559512],[9.1246837,39.9562753],[9.1248015,39.9566716],[9.1245679,39.9569782],[9.124864,39.9588519],[9.1245255,39.9594018],[9.124011,39.9597718],[9.1233788,39.9597995],[9.1231558,39.9594664],[9.1232714,39.9586734],[9.1230717,39.9582862],[9.1221707,39.9585574],[9.121597,39.958567],[9.1216433,39.9582877],[9.1213966,39.9578014],[9.1209515,39.9577028],[9.1202379,39.9580008],[9.1200159,39.9582894],[9.1198644,39.9586589],[9.1195955,39.9589025],[9.1186,39.9587323],[9.11764,39.9587153],[9.117019,39.9584817],[9.1165742,39.9585362],[9.116645,39.9588334],[9.1162938,39.9588878],[9.1156387,39.9592038],[9.1149488,39.959691],[9.1148897,39.9593577],[9.114737,39.9590606],[9.1143854,39.9588447],[9.1139874,39.9589352],[9.1134729,39.9592871],[9.1126199,39.960315],[9.1122222,39.9605496],[9.1119297,39.960667],[9.1114145,39.9606946],[9.1110869,39.960803],[9.1109702,39.9610554],[9.109367,39.9615525],[9.1095664,39.9618226],[9.1094148,39.9622011],[9.1082091,39.9623374],[9.1076245,39.9628785],[9.1057044,39.9629524],[9.1054471,39.9631688],[9.1051786,39.9637007],[9.104536,39.9646292],[9.1038241,39.9661796],[9.1029943,39.9671894],[9.1027609,39.9676851],[9.1023399,39.9680549],[9.1019185,39.9681454],[9.1014851,39.9680557],[9.1010163,39.9678038],[9.1004183,39.9672277],[9.1003358,39.9669034],[9.1004994,39.966624],[9.1011893,39.9659837],[9.1012121,39.9655782],[9.1009424,39.9653442],[9.1002751,39.9653808],[9.0988118,39.9656434],[9.0982496,39.9655537],[9.0981205,39.9653286],[9.098038,39.9649052],[9.0980952,39.9640312],[9.0982233,39.9635356],[9.0988313,39.9629044],[9.098866,39.9626521],[9.0986082,39.9624451],[9.0973094,39.9630408],[9.0966191,39.9634739],[9.0956595,39.963844],[9.0953905,39.9640155],[9.09511,39.9643941],[9.0947239,39.9646377],[9.0942075,39.9637371],[9.0936099,39.9634403],[9.0927434,39.9633869],[9.0922869,39.9635044],[9.0916318,39.9638924],[9.0915038,39.9645231],[9.091633,39.9648474],[9.0915867,39.9652258],[9.0911653,39.9653163],[9.0906617,39.9652446],[9.0896085,39.9656959],[9.0892687,39.965525],[9.0890459,39.9652909],[9.0888339,39.964291],[9.0886578,39.9639307],[9.0883179,39.9636607],[9.0878728,39.9635889],[9.0874046,39.9636884],[9.0868548,39.9641213],[9.0863996,39.9652659],[9.0861775,39.9655093],[9.0857094,39.9657349],[9.0853229,39.9656901],[9.0848657,39.9652039],[9.0845483,39.9642041],[9.0841846,39.9635917],[9.0840904,39.9631953],[9.085448,39.9626627],[9.0856233,39.9624193],[9.0855994,39.9620319],[9.0853182,39.9618519],[9.0843815,39.9618346],[9.0837845,39.9620062],[9.0834335,39.9621957],[9.0830826,39.9625293],[9.0828021,39.9629349],[9.0826739,39.9634396],[9.0827335,39.9643225],[9.0828628,39.9646738],[9.0830162,39.9656467],[9.0827591,39.9660614],[9.0822322,39.9661428],[9.0816816,39.965918],[9.0809316,39.9653509],[9.0804982,39.965207],[9.0801352,39.9652343],[9.0775718,39.9660199],[9.0770362,39.9660428],[9.0764001,39.9653269],[9.0759548,39.9649849],[9.0754277,39.964778],[9.0733669,39.9647613],[9.0719733,39.9645369],[9.0700767,39.9648444],[9.0693157,39.9648629],[9.0689526,39.964791],[9.067746,39.9642061],[9.0669145,39.9639903],[9.065333,39.9631894],[9.0648406,39.9625409],[9.0643134,39.9621538],[9.0638449,39.9619739],[9.0634586,39.9620642],[9.063377,39.9624967],[9.0634711,39.9629111],[9.0638582,39.9637398],[9.0639414,39.9650822],[9.0638481,39.9654066],[9.0634737,39.9657222],[9.0631342,39.9658124],[9.0627477,39.9657586],[9.0622088,39.9654435],[9.0617752,39.9650023],[9.061213,39.9648314],[9.0606627,39.9649218],[9.0597373,39.9644538],[9.0586954,39.9645984],[9.0581567,39.9645357],[9.057934,39.9642384],[9.0580389,39.9636888],[9.0582611,39.9634364],[9.0596069,39.9626248],[9.0597823,39.9623725],[9.0596649,39.9619941],[9.0591613,39.9617691],[9.0581543,39.9617246],[9.0563279,39.9619147],[9.0552854,39.9613566],[9.0547469,39.9614199],[9.0544543,39.9615732],[9.0534826,39.9616548],[9.0529321,39.9614388],[9.0528733,39.9611685],[9.0532826,39.9604746],[9.0532707,39.9602223],[9.053048,39.9599611],[9.0526149,39.9600244],[9.0521351,39.960412],[9.0508009,39.9610703],[9.0504731,39.9611336],[9.0501686,39.9610526],[9.0496767,39.9607555],[9.0494072,39.9604763],[9.0489036,39.9603684],[9.0483885,39.9604497],[9.047639,39.9601437],[9.0472407,39.9598555],[9.0461987,39.9598469],[9.0458122,39.9597119],[9.0456832,39.9593696],[9.045882,39.9590452],[9.0466663,39.9587746],[9.0468649,39.9581168],[9.0466071,39.9578646],[9.0460335,39.957955],[9.0455653,39.9581894],[9.0432598,39.9596138],[9.0423936,39.9600286],[9.041855,39.9599387],[9.041246,39.9597047],[9.0407308,39.9596598],[9.0379912,39.9597508],[9.036914,39.9596881],[9.0363988,39.959499],[9.0362815,39.9591567],[9.0358951,39.9590757],[9.0351577,39.9594814],[9.0348651,39.9598149],[9.0351817,39.9605806],[9.0351351,39.9611392],[9.0347608,39.961761],[9.0344448,39.9620494],[9.0338594,39.9621937],[9.0317874,39.9631494],[9.0314713,39.9630954],[9.0314009,39.9627891],[9.0314359,39.9624287],[9.0317166,39.9617619],[9.0317396,39.960915],[9.0316458,39.9606717],[9.0307087,39.9596539],[9.0303571,39.958807],[9.0295137,39.9580054],[9.0297476,39.9573296],[9.0301573,39.9571403],[9.0305905,39.9571131],[9.0310002,39.9569869],[9.0314098,39.9566534],[9.0315501,39.956329],[9.0314329,39.9559957],[9.030742,39.9555994],[9.0297701,39.9552303],[9.029489,39.9549511],[9.02936,39.9545006],[9.0296642,39.9539509],[9.0296641,39.9536987],[9.0293713,39.9534014],[9.0292892,39.9531402],[9.0296517,39.9520949],[9.0295579,39.9516985],[9.02923,39.9516265],[9.0286448,39.9517618],[9.0266083,39.9530507],[9.0258944,39.9536635],[9.0249228,39.9539881],[9.0243609,39.9541144],[9.0239394,39.9539883],[9.0238338,39.9532495],[9.0236112,39.9528712],[9.023377,39.952691],[9.0229907,39.952583],[9.0220424,39.9525021],[9.0216326,39.9525562],[9.0213517,39.9527004],[9.0211528,39.9529077],[9.020872,39.9534934],[9.0204272,39.9538358],[9.0199589,39.9537458],[9.0188232,39.9532595],[9.0186358,39.9530432],[9.0185538,39.9526829],[9.0190686,39.9518989],[9.0191271,39.9515836],[9.0191387,39.9511871],[9.0187991,39.951043],[9.0180383,39.9514756],[9.0176286,39.9516199],[9.0172774,39.9516109],[9.0166452,39.9514939],[9.0154861,39.9508814],[9.0145613,39.9506923],[9.0138237,39.9507194],[9.0128873,39.9509628],[9.0124658,39.9507916],[9.0122315,39.9498456],[9.0119739,39.9494762],[9.0113065,39.9488907],[9.0111426,39.9486114],[9.0111074,39.9478456],[9.0110019,39.9474762],[9.0105571,39.9474402],[9.0101942,39.947296],[9.0100068,39.9469447],[9.0101355,39.9465122],[9.0100769,39.9460347],[9.0097492,39.9458275],[9.0089063,39.9458366],[9.0075836,39.9463412],[9.0072559,39.9463863],[9.0069047,39.9462331],[9.0066822,39.9458367],[9.0065534,39.9450168],[9.0061554,39.9448727],[9.005336,39.94508],[9.0023979,39.9454404],[9.0020116,39.9454495],[9.0011571,39.9452963],[9.0008762,39.9455666],[9.0010049,39.9462874],[9.0009347,39.9465487],[9.0007006,39.9467199],[8.9986755,39.9470893],[8.9972824,39.9478731],[8.9969078,39.9483056],[8.9965917,39.9484677],[8.9963108,39.9482515],[8.9951285,39.9479992],[8.99459,39.9477469],[8.9934897,39.9469539],[8.9923192,39.9459087],[8.9910785,39.9456834],[8.9905868,39.9455032],[8.9902123,39.9452959],[8.9897441,39.9448634],[8.9889015,39.9438903],[8.9888664,39.9433677],[8.9895103,39.9429263],[8.9896742,39.9425569],[8.9897328,39.9422145],[8.9896041,39.941791],[8.9896744,39.9414847],[8.9898851,39.9411964],[8.9909153,39.9402775],[8.991805,39.9391784],[8.9929287,39.9387009],[8.9940641,39.937818],[8.994743,39.9369801],[8.9951995,39.9365567],[8.9953751,39.9363044],[8.9953751,39.935953],[8.9951996,39.9357368],[8.9948368,39.9356016],[8.9939941,39.9355295],[8.9929993,39.935133],[8.9922619,39.9350519],[8.9909628,39.9350698],[8.9907404,39.9348716],[8.9904715,39.9333759],[8.9903077,39.9330516],[8.990296,39.93252],[8.9905302,39.9318803],[8.9906824,39.9310514],[8.9905772,39.9305379],[8.9901559,39.9300423],[8.9898635,39.9293125],[8.9894192,39.9264113],[8.989232,39.9261139],[8.9889512,39.9258976],[8.9886236,39.9256994],[8.9878512,39.9254561],[8.986412,39.9245639],[8.9861547,39.9240413],[8.9863069,39.9235728],[8.9868219,39.9229152],[8.9868688,39.9224106],[8.9867286,39.9213204],[8.9863778,39.9201851],[8.9855823,39.919194],[8.9835466,39.9177071],[8.9834297,39.9173421],[8.9842255,39.9167701],[8.9847755,39.916572],[8.98632,39.9165902],[8.98687,39.9165092],[8.9873146,39.916293],[8.9878413,39.9156443],[8.9880988,39.9147344]]]},"properties":{"type":"boundary","gemeente":"Meana/Meana Sardo"}}]}