{"type":"FeatureCollection","metadata":{"gemeente":"Melara","slug":"melara","generated_at":"2026-09-26T13:10:10.344020Z","total_points":3,"providers":["PosteItaliane","DHL","Amazon"],"bounds":[11.1993,45.0623,11.19934,45.06238908]},"features":[{"type":"Feature","geometry":{"type":"Point","coordinates":[11.19934,45.06238908]},"properties":{"type":"pakketpunt","locatieNaam":"Melara","straatNaam":"Via Giuseppe Garibaldi","straatNr":"17","vervoerder":"PosteItaliane","puntType":"postkantoor","bezettingsgraad":50,"latitude":45.06238908,"longitude":11.19934,"canPickup":true,"canDropoff":true,"openingstijden":{"za":"08:20 - 12:45","zo":"gesloten","ma":"gesloten","di":"gesloten","wo":"gesloten","do":"08:20 - 13:45","vr":"08:20 - 13:45"}}},{"type":"Feature","geometry":{"type":"Point","coordinates":[11.19934,45.062389]},"properties":{"type":"pakketpunt","locatieNaam":"Ufficio Postale MELARA","straatNaam":"VIA GIUSEPPE GARIBALDI 17","straatNr":"","vervoerder":"DHL","puntType":"postOffice","bezettingsgraad":50,"latitude":45.062389,"longitude":11.19934,"canPickup":true,"canDropoff":true,"openingstijden":{"ma":"08:20 - 13:45","di":"08:20 - 13:45","wo":"08:20 - 13:45","do":"08:20 - 13:45","vr":"08:20 - 13:45","za":"08:20 - 12:45","zo":"gesloten"}}},{"type":"Feature","geometry":{"type":"Point","coordinates":[11.1993,45.0623]},"properties":{"type":"pakketpunt","locatieNaam":"Ufficio Postale MELARA","straatNaam":"VIA GIUSEPPE GARIBALDI 17","straatNr":"","vervoerder":"Amazon","puntType":"3p","bezettingsgraad":50,"latitude":45.0623,"longitude":11.1993,"canPickup":true,"canDropoff":false,"openingstijden":null}},{"type":"Feature","geometry":{"type":"Polygon","coordinates":[[[11.1877747,45.0862836],[11.1879587,45.085776],[11.1880811,45.0846574],[11.1883682,45.0840848],[11.18822,45.0833045],[11.1873258,45.0825115],[11.1862874,45.0819372],[11.1839018,45.0810197],[11.1832756,45.0805906],[11.1830244,45.0796682],[11.1827201,45.0790169],[11.1820987,45.0783807],[11.1796458,45.0770233],[11.1770291,45.0753629],[11.1754865,45.0748882],[11.1746456,45.0744901],[11.1743418,45.0738478],[11.1742613,45.0730662],[11.1739378,45.0725772],[11.1735723,45.071648],[11.173546,45.0712884],[11.1736284,45.0707828],[11.1738543,45.0703734],[11.1745475,45.069559],[11.1744547,45.0684536],[11.1741196,45.0679919],[11.1737493,45.0672698],[11.1736576,45.0661913],[11.1743992,45.0633056],[11.1742889,45.0624076],[11.1742999,45.060688],[11.1741714,45.0599793],[11.1741857,45.0590159],[11.175073,45.059305],[11.1752797,45.0600662],[11.1764137,45.0604947],[11.178564,45.0609308],[11.1811285,45.0612329],[11.1833716,45.0611],[11.1855951,45.0607874],[11.1877915,45.0607633],[11.1914917,45.0608724],[11.2014492,45.0602037],[11.2012536,45.0597393],[11.2020226,45.059486],[11.2069469,45.0584502],[11.2109004,45.0580884],[11.215672,45.0565471],[11.2201352,45.0539095],[11.2278867,45.047705],[11.2288563,45.0487426],[11.2296824,45.0510381],[11.2297104,45.0531295],[11.2283703,45.0529566],[11.2284047,45.0543017],[11.2277129,45.0543404],[11.2281119,45.0563741],[11.2267439,45.0564008],[11.2267188,45.0562123],[11.2257482,45.0559414],[11.2252153,45.0559518],[11.2255378,45.059222],[11.2247291,45.0599182],[11.2243925,45.05995],[11.2236493,45.06096],[11.2238092,45.0609569],[11.2240856,45.0621235],[11.2240662,45.0625397],[11.224463,45.0626832],[11.2259129,45.0629322],[11.2262204,45.0630648],[11.2280866,45.0644146],[11.2276752,45.0680142],[11.2280177,45.0681335],[11.227538,45.0695164],[11.2275295,45.069756],[11.2282269,45.0716831],[11.2282366,45.071935],[11.2280544,45.0722788],[11.2276111,45.0723126],[11.2279458,45.074721],[11.2299119,45.0749549],[11.2323521,45.0755418],[11.2337125,45.075664],[11.2347123,45.0756452],[11.2343645,45.0882538],[11.2340281,45.0882351],[11.2327771,45.0884589],[11.2325616,45.0884347],[11.2324717,45.0883605],[11.2322906,45.0875001],[11.2313397,45.0868257],[11.230754,45.0860681],[11.2303733,45.0857528],[11.2288051,45.0848909],[11.2266168,45.0828925],[11.2242339,45.0832808],[11.2230135,45.0837745],[11.2227681,45.0840119],[11.2224877,45.0848907],[11.2219171,45.0852104],[11.2211597,45.0860653],[11.2208654,45.0862514],[11.2201115,45.0865082],[11.2198442,45.0868741],[11.2197202,45.0873037],[11.2192036,45.0878027],[11.2187786,45.0880768],[11.2178252,45.0883754],[11.2170183,45.0889939],[11.2161852,45.0899927],[11.2151698,45.090938],[11.2142624,45.0915442],[11.2135892,45.091638],[11.2129533,45.0918307],[11.2117398,45.0926802],[11.2104333,45.0928621],[11.2104089,45.0941395],[11.2101024,45.0948812],[11.2085281,45.0948975],[11.207448,45.0955734],[11.2091928,45.0970254],[11.2087708,45.0978968],[11.2075952,45.0984323],[11.2070119,45.0984269],[11.2056995,45.0990693],[11.2050444,45.0997763],[11.2044025,45.100771],[11.2035514,45.1016846],[11.2034795,45.1018937],[11.2033618,45.1019527],[11.2029353,45.1026501],[11.204705,45.103598],[11.2052432,45.1040692],[11.2049985,45.1046404],[11.2049807,45.1053895],[11.2059211,45.1062683],[11.2059851,45.1086181],[11.2058545,45.1091942],[11.2056651,45.1094276],[11.2054775,45.1094914],[11.2020239,45.1076407],[11.1887325,45.1020362],[11.1884077,45.1015204],[11.1775087,45.097345],[11.1770553,45.0951122],[11.1768981,45.0929818],[11.1766984,45.0920764],[11.1767184,45.0892585],[11.1768164,45.0884915],[11.1773089,45.088077],[11.1781223,45.0877464],[11.1793094,45.0875527],[11.1817834,45.0881176],[11.1828816,45.0879256],[11.1853667,45.0871129],[11.1874539,45.0865328],[11.1877747,45.0862836]]]},"properties":{"type":"boundary","gemeente":"Melara"}}]}