{"type":"FeatureCollection","metadata":{"gemeente":"Melissa","slug":"melissa","generated_at":"2026-09-26T14:27:32.569215Z","total_points":10,"providers":["PosteItaliane","DHL","Amazon"],"bounds":[17.0216,39.3041,17.10798,39.3063999]},"features":[{"type":"Feature","geometry":{"type":"Point","coordinates":[17.1074891,39.30599842]},"properties":{"type":"pakketpunt","locatieNaam":"Torre Melissa","straatNaam":"Via Gattatico","straatNr":"20","vervoerder":"PosteItaliane","puntType":"postkantoor","bezettingsgraad":50,"latitude":39.30599842,"longitude":17.1074891,"canPickup":true,"canDropoff":true,"openingstijden":{"za":"08:20 - 12:45","zo":"gesloten","ma":"08:20 - 13:45","di":"11:20 - 13:45","wo":"08:20 - 13:45","do":"08:20 - 13:45","vr":"08:20 - 13:45"}}},{"type":"Feature","geometry":{"type":"Point","coordinates":[17.02161481,39.30502875]},"properties":{"type":"pakketpunt","locatieNaam":"Melissa","straatNaam":"Via Monti","straatNr":"3","vervoerder":"PosteItaliane","puntType":"postkantoor","bezettingsgraad":50,"latitude":39.30502875,"longitude":17.02161481,"canPickup":true,"canDropoff":true,"openingstijden":{"za":"08:20 - 12:45","zo":"gesloten","ma":"08:20 - 13:45","di":"11:40 - 13:45","wo":"08:20 - 13:45","do":"08:20 - 13:45","vr":"08:20 - 13:45"}}},{"type":"Feature","geometry":{"type":"Point","coordinates":[17.1076461,39.3041791]},"properties":{"type":"pakketpunt","locatieNaam":"Tabaccheria N. 2","straatNaam":"Via Claudino Crea","straatNr":"32","vervoerder":"PosteItaliane","puntType":"servicepunt","bezettingsgraad":50,"latitude":39.3041791,"longitude":17.1076461,"canPickup":true,"canDropoff":true,"openingstijden":{"za":"04:00 - 22:00","zo":"gesloten","ma":"04:00 - 22:00","di":"04:00 - 22:00","wo":"04:00 - 22:00","do":"04:00 - 22:00","vr":"04:00 - 22:00"}}},{"type":"Feature","geometry":{"type":"Point","coordinates":[17.021615,39.305029]},"properties":{"type":"pakketpunt","locatieNaam":"Ufficio Postale MELISSA","straatNaam":"VIA MONTI 3","straatNr":"","vervoerder":"DHL","puntType":"postOffice","bezettingsgraad":50,"latitude":39.305029,"longitude":17.021615,"canPickup":true,"canDropoff":true,"openingstijden":{"ma":"08:20 - 13:45","di":"08:20 - 13:45","wo":"08:20 - 13:45","do":"08:20 - 13:45","vr":"08:20 - 13:45","za":"08:20 - 12:45","zo":"gesloten"}}},{"type":"Feature","geometry":{"type":"Point","coordinates":[17.107646,39.304179]},"properties":{"type":"pakketpunt","locatieNaam":"TABACCHERIA N. 2","straatNaam":"VIA CLAUDINO CREA 32","straatNr":"","vervoerder":"DHL","puntType":"parcelShop","bezettingsgraad":50,"latitude":39.304179,"longitude":17.107646,"canPickup":true,"canDropoff":true,"openingstijden":{"ma":"04:00 - 22:00","di":"04:00 - 22:00","wo":"04:00 - 22:00","do":"04:00 - 22:00","vr":"04:00 - 22:00","za":"04:00 - 22:00","zo":"gesloten"}}},{"type":"Feature","geometry":{"type":"Point","coordinates":[17.107489,39.305998]},"properties":{"type":"pakketpunt","locatieNaam":"Ufficio Postale TORRE MELISSA","straatNaam":"VIA GATTATICO 20","straatNr":"","vervoerder":"DHL","puntType":"postOffice","bezettingsgraad":50,"latitude":39.305998,"longitude":17.107489,"canPickup":true,"canDropoff":true,"openingstijden":{"ma":"08:20 - 13:45","di":"08:20 - 13:45","wo":"08:20 - 13:45","do":"08:20 - 13:45","vr":"08:20 - 13:45","za":"08:20 - 12:45","zo":"gesloten"}}},{"type":"Feature","geometry":{"type":"Point","coordinates":[17.0216,39.305]},"properties":{"type":"pakketpunt","locatieNaam":"Ufficio Postale MELISSA","straatNaam":"VIA MONTI 3","straatNr":"","vervoerder":"Amazon","puntType":"3p","bezettingsgraad":50,"latitude":39.305,"longitude":17.0216,"canPickup":true,"canDropoff":false,"openingstijden":null}},{"type":"Feature","geometry":{"type":"Point","coordinates":[17.1074,39.3059]},"properties":{"type":"pakketpunt","locatieNaam":"Ufficio Postale TORRE MELISSA","straatNaam":"VIA GATTATICO 20","straatNr":"","vervoerder":"Amazon","puntType":"3p","bezettingsgraad":50,"latitude":39.3059,"longitude":17.1074,"canPickup":true,"canDropoff":false,"openingstijden":null}},{"type":"Feature","geometry":{"type":"Point","coordinates":[17.10798,39.3063999]},"properties":{"type":"pakketpunt","locatieNaam":"Amazon Counter - Centro posta","straatNaam":"Via Nazionale, 33","straatNr":"","vervoerder":"Amazon","puntType":"helix","bezettingsgraad":50,"latitude":39.3063999,"longitude":17.10798,"canPickup":true,"canDropoff":false,"openingstijden":null}},{"type":"Feature","geometry":{"type":"Point","coordinates":[17.1076,39.3041]},"properties":{"type":"pakketpunt","locatieNaam":"PuntoPoste TABACCHERIA N. 2","straatNaam":"VIA CLAUDINO CREA 32","straatNr":"","vervoerder":"Amazon","puntType":"3p","bezettingsgraad":50,"latitude":39.3041,"longitude":17.1076,"canPickup":true,"canDropoff":false,"openingstijden":null}},{"type":"Feature","geometry":{"type":"Polygon","coordinates":[[[16.9685846,39.2967283],[16.9714395,39.2940767],[16.9809539,39.2875385],[16.9915362,39.2813309],[17.0005209,39.2764335],[17.0007924,39.2761899],[17.0004799,39.2753931],[17.0080657,39.2694947],[17.008572,39.2693697],[17.0137124,39.2687305],[17.014853,39.2688898],[17.0153092,39.269047],[17.0171843,39.2705539],[17.0174111,39.270817],[17.017549,39.2711491],[17.0170388,39.2719714],[17.0166772,39.2723113],[17.0159249,39.2727636],[17.0145716,39.2752271],[17.0155528,39.28078],[17.0211687,39.2837722],[17.0224945,39.2842828],[17.0237513,39.2844564],[17.0269396,39.2844825],[17.0320559,39.2830347],[17.037149,39.2831351],[17.0422108,39.2837545],[17.0497949,39.2854618],[17.0624732,39.2848665],[17.063015,39.2847613],[17.0650109,39.2847705],[17.0671188,39.2851496],[17.0725226,39.2864093],[17.0734048,39.286721],[17.0749094,39.2875108],[17.075326,39.2879358],[17.0757111,39.2887768],[17.0757218,39.2898327],[17.0759042,39.2902337],[17.0761936,39.2905597],[17.0766076,39.29085],[17.0769935,39.2909715],[17.0926438,39.2921122],[17.0975456,39.2920164],[17.0994757,39.2917194],[17.1022405,39.2908243],[17.1066404,39.2901697],[17.1102395,39.2905105],[17.110825,39.2906246],[17.1103336,39.29182],[17.1101048,39.2927134],[17.1101713,39.2940444],[17.1100361,39.2943126],[17.11024,39.2970443],[17.1104673,39.2978937],[17.110306,39.2987593],[17.1104104,39.2989343],[17.1101198,39.2991576],[17.1099883,39.2996516],[17.1097894,39.3],[17.1098602,39.3004458],[17.1102749,39.3012474],[17.110356,39.3018688],[17.1104435,39.3019594],[17.1101787,39.3025194],[17.1101786,39.3027291],[17.1103486,39.3030977],[17.1100421,39.3037518],[17.1101902,39.3041501],[17.1098415,39.3046401],[17.109903,39.3050956],[17.1100504,39.3053261],[17.1098541,39.305792],[17.109812,39.3060359],[17.1098853,39.3060922],[17.1096004,39.3061362],[17.1097535,39.3082909],[17.1102371,39.3098255],[17.1104147,39.3101159],[17.1103778,39.3106526],[17.1104897,39.3108889],[17.1107196,39.3111011],[17.1112336,39.311182],[17.1112557,39.3107589],[17.1114266,39.3107329],[17.1114333,39.3114951],[17.1113805,39.3115699],[17.1111987,39.3115599],[17.1112322,39.3113629],[17.1108536,39.3114848],[17.1106736,39.3119664],[17.1107106,39.3127319],[17.1109056,39.3127869],[17.1109271,39.3128927],[17.1106384,39.3128964],[17.1105717,39.3133412],[17.1108214,39.3141331],[17.1111363,39.31406],[17.1112114,39.3141109],[17.110886,39.3142073],[17.1108714,39.3143957],[17.1111398,39.3152622],[17.111829,39.3151749],[17.1117793,39.315287],[17.1111809,39.3154105],[17.1114106,39.3163001],[17.1115065,39.3164246],[17.1117666,39.3163914],[17.1117988,39.3164641],[17.1115279,39.3166446],[17.1120983,39.3178582],[17.1120014,39.3181504],[17.1121874,39.3186683],[17.1141095,39.3222715],[17.1057647,39.3220927],[17.0707436,39.3240119],[17.0697558,39.3242562],[17.0648615,39.3258573],[17.0643834,39.3262414],[17.0641931,39.3265059],[17.0637939,39.3288476],[17.0560559,39.3377397],[17.0482063,39.340683],[17.0475936,39.3407931],[17.0462706,39.3407323],[17.0457451,39.340607],[17.037853,39.3369605],[17.0192923,39.3310276],[17.0145005,39.3301547],[17.0050614,39.3262083],[17.003333,39.3242639],[17.0025461,39.3223128],[17.0025374,39.3219087],[17.0027699,39.3215509],[17.0034264,39.3210288],[17.0044871,39.3203708],[17.0047443,39.3200517],[17.0048858,39.3197587],[17.0051517,39.31809],[17.0006698,39.3032461],[17.0004147,39.3028636],[16.9942768,39.3011205],[16.9746527,39.2968677],[16.9685846,39.2967283]]]},"properties":{"type":"boundary","gemeente":"Melissa"}}]}