{"type":"FeatureCollection","metadata":{"gemeente":"Melpignano","slug":"melpignano","generated_at":"2026-09-26T13:10:10.566795Z","total_points":2,"providers":["PosteItaliane","Amazon"],"bounds":[18.278887,40.152281,18.29353621,40.16066774]},"features":[{"type":"Feature","geometry":{"type":"Point","coordinates":[18.29353621,40.16066774]},"properties":{"type":"pakketpunt","locatieNaam":"Melpignano","straatNaam":"Via Castrignano","straatNr":"94","vervoerder":"PosteItaliane","puntType":"postkantoor","bezettingsgraad":50,"latitude":40.16066774,"longitude":18.29353621,"canPickup":true,"canDropoff":true,"openingstijden":{"ma":"gesloten","di":"gesloten","wo":"gesloten","do":"gesloten","vr":"gesloten","za":"gesloten","zo":"gesloten"}}},{"type":"Feature","geometry":{"type":"Point","coordinates":[18.278887,40.152281]},"properties":{"type":"pakketpunt","locatieNaam":"Amazon Locker - mirno","straatNaam":"ENI Station pv.55774","straatNr":"","vervoerder":"Amazon","puntType":"locker","bezettingsgraad":50,"latitude":40.152281,"longitude":18.278887,"canPickup":true,"canDropoff":false,"openingstijden":null}},{"type":"Feature","geometry":{"type":"MultiPolygon","coordinates":[[[[18.2495782,40.1148056],[18.2677012,40.1231483],[18.267701,40.1228281],[18.268869,40.1222799],[18.2686258,40.1218505],[18.26887,40.1216849],[18.2689922,40.1219269],[18.269836,40.1212689],[18.2696532,40.1206698],[18.2704073,40.1199595],[18.2698734,40.1197944],[18.2708442,40.1191225],[18.2698538,40.1182454],[18.2703053,40.117615],[18.2697431,40.1173113],[18.2716515,40.1145292],[18.2696807,40.113196],[18.2701748,40.1123978],[18.2688258,40.1117695],[18.2715519,40.1089339],[18.2707571,40.1084711],[18.2704599,40.108718],[18.2688213,40.1077643],[18.2693502,40.1071688],[18.2695128,40.1072387],[18.2698684,40.1064539],[18.2687914,40.1061508],[18.2679989,40.1057855],[18.2691509,40.1042537],[18.2683742,40.1039707],[18.2674299,40.1051949],[18.2657128,40.1044489],[18.2650422,40.1049074],[18.2637518,40.1039671],[18.264585,40.1032055],[18.2624818,40.1020553],[18.2609362,40.103714],[18.2603112,40.1033419],[18.2588026,40.1048098],[18.2562422,40.1036596],[18.2524615,40.1015402],[18.2523648,40.1015647],[18.2502784,40.1027163],[18.2487507,40.1040119],[18.249271,40.104909],[18.2502607,40.1060835],[18.2510249,40.1067658],[18.2498385,40.1084954],[18.248667,40.1081592],[18.2485284,40.1095979],[18.2485868,40.1096174],[18.2478545,40.1105928],[18.2482396,40.1105839],[18.2496024,40.1109837],[18.2501927,40.1112778],[18.2505303,40.1115412],[18.2502928,40.1123092],[18.2500622,40.112734],[18.2498935,40.1139818],[18.2495782,40.1148056]]],[[[18.2693106,40.1236683],[18.2698339,40.1239331],[18.2706846,40.1250299],[18.2722592,40.1268318],[18.272914,40.1273687],[18.272528,40.12772],[18.2721344,40.1283072],[18.2716256,40.1286156],[18.270911,40.1287109],[18.2709502,40.1295985],[18.2720942,40.1301155],[18.2734587,40.1309407],[18.2726034,40.1317401],[18.2723984,40.1316156],[18.2716801,40.1321034],[18.2714966,40.1323127],[18.2711021,40.1321336],[18.2702291,40.1332218],[18.2690953,40.1340551],[18.2697131,40.1345429],[18.2699779,40.1348699],[18.2693194,40.135555],[18.269075,40.1353111],[18.2683486,40.1354823],[18.2680778,40.1349861],[18.2678524,40.1347523],[18.2661839,40.1356633],[18.2668154,40.1367484],[18.2674222,40.1370749],[18.2685066,40.1378393],[18.2670667,40.1380369],[18.2664483,40.1387546],[18.2657991,40.1392866],[18.2655081,40.1393297],[18.2653813,40.1397747],[18.2659847,40.1398138],[18.2656295,40.1401843],[18.2654875,40.1405169],[18.2655253,40.1407513],[18.2654603,40.1408807],[18.2655521,40.1412235],[18.2654246,40.1413603],[18.26625,40.141686],[18.2670225,40.1426232],[18.268857,40.1433349],[18.2709315,40.1439834],[18.2710023,40.1439452],[18.2749111,40.1460987],[18.275726,40.1464488],[18.275835,40.146682],[18.2757929,40.1471133],[18.2759811,40.1475103],[18.2767041,40.1480325],[18.2760938,40.1486519],[18.2762685,40.1487092],[18.2750915,40.1498542],[18.2752199,40.1499551],[18.2755373,40.1498897],[18.276001,40.1501214],[18.2761615,40.149936],[18.2765432,40.1498106],[18.27696,40.1500237],[18.2767429,40.1501596],[18.2775312,40.1511574],[18.2774242,40.1512937],[18.2772206,40.1512646],[18.2768171,40.1518159],[18.2765822,40.1516667],[18.2761508,40.1522779],[18.2757358,40.1524487],[18.2765761,40.1527106],[18.2776639,40.1525462],[18.2780423,40.1526087],[18.2712616,40.1639947],[18.2720835,40.1644977],[18.2725286,40.1649571],[18.2733592,40.1651008],[18.275583,40.1659764],[18.2762874,40.1661002],[18.276622,40.1664051],[18.2767295,40.1669642],[18.2769361,40.1673695],[18.278019,40.1675834],[18.2788406,40.1682509],[18.2797849,40.1667418],[18.2799234,40.1664012],[18.2803418,40.1658923],[18.2824064,40.1663736],[18.2835485,40.1665176],[18.2841022,40.1656978],[18.2844442,40.1649285],[18.2882227,40.1686901],[18.289863,40.1676746],[18.2901659,40.167601],[18.2933667,40.1656392],[18.2937616,40.1668526],[18.2940599,40.1668001],[18.2945692,40.1664073],[18.2955166,40.1668237],[18.2965514,40.1656871],[18.2966449,40.1657281],[18.2969088,40.1655157],[18.2973339,40.1653396],[18.2981937,40.1656124],[18.2986837,40.166143],[18.2989199,40.1666949],[18.2998375,40.1656198],[18.300294,40.1646394],[18.3007506,40.1648067],[18.3017124,40.164845],[18.3020828,40.164244],[18.3025566,40.1637458],[18.3033634,40.1637363],[18.3039141,40.1635318],[18.3039911,40.1636246],[18.3043834,40.1634294],[18.3042625,40.163298],[18.3049535,40.1629167],[18.3036382,40.1620359],[18.3035368,40.1621052],[18.3029674,40.161776],[18.3033036,40.1613814],[18.3026832,40.1610715],[18.3023672,40.1606476],[18.303521,40.1598257],[18.3045268,40.1587634],[18.3053179,40.1580873],[18.3043598,40.1576259],[18.3012538,40.1553803],[18.3009816,40.1558126],[18.3005449,40.1556472],[18.3009704,40.1548648],[18.3011671,40.1549256],[18.3015283,40.1539642],[18.301455,40.1526781],[18.3005937,40.1528419],[18.2992368,40.1532588],[18.3004314,40.1507726],[18.3008121,40.150297],[18.3001952,40.1501099],[18.2982245,40.149738],[18.2981378,40.1496271],[18.296905,40.1492691],[18.2958977,40.1487502],[18.2957854,40.1483984],[18.2949985,40.1476598],[18.2956581,40.1471637],[18.2951779,40.1467273],[18.2967315,40.1458304],[18.2955396,40.1450062],[18.2950065,40.1453588],[18.2943417,40.1449376],[18.2944974,40.1446903],[18.2937248,40.1445026],[18.2941282,40.1426789],[18.2925458,40.1423217],[18.29159,40.1427156],[18.2910395,40.1421458],[18.2914858,40.1415742],[18.2915112,40.1412116],[18.2917001,40.1410127],[18.290814,40.1404369],[18.2917256,40.1396723],[18.2899938,40.1386516],[18.2902648,40.1382825],[18.2912812,40.1380493],[18.2920266,40.1379975],[18.2921198,40.1371298],[18.2910441,40.1364499],[18.2922214,40.1355628],[18.2908577,40.1347792],[18.2891636,40.1363641],[18.2887428,40.1371209],[18.2888529,40.1371791],[18.2885734,40.1379691],[18.2881075,40.1379044],[18.2880747,40.1369563],[18.2843731,40.1353063],[18.2825658,40.1372157],[18.2813344,40.1382007],[18.2808734,40.1383833],[18.2808056,40.139483],[18.2783107,40.1379375],[18.277558,40.1387144],[18.2761169,40.1382827],[18.2743963,40.1372674],[18.2747835,40.1367824],[18.2744904,40.1365682],[18.2749122,40.1362173],[18.2750735,40.1363036],[18.2752724,40.1361146],[18.2743314,40.1355185],[18.2746433,40.1352266],[18.2732023,40.1344427],[18.2729047,40.1344322],[18.2722211,40.1348084],[18.2717214,40.1344141],[18.2757146,40.1313478],[18.2762544,40.1303793],[18.2761709,40.1303411],[18.2762838,40.1302055],[18.2760687,40.1300945],[18.2762408,40.1299095],[18.2747109,40.1289087],[18.2730595,40.1274657],[18.273552,40.1273628],[18.2742776,40.1270007],[18.2746994,40.1264486],[18.2746305,40.1259144],[18.2740444,40.1256976],[18.2746527,40.1246637],[18.273467,40.1242118],[18.2738223,40.1237109],[18.2743146,40.1233887],[18.2708559,40.1220879],[18.2704568,40.1221187],[18.2702664,40.1226972],[18.2699884,40.1230969],[18.2693106,40.1236683]]]]},"properties":{"type":"boundary","gemeente":"Melpignano"}}]}