{"type":"FeatureCollection","metadata":{"gemeente":"Millesimo","slug":"millesimo","generated_at":"2026-09-26T14:27:33.503798Z","total_points":17,"providers":["PosteItaliane","DPD","InPost","GLS","DHL","Amazon","FedEx"],"bounds":[8.2056488,44.3631,8.207763,44.364946]},"features":[{"type":"Feature","geometry":{"type":"Point","coordinates":[8.20730528,44.36317573]},"properties":{"type":"pakketpunt","locatieNaam":"Tabaccheria N. 4","straatNaam":"Piazza Italia","straatNr":"108","vervoerder":"PosteItaliane","puntType":"servicepunt","bezettingsgraad":50,"latitude":44.36317573,"longitude":8.20730528,"canPickup":true,"canDropoff":true,"openingstijden":{"za":"08:30 - 19:30","zo":"08:00 - 12:00","ma":"07:30 - 19:30","di":"07:30 - 19:30","wo":"07:30 - 19:30","do":"07:30 - 19:30","vr":"07:30 - 19:30"}}},{"type":"Feature","geometry":{"type":"Point","coordinates":[8.2059583,44.3643279]},"properties":{"type":"pakketpunt","locatieNaam":"Tabaccheria N. 1","straatNaam":"Piazza Italia","straatNr":"8","vervoerder":"PosteItaliane","puntType":"servicepunt","bezettingsgraad":50,"latitude":44.3643279,"longitude":8.2059583,"canPickup":true,"canDropoff":true,"openingstijden":{"za":"06:45 - 20:00","zo":"09:00 - 12:30","ma":"06:45 - 20:00","di":"06:45 - 20:00","wo":"06:45 - 20:00","do":"06:45 - 20:00","vr":"06:45 - 20:00"}}},{"type":"Feature","geometry":{"type":"Point","coordinates":[8.2065582,44.36468845]},"properties":{"type":"pakketpunt","locatieNaam":"Millesimo","straatNaam":"Via Dei Partigiani","straatNr":"7","vervoerder":"PosteItaliane","puntType":"postkantoor","bezettingsgraad":50,"latitude":44.36468845,"longitude":8.2065582,"canPickup":true,"canDropoff":true,"openingstijden":{"za":"08:20 - 12:35","zo":"gesloten","ma":"08:20 - 13:35","di":"08:20 - 13:35","wo":"08:20 - 13:35","do":"08:20 - 13:35","vr":"08:20 - 13:35"}}},{"type":"Feature","geometry":{"type":"Point","coordinates":[8.20565953,44.36493167]},"properties":{"type":"pakketpunt","locatieNaam":"Un Mondo A Colori","straatNaam":"VIA GARIBALDI","straatNr":"16","vervoerder":"DPD","puntType":"pickup_point","bezettingsgraad":50,"latitude":44.36493167,"longitude":8.20565953,"canPickup":true,"canDropoff":true,"openingstijden":{"ma":"gesloten","di":"07:30 - 12:30, 15:30 - 19:00","wo":"07:30 - 12:30, 15:30 - 19:00","do":"07:30 - 12:30, 15:30 - 19:00","vr":"07:30 - 12:30, 15:30 - 19:00","za":"08:30 - 12:30","zo":"gesloten"}}},{"type":"Feature","geometry":{"type":"Point","coordinates":[8.20721,44.36332]},"properties":{"type":"pakketpunt","locatieNaam":"InPost Point","straatNaam":"Piazza Italia","straatNr":"108","vervoerder":"InPost","puntType":"servicepunt","bezettingsgraad":50,"latitude":44.36332,"longitude":8.20721,"canPickup":true,"canDropoff":true,"openingstijden":"Lun-Ven: 06:30 - 19:30 Sab: 08:00 - 19:30 Dom: 08:00 - 12:30"}},{"type":"Feature","geometry":{"type":"Point","coordinates":[8.2071797,44.363175]},"properties":{"type":"pakketpunt","locatieNaam":"TABACCHERIA NEGRI","straatNaam":"Piazza Italia","straatNr":"108","vervoerder":"GLS","puntType":"parcel_shop","bezettingsgraad":50,"latitude":44.363175,"longitude":8.2071797,"canPickup":true,"canDropoff":true,"openingstijden":"za: 08:00 - 19:30; zo: 08:00 - 12:00"}},{"type":"Feature","geometry":{"type":"Point","coordinates":[8.2056488,44.3649077]},"properties":{"type":"pakketpunt","locatieNaam":"UN MONDO A COLORI","straatNaam":"Via Garibaldi","straatNr":"16","vervoerder":"GLS","puntType":"parcel_shop","bezettingsgraad":50,"latitude":44.3649077,"longitude":8.2056488,"canPickup":true,"canDropoff":true,"openingstijden":"za: 08:30 - 13:00; di: 07:30 - 12:30, 15:30 - 19:00"}},{"type":"Feature","geometry":{"type":"Point","coordinates":[8.205958,44.364328]},"properties":{"type":"pakketpunt","locatieNaam":"TABACCHERIA N. 1","straatNaam":"PIAZZA ITALIA 8","straatNr":"","vervoerder":"DHL","puntType":"parcelShop","bezettingsgraad":50,"latitude":44.364328,"longitude":8.205958,"canPickup":true,"canDropoff":true,"openingstijden":{"ma":"06:45 - 20:00","di":"06:45 - 20:00","wo":"06:45 - 20:00","do":"06:45 - 20:00","vr":"06:45 - 20:00","za":"06:45 - 20:00","zo":"09:00 - 12:30"}}},{"type":"Feature","geometry":{"type":"Point","coordinates":[8.206558,44.364688]},"properties":{"type":"pakketpunt","locatieNaam":"Ufficio Postale MILLESIMO","straatNaam":"VIA DEI PARTIGIANI 7","straatNr":"","vervoerder":"DHL","puntType":"postOffice","bezettingsgraad":50,"latitude":44.364688,"longitude":8.206558,"canPickup":true,"canDropoff":true,"openingstijden":{"ma":"08:20 - 13:35","di":"08:20 - 13:35","wo":"08:20 - 13:35","do":"08:20 - 13:35","vr":"08:20 - 13:35","za":"08:20 - 12:35","zo":"gesloten"}}},{"type":"Feature","geometry":{"type":"Point","coordinates":[8.207305,44.363176]},"properties":{"type":"pakketpunt","locatieNaam":"TABACCHERIA N. 4","straatNaam":"PIAZZA ITALIA 108","straatNr":"","vervoerder":"DHL","puntType":"parcelShop","bezettingsgraad":50,"latitude":44.363176,"longitude":8.207305,"canPickup":true,"canDropoff":true,"openingstijden":{"ma":"07:30 - 19:30","di":"07:30 - 19:30","wo":"07:30 - 19:30","do":"07:30 - 19:30","vr":"07:30 - 19:30","za":"08:30 - 19:30","zo":"08:00 - 12:00"}}},{"type":"Feature","geometry":{"type":"Point","coordinates":[8.207763,44.364946]},"properties":{"type":"pakketpunt","locatieNaam":"LIBRIDEA","straatNaam":"Via Della Fornace, 62-76","straatNr":"","vervoerder":"DHL","puntType":"parcelShop","bezettingsgraad":50,"latitude":44.364946,"longitude":8.207763,"canPickup":false,"canDropoff":true,"openingstijden":{"ma":"09:00 - 19:00","di":"09:00 - 19:00","wo":"09:00 - 19:00","do":"09:00 - 19:00","vr":"09:00 - 19:00","za":"gesloten","zo":"gesloten"}}},{"type":"Feature","geometry":{"type":"Point","coordinates":[8.20655,44.3646]},"properties":{"type":"pakketpunt","locatieNaam":"Ufficio Postale MILLESIMO","straatNaam":"VIA DEI PARTIGIANI 7","straatNr":"","vervoerder":"Amazon","puntType":"3p","bezettingsgraad":50,"latitude":44.3646,"longitude":8.20655,"canPickup":true,"canDropoff":false,"openingstijden":null}},{"type":"Feature","geometry":{"type":"Point","coordinates":[8.20565952883606,44.3649316689214]},"properties":{"type":"pakketpunt","locatieNaam":"Amazon Counter (fermopoint)","straatNaam":"Un Mondo A Colori","straatNr":"","vervoerder":"Amazon","puntType":"helix","bezettingsgraad":50,"latitude":44.3649316689214,"longitude":8.20565952883606,"canPickup":true,"canDropoff":false,"openingstijden":null}},{"type":"Feature","geometry":{"type":"Point","coordinates":[8.2073,44.3631]},"properties":{"type":"pakketpunt","locatieNaam":"PuntoPoste TABACCHERIA N. 4","straatNaam":"PIAZZA ITALIA 108","straatNr":"","vervoerder":"Amazon","puntType":"3p","bezettingsgraad":50,"latitude":44.3631,"longitude":8.2073,"canPickup":true,"canDropoff":false,"openingstijden":null}},{"type":"Feature","geometry":{"type":"Point","coordinates":[8.20595,44.3643]},"properties":{"type":"pakketpunt","locatieNaam":"PuntoPoste TABACCHERIA N. 1","straatNaam":"PIAZZA ITALIA 8","straatNr":"","vervoerder":"Amazon","puntType":"3p","bezettingsgraad":50,"latitude":44.3643,"longitude":8.20595,"canPickup":true,"canDropoff":false,"openingstijden":null}},{"type":"Feature","geometry":{"type":"Point","coordinates":[8.207202477463564,44.36312382437703]},"properties":{"type":"pakketpunt","locatieNaam":"FedEx OnSite","straatNaam":"PIAZZA ITALIA 108","straatNr":"","vervoerder":"FedEx","puntType":"servicepunt","bezettingsgraad":50,"latitude":44.36312382437703,"longitude":8.207202477463564,"canPickup":true,"canDropoff":true,"openingstijden":{"ma":"06:30 - 19:30","di":"06:30 - 19:30","wo":"06:30 - 19:30","do":"06:30 - 19:30","vr":"06:30 - 19:30","za":"07:30 - 19:30","zo":"08:00 - 12:30"}}},{"type":"Feature","geometry":{"type":"Point","coordinates":[8.205653262268434,44.36490289859019]},"properties":{"type":"pakketpunt","locatieNaam":"FedEx OnSite","straatNaam":"Via Garibaldi, 16","straatNr":"","vervoerder":"FedEx","puntType":"servicepunt","bezettingsgraad":50,"latitude":44.36490289859019,"longitude":8.205653262268434,"canPickup":true,"canDropoff":true,"openingstijden":{"ma":"gesloten","di":"07:30 - 12:30, 15:30 - 19:00","wo":"07:30 - 12:30, 15:30 - 19:00","do":"07:30 - 12:30, 15:30 - 19:00","vr":"07:30 - 12:30, 15:30 - 19:00","za":"08:30 - 13:00","zo":"gesloten"}}},{"type":"Feature","geometry":{"type":"Polygon","coordinates":[[[8.1773735,44.3346715],[8.1782933,44.3345168],[8.1786839,44.3345662],[8.1793653,44.3341764],[8.1799218,44.3343026],[8.1798452,44.3350601],[8.1800707,44.3353252],[8.1800403,44.3361899],[8.1801731,44.336612],[8.1804959,44.3371063],[8.1815935,44.3375251],[8.1829055,44.3385378],[8.1836222,44.3387475],[8.183985,44.3392786],[8.1840944,44.3396298],[8.1846526,44.3404131],[8.1855344,44.341244],[8.185698,44.3415678],[8.1857239,44.3419903],[8.1860384,44.3422219],[8.1858666,44.3425209],[8.1859266,44.3429532],[8.1857453,44.343451],[8.1858706,44.3437726],[8.1857175,44.3441299],[8.1857149,44.3446078],[8.1854563,44.3451923],[8.1850566,44.3457778],[8.1850683,44.3462429],[8.1845917,44.3473645],[8.1846286,44.3476545],[8.184866,44.3479682],[8.1847006,44.3484879],[8.1849278,44.3488319],[8.1855595,44.3490113],[8.1864544,44.349042],[8.1873046,44.3494054],[8.187907,44.3499194],[8.1882074,44.3500379],[8.1885385,44.3503067],[8.1888467,44.3507902],[8.1887046,44.3512491],[8.1887934,44.351494],[8.189062,44.3517067],[8.1896051,44.3519367],[8.1902055,44.3526283],[8.1904424,44.352595],[8.1905592,44.3527394],[8.1905037,44.3530424],[8.1902975,44.3532642],[8.1903416,44.353454],[8.1904501,44.3535216],[8.1908957,44.3535339],[8.1910064,44.3536347],[8.1912046,44.3544568],[8.1919493,44.3555083],[8.1921627,44.3559286],[8.1925737,44.3561809],[8.1926131,44.3566379],[8.1934138,44.3564473],[8.1934359,44.3570108],[8.1936964,44.3568748],[8.1941579,44.3568224],[8.1942243,44.3577578],[8.1941425,44.3579646],[8.1943128,44.3581887],[8.1943412,44.3583711],[8.1946251,44.3586286],[8.1947617,44.3589602],[8.1958548,44.3602592],[8.1959345,44.3605287],[8.1961638,44.3608617],[8.1975629,44.3619462],[8.1972011,44.3622213],[8.1972319,44.3623563],[8.197408,44.3624739],[8.1972736,44.3629724],[8.1971943,44.3630196],[8.1972658,44.3631933],[8.1963805,44.363837],[8.1956471,44.3647038],[8.1960828,44.3649244],[8.1962924,44.3651818],[8.1966417,44.3650395],[8.1965061,44.365327],[8.19631,44.3654553],[8.1965904,44.3657622],[8.1968978,44.3658489],[8.1965147,44.3661695],[8.1957168,44.3665766],[8.1964209,44.3670206],[8.1974059,44.367826],[8.1973206,44.3683373],[8.1970384,44.3687468],[8.196993,44.3692632],[8.1976158,44.3701558],[8.1982812,44.3706069],[8.1986394,44.3707457],[8.1985758,44.3715144],[8.1981287,44.372958],[8.1980041,44.3740143],[8.1978791,44.3744099],[8.1972622,44.3754143],[8.1966688,44.376022],[8.1959371,44.3770816],[8.1952526,44.3777012],[8.1948935,44.3783171],[8.1948819,44.3786659],[8.1949676,44.3789167],[8.1952754,44.379265],[8.1958127,44.3795303],[8.1966512,44.3797277],[8.198358,44.3799056],[8.1988772,44.3801509],[8.1995542,44.3801816],[8.200619,44.3800166],[8.2013025,44.3798035],[8.2025835,44.3791033],[8.2035943,44.379605],[8.203658,44.3793967],[8.2038264,44.3792493],[8.2038797,44.3789923],[8.2045646,44.3786966],[8.2048817,44.378314],[8.2059611,44.3774868],[8.2063693,44.3769035],[8.2072974,44.376815],[8.2084606,44.3761738],[8.2101107,44.3759829],[8.2101937,44.3757909],[8.2101481,44.375613],[8.2105702,44.375244],[8.2108273,44.3745324],[8.2114029,44.3741705],[8.2116606,44.3738177],[8.2125149,44.3730534],[8.2126207,44.3728188],[8.2126181,44.3724514],[8.2137196,44.3710612],[8.2137846,44.3707579],[8.2144637,44.3702871],[8.2148291,44.3699066],[8.215023,44.3695497],[8.2171088,44.3683651],[8.2180323,44.3679712],[8.2187006,44.3678548],[8.2198094,44.3674941],[8.2206081,44.3670064],[8.2208061,44.3665647],[8.220808,44.3662932],[8.22107,44.3657758],[8.2211665,44.364734],[8.2215214,44.3640833],[8.2220827,44.3636217],[8.2228048,44.3632874],[8.2231493,44.3630226],[8.2237561,44.3627933],[8.2241302,44.3623186],[8.2243294,44.3616506],[8.2249193,44.3610904],[8.2255185,44.3607083],[8.2252622,44.3606012],[8.2254161,44.3603993],[8.2254291,44.3601797],[8.2257662,44.3600051],[8.2261809,44.3600659],[8.2261744,44.3592063],[8.2262482,44.3588335],[8.2265002,44.3585541],[8.2271501,44.3581502],[8.2270317,44.3580531],[8.2271615,44.3576443],[8.2276036,44.3573131],[8.2276838,44.3570594],[8.2275998,44.3564438],[8.2286727,44.3555793],[8.2292203,44.3553627],[8.2294295,44.3548642],[8.2295728,44.3540349],[8.2297165,44.3536879],[8.2295502,44.3531801],[8.2295708,44.3528947],[8.2291445,44.3526404],[8.2284116,44.3524368],[8.2272888,44.3525026],[8.2259127,44.3528385],[8.2251231,44.3526453],[8.223959,44.3512767],[8.2239384,44.3511722],[8.2240768,44.3511264],[8.22407,44.3510129],[8.2243685,44.350707],[8.2244157,44.3504375],[8.2242696,44.3499967],[8.2238425,44.349495],[8.2238376,44.3493552],[8.223966,44.3492939],[8.2243068,44.3493695],[8.224946,44.3496336],[8.2251945,44.3495763],[8.2252754,44.3494981],[8.2252837,44.3491737],[8.2255438,44.3487912],[8.2264215,44.3485654],[8.2266534,44.3483963],[8.2269555,44.3483672],[8.2270645,44.3479274],[8.2272782,44.3476625],[8.2274347,44.3471268],[8.227277,44.3468813],[8.2273189,44.3467517],[8.2270355,44.3458751],[8.2269992,44.3443648],[8.2258837,44.344208],[8.2253385,44.3442897],[8.2251515,44.3442182],[8.2246735,44.3442213],[8.2241183,44.3432094],[8.2238237,44.3430344],[8.2237845,44.3425353],[8.2235514,44.3423727],[8.2234263,44.3421651],[8.2233908,44.3419857],[8.2235594,44.3417308],[8.2235185,44.3416113],[8.2234064,44.3414833],[8.2230911,44.3413487],[8.2228228,44.3408198],[8.2224407,44.3404256],[8.2224207,44.3400096],[8.222501,44.3399799],[8.2214286,44.3386141],[8.2217978,44.3384502],[8.2222721,44.338372],[8.2226613,44.3381046],[8.2218168,44.3372986],[8.221154,44.3371589],[8.2207829,44.3367999],[8.2207265,44.3363898],[8.2202941,44.336464],[8.220019,44.3359902],[8.2200026,44.3357335],[8.2206317,44.3349128],[8.2207428,44.3344922],[8.2209859,44.3340521],[8.221364,44.3336182],[8.2215642,44.3332016],[8.2221665,44.3325213],[8.2227266,44.3321582],[8.2229495,44.3318825],[8.2230418,44.3315928],[8.2223473,44.3313891],[8.2211044,44.3316665],[8.2207484,44.3318375],[8.2197084,44.3319276],[8.2194461,44.3318518],[8.2186171,44.3313453],[8.2178158,44.3311362],[8.2167805,44.3310853],[8.2165509,44.3309925],[8.216622,44.3308982],[8.2180208,44.3304656],[8.2185666,44.3309044],[8.2195434,44.3313124],[8.2197152,44.3310123],[8.2193964,44.3308466],[8.2194404,44.3305442],[8.2195081,44.3304501],[8.2196938,44.3304539],[8.219444,44.3303475],[8.2182155,44.3303293],[8.2180812,44.3300118],[8.2182602,44.3296097],[8.218125,44.3288314],[8.2178936,44.3283697],[8.2179479,44.3281306],[8.2177866,44.3279105],[8.2177898,44.3277501],[8.2177115,44.3275928],[8.2171008,44.3271924],[8.2166795,44.3266964],[8.2165393,44.3263718],[8.2166016,44.3262216],[8.2162801,44.3258921],[8.2146805,44.3259216],[8.2124982,44.3254295],[8.2118631,44.3253703],[8.2113924,44.3240298],[8.2114502,44.3240107],[8.2110761,44.3239256],[8.2100221,44.3234155],[8.2098935,44.3230539],[8.209463,44.3223756],[8.2090683,44.3212363],[8.208907,44.3210699],[8.2085035,44.3209078],[8.2084939,44.3203563],[8.2087502,44.3197965],[8.2088237,44.3190025],[8.2087778,44.3186422],[8.2074957,44.3190057],[8.2068581,44.3189874],[8.205816,44.3187808],[8.2048751,44.3184029],[8.2033474,44.3180058],[8.202053,44.3178106],[8.2014094,44.3175719],[8.2006319,44.3170738],[8.1998192,44.3170293],[8.1992819,44.3176508],[8.198368,44.3181563],[8.1977292,44.3191125],[8.1975891,44.3198284],[8.1968269,44.3204037],[8.1948232,44.321305],[8.193914,44.3215369],[8.193513,44.321516],[8.1929874,44.3216579],[8.192411,44.3218518],[8.1922256,44.322126],[8.1919761,44.3222627],[8.1910708,44.322403],[8.1907892,44.3226106],[8.1901799,44.3233249],[8.1895878,44.3236349],[8.1890511,44.3241016],[8.1886771,44.3244488],[8.1885116,44.3247448],[8.1879438,44.3248849],[8.1873784,44.3252447],[8.1869805,44.3253607],[8.1866954,44.3257795],[8.1862527,44.3262192],[8.1861488,44.3266035],[8.1859582,44.3269274],[8.1848321,44.3280241],[8.1838568,44.328297],[8.183747,44.3285078],[8.1835394,44.3286176],[8.1829513,44.3286817],[8.1828625,44.3290347],[8.1819599,44.3296259],[8.1814873,44.3301297],[8.1806343,44.3305989],[8.1801719,44.3310893],[8.1801368,44.3312499],[8.1792525,44.3315771],[8.1787422,44.3320826],[8.1784057,44.3322654],[8.1782534,44.333035],[8.1776334,44.3335504],[8.1773735,44.3346715]]]},"properties":{"type":"boundary","gemeente":"Millesimo"}}]}