{"type":"FeatureCollection","metadata":{"gemeente":"Milo","slug":"milo","generated_at":"2026-09-26T13:10:11.374785Z","total_points":3,"providers":["PosteItaliane","DHL","Amazon"],"bounds":[15.11347788,37.72243,15.11666,37.73625519]},"features":[{"type":"Feature","geometry":{"type":"Point","coordinates":[15.11347788,37.73625519]},"properties":{"type":"pakketpunt","locatieNaam":"Milo","straatNaam":"Via Carlo Parisi","straatNr":"2","vervoerder":"PosteItaliane","puntType":"postkantoor","bezettingsgraad":50,"latitude":37.73625519,"longitude":15.11347788,"canPickup":true,"canDropoff":true,"openingstijden":{"za":"08:20 - 12:45","zo":"gesloten","ma":"08:20 - 13:45","di":"08:20 - 13:45","wo":"08:20 - 13:45","do":"08:20 - 13:45","vr":"08:20 - 13:45"}}},{"type":"Feature","geometry":{"type":"Point","coordinates":[15.113478,37.736255]},"properties":{"type":"pakketpunt","locatieNaam":"Ufficio Postale MILO","straatNaam":"VIA CARLO PARISI 2","straatNr":"","vervoerder":"DHL","puntType":"postOffice","bezettingsgraad":50,"latitude":37.736255,"longitude":15.113478,"canPickup":true,"canDropoff":true,"openingstijden":{"ma":"08:20 - 13:45","di":"08:20 - 13:45","wo":"08:20 - 13:45","do":"08:20 - 13:45","vr":"08:20 - 13:45","za":"08:20 - 12:45","zo":"gesloten"}}},{"type":"Feature","geometry":{"type":"Point","coordinates":[15.11666,37.72243]},"properties":{"type":"pakketpunt","locatieNaam":"Amazon Counter - I CINQUE TIGLI","straatNaam":"VIA ALCIDE DE GASPERI 2","straatNr":"","vervoerder":"Amazon","puntType":"helix","bezettingsgraad":50,"latitude":37.72243,"longitude":15.11666,"canPickup":true,"canDropoff":false,"openingstijden":null}},{"type":"Feature","geometry":{"type":"Polygon","coordinates":[[[15.04563,37.7551415],[15.0490693,37.7603838],[15.0502335,37.763775],[15.051722,37.7645904],[15.051969,37.7646271],[15.052091,37.7648859],[15.0526885,37.7650852],[15.053439,37.7654644],[15.0540449,37.7656409],[15.0541526,37.76557],[15.0556729,37.7660206],[15.055926,37.7659024],[15.056203,37.7659752],[15.0563882,37.7662018],[15.0574796,37.7665306],[15.0582049,37.7666662],[15.058425,37.7665801],[15.0598874,37.7667546],[15.0616162,37.7663383],[15.0617685,37.7664007],[15.0620707,37.7663324],[15.0625205,37.7660745],[15.0642696,37.7656305],[15.0645986,37.7652589],[15.0650896,37.7649121],[15.0650948,37.7648006],[15.065356,37.7647841],[15.0657059,37.7646354],[15.0657738,37.7646973],[15.0663069,37.7643958],[15.0665625,37.7643794],[15.0666668,37.7642754],[15.0665677,37.7641523],[15.066949,37.7640161],[15.0673721,37.7637022],[15.0687039,37.7636155],[15.0690121,37.7634834],[15.0694665,37.763471],[15.0696336,37.7633843],[15.070032,37.7634166],[15.0701507,37.7633265],[15.0711151,37.7631121],[15.0712277,37.7628531],[15.0718483,37.762625],[15.0720676,37.7622488],[15.0723691,37.762047],[15.0724123,37.7618359],[15.0728093,37.7615634],[15.0728878,37.761321],[15.0740106,37.7607458],[15.0740419,37.760465],[15.0742926,37.7602007],[15.0743443,37.7602812],[15.0747209,37.7598208],[15.0755357,37.7596681],[15.075711,37.7593793],[15.0769041,37.7590693],[15.0782726,37.7565091],[15.0785442,37.7564182],[15.0783144,37.7566908],[15.0782517,37.7569138],[15.0785836,37.7565247],[15.0800814,37.7563914],[15.0812773,37.7555911],[15.0816049,37.7555263],[15.0817981,37.7553033],[15.0827602,37.7549663],[15.0833127,37.7549108],[15.0840512,37.7546078],[15.0842235,37.7544254],[15.084796,37.754149],[15.0860425,37.7539889],[15.0865018,37.75379],[15.0865987,37.7531037],[15.0868634,37.7527716],[15.0869377,37.7524043],[15.0884024,37.7515873],[15.0887829,37.7516679],[15.0892182,37.7520242],[15.0896439,37.7519246],[15.0904197,37.7515623],[15.0920285,37.7512631],[15.0925688,37.7510581],[15.0932411,37.7513906],[15.0940108,37.7512685],[15.0948961,37.7513004],[15.0953279,37.750966],[15.0957325,37.7508133],[15.0959997,37.7502776],[15.0966306,37.7497291],[15.0967302,37.7494278],[15.0969528,37.7492834],[15.0973607,37.7487351],[15.0976911,37.7484693],[15.0977359,37.7474691],[15.0978877,37.7471925],[15.0982349,37.7473228],[15.0986712,37.747277],[15.0989024,37.747395],[15.0997475,37.747484],[15.1000635,37.7472415],[15.1002024,37.7469564],[15.1006922,37.7465383],[15.1008227,37.7461544],[15.101148,37.7459977],[15.10164,37.746264],[15.1018024,37.7462778],[15.1023479,37.7459986],[15.1031799,37.7461578],[15.1035301,37.746062],[15.103865,37.7455105],[15.1045677,37.745141],[15.1064255,37.7447203],[15.1067921,37.7449252],[15.1074343,37.7448791],[15.1076616,37.7445346],[15.1085222,37.7442326],[15.1087114,37.7438808],[15.1089118,37.7437802],[15.1093555,37.7426127],[15.1093488,37.7422909],[15.1095452,37.7419864],[15.1100313,37.7416077],[15.1108824,37.7411975],[15.1110675,37.7409289],[15.1119578,37.740503],[15.1124294,37.7401451],[15.1131105,37.7394521],[15.1136041,37.7393206],[15.1149976,37.7392505],[15.1159976,37.739059],[15.1184657,37.7390494],[15.1194545,37.7388253],[15.1209647,37.7381875],[15.1224809,37.7378131],[15.1239117,37.7377125],[15.1250992,37.7373625],[15.1267178,37.7374195],[15.1273215,37.7370601],[15.1280472,37.736813],[15.1287565,37.7368108],[15.1295102,37.7371141],[15.130013,37.7371864],[15.1320768,37.7367909],[15.133096,37.7364939],[15.1342346,37.7364547],[15.1344358,37.736338],[15.1350339,37.7355192],[15.135329,37.7352668],[15.1357474,37.7350886],[15.136198,37.7346474],[15.136654,37.7345222],[15.1371833,37.7345017],[15.1380675,37.7342295],[15.1382455,37.7342846],[15.1386728,37.7342276],[15.139216,37.7339104],[15.1408761,37.7334586],[15.1413153,37.7331364],[15.142105,37.7322787],[15.1423265,37.7315072],[15.1428455,37.7311073],[15.1429984,37.7305069],[15.1438513,37.7290962],[15.1440337,37.7289201],[15.1447311,37.7285828],[15.145415,37.7280111],[15.144987,37.7278979],[15.1449875,37.7275228],[15.1445908,37.7275357],[15.1438674,37.728149],[15.1436171,37.7279996],[15.1436448,37.7278319],[15.1437642,37.7277205],[15.143717,37.7275943],[15.1429254,37.7276333],[15.1423966,37.727365],[15.1422434,37.7274054],[15.1421311,37.7273177],[15.1417042,37.7275455],[15.1413333,37.7275047],[15.1413113,37.7272018],[15.1414119,37.7270364],[15.1414065,37.7268061],[15.1395121,37.726855],[15.1394789,37.7265093],[15.1395581,37.7262346],[15.1393301,37.7261803],[15.1391247,37.7260247],[15.1385598,37.7258974],[15.1385089,37.7257649],[15.1379933,37.7256975],[15.1376279,37.7249795],[15.1367247,37.7248363],[15.1363385,37.725057],[15.1359073,37.7251185],[15.1360344,37.7248211],[15.1362584,37.724562],[15.1365515,37.7244204],[15.1367186,37.7241973],[15.1368977,37.7241573],[15.1370042,37.7239721],[15.1368873,37.7239073],[15.1369178,37.7237077],[15.1370519,37.7235931],[15.1373899,37.7235634],[15.1374542,37.7234552],[15.1373414,37.722642],[15.1374073,37.722352],[15.1382942,37.7218596],[15.1383863,37.7216651],[15.1383546,37.7215017],[15.1374529,37.7214906],[15.1368685,37.7218186],[15.1366134,37.7218237],[15.1365731,37.7217516],[15.1367528,37.7214307],[15.1366754,37.7211791],[15.1365584,37.7210764],[15.1359026,37.7208043],[15.1352642,37.7207873],[15.1349409,37.7206964],[15.1346661,37.7206112],[15.1345239,37.7204723],[15.1341836,37.7197951],[15.1334337,37.7190897],[15.1333813,37.7180822],[15.1327444,37.7174246],[15.1320981,37.7173262],[15.1321244,37.7172578],[15.1312256,37.7169224],[15.1297497,37.7166757],[15.1293282,37.7164538],[15.1288329,37.7163239],[15.1278003,37.7157988],[15.1267773,37.7151091],[15.1266869,37.7149533],[15.1266972,37.7147698],[15.1265924,37.7146598],[15.1245995,37.7139334],[15.1237464,37.7134657],[15.1232096,37.7129962],[15.122823,37.7127934],[15.1212975,37.7121817],[15.1206719,37.7122356],[15.1201151,37.7121404],[15.1198578,37.7118858],[15.1201129,37.7114966],[15.1198112,37.7106884],[15.119627,37.7096256],[15.1184092,37.7085265],[15.1185524,37.707927],[15.1184335,37.7075642],[15.1177445,37.7066785],[15.117426,37.7058129],[15.1171105,37.7060841],[15.1165794,37.7053846],[15.1154044,37.705213],[15.1151364,37.7050799],[15.1149183,37.705098],[15.113974,37.7054582],[15.1137872,37.7058027],[15.1134965,37.7060045],[15.1134745,37.7061325],[15.1138102,37.7062829],[15.1136914,37.706727],[15.1124569,37.708301],[15.1117469,37.7088779],[15.1114759,37.7086255],[15.1112791,37.7085831],[15.1101996,37.709081],[15.1102733,37.7091963],[15.1101387,37.7092924],[15.1100507,37.7096645],[15.110075,37.7102469],[15.1097883,37.7104936],[15.1098696,37.711275],[15.1098252,37.711675],[15.1100577,37.7118851],[15.1102176,37.7124381],[15.11023,37.7127371],[15.1101304,37.7130356],[15.1094442,37.7137484],[15.1083495,37.714457],[15.1082121,37.7151243],[15.1071795,37.7158101],[15.1062702,37.717106],[15.1061544,37.7178747],[15.1049226,37.7180765],[15.1035658,37.7178941],[15.1024862,37.7179856],[15.100196,37.7177388],[15.0995336,37.717849],[15.0974938,37.7178673],[15.0973751,37.7179591],[15.0974814,37.7184885],[15.0977615,37.7188073],[15.0981593,37.7196869],[15.0980759,37.7198445],[15.0979347,37.7207889],[15.0976739,37.7211929],[15.09656,37.7221875],[15.0964508,37.722432],[15.0956398,37.7229734],[15.0954727,37.7235803],[15.0955096,37.7238603],[15.0952607,37.7239899],[15.0950918,37.7244982],[15.0950829,37.7248098],[15.094553,37.7256406],[15.0945805,37.7259536],[15.0947875,37.7262637],[15.0946085,37.7265694],[15.0943722,37.727695],[15.0943514,37.7285706],[15.0948297,37.7294125],[15.0948203,37.7304954],[15.0946288,37.7307225],[15.0945841,37.730977],[15.0943842,37.7311852],[15.0944025,37.7315574],[15.094294,37.7317052],[15.094281,37.7319047],[15.0939762,37.7320975],[15.0925524,37.7342573],[15.0924847,37.7347692],[15.0920702,37.7360497],[15.0912475,37.7375591],[15.0909151,37.7375779],[15.0894547,37.738268],[15.0890674,37.7381794],[15.0874234,37.7383227],[15.0850794,37.7387515],[15.0840181,37.7387401],[15.0838592,37.7390515],[15.0836012,37.7390661],[15.0833501,37.7393027],[15.0825913,37.7393378],[15.0818889,37.739525],[15.081691,37.7397313],[15.0815234,37.7397891],[15.0810737,37.7397511],[15.0807754,37.7404181],[15.080562,37.7405812],[15.0787803,37.7405558],[15.0787378,37.7408226],[15.0785022,37.741285],[15.0782049,37.7415965],[15.0776928,37.742691],[15.0772099,37.743055],[15.07688,37.7431168],[15.0758472,37.7439479],[15.0754288,37.7440031],[15.0743116,37.7438617],[15.0739261,37.7437255],[15.0736041,37.7434085],[15.0732861,37.7432677],[15.0723908,37.7430691],[15.0721864,37.7431962],[15.07174,37.7444225],[15.0712894,37.7453712],[15.0702986,37.7455894],[15.0697933,37.7461597],[15.0693548,37.7458395],[15.0685246,37.74584],[15.0680619,37.7471963],[15.0671807,37.7477226],[15.0654912,37.7501634],[15.0637364,37.7508951],[15.063405,37.751229],[15.0630529,37.7513566],[15.0607742,37.7516226],[15.060324,37.7518908],[15.0599524,37.7519736],[15.0538711,37.7526941],[15.0533377,37.7525407],[15.0523485,37.7526112],[15.0512885,37.7523884],[15.0509263,37.7521276],[15.0503644,37.7522488],[15.0498815,37.7526676],[15.0490207,37.7538388],[15.0479453,37.7545992],[15.04563,37.7551415]]]},"properties":{"type":"boundary","gemeente":"Milo"}}]}