{"type":"FeatureCollection","metadata":{"gemeente":"Minturno","slug":"minturno","generated_at":"2026-09-26T13:10:11.464930Z","total_points":77,"providers":["PosteItaliane","DPD","InPost","GLS","DHL","Amazon"],"bounds":[13.6869013,41.242295,13.76343909,41.28828121]},"features":[{"type":"Feature","geometry":{"type":"Point","coordinates":[13.71296562,41.25468642]},"properties":{"type":"pakketpunt","locatieNaam":"Scauri","straatNaam":"Via Don Angelo Di Giorgio","straatNr":"22","vervoerder":"PosteItaliane","puntType":"postkantoor","bezettingsgraad":50,"latitude":41.25468642,"longitude":13.71296562,"canPickup":true,"canDropoff":true,"openingstijden":{"za":"08:20 - 12:35","zo":"gesloten","ma":"08:20 - 19:05","di":"08:20 - 19:05","wo":"08:20 - 19:05","do":"08:20 - 19:05","vr":"08:20 - 19:05"}}},{"type":"Feature","geometry":{"type":"Point","coordinates":[13.74539267,41.26287707]},"properties":{"type":"pakketpunt","locatieNaam":"Minturno","straatNaam":"Via Principe Di Piemonte","straatNr":"1","vervoerder":"PosteItaliane","puntType":"postkantoor","bezettingsgraad":50,"latitude":41.26287707,"longitude":13.74539267,"canPickup":true,"canDropoff":true,"openingstijden":{"za":"08:20 - 12:35","zo":"gesloten","ma":"08:20 - 19:05","di":"08:20 - 19:05","wo":"08:20 - 19:05","do":"08:20 - 19:05","vr":"08:20 - 19:05"}}},{"type":"Feature","geometry":{"type":"Point","coordinates":[13.73995492,41.28828121]},"properties":{"type":"pakketpunt","locatieNaam":"Santa Maria Infante","straatNaam":"Via Tuoro","straatNr":"20","vervoerder":"PosteItaliane","puntType":"postkantoor","bezettingsgraad":50,"latitude":41.28828121,"longitude":13.73995492,"canPickup":true,"canDropoff":true,"openingstijden":{"za":"gesloten","zo":"gesloten","ma":"08:20 - 13:45","di":"gesloten","wo":"08:20 - 13:45","do":"gesloten","vr":"08:20 - 13:45"}}},{"type":"Feature","geometry":{"type":"Point","coordinates":[13.73849283,41.24935443]},"properties":{"type":"pakketpunt","locatieNaam":"Marina Di Minturno","straatNaam":"Via Appia","straatNr":"940","vervoerder":"PosteItaliane","puntType":"postkantoor","bezettingsgraad":50,"latitude":41.24935443,"longitude":13.73849283,"canPickup":true,"canDropoff":true,"openingstijden":{"za":"08:20 - 12:35","zo":"gesloten","ma":"08:20 - 13:35","di":"08:20 - 13:35","wo":"08:20 - 13:35","do":"08:20 - 13:35","vr":"08:20 - 13:35"}}},{"type":"Feature","geometry":{"type":"Point","coordinates":[13.73977691,41.24912057]},"properties":{"type":"pakketpunt","locatieNaam":"Tabaccheria N. 13","straatNaam":"Via Appia","straatNr":"1531","vervoerder":"PosteItaliane","puntType":"servicepunt","bezettingsgraad":50,"latitude":41.24912057,"longitude":13.73977691,"canPickup":true,"canDropoff":true,"openingstijden":{"za":"07:00 - 13:00, 15:30 - 19:30","zo":"gesloten","ma":"07:00 - 13:00, 15:30 - 19:30","di":"07:00 - 13:00, 15:30 - 19:30","wo":"07:00 - 13:00, 15:30 - 19:30","do":"07:00 - 13:00, 15:30 - 19:30","vr":"07:00 - 13:00, 15:30 - 19:30"}}},{"type":"Feature","geometry":{"type":"Point","coordinates":[13.71214609,41.25410023]},"properties":{"type":"pakketpunt","locatieNaam":"Tabaccheria N. 17","straatNaam":"Via Marconi Guglielmo","straatNr":"21","vervoerder":"PosteItaliane","puntType":"servicepunt","bezettingsgraad":50,"latitude":41.25410023,"longitude":13.71214609,"canPickup":true,"canDropoff":true,"openingstijden":{"za":"08:00 - 13:00, 16:00 - 20:00","zo":"gesloten","ma":"08:00 - 13:00, 16:00 - 20:00","di":"08:00 - 13:00, 16:00 - 20:00","wo":"08:00 - 13:00, 16:00 - 20:00","do":"08:00 - 13:00, 16:00 - 20:00","vr":"08:00 - 13:00, 16:00 - 20:00"}}},{"type":"Feature","geometry":{"type":"Point","coordinates":[13.7543261,41.25925544]},"properties":{"type":"pakketpunt","locatieNaam":"Le 3c Edicola","straatNaam":"Via Per Castelforte","straatNr":"188","vervoerder":"PosteItaliane","puntType":"servicepunt","bezettingsgraad":50,"latitude":41.25925544,"longitude":13.7543261,"canPickup":true,"canDropoff":true,"openingstijden":{"za":"07:30 - 12:30, 16:00 - 19:00","zo":"08:00 - 12:00","ma":"07:30 - 12:30, 16:00 - 19:00","di":"07:30 - 12:30, 16:00 - 19:00","wo":"07:30 - 12:30, 16:00 - 19:00","do":"07:00 - 12:30, 16:00 - 19:00","vr":"07:30 - 12:30, 16:00 - 19:00"}}},{"type":"Feature","geometry":{"type":"Point","coordinates":[13.71627518,41.25461936]},"properties":{"type":"pakketpunt","locatieNaam":"Az Ufficio","straatNaam":"Via Appia","straatNr":"1047","vervoerder":"PosteItaliane","puntType":"servicepunt","bezettingsgraad":50,"latitude":41.25461936,"longitude":13.71627518,"canPickup":true,"canDropoff":true,"openingstijden":{"za":"08:00 - 13:00, 16:00 - 20:00","zo":"gesloten","ma":"08:00 - 13:00, 16:00 - 20:00","di":"08:00 - 13:00, 16:00 - 20:00","wo":"08:00 - 13:00, 16:00 - 20:00","do":"08:00 - 13:00, 16:00 - 20:00","vr":"08:00 - 13:00, 16:00 - 20:00"}}},{"type":"Feature","geometry":{"type":"Point","coordinates":[13.70970538,41.25600154]},"properties":{"type":"pakketpunt","locatieNaam":"Tabaccheria N. 16","straatNaam":"Via Appia","straatNr":"440","vervoerder":"PosteItaliane","puntType":"servicepunt","bezettingsgraad":50,"latitude":41.25600154,"longitude":13.70970538,"canPickup":true,"canDropoff":true,"openingstijden":{"za":"07:30 - 13:00, 16:30 - 20:00","zo":"gesloten","ma":"07:30 - 13:00, 16:30 - 20:00","di":"07:30 - 13:00, 16:30 - 20:00","wo":"07:30 - 13:00, 16:30 - 20:00","do":"07:30 - 13:00, 16:30 - 20:00","vr":"07:30 - 13:00, 16:30 - 20:00"}}},{"type":"Feature","geometry":{"type":"Point","coordinates":[13.75756405,41.25940316]},"properties":{"type":"pakketpunt","locatieNaam":"Tabacchi - Minturno","straatNaam":"Via Per Castelforte","straatNr":"85","vervoerder":"PosteItaliane","puntType":"servicepunt","bezettingsgraad":50,"latitude":41.25940316,"longitude":13.75756405,"canPickup":true,"canDropoff":true,"openingstijden":{"za":"07:30 - 13:30, 16:00 - 20:00","zo":"gesloten","ma":"07:30 - 13:30, 16:00 - 20:00","di":"07:30 - 13:30, 16:00 - 20:00","wo":"07:30 - 13:30, 16:00 - 20:00","do":"07:30 - 13:30, 16:00 - 20:00","vr":"07:30 - 13:30, 16:00 - 20:00"}}},{"type":"Feature","geometry":{"type":"Point","coordinates":[13.70468551,41.25738113]},"properties":{"type":"pakketpunt","locatieNaam":"Cartoleria Mister Qi","straatNaam":"Via Appia","straatNr":"447","vervoerder":"PosteItaliane","puntType":"servicepunt","bezettingsgraad":50,"latitude":41.25738113,"longitude":13.70468551,"canPickup":true,"canDropoff":true,"openingstijden":{"za":"07:45 - 13:00, 16:00 - 20:00","zo":"07:45 - 13:00, 16:00 - 20:00","ma":"07:45 - 13:00, 16:00 - 20:00","di":"07:45 - 13:00, 16:00 - 20:00","wo":"07:45 - 13:00, 16:00 - 20:00","do":"07:45 - 13:00, 16:00 - 20:00","vr":"07:45 - 13:00, 16:00 - 20:00"}}},{"type":"Feature","geometry":{"type":"Point","coordinates":[13.74027505,41.24875966]},"properties":{"type":"pakketpunt","locatieNaam":"Tabaccheria N. 9","straatNaam":"Via Appia","straatNr":"1150","vervoerder":"PosteItaliane","puntType":"servicepunt","bezettingsgraad":50,"latitude":41.24875966,"longitude":13.74027505,"canPickup":true,"canDropoff":true,"openingstijden":{"za":"08:00 - 12:30, 16:30 - 20:00","zo":"gesloten","ma":"08:00 - 12:30, 16:30 - 20:00","di":"08:00 - 12:30, 16:30 - 20:00","wo":"08:00 - 12:30, 16:30 - 20:00","do":"08:00 - 12:30, 16:30 - 20:00","vr":"08:00 - 12:30, 16:30 - 20:00"}}},{"type":"Feature","geometry":{"type":"Point","coordinates":[13.70786125,41.25663911]},"properties":{"type":"pakketpunt","locatieNaam":"Teknotrend","straatNaam":"Via Appia","straatNr":"577","vervoerder":"PosteItaliane","puntType":"servicepunt","bezettingsgraad":50,"latitude":41.25663911,"longitude":13.70786125,"canPickup":true,"canDropoff":true,"openingstijden":{"za":"09:00 - 13:00, 16:00 - 20:00","zo":"gesloten","ma":"09:00 - 13:00, 16:00 - 20:00","di":"09:00 - 13:00, 16:00 - 20:00","wo":"09:00 - 13:00, 16:00 - 20:00","do":"09:00 - 13:00, 16:00 - 20:00","vr":"09:00 - 13:00, 16:00 - 20:00"}}},{"type":"Feature","geometry":{"type":"Point","coordinates":[13.76343909,41.2678953]},"properties":{"type":"pakketpunt","locatieNaam":"Tabaccheria N. 5","straatNaam":"Corso Del Popolo","straatNr":"29","vervoerder":"PosteItaliane","puntType":"servicepunt","bezettingsgraad":50,"latitude":41.2678953,"longitude":13.76343909,"canPickup":true,"canDropoff":true,"openingstijden":{"za":"08:00 - 13:00, 16:00 - 20:00","zo":"gesloten","ma":"08:00 - 13:00, 16:00 - 20:00","di":"08:00 - 13:00, 16:00 - 20:00","wo":"08:00 - 13:00, 16:00 - 20:00","do":"08:00 - 13:00, 16:00 - 20:00","vr":"08:00 - 13:00, 16:00 - 20:00"}}},{"type":"Feature","geometry":{"type":"Point","coordinates":[13.71441016,41.25641512]},"properties":{"type":"pakketpunt","locatieNaam":"Tabaccheria N. 14","straatNaam":"Via Antonio Sebastiani","straatNr":"333","vervoerder":"PosteItaliane","puntType":"servicepunt","bezettingsgraad":50,"latitude":41.25641512,"longitude":13.71441016,"canPickup":true,"canDropoff":true,"openingstijden":{"za":"07:30 - 13:30, 16:00 - 20:00","zo":"gesloten","ma":"07:30 - 13:30, 16:00 - 20:00","di":"07:30 - 13:30, 16:00 - 20:00","wo":"07:30 - 13:30, 16:00 - 20:00","do":"07:30 - 13:30, 16:00 - 20:00","vr":"07:30 - 13:30, 16:00 - 20:00"}}},{"type":"Feature","geometry":{"type":"Point","coordinates":[13.702893,41.257793]},"properties":{"type":"pakketpunt","locatieNaam":"Cartoleria Mister QI","straatNaam":"VIA APPIA","straatNr":"447","vervoerder":"DPD","puntType":"pickup_point","bezettingsgraad":50,"latitude":41.257793,"longitude":13.702893,"canPickup":true,"canDropoff":true,"openingstijden":{"ma":"07:30 - 13:00, 16:00 - 19:30","di":"07:30 - 13:00, 16:00 - 19:30","wo":"07:30 - 13:00, 16:00 - 19:30","do":"07:30 - 13:00, 16:00 - 19:30","vr":"07:30 - 13:00, 16:00 - 19:30","za":"09:00 - 13:00, 16:30 - 19:30","zo":"gesloten"}}},{"type":"Feature","geometry":{"type":"Point","coordinates":[13.7162002,41.2545524]},"properties":{"type":"pakketpunt","locatieNaam":"Posta Privata Nazionale - Minturno","straatNaam":"VIA APPIA","straatNr":"709","vervoerder":"DPD","puntType":"pickup_point","bezettingsgraad":50,"latitude":41.2545524,"longitude":13.7162002,"canPickup":true,"canDropoff":true,"openingstijden":{"ma":"09:00 - 12:30, 16:00 - 18:00","di":"09:00 - 12:30, 16:00 - 18:00","wo":"09:00 - 12:30, 16:00 - 18:00","do":"09:00 - 12:30, 16:00 - 18:00","vr":"09:00 - 12:30, 16:00 - 18:00","za":"09:00 - 12:00","zo":"gesloten"}}},{"type":"Feature","geometry":{"type":"Point","coordinates":[13.7392742,41.2491122]},"properties":{"type":"pakketpunt","locatieNaam":"Edicola Marina","straatNaam":"VIA APPIA","straatNr":"1527","vervoerder":"DPD","puntType":"pickup_point","bezettingsgraad":50,"latitude":41.2491122,"longitude":13.7392742,"canPickup":true,"canDropoff":true,"openingstijden":{"ma":"07:00 - 13:00, 16:30 - 20:00","di":"07:00 - 13:00, 16:30 - 20:00","wo":"07:00 - 13:00, 16:30 - 20:00","do":"07:00 - 13:00, 16:30 - 20:00","vr":"07:00 - 13:00, 16:30 - 20:00","za":"07:00 - 13:00, 16:30 - 20:00","zo":"07:00 - 13:00"}}},{"type":"Feature","geometry":{"type":"Point","coordinates":[13.688737,41.2610622]},"properties":{"type":"pakketpunt","locatieNaam":"Caffè Norcia","straatNaam":"VIA APPIA","straatNr":"7","vervoerder":"DPD","puntType":"pickup_point","bezettingsgraad":50,"latitude":41.2610622,"longitude":13.688737,"canPickup":true,"canDropoff":true,"openingstijden":{"ma":"09:00 - 13:00, 16:00 - 19:00","di":"09:00 - 13:00, 16:00 - 19:00","wo":"09:00 - 13:00, 16:00 - 19:00","do":"09:00 - 13:00, 16:00 - 19:00","vr":"09:00 - 13:00, 16:00 - 19:00","za":"gesloten","zo":"gesloten"}}},{"type":"Feature","geometry":{"type":"Point","coordinates":[13.7196775712,41.2538151399]},"properties":{"type":"pakketpunt","locatieNaam":"AZ Ufficio","straatNaam":"VIA APPIA","straatNr":"1047","vervoerder":"DPD","puntType":"pickup_point","bezettingsgraad":50,"latitude":41.2538151399,"longitude":13.7196775712,"canPickup":true,"canDropoff":true,"openingstijden":{"ma":"08:00 - 13:00, 16:00 - 20:00","di":"08:00 - 13:00, 16:00 - 20:00","wo":"08:00 - 13:00, 16:00 - 20:00","do":"08:00 - 13:00, 16:00 - 20:00","vr":"08:00 - 13:00, 16:00 - 20:00","za":"08:00 - 13:00, 16:00 - 20:00","zo":"gesloten"}}},{"type":"Feature","geometry":{"type":"Point","coordinates":[13.7243977383,41.2528065783]},"properties":{"type":"pakketpunt","locatieNaam":"Il Mondo di Mary","straatNaam":"VIA APPIA","straatNr":"1233","vervoerder":"DPD","puntType":"pickup_point","bezettingsgraad":50,"latitude":41.2528065783,"longitude":13.7243977383,"canPickup":true,"canDropoff":true,"openingstijden":{"ma":"09:00 - 13:00, 16:00 - 20:00","di":"09:00 - 13:00, 16:00 - 20:00","wo":"09:00 - 13:00, 16:00 - 20:00","do":"09:00 - 13:00, 16:00 - 20:00","vr":"09:00 - 13:00, 16:00 - 20:00","za":"09:00 - 13:00","zo":"gesloten"}}},{"type":"Feature","geometry":{"type":"Point","coordinates":[13.7548697,41.2592169]},"properties":{"type":"pakketpunt","locatieNaam":"Edicola Giocattoli 3C","straatNaam":"VIA PER CASTELFORTE","straatNr":"140","vervoerder":"DPD","puntType":"pickup_point","bezettingsgraad":50,"latitude":41.2592169,"longitude":13.7548697,"canPickup":true,"canDropoff":true,"openingstijden":{"ma":"07:30 - 12:30, 16:00 - 19:00","di":"07:30 - 12:30, 16:00 - 19:00","wo":"07:30 - 12:30, 16:00 - 19:00","do":"07:30 - 12:30, 16:00 - 19:00","vr":"07:30 - 12:30, 16:00 - 19:00","za":"07:30 - 12:30, 16:00 - 19:00","zo":"08:00 - 12:00, 16:00 - 19:00"}}},{"type":"Feature","geometry":{"type":"Point","coordinates":[13.708042,41.2566]},"properties":{"type":"pakketpunt","locatieNaam":"TeknoTrend-Minturno","straatNaam":"VIA APPIA","straatNr":"577","vervoerder":"DPD","puntType":"pickup_point","bezettingsgraad":50,"latitude":41.2566,"longitude":13.708042,"canPickup":true,"canDropoff":true,"openingstijden":{"ma":"09:00 - 13:00, 16:00 - 20:30","di":"09:00 - 13:00, 16:00 - 20:30","wo":"09:00 - 13:00, 16:00 - 20:30","do":"09:00 - 13:00, 16:00 - 20:30","vr":"09:00 - 13:00, 16:00 - 20:30","za":"09:00 - 13:00, 16:00 - 20:30","zo":"gesloten"}}},{"type":"Feature","geometry":{"type":"Point","coordinates":[13.7169591,41.2544884]},"properties":{"type":"pakketpunt","locatieNaam":"Tabaccheria Barricelli","straatNaam":"VIA APPIA","straatNr":"945","vervoerder":"DPD","puntType":"pickup_point","bezettingsgraad":50,"latitude":41.2544884,"longitude":13.7169591,"canPickup":true,"canDropoff":true,"openingstijden":{"ma":"07:30 - 13:00, 16:00 - 20:00","di":"07:30 - 13:00, 16:00 - 20:00","wo":"07:30 - 13:00, 16:00 - 20:00","do":"07:30 - 13:00, 16:00 - 20:00","vr":"07:30 - 13:00, 16:00 - 20:00","za":"07:30 - 13:00, 16:00 - 20:00","zo":"07:30 - 13:00"}}},{"type":"Feature","geometry":{"type":"Point","coordinates":[13.7096857,41.2559413]},"properties":{"type":"pakketpunt","locatieNaam":"Tabacchi Corrente","straatNaam":"VIA APPIA","straatNr":"440","vervoerder":"DPD","puntType":"pickup_point","bezettingsgraad":50,"latitude":41.2559413,"longitude":13.7096857,"canPickup":true,"canDropoff":true,"openingstijden":{"ma":"07:00 - 13:00, 16:00 - 20:00","di":"07:00 - 13:00, 16:00 - 20:00","wo":"07:00 - 13:00, 16:00 - 20:00","do":"07:00 - 13:00, 16:00 - 20:00","vr":"07:00 - 13:00, 16:00 - 20:00","za":"07:00 - 13:00, 16:00 - 20:00","zo":"gesloten"}}},{"type":"Feature","geometry":{"type":"Point","coordinates":[13.71965,41.25377]},"properties":{"type":"pakketpunt","locatieNaam":"InPost Point","straatNaam":"Via Appia","straatNr":"1047","vervoerder":"InPost","puntType":"servicepunt","bezettingsgraad":50,"latitude":41.25377,"longitude":13.71965,"canPickup":true,"canDropoff":true,"openingstijden":"Lun-Sab: 08:00 - 13:00 - 16:00 - 20:00"}},{"type":"Feature","geometry":{"type":"Point","coordinates":[13.70295,41.25802]},"properties":{"type":"pakketpunt","locatieNaam":"InPost Point","straatNaam":"Via Appia","straatNr":"447","vervoerder":"InPost","puntType":"servicepunt","bezettingsgraad":50,"latitude":41.25802,"longitude":13.70295,"canPickup":true,"canDropoff":true,"openingstijden":"Lun-Sab: 07:45 - 13:00 - 16:15 - 20:00"}},{"type":"Feature","geometry":{"type":"Point","coordinates":[13.75749,41.25946]},"properties":{"type":"pakketpunt","locatieNaam":"InPost Point","straatNaam":"Via Per Castelforte","straatNr":"85","vervoerder":"InPost","puntType":"servicepunt","bezettingsgraad":50,"latitude":41.25946,"longitude":13.75749,"canPickup":true,"canDropoff":true,"openingstijden":"Lun-Sab: 07:30 - 13:30 - 15:30 - 20:00"}},{"type":"Feature","geometry":{"type":"Point","coordinates":[13.71124,41.25579]},"properties":{"type":"pakketpunt","locatieNaam":"InPost Locker","straatNaam":"Via Appia","straatNr":"709","vervoerder":"InPost","puntType":"automaat","bezettingsgraad":50,"latitude":41.25579,"longitude":13.71124,"canPickup":true,"canDropoff":true,"openingstijden":null}},{"type":"Feature","geometry":{"type":"Point","coordinates":[13.7409067,41.2492774]},"properties":{"type":"pakketpunt","locatieNaam":"Alla Mario Maniera","straatNaam":"Via Simonelli","straatNr":"5","vervoerder":"GLS","puntType":"parcel_shop","bezettingsgraad":50,"latitude":41.2492774,"longitude":13.7409067,"canPickup":true,"canDropoff":true,"openingstijden":"za: 09:00 - 13:00, 16:30 - 20:00; di: 09:00 - 13:00, 16:30 - 20:00"}},{"type":"Feature","geometry":{"type":"Point","coordinates":[13.7134146,41.2538348]},"properties":{"type":"pakketpunt","locatieNaam":"DadaWeb","straatNaam":"Via Italo Balbo","straatNr":"47","vervoerder":"GLS","puntType":"parcel_shop","bezettingsgraad":50,"latitude":41.2538348,"longitude":13.7134146,"canPickup":true,"canDropoff":true,"openingstijden":"za: 09:00 - 13:00, 16:00 - 20:00; ma: 09:00 - 13:00, 16:00 - 20:00"}},{"type":"Feature","geometry":{"type":"Point","coordinates":[13.7196883,41.2538837]},"properties":{"type":"pakketpunt","locatieNaam":"AZ UFFICIO","straatNaam":"Via Appia","straatNr":"1047","vervoerder":"GLS","puntType":"parcel_shop","bezettingsgraad":50,"latitude":41.2538837,"longitude":13.7196883,"canPickup":true,"canDropoff":true,"openingstijden":"za: 08:00 - 13:00, 16:00 - 20:00; ma: 08:00 - 13:00, 16:00 - 20:00"}},{"type":"Feature","geometry":{"type":"Point","coordinates":[13.7137393,41.2546576]},"properties":{"type":"pakketpunt","locatieNaam":"Mondadori Bookstore","straatNaam":"Via Italo Balbo","straatNr":"19","vervoerder":"GLS","puntType":"parcel_shop","bezettingsgraad":50,"latitude":41.2546576,"longitude":13.7137393,"canPickup":true,"canDropoff":true,"openingstijden":"za: 09:30 - 13:00, 16:30 - 20:00; zo: 09:30 - 13:00, 16:30 - 20:00"}},{"type":"Feature","geometry":{"type":"Point","coordinates":[13.7142266,41.2551475]},"properties":{"type":"pakketpunt","locatieNaam":"Tecnomax","straatNaam":"Via Appia","straatNr":"815","vervoerder":"GLS","puntType":"parcel_shop","bezettingsgraad":50,"latitude":41.2551475,"longitude":13.7142266,"canPickup":true,"canDropoff":true,"openingstijden":"za: 09:00 - 13:00, 16:00 - 20:00; ma: 09:00 - 13:00, 16:00 - 20:00"}},{"type":"Feature","geometry":{"type":"Point","coordinates":[13.7112061,41.2558165]},"properties":{"type":"pakketpunt","locatieNaam":"Posta Privata Nazionale","straatNaam":"Via Appia","straatNr":"709","vervoerder":"GLS","puntType":"parcel_shop","bezettingsgraad":50,"latitude":41.2558165,"longitude":13.7112061,"canPickup":true,"canDropoff":true,"openingstijden":"za: 09:00 - 12:00; ma: 09:00 - 12:30, 16:00 - 18:00"}},{"type":"Feature","geometry":{"type":"Point","coordinates":[13.7066859,41.2565344]},"properties":{"type":"pakketpunt","locatieNaam":"Tabacchi Corrente","straatNaam":"Via Appia","straatNr":"340","vervoerder":"GLS","puntType":"parcel_shop","bezettingsgraad":50,"latitude":41.2565344,"longitude":13.7066859,"canPickup":true,"canDropoff":true,"openingstijden":"za: 07:00 - 13:00, 15:30 - 20:30; zo: 07:00 - 13:00"}},{"type":"Feature","geometry":{"type":"Point","coordinates":[13.70801713,41.25667744]},"properties":{"type":"pakketpunt","locatieNaam":"Teknotrend","straatNaam":"Via Appia","straatNr":"577","vervoerder":"GLS","puntType":"parcel_shop","bezettingsgraad":50,"latitude":41.25667744,"longitude":13.70801713,"canPickup":true,"canDropoff":true,"openingstijden":"za: 09:00 - 13:00, 16:30 - 20:30; ma: 09:00 - 13:00, 16:30 - 20:30"}},{"type":"Feature","geometry":{"type":"Point","coordinates":[13.7029668,41.2579284]},"properties":{"type":"pakketpunt","locatieNaam":"Cartoleria Mister Qi","straatNaam":"Via Appia","straatNr":"447","vervoerder":"GLS","puntType":"parcel_shop","bezettingsgraad":50,"latitude":41.2579284,"longitude":13.7029668,"canPickup":true,"canDropoff":true,"openingstijden":"za: 09:00 - 13:00, 16:30 - 19:30; ma: 07:30 - 13:00, 16:00 - 19:30"}},{"type":"Feature","geometry":{"type":"Point","coordinates":[13.7548697,41.2592169]},"properties":{"type":"pakketpunt","locatieNaam":"Edicola Tre C","straatNaam":"Via Per Castelforte","straatNr":"140","vervoerder":"GLS","puntType":"parcel_shop","bezettingsgraad":50,"latitude":41.2592169,"longitude":13.7548697,"canPickup":true,"canDropoff":true,"openingstijden":"za: 07:30 - 12:30, 16:00 - 19:00; zo: 08:00 - 12:00"}},{"type":"Feature","geometry":{"type":"Point","coordinates":[13.70288,41.25777]},"properties":{"type":"pakketpunt","locatieNaam":"CARTOLERIA MISTER QI","straatNaam":"Via Appia 447","straatNr":"","vervoerder":"DHL","puntType":"parcelShop","bezettingsgraad":50,"latitude":41.25777,"longitude":13.70288,"canPickup":false,"canDropoff":true,"openingstijden":{"ma":"07:45 - 20:00","di":"07:45 - 20:00","wo":"07:45 - 20:00","do":"07:45 - 20:00","vr":"07:45 - 20:00","za":"08:45 - 20:00","zo":"gesloten"}}},{"type":"Feature","geometry":{"type":"Point","coordinates":[13.704686,41.257381]},"properties":{"type":"pakketpunt","locatieNaam":"CARTOLERIA MISTER QI","straatNaam":"VIA APPIA 447","straatNr":"","vervoerder":"DHL","puntType":"parcelShop","bezettingsgraad":50,"latitude":41.257381,"longitude":13.704686,"canPickup":true,"canDropoff":true,"openingstijden":{"ma":"07:45 - 13:00, 16:00 - 20:00","di":"07:45 - 13:00, 16:00 - 20:00","wo":"07:45 - 13:00, 16:00 - 20:00","do":"07:45 - 13:00, 16:00 - 20:00","vr":"07:45 - 13:00, 16:00 - 20:00","za":"07:45 - 13:00, 16:00 - 20:00","zo":"07:45 - 13:00, 16:00 - 20:00"}}},{"type":"Feature","geometry":{"type":"Point","coordinates":[13.707861,41.256639]},"properties":{"type":"pakketpunt","locatieNaam":"TEKNOTREND","straatNaam":"VIA APPIA 577","straatNr":"","vervoerder":"DHL","puntType":"parcelShop","bezettingsgraad":50,"latitude":41.256639,"longitude":13.707861,"canPickup":true,"canDropoff":true,"openingstijden":{"ma":"09:00 - 13:00, 16:00 - 20:00","di":"09:00 - 13:00, 16:00 - 20:00","wo":"09:00 - 13:00, 16:00 - 20:00","do":"09:00 - 13:00, 16:00 - 20:00","vr":"09:00 - 13:00, 16:00 - 20:00","za":"09:00 - 13:00, 16:00 - 20:00","zo":"gesloten"}}},{"type":"Feature","geometry":{"type":"Point","coordinates":[13.712146,41.2541]},"properties":{"type":"pakketpunt","locatieNaam":"TABACCHERIA N. 17","straatNaam":"VIA MARCONI GUGLIELMO 21","straatNr":"","vervoerder":"DHL","puntType":"parcelShop","bezettingsgraad":50,"latitude":41.2541,"longitude":13.712146,"canPickup":true,"canDropoff":true,"openingstijden":{"ma":"08:00 - 13:00, 16:00 - 20:00","di":"08:00 - 13:00, 16:00 - 20:00","wo":"08:00 - 13:00, 16:00 - 20:00","do":"08:00 - 13:00, 16:00 - 20:00","vr":"08:00 - 13:00, 16:00 - 20:00","za":"08:00 - 13:00, 16:00 - 20:00","zo":"gesloten"}}},{"type":"Feature","geometry":{"type":"Point","coordinates":[13.709705,41.256002]},"properties":{"type":"pakketpunt","locatieNaam":"TABACCHERIA N. 16","straatNaam":"VIA APPIA 440","straatNr":"","vervoerder":"DHL","puntType":"parcelShop","bezettingsgraad":50,"latitude":41.256002,"longitude":13.709705,"canPickup":true,"canDropoff":true,"openingstijden":{"ma":"07:30 - 13:00, 16:30 - 20:00","di":"07:30 - 13:00, 16:30 - 20:00","wo":"07:30 - 13:00, 16:30 - 20:00","do":"07:30 - 13:00, 16:30 - 20:00","vr":"07:30 - 13:00, 16:30 - 20:00","za":"07:30 - 13:00, 16:30 - 20:00","zo":"gesloten"}}},{"type":"Feature","geometry":{"type":"Point","coordinates":[13.709414,41.256359]},"properties":{"type":"pakketpunt","locatieNaam":"PLANETWIN365","straatNaam":"Via Appia 627 - Scauri","straatNr":"","vervoerder":"DHL","puntType":"parcelShop","bezettingsgraad":50,"latitude":41.256359,"longitude":13.709414,"canPickup":false,"canDropoff":true,"openingstijden":{"ma":"15:30 - 21:00","di":"10:30 - 21:00","wo":"10:30 - 21:00","do":"10:30 - 21:00","vr":"10:30 - 21:00","za":"10:30 - 21:00","zo":"gesloten"}}},{"type":"Feature","geometry":{"type":"Point","coordinates":[13.712966,41.254686]},"properties":{"type":"pakketpunt","locatieNaam":"Ufficio Postale SCAURI","straatNaam":"VIA DON ANGELO DI GIORGIO 22","straatNr":"","vervoerder":"DHL","puntType":"postOffice","bezettingsgraad":50,"latitude":41.254686,"longitude":13.712966,"canPickup":true,"canDropoff":true,"openingstijden":{"ma":"08:20 - 19:05","di":"08:20 - 19:05","wo":"08:20 - 19:05","do":"08:20 - 19:05","vr":"08:20 - 19:05","za":"08:20 - 12:35","zo":"gesloten"}}},{"type":"Feature","geometry":{"type":"Point","coordinates":[13.716275,41.254619]},"properties":{"type":"pakketpunt","locatieNaam":"AZ UFFICIO","straatNaam":"VIA APPIA 1047","straatNr":"","vervoerder":"DHL","puntType":"parcelShop","bezettingsgraad":50,"latitude":41.254619,"longitude":13.716275,"canPickup":true,"canDropoff":true,"openingstijden":{"ma":"08:00 - 13:00, 16:00 - 20:00","di":"08:00 - 13:00, 16:00 - 20:00","wo":"08:00 - 13:00, 16:00 - 20:00","do":"08:00 - 13:00, 16:00 - 20:00","vr":"08:00 - 13:00, 16:00 - 20:00","za":"08:00 - 13:00, 16:00 - 20:00","zo":"gesloten"}}},{"type":"Feature","geometry":{"type":"Point","coordinates":[13.71441,41.256415]},"properties":{"type":"pakketpunt","locatieNaam":"TABACCHERIA N. 14","straatNaam":"VIA ANTONIO SEBASTIANI 333","straatNr":"","vervoerder":"DHL","puntType":"parcelShop","bezettingsgraad":50,"latitude":41.256415,"longitude":13.71441,"canPickup":true,"canDropoff":true,"openingstijden":{"ma":"07:30 - 13:30, 16:00 - 20:00","di":"07:30 - 13:30, 16:00 - 20:00","wo":"07:30 - 13:30, 16:00 - 20:00","do":"07:30 - 13:30, 16:00 - 20:00","vr":"07:30 - 13:30, 16:00 - 20:00","za":"07:30 - 13:30, 16:00 - 20:00","zo":"gesloten"}}},{"type":"Feature","geometry":{"type":"Point","coordinates":[13.738493,41.249354]},"properties":{"type":"pakketpunt","locatieNaam":"Ufficio Postale MARINA DI MINTURNO","straatNaam":"VIA APPIA 940","straatNr":"","vervoerder":"DHL","puntType":"postOffice","bezettingsgraad":50,"latitude":41.249354,"longitude":13.738493,"canPickup":true,"canDropoff":true,"openingstijden":{"ma":"08:20 - 13:35","di":"08:20 - 13:35","wo":"08:20 - 13:35","do":"08:20 - 13:35","vr":"08:20 - 13:35","za":"08:20 - 12:35","zo":"gesloten"}}},{"type":"Feature","geometry":{"type":"Point","coordinates":[13.739777,41.249121]},"properties":{"type":"pakketpunt","locatieNaam":"TABACCHERIA N. 13","straatNaam":"VIA APPIA 1531","straatNr":"","vervoerder":"DHL","puntType":"parcelShop","bezettingsgraad":50,"latitude":41.249121,"longitude":13.739777,"canPickup":true,"canDropoff":true,"openingstijden":{"ma":"07:00 - 13:00, 15:30 - 19:30","di":"07:00 - 13:00, 15:30 - 19:30","wo":"07:00 - 13:00, 15:30 - 19:30","do":"07:00 - 13:00, 15:30 - 19:30","vr":"07:00 - 13:00, 15:30 - 19:30","za":"07:00 - 13:00, 15:30 - 19:30","zo":"gesloten"}}},{"type":"Feature","geometry":{"type":"Point","coordinates":[13.740275,41.24876]},"properties":{"type":"pakketpunt","locatieNaam":"TABACCHERIA N. 9","straatNaam":"VIA APPIA 1150","straatNr":"","vervoerder":"DHL","puntType":"parcelShop","bezettingsgraad":50,"latitude":41.24876,"longitude":13.740275,"canPickup":true,"canDropoff":true,"openingstijden":{"ma":"08:00 - 12:30, 16:30 - 20:00","di":"08:00 - 12:30, 16:30 - 20:00","wo":"08:00 - 12:30, 16:30 - 20:00","do":"08:00 - 12:30, 16:30 - 20:00","vr":"08:00 - 12:30, 16:30 - 20:00","za":"08:00 - 12:30, 16:30 - 20:00","zo":"gesloten"}}},{"type":"Feature","geometry":{"type":"Point","coordinates":[13.745393,41.262877]},"properties":{"type":"pakketpunt","locatieNaam":"Ufficio Postale MINTURNO","straatNaam":"VIA PRINCIPE DI PIEMONTE 1","straatNr":"","vervoerder":"DHL","puntType":"postOffice","bezettingsgraad":50,"latitude":41.262877,"longitude":13.745393,"canPickup":true,"canDropoff":true,"openingstijden":{"ma":"08:20 - 19:05","di":"08:20 - 19:05","wo":"08:20 - 19:05","do":"08:20 - 19:05","vr":"08:20 - 19:05","za":"08:20 - 12:35","zo":"gesloten"}}},{"type":"Feature","geometry":{"type":"Point","coordinates":[13.754326,41.259255]},"properties":{"type":"pakketpunt","locatieNaam":"LE 3C EDICOLA","straatNaam":"VIA PER CASTELFORTE 188","straatNr":"","vervoerder":"DHL","puntType":"parcelShop","bezettingsgraad":50,"latitude":41.259255,"longitude":13.754326,"canPickup":true,"canDropoff":true,"openingstijden":{"ma":"07:30 - 12:30, 16:00 - 19:00","di":"07:30 - 12:30, 16:00 - 19:00","wo":"07:30 - 12:30, 16:00 - 19:00","do":"07:00 - 12:30, 16:00 - 19:00","vr":"07:30 - 12:30, 16:00 - 19:00","za":"07:30 - 12:30, 16:00 - 19:00","zo":"08:00 - 12:00"}}},{"type":"Feature","geometry":{"type":"Point","coordinates":[13.757564,41.259403]},"properties":{"type":"pakketpunt","locatieNaam":"TABACCHI - MINTURNO","straatNaam":"VIA PER CASTELFORTE 85","straatNr":"","vervoerder":"DHL","puntType":"parcelShop","bezettingsgraad":50,"latitude":41.259403,"longitude":13.757564,"canPickup":true,"canDropoff":true,"openingstijden":{"ma":"07:30 - 13:30, 16:00 - 20:00","di":"07:30 - 13:30, 16:00 - 20:00","wo":"07:30 - 13:30, 16:00 - 20:00","do":"07:30 - 13:30, 16:00 - 20:00","vr":"07:30 - 13:30, 16:00 - 20:00","za":"07:30 - 13:30, 16:00 - 20:00","zo":"gesloten"}}},{"type":"Feature","geometry":{"type":"Point","coordinates":[13.763439,41.267895]},"properties":{"type":"pakketpunt","locatieNaam":"TABACCHERIA N. 5","straatNaam":"CORSO DEL POPOLO 29","straatNr":"","vervoerder":"DHL","puntType":"parcelShop","bezettingsgraad":50,"latitude":41.267895,"longitude":13.763439,"canPickup":true,"canDropoff":true,"openingstijden":{"ma":"08:00 - 13:00, 16:00 - 20:00","di":"08:00 - 13:00, 16:00 - 20:00","wo":"08:00 - 13:00, 16:00 - 20:00","do":"08:00 - 13:00, 16:00 - 20:00","vr":"08:00 - 13:00, 16:00 - 20:00","za":"08:00 - 13:00, 16:00 - 20:00","zo":"gesloten"}}},{"type":"Feature","geometry":{"type":"Point","coordinates":[13.735713,41.242295]},"properties":{"type":"pakketpunt","locatieNaam":"Amazon Counter - NON SOLO FUMO","straatNaam":"VIA Pietro fedele 190","straatNr":"","vervoerder":"Amazon","puntType":"helix","bezettingsgraad":50,"latitude":41.242295,"longitude":13.735713,"canPickup":true,"canDropoff":false,"openingstijden":null}},{"type":"Feature","geometry":{"type":"Point","coordinates":[13.7394291,41.2492244]},"properties":{"type":"pakketpunt","locatieNaam":"Amazon Counter (fermopoint)","straatNaam":"Edicola Marina","straatNr":"","vervoerder":"Amazon","puntType":"helix","bezettingsgraad":50,"latitude":41.2492244,"longitude":13.7394291,"canPickup":true,"canDropoff":false,"openingstijden":null}},{"type":"Feature","geometry":{"type":"Point","coordinates":[13.724688,41.252656]},"properties":{"type":"pakketpunt","locatieNaam":"Amazon Counter (fermopoint)","straatNaam":"Il Mondo di Mary","straatNr":"","vervoerder":"Amazon","puntType":"helix","bezettingsgraad":50,"latitude":41.252656,"longitude":13.724688,"canPickup":true,"canDropoff":false,"openingstijden":null}},{"type":"Feature","geometry":{"type":"Point","coordinates":[13.6869013,41.2617242]},"properties":{"type":"pakketpunt","locatieNaam":"Amazon Counter (fermopoint)","straatNaam":"Caffè Norcia-Minturno","straatNr":"","vervoerder":"Amazon","puntType":"helix","bezettingsgraad":50,"latitude":41.2617242,"longitude":13.6869013,"canPickup":true,"canDropoff":false,"openingstijden":null}},{"type":"Feature","geometry":{"type":"Point","coordinates":[13.7029251865082,41.2578232452572]},"properties":{"type":"pakketpunt","locatieNaam":"Amazon Counter (fermopoint)","straatNaam":"Cartoleria Mister QI","straatNr":"","vervoerder":"Amazon","puntType":"helix","bezettingsgraad":50,"latitude":41.2578232452572,"longitude":13.7029251865082,"canPickup":true,"canDropoff":false,"openingstijden":null}},{"type":"Feature","geometry":{"type":"Point","coordinates":[13.7456205,41.2646451]},"properties":{"type":"pakketpunt","locatieNaam":"Amazon Counter - PRIMAEDICOLA","straatNaam":"CIUFO ANTONIO","straatNr":"","vervoerder":"Amazon","puntType":"helix","bezettingsgraad":50,"latitude":41.2646451,"longitude":13.7456205,"canPickup":true,"canDropoff":false,"openingstijden":null}},{"type":"Feature","geometry":{"type":"Point","coordinates":[13.7634,41.2678]},"properties":{"type":"pakketpunt","locatieNaam":"PuntoPoste TABACCHERIA N. 5","straatNaam":"CORSO DEL POPOLO 29","straatNr":"","vervoerder":"Amazon","puntType":"3p","bezettingsgraad":50,"latitude":41.2678,"longitude":13.7634,"canPickup":true,"canDropoff":false,"openingstijden":null}},{"type":"Feature","geometry":{"type":"Point","coordinates":[13.754902,41.259285]},"properties":{"type":"pakketpunt","locatieNaam":"Amazon Counter - PRIMAEDICOLA","straatNaam":"CAPUANO GIUSEPPE BIAGIO","straatNr":"","vervoerder":"Amazon","puntType":"helix","bezettingsgraad":50,"latitude":41.259285,"longitude":13.754902,"canPickup":true,"canDropoff":false,"openingstijden":null}},{"type":"Feature","geometry":{"type":"Point","coordinates":[13.744838,41.263646]},"properties":{"type":"pakketpunt","locatieNaam":"Amazon Locker - intermezzo","straatNaam":"Gran caffe Minturnae - PV 3080","straatNr":"","vervoerder":"Amazon","puntType":"locker","bezettingsgraad":50,"latitude":41.263646,"longitude":13.744838,"canPickup":true,"canDropoff":false,"openingstijden":null}},{"type":"Feature","geometry":{"type":"Point","coordinates":[13.746852,41.26276]},"properties":{"type":"pakketpunt","locatieNaam":"Amazon Counter - Tabacchi","straatNaam":"Piazza Mercato 20, 20","straatNr":"","vervoerder":"Amazon","puntType":"helix","bezettingsgraad":50,"latitude":41.26276,"longitude":13.746852,"canPickup":true,"canDropoff":false,"openingstijden":null}},{"type":"Feature","geometry":{"type":"Point","coordinates":[13.74316,41.264892]},"properties":{"type":"pakketpunt","locatieNaam":"Amazon Counter - FERRARA MARIANO","straatNaam":"VIA LUIGI CADORNA 61","straatNr":"","vervoerder":"Amazon","puntType":"helix","bezettingsgraad":50,"latitude":41.264892,"longitude":13.74316,"canPickup":true,"canDropoff":false,"openingstijden":null}},{"type":"Feature","geometry":{"type":"Point","coordinates":[13.716822,41.25448]},"properties":{"type":"pakketpunt","locatieNaam":"Amazon Counter","straatNaam":"Tabaccheria Barricelli (fermopoint)","straatNr":"","vervoerder":"Amazon","puntType":"helix","bezettingsgraad":50,"latitude":41.25448,"longitude":13.716822,"canPickup":true,"canDropoff":false,"openingstijden":null}},{"type":"Feature","geometry":{"type":"Point","coordinates":[13.7453,41.2628]},"properties":{"type":"pakketpunt","locatieNaam":"Ufficio Postale MINTURNO","straatNaam":"VIA PRINCIPE DI PIEMONTE 1","straatNr":"","vervoerder":"Amazon","puntType":"3p","bezettingsgraad":50,"latitude":41.2628,"longitude":13.7453,"canPickup":true,"canDropoff":false,"openingstijden":null}},{"type":"Feature","geometry":{"type":"Point","coordinates":[13.740903,41.248807]},"properties":{"type":"pakketpunt","locatieNaam":"Amazon Counter - CAFFETTERIA MARINA","straatNaam":"VIA APPIA 1577","straatNr":"","vervoerder":"Amazon","puntType":"helix","bezettingsgraad":50,"latitude":41.248807,"longitude":13.740903,"canPickup":true,"canDropoff":false,"openingstijden":null}},{"type":"Feature","geometry":{"type":"Point","coordinates":[13.7402,41.2487]},"properties":{"type":"pakketpunt","locatieNaam":"PuntoPoste TABACCHERIA N. 9","straatNaam":"VIA APPIA 1150","straatNr":"","vervoerder":"Amazon","puntType":"3p","bezettingsgraad":50,"latitude":41.2487,"longitude":13.7402,"canPickup":true,"canDropoff":false,"openingstijden":null}},{"type":"Feature","geometry":{"type":"Point","coordinates":[13.7196775711639,41.2538151399286]},"properties":{"type":"pakketpunt","locatieNaam":"Amazon Counter (fermopoint)","straatNaam":"AZ Ufficio","straatNr":"","vervoerder":"Amazon","puntType":"helix","bezettingsgraad":50,"latitude":41.2538151399286,"longitude":13.7196775711639,"canPickup":true,"canDropoff":false,"openingstijden":null}},{"type":"Feature","geometry":{"type":"Point","coordinates":[13.7144,41.2564]},"properties":{"type":"pakketpunt","locatieNaam":"PuntoPoste TABACCHERIA N. 14","straatNaam":"VIA ANTONIO SEBASTIANI 333","straatNr":"","vervoerder":"Amazon","puntType":"3p","bezettingsgraad":50,"latitude":41.2564,"longitude":13.7144,"canPickup":true,"canDropoff":false,"openingstijden":null}},{"type":"Feature","geometry":{"type":"Point","coordinates":[13.710213,41.25586]},"properties":{"type":"pakketpunt","locatieNaam":"Amazon Counter - PRIMAEDICOLA","straatNaam":"SFOGLIANDO SRL","straatNr":"","vervoerder":"Amazon","puntType":"helix","bezettingsgraad":50,"latitude":41.25586,"longitude":13.710213,"canPickup":true,"canDropoff":false,"openingstijden":null}},{"type":"Feature","geometry":{"type":"Point","coordinates":[13.701934,41.25805]},"properties":{"type":"pakketpunt","locatieNaam":"Amazon Counter - MOVIDA CAFE' S.N.C.","straatNaam":"VIA APPIA 403","straatNr":"","vervoerder":"Amazon","puntType":"helix","bezettingsgraad":50,"latitude":41.25805,"longitude":13.701934,"canPickup":true,"canDropoff":false,"openingstijden":null}},{"type":"Feature","geometry":{"type":"Point","coordinates":[13.7078,41.2566]},"properties":{"type":"pakketpunt","locatieNaam":"PuntoPoste TEKNOTREND","straatNaam":"VIA APPIA 577","straatNr":"","vervoerder":"Amazon","puntType":"3p","bezettingsgraad":50,"latitude":41.2566,"longitude":13.7078,"canPickup":true,"canDropoff":false,"openingstijden":null}},{"type":"Feature","geometry":{"type":"Point","coordinates":[13.708042,41.2566]},"properties":{"type":"pakketpunt","locatieNaam":"Amazon Counter","straatNaam":"TeknoTrend-Minturno (fermopoint)","straatNr":"","vervoerder":"Amazon","puntType":"helix","bezettingsgraad":50,"latitude":41.2566,"longitude":13.708042,"canPickup":true,"canDropoff":false,"openingstijden":null}},{"type":"Feature","geometry":{"type":"Point","coordinates":[13.711158,41.255813]},"properties":{"type":"pakketpunt","locatieNaam":"Amazon Counter (fermopoint)","straatNaam":"Posta Privata Naz.-Minturno","straatNr":"","vervoerder":"Amazon","puntType":"helix","bezettingsgraad":50,"latitude":41.255813,"longitude":13.711158,"canPickup":true,"canDropoff":false,"openingstijden":null}},{"type":"Feature","geometry":{"type":"Polygon","coordinates":[[[13.6892352,41.2463976],[13.6885299,41.2471276],[13.6884314,41.2479334],[13.6876186,41.2483943],[13.6867405,41.2493921],[13.6868165,41.2495959],[13.6868859,41.2509774],[13.6866411,41.253639],[13.687066,41.2544906],[13.6874151,41.2555208],[13.6875978,41.2565217],[13.688871,41.2609267],[13.6865165,41.261653],[13.6862315,41.2621824],[13.6863941,41.2629951],[13.6877475,41.2651458],[13.6881623,41.2653314],[13.6887383,41.2657789],[13.6889002,41.2665979],[13.6891608,41.2673616],[13.6897186,41.2680771],[13.6906342,41.2688636],[13.6926186,41.2699395],[13.6938075,41.2707913],[13.6946242,41.2711226],[13.695145,41.2707502],[13.6960693,41.271086],[13.6972342,41.2719658],[13.698262,41.2723177],[13.6987833,41.2721095],[13.6992296,41.2713125],[13.7002993,41.2715028],[13.7013684,41.272481],[13.701934,41.2727639],[13.7021508,41.2730612],[13.701763,41.2735813],[13.7025357,41.2743554],[13.7028601,41.2742612],[13.7041916,41.2745623],[13.7051944,41.2745482],[13.7063848,41.2747336],[13.7068446,41.2750073],[13.7071006,41.2753615],[13.7076394,41.2765865],[13.7080352,41.2769934],[13.7086099,41.2769473],[13.710592,41.2775278],[13.7111065,41.278074],[13.7115709,41.2787617],[13.7120528,41.2791561],[13.7133597,41.2794762],[13.7146581,41.2796255],[13.7158578,41.2793601],[13.7180187,41.2793569],[13.7186873,41.2799597],[13.7199128,41.2802155],[13.721085,41.2807256],[13.7224047,41.2816032],[13.724283,41.2832637],[13.7250672,41.2841003],[13.7273806,41.2873185],[13.7279126,41.2882059],[13.7297964,41.289596],[13.7300892,41.2904978],[13.7301638,41.2915797],[13.729747,41.2921506],[13.730467,41.2925936],[13.7331212,41.2937403],[13.7330913,41.2945834],[13.7328358,41.2954853],[13.7328485,41.296052],[13.733751,41.2981577],[13.7341557,41.299469],[13.7341545,41.3001624],[13.7339554,41.3005667],[13.7343999,41.3010571],[13.7362965,41.2999525],[13.737064,41.3004206],[13.7378629,41.3010854],[13.7383604,41.301308],[13.7406537,41.3019381],[13.7415666,41.3022696],[13.7423714,41.3026866],[13.7431465,41.3033613],[13.745127,41.3053729],[13.7474298,41.3073621],[13.7492195,41.3093634],[13.751018,41.3102749],[13.7516158,41.310921],[13.7525029,41.3113074],[13.7539853,41.311687],[13.7557615,41.3115237],[13.7567573,41.3112394],[13.7577826,41.3107152],[13.7587542,41.3099456],[13.76022,41.3081742],[13.7609341,41.3077529],[13.7618051,41.3077438],[13.7617191,41.3073017],[13.761861,41.3066791],[13.762424,41.3059669],[13.7630696,41.3053234],[13.763334,41.3045697],[13.7632301,41.3037591],[13.7629606,41.3029285],[13.7628796,41.302135],[13.7630244,41.301351],[13.7629821,41.3004606],[13.7632297,41.2994149],[13.763121,41.2987936],[13.7630062,41.2985508],[13.7632726,41.2977519],[13.7639185,41.2970634],[13.7645844,41.2965856],[13.7650397,41.2958419],[13.765417,41.2948358],[13.7655811,41.2937306],[13.7668405,41.2922152],[13.7675159,41.2918495],[13.7689928,41.2914461],[13.7702337,41.2908543],[13.771431,41.2900663],[13.7721537,41.2890819],[13.7729189,41.2890186],[13.7741695,41.2885794],[13.774595,41.2875308],[13.774528,41.2866557],[13.774734,41.2858504],[13.7751989,41.2852593],[13.7760938,41.2846729],[13.777505,41.2839344],[13.7782931,41.2832849],[13.779134,41.2830023],[13.780273,41.2827748],[13.7809856,41.282349],[13.7809337,41.2819054],[13.7810375,41.2814374],[13.7818759,41.2806823],[13.7825973,41.2804271],[13.7831284,41.2800899],[13.7830572,41.2794536],[13.7831843,41.2790296],[13.7838541,41.2783355],[13.7848479,41.2775333],[13.7856313,41.277118],[13.7859793,41.2764102],[13.7865713,41.2760389],[13.7875593,41.2748947],[13.7887392,41.2730898],[13.7889578,41.2722254],[13.7895866,41.2712178],[13.7890344,41.2700028],[13.7889726,41.2695867],[13.7882347,41.2688377],[13.7882664,41.2682836],[13.7881727,41.2675447],[13.7873981,41.2668252],[13.7866557,41.2663024],[13.7854391,41.2655968],[13.7829283,41.2638871],[13.7818116,41.2629658],[13.7812564,41.262003],[13.7814515,41.2611215],[13.7822489,41.2606246],[13.7825094,41.260087],[13.7822123,41.2594196],[13.7815759,41.2589059],[13.7810981,41.2583271],[13.7809523,41.2558841],[13.7806202,41.2551146],[13.7782961,41.2511462],[13.77798,41.2507902],[13.7776595,41.250691],[13.777087,41.2506923],[13.7766106,41.2503249],[13.7761984,41.2498799],[13.7750822,41.2472102],[13.7750305,41.2464488],[13.774652,41.2450041],[13.7743258,41.2440993],[13.773798,41.243036],[13.7737649,41.242663],[13.7719712,41.2421038],[13.7712579,41.2413591],[13.7710153,41.2409055],[13.7708286,41.2401029],[13.7704215,41.2375763],[13.7704546,41.2370887],[13.7703833,41.2364794],[13.7702757,41.2357906],[13.77004,41.2350216],[13.7669901,41.2303807],[13.7662909,41.2287936],[13.7647631,41.2262459],[13.7633764,41.2242696],[13.7623799,41.2231091],[13.7615517,41.2234237],[13.7613923,41.2233863],[13.7593254,41.2238396],[13.759128,41.2244313],[13.750612,41.2304426],[13.741342,41.2363559],[13.7383842,41.23814],[13.7381613,41.2380374],[13.7377155,41.2381161],[13.737761,41.2383076],[13.7367966,41.2389199],[13.7364372,41.2390807],[13.7362917,41.2388891],[13.7361688,41.238896],[13.7361279,41.2389746],[13.7362416,41.239108],[13.7355411,41.2395596],[13.7340946,41.2403155],[13.7328664,41.2410885],[13.7326981,41.2410612],[13.7326753,41.2412014],[13.7290044,41.2432742],[13.7287941,41.2430903],[13.7287337,41.243265],[13.7288871,41.2433873],[13.7254486,41.2451965],[13.7253713,41.2453617],[13.7252762,41.2452847],[13.7232361,41.2464203],[13.7156059,41.2500602],[13.7119329,41.2516623],[13.7061806,41.2539183],[13.7052124,41.2538979],[13.7033774,41.253706],[13.7015253,41.2532422],[13.7017574,41.2529189],[13.70177,41.2527296],[13.7012951,41.2522156],[13.7011925,41.252267],[13.701644,41.2527363],[13.7012564,41.2533057],[13.7008813,41.2531935],[13.7009677,41.2530197],[13.70126,41.2530839],[13.7006519,41.2528898],[13.7007941,41.2527093],[13.701403,41.2528621],[13.7011889,41.2527282],[13.7008327,41.2526619],[13.7008813,41.2524902],[13.700696,41.252714],[13.7001191,41.2524026],[13.699704,41.2518031],[13.6995943,41.2511225],[13.7010685,41.250855],[13.7011323,41.2507284],[13.7010015,41.2506874],[13.6993228,41.2510283],[13.6991885,41.2509036],[13.6992405,41.2508064],[13.6991482,41.2506449],[13.6990307,41.2506209],[13.6987394,41.2503442],[13.6986726,41.2488035],[13.6986186,41.2486331],[13.6983124,41.2485688],[13.6983465,41.2484355],[13.698216,41.2483414],[13.6976163,41.2482335],[13.6974838,41.2486323],[13.6972219,41.2489112],[13.6969735,41.2489099],[13.6961666,41.2492422],[13.6958264,41.2494736],[13.6956091,41.2497847],[13.6954609,41.2498091],[13.6955226,41.2501517],[13.6953857,41.2504321],[13.6951286,41.2505925],[13.6941411,41.250539],[13.6935714,41.249627],[13.6931209,41.2491849],[13.6917413,41.2482599],[13.6911784,41.2481708],[13.6908271,41.2475568],[13.690604,41.247473],[13.6905233,41.2473105],[13.6899583,41.2470571],[13.6899702,41.246934],[13.6896426,41.2468037],[13.6896569,41.2467002],[13.6892352,41.2463976]]]},"properties":{"type":"boundary","gemeente":"Minturno"}}]}