{"type":"FeatureCollection","metadata":{"gemeente":"Missanello","slug":"missanello","generated_at":"2026-09-26T13:10:11.660558Z","total_points":2,"providers":["PosteItaliane","Amazon"],"bounds":[16.1639,40.266747,16.16625378,40.28143281]},"features":[{"type":"Feature","geometry":{"type":"Point","coordinates":[16.16625378,40.28143281]},"properties":{"type":"pakketpunt","locatieNaam":"Missanello","straatNaam":"Via Bendini","straatNr":"4","vervoerder":"PosteItaliane","puntType":"postkantoor","bezettingsgraad":50,"latitude":40.28143281,"longitude":16.16625378,"canPickup":true,"canDropoff":true,"openingstijden":{"za":"08:20 - 12:45","zo":"gesloten","ma":"gesloten","di":"08:20 - 13:45","wo":"gesloten","do":"08:20 - 13:45","vr":"gesloten"}}},{"type":"Feature","geometry":{"type":"Point","coordinates":[16.1639,40.266747]},"properties":{"type":"pakketpunt","locatieNaam":"Amazon Counter - Enilive Station (n.56263)","straatNaam":"SS.598 KM.24  SNC","straatNr":"","vervoerder":"Amazon","puntType":"helix","bezettingsgraad":50,"latitude":40.266747,"longitude":16.1639,"canPickup":true,"canDropoff":false,"openingstijden":null}},{"type":"Feature","geometry":{"type":"Polygon","coordinates":[[[16.1395296,40.326873],[16.1384993,40.3281319],[16.1374718,40.3322067],[16.1381409,40.3337461],[16.1372314,40.3371921],[16.1384739,40.337747],[16.1417064,40.3382867],[16.1426632,40.3389425],[16.1493002,40.3401274],[16.1506575,40.340259],[16.1551748,40.3401672],[16.1604212,40.3398543],[16.1642063,40.3394567],[16.1756817,40.339394],[16.1756031,40.3388905],[16.1756471,40.3333002],[16.1758432,40.3324647],[16.176125,40.3318398],[16.1774545,40.331118],[16.1792219,40.3308233],[16.1827751,40.3294139],[16.1836709,40.3289801],[16.1845239,40.328297],[16.1850013,40.3278128],[16.1883138,40.320925],[16.1868181,40.3193154],[16.1856657,40.3182553],[16.1865288,40.3169283],[16.1860664,40.3163001],[16.1732558,40.3186617],[16.1705313,40.3106166],[16.1732983,40.301532],[16.1736038,40.3007302],[16.1759698,40.2989586],[16.1800736,40.2960978],[16.1837946,40.2944485],[16.1883967,40.2916508],[16.1888332,40.2910882],[16.1943506,40.2756635],[16.1963037,40.2663909],[16.1895831,40.2659382],[16.1872945,40.2655548],[16.1806614,40.2641467],[16.1752881,40.2629027],[16.1689116,40.2621393],[16.1675281,40.2622705],[16.1608745,40.2639037],[16.1564049,40.2768684],[16.1560028,40.2787829],[16.1525993,40.2978716],[16.1562363,40.3076914],[16.1593066,40.3123817],[16.1610169,40.3167966],[16.1586331,40.3179706],[16.1545797,40.318344],[16.1535801,40.3182309],[16.1525847,40.3179059],[16.1504728,40.3175558],[16.14879,40.3175659],[16.1481126,40.3178149],[16.1457659,40.3189639],[16.1410131,40.322687],[16.140475,40.3235032],[16.1397952,40.3250345],[16.1395296,40.326873]]]},"properties":{"type":"boundary","gemeente":"Missanello"}}]}