{"type":"FeatureCollection","metadata":{"gemeente":"Misterbianco","slug":"misterbianco","generated_at":"2026-09-26T13:10:11.671753Z","total_points":67,"providers":["PosteItaliane","DPD","InPost","GLS","DHL","Amazon"],"bounds":[14.99884,37.47808,15.0529594,37.53582415]},"features":[{"type":"Feature","geometry":{"type":"Point","coordinates":[15.0138284,37.517495]},"properties":{"type":"pakketpunt","locatieNaam":"Tabaccheria N. 6","straatNaam":"Via Primo Maggio","straatNr":"9","vervoerder":"PosteItaliane","puntType":"servicepunt","bezettingsgraad":50,"latitude":37.517495,"longitude":15.0138284,"canPickup":true,"canDropoff":true,"openingstijden":{"za":"06:15 - 13:30, 15:30 - 20:00","zo":"06:15 - 13:30","ma":"06:15 - 13:30, 15:30 - 20:00","di":"06:15 - 13:30, 15:30 - 20:00","wo":"06:15 - 13:30, 15:30 - 20:00","do":"06:15 - 13:30, 15:30 - 20:00","vr":"06:15 - 13:30, 15:30 - 20:00"}}},{"type":"Feature","geometry":{"type":"Point","coordinates":[15.04185737,37.52308847]},"properties":{"type":"pakketpunt","locatieNaam":"Lineri","straatNaam":"Via Rosina Anselmi","straatNr":"50/52","vervoerder":"PosteItaliane","puntType":"postkantoor","bezettingsgraad":50,"latitude":37.52308847,"longitude":15.04185737,"canPickup":true,"canDropoff":true,"openingstijden":{"za":"08:20 - 12:35","zo":"gesloten","ma":"08:20 - 13:35","di":"08:20 - 13:35","wo":"08:20 - 13:35","do":"08:20 - 13:35","vr":"08:20 - 13:35"}}},{"type":"Feature","geometry":{"type":"Point","coordinates":[15.0080731,37.5231712]},"properties":{"type":"pakketpunt","locatieNaam":"Misterbianco","straatNaam":"Via Giacomo Matteotti","straatNr":"328","vervoerder":"PosteItaliane","puntType":"postkantoor","bezettingsgraad":50,"latitude":37.5231712,"longitude":15.0080731,"canPickup":true,"canDropoff":true,"openingstijden":{"za":"08:20 - 12:35","zo":"gesloten","ma":"08:20 - 19:05","di":"08:20 - 19:05","wo":"08:20 - 19:05","do":"08:20 - 19:05","vr":"08:20 - 19:05"}}},{"type":"Feature","geometry":{"type":"Point","coordinates":[15.03503001,37.53582415]},"properties":{"type":"pakketpunt","locatieNaam":"Tabaccheria N. 15","straatNaam":"Strada San Giovanni Galermo","straatNr":"85","vervoerder":"PosteItaliane","puntType":"servicepunt","bezettingsgraad":50,"latitude":37.53582415,"longitude":15.03503001,"canPickup":true,"canDropoff":true,"openingstijden":{"za":"05:00 - 13:00, 15:00 - 19:00","zo":"05:00 - 13:00","ma":"05:00 - 13:00, 15:00 - 19:00","di":"05:00 - 13:00, 15:00 - 19:00","wo":"05:00 - 13:00, 15:00 - 19:00","do":"05:00 - 13:00, 15:00 - 19:00","vr":"05:00 - 13:00, 15:00 - 19:00"}}},{"type":"Feature","geometry":{"type":"Point","coordinates":[15.00634692,37.518281]},"properties":{"type":"pakketpunt","locatieNaam":"H24 O'monumentu","straatNaam":"Via Giuseppe Garibaldi","straatNr":"443","vervoerder":"PosteItaliane","puntType":"automaat","bezettingsgraad":50,"latitude":37.518281,"longitude":15.00634692,"canPickup":true,"canDropoff":true,"openingstijden":{"za":"00:01 - 23:59","zo":"00:01 - 23:59","ma":"00:01 - 23:59","di":"00:01 - 23:59","wo":"00:01 - 23:59","do":"00:01 - 23:59","vr":"00:01 - 23:59"}}},{"type":"Feature","geometry":{"type":"Point","coordinates":[15.02436299,37.51433437]},"properties":{"type":"pakketpunt","locatieNaam":"Stazione Di Servizio","straatNaam":"Corso Carlo Marx","straatNr":"60","vervoerder":"PosteItaliane","puntType":"automaat","bezettingsgraad":50,"latitude":37.51433437,"longitude":15.02436299,"canPickup":true,"canDropoff":true,"openingstijden":{"za":"00:01 - 23:59","zo":"00:01 - 23:59","ma":"00:01 - 23:59","di":"00:01 - 23:59","wo":"00:01 - 23:59","do":"00:01 - 23:59","vr":"00:01 - 23:59"}}},{"type":"Feature","geometry":{"type":"Point","coordinates":[15.03996515,37.52242974]},"properties":{"type":"pakketpunt","locatieNaam":"Tabaccheria N. 8","straatNaam":"Via Nikolaj Lenin","straatNr":"102","vervoerder":"PosteItaliane","puntType":"servicepunt","bezettingsgraad":50,"latitude":37.52242974,"longitude":15.03996515,"canPickup":true,"canDropoff":true,"openingstijden":{"za":"07:30 - 19:30","zo":"gesloten","ma":"07:30 - 19:30","di":"07:30 - 19:30","wo":"07:30 - 19:30","do":"07:30 - 19:30","vr":"07:30 - 19:30"}}},{"type":"Feature","geometry":{"type":"Point","coordinates":[15.0080731,37.5231712]},"properties":{"type":"pakketpunt","locatieNaam":"Ufficio Postale Misterbianco","straatNaam":"Via Giacomo Matteotti","straatNr":"328","vervoerder":"PosteItaliane","puntType":"automaat","bezettingsgraad":50,"latitude":37.5231712,"longitude":15.0080731,"canPickup":true,"canDropoff":true,"openingstijden":{"za":"00:01 - 23:59","zo":"00:01 - 23:59","ma":"00:01 - 23:59","di":"00:01 - 23:59","wo":"00:01 - 23:59","do":"00:01 - 23:59","vr":"00:01 - 23:59"}}},{"type":"Feature","geometry":{"type":"Point","coordinates":[15.03079188,37.51257607]},"properties":{"type":"pakketpunt","locatieNaam":"Stazione Di Servizio Eni","straatNaam":"Corso Carlo Marx","straatNr":"41","vervoerder":"PosteItaliane","puntType":"automaat","bezettingsgraad":50,"latitude":37.51257607,"longitude":15.03079188,"canPickup":true,"canDropoff":true,"openingstijden":{"za":"00:01 - 23:59","zo":"00:01 - 23:59","ma":"00:01 - 23:59","di":"00:01 - 23:59","wo":"00:01 - 23:59","do":"00:01 - 23:59","vr":"00:01 - 23:59"}}},{"type":"Feature","geometry":{"type":"Point","coordinates":[15.00673662,37.51691593]},"properties":{"type":"pakketpunt","locatieNaam":"Tabaccheria N. 1","straatNaam":"Via Giacomo Matteotti","straatNr":"81","vervoerder":"PosteItaliane","puntType":"servicepunt","bezettingsgraad":50,"latitude":37.51691593,"longitude":15.00673662,"canPickup":true,"canDropoff":true,"openingstijden":{"za":"07:00 - 13:00, 16:00 - 20:00","zo":"gesloten","ma":"07:00 - 13:00, 16:00 - 20:00","di":"07:00 - 13:00, 16:00 - 20:00","wo":"07:00 - 13:00, 16:00 - 20:00","do":"07:00 - 13:00, 16:00 - 20:00","vr":"07:00 - 13:00, 16:00 - 20:00"}}},{"type":"Feature","geometry":{"type":"Point","coordinates":[15.00852,37.51821]},"properties":{"type":"pakketpunt","locatieNaam":"Tabaccheria N. 2","straatNaam":"Via Giuseppe Garibaldi","straatNr":"414","vervoerder":"PosteItaliane","puntType":"servicepunt","bezettingsgraad":50,"latitude":37.51821,"longitude":15.00852,"canPickup":true,"canDropoff":true,"openingstijden":{"za":"06:00 - 13:30, 15:00 - 20:30","zo":"gesloten","ma":"06:00 - 13:30, 15:00 - 20:30","di":"06:00 - 13:30, 15:00 - 20:30","wo":"06:00 - 13:30, 15:00 - 20:30","do":"06:00 - 13:30, 15:00 - 20:30","vr":"06:00 - 13:30, 15:00 - 20:30"}}},{"type":"Feature","geometry":{"type":"Point","coordinates":[15.00297398,37.52103951]},"properties":{"type":"pakketpunt","locatieNaam":"Cartolibreria Patatrak","straatNaam":"Via Bruno Buozzi","straatNr":"76","vervoerder":"PosteItaliane","puntType":"servicepunt","bezettingsgraad":50,"latitude":37.52103951,"longitude":15.00297398,"canPickup":true,"canDropoff":true,"openingstijden":{"za":"07:30 - 12:30","zo":"gesloten","ma":"07:30 - 12:30, 16:30 - 19:30","di":"07:30 - 12:30, 16:30 - 19:30","wo":"07:30 - 12:30, 16:30 - 19:30","do":"07:30 - 12:30, 16:30 - 19:30","vr":"07:30 - 12:30, 16:30 - 19:30"}}},{"type":"Feature","geometry":{"type":"Point","coordinates":[15.00442,37.52053]},"properties":{"type":"pakketpunt","locatieNaam":"Tabaccheria N. 18","straatNaam":"Via San Nicolo'","straatNr":"402","vervoerder":"PosteItaliane","puntType":"servicepunt","bezettingsgraad":50,"latitude":37.52053,"longitude":15.00442,"canPickup":true,"canDropoff":true,"openingstijden":{"za":"08:00 - 13:00, 16:00 - 20:30","zo":"gesloten","ma":"08:00 - 13:00, 16:00 - 20:30","di":"08:00 - 13:00, 16:00 - 20:30","wo":"08:00 - 13:00, 16:00 - 20:30","do":"08:00 - 13:00, 16:00 - 20:30","vr":"08:00 - 13:00, 16:00 - 20:30"}}},{"type":"Feature","geometry":{"type":"Point","coordinates":[15.01356,37.51959]},"properties":{"type":"pakketpunt","locatieNaam":"Tabaccheria N. 11","straatNaam":"Via Guglielmo Marconi","straatNr":"100","vervoerder":"PosteItaliane","puntType":"servicepunt","bezettingsgraad":50,"latitude":37.51959,"longitude":15.01356,"canPickup":true,"canDropoff":true,"openingstijden":{"za":"08:00 - 13:30, 16:00 - 20:30","zo":"gesloten","ma":"08:00 - 13:30, 16:00 - 20:30","di":"08:00 - 13:30, 16:00 - 20:30","wo":"08:00 - 13:30, 16:00 - 20:30","do":"08:00 - 13:30, 16:00 - 20:30","vr":"08:00 - 13:30, 16:00 - 20:30"}}},{"type":"Feature","geometry":{"type":"Point","coordinates":[15.00717,37.51917]},"properties":{"type":"pakketpunt","locatieNaam":"Tabaccheria N. 5","straatNaam":"Via Giacomo Matteotti","straatNr":"195","vervoerder":"PosteItaliane","puntType":"servicepunt","bezettingsgraad":50,"latitude":37.51917,"longitude":15.00717,"canPickup":true,"canDropoff":true,"openingstijden":{"za":"07:30 - 13:30, 16:00 - 20:30","zo":"08:30 - 13:00","ma":"07:30 - 13:30, 16:00 - 20:30","di":"07:30 - 13:30, 16:00 - 20:30","wo":"07:30 - 13:30, 16:00 - 20:30","do":"07:30 - 13:30, 16:00 - 20:30","vr":"07:30 - 13:30, 16:00 - 20:30"}}},{"type":"Feature","geometry":{"type":"Point","coordinates":[15.0036301,37.5203947]},"properties":{"type":"pakketpunt","locatieNaam":"Misterposte","straatNaam":"VIA J.F. KENNEDY","straatNr":"53/55","vervoerder":"DPD","puntType":"pickup_point","bezettingsgraad":50,"latitude":37.5203947,"longitude":15.0036301,"canPickup":true,"canDropoff":true,"openingstijden":{"ma":"08:00 - 13:00, 15:30 - 18:30","di":"08:00 - 13:00, 15:30 - 18:30","wo":"08:00 - 13:00, 15:30 - 18:30","do":"08:00 - 13:00, 15:30 - 18:30","vr":"08:00 - 13:00, 15:30 - 18:30","za":"gesloten","zo":"gesloten"}}},{"type":"Feature","geometry":{"type":"Point","coordinates":[15.0373038,37.5250478]},"properties":{"type":"pakketpunt","locatieNaam":"Cartolandia - Misterbianco","straatNaam":"VIA GIUSEPPE DI VITTORIO","straatNr":"46","vervoerder":"DPD","puntType":"pickup_point","bezettingsgraad":50,"latitude":37.5250478,"longitude":15.0373038,"canPickup":true,"canDropoff":true,"openingstijden":{"ma":"08:00 - 13:00, 16:30 - 19:30","di":"08:00 - 13:00, 16:30 - 19:30","wo":"08:00 - 13:00, 16:30 - 19:30","do":"08:00 - 13:00, 16:30 - 19:30","vr":"08:00 - 13:00, 16:30 - 19:30","za":"09:00 - 12:00","zo":"gesloten"}}},{"type":"Feature","geometry":{"type":"Point","coordinates":[15.0401573,37.5220741]},"properties":{"type":"pakketpunt","locatieNaam":"Gramusciu","straatNaam":"VIA LENIN","straatNr":"102","vervoerder":"DPD","puntType":"pickup_point","bezettingsgraad":50,"latitude":37.5220741,"longitude":15.0401573,"canPickup":true,"canDropoff":true,"openingstijden":{"ma":"07:00 - 20:00","di":"07:00 - 20:00","wo":"07:00 - 20:00","do":"07:00 - 20:00","vr":"07:00 - 20:00","za":"07:00 - 20:00","zo":"gesloten"}}},{"type":"Feature","geometry":{"type":"Point","coordinates":[15.01376222,37.51755436]},"properties":{"type":"pakketpunt","locatieNaam":"Tabaccheria La 6","straatNaam":"VIA PRIMO MAGGIO","straatNr":"9","vervoerder":"DPD","puntType":"pickup_point","bezettingsgraad":50,"latitude":37.51755436,"longitude":15.01376222,"canPickup":true,"canDropoff":true,"openingstijden":{"ma":"06:30 - 20:30","di":"06:30 - 20:30","wo":"06:30 - 20:30","do":"06:30 - 20:30","vr":"06:30 - 20:30","za":"06:30 - 20:30","zo":"06:30 - 20:30"}}},{"type":"Feature","geometry":{"type":"Point","coordinates":[15.00743862,37.52004308]},"properties":{"type":"pakketpunt","locatieNaam":"Parcel Post Service","straatNaam":"VIA G. MATTEOTTI","straatNr":"222","vervoerder":"DPD","puntType":"pickup_point","bezettingsgraad":50,"latitude":37.52004308,"longitude":15.00743862,"canPickup":true,"canDropoff":true,"openingstijden":{"ma":"08:30 - 13:00, 15:30 - 18:30","di":"08:30 - 13:00, 15:30 - 18:30","wo":"08:30 - 13:00, 15:30 - 18:30","do":"08:30 - 13:00, 15:30 - 18:30","vr":"08:30 - 13:00, 15:30 - 18:30","za":"gesloten","zo":"gesloten"}}},{"type":"Feature","geometry":{"type":"Point","coordinates":[15.03103929,37.53344575]},"properties":{"type":"pakketpunt","locatieNaam":"Centro Post@-Misterbianco","straatNaam":"VIA LOMBARDIA","straatNr":"6 c","vervoerder":"DPD","puntType":"pickup_point","bezettingsgraad":50,"latitude":37.53344575,"longitude":15.03103929,"canPickup":true,"canDropoff":true,"openingstijden":{"ma":"09:00 - 13:00, 16:30 - 19:30","di":"09:00 - 13:00, 16:30 - 19:30","wo":"09:00 - 13:00, 16:30 - 19:30","do":"09:00 - 13:00, 16:30 - 19:30","vr":"09:00 - 13:00, 16:30 - 19:30","za":"gesloten","zo":"gesloten"}}},{"type":"Feature","geometry":{"type":"Point","coordinates":[15.01366,37.51451]},"properties":{"type":"pakketpunt","locatieNaam":"BRT LOCKER - Countdown Bar Via Gali","straatNaam":"VIA GALILEO GALILEI","straatNr":"76","vervoerder":"DPD","puntType":"dpd_box","bezettingsgraad":50,"latitude":37.51451,"longitude":15.01366,"canPickup":true,"canDropoff":true,"openingstijden":{"ma":"07:00 - 20:00","di":"07:00 - 20:00","wo":"07:00 - 20:00","do":"07:00 - 20:00","vr":"07:00 - 20:00","za":"07:00 - 20:00","zo":"09:00 - 20:00"}}},{"type":"Feature","geometry":{"type":"Point","coordinates":[15.0383708,37.5194965]},"properties":{"type":"pakketpunt","locatieNaam":"Maranù","straatNaam":"VIA TORINO","straatNr":"24","vervoerder":"DPD","puntType":"pickup_point","bezettingsgraad":50,"latitude":37.5194965,"longitude":15.0383708,"canPickup":true,"canDropoff":true,"openingstijden":{"ma":"07:30 - 14:00, 16:30 - 20:00","di":"07:30 - 14:00, 16:30 - 20:00","wo":"07:30 - 14:00, 16:30 - 20:00","do":"07:30 - 14:00, 16:30 - 20:00","vr":"07:30 - 14:00, 16:30 - 20:00","za":"07:30 - 14:00, 16:30 - 20:00","zo":"gesloten"}}},{"type":"Feature","geometry":{"type":"Point","coordinates":[15.00979976,37.51870487]},"properties":{"type":"pakketpunt","locatieNaam":"Cartolibreria Allia","straatNaam":"PIAZZA INDIPENDENZA","straatNr":"2","vervoerder":"DPD","puntType":"pickup_point","bezettingsgraad":50,"latitude":37.51870487,"longitude":15.00979976,"canPickup":true,"canDropoff":true,"openingstijden":{"ma":"08:00 - 13:00, 16:00 - 20:00","di":"08:00 - 13:00, 16:00 - 20:00","wo":"08:00 - 13:00, 16:00 - 20:00","do":"08:00 - 13:00, 16:00 - 20:00","vr":"08:00 - 13:00, 16:00 - 20:00","za":"08:00 - 13:00","zo":"gesloten"}}},{"type":"Feature","geometry":{"type":"Point","coordinates":[15.004141,37.5180537]},"properties":{"type":"pakketpunt","locatieNaam":"Snai Vincendo","straatNaam":"P.ZZA XXV APRILE","straatNr":"40-41","vervoerder":"DPD","puntType":"pickup_point","bezettingsgraad":50,"latitude":37.5180537,"longitude":15.004141,"canPickup":true,"canDropoff":true,"openingstijden":{"ma":"09:00 - 21:00","di":"09:00 - 21:00","wo":"09:00 - 21:00","do":"09:00 - 21:00","vr":"09:00 - 21:00","za":"09:00 - 21:00","zo":"09:00 - 21:00"}}},{"type":"Feature","geometry":{"type":"Point","coordinates":[15.00324,37.52273]},"properties":{"type":"pakketpunt","locatieNaam":"InPost Point","straatNaam":"Via J. F. Kennedy","straatNr":"55","vervoerder":"InPost","puntType":"servicepunt","bezettingsgraad":50,"latitude":37.52273,"longitude":15.00324,"canPickup":true,"canDropoff":true,"openingstijden":"Lun-Ven: 8:00 - 13:00 - 15:30 - 18:30 Sab: 8:00 - 13:00"}},{"type":"Feature","geometry":{"type":"Point","coordinates":[15.0129,37.51455]},"properties":{"type":"pakketpunt","locatieNaam":"InPost Locker 24/7","straatNaam":"Corso Aldo Moro","straatNr":"38","vervoerder":"InPost","puntType":"automaat","bezettingsgraad":50,"latitude":37.51455,"longitude":15.0129,"canPickup":true,"canDropoff":true,"openingstijden":null}},{"type":"Feature","geometry":{"type":"Point","coordinates":[15.03103,37.53348]},"properties":{"type":"pakketpunt","locatieNaam":"InPost Locker","straatNaam":"Via Lombardia","straatNr":"6/c","vervoerder":"InPost","puntType":"automaat","bezettingsgraad":50,"latitude":37.53348,"longitude":15.03103,"canPickup":true,"canDropoff":true,"openingstijden":null}},{"type":"Feature","geometry":{"type":"Point","coordinates":[15.01383,37.51768]},"properties":{"type":"pakketpunt","locatieNaam":"InPost Point","straatNaam":"Via Primo Maggio","straatNr":"9","vervoerder":"InPost","puntType":"servicepunt","bezettingsgraad":50,"latitude":37.51768,"longitude":15.01383,"canPickup":true,"canDropoff":true,"openingstijden":"Lun-Sab: 06:30 - 20:30 Dom: 08:00 - 13:00 - 15:00 - 20:00"}},{"type":"Feature","geometry":{"type":"Point","coordinates":[15.03733,37.52503]},"properties":{"type":"pakketpunt","locatieNaam":"InPost Point","straatNaam":"Via Giuseppe di Vittorio","straatNr":"46","vervoerder":"InPost","puntType":"servicepunt","bezettingsgraad":50,"latitude":37.52503,"longitude":15.03733,"canPickup":true,"canDropoff":true,"openingstijden":"Lun-Ven: 08:00 - 13:00 - 16:30 - 19:30 Sab: 09:00 - 13:00"}},{"type":"Feature","geometry":{"type":"Point","coordinates":[15.005343,37.521541]},"properties":{"type":"pakketpunt","locatieNaam":"PARCEL SHOP MISTERBIANCO","straatNaam":"Via Giacomo Matteotti","straatNr":"277/B","vervoerder":"GLS","puntType":"parcel_shop","bezettingsgraad":50,"latitude":37.521541,"longitude":15.005343,"canPickup":true,"canDropoff":true,"openingstijden":"ma: 09:00 - 13:00, 15:30 - 19:00; di: 09:00 - 13:00, 15:30 - 19:00"}},{"type":"Feature","geometry":{"type":"Point","coordinates":[15.0056856,37.5194248]},"properties":{"type":"pakketpunt","locatieNaam":"centro servizi di Alessandro Guglielmino","straatNaam":"Via Antonio Gramsci","straatNr":"40A","vervoerder":"GLS","puntType":"parcel_shop","bezettingsgraad":50,"latitude":37.5194248,"longitude":15.0056856,"canPickup":true,"canDropoff":true,"openingstijden":"ma: 08:30 - 12:30, 16:00 - 19:00; di: 08:30 - 12:30, 16:00 - 19:00"}},{"type":"Feature","geometry":{"type":"Point","coordinates":[15.0029451,37.5211128]},"properties":{"type":"pakketpunt","locatieNaam":"cartolibreria patatrak","straatNaam":"Via Bruno Buozzi","straatNr":"76","vervoerder":"GLS","puntType":"parcel_shop","bezettingsgraad":50,"latitude":37.5211128,"longitude":15.0029451,"canPickup":true,"canDropoff":true,"openingstijden":"za: 08:00 - 12:30; ma: 08:00 - 12:30"}},{"type":"Feature","geometry":{"type":"Point","coordinates":[15.0075317,37.521541]},"properties":{"type":"pakketpunt","locatieNaam":"USP","straatNaam":"Via Giacomo Matteotti","straatNr":"277/b","vervoerder":"GLS","puntType":"parcel_shop","bezettingsgraad":50,"latitude":37.521541,"longitude":15.0075317,"canPickup":true,"canDropoff":true,"openingstijden":"ma: 09:00 - 13:00, 16:00 - 18:30; di: 09:00 - 13:00, 16:00 - 18:30"}},{"type":"Feature","geometry":{"type":"Point","coordinates":[15.0398076,37.5240031]},"properties":{"type":"pakketpunt","locatieNaam":"Centro Servizi di Alessandro Guglielmino","straatNaam":"Via Lenin","straatNr":"162","vervoerder":"GLS","puntType":"parcel_shop","bezettingsgraad":50,"latitude":37.5240031,"longitude":15.0398076,"canPickup":true,"canDropoff":true,"openingstijden":"ma: 08:30 - 12:30, 16:00 - 18:30; di: 08:30 - 12:30, 16:00 - 18:30"}},{"type":"Feature","geometry":{"type":"Point","coordinates":[15.0319727,37.5310603]},"properties":{"type":"pakketpunt","locatieNaam":"Centro Post@","straatNaam":"Via Lombardia","straatNr":"6/c","vervoerder":"GLS","puntType":"parcel_shop","bezettingsgraad":50,"latitude":37.5310603,"longitude":15.0319727,"canPickup":true,"canDropoff":true,"openingstijden":"ma: 09:00 - 13:00, 16:30 - 19:30; di: 09:00 - 13:00, 16:30 - 19:30"}},{"type":"Feature","geometry":{"type":"Point","coordinates":[14.99884,37.52183]},"properties":{"type":"pakketpunt","locatieNaam":"PUNTO DEI SERVIZI DI VITRANO","straatNaam":"Via San Nicolo' 383","straatNr":"","vervoerder":"DHL","puntType":"parcelShop","bezettingsgraad":50,"latitude":37.52183,"longitude":14.99884,"canPickup":false,"canDropoff":true,"openingstijden":{"ma":"08:30 - 19:00","di":"08:30 - 19:00","wo":"08:30 - 19:00","do":"08:30 - 19:00","vr":"08:30 - 19:00","za":"gesloten","zo":"gesloten"}}},{"type":"Feature","geometry":{"type":"Point","coordinates":[15.002974,37.52104]},"properties":{"type":"pakketpunt","locatieNaam":"CARTOLIBRERIA PATATRAK","straatNaam":"VIA BRUNO BUOZZI 76","straatNr":"","vervoerder":"DHL","puntType":"parcelShop","bezettingsgraad":50,"latitude":37.52104,"longitude":15.002974,"canPickup":true,"canDropoff":true,"openingstijden":{"ma":"07:30 - 12:30, 16:30 - 19:30","di":"07:30 - 12:30, 16:30 - 19:30","wo":"07:30 - 12:30, 16:30 - 19:30","do":"07:30 - 12:30, 16:30 - 19:30","vr":"07:30 - 12:30, 16:30 - 19:30","za":"07:30 - 12:30","zo":"gesloten"}}},{"type":"Feature","geometry":{"type":"Point","coordinates":[15.00281,37.52063]},"properties":{"type":"pakketpunt","locatieNaam":"CARTOLIBRERIA PATATRAK","straatNaam":"Via Bruno Buozzi 78","straatNr":"","vervoerder":"DHL","puntType":"parcelShop","bezettingsgraad":50,"latitude":37.52063,"longitude":15.00281,"canPickup":false,"canDropoff":true,"openingstijden":{"ma":"08:30 - 19:30","di":"08:30 - 19:30","wo":"08:30 - 19:30","do":"08:30 - 19:30","vr":"08:30 - 19:30","za":"08:30 - 12:30","zo":"gesloten"}}},{"type":"Feature","geometry":{"type":"Point","coordinates":[15.00442,37.52053]},"properties":{"type":"pakketpunt","locatieNaam":"TABACCHERIA N. 18","straatNaam":"VIA SAN NICOLO 402","straatNr":"","vervoerder":"DHL","puntType":"parcelShop","bezettingsgraad":50,"latitude":37.52053,"longitude":15.00442,"canPickup":true,"canDropoff":true,"openingstijden":{"ma":"08:00 - 13:00, 16:00 - 20:30","di":"08:00 - 13:00, 16:00 - 20:30","wo":"08:00 - 13:00, 16:00 - 20:30","do":"08:00 - 13:00, 16:00 - 20:30","vr":"08:00 - 13:00, 16:00 - 20:30","za":"08:00 - 13:00, 16:00 - 20:30","zo":"gesloten"}}},{"type":"Feature","geometry":{"type":"Point","coordinates":[15.008073,37.523171]},"properties":{"type":"pakketpunt","locatieNaam":"Ufficio Postale MISTERBIANCO","straatNaam":"VIA GIACOMO MATTEOTTI 328","straatNr":"","vervoerder":"DHL","puntType":"postOffice","bezettingsgraad":50,"latitude":37.523171,"longitude":15.008073,"canPickup":true,"canDropoff":true,"openingstijden":{"ma":"08:20 - 19:05","di":"08:20 - 19:05","wo":"08:20 - 19:05","do":"08:20 - 19:05","vr":"08:20 - 19:05","za":"08:20 - 12:35","zo":"gesloten"}}},{"type":"Feature","geometry":{"type":"Point","coordinates":[15.008073,37.523171]},"properties":{"type":"pakketpunt","locatieNaam":"UFFICIO POSTALE MISTERBIANC","straatNaam":"VIA GIACOMO MATTEOTTI 328","straatNr":"","vervoerder":"DHL","puntType":"packStation","bezettingsgraad":50,"latitude":37.523171,"longitude":15.008073,"canPickup":true,"canDropoff":true,"openingstijden":{"ma":"00:01 - 23:59","di":"00:01 - 23:59","wo":"00:01 - 23:59","do":"00:01 - 23:59","vr":"00:01 - 23:59","za":"00:01 - 23:59","zo":"00:01 - 23:59"}}},{"type":"Feature","geometry":{"type":"Point","coordinates":[15.006347,37.518281]},"properties":{"type":"pakketpunt","locatieNaam":"H24 O'MONUMENTU","straatNaam":"VIA GIUSEPPE GARIBALDI 443","straatNr":"","vervoerder":"DHL","puntType":"packStation","bezettingsgraad":50,"latitude":37.518281,"longitude":15.006347,"canPickup":true,"canDropoff":true,"openingstijden":{"ma":"00:01 - 23:59","di":"00:01 - 23:59","wo":"00:01 - 23:59","do":"00:01 - 23:59","vr":"00:01 - 23:59","za":"00:01 - 23:59","zo":"00:01 - 23:59"}}},{"type":"Feature","geometry":{"type":"Point","coordinates":[15.00717,37.51917]},"properties":{"type":"pakketpunt","locatieNaam":"TABACCHERIA n. 5","straatNaam":"VIA GIACOMO MATTEOTTI 195","straatNr":"","vervoerder":"DHL","puntType":"parcelShop","bezettingsgraad":50,"latitude":37.51917,"longitude":15.00717,"canPickup":true,"canDropoff":true,"openingstijden":{"ma":"07:30 - 13:30, 16:00 - 20:30","di":"07:30 - 13:30, 16:00 - 20:30","wo":"07:30 - 13:30, 16:00 - 20:30","do":"07:30 - 13:30, 16:00 - 20:30","vr":"07:30 - 13:30, 16:00 - 20:30","za":"07:30 - 13:30, 16:00 - 20:30","zo":"08:30 - 13:00"}}},{"type":"Feature","geometry":{"type":"Point","coordinates":[15.006737,37.516916]},"properties":{"type":"pakketpunt","locatieNaam":"TABACCHERIA N. 1","straatNaam":"VIA GIACOMO MATTEOTTI 81","straatNr":"","vervoerder":"DHL","puntType":"parcelShop","bezettingsgraad":50,"latitude":37.516916,"longitude":15.006737,"canPickup":true,"canDropoff":true,"openingstijden":{"ma":"07:00 - 13:00, 16:00 - 20:00","di":"07:00 - 13:00, 16:00 - 20:00","wo":"07:00 - 13:00, 16:00 - 20:00","do":"07:00 - 13:00, 16:00 - 20:00","vr":"07:00 - 13:00, 16:00 - 20:00","za":"07:00 - 13:00, 16:00 - 20:00","zo":"gesloten"}}},{"type":"Feature","geometry":{"type":"Point","coordinates":[15.00852,37.51821]},"properties":{"type":"pakketpunt","locatieNaam":"TABACCHERIA N. 2","straatNaam":"VIA GIUSEPPE GARIBALDI 414","straatNr":"","vervoerder":"DHL","puntType":"parcelShop","bezettingsgraad":50,"latitude":37.51821,"longitude":15.00852,"canPickup":true,"canDropoff":true,"openingstijden":{"ma":"06:00 - 13:30, 15:00 - 20:30","di":"06:00 - 13:30, 15:00 - 20:30","wo":"06:00 - 13:30, 15:00 - 20:30","do":"06:00 - 13:30, 15:00 - 20:30","vr":"06:00 - 13:30, 15:00 - 20:30","za":"06:00 - 13:30, 15:00 - 20:30","zo":"gesloten"}}},{"type":"Feature","geometry":{"type":"Point","coordinates":[15.013828,37.517495]},"properties":{"type":"pakketpunt","locatieNaam":"TABACCHERIA N. 6","straatNaam":"VIA PRIMO MAGGIO 9","straatNr":"","vervoerder":"DHL","puntType":"parcelShop","bezettingsgraad":50,"latitude":37.517495,"longitude":15.013828,"canPickup":true,"canDropoff":true,"openingstijden":{"ma":"06:15 - 13:30, 15:30 - 20:00","di":"06:15 - 13:30, 15:30 - 20:00","wo":"06:15 - 13:30, 15:30 - 20:00","do":"06:15 - 13:30, 15:30 - 20:00","vr":"06:15 - 13:30, 15:30 - 20:00","za":"06:15 - 13:30, 15:30 - 20:00","zo":"06:15 - 13:30"}}},{"type":"Feature","geometry":{"type":"Point","coordinates":[15.01356,37.51959]},"properties":{"type":"pakketpunt","locatieNaam":"TABACCHERIA N. 11","straatNaam":"VIA GUGLIELMO MARCONI 100","straatNr":"","vervoerder":"DHL","puntType":"parcelShop","bezettingsgraad":50,"latitude":37.51959,"longitude":15.01356,"canPickup":true,"canDropoff":true,"openingstijden":{"ma":"08:00 - 13:30, 16:00 - 20:30","di":"08:00 - 13:30, 16:00 - 20:30","wo":"08:00 - 13:30, 16:00 - 20:30","do":"08:00 - 13:30, 16:00 - 20:30","vr":"08:00 - 13:30, 16:00 - 20:30","za":"08:00 - 13:30, 16:00 - 20:30","zo":"gesloten"}}},{"type":"Feature","geometry":{"type":"Point","coordinates":[15.024363,37.514334]},"properties":{"type":"pakketpunt","locatieNaam":"STAZIONE DI SERVIZIO","straatNaam":"CORSO CARLO MARX 60","straatNr":"","vervoerder":"DHL","puntType":"packStation","bezettingsgraad":50,"latitude":37.514334,"longitude":15.024363,"canPickup":true,"canDropoff":true,"openingstijden":{"ma":"00:01 - 23:59","di":"00:01 - 23:59","wo":"00:01 - 23:59","do":"00:01 - 23:59","vr":"00:01 - 23:59","za":"00:01 - 23:59","zo":"00:01 - 23:59"}}},{"type":"Feature","geometry":{"type":"Point","coordinates":[15.030792,37.512576]},"properties":{"type":"pakketpunt","locatieNaam":"STAZIONE DI SERVIZIO ENI","straatNaam":"CORSO CARLO MARX 41","straatNr":"","vervoerder":"DHL","puntType":"packStation","bezettingsgraad":50,"latitude":37.512576,"longitude":15.030792,"canPickup":true,"canDropoff":true,"openingstijden":{"ma":"00:01 - 23:59","di":"00:01 - 23:59","wo":"00:01 - 23:59","do":"00:01 - 23:59","vr":"00:01 - 23:59","za":"00:01 - 23:59","zo":"00:01 - 23:59"}}},{"type":"Feature","geometry":{"type":"Point","coordinates":[15.03503,37.535824]},"properties":{"type":"pakketpunt","locatieNaam":"TABACCHERIA N. 15","straatNaam":"STRADA SAN GIOVANNI GALERMO 85","straatNr":"","vervoerder":"DHL","puntType":"parcelShop","bezettingsgraad":50,"latitude":37.535824,"longitude":15.03503,"canPickup":true,"canDropoff":true,"openingstijden":{"ma":"05:00 - 13:00, 15:00 - 19:00","di":"05:00 - 13:00, 15:00 - 19:00","wo":"05:00 - 13:00, 15:00 - 19:00","do":"05:00 - 13:00, 15:00 - 19:00","vr":"05:00 - 13:00, 15:00 - 19:00","za":"05:00 - 13:00, 15:00 - 19:00","zo":"05:00 - 13:00"}}},{"type":"Feature","geometry":{"type":"Point","coordinates":[15.039965,37.52243]},"properties":{"type":"pakketpunt","locatieNaam":"TABACCHERIA N. 8","straatNaam":"VIA NIKOLAJ LENIN 102","straatNr":"","vervoerder":"DHL","puntType":"parcelShop","bezettingsgraad":50,"latitude":37.52243,"longitude":15.039965,"canPickup":true,"canDropoff":true,"openingstijden":{"ma":"07:30 - 19:30","di":"07:30 - 19:30","wo":"07:30 - 19:30","do":"07:30 - 19:30","vr":"07:30 - 19:30","za":"07:30 - 19:30","zo":"gesloten"}}},{"type":"Feature","geometry":{"type":"Point","coordinates":[15.041857,37.523088]},"properties":{"type":"pakketpunt","locatieNaam":"Ufficio Postale LINERI","straatNaam":"VIA ROSINA ANSELMI 50-52","straatNr":"","vervoerder":"DHL","puntType":"postOffice","bezettingsgraad":50,"latitude":37.523088,"longitude":15.041857,"canPickup":true,"canDropoff":true,"openingstijden":{"ma":"08:20 - 13:35","di":"08:20 - 13:35","wo":"08:20 - 13:35","do":"08:20 - 13:35","vr":"08:20 - 13:35","za":"08:20 - 12:35","zo":"gesloten"}}},{"type":"Feature","geometry":{"type":"Point","coordinates":[15.00924,37.47808]},"properties":{"type":"pakketpunt","locatieNaam":"Amazon Locker - birillo","straatNaam":"Centro Commerciale Centro Sicilia Misterbianco","straatNr":"","vervoerder":"Amazon","puntType":"locker","bezettingsgraad":50,"latitude":37.47808,"longitude":15.00924,"canPickup":true,"canDropoff":false,"openingstijden":null}},{"type":"Feature","geometry":{"type":"Point","coordinates":[15.032228,37.512214]},"properties":{"type":"pakketpunt","locatieNaam":"Amazon Locker - ondino","straatNaam":"Il Centesimo Catania Franchetti/Marx","straatNr":"","vervoerder":"Amazon","puntType":"locker","bezettingsgraad":50,"latitude":37.512214,"longitude":15.032228,"canPickup":true,"canDropoff":false,"openingstijden":null}},{"type":"Feature","geometry":{"type":"Point","coordinates":[15.024353,37.51433]},"properties":{"type":"pakketpunt","locatieNaam":"Amazon Locker - sarah","straatNaam":"Eni Station pv.56391","straatNr":"","vervoerder":"Amazon","puntType":"locker","bezettingsgraad":50,"latitude":37.51433,"longitude":15.024353,"canPickup":true,"canDropoff":false,"openingstijden":null}},{"type":"Feature","geometry":{"type":"Point","coordinates":[15.005925,37.487801]},"properties":{"type":"pakketpunt","locatieNaam":"Amazon Locker - cristofora","straatNaam":"Humanitas Istituto Clinico Catanese S.p.A.","straatNr":"","vervoerder":"Amazon","puntType":"locker","bezettingsgraad":50,"latitude":37.487801,"longitude":15.005925,"canPickup":true,"canDropoff":false,"openingstijden":null}},{"type":"Feature","geometry":{"type":"Point","coordinates":[15.004141,37.5180537]},"properties":{"type":"pakketpunt","locatieNaam":"Amazon Counter","straatNaam":"Snai Vincendo (fermopoint)","straatNr":"","vervoerder":"Amazon","puntType":"helix","bezettingsgraad":50,"latitude":37.5180537,"longitude":15.004141,"canPickup":true,"canDropoff":false,"openingstijden":null}},{"type":"Feature","geometry":{"type":"Point","coordinates":[15.0307887,37.5126202]},"properties":{"type":"pakketpunt","locatieNaam":"Amazon Locker - Gabbiano","straatNaam":"ENI Station pv.9595","straatNr":"","vervoerder":"Amazon","puntType":"locker","bezettingsgraad":50,"latitude":37.5126202,"longitude":15.0307887,"canPickup":true,"canDropoff":false,"openingstijden":null}},{"type":"Feature","geometry":{"type":"Point","coordinates":[15.013748,37.514393]},"properties":{"type":"pakketpunt","locatieNaam":"Amazon Locker - floreana","straatNaam":"Countdown Bar Misterbianco","straatNr":"","vervoerder":"Amazon","puntType":"locker","bezettingsgraad":50,"latitude":37.514393,"longitude":15.013748,"canPickup":true,"canDropoff":false,"openingstijden":null}},{"type":"Feature","geometry":{"type":"Point","coordinates":[15.031648,37.534719]},"properties":{"type":"pakketpunt","locatieNaam":"Amazon Counter - ECOIL","straatNaam":"STRADA PER SAN GIOVANNI GALERMO SNC","straatNr":"","vervoerder":"Amazon","puntType":"helix","bezettingsgraad":50,"latitude":37.534719,"longitude":15.031648,"canPickup":true,"canDropoff":false,"openingstijden":null}},{"type":"Feature","geometry":{"type":"Point","coordinates":[15.035067,37.535739]},"properties":{"type":"pakketpunt","locatieNaam":"Amazon Counter - SANTONOCITO SANTO","straatNaam":"STRADA SAN GIOVANNI GALERMO 85","straatNr":"","vervoerder":"Amazon","puntType":"helix","bezettingsgraad":50,"latitude":37.535739,"longitude":15.035067,"canPickup":true,"canDropoff":false,"openingstijden":null}},{"type":"Feature","geometry":{"type":"Point","coordinates":[15.0529594,37.5256497]},"properties":{"type":"pakketpunt","locatieNaam":"Amazon Counter - REI PETROL S.R.L.","straatNaam":"VIA SEBASTIANO CATANIA 285/D","straatNr":"","vervoerder":"Amazon","puntType":"helix","bezettingsgraad":50,"latitude":37.5256497,"longitude":15.0529594,"canPickup":true,"canDropoff":false,"openingstijden":null}},{"type":"Feature","geometry":{"type":"Point","coordinates":[15.035,37.5358]},"properties":{"type":"pakketpunt","locatieNaam":"PuntoPoste TABACCHERIA N. 15","straatNaam":"STRADA SAN GIOVANNI GALERMO 85","straatNr":"","vervoerder":"Amazon","puntType":"3p","bezettingsgraad":50,"latitude":37.5358,"longitude":15.035,"canPickup":true,"canDropoff":false,"openingstijden":null}},{"type":"Feature","geometry":{"type":"Point","coordinates":[15.034092,37.534814]},"properties":{"type":"pakketpunt","locatieNaam":"Amazon Counter - Saponando","straatNaam":"Via Etna 163","straatNr":"","vervoerder":"Amazon","puntType":"helix","bezettingsgraad":50,"latitude":37.534814,"longitude":15.034092,"canPickup":true,"canDropoff":false,"openingstijden":null}},{"type":"Feature","geometry":{"type":"Point","coordinates":[15.008496,37.518189]},"properties":{"type":"pakketpunt","locatieNaam":"Amazon Counter - CARUSO MILENA","straatNaam":"VIA GARIBALDI 349","straatNr":"","vervoerder":"Amazon","puntType":"helix","bezettingsgraad":50,"latitude":37.518189,"longitude":15.008496,"canPickup":true,"canDropoff":false,"openingstijden":null}},{"type":"Feature","geometry":{"type":"Point","coordinates":[15.007322,37.519997]},"properties":{"type":"pakketpunt","locatieNaam":"Amazon Counter","straatNaam":"Parcel Post Service (fermopoint)","straatNr":"","vervoerder":"Amazon","puntType":"helix","bezettingsgraad":50,"latitude":37.519997,"longitude":15.007322,"canPickup":true,"canDropoff":false,"openingstijden":null}},{"type":"Feature","geometry":{"type":"MultiPolygon","coordinates":[[[[14.9656237,37.464296],[14.9660052,37.4642549],[14.9660718,37.4643773],[14.9670998,37.4645715],[14.9678922,37.464854],[14.9693417,37.4656191],[14.969884,37.4664629],[14.9720235,37.4676211],[14.9731013,37.4680745],[14.9750997,37.4684414],[14.9764986,37.4689176],[14.9772074,37.4693135],[14.9783271,37.4703297],[14.9795485,37.4705678],[14.9816701,37.4715627],[14.9822647,37.4719709],[14.9830415,37.4728978],[14.9850077,37.4738758],[14.9873489,37.4752108],[14.9883346,37.4760824],[14.9889707,37.4768003],[14.989805,37.4774607],[14.9916036,37.4781145],[14.9931171,37.4778381],[14.9946931,37.4779598],[14.9950319,37.4780511],[14.9955047,37.4783662],[14.9959096,37.4788213],[14.9974897,37.4796246],[14.9973732,37.4798613],[14.9968046,37.4802519],[14.9968931,37.4804861],[14.9974912,37.4809075],[14.9975529,37.481048],[14.997443,37.4813513],[14.9969389,37.4818942],[14.9969149,37.4821936],[14.9971184,37.4825837],[14.9967164,37.4830274],[14.9966128,37.4833052],[14.996409,37.4834286],[14.9959517,37.4831935],[14.9957948,37.4832147],[14.9955145,37.4837915],[14.9954447,37.4842124],[14.9949338,37.4851851],[14.9947098,37.4853075],[14.9940406,37.4852511],[14.9938367,37.4853921],[14.9937978,37.4856156],[14.9941586,37.4859593],[14.9940057,37.4862243],[14.9936852,37.4861923],[14.9929127,37.4858066],[14.9926445,37.4859705],[14.9926351,37.4861524],[14.9927384,37.4863067],[14.9935269,37.4870793],[14.9934572,37.4876071],[14.993248,37.487654],[14.9930281,37.4878572],[14.9929825,37.4882084],[14.9932105,37.4889421],[14.993152,37.4891327],[14.9934675,37.4891564],[14.9941772,37.4889501],[14.9946166,37.4890719],[14.9944876,37.4894343],[14.9941921,37.4896433],[14.9945378,37.4900267],[14.9945784,37.4904648],[14.9944657,37.4907841],[14.9942705,37.4910117],[14.9935216,37.4912736],[14.9934465,37.4914183],[14.9934948,37.4916141],[14.9936611,37.4917843],[14.9943423,37.4919631],[14.994337,37.4922397],[14.9936879,37.492257],[14.9929959,37.4923908],[14.9923022,37.4927279],[14.9921805,37.4932038],[14.9922293,37.4937498],[14.9923436,37.4938096],[14.9929583,37.4937954],[14.9931032,37.4939572],[14.9929798,37.494055],[14.9926901,37.4940891],[14.9919795,37.4940841],[14.9919547,37.4944146],[14.9918425,37.4946765],[14.9920195,37.4949786],[14.9923147,37.4952332],[14.9923241,37.4953352],[14.9917996,37.4956979],[14.9917998,37.4960043],[14.9921091,37.4965193],[14.9921215,37.4968939],[14.9924648,37.4973897],[14.9918677,37.4978012],[14.9918586,37.4979175],[14.9922074,37.4981657],[14.9922609,37.4988368],[14.9918311,37.4992754],[14.9920669,37.4993464],[14.9925819,37.4993183],[14.992628,37.4996077],[14.9925345,37.499798],[14.9926022,37.5000436],[14.9926043,37.5003667],[14.9925104,37.5005221],[14.992556,37.5007179],[14.9927545,37.50082],[14.9934074,37.5008061],[14.9935456,37.5008722],[14.9933633,37.5013754],[14.9933167,37.5019269],[14.9931194,37.5023051],[14.9931083,37.5024517],[14.9933059,37.5025709],[14.9929959,37.5032681],[14.9931632,37.5038814],[14.9931142,37.5042174],[14.9932914,37.5043613],[14.9933713,37.5045787],[14.9934028,37.5049805],[14.9933419,37.505144],[14.9934105,37.5052119],[14.9936235,37.5051498],[14.993851,37.5053877],[14.9938875,37.505932],[14.9939829,37.5061694],[14.9941519,37.5062992],[14.9941095,37.5064235],[14.9938353,37.5065944],[14.9945459,37.5069834],[14.9950644,37.5070683],[14.9949028,37.5072198],[14.9949305,37.5073435],[14.995537,37.5072937],[14.9955835,37.5073306],[14.9955002,37.5074976],[14.9958749,37.5075617],[14.9960903,37.5077326],[14.9958597,37.508158],[14.9958751,37.5083193],[14.9956968,37.5085537],[14.9956995,37.5086417],[14.996074,37.5088319],[14.9958083,37.5090426],[14.9957516,37.5091965],[14.9961324,37.5092933],[14.996491,37.5098286],[14.9965937,37.5101032],[14.9964007,37.5104628],[14.9965893,37.5108147],[14.9968341,37.5110524],[14.9969367,37.511367],[14.997255,37.5118783],[14.9977159,37.5122849],[14.998081,37.5124255],[14.9983328,37.51304],[14.9991701,37.5135549],[14.9991498,37.5140576],[14.9994769,37.5146604],[15.0000703,37.5149713],[15.0003913,37.515289],[15.0004484,37.5154939],[15.0008482,37.5155598],[15.0013283,37.5159365],[15.0019205,37.5161799],[15.0020569,37.5165942],[15.0023872,37.5170649],[15.0020627,37.5171985],[15.0020553,37.5174582],[15.0018079,37.5176711],[15.001302,37.5184094],[15.0007196,37.5190809],[15.0005292,37.5192138],[15.0006593,37.5193863],[14.9985112,37.5205454],[14.9971937,37.5219618],[14.9962236,37.5226933],[14.9955347,37.5239542],[14.994487,37.5263513],[14.9939809,37.5271067],[14.9907809,37.530255],[14.9900566,37.532588],[14.9906038,37.5327113],[14.9903282,37.533172],[14.9919383,37.5336333],[14.9919648,37.5339006],[14.9922158,37.5342806],[14.9925112,37.5344224],[14.9928179,37.534867],[14.9930809,37.5350742],[14.9932616,37.5360623],[14.9934227,37.536412],[14.994013,37.5363253],[14.9940588,37.5360207],[14.9952746,37.5362372],[14.9962523,37.5368853],[14.9965579,37.5372133],[14.9972538,37.5375945],[14.9973958,37.537882],[14.9983908,37.5381976],[14.9993908,37.5387977],[15.0004673,37.5387402],[15.0010279,37.5389814],[15.0013641,37.5389004],[15.0021333,37.5384974],[15.0024385,37.5384649],[15.004017,37.5389325],[15.0043969,37.5387849],[15.0050894,37.5383164],[15.0054096,37.5379205],[15.0055773,37.5381708],[15.005644,37.5390609],[15.006107,37.5395754],[15.0061667,37.5400288],[15.0075683,37.5415191],[15.0075908,37.5419146],[15.0085456,37.542367],[15.0087056,37.5426484],[15.0089764,37.5428798],[15.0092249,37.5433539],[15.0093768,37.5433613],[15.0096805,37.543729],[15.0106011,37.5440471],[15.0110349,37.5440051],[15.0112152,37.5443141],[15.0115135,37.544404],[15.0116113,37.5445203],[15.0116398,37.5449982],[15.0122345,37.5453584],[15.0135197,37.5456732],[15.0145502,37.5457556],[15.0151999,37.5459784],[15.0156786,37.546366],[15.0158008,37.5466438],[15.0164729,37.5469538],[15.0176487,37.5470847],[15.0182444,37.5476842],[15.0189343,37.5477488],[15.019507,37.5476518],[15.0201129,37.5473822],[15.0207169,37.5473004],[15.0207422,37.5479988],[15.0210961,37.5486446],[15.0211185,37.5489143],[15.0214103,37.5495554],[15.0214999,37.5495856],[15.0224916,37.5494646],[15.0226885,37.5497091],[15.0228858,37.549798],[15.0231288,37.5497562],[15.0237263,37.5498854],[15.0242771,37.5498866],[15.0246664,37.5498435],[15.025118,37.5493865],[15.0256114,37.5495492],[15.0259041,37.5497908],[15.0260748,37.5498296],[15.0264134,37.5501889],[15.0270691,37.5502426],[15.0273281,37.5501841],[15.0293655,37.5501836],[15.0303323,37.5504495],[15.0316027,37.5506115],[15.0317403,37.550506],[15.0319078,37.5505923],[15.032703,37.5506473],[15.0331345,37.5505816],[15.03344,37.5506485],[15.0339914,37.550324],[15.0340931,37.5501544],[15.034391,37.5503757],[15.0358838,37.550316],[15.0365777,37.5497779],[15.0373372,37.5495553],[15.0374743,37.5493563],[15.0374425,37.5490843],[15.0376124,37.5485855],[15.0385856,37.548225],[15.038823,37.5480189],[15.0388027,37.547701],[15.0392504,37.5474329],[15.0392376,37.5472251],[15.0394045,37.547011],[15.0402189,37.5463538],[15.0409534,37.5464316],[15.0416633,37.5462039],[15.0423773,37.5457454],[15.0431667,37.5449949],[15.0442151,37.544592],[15.0440665,37.5444547],[15.0459121,37.5433694],[15.0463435,37.5435366],[15.0466458,37.5425803],[15.0474139,37.5416135],[15.0473683,37.5414603],[15.047523,37.5408524],[15.0476691,37.5408083],[15.0477364,37.5405265],[15.0483198,37.5395939],[15.0483335,37.5387907],[15.0484697,37.5385432],[15.0484734,37.5382084],[15.0485508,37.5381044],[15.0479387,37.5381017],[15.0483628,37.5372569],[15.0486261,37.5372859],[15.0487798,37.5374717],[15.0488644,37.5373353],[15.0494776,37.5369671],[15.0493854,37.5373816],[15.0495408,37.538104],[15.0494732,37.5384517],[15.0497122,37.5390873],[15.0496081,37.5394],[15.0498628,37.5400949],[15.0500032,37.5402776],[15.0503174,37.5402832],[15.0503189,37.5401578],[15.0507989,37.5395069],[15.0509383,37.5394941],[15.0513648,37.5397451],[15.0513058,37.5398004],[15.0515338,37.5399472],[15.0515847,37.5402151],[15.0522845,37.5404479],[15.0523063,37.5406341],[15.0529984,37.5406118],[15.0540448,37.5402351],[15.0544527,37.5399623],[15.0554954,37.5396228],[15.0557368,37.5393761],[15.055886,37.5388758],[15.0558974,37.5381636],[15.0561609,37.5378843],[15.0558486,37.5363662],[15.0558795,37.536148],[15.0556471,37.5361416],[15.0556763,37.5356599],[15.0552978,37.5356458],[15.05645,37.5343357],[15.0564882,37.5339343],[15.0558164,37.5334235],[15.0539003,37.5330608],[15.0533805,37.5323579],[15.0531974,37.5323689],[15.0527513,37.5326539],[15.0524746,37.5326994],[15.0524292,37.5325399],[15.0525188,37.5322121],[15.0515324,37.5321618],[15.0510938,37.5318538],[15.0511704,37.5316204],[15.0524676,37.5309329],[15.0521948,37.5307635],[15.0522249,37.5305834],[15.052482,37.5303601],[15.0528082,37.5303213],[15.052941,37.5297706],[15.0527635,37.5295998],[15.0528145,37.5291148],[15.0530752,37.5288194],[15.0533241,37.5286894],[15.0534467,37.5284324],[15.0533903,37.5281265],[15.053671,37.5280294],[15.0538954,37.5276639],[15.0544715,37.5273397],[15.0542803,37.5266499],[15.0541353,37.5263971],[15.0532311,37.5254259],[15.0532954,37.5252604],[15.0536266,37.5249688],[15.0528996,37.5250242],[15.0522914,37.5249052],[15.0514861,37.5251485],[15.0510573,37.5253936],[15.0508777,37.5251786],[15.0507977,37.5246291],[15.0505844,37.5243955],[15.050424,37.5240574],[15.0506778,37.5237973],[15.0506419,37.523539],[15.0505008,37.5234962],[15.0493565,37.5239267],[15.0482763,37.5236735],[15.0476096,37.5233953],[15.0473194,37.5231029],[15.0468443,37.5228718],[15.0463975,37.523646],[15.045528,37.5244879],[15.0449199,37.5247603],[15.0448058,37.5218447],[15.0437962,37.5214383],[15.0434754,37.5212463],[15.0423209,37.5202551],[15.0406442,37.5193207],[15.0394957,37.5187918],[15.0395758,37.5181195],[15.0390976,37.5185119],[15.0386652,37.5184887],[15.0384741,37.5183381],[15.0377258,37.5181635],[15.0375486,37.5175386],[15.0369912,37.5167958],[15.0367993,37.5160489],[15.0370411,37.5146353],[15.0363806,37.5144497],[15.0361593,37.5142199],[15.035994,37.5138878],[15.0359678,37.5136121],[15.0351133,37.5125751],[15.0350251,37.5122365],[15.0351454,37.5116865],[15.0352849,37.5115556],[15.0353687,37.5115757],[15.0360507,37.5108343],[15.0368815,37.5106179],[15.0369003,37.5104349],[15.0360634,37.5105339],[15.0358173,37.5108525],[15.0354041,37.5108064],[15.0353391,37.5109241],[15.0335962,37.5101887],[15.0331999,37.5095102],[15.0329111,37.5081816],[15.031691,37.5071835],[15.0308416,37.5066646],[15.0298628,37.5051768],[15.0297998,37.5049446],[15.0298727,37.5041285],[15.0314033,37.5009245],[15.0302042,37.5004758],[15.0288765,37.5003375],[15.0287981,37.5003506],[15.0288515,37.5005584],[15.0286552,37.500853],[15.0280327,37.5012176],[15.0274574,37.5017102],[15.0266538,37.5015991],[15.0263028,37.5012472],[15.0256711,37.5003442],[15.0260982,37.500247],[15.0263052,37.5000175],[15.0264719,37.4994047],[15.0263473,37.4991204],[15.0264579,37.498688],[15.0270558,37.4979836],[15.0265,37.4979387],[15.0256632,37.4975268],[15.0256191,37.4974386],[15.0259064,37.4968933],[15.0261813,37.4965956],[15.0259593,37.4964066],[15.0257834,37.4963709],[15.0254696,37.4967318],[15.0251098,37.496807],[15.0247481,37.4967195],[15.0240419,37.49628],[15.0238587,37.4962418],[15.0233119,37.4964802],[15.0227923,37.4971061],[15.0225731,37.4971575],[15.0222217,37.4963771],[15.0218725,37.4963336],[15.0216879,37.4961155],[15.0216941,37.4949361],[15.0215131,37.4947009],[15.0211081,37.4944924],[15.0200352,37.4945818],[15.0193861,37.4947431],[15.0191822,37.4945576],[15.0191821,37.4944676],[15.0199587,37.4936011],[15.0198677,37.4932965],[15.0200158,37.4929982],[15.0199703,37.4927477],[15.0197892,37.4926441],[15.0196537,37.4923545],[15.0197959,37.4919946],[15.0196911,37.4916901],[15.0197673,37.4912585],[15.0196739,37.4909191],[15.0199249,37.490254],[15.0198058,37.4899594],[15.0193937,37.4893826],[15.0193579,37.4886536],[15.0197207,37.488306],[15.0203859,37.487217],[15.0203919,37.4868025],[15.0215486,37.4866421],[15.0236278,37.486507],[15.0244597,37.4865957],[15.0249379,37.486782],[15.0255,37.4860854],[15.0255403,37.4858678],[15.0254187,37.4852725],[15.0255576,37.4844637],[15.0254414,37.4841473],[15.0256526,37.4837212],[15.0258212,37.4829992],[15.0261491,37.4825515],[15.0267745,37.4811537],[15.0272632,37.4807997],[15.0273323,37.4802737],[15.0270813,37.4797665],[15.0269544,37.4785896],[15.0272875,37.4769012],[15.0272047,37.4763201],[15.0272612,37.4756318],[15.0271365,37.4752739],[15.0263286,37.4741425],[15.0255849,37.4734487],[15.0252747,37.4733264],[15.0240719,37.4733232],[15.0239558,37.4732587],[15.0237333,37.472714],[15.0234272,37.4715392],[15.0233693,37.468999],[15.0235196,37.4685652],[15.0245158,37.4684849],[15.0254724,37.4677094],[15.0259352,37.4671272],[15.0263317,37.4661587],[15.0226884,37.4650506],[15.0209241,37.4643309],[15.0166626,37.4630444],[15.016077,37.4626442],[15.0151361,37.4614472],[15.0137309,37.4606194],[15.0131016,37.4603977],[15.0097949,37.4596581],[15.0072907,37.4594929],[15.0051465,37.4596502],[15.004088,37.459322],[15.0016409,37.4591287],[14.9980731,37.4584348],[14.9973374,37.458235],[14.995169,37.4572892],[14.9941789,37.4567606],[14.9921531,37.4554958],[14.9893288,37.4544602],[14.9887455,37.4544338],[14.9874917,37.4541051],[14.9848403,37.4537362],[14.9833399,37.4537522],[14.982755,37.453832],[14.9817944,37.4542419],[14.9801037,37.4541917],[14.9797232,37.4540497],[14.9790934,37.4536168],[14.9780023,37.452714],[14.9778555,37.4529963],[14.976907,37.4541358],[14.9764527,37.4544696],[14.9752717,37.4549318],[14.9741106,37.4557387],[14.9731979,37.4560887],[14.9728419,37.4563099],[14.9701747,37.4590161],[14.9699381,37.4593597],[14.969873,37.4597949],[14.9696701,37.4601531],[14.9689503,37.4608504],[14.9683246,37.4612091],[14.9676951,37.4619857],[14.9666881,37.462905],[14.9660685,37.4641148],[14.9656237,37.464296]]],[[[14.9748768,37.4730393],[14.9742844,37.4733253],[14.9741787,37.4734544],[14.9740031,37.4740558],[14.9735029,37.4744347],[14.9732536,37.4749018],[14.9729828,37.4748633],[14.9723737,37.4745568],[14.9722968,37.4742875],[14.9718771,37.4742651],[14.9698514,37.4752838],[14.9696781,37.475613],[14.9696839,37.4762737],[14.9748498,37.4786053],[14.9748828,37.4783342],[14.9751967,37.4778364],[14.975403,37.4776089],[14.9761685,37.4770956],[14.9762891,37.4767321],[14.9765839,37.476277],[14.9767989,37.4761861],[14.9771614,37.4762025],[14.9775933,37.4760345],[14.977636,37.4758883],[14.9775179,37.4749923],[14.9763647,37.4739973],[14.9760235,37.4734946],[14.9752975,37.4729666],[14.9748768,37.4730393]]]]},"properties":{"type":"boundary","gemeente":"Misterbianco"}}]}