{"type":"FeatureCollection","metadata":{"gemeente":"Molina Aterno","slug":"molina-aterno","generated_at":"2026-09-26T13:10:11.963440Z","total_points":1,"providers":["PosteItaliane"],"bounds":[13.73509135,42.14784455,13.73509135,42.14784455]},"features":[{"type":"Feature","geometry":{"type":"Point","coordinates":[13.73509135,42.14784455]},"properties":{"type":"pakketpunt","locatieNaam":"Molina Aterno","straatNaam":"Via Colle","straatNr":"1","vervoerder":"PosteItaliane","puntType":"postkantoor","bezettingsgraad":50,"latitude":42.14784455,"longitude":13.73509135,"canPickup":true,"canDropoff":true,"openingstijden":{"za":"08:20 - 12:45","zo":"gesloten","ma":"gesloten","di":"08:20 - 13:45","wo":"gesloten","do":"08:20 - 13:45","vr":"gesloten"}}},{"type":"Feature","geometry":{"type":"Polygon","coordinates":[[[13.7087768,42.1679026],[13.7167168,42.163925],[13.722284,42.1628266],[13.7275069,42.1625615],[13.7308343,42.1626266],[13.732284,42.1627873],[13.7364048,42.1637242],[13.7539488,42.1641313],[13.7597385,42.1639312],[13.7630607,42.1636445],[13.7652333,42.1633695],[13.7678449,42.1616312],[13.775457,42.1523288],[13.7757443,42.1518757],[13.7752662,42.1484204],[13.7749733,42.1472623],[13.7779745,42.1365495],[13.7637527,42.1312047],[13.7633667,42.1317924],[13.753712,42.1379557],[13.7517786,42.1390623],[13.7439445,42.143011],[13.7406827,42.1433442],[13.7370041,42.1433299],[13.7323633,42.1442511],[13.7270406,42.1465147],[13.715686,42.1533257],[13.7136365,42.1552648],[13.713416,42.1559716],[13.7136478,42.1588746],[13.7152751,42.1603966],[13.7087768,42.1679026]]]},"properties":{"type":"boundary","gemeente":"Molina Aterno"}}]}