{"type":"FeatureCollection","metadata":{"gemeente":"Monfalcone","slug":"monfalcone","generated_at":"2026-09-26T13:10:12.427345Z","total_points":58,"providers":["PosteItaliane","DPD","InPost","GLS","DHL","Amazon"],"bounds":[13.5122,45.79023758,13.560505,45.81769]},"features":[{"type":"Feature","geometry":{"type":"Point","coordinates":[13.53089146,45.80076503]},"properties":{"type":"pakketpunt","locatieNaam":"Monfalcone 1","straatNaam":"Via Callisto Cosulich","straatNr":"71","vervoerder":"PosteItaliane","puntType":"postkantoor","bezettingsgraad":50,"latitude":45.80076503,"longitude":13.53089146,"canPickup":true,"canDropoff":true,"openingstijden":{"za":"08:20 - 12:35","zo":"gesloten","ma":"08:20 - 13:35","di":"08:20 - 13:35","wo":"08:20 - 13:35","do":"08:20 - 13:35","vr":"08:20 - 13:35"}}},{"type":"Feature","geometry":{"type":"Point","coordinates":[13.52586455,45.81117897]},"properties":{"type":"pakketpunt","locatieNaam":"Monfalcone","straatNaam":"Via Giuseppe Parini","straatNr":"12","vervoerder":"PosteItaliane","puntType":"postkantoor","bezettingsgraad":50,"latitude":45.81117897,"longitude":13.52586455,"canPickup":true,"canDropoff":true,"openingstijden":{"za":"08:20 - 12:35","zo":"gesloten","ma":"08:20 - 19:05","di":"08:20 - 19:05","wo":"08:20 - 19:05","do":"08:20 - 19:05","vr":"08:20 - 19:05"}}},{"type":"Feature","geometry":{"type":"Point","coordinates":[13.54861934,45.80233821]},"properties":{"type":"pakketpunt","locatieNaam":"Monfalcone 2","straatNaam":"Via Eugenio Valentinis","straatNr":"82","vervoerder":"PosteItaliane","puntType":"postkantoor","bezettingsgraad":50,"latitude":45.80233821,"longitude":13.54861934,"canPickup":true,"canDropoff":true,"openingstijden":{"za":"08:20 - 12:35","zo":"gesloten","ma":"08:20 - 13:35","di":"08:20 - 13:35","wo":"08:20 - 13:35","do":"08:20 - 13:35","vr":"08:20 - 13:35"}}},{"type":"Feature","geometry":{"type":"Point","coordinates":[13.525996,45.81070367]},"properties":{"type":"pakketpunt","locatieNaam":"Ufficio Postale Monfalcone","straatNaam":"Via Giuseppe Parini","straatNr":"8","vervoerder":"PosteItaliane","puntType":"automaat","bezettingsgraad":50,"latitude":45.81070367,"longitude":13.525996,"canPickup":true,"canDropoff":true,"openingstijden":{"za":"08:20 - 12:35","zo":"gesloten","ma":"08:20 - 19:05","di":"08:20 - 19:05","wo":"08:20 - 19:05","do":"08:20 - 19:05","vr":"08:20 - 19:05"}}},{"type":"Feature","geometry":{"type":"Point","coordinates":[13.53139602,45.80939207]},"properties":{"type":"pakketpunt","locatieNaam":"Tabaccheria N. 10","straatNaam":"Via Duca D'aosta","straatNr":"88","vervoerder":"PosteItaliane","puntType":"servicepunt","bezettingsgraad":50,"latitude":45.80939207,"longitude":13.53139602,"canPickup":true,"canDropoff":true,"openingstijden":{"za":"09:00 - 12:00, 16:00 - 19:00","zo":"gesloten","ma":"09:00 - 12:00, 16:00 - 19:00","di":"09:00 - 12:00, 16:00 - 19:00","wo":"09:00 - 12:00, 16:00 - 19:00","do":"09:00 - 12:00, 16:00 - 19:00","vr":"09:00 - 12:00, 16:00 - 19:00"}}},{"type":"Feature","geometry":{"type":"Point","coordinates":[13.56050471,45.79023758]},"properties":{"type":"pakketpunt","locatieNaam":"Stazione Di Servizio Gnp","straatNaam":"Via Terme Romane","straatNr":"5","vervoerder":"PosteItaliane","puntType":"automaat","bezettingsgraad":50,"latitude":45.79023758,"longitude":13.56050471,"canPickup":true,"canDropoff":true,"openingstijden":{"za":"00:01 - 23:59","zo":"00:01 - 23:59","ma":"00:01 - 23:59","di":"00:01 - 23:59","wo":"00:01 - 23:59","do":"00:01 - 23:59","vr":"00:01 - 23:59"}}},{"type":"Feature","geometry":{"type":"Point","coordinates":[13.51463227,45.81065694]},"properties":{"type":"pakketpunt","locatieNaam":"Tabaccheria N. 8","straatNaam":"Via Aris","straatNr":"57","vervoerder":"PosteItaliane","puntType":"servicepunt","bezettingsgraad":50,"latitude":45.81065694,"longitude":13.51463227,"canPickup":true,"canDropoff":true,"openingstijden":{"za":"05:30 - 12:30","zo":"gesloten","ma":"05:30 - 12:30, 15:30 - 18:50","di":"05:30 - 12:30, 15:30 - 18:50","wo":"05:30 - 12:30, 15:30 - 18:50","do":"05:30 - 12:30, 15:30 - 18:50","vr":"05:30 - 12:30, 15:30 - 18:50"}}},{"type":"Feature","geometry":{"type":"Point","coordinates":[13.53328718,45.79890402]},"properties":{"type":"pakketpunt","locatieNaam":"Tabaccheria N. 13","straatNaam":"Via Callisto Cosulich","straatNr":"135","vervoerder":"PosteItaliane","puntType":"servicepunt","bezettingsgraad":50,"latitude":45.79890402,"longitude":13.53328718,"canPickup":true,"canDropoff":true,"openingstijden":{"za":"06:00 - 12:50","zo":"gesloten","ma":"06:00 - 12:55, 16:00 - 19:25","di":"06:00 - 12:55, 16:00 - 19:25","wo":"06:00 - 12:55, 16:00 - 19:25","do":"06:00 - 12:55, 16:00 - 19:25","vr":"06:00 - 12:55, 16:00 - 19:25"}}},{"type":"Feature","geometry":{"type":"Point","coordinates":[13.5314504,45.79734413]},"properties":{"type":"pakketpunt","locatieNaam":"Tabaccheria N. 29","straatNaam":"Via Gorizia","straatNr":"31","vervoerder":"PosteItaliane","puntType":"servicepunt","bezettingsgraad":50,"latitude":45.79734413,"longitude":13.5314504,"canPickup":true,"canDropoff":true,"openingstijden":{"za":"06:30 - 13:00","zo":"gesloten","ma":"05:00 - 19:00","di":"05:00 - 19:00","wo":"05:00 - 19:00","do":"05:00 - 19:00","vr":"05:00 - 19:00"}}},{"type":"Feature","geometry":{"type":"Point","coordinates":[13.52136681,45.80639162]},"properties":{"type":"pakketpunt","locatieNaam":"Tabaccheria N. 35","straatNaam":"Via Isonzo","straatNr":"17","vervoerder":"PosteItaliane","puntType":"servicepunt","bezettingsgraad":50,"latitude":45.80639162,"longitude":13.52136681,"canPickup":true,"canDropoff":true,"openingstijden":{"za":"06:15 - 12:00, 15:30 - 18:30","zo":"gesloten","ma":"06:15 - 12:00","di":"06:15 - 12:00, 15:30 - 18:30","wo":"06:15 - 12:00","do":"06:15 - 12:00, 15:30 - 18:30","vr":"06:15 - 12:00, 15:30 - 18:30"}}},{"type":"Feature","geometry":{"type":"Point","coordinates":[13.54958526,45.80164598]},"properties":{"type":"pakketpunt","locatieNaam":"Stazione Di Servizio Eni","straatNaam":"Via Eugenio Valentinis","straatNr":"61","vervoerder":"PosteItaliane","puntType":"automaat","bezettingsgraad":50,"latitude":45.80164598,"longitude":13.54958526,"canPickup":true,"canDropoff":true,"openingstijden":{"za":"00:01 - 23:59","zo":"00:01 - 23:59","ma":"00:01 - 23:59","di":"00:01 - 23:59","wo":"00:01 - 23:59","do":"00:01 - 23:59","vr":"00:01 - 23:59"}}},{"type":"Feature","geometry":{"type":"Point","coordinates":[13.5336552,45.8096469]},"properties":{"type":"pakketpunt","locatieNaam":"Puff Store Monfalcone","straatNaam":"CORSO DEL POPOLO","straatNr":"3","vervoerder":"DPD","puntType":"pickup_point","bezettingsgraad":50,"latitude":45.8096469,"longitude":13.5336552,"canPickup":true,"canDropoff":true,"openingstijden":{"ma":"09:30 - 12:30, 16:00 - 19:00","di":"09:30 - 12:30, 16:00 - 19:00","wo":"09:30 - 12:30, 16:00 - 19:00","do":"09:30 - 12:30, 16:00 - 19:00","vr":"09:30 - 12:30, 16:00 - 19:00","za":"09:30 - 12:30, 16:00 - 19:00","zo":"gesloten"}}},{"type":"Feature","geometry":{"type":"Point","coordinates":[13.5345729,45.8067681]},"properties":{"type":"pakketpunt","locatieNaam":"Tabaccheria Sanmarco","straatNaam":"VIA SAN MARCO","straatNr":"35 B","vervoerder":"DPD","puntType":"pickup_point","bezettingsgraad":50,"latitude":45.8067681,"longitude":13.5345729,"canPickup":true,"canDropoff":true,"openingstijden":{"ma":"08:30 - 13:00, 15:30 - 19:00","di":"08:30 - 13:00, 15:30 - 19:00","wo":"08:30 - 13:00, 15:30 - 19:00","do":"08:30 - 13:00, 15:30 - 19:00","vr":"08:30 - 13:00, 15:30 - 19:00","za":"gesloten","zo":"gesloten"}}},{"type":"Feature","geometry":{"type":"Point","coordinates":[13.5213261,45.8063563]},"properties":{"type":"pakketpunt","locatieNaam":"TABACCHERIA-EDICOLA MM","straatNaam":"VIA ISONZO","straatNr":"17","vervoerder":"DPD","puntType":"pickup_point","bezettingsgraad":50,"latitude":45.8063563,"longitude":13.5213261,"canPickup":true,"canDropoff":true,"openingstijden":{"ma":"05:00 - 12:00","di":"05:00 - 12:00, 15:30 - 18:30","wo":"05:00 - 12:00","do":"05:00 - 12:00, 15:30 - 18:30","vr":"05:00 - 12:00, 15:30 - 18:30","za":"05:00 - 12:00, 15:30 - 18:30","zo":"gesloten"}}},{"type":"Feature","geometry":{"type":"Point","coordinates":[13.5194214,45.7935669]},"properties":{"type":"pakketpunt","locatieNaam":"Cunja Group","straatNaam":"VIA CHICO MENDES","straatNr":"2","vervoerder":"DPD","puntType":"pickup_point","bezettingsgraad":50,"latitude":45.7935669,"longitude":13.5194214,"canPickup":true,"canDropoff":true,"openingstijden":{"ma":"07:00 - 15:00","di":"07:00 - 15:00","wo":"07:00 - 15:00","do":"07:00 - 15:00","vr":"07:00 - 15:00","za":"gesloten","zo":"gesloten"}}},{"type":"Feature","geometry":{"type":"Point","coordinates":[13.5380752,45.8052893]},"properties":{"type":"pakketpunt","locatieNaam":"Centro Contabile Buffetti","straatNaam":"VIA CARDUCCI","straatNr":"28-30","vervoerder":"DPD","puntType":"pickup_point","bezettingsgraad":50,"latitude":45.8052893,"longitude":13.5380752,"canPickup":true,"canDropoff":true,"openingstijden":{"ma":"09:00 - 13:00, 15:00 - 19:00","di":"09:00 - 13:00, 15:00 - 19:00","wo":"09:00 - 13:00, 15:00 - 19:00","do":"09:00 - 13:00, 15:00 - 19:00","vr":"09:00 - 13:00, 15:00 - 19:00","za":"gesloten","zo":"gesloten"}}},{"type":"Feature","geometry":{"type":"Point","coordinates":[13.5314412,45.79734]},"properties":{"type":"pakketpunt","locatieNaam":"Smoke31","straatNaam":"VIA GORIZIA","straatNr":"31-33","vervoerder":"DPD","puntType":"pickup_point","bezettingsgraad":50,"latitude":45.79734,"longitude":13.5314412,"canPickup":true,"canDropoff":true,"openingstijden":{"ma":"06:00 - 19:30","di":"06:00 - 19:30","wo":"06:00 - 19:30","do":"06:00 - 19:30","vr":"06:00 - 19:30","za":"09:00 - 15:00","zo":"gesloten"}}},{"type":"Feature","geometry":{"type":"Point","coordinates":[13.53297,45.81201]},"properties":{"type":"pakketpunt","locatieNaam":"InPost Point","straatNaam":"Corso del popolo","straatNr":"3","vervoerder":"InPost","puntType":"servicepunt","bezettingsgraad":50,"latitude":45.81201,"longitude":13.53297,"canPickup":true,"canDropoff":true,"openingstijden":"Lun-Sab: 09:30 - 12:30 - 16:00 - 19:00"}},{"type":"Feature","geometry":{"type":"Point","coordinates":[13.5122,45.81769]},"properties":{"type":"pakketpunt","locatieNaam":"InPost Locker","straatNaam":"Via G. F. Pocar","straatNr":"1","vervoerder":"InPost","puntType":"automaat","bezettingsgraad":50,"latitude":45.81769,"longitude":13.5122,"canPickup":true,"canDropoff":true,"openingstijden":null}},{"type":"Feature","geometry":{"type":"Point","coordinates":[13.53499,45.80925]},"properties":{"type":"pakketpunt","locatieNaam":"","straatNaam":"Corso del Popolo","straatNr":"44","vervoerder":"InPost","puntType":"automaat","bezettingsgraad":50,"latitude":45.80925,"longitude":13.53499,"canPickup":true,"canDropoff":true,"openingstijden":null}},{"type":"Feature","geometry":{"type":"Point","coordinates":[13.54621,45.802]},"properties":{"type":"pakketpunt","locatieNaam":"InPost Locker 24/7","straatNaam":"Via Boito","straatNr":"57","vervoerder":"InPost","puntType":"automaat","bezettingsgraad":50,"latitude":45.802,"longitude":13.54621,"canPickup":true,"canDropoff":true,"openingstijden":null}},{"type":"Feature","geometry":{"type":"Point","coordinates":[13.5314412,45.79734]},"properties":{"type":"pakketpunt","locatieNaam":"Smoke31","straatNaam":"Via Gorizia","straatNr":"31/33","vervoerder":"GLS","puntType":"parcel_shop","bezettingsgraad":50,"latitude":45.79734,"longitude":13.5314412,"canPickup":true,"canDropoff":true,"openingstijden":"za: 07:30 - 19:00; ma: 05:00 - 19:00"}},{"type":"Feature","geometry":{"type":"Point","coordinates":[13.5332827,45.798813]},"properties":{"type":"pakketpunt","locatieNaam":"TABACCHERIA Da Stefano","straatNaam":"Via Callisto Cosulich","straatNr":"135","vervoerder":"GLS","puntType":"parcel_shop","bezettingsgraad":50,"latitude":45.798813,"longitude":13.5332827,"canPickup":true,"canDropoff":true,"openingstijden":"za: 05:00 - 12:30; ma: 05:00 - 13:00, 16:00 - 19:30"}},{"type":"Feature","geometry":{"type":"Point","coordinates":[13.5380752,45.8052893]},"properties":{"type":"pakketpunt","locatieNaam":"BUFFETTI - CENTRO CONTABILE SNC","straatNaam":"Via Carducci","straatNr":"28/30","vervoerder":"GLS","puntType":"parcel_shop","bezettingsgraad":50,"latitude":45.8052893,"longitude":13.5380752,"canPickup":true,"canDropoff":true,"openingstijden":"ma: 09:00 - 13:00, 15:00 - 19:00; di: 09:00 - 13:00, 15:00 - 19:00"}},{"type":"Feature","geometry":{"type":"Point","coordinates":[13.5212982,45.8063111]},"properties":{"type":"pakketpunt","locatieNaam":"MM","straatNaam":"Via Isonzo","straatNr":"17","vervoerder":"GLS","puntType":"parcel_shop","bezettingsgraad":50,"latitude":45.8063111,"longitude":13.5212982,"canPickup":true,"canDropoff":true,"openingstijden":"za: 06:30 - 12:00, 15:30 - 18:30; ma: 06:30 - 12:00"}},{"type":"Feature","geometry":{"type":"Point","coordinates":[13.5336552,45.8096469]},"properties":{"type":"pakketpunt","locatieNaam":"PUFF STORE","straatNaam":"Corso Del Popolo","straatNr":"3","vervoerder":"GLS","puntType":"parcel_shop","bezettingsgraad":50,"latitude":45.8096469,"longitude":13.5336552,"canPickup":true,"canDropoff":true,"openingstijden":"za: 09:30 - 12:30, 16:00 - 19:00; ma: 09:30 - 12:30, 16:00 - 19:00"}},{"type":"Feature","geometry":{"type":"Point","coordinates":[13.5305202,45.8107873]},"properties":{"type":"pakketpunt","locatieNaam":"k&m fashion","straatNaam":"Via Xxv Aprile","straatNr":"51","vervoerder":"GLS","puntType":"parcel_shop","bezettingsgraad":50,"latitude":45.8107873,"longitude":13.5305202,"canPickup":true,"canDropoff":true,"openingstijden":"za: 09:30 - 12:30, 17:00 - 21:30; zo: 09:30 - 12:30, 17:00 - 21:30"}},{"type":"Feature","geometry":{"type":"Point","coordinates":[13.5167589,45.8125893]},"properties":{"type":"pakketpunt","locatieNaam":"XINYU","straatNaam":"Via I Maggio","straatNr":"99","vervoerder":"GLS","puntType":"parcel_shop","bezettingsgraad":50,"latitude":45.8125893,"longitude":13.5167589,"canPickup":true,"canDropoff":true,"openingstijden":"za: 09:00 - 12:30, 15:30 - 19:00; ma: 09:00 - 12:30, 15:30 - 19:00"}},{"type":"Feature","geometry":{"type":"Point","coordinates":[13.514632,45.810657]},"properties":{"type":"pakketpunt","locatieNaam":"TABACCHERIA n. 8","straatNaam":"VIA ARIS 57","straatNr":"","vervoerder":"DHL","puntType":"parcelShop","bezettingsgraad":50,"latitude":45.810657,"longitude":13.514632,"canPickup":true,"canDropoff":true,"openingstijden":{"ma":"05:30 - 12:30, 15:30 - 18:50","di":"05:30 - 12:30, 15:30 - 18:50","wo":"05:30 - 12:30, 15:30 - 18:50","do":"05:30 - 12:30, 15:30 - 18:50","vr":"05:30 - 12:30, 15:30 - 18:50","za":"05:30 - 12:30","zo":"gesloten"}}},{"type":"Feature","geometry":{"type":"Point","coordinates":[13.521367,45.806392]},"properties":{"type":"pakketpunt","locatieNaam":"TABACCHERIA N. 35","straatNaam":"VIA ISONZO 17","straatNr":"","vervoerder":"DHL","puntType":"parcelShop","bezettingsgraad":50,"latitude":45.806392,"longitude":13.521367,"canPickup":true,"canDropoff":true,"openingstijden":{"ma":"06:15 - 12:00","di":"06:15 - 12:00, 15:30 - 18:30","wo":"06:15 - 12:00","do":"06:15 - 12:00, 15:30 - 18:30","vr":"06:15 - 12:00, 15:30 - 18:30","za":"06:15 - 12:00, 15:30 - 18:30","zo":"gesloten"}}},{"type":"Feature","geometry":{"type":"Point","coordinates":[13.53145,45.797344]},"properties":{"type":"pakketpunt","locatieNaam":"TABACCHERIA N. 29","straatNaam":"VIA GORIZIA 31","straatNr":"","vervoerder":"DHL","puntType":"parcelShop","bezettingsgraad":50,"latitude":45.797344,"longitude":13.53145,"canPickup":true,"canDropoff":true,"openingstijden":{"ma":"05:00 - 19:00","di":"05:00 - 19:00","wo":"05:00 - 19:00","do":"05:00 - 19:00","vr":"05:00 - 19:00","za":"06:30 - 13:00","zo":"gesloten"}}},{"type":"Feature","geometry":{"type":"Point","coordinates":[13.530891,45.800765]},"properties":{"type":"pakketpunt","locatieNaam":"Ufficio Postale MONFALCONE 1","straatNaam":"VIA CALLISTO COSULICH 71","straatNr":"","vervoerder":"DHL","puntType":"postOffice","bezettingsgraad":50,"latitude":45.800765,"longitude":13.530891,"canPickup":true,"canDropoff":true,"openingstijden":{"ma":"08:20 - 13:35","di":"08:20 - 13:35","wo":"08:20 - 13:35","do":"08:20 - 13:35","vr":"08:20 - 13:35","za":"08:20 - 12:35","zo":"gesloten"}}},{"type":"Feature","geometry":{"type":"Point","coordinates":[13.533287,45.798904]},"properties":{"type":"pakketpunt","locatieNaam":"TABACCHERIA N. 13","straatNaam":"VIA CALLISTO COSULICH 135","straatNr":"","vervoerder":"DHL","puntType":"parcelShop","bezettingsgraad":50,"latitude":45.798904,"longitude":13.533287,"canPickup":true,"canDropoff":true,"openingstijden":{"ma":"06:00 - 12:55, 16:00 - 19:25","di":"06:00 - 12:55, 16:00 - 19:25","wo":"06:00 - 12:55, 16:00 - 19:25","do":"06:00 - 12:55, 16:00 - 19:25","vr":"06:00 - 12:55, 16:00 - 19:25","za":"06:00 - 12:50","zo":"gesloten"}}},{"type":"Feature","geometry":{"type":"Point","coordinates":[13.525996,45.810704]},"properties":{"type":"pakketpunt","locatieNaam":"UFFICIO POSTALE MONFALCONE","straatNaam":"VIA GIUSEPPE PARINI 8","straatNr":"","vervoerder":"DHL","puntType":"packStation","bezettingsgraad":50,"latitude":45.810704,"longitude":13.525996,"canPickup":true,"canDropoff":true,"openingstijden":{"ma":"08:20 - 19:05","di":"08:20 - 19:05","wo":"08:20 - 19:05","do":"08:20 - 19:05","vr":"08:20 - 19:05","za":"08:20 - 12:35","zo":"gesloten"}}},{"type":"Feature","geometry":{"type":"Point","coordinates":[13.525865,45.811179]},"properties":{"type":"pakketpunt","locatieNaam":"Ufficio Postale MONFALCONE","straatNaam":"VIA GIUSEPPE PARINI 12","straatNr":"","vervoerder":"DHL","puntType":"postOffice","bezettingsgraad":50,"latitude":45.811179,"longitude":13.525865,"canPickup":true,"canDropoff":true,"openingstijden":{"ma":"08:20 - 19:05","di":"08:20 - 19:05","wo":"08:20 - 19:05","do":"08:20 - 19:05","vr":"08:20 - 19:05","za":"08:20 - 12:35","zo":"gesloten"}}},{"type":"Feature","geometry":{"type":"Point","coordinates":[13.5302,45.8097]},"properties":{"type":"pakketpunt","locatieNaam":"PUNTO E.ON MONFALCONE","straatNaam":"Via Oberdan 4","straatNr":"","vervoerder":"DHL","puntType":"parcelShop","bezettingsgraad":50,"latitude":45.8097,"longitude":13.5302,"canPickup":false,"canDropoff":true,"openingstijden":{"ma":"09:00 - 18:30","di":"09:00 - 18:30","wo":"09:00 - 18:30","do":"09:00 - 18:30","vr":"09:00 - 18:30","za":"gesloten","zo":"gesloten"}}},{"type":"Feature","geometry":{"type":"Point","coordinates":[13.531396,45.809392]},"properties":{"type":"pakketpunt","locatieNaam":"TABACCHERIA N. 10","straatNaam":"VIA DUCA DAOSTA 88","straatNr":"","vervoerder":"DHL","puntType":"parcelShop","bezettingsgraad":50,"latitude":45.809392,"longitude":13.531396,"canPickup":true,"canDropoff":true,"openingstijden":{"ma":"09:00 - 12:00, 16:00 - 19:00","di":"09:00 - 12:00, 16:00 - 19:00","wo":"09:00 - 12:00, 16:00 - 19:00","do":"09:00 - 12:00, 16:00 - 19:00","vr":"09:00 - 12:00, 16:00 - 19:00","za":"09:00 - 12:00, 16:00 - 19:00","zo":"gesloten"}}},{"type":"Feature","geometry":{"type":"Point","coordinates":[13.546428,45.802937]},"properties":{"type":"pakketpunt","locatieNaam":"ENI - DISTRIBUTORE","straatNaam":"Valentinis, 61","straatNr":"","vervoerder":"DHL","puntType":"parcelShop","bezettingsgraad":50,"latitude":45.802937,"longitude":13.546428,"canPickup":false,"canDropoff":true,"openingstijden":{"ma":"07:00 - 19:00","di":"07:00 - 19:00","wo":"07:00 - 19:00","do":"07:00 - 19:00","vr":"07:00 - 19:00","za":"07:00 - 19:00","zo":"08:00 - 13:00"}}},{"type":"Feature","geometry":{"type":"Point","coordinates":[13.548619,45.802338]},"properties":{"type":"pakketpunt","locatieNaam":"Ufficio Postale MONFALCONE 2","straatNaam":"VIA EUGENIO VALENTINIS 82","straatNr":"","vervoerder":"DHL","puntType":"postOffice","bezettingsgraad":50,"latitude":45.802338,"longitude":13.548619,"canPickup":true,"canDropoff":true,"openingstijden":{"ma":"08:20 - 13:35","di":"08:20 - 13:35","wo":"08:20 - 13:35","do":"08:20 - 13:35","vr":"08:20 - 13:35","za":"08:20 - 12:35","zo":"gesloten"}}},{"type":"Feature","geometry":{"type":"Point","coordinates":[13.549585,45.801646]},"properties":{"type":"pakketpunt","locatieNaam":"STAZIONE DI SERVIZIO ENI","straatNaam":"VIA EUGENIO VALENTINIS 61","straatNr":"","vervoerder":"DHL","puntType":"packStation","bezettingsgraad":50,"latitude":45.801646,"longitude":13.549585,"canPickup":true,"canDropoff":true,"openingstijden":{"ma":"00:01 - 23:59","di":"00:01 - 23:59","wo":"00:01 - 23:59","do":"00:01 - 23:59","vr":"00:01 - 23:59","za":"00:01 - 23:59","zo":"00:01 - 23:59"}}},{"type":"Feature","geometry":{"type":"Point","coordinates":[13.560505,45.790238]},"properties":{"type":"pakketpunt","locatieNaam":"STAZIONE DI SERVIZIO GNP","straatNaam":"VIA TERME ROMANE 5","straatNr":"","vervoerder":"DHL","puntType":"packStation","bezettingsgraad":50,"latitude":45.790238,"longitude":13.560505,"canPickup":true,"canDropoff":true,"openingstijden":{"ma":"00:01 - 23:59","di":"00:01 - 23:59","wo":"00:01 - 23:59","do":"00:01 - 23:59","vr":"00:01 - 23:59","za":"00:01 - 23:59","zo":"00:01 - 23:59"}}},{"type":"Feature","geometry":{"type":"Point","coordinates":[13.527025,45.798631]},"properties":{"type":"pakketpunt","locatieNaam":"Amazon Locker - egla","straatNaam":"Spak Supermercato - Monfalcone","straatNr":"","vervoerder":"Amazon","puntType":"locker","bezettingsgraad":50,"latitude":45.798631,"longitude":13.527025,"canPickup":true,"canDropoff":false,"openingstijden":null}},{"type":"Feature","geometry":{"type":"Point","coordinates":[13.5494852,45.8016124]},"properties":{"type":"pakketpunt","locatieNaam":"Amazon Locker - antonillo","straatNaam":"Eni Station Pv.4131","straatNr":"","vervoerder":"Amazon","puntType":"locker","bezettingsgraad":50,"latitude":45.8016124,"longitude":13.5494852,"canPickup":true,"canDropoff":false,"openingstijden":null}},{"type":"Feature","geometry":{"type":"Point","coordinates":[13.5194214,45.7935669]},"properties":{"type":"pakketpunt","locatieNaam":"Amazon Counter (fermopoint)","straatNaam":"Cunja Group","straatNr":"","vervoerder":"Amazon","puntType":"helix","bezettingsgraad":50,"latitude":45.7935669,"longitude":13.5194214,"canPickup":true,"canDropoff":false,"openingstijden":null}},{"type":"Feature","geometry":{"type":"Point","coordinates":[13.534454,45.806906]},"properties":{"type":"pakketpunt","locatieNaam":"Amazon Counter (fermopoint)","straatNaam":"Tabaccheria Sanmarco","straatNr":"","vervoerder":"Amazon","puntType":"helix","bezettingsgraad":50,"latitude":45.806906,"longitude":13.534454,"canPickup":true,"canDropoff":false,"openingstijden":null}},{"type":"Feature","geometry":{"type":"Point","coordinates":[13.5308,45.8007]},"properties":{"type":"pakketpunt","locatieNaam":"Ufficio Postale MONFALCONE 1","straatNaam":"VIA CALLISTO COSULICH 71","straatNr":"","vervoerder":"Amazon","puntType":"3p","bezettingsgraad":50,"latitude":45.8007,"longitude":13.5308,"canPickup":true,"canDropoff":false,"openingstijden":null}},{"type":"Feature","geometry":{"type":"Point","coordinates":[13.547974,45.801661]},"properties":{"type":"pakketpunt","locatieNaam":"Amazon Locker - almeris","straatNaam":"Conad Monfalcone","straatNr":"","vervoerder":"Amazon","puntType":"locker","bezettingsgraad":50,"latitude":45.801661,"longitude":13.547974,"canPickup":true,"canDropoff":false,"openingstijden":null}},{"type":"Feature","geometry":{"type":"Point","coordinates":[13.5314412,45.79734]},"properties":{"type":"pakketpunt","locatieNaam":"Amazon Counter (fermopoint)","straatNaam":"Smoke31","straatNr":"","vervoerder":"Amazon","puntType":"helix","bezettingsgraad":50,"latitude":45.79734,"longitude":13.5314412,"canPickup":true,"canDropoff":false,"openingstijden":null}},{"type":"Feature","geometry":{"type":"Point","coordinates":[13.5213,45.8063]},"properties":{"type":"pakketpunt","locatieNaam":"PuntoPoste TABACCHERIA N. 35","straatNaam":"VIA ISONZO 17","straatNr":"","vervoerder":"Amazon","puntType":"3p","bezettingsgraad":50,"latitude":45.8063,"longitude":13.5213,"canPickup":true,"canDropoff":false,"openingstijden":null}},{"type":"Feature","geometry":{"type":"Point","coordinates":[13.526116,45.810076]},"properties":{"type":"pakketpunt","locatieNaam":"Amazon Counter - EDICOLA TABACCHI TRENTIN DANIELA","straatNaam":"VIA DUCA D'AOSTA 12/B","straatNr":"","vervoerder":"Amazon","puntType":"helix","bezettingsgraad":50,"latitude":45.810076,"longitude":13.526116,"canPickup":true,"canDropoff":false,"openingstijden":null}},{"type":"Feature","geometry":{"type":"Point","coordinates":[13.527211,45.807424]},"properties":{"type":"pakketpunt","locatieNaam":"Amazon Counter - CGM ENERGY","straatNaam":"VIALE GIUSEPPE VERDI 38/A","straatNr":"","vervoerder":"Amazon","puntType":"helix","bezettingsgraad":50,"latitude":45.807424,"longitude":13.527211,"canPickup":true,"canDropoff":false,"openingstijden":null}},{"type":"Feature","geometry":{"type":"Point","coordinates":[13.538048,45.805266]},"properties":{"type":"pakketpunt","locatieNaam":"Amazon Counter","straatNaam":"Centro Contabile Buffetti (fermopoint)","straatNr":"","vervoerder":"Amazon","puntType":"helix","bezettingsgraad":50,"latitude":45.805266,"longitude":13.538048,"canPickup":true,"canDropoff":false,"openingstijden":null}},{"type":"Feature","geometry":{"type":"Point","coordinates":[13.532591,45.808558]},"properties":{"type":"pakketpunt","locatieNaam":"Amazon Counter - PRIMAEDICOLA","straatNaam":"SERAFIN ALESSANDRA","straatNr":"","vervoerder":"Amazon","puntType":"helix","bezettingsgraad":50,"latitude":45.808558,"longitude":13.532591,"canPickup":true,"canDropoff":false,"openingstijden":null}},{"type":"Feature","geometry":{"type":"Point","coordinates":[13.533189,45.806628]},"properties":{"type":"pakketpunt","locatieNaam":"Amazon Counter - AL-ARAF IT CENTER","straatNaam":"VIA NINO BIXIO 28/A","straatNr":"","vervoerder":"Amazon","puntType":"helix","bezettingsgraad":50,"latitude":45.806628,"longitude":13.533189,"canPickup":true,"canDropoff":false,"openingstijden":null}},{"type":"Feature","geometry":{"type":"Point","coordinates":[13.527341,45.808793]},"properties":{"type":"pakketpunt","locatieNaam":"Amazon Counter - ALAM MULTI SERVICE","straatNaam":"VIA GIUSEPPE GARIBALDI 26","straatNr":"","vervoerder":"Amazon","puntType":"helix","bezettingsgraad":50,"latitude":45.808793,"longitude":13.527341,"canPickup":true,"canDropoff":false,"openingstijden":null}},{"type":"Feature","geometry":{"type":"Point","coordinates":[13.5146,45.8106]},"properties":{"type":"pakketpunt","locatieNaam":"PuntoPoste TABACCHERIA n. 8","straatNaam":"VIA ARIS 57","straatNr":"","vervoerder":"Amazon","puntType":"3p","bezettingsgraad":50,"latitude":45.8106,"longitude":13.5146,"canPickup":true,"canDropoff":false,"openingstijden":null}},{"type":"Feature","geometry":{"type":"Point","coordinates":[13.5486,45.8023]},"properties":{"type":"pakketpunt","locatieNaam":"Ufficio Postale MONFALCONE 2","straatNaam":"VIA EUGENIO VALENTINIS 82","straatNr":"","vervoerder":"Amazon","puntType":"3p","bezettingsgraad":50,"latitude":45.8023,"longitude":13.5486,"canPickup":true,"canDropoff":false,"openingstijden":null}},{"type":"Feature","geometry":{"type":"Point","coordinates":[13.53516,45.809082]},"properties":{"type":"pakketpunt","locatieNaam":"Amazon Counter - EDISON","straatNaam":"CORSO DEL POPOLO, 44","straatNr":"","vervoerder":"Amazon","puntType":"helix","bezettingsgraad":50,"latitude":45.809082,"longitude":13.53516,"canPickup":true,"canDropoff":false,"openingstijden":null}},{"type":"Feature","geometry":{"type":"MultiPolygon","coordinates":[[[[13.5048524,45.8094589],[13.5051733,45.810267],[13.5054067,45.8103177],[13.5054919,45.8106816],[13.5060367,45.8107953],[13.50758,45.8122865],[13.5081645,45.813126],[13.5083377,45.813689],[13.5082647,45.8136909],[13.5081362,45.8155151],[13.5082298,45.8163147],[13.5081147,45.8163711],[13.5085563,45.8170271],[13.5085358,45.8185676],[13.5086658,45.8185776],[13.5086563,45.8188286],[13.5085834,45.8189546],[13.5081412,45.8189858],[13.5081276,45.8195945],[13.5084085,45.8199161],[13.5079006,45.8214313],[13.5079306,45.8215052],[13.509639,45.8219109],[13.5106246,45.8222886],[13.5112347,45.8223805],[13.5129853,45.8229632],[13.5139099,45.8229394],[13.5143233,45.8227573],[13.5150615,45.8227804],[13.5159986,45.8225043],[13.5170894,45.8219347],[13.5200729,45.820747],[13.5221896,45.8201245],[13.524944,45.8190233],[13.5265679,45.8186325],[13.5284853,45.818023],[13.5287056,45.8179106],[13.529316,45.8173543],[13.5297157,45.8171602],[13.5300148,45.8171334],[13.5305559,45.8172862],[13.5317308,45.8173837],[13.5346427,45.8167488],[13.5349235,45.8166134],[13.5351966,45.8166915],[13.5358825,45.8172582],[13.537892,45.8184909],[13.5382145,45.8184067],[13.5388122,45.8190257],[13.5403449,45.8200802],[13.5450551,45.819881],[13.5516481,45.8200148],[13.5574456,45.8205242],[13.5601516,45.8190414],[13.5612526,45.8186149],[13.5611393,45.817235],[13.560773,45.8155444],[13.5592019,45.813763],[13.5616867,45.8116134],[13.5622741,45.8099477],[13.5627292,45.8090623],[13.5638262,45.8084289],[13.5654756,45.8077831],[13.5682634,45.8076958],[13.5700174,45.8073146],[13.5710275,45.8069414],[13.5717839,45.8061612],[13.5720806,45.8059924],[13.572694,45.8054054],[13.5731244,45.8045357],[13.5754695,45.8039452],[13.5766759,45.8037403],[13.5781343,45.8038507],[13.5790598,45.803637],[13.580296,45.8037966],[13.5816575,45.8029776],[13.5823831,45.8026428],[13.5841035,45.8003856],[13.5847106,45.7991147],[13.5849425,45.7984527],[13.5848728,45.7978101],[13.5843581,45.7972185],[13.5839435,45.7970636],[13.5835428,45.7966557],[13.5827411,45.796438],[13.5815787,45.7963913],[13.579853,45.7965515],[13.5790369,45.7965413],[13.5764433,45.7955408],[13.5760743,45.795202],[13.5758592,45.794537],[13.5757991,45.7934822],[13.5764284,45.7933817],[13.5774735,45.7928858],[13.5788136,45.7916604],[13.5791888,45.7911606],[13.579278,45.790803],[13.579598,45.7886505],[13.5797636,45.7880247],[13.5797412,45.7871008],[13.5794122,45.785676],[13.5794877,45.7852898],[13.5797409,45.7849622],[13.5800464,45.7841071],[13.5802684,45.7832523],[13.5806915,45.7824038],[13.5810591,45.7810338],[13.5804188,45.7810838],[13.5800164,45.7807701],[13.5793726,45.780501],[13.580192,45.775326],[13.5801558,45.7751231],[13.5799027,45.774901],[13.5792728,45.7748042],[13.5621458,45.7784182],[13.5618712,45.7784079],[13.5597532,45.7777874],[13.5596595,45.7768642],[13.5594777,45.7768328],[13.5595805,45.7778352],[13.559873,45.7779705],[13.5595079,45.7785635],[13.5593295,45.7786248],[13.5590995,45.7790722],[13.5591164,45.7792321],[13.5585306,45.7800902],[13.5644403,45.7818246],[13.5635093,45.7834128],[13.5617138,45.7837551],[13.5575924,45.7826567],[13.557077,45.7824107],[13.5476353,45.793188],[13.5478676,45.7933082],[13.5424148,45.7995615],[13.5407687,45.8010224],[13.5389341,45.802222],[13.5369093,45.8032041],[13.5345929,45.804137],[13.5346515,45.8042127],[13.5335735,45.8045705],[13.5330904,45.8039653],[13.5344604,45.8034411],[13.534967,45.8034469],[13.5360839,45.8031311],[13.5376227,45.8025166],[13.5384369,45.8020015],[13.5391647,45.8014185],[13.5415611,45.7990827],[13.5448147,45.7955363],[13.5446001,45.7954182],[13.5445402,45.7954595],[13.5439134,45.795062],[13.543519,45.7953546],[13.543385,45.7952652],[13.5437596,45.7949187],[13.5427897,45.7952405],[13.54193,45.7947189],[13.5435965,45.7941149],[13.5481157,45.7902408],[13.5462992,45.7892084],[13.542111,45.7927937],[13.5418817,45.7926584],[13.5419503,45.7925925],[13.5418037,45.7925216],[13.5415235,45.7927603],[13.5411009,45.7925378],[13.541578,45.7921122],[13.5414273,45.7920318],[13.5409764,45.7924748],[13.5408995,45.7924711],[13.5407472,45.7923887],[13.5408535,45.7921757],[13.5404846,45.7918252],[13.5400076,45.7915401],[13.5392176,45.7918628],[13.5378087,45.7912208],[13.5378101,45.79102],[13.5375725,45.7909481],[13.537429,45.7906823],[13.5374314,45.7902911],[13.5377891,45.7891273],[13.5387545,45.7878106],[13.5387455,45.787573],[13.5382778,45.7872741],[13.5367859,45.7870713],[13.5364064,45.7872013],[13.536099,45.7869708],[13.5345552,45.7881897],[13.5348096,45.7883304],[13.5341058,45.788927],[13.5337241,45.7886771],[13.5332427,45.7891945],[13.5332844,45.7893136],[13.5338217,45.7896105],[13.5326722,45.7899693],[13.5324556,45.7902454],[13.5323598,45.79058],[13.5322215,45.7902714],[13.5320509,45.7901773],[13.5312655,45.7889007],[13.5315037,45.7885492],[13.5314358,45.7884955],[13.5311023,45.7887416],[13.5307717,45.788828],[13.530448,45.7888128],[13.5301279,45.7886676],[13.5298955,45.7888547],[13.5296912,45.7888859],[13.5294812,45.7887883],[13.5292894,45.7885619],[13.5293752,45.7883303],[13.5298214,45.7880006],[13.5299797,45.788103],[13.5310008,45.7872933],[13.5308266,45.7871858],[13.5316485,45.7865829],[13.5316355,45.7864881],[13.531813,45.7862426],[13.5319665,45.7862329],[13.532061,45.786094],[13.5311929,45.78577],[13.5309376,45.7855831],[13.5309631,45.7854923],[13.5310678,45.7854032],[13.5323033,45.7858018],[13.532418,45.7856969],[13.5326218,45.7850847],[13.5329588,45.7849459],[13.533193,45.7846295],[13.5336434,45.784779],[13.5338477,45.7844761],[13.5345027,45.78468],[13.5346403,45.7844929],[13.5355287,45.7841095],[13.5359806,45.7835131],[13.536517,45.7836296],[13.5367053,45.7838058],[13.5363663,45.7834181],[13.5364297,45.7833835],[13.5368888,45.7837093],[13.5366231,45.7834693],[13.5371402,45.7832021],[13.536989,45.7830245],[13.5370626,45.7829889],[13.5371977,45.7831111],[13.5372919,45.7830637],[13.5375793,45.7822513],[13.5380037,45.7820173],[13.5384195,45.7819698],[13.539064,45.7824117],[13.5393523,45.7822077],[13.5396281,45.7824841],[13.5396727,45.7826287],[13.5393224,45.783087],[13.5394288,45.7831247],[13.5392419,45.7832712],[13.538998,45.7836503],[13.5389919,45.7839822],[13.5390997,45.7841248],[13.5404863,45.7848339],[13.5406233,45.7853883],[13.5405307,45.7854305],[13.5405467,45.7855129],[13.5408339,45.7856687],[13.5411574,45.7860102],[13.5414702,45.786068],[13.541835,45.7864202],[13.5419739,45.7864611],[13.5425771,45.7863031],[13.5433373,45.786569],[13.5438224,45.7866509],[13.5452958,45.7865485],[13.5456737,45.786771],[13.5457705,45.7869253],[13.5462153,45.7870973],[13.5467356,45.7867382],[13.5470566,45.7862475],[13.5471627,45.7859032],[13.5471094,45.7857735],[13.546752,45.7856576],[13.5463191,45.7851402],[13.5510735,45.7783753],[13.5521975,45.777876],[13.5521498,45.7778276],[13.551014,45.7783175],[13.5461512,45.7851155],[13.546068,45.7851395],[13.5452711,45.7847977],[13.545217,45.7846183],[13.5444046,45.7841304],[13.5443324,45.784014],[13.5443723,45.783893],[13.5444519,45.7837814],[13.5445438,45.7838421],[13.5446111,45.7837935],[13.5443441,45.7836204],[13.5441803,45.7836584],[13.5438885,45.7833885],[13.5432242,45.7829816],[13.5421187,45.7825352],[13.5419547,45.7823525],[13.5417928,45.7823389],[13.541673,45.7824224],[13.5414883,45.7823415],[13.5414649,45.7820946],[13.5416595,45.7821405],[13.5416955,45.7820894],[13.5412379,45.781963],[13.5408659,45.782431],[13.5399987,45.7823467],[13.5396623,45.782101],[13.539599,45.7819643],[13.5396781,45.7819051],[13.5384224,45.7808656],[13.538668,45.7807217],[13.539691,45.7815635],[13.5398205,45.7813398],[13.540044,45.7812402],[13.5412528,45.7812307],[13.5413133,45.7811681],[13.5401707,45.7811776],[13.5388248,45.7801508],[13.5388508,45.7803243],[13.5384797,45.7805231],[13.5375209,45.7804816],[13.5368963,45.7801489],[13.5345783,45.7785185],[13.533992,45.7779477],[13.5337468,45.7777958],[13.5334234,45.7777496],[13.5337552,45.7773561],[13.5346379,45.7767236],[13.5338911,45.7771581],[13.5331218,45.7770794],[13.5326369,45.7767487],[13.532286,45.7764337],[13.531725,45.7757139],[13.5317974,45.7749967],[13.5311166,45.7743828],[13.5309519,45.7741136],[13.5309345,45.7740488],[13.531484,45.7737838],[13.5314907,45.7737154],[13.5308478,45.7739628],[13.5303651,45.7737548],[13.5300756,45.7734298],[13.5308603,45.772714],[13.5309542,45.7727696],[13.5311853,45.7725736],[13.5310899,45.7725165],[13.5313618,45.7722822],[13.5315146,45.7722897],[13.5313662,45.7722074],[13.5299885,45.7733257],[13.5293478,45.7730845],[13.5276644,45.7715379],[13.5267525,45.7720175],[13.5252428,45.77227],[13.5248513,45.7727703],[13.524504,45.7728938],[13.5242476,45.7732692],[13.5238371,45.7734403],[13.5236316,45.7736499],[13.5231639,45.7738105],[13.5229577,45.7740547],[13.5226134,45.7741235],[13.522051,45.7746087],[13.5212903,45.7750467],[13.52065,45.7758119],[13.5202176,45.7769291],[13.5187919,45.7783447],[13.5188041,45.7786864],[13.5190111,45.7790671],[13.5200069,45.7796248],[13.5201086,45.7798051],[13.520119,45.7800379],[13.5200274,45.7802791],[13.519615,45.7807451],[13.5181838,45.7815557],[13.5181928,45.7817052],[13.5178346,45.7822798],[13.5169508,45.7841118],[13.5163336,45.7862978],[13.515656,45.787418],[13.5153164,45.7887539],[13.512285,45.79369],[13.5121574,45.7939417],[13.5121573,45.7942203],[13.511855,45.7953892],[13.5120419,45.7954328],[13.5117246,45.7960678],[13.5112333,45.7965871],[13.5108017,45.7972731],[13.5125362,45.797553],[13.5135892,45.7978678],[13.5154979,45.7986383],[13.5174254,45.7995789],[13.5176861,45.7998123],[13.5177079,45.799908],[13.516897,45.8010868],[13.5165553,45.8020298],[13.5165006,45.8026254],[13.5166169,45.8030188],[13.5171792,45.804045],[13.5173025,45.8042119],[13.5175731,45.8042905],[13.5178957,45.8048421],[13.51807,45.8058133],[13.5180033,45.8063],[13.5177592,45.8065401],[13.5150241,45.8067535],[13.51379,45.8065776],[13.5125031,45.8061276],[13.5107342,45.8059563],[13.5096921,45.8056851],[13.5088178,45.8056529],[13.5061313,45.8057852],[13.5056889,45.8060003],[13.5054557,45.8060224],[13.5054603,45.8062904],[13.5049013,45.8078446],[13.5047724,45.8088336],[13.5048524,45.8094589]]],[[[13.5379758,45.7829623],[13.5380994,45.7830914],[13.5386041,45.7827131],[13.5381341,45.7823337],[13.5379684,45.7824341],[13.5379758,45.7829623]]]]},"properties":{"type":"boundary","gemeente":"Monfalcone"}}]}