{"type":"FeatureCollection","metadata":{"gemeente":"Mongardino","slug":"mongardino","generated_at":"2026-09-26T14:27:34.663044Z","total_points":2,"providers":["PosteItaliane","Amazon"],"bounds":[8.2185766,44.84882834,8.218914,44.849628]},"features":[{"type":"Feature","geometry":{"type":"Point","coordinates":[8.2185766,44.84882834]},"properties":{"type":"pakketpunt","locatieNaam":"Mongardino","straatNaam":"Piazza Martiri Della Liberta'","straatNr":"1","vervoerder":"PosteItaliane","puntType":"postkantoor","bezettingsgraad":50,"latitude":44.84882834,"longitude":8.2185766,"canPickup":true,"canDropoff":true,"openingstijden":{"za":"gesloten","zo":"gesloten","ma":"08:20 - 13:45","di":"gesloten","wo":"08:20 - 13:45","do":"gesloten","vr":"08:20 - 13:45"}}},{"type":"Feature","geometry":{"type":"Point","coordinates":[8.218914,44.849628]},"properties":{"type":"pakketpunt","locatieNaam":"Amazon Locker - eusebia","straatNaam":"comune di mongardino","straatNr":"","vervoerder":"Amazon","puntType":"locker","bezettingsgraad":50,"latitude":44.849628,"longitude":8.218914,"canPickup":true,"canDropoff":false,"openingstijden":null}},{"type":"Feature","geometry":{"type":"Polygon","coordinates":[[[8.2000844,44.841051],[8.2002354,44.8415652],[8.2009885,44.8415479],[8.2012083,44.8417835],[8.2024803,44.8424451],[8.2026536,44.8430089],[8.2029597,44.8433509],[8.2033794,44.843419],[8.2046298,44.8425546],[8.2050441,44.842904],[8.2049036,44.843511],[8.2051792,44.8437737],[8.2047561,44.8442928],[8.2043258,44.8451001],[8.2040933,44.8460211],[8.2043984,44.8472971],[8.2040829,44.8481546],[8.2053518,44.8499728],[8.2056528,44.850173],[8.2063627,44.8498493],[8.2069495,44.8497454],[8.2077724,44.8501787],[8.2079873,44.8500766],[8.2092285,44.8509314],[8.208387,44.8513892],[8.2076509,44.8516587],[8.2072615,44.8522546],[8.2067079,44.8521293],[8.2054131,44.8526469],[8.2065043,44.8535907],[8.2079,44.8546041],[8.2103381,44.8542339],[8.2121487,44.8538278],[8.214235,44.8544318],[8.2180657,44.8553088],[8.2188472,44.8558948],[8.2203065,44.8572551],[8.2209316,44.857939],[8.2225717,44.8591564],[8.223349,44.8598279],[8.224416,44.8611944],[8.2254613,44.8620522],[8.2279131,44.8620958],[8.2290842,44.8617212],[8.2324501,44.8619104],[8.2327908,44.8625833],[8.2343089,44.862526],[8.2344493,44.8618473],[8.2351152,44.8617392],[8.2386585,44.8616774],[8.2388239,44.8619755],[8.2388727,44.8631911],[8.2397698,44.8634357],[8.2399655,44.8629869],[8.2400559,44.8623754],[8.2405067,44.8612981],[8.2400234,44.8603902],[8.2399091,44.8599438],[8.2420224,44.8598543],[8.2422041,44.8604722],[8.2425799,44.8606547],[8.2417476,44.8612613],[8.2416201,44.8615711],[8.2416897,44.8619406],[8.2418919,44.86232],[8.2430995,44.8621705],[8.2443529,44.8617872],[8.2444099,44.8614185],[8.2440149,44.8612584],[8.2440171,44.8598811],[8.2455033,44.8589907],[8.2456818,44.8575515],[8.2453516,44.8563071],[8.2455179,44.8552009],[8.2457554,44.8545813],[8.2463387,44.8547382],[8.2471985,44.8538302],[8.2477566,44.8534918],[8.2485966,44.8533713],[8.2490741,44.8531404],[8.2496612,44.8526401],[8.2507547,44.8533449],[8.2528412,44.8544479],[8.2531283,44.8545172],[8.2532951,44.8544643],[8.2534647,44.8543124],[8.252894,44.8540341],[8.2531547,44.8539368],[8.2551872,44.8508984],[8.254883,44.85071],[8.254668,44.8506789],[8.253305,44.8506385],[8.2526678,44.8504903],[8.2517566,44.8504933],[8.2504464,44.8499131],[8.2493176,44.8497437],[8.2481965,44.8492277],[8.2463327,44.8480406],[8.2451219,44.847371],[8.243908,44.8463322],[8.2434215,44.8460454],[8.2414748,44.8454023],[8.2404346,44.8453594],[8.2393151,44.8450909],[8.2379124,44.8444739],[8.2359789,44.8439254],[8.2349053,44.8433015],[8.2348705,44.8431798],[8.2336753,44.842186],[8.2318483,44.841251],[8.2313842,44.8413019],[8.2294879,44.840704],[8.2279312,44.840734],[8.2266591,44.841009],[8.2236596,44.8405925],[8.2221773,44.8405059],[8.2205877,44.8405694],[8.2193996,44.8404195],[8.2188277,44.8395513],[8.2183887,44.8391478],[8.2168792,44.8382687],[8.215182,44.8374694],[8.2148018,44.8371697],[8.214597,44.8362906],[8.2146401,44.8359276],[8.2143288,44.835312],[8.2138576,44.8353042],[8.2131086,44.8354971],[8.2129316,44.8356298],[8.2123996,44.8363474],[8.212186,44.8369311],[8.2120233,44.8371506],[8.2117973,44.8373695],[8.2111784,44.8376398],[8.2092083,44.8376082],[8.2075389,44.8374436],[8.2076384,44.8373407],[8.2090055,44.8371747],[8.2092392,44.8370863],[8.2094014,44.8369029],[8.209643,44.8358918],[8.2098353,44.8339667],[8.2079294,44.8338725],[8.2054129,44.8340215],[8.2055497,44.8351162],[8.2051533,44.8361127],[8.2048288,44.8365921],[8.2048168,44.8374697],[8.2045485,44.8384625],[8.2040481,44.8391927],[8.2037509,44.8398793],[8.2033477,44.8404436],[8.2029282,44.8406973],[8.2018496,44.8409283],[8.2000844,44.841051]]]},"properties":{"type":"boundary","gemeente":"Mongardino"}}]}