{"type":"FeatureCollection","metadata":{"gemeente":"Montechiarugolo","slug":"montechiarugolo","generated_at":"2026-09-26T14:27:35.926704Z","total_points":17,"providers":["PosteItaliane","DPD","DHL","Amazon"],"bounds":[10.3534,44.6872,10.42258601,44.72724]},"features":[{"type":"Feature","geometry":{"type":"Point","coordinates":[10.39672316,44.72690544]},"properties":{"type":"pakketpunt","locatieNaam":"Monticelli Terme","straatNaam":"Via Giovanni Spadolini","straatNr":"16","vervoerder":"PosteItaliane","puntType":"postkantoor","bezettingsgraad":50,"latitude":44.72690544,"longitude":10.39672316,"canPickup":true,"canDropoff":true,"openingstijden":{"za":"08:20 - 12:35","zo":"gesloten","ma":"08:20 - 13:35","di":"08:20 - 13:35","wo":"08:20 - 13:35","do":"08:20 - 13:35","vr":"08:20 - 13:35"}}},{"type":"Feature","geometry":{"type":"Point","coordinates":[10.354404,44.696939]},"properties":{"type":"pakketpunt","locatieNaam":"Basilicanova","straatNaam":"Via Giuseppe Garibaldi","straatNr":"10","vervoerder":"PosteItaliane","puntType":"postkantoor","bezettingsgraad":50,"latitude":44.696939,"longitude":10.354404,"canPickup":true,"canDropoff":true,"openingstijden":{"za":"08:20 - 12:35","zo":"gesloten","ma":"08:20 - 13:35","di":"08:20 - 13:35","wo":"08:20 - 13:35","do":"08:20 - 13:35","vr":"08:20 - 13:35"}}},{"type":"Feature","geometry":{"type":"Point","coordinates":[10.42258601,44.6932385]},"properties":{"type":"pakketpunt","locatieNaam":"Montechiarugolo","straatNaam":"Via Roma","straatNr":"1","vervoerder":"PosteItaliane","puntType":"postkantoor","bezettingsgraad":50,"latitude":44.6932385,"longitude":10.42258601,"canPickup":true,"canDropoff":true,"openingstijden":{"za":"08:20 - 12:45","zo":"gesloten","ma":"gesloten","di":"08:20 - 13:45","wo":"gesloten","do":"08:20 - 13:45","vr":"gesloten"}}},{"type":"Feature","geometry":{"type":"Point","coordinates":[10.3745891,44.68722459]},"properties":{"type":"pakketpunt","locatieNaam":"Tabaccheria N. 6","straatNaam":"Via Mamiano","straatNr":"1","vervoerder":"PosteItaliane","puntType":"servicepunt","bezettingsgraad":50,"latitude":44.68722459,"longitude":10.3745891,"canPickup":true,"canDropoff":true,"openingstijden":{"za":"06:00 - 19:30","zo":"06:00 - 19:30","ma":"gesloten","di":"06:00 - 19:30","wo":"06:00 - 19:30","do":"06:00 - 19:30","vr":"06:00 - 19:30"}}},{"type":"Feature","geometry":{"type":"Point","coordinates":[10.39542148,44.72722894]},"properties":{"type":"pakketpunt","locatieNaam":"Tabaccheria N. 4","straatNaam":"Via Montepelato Sud","straatNr":"26","vervoerder":"PosteItaliane","puntType":"servicepunt","bezettingsgraad":50,"latitude":44.72722894,"longitude":10.39542148,"canPickup":true,"canDropoff":true,"openingstijden":{"za":"05:10 - 13:30, 15:00 - 20:30","zo":"05:10 - 13:30","ma":"05:10 - 13:30, 15:00 - 20:30","di":"05:10 - 13:30, 15:00 - 20:30","wo":"05:10 - 13:30, 15:00 - 20:30","do":"05:10 - 13:30, 15:00 - 20:30","vr":"05:10 - 13:30, 15:00 - 20:30"}}},{"type":"Feature","geometry":{"type":"Point","coordinates":[10.3535014374,44.6967027643]},"properties":{"type":"pakketpunt","locatieNaam":"Cartoleria Prisma","straatNaam":"VIA ARGINI SUD","straatNr":"11","vervoerder":"DPD","puntType":"pickup_point","bezettingsgraad":50,"latitude":44.6967027643,"longitude":10.3535014374,"canPickup":true,"canDropoff":true,"openingstijden":{"ma":"07:00 - 12:00, 16:00 - 19:30","di":"07:00 - 12:00, 16:00 - 19:30","wo":"07:00 - 12:00, 16:00 - 19:30","do":"07:00 - 12:00, 16:00 - 19:30","vr":"07:00 - 12:00, 16:00 - 19:30","za":"07:00 - 12:00, 16:00 - 19:00","zo":"gesloten"}}},{"type":"Feature","geometry":{"type":"Point","coordinates":[10.3534,44.6966]},"properties":{"type":"pakketpunt","locatieNaam":"EDICOLA CARTOLERIA PRISMA","straatNaam":"Via Argini Sud 11","straatNr":"","vervoerder":"DHL","puntType":"parcelShop","bezettingsgraad":50,"latitude":44.6966,"longitude":10.3534,"canPickup":false,"canDropoff":true,"openingstijden":{"ma":"07:00 - 19:30","di":"07:00 - 19:30","wo":"07:00 - 19:30","do":"07:00 - 19:30","vr":"07:00 - 19:30","za":"07:00 - 19:30","zo":"gesloten"}}},{"type":"Feature","geometry":{"type":"Point","coordinates":[10.354404,44.696939]},"properties":{"type":"pakketpunt","locatieNaam":"Ufficio Postale BASILICANOVA","straatNaam":"VIA GARIBALDI 10","straatNr":"","vervoerder":"DHL","puntType":"postOffice","bezettingsgraad":50,"latitude":44.696939,"longitude":10.354404,"canPickup":true,"canDropoff":true,"openingstijden":{"ma":"08:20 - 13:35","di":"08:20 - 13:35","wo":"08:20 - 13:35","do":"08:20 - 13:35","vr":"08:20 - 13:35","za":"08:20 - 12:35","zo":"gesloten"}}},{"type":"Feature","geometry":{"type":"Point","coordinates":[10.374589,44.687225]},"properties":{"type":"pakketpunt","locatieNaam":"TABACCHERIA N. 6","straatNaam":"VIA MAMIANO 1","straatNr":"","vervoerder":"DHL","puntType":"parcelShop","bezettingsgraad":50,"latitude":44.687225,"longitude":10.374589,"canPickup":true,"canDropoff":true,"openingstijden":{"ma":"gesloten","di":"06:00 - 19:30","wo":"06:00 - 19:30","do":"06:00 - 19:30","vr":"06:00 - 19:30","za":"06:00 - 19:30","zo":"06:00 - 19:30"}}},{"type":"Feature","geometry":{"type":"Point","coordinates":[10.396723,44.726905]},"properties":{"type":"pakketpunt","locatieNaam":"Ufficio Postale MONTICELLI TERME","straatNaam":"VIA GIOVANNI SPADOLINI 16","straatNr":"","vervoerder":"DHL","puntType":"postOffice","bezettingsgraad":50,"latitude":44.726905,"longitude":10.396723,"canPickup":true,"canDropoff":true,"openingstijden":{"ma":"08:20 - 13:35","di":"08:20 - 13:35","wo":"08:20 - 13:35","do":"08:20 - 13:35","vr":"08:20 - 13:35","za":"08:20 - 12:35","zo":"gesloten"}}},{"type":"Feature","geometry":{"type":"Point","coordinates":[10.395421,44.727229]},"properties":{"type":"pakketpunt","locatieNaam":"TABACCHERIA N. 4","straatNaam":"VIA MONTEPELATO SUD 26","straatNr":"","vervoerder":"DHL","puntType":"parcelShop","bezettingsgraad":50,"latitude":44.727229,"longitude":10.395421,"canPickup":true,"canDropoff":true,"openingstijden":{"ma":"05:10 - 13:30, 15:00 - 20:30","di":"05:10 - 13:30, 15:00 - 20:30","wo":"05:10 - 13:30, 15:00 - 20:30","do":"05:10 - 13:30, 15:00 - 20:30","vr":"05:10 - 13:30, 15:00 - 20:30","za":"05:10 - 13:30, 15:00 - 20:30","zo":"05:10 - 13:30"}}},{"type":"Feature","geometry":{"type":"Point","coordinates":[10.383153,44.724524]},"properties":{"type":"pakketpunt","locatieNaam":"Amazon Locker - biondo","straatNaam":"Conad - Via Tina Anselmi 15, Montechiarugolo","straatNr":"","vervoerder":"Amazon","puntType":"locker","bezettingsgraad":50,"latitude":44.724524,"longitude":10.383153,"canPickup":true,"canDropoff":false,"openingstijden":null}},{"type":"Feature","geometry":{"type":"Point","coordinates":[10.395028,44.726811]},"properties":{"type":"pakketpunt","locatieNaam":"Amazon Counter - Giardino","straatNaam":"Via Montepelato Sud, 3","straatNr":"","vervoerder":"Amazon","puntType":"helix","bezettingsgraad":50,"latitude":44.726811,"longitude":10.395028,"canPickup":true,"canDropoff":false,"openingstijden":null}},{"type":"Feature","geometry":{"type":"Point","coordinates":[10.3745,44.6872]},"properties":{"type":"pakketpunt","locatieNaam":"PuntoPoste TABACCHERIA N. 6","straatNaam":"VIA MAMIANO 1","straatNr":"","vervoerder":"Amazon","puntType":"3p","bezettingsgraad":50,"latitude":44.6872,"longitude":10.3745,"canPickup":true,"canDropoff":false,"openingstijden":null}},{"type":"Feature","geometry":{"type":"Point","coordinates":[10.4054,44.705677]},"properties":{"type":"pakketpunt","locatieNaam":"Amazon Counter - TABACCHI","straatNaam":"VIA PARMA 61","straatNr":"","vervoerder":"Amazon","puntType":"helix","bezettingsgraad":50,"latitude":44.705677,"longitude":10.4054,"canPickup":true,"canDropoff":false,"openingstijden":null}},{"type":"Feature","geometry":{"type":"Point","coordinates":[10.3967,44.7269]},"properties":{"type":"pakketpunt","locatieNaam":"Ufficio Postale MONTICELLI TERME","straatNaam":"VIA GIOVANNI SPADOLINI 16","straatNr":"","vervoerder":"Amazon","puntType":"3p","bezettingsgraad":50,"latitude":44.7269,"longitude":10.3967,"canPickup":true,"canDropoff":false,"openingstijden":null}},{"type":"Feature","geometry":{"type":"Point","coordinates":[10.39538,44.72724]},"properties":{"type":"pakketpunt","locatieNaam":"Amazon Counter - PRIMAEDICOLA","straatNaam":"MINARI MARIO","straatNr":"","vervoerder":"Amazon","puntType":"helix","bezettingsgraad":50,"latitude":44.72724,"longitude":10.39538,"canPickup":true,"canDropoff":false,"openingstijden":null}},{"type":"Feature","geometry":{"type":"Polygon","coordinates":[[[10.3316654,44.6809595],[10.3316485,44.6811388],[10.33122,44.6819375],[10.3319795,44.6831554],[10.3322232,44.6838077],[10.3323092,44.6843513],[10.3324855,44.6845634],[10.332529,44.6865358],[10.3337284,44.6895389],[10.3338962,44.691124],[10.3347271,44.6927898],[10.3350663,44.6945766],[10.3347796,44.6952253],[10.3346363,44.6960032],[10.334156,44.6966665],[10.3344255,44.6993896],[10.3346028,44.7001233],[10.3347199,44.7017911],[10.3354831,44.7024504],[10.3367002,44.7045986],[10.3371917,44.7050425],[10.3374832,44.7058695],[10.3374284,44.7063269],[10.33667,44.707707],[10.3364683,44.7087541],[10.3365598,44.7097339],[10.3367026,44.7102801],[10.3369278,44.7123932],[10.3375597,44.7131877],[10.3377702,44.714259],[10.3385775,44.7156524],[10.3387776,44.7165395],[10.3387028,44.7170568],[10.3380682,44.7176231],[10.3389354,44.7187363],[10.3390653,44.7194584],[10.3508464,44.7155112],[10.3531329,44.7145884],[10.3544704,44.7141359],[10.3543678,44.7131607],[10.3551278,44.7117305],[10.3558256,44.7116274],[10.3568318,44.7109213],[10.3578888,44.7090589],[10.3579845,44.7086585],[10.358107,44.7084732],[10.3592455,44.7073855],[10.361309,44.7071109],[10.3622995,44.7067759],[10.362832,44.7064673],[10.3630439,44.7060998],[10.3633576,44.7059371],[10.3650423,44.7056513],[10.3670875,44.7054913],[10.3734354,44.7040443],[10.3735136,44.7049573],[10.3735209,44.7081175],[10.3736327,44.7114409],[10.3754182,44.7117277],[10.3766053,44.7116261],[10.3772272,44.7160007],[10.3772087,44.7162941],[10.3773038,44.7165524],[10.3771164,44.7169061],[10.3772586,44.7170898],[10.3773621,44.7175125],[10.3773879,44.7186885],[10.3761467,44.7190836],[10.3760489,44.7194429],[10.376178,44.7194887],[10.3764699,44.7200483],[10.3772069,44.7205168],[10.377556,44.7212702],[10.3781508,44.7220511],[10.3783318,44.7226299],[10.3779956,44.7233005],[10.3779181,44.723668],[10.3780991,44.724504],[10.380142,44.7279856],[10.3811893,44.7294278],[10.381616,44.7301627],[10.3817841,44.7306679],[10.3823142,44.7311731],[10.3825858,44.731761],[10.3828702,44.7319815],[10.3829866,44.7325326],[10.3839951,44.7336164],[10.3846028,44.7347003],[10.3849002,44.7355637],[10.385301,44.7361148],[10.3856243,44.736822],[10.386413,44.7377772],[10.3865682,44.7381813],[10.3868397,44.7395957],[10.3866587,44.7405141],[10.3867621,44.7407713],[10.3872276,44.7410927],[10.3874215,44.7417081],[10.3874345,44.742103],[10.3877319,44.7423418],[10.3879387,44.7426632],[10.3878716,44.7427594],[10.3964994,44.7414274],[10.3969638,44.741678],[10.3970665,44.7416547],[10.3980724,44.7426112],[10.3982695,44.7425945],[10.3990964,44.7434038],[10.3998919,44.7446534],[10.4006002,44.7444225],[10.4014637,44.7457519],[10.4028678,44.7485224],[10.4075675,44.7473874],[10.4067416,44.7452515],[10.4073299,44.7450166],[10.4196987,44.7420603],[10.4195793,44.7420122],[10.4186468,44.7402107],[10.4248238,44.7420821],[10.4248819,44.7427543],[10.4251083,44.7431894],[10.4268972,44.7431622],[10.4261405,44.7416617],[10.4260506,44.7410867],[10.4262341,44.7403282],[10.4266709,44.7396026],[10.4273775,44.7390627],[10.4285535,44.7386069],[10.4341408,44.7372675],[10.4362341,44.7366291],[10.4409278,44.7328881],[10.4424825,44.7314192],[10.4469213,44.7276181],[10.4472739,44.7270736],[10.4480882,44.7242816],[10.4483543,44.7202723],[10.4480729,44.7186105],[10.4476085,44.7177072],[10.4468115,44.716628],[10.4456446,44.7144813],[10.4428926,44.708862],[10.4376439,44.7051094],[10.4311739,44.6967951],[10.4307421,44.6955497],[10.430593,44.6948515],[10.4307319,44.6934024],[10.4296665,44.6912779],[10.4273185,44.689577],[10.4239089,44.6852727],[10.4234733,44.6845575],[10.422298,44.6831162],[10.4204623,44.6812183],[10.4204499,44.6792989],[10.4176237,44.6758833],[10.4172957,44.675331],[10.4151263,44.6703508],[10.4137857,44.6677985],[10.4095592,44.6675645],[10.3988589,44.6706516],[10.3925636,44.6741379],[10.3873696,44.6758301],[10.3807511,44.6728586],[10.380351,44.6724764],[10.3799955,44.6718505],[10.3788519,44.670442],[10.3776462,44.6701325],[10.37363,44.6699378],[10.3684713,44.6705129],[10.3612513,44.6724896],[10.3597915,44.6737223],[10.3550315,44.6795132],[10.35473,44.6801109],[10.3547427,44.6811922],[10.354959,44.6823588],[10.3553977,44.6833168],[10.3554074,44.6837308],[10.3550354,44.6845544],[10.3546229,44.6847213],[10.3535914,44.6832883],[10.3518574,44.6837624],[10.3516024,44.6836992],[10.3511172,44.6837253],[10.3458843,44.6843708],[10.3458246,44.6841536],[10.3448501,44.684252],[10.343916,44.6819858],[10.3422285,44.6822098],[10.34064,44.6789836],[10.334646,44.6804556],[10.3344489,44.6801157],[10.334512,44.6799397],[10.3338902,44.6795427],[10.3325961,44.680325],[10.3322246,44.6804573],[10.3316654,44.6809595]]]},"properties":{"type":"boundary","gemeente":"Montechiarugolo"}}]}