{"type":"FeatureCollection","metadata":{"gemeente":"Montegabbione","slug":"montegabbione","generated_at":"2026-09-26T13:10:13.958925Z","total_points":10,"providers":["PosteItaliane","DPD","GLS","DHL","Amazon"],"bounds":[12.09110536,42.9152038826127,12.0949462858749,42.92243226]},"features":[{"type":"Feature","geometry":{"type":"Point","coordinates":[12.09490319,42.91560874]},"properties":{"type":"pakketpunt","locatieNaam":"Tabaccheria N. 5","straatNaam":"Vocabolo Cicchitello Snc","straatNr":"1","vervoerder":"PosteItaliane","puntType":"servicepunt","bezettingsgraad":50,"latitude":42.91560874,"longitude":12.09490319,"canPickup":true,"canDropoff":true,"openingstijden":{"za":"06:00 - 22:00","zo":"06:00 - 22:00","ma":"06:00 - 22:00","di":"06:00 - 22:00","wo":"06:00 - 22:00","do":"06:00 - 22:00","vr":"06:00 - 22:00"}}},{"type":"Feature","geometry":{"type":"Point","coordinates":[12.09193559,42.92019272]},"properties":{"type":"pakketpunt","locatieNaam":"Montegabbione","straatNaam":"Via Enrico Berlinguer","straatNr":"18","vervoerder":"PosteItaliane","puntType":"postkantoor","bezettingsgraad":50,"latitude":42.92019272,"longitude":12.09193559,"canPickup":true,"canDropoff":true,"openingstijden":{"za":"08:20 - 12:45","zo":"gesloten","ma":"08:20 - 13:45","di":"08:20 - 13:45","wo":"08:20 - 13:45","do":"08:20 - 13:45","vr":"08:20 - 13:45"}}},{"type":"Feature","geometry":{"type":"Point","coordinates":[12.09110536,42.92243226]},"properties":{"type":"pakketpunt","locatieNaam":"L'Ora del Caffè-Distr.Esso","straatNaam":"S.DA PROV.58-KM.1+250","straatNr":"","vervoerder":"DPD","puntType":"pickup_point","bezettingsgraad":50,"latitude":42.92243226,"longitude":12.09110536,"canPickup":true,"canDropoff":true,"openingstijden":{"ma":"06:00 - 21:00","di":"06:00 - 21:00","wo":"06:00 - 21:00","do":"06:00 - 21:00","vr":"06:00 - 22:00","za":"06:00 - 22:00","zo":"07:00 - 22:00"}}},{"type":"Feature","geometry":{"type":"Point","coordinates":[12.0919835,42.9186059]},"properties":{"type":"pakketpunt","locatieNaam":"L'ORA DEL CAFFE'","straatNaam":"Strada Provinciale Km.1","straatNr":"58","vervoerder":"GLS","puntType":"parcel_shop","bezettingsgraad":50,"latitude":42.9186059,"longitude":12.0919835,"canPickup":true,"canDropoff":true,"openingstijden":"za: 06:00 - 22:00; zo: 07:00 - 22:00"}},{"type":"Feature","geometry":{"type":"Point","coordinates":[12.094903,42.915609]},"properties":{"type":"pakketpunt","locatieNaam":"TABACCHERIA N. 5","straatNaam":"VOCABOLO CICCHITELLO SNC 1","straatNr":"","vervoerder":"DHL","puntType":"parcelShop","bezettingsgraad":50,"latitude":42.915609,"longitude":12.094903,"canPickup":true,"canDropoff":true,"openingstijden":{"ma":"06:00 - 22:00","di":"06:00 - 22:00","wo":"06:00 - 22:00","do":"06:00 - 22:00","vr":"06:00 - 22:00","za":"06:00 - 22:00","zo":"06:00 - 22:00"}}},{"type":"Feature","geometry":{"type":"Point","coordinates":[12.091936,42.920193]},"properties":{"type":"pakketpunt","locatieNaam":"Ufficio Postale MONTEGABBIONE","straatNaam":"VIA BERLINGUER ENRICO 18","straatNr":"","vervoerder":"DHL","puntType":"postOffice","bezettingsgraad":50,"latitude":42.920193,"longitude":12.091936,"canPickup":true,"canDropoff":true,"openingstijden":{"ma":"08:20 - 13:45","di":"08:20 - 13:45","wo":"08:20 - 13:45","do":"08:20 - 13:45","vr":"08:20 - 13:45","za":"08:20 - 12:45","zo":"gesloten"}}},{"type":"Feature","geometry":{"type":"Point","coordinates":[12.094732,42.918371]},"properties":{"type":"pakketpunt","locatieNaam":"Amazon Counter - La bottega del monte","straatNaam":"Via G. Amendola 50","straatNr":"","vervoerder":"Amazon","puntType":"helix","bezettingsgraad":50,"latitude":42.918371,"longitude":12.094732,"canPickup":true,"canDropoff":false,"openingstijden":null}},{"type":"Feature","geometry":{"type":"Point","coordinates":[12.0949462858749,42.9152038826127]},"properties":{"type":"pakketpunt","locatieNaam":"Amazon Counter","straatNaam":"L'Ora del Caffè-Distr.Esso (fermopoint)","straatNr":"","vervoerder":"Amazon","puntType":"helix","bezettingsgraad":50,"latitude":42.9152038826127,"longitude":12.0949462858749,"canPickup":true,"canDropoff":false,"openingstijden":null}},{"type":"Feature","geometry":{"type":"Point","coordinates":[12.0919,42.9201]},"properties":{"type":"pakketpunt","locatieNaam":"Ufficio Postale MONTEGABBIONE","straatNaam":"VIA BERLINGUER ENRICO 18","straatNr":"","vervoerder":"Amazon","puntType":"3p","bezettingsgraad":50,"latitude":42.9201,"longitude":12.0919,"canPickup":true,"canDropoff":false,"openingstijden":null}},{"type":"Feature","geometry":{"type":"Point","coordinates":[12.0949,42.9156]},"properties":{"type":"pakketpunt","locatieNaam":"PuntoPoste TABACCHERIA N. 5","straatNaam":"VOCABOLO CICCHITELLO SNC 1","straatNr":"","vervoerder":"Amazon","puntType":"3p","bezettingsgraad":50,"latitude":42.9156,"longitude":12.0949,"canPickup":true,"canDropoff":false,"openingstijden":null}},{"type":"Feature","geometry":{"type":"Polygon","coordinates":[[[12.0669701,42.8955777],[12.0673945,42.8957374],[12.0684862,42.8964825],[12.0682589,42.8971008],[12.0677032,42.8979801],[12.0678947,42.8983982],[12.0690436,42.8988311],[12.0690383,42.899448],[12.0682673,42.8999685],[12.0676187,42.9007197],[12.0674782,42.9016059],[12.0677191,42.902743],[12.0675795,42.9056055],[12.0672355,42.9063261],[12.0664792,42.9071297],[12.0666302,42.9074724],[12.067472,42.9076209],[12.0677689,42.9079416],[12.0678573,42.9084884],[12.0677702,42.9092021],[12.0684571,42.9101921],[12.0685656,42.9108961],[12.067987,42.9108395],[12.0676491,42.9109567],[12.0677349,42.9116837],[12.0694699,42.914568],[12.0697429,42.9153621],[12.0707861,42.9171259],[12.0707454,42.9175547],[12.0712655,42.9186527],[12.0711071,42.9189001],[12.0703664,42.9192802],[12.0702815,42.9195436],[12.0703952,42.9198602],[12.070656,42.9201773],[12.070645,42.9221585],[12.0707348,42.923966],[12.0711569,42.9250621],[12.071222,42.9258933],[12.0710153,42.9264031],[12.0713816,42.9271316],[12.0722123,42.9282978],[12.0723292,42.9291861],[12.0723199,42.9299697],[12.0726815,42.9308334],[12.0734393,42.9315334],[12.0737042,42.9319314],[12.0741683,42.9323917],[12.0750573,42.9330206],[12.0761377,42.9333067],[12.0767029,42.9333365],[12.0783831,42.9340881],[12.0797957,42.9351531],[12.080405,42.935821],[12.0806147,42.9363241],[12.0810267,42.9369838],[12.0827738,42.9380893],[12.0835073,42.9390329],[12.0858821,42.9409408],[12.0894596,42.9413935],[12.091165,42.9414464],[12.103896,42.9413627],[12.1129535,42.9401441],[12.1141146,42.9403106],[12.1150471,42.9408164],[12.1158371,42.9409299],[12.1174776,42.9406511],[12.1185269,42.9408026],[12.1199588,42.9412317],[12.1214066,42.9412643],[12.1227056,42.9407786],[12.1236521,42.9386548],[12.1240593,42.9396791],[12.1242716,42.9404837],[12.124711,42.941174],[12.1268009,42.9429808],[12.1273599,42.9431276],[12.1280321,42.9430912],[12.1290777,42.9424413],[12.1296415,42.9419576],[12.130681,42.9409477],[12.1313723,42.9400644],[12.1337267,42.9386583],[12.1349647,42.9381652],[12.1377225,42.9374502],[12.1388035,42.9367633],[12.1399293,42.9355258],[12.1425564,42.9348954],[12.1451355,42.9354728],[12.1458626,42.9365153],[12.1462212,42.9365774],[12.1472364,42.9365405],[12.1471682,42.9368845],[12.1471952,42.937415],[12.1476837,42.9395446],[12.1482246,42.9405381],[12.1487274,42.9407854],[12.1488559,42.9399265],[12.1490498,42.939642],[12.1496616,42.9401204],[12.1502293,42.940663],[12.1506642,42.9424609],[12.1518371,42.9407087],[12.1518727,42.939006],[12.1516625,42.9384895],[12.1506919,42.9382011],[12.1502993,42.9379508],[12.1500874,42.9376415],[12.1500709,42.9373178],[12.1503062,42.9366451],[12.1519345,42.9342141],[12.153255,42.9334213],[12.153619,42.9333663],[12.1542401,42.9335157],[12.1545452,42.9337459],[12.1543398,42.9345079],[12.1536714,42.9353367],[12.1534814,42.9359363],[12.154183,42.9364752],[12.1553626,42.9362986],[12.1560487,42.9360545],[12.1573073,42.9359838],[12.1579577,42.9360018],[12.1587287,42.9362056],[12.1597635,42.9363121],[12.1613299,42.9362688],[12.162543,42.9360282],[12.1635788,42.9356754],[12.1666853,42.9350627],[12.1686696,42.934553],[12.1707891,42.9338279],[12.1724646,42.9335113],[12.1728608,42.9328746],[12.1727883,42.9324174],[12.1726001,42.9318553],[12.1718645,42.9306557],[12.1717655,42.9303973],[12.1717611,42.9300733],[12.1721413,42.9293784],[12.1738171,42.9281164],[12.1739856,42.9273418],[12.173294,42.9260734],[12.1732265,42.9256836],[12.1733784,42.9255399],[12.1742355,42.925291],[12.1744765,42.924735],[12.1743555,42.9240496],[12.1744097,42.9236744],[12.1746304,42.9232],[12.175231,42.9224901],[12.1752664,42.9210484],[12.1754187,42.9201978],[12.1761317,42.9188004],[12.177352,42.9170242],[12.177133,42.9165936],[12.1768627,42.9163399],[12.1767489,42.9160325],[12.1768599,42.9158088],[12.1775457,42.9155646],[12.177927,42.915581],[12.1784392,42.9157739],[12.1787305,42.9157208],[12.1781556,42.9145482],[12.1781587,42.9134316],[12.1782568,42.9131948],[12.1792421,42.9128072],[12.1792592,42.9126627],[12.1782489,42.9125647],[12.1775413,42.9123683],[12.1760894,42.9115442],[12.1752905,42.9109991],[12.1746065,42.9103518],[12.1741828,42.9101835],[12.1736253,42.9096137],[12.1729103,42.9085711],[12.1728312,42.9082221],[12.1719489,42.907022],[12.1717151,42.9070015],[12.1715558,42.9074921],[12.1709584,42.9077698],[12.1705286,42.9077637],[12.1692415,42.9072681],[12.1691024,42.9069433],[12.1690639,42.9061926],[12.1692364,42.90454],[12.1694023,42.9041933],[12.1693476,42.9038571],[12.1695783,42.9035491],[12.1704125,42.9028597],[12.1702669,42.9024225],[12.1704328,42.9015985],[12.1704472,42.9011929],[12.1703583,42.9008623],[12.1701017,42.9006353],[12.1692751,42.9002935],[12.1674003,42.8990804],[12.1668814,42.8982753],[12.1667168,42.8974515],[12.1660781,42.8966993],[12.1652581,42.8962313],[12.1651181,42.8956634],[12.1652264,42.8953723],[12.1656145,42.895312],[12.16682,42.8956568],[12.1671294,42.8954817],[12.1653283,42.889976],[12.163725,42.8863737],[12.1637039,42.8860051],[12.1638347,42.8856593],[12.1648833,42.8839285],[12.165034,42.8827898],[12.1649292,42.8804876],[12.1639958,42.8804774],[12.1628646,42.8806078],[12.1617623,42.8803591],[12.1603128,42.8797869],[12.1591361,42.8790721],[12.1556514,42.8784119],[12.1509724,42.8781447],[12.1481551,42.8784024],[12.1471507,42.8786191],[12.1462107,42.8781768],[12.1451439,42.8781431],[12.1443019,42.877761],[12.1431237,42.8774333],[12.1417045,42.8772111],[12.1392419,42.8769816],[12.1360612,42.877285],[12.135877,42.8774701],[12.1364293,42.8779817],[12.1371217,42.8791107],[12.1366711,42.8803657],[12.1365248,42.881072],[12.1372749,42.8818753],[12.1377389,42.8827855],[12.1377133,42.8839703],[12.1366409,42.8850667],[12.1365156,42.8851152],[12.1343059,42.885833],[12.1329391,42.8859245],[12.131739,42.8862095],[12.1308546,42.8866074],[12.1305408,42.8871967],[12.130622,42.8878338],[12.1297464,42.8884205],[12.1287256,42.8885745],[12.1274652,42.8886225],[12.1264619,42.8891226],[12.1253342,42.8903105],[12.1249694,42.891347],[12.1234791,42.8923736],[12.1219495,42.8931087],[12.1211821,42.8937059],[12.1200587,42.8932684],[12.1184127,42.8929261],[12.1167505,42.8930209],[12.1152902,42.8929616],[12.1119554,42.8921385],[12.1107675,42.8919097],[12.1098599,42.8918803],[12.10888,42.8916188],[12.1077695,42.8909647],[12.1069212,42.8897092],[12.1068288,42.8885862],[12.1067208,42.8881569],[12.1065685,42.888035],[12.1045789,42.8872156],[12.1036218,42.8866878],[12.1028452,42.8860966],[12.1014499,42.8853916],[12.1013737,42.885092],[12.1015015,42.8844357],[12.1013642,42.8836831],[12.1009266,42.8829836],[12.1003051,42.8825683],[12.099031,42.8823237],[12.0983381,42.8819192],[12.0981322,42.881263],[12.0978206,42.8809068],[12.0959842,42.8804208],[12.0924059,42.8810623],[12.0912267,42.8810312],[12.0896516,42.8805965],[12.0888527,42.8800463],[12.0863383,42.8790202],[12.0854439,42.878486],[12.0848037,42.8784133],[12.0836974,42.8785849],[12.082762,42.8765369],[12.0819902,42.8752971],[12.0813394,42.8754902],[12.0809873,42.8757788],[12.0803282,42.8761117],[12.0798892,42.8761146],[12.0793825,42.8760201],[12.077826,42.8754948],[12.0773221,42.8754543],[12.0762059,42.8751962],[12.0753361,42.8746613],[12.0741371,42.8741983],[12.0730205,42.8741473],[12.0720359,42.8743043],[12.0714074,42.8745283],[12.0719833,42.8749405],[12.0722716,42.8755991],[12.07238,42.876303],[12.0728008,42.8771336],[12.0727371,42.8773154],[12.0722753,42.8778771],[12.0719308,42.8798312],[12.0720932,42.8813756],[12.0714473,42.8843643],[12.0686457,42.8878521],[12.0693631,42.8882741],[12.0694603,42.8885056],[12.0693011,42.8889826],[12.0693409,42.8892922],[12.0697882,42.8901626],[12.0695488,42.8907813],[12.0695887,42.8910773],[12.0700532,42.8915691],[12.0703305,42.8922055],[12.0701251,42.8927557],[12.0696937,42.8934246],[12.0696422,42.894376],[12.0693807,42.8947972],[12.0683141,42.8952355],[12.0669701,42.8955777]]]},"properties":{"type":"boundary","gemeente":"Montegabbione"}}]}