{"type":"FeatureCollection","metadata":{"gemeente":"Montiano","slug":"montiano","generated_at":"2026-09-26T14:27:37.371610Z","total_points":5,"providers":["PosteItaliane","DHL","Amazon"],"bounds":[12.3042,44.08273197,12.30483722,44.083174]},"features":[{"type":"Feature","geometry":{"type":"Point","coordinates":[12.30483722,44.08273197]},"properties":{"type":"pakketpunt","locatieNaam":"Montiano","straatNaam":"Piazza Giuseppe Garibaldi","straatNr":"9","vervoerder":"PosteItaliane","puntType":"postkantoor","bezettingsgraad":50,"latitude":44.08273197,"longitude":12.30483722,"canPickup":true,"canDropoff":true,"openingstijden":{"za":"08:20 - 12:45","zo":"gesloten","ma":"08:20 - 13:45","di":"08:20 - 13:45","wo":"08:20 - 13:45","do":"08:20 - 13:45","vr":"08:20 - 13:45"}}},{"type":"Feature","geometry":{"type":"Point","coordinates":[12.30421602,44.08317356]},"properties":{"type":"pakketpunt","locatieNaam":"Tabaccheria N. 1","straatNaam":"Via Cesare Battisti","straatNr":"21","vervoerder":"PosteItaliane","puntType":"servicepunt","bezettingsgraad":50,"latitude":44.08317356,"longitude":12.30421602,"canPickup":true,"canDropoff":true,"openingstijden":{"za":"07:00 - 13:00, 16:00 - 19:30","zo":"gesloten","ma":"07:00 - 13:00, 16:00 - 19:30","di":"07:00 - 13:00, 16:00 - 19:30","wo":"07:00 - 13:00","do":"07:00 - 13:00, 16:00 - 19:30","vr":"07:00 - 13:00, 16:00 - 19:30"}}},{"type":"Feature","geometry":{"type":"Point","coordinates":[12.304837,44.082732]},"properties":{"type":"pakketpunt","locatieNaam":"Ufficio Postale MONTIANO","straatNaam":"PIAZZA GIUSEPPE GARIBALDI 9","straatNr":"","vervoerder":"DHL","puntType":"postOffice","bezettingsgraad":50,"latitude":44.082732,"longitude":12.304837,"canPickup":true,"canDropoff":true,"openingstijden":{"ma":"08:20 - 13:45","di":"08:20 - 13:45","wo":"08:20 - 13:45","do":"08:20 - 13:45","vr":"08:20 - 13:45","za":"08:20 - 12:45","zo":"gesloten"}}},{"type":"Feature","geometry":{"type":"Point","coordinates":[12.304216,44.083174]},"properties":{"type":"pakketpunt","locatieNaam":"TABACCHERIA N. 1","straatNaam":"VIA CESARE BATTISTI 21","straatNr":"","vervoerder":"DHL","puntType":"parcelShop","bezettingsgraad":50,"latitude":44.083174,"longitude":12.304216,"canPickup":true,"canDropoff":true,"openingstijden":{"ma":"07:00 - 13:00, 16:00 - 19:30","di":"07:00 - 13:00, 16:00 - 19:30","wo":"07:00 - 13:00","do":"07:00 - 13:00, 16:00 - 19:30","vr":"07:00 - 13:00, 16:00 - 19:30","za":"07:00 - 13:00, 16:00 - 19:30","zo":"gesloten"}}},{"type":"Feature","geometry":{"type":"Point","coordinates":[12.3042,44.0831]},"properties":{"type":"pakketpunt","locatieNaam":"PuntoPoste TABACCHERIA N. 1","straatNaam":"VIA CESARE BATTISTI 21","straatNr":"","vervoerder":"Amazon","puntType":"3p","bezettingsgraad":50,"latitude":44.0831,"longitude":12.3042,"canPickup":true,"canDropoff":false,"openingstijden":null}},{"type":"Feature","geometry":{"type":"Polygon","coordinates":[[[12.2766574,44.0693564],[12.2748099,44.0670651],[12.2744765,44.0662284],[12.2746934,44.0645027],[12.2756574,44.0604778],[12.2762947,44.0600364],[12.2774051,44.0595724],[12.2836051,44.0574586],[12.2972686,44.054652],[12.3005617,44.0541607],[12.3009755,44.0541937],[12.3078095,44.0572098],[12.3080234,44.0574647],[12.3091453,44.0598989],[12.3094269,44.0611421],[12.3102926,44.0676288],[12.3104298,44.0679019],[12.3108953,44.0682045],[12.3110641,44.0686306],[12.3115018,44.0688286],[12.3119566,44.0688683],[12.3121434,44.0690006],[12.312367,44.0693786],[12.3134898,44.0696828],[12.3142523,44.0696488],[12.314334,44.0697658],[12.3139271,44.0702915],[12.3127035,44.0711943],[12.3131774,44.0716813],[12.3133306,44.0725378],[12.3139766,44.0736556],[12.3138568,44.0745759],[12.3155154,44.0758077],[12.3158167,44.0763024],[12.3152332,44.0760793],[12.3149576,44.0758811],[12.3147556,44.075898],[12.3139201,44.0772582],[12.3136539,44.0780799],[12.3133511,44.0780937],[12.3129474,44.0783376],[12.3130216,44.0784821],[12.3135572,44.0788274],[12.3140154,44.079507],[12.3136199,44.0798943],[12.3135312,44.0800981],[12.3135241,44.0804907],[12.3142337,44.0812601],[12.3143779,44.0815495],[12.3143882,44.0817799],[12.3141239,44.0822866],[12.3141021,44.0826423],[12.3141708,44.0835763],[12.3143817,44.084592],[12.3143264,44.0852251],[12.3145934,44.0855999],[12.3151903,44.0860506],[12.3150444,44.086811],[12.3151537,44.0871327],[12.3152914,44.0872845],[12.3157348,44.0875939],[12.3168639,44.0878584],[12.3167371,44.0881421],[12.3165643,44.0882488],[12.3156822,44.0884483],[12.3156341,44.0887059],[12.3159247,44.0894785],[12.3155354,44.0899245],[12.3154596,44.0901351],[12.3157035,44.0904597],[12.3166701,44.090728],[12.3167583,44.0908631],[12.316376,44.0915214],[12.3164914,44.0920665],[12.3163748,44.0925765],[12.3160308,44.0930748],[12.3161301,44.0932406],[12.3161501,44.0935082],[12.3163458,44.0937834],[12.3163119,44.0939404],[12.3159122,44.0944652],[12.3147064,44.0953911],[12.3146104,44.0955693],[12.3146214,44.0957799],[12.3136648,44.0963413],[12.3134187,44.0967219],[12.3119507,44.0962435],[12.3108246,44.0961032],[12.3100228,44.0958704],[12.3081419,44.0949079],[12.3072367,44.0942217],[12.3050637,44.0917098],[12.3048575,44.0917914],[12.3060959,44.096033],[12.3056647,44.095954],[12.3057519,44.0966233],[12.305398,44.0966339],[12.3054816,44.0970175],[12.3047031,44.0969566],[12.3044369,44.0956641],[12.3040901,44.0949032],[12.3035224,44.0950227],[12.3038214,44.0963015],[12.3023721,44.0960991],[12.302435,44.0979277],[12.301415,44.0980122],[12.3009147,44.0967893],[12.3004546,44.0947561],[12.3000247,44.0912165],[12.2998573,44.0906647],[12.2989344,44.0905829],[12.2984318,44.090133],[12.2978859,44.0901668],[12.297793,44.0905799],[12.2965728,44.0901267],[12.2938435,44.089678],[12.2923666,44.0887459],[12.2924402,44.0885594],[12.2927999,44.088273],[12.2937043,44.0872747],[12.2937148,44.0867124],[12.2927195,44.0847009],[12.292321,44.084458],[12.2921775,44.0836833],[12.2911398,44.0830655],[12.2905562,44.0828916],[12.2902838,44.0826796],[12.2902524,44.0824969],[12.2914178,44.0819021],[12.2918402,44.0818202],[12.2923453,44.0818442],[12.2927976,44.0817335],[12.2929862,44.0815722],[12.2930264,44.0812622],[12.292759,44.0809302],[12.2920284,44.0806279],[12.291386,44.080131],[12.2904689,44.079619],[12.2898083,44.0793662],[12.2895778,44.0790764],[12.2897968,44.0783898],[12.291422,44.0778317],[12.2919595,44.0774777],[12.2918488,44.0772542],[12.2916764,44.0771408],[12.2913389,44.0771274],[12.2909942,44.0769628],[12.2908754,44.0767206],[12.2905632,44.0765715],[12.2890985,44.0766733],[12.2886905,44.0765812],[12.2887113,44.0763317],[12.2891111,44.0759092],[12.2891756,44.0754851],[12.2889939,44.0749022],[12.2886946,44.0744966],[12.2885153,44.0739797],[12.288387,44.0739252],[12.288168,44.074057],[12.2882994,44.0744232],[12.2881881,44.0744983],[12.2871853,44.0746928],[12.2863326,44.0744852],[12.2858145,44.074047],[12.2857821,44.0735896],[12.2859583,44.0735171],[12.2871658,44.0738403],[12.287367,44.0738049],[12.2873925,44.0737306],[12.2870538,44.073211],[12.2867855,44.0731842],[12.2864221,44.0728952],[12.286472,44.0726715],[12.2867125,44.072324],[12.2870696,44.0722956],[12.2870702,44.0721389],[12.2869026,44.071861],[12.2865224,44.0715569],[12.2860341,44.0714584],[12.2858165,44.0714488],[12.2856525,44.0717889],[12.2849529,44.0715361],[12.2851869,44.0709644],[12.2856554,44.0707349],[12.2852384,44.0706009],[12.2846389,44.0707293],[12.2840662,44.0706684],[12.2831587,44.0711403],[12.2826198,44.0709151],[12.2824691,44.0707486],[12.2825296,44.0705917],[12.2829999,44.0704498],[12.283469,44.0704355],[12.2837625,44.0703165],[12.2839089,44.0700446],[12.2845155,44.0697006],[12.284615,44.0695402],[12.2845493,44.0693529],[12.2840035,44.0691127],[12.2833873,44.0691939],[12.2832446,44.068976],[12.2832969,44.0686615],[12.2829531,44.0684048],[12.2822976,44.0683089],[12.2812211,44.0693523],[12.2802,44.0697437],[12.2798068,44.0699948],[12.2797165,44.0699326],[12.2798176,44.0696059],[12.2797111,44.0693607],[12.2790654,44.0687263],[12.278378,44.0681959],[12.2781473,44.0681085],[12.2775964,44.0681475],[12.2771235,44.068717],[12.2765655,44.0690636],[12.2765294,44.0691388],[12.2766574,44.0693564]]]},"properties":{"type":"boundary","gemeente":"Montiano"}}]}