{"type":"FeatureCollection","metadata":{"gemeente":"Montalto Uffugo","slug":"montalto-uffugo","generated_at":"2026-09-26T14:27:35.202573Z","total_points":76,"providers":["PosteItaliane","DPD","InPost","GLS","DHL","Amazon","FedEx"],"bounds":[16.13613404,39.382439,16.2538232,39.433523]},"features":[{"type":"Feature","geometry":{"type":"Point","coordinates":[16.15532556,39.40329976]},"properties":{"type":"pakketpunt","locatieNaam":"Montalto Uffugo","straatNaam":"Via Aldo Moro Snc","straatNr":"3","vervoerder":"PosteItaliane","puntType":"postkantoor","bezettingsgraad":50,"latitude":39.40329976,"longitude":16.15532556,"canPickup":true,"canDropoff":true,"openingstijden":{"za":"08:20 - 12:35","zo":"gesloten","ma":"08:20 - 13:35","di":"08:20 - 13:35","wo":"08:20 - 13:35","do":"08:20 - 13:35","vr":"08:20 - 13:35"}}},{"type":"Feature","geometry":{"type":"Point","coordinates":[16.23051144,39.43309115]},"properties":{"type":"pakketpunt","locatieNaam":"Taverna Di Montalto Uffugo","straatNaam":"Via Giuseppe Verdi","straatNr":"34","vervoerder":"PosteItaliane","puntType":"postkantoor","bezettingsgraad":50,"latitude":39.43309115,"longitude":16.23051144,"canPickup":true,"canDropoff":true,"openingstijden":{"za":"08:20 - 12:35","zo":"gesloten","ma":"08:20 - 13:35","di":"08:20 - 13:35","wo":"08:20 - 13:35","do":"08:20 - 13:35","vr":"08:20 - 13:35"}}},{"type":"Feature","geometry":{"type":"Point","coordinates":[16.24332276,39.41241051]},"properties":{"type":"pakketpunt","locatieNaam":"Montalto Uffugo Scalo","straatNaam":"Via Villaggio Snc","straatNr":"1","vervoerder":"PosteItaliane","puntType":"postkantoor","bezettingsgraad":50,"latitude":39.41241051,"longitude":16.24332276,"canPickup":true,"canDropoff":true,"openingstijden":{"za":"08:20 - 12:35","zo":"gesloten","ma":"08:20 - 13:35","di":"08:20 - 13:35","wo":"08:20 - 13:35","do":"08:20 - 13:35","vr":"08:20 - 13:35"}}},{"type":"Feature","geometry":{"type":"Point","coordinates":[16.13613404,39.41080154]},"properties":{"type":"pakketpunt","locatieNaam":"Vaccarizzo Di Montalto Uffugo","straatNaam":"Via Francesco Crispi","straatNr":"26","vervoerder":"PosteItaliane","puntType":"postkantoor","bezettingsgraad":50,"latitude":39.41080154,"longitude":16.13613404,"canPickup":true,"canDropoff":true,"openingstijden":{"za":"gesloten","zo":"gesloten","ma":"gesloten","di":"gesloten","wo":"gesloten","do":"08:20 - 13:45","vr":"gesloten"}}},{"type":"Feature","geometry":{"type":"Point","coordinates":[16.23921237,39.40575689]},"properties":{"type":"pakketpunt","locatieNaam":"Tabaccheria N. 9","straatNaam":"Via Benedetto Croce","straatNr":"71","vervoerder":"PosteItaliane","puntType":"servicepunt","bezettingsgraad":50,"latitude":39.40575689,"longitude":16.23921237,"canPickup":true,"canDropoff":true,"openingstijden":{"za":"07:30 - 14:00, 15:30 - 20:00","zo":"gesloten","ma":"07:30 - 14:00, 15:30 - 20:00","di":"12:30 - 14:00, 16:00 - 20:00","wo":"07:30 - 14:00, 15:30 - 20:00","do":"12:30 - 14:00, 15:30 - 20:00","vr":"07:30 - 14:00, 15:30 - 20:00"}}},{"type":"Feature","geometry":{"type":"Point","coordinates":[16.23847267,39.41080361]},"properties":{"type":"pakketpunt","locatieNaam":"Tabaccheria N. 16","straatNaam":"Via Benedetto Croce","straatNr":"261","vervoerder":"PosteItaliane","puntType":"servicepunt","bezettingsgraad":50,"latitude":39.41080361,"longitude":16.23847267,"canPickup":true,"canDropoff":true,"openingstijden":{"za":"04:30 - 23:59","zo":"04:30 - 23:59","ma":"04:30 - 23:59","di":"04:30 - 23:59","wo":"04:30 - 23:59","do":"04:30 - 23:59","vr":"04:30 - 23:59"}}},{"type":"Feature","geometry":{"type":"Point","coordinates":[16.23356475,39.43018909]},"properties":{"type":"pakketpunt","locatieNaam":"Tabaccheria N. 4","straatNaam":"Corso Italia","straatNr":"62","vervoerder":"PosteItaliane","puntType":"servicepunt","bezettingsgraad":50,"latitude":39.43018909,"longitude":16.23356475,"canPickup":true,"canDropoff":true,"openingstijden":{"za":"07:30 - 14:00, 16:00 - 20:00","zo":"gesloten","ma":"07:30 - 14:00, 16:00 - 20:00","di":"07:30 - 14:00, 16:00 - 20:00","wo":"07:30 - 14:00, 16:00 - 20:00","do":"07:30 - 14:00, 16:00 - 20:00","vr":"07:30 - 14:00, 16:00 - 20:00"}}},{"type":"Feature","geometry":{"type":"Point","coordinates":[16.15689257,39.40420946]},"properties":{"type":"pakketpunt","locatieNaam":"Tabaccheria N. 3","straatNaam":"Via Roma","straatNr":"91","vervoerder":"PosteItaliane","puntType":"servicepunt","bezettingsgraad":50,"latitude":39.40420946,"longitude":16.15689257,"canPickup":true,"canDropoff":true,"openingstijden":{"za":"08:30 - 12:30, 16:00 - 20:00","zo":"08:30 - 13:00","ma":"08:30 - 12:30, 16:00 - 20:00","di":"08:30 - 12:30, 16:00 - 20:00","wo":"08:00 - 12:30","do":"08:30 - 12:30, 16:00 - 20:00","vr":"08:30 - 12:30, 16:00 - 20:00"}}},{"type":"Feature","geometry":{"type":"Point","coordinates":[16.15702693,39.40770789]},"properties":{"type":"pakketpunt","locatieNaam":"Tabaccheria N. 2","straatNaam":"Via Delle Calcare Snc","straatNr":"1","vervoerder":"PosteItaliane","puntType":"servicepunt","bezettingsgraad":50,"latitude":39.40770789,"longitude":16.15702693,"canPickup":true,"canDropoff":true,"openingstijden":{"za":"07:30 - 13:00, 16:00 - 22:00","zo":"07:30 - 13:00, 16:00 - 22:00","ma":"07:30 - 13:00, 16:00 - 22:00","di":"07:30 - 13:00, 16:00 - 22:00","wo":"07:30 - 13:00, 16:00 - 22:00","do":"07:30 - 13:00, 16:00 - 22:00","vr":"07:30 - 13:00, 16:00 - 22:00"}}},{"type":"Feature","geometry":{"type":"Point","coordinates":[16.22294166,39.42972535]},"properties":{"type":"pakketpunt","locatieNaam":"Stazione Di Servizio Tamoil","straatNaam":"Via Alessandro Manzoni Snc","straatNr":"5","vervoerder":"PosteItaliane","puntType":"automaat","bezettingsgraad":50,"latitude":39.42972535,"longitude":16.22294166,"canPickup":true,"canDropoff":true,"openingstijden":{"za":"00:01 - 23:59","zo":"00:01 - 23:59","ma":"00:01 - 23:59","di":"00:01 - 23:59","wo":"00:01 - 23:59","do":"00:01 - 23:59","vr":"00:01 - 23:59"}}},{"type":"Feature","geometry":{"type":"Point","coordinates":[16.23967647,39.40498227]},"properties":{"type":"pakketpunt","locatieNaam":"Stazione Di Servizio Tamoil","straatNaam":"Via Benedetto Croce Snc","straatNr":"14","vervoerder":"PosteItaliane","puntType":"automaat","bezettingsgraad":50,"latitude":39.40498227,"longitude":16.23967647,"canPickup":true,"canDropoff":true,"openingstijden":{"za":"00:01 - 23:59","zo":"00:01 - 23:59","ma":"00:01 - 23:59","di":"00:01 - 23:59","wo":"00:01 - 23:59","do":"00:01 - 23:59","vr":"00:01 - 23:59"}}},{"type":"Feature","geometry":{"type":"Point","coordinates":[16.23818661,39.39237241]},"properties":{"type":"pakketpunt","locatieNaam":"Tabaccheria N. 8","straatNaam":"Via Trieste","straatNr":"27","vervoerder":"PosteItaliane","puntType":"servicepunt","bezettingsgraad":50,"latitude":39.39237241,"longitude":16.23818661,"canPickup":true,"canDropoff":true,"openingstijden":{"za":"06:30 - 13:00, 15:30 - 20:00","zo":"gesloten","ma":"06:30 - 13:00, 15:30 - 20:00","di":"06:30 - 13:00, 15:30 - 20:00","wo":"06:30 - 13:00, 15:30 - 20:00","do":"06:30 - 13:00, 15:30 - 20:00","vr":"06:30 - 13:00, 15:30 - 20:00"}}},{"type":"Feature","geometry":{"type":"Point","coordinates":[16.23033651,39.43062241]},"properties":{"type":"pakketpunt","locatieNaam":"Tabaccheria N. 7","straatNaam":"Via Alessandro Manzoni","straatNr":"59","vervoerder":"PosteItaliane","puntType":"servicepunt","bezettingsgraad":50,"latitude":39.43062241,"longitude":16.23033651,"canPickup":true,"canDropoff":true,"openingstijden":{"za":"06:00 - 19:15","zo":"gesloten","ma":"06:00 - 19:15","di":"06:00 - 19:15","wo":"06:00 - 19:15","do":"06:00 - 19:15","vr":"06:00 - 19:15"}}},{"type":"Feature","geometry":{"type":"Point","coordinates":[16.20062155,39.43132728]},"properties":{"type":"pakketpunt","locatieNaam":"Tabaccheria N. 17","straatNaam":"Via Pianette","straatNr":"78","vervoerder":"PosteItaliane","puntType":"servicepunt","bezettingsgraad":50,"latitude":39.43132728,"longitude":16.20062155,"canPickup":true,"canDropoff":true,"openingstijden":{"za":"06:00 - 20:00","zo":"gesloten","ma":"06:00 - 20:00","di":"06:00 - 20:00","wo":"06:00 - 20:00","do":"06:00 - 20:00","vr":"06:00 - 20:00"}}},{"type":"Feature","geometry":{"type":"Point","coordinates":[16.23466472,39.3847257]},"properties":{"type":"pakketpunt","locatieNaam":"Tabaccheria N. 11","straatNaam":"Via Trieste","straatNr":"283","vervoerder":"PosteItaliane","puntType":"servicepunt","bezettingsgraad":50,"latitude":39.3847257,"longitude":16.23466472,"canPickup":true,"canDropoff":true,"openingstijden":{"za":"06:00 - 20:00","zo":"gesloten","ma":"06:00 - 20:00","di":"06:00 - 20:00","wo":"06:00 - 20:00","do":"06:00 - 20:00","vr":"06:00 - 20:00"}}},{"type":"Feature","geometry":{"type":"Point","coordinates":[16.23689624,39.39075224]},"properties":{"type":"pakketpunt","locatieNaam":"Computerclick","straatNaam":"Via Nuoro","straatNr":"19","vervoerder":"PosteItaliane","puntType":"servicepunt","bezettingsgraad":50,"latitude":39.39075224,"longitude":16.23689624,"canPickup":true,"canDropoff":true,"openingstijden":{"za":"gesloten","zo":"gesloten","ma":"09:30 - 13:00, 16:30 - 20:00","di":"09:30 - 13:00, 16:30 - 20:00","wo":"09:30 - 13:00, 16:30 - 20:00","do":"09:30 - 13:00, 16:30 - 20:00","vr":"09:30 - 13:00, 16:30 - 20:00"}}},{"type":"Feature","geometry":{"type":"Point","coordinates":[16.15782598,39.40589646]},"properties":{"type":"pakketpunt","locatieNaam":"Tabaccheria N. 1","straatNaam":"Via Giuseppe Garibaldi","straatNr":"10","vervoerder":"PosteItaliane","puntType":"servicepunt","bezettingsgraad":50,"latitude":39.40589646,"longitude":16.15782598,"canPickup":true,"canDropoff":true,"openingstijden":{"za":"06:00 - 13:00, 13:30 - 21:00","zo":"gesloten","ma":"06:00 - 13:00, 13:30 - 21:00","di":"06:00 - 13:00, 13:30 - 21:00","wo":"06:00 - 13:00, 13:30 - 21:00","do":"06:00 - 13:00, 13:30 - 21:00","vr":"06:00 - 13:00, 13:30 - 21:00"}}},{"type":"Feature","geometry":{"type":"Point","coordinates":[16.22951,39.430369]},"properties":{"type":"pakketpunt","locatieNaam":"Qui Poste - Montalto Uffugo","straatNaam":"VIA ALESSANDRO MANZONI","straatNr":"14","vervoerder":"DPD","puntType":"pickup_point","bezettingsgraad":50,"latitude":39.430369,"longitude":16.22951,"canPickup":true,"canDropoff":true,"openingstijden":{"ma":"08:15 - 12:45, 16:00 - 18:00","di":"08:15 - 12:45, 16:00 - 18:00","wo":"08:15 - 12:45, 16:00 - 18:00","do":"08:15 - 12:45, 16:00 - 18:00","vr":"08:15 - 12:45, 16:00 - 18:00","za":"08:30 - 12:30","zo":"gesloten"}}},{"type":"Feature","geometry":{"type":"Point","coordinates":[16.2308323,39.4318145]},"properties":{"type":"pakketpunt","locatieNaam":"SiPosta Montalto Uffugo","straatNaam":"CORSO ITALIA","straatNr":"174","vervoerder":"DPD","puntType":"pickup_point","bezettingsgraad":50,"latitude":39.4318145,"longitude":16.2308323,"canPickup":true,"canDropoff":true,"openingstijden":{"ma":"08:15 - 13:00, 16:00 - 19:00","di":"08:15 - 13:00, 16:00 - 19:00","wo":"08:15 - 13:00, 16:00 - 19:00","do":"08:15 - 13:00, 16:00 - 19:00","vr":"08:15 - 13:00, 16:00 - 19:00","za":"09:00 - 12:00","zo":"gesloten"}}},{"type":"Feature","geometry":{"type":"Point","coordinates":[16.22107365,39.42989853]},"properties":{"type":"pakketpunt","locatieNaam":"Vi&Gi Servizi","straatNaam":"VIA A. MANZONI","straatNr":"80","vervoerder":"DPD","puntType":"pickup_point","bezettingsgraad":50,"latitude":39.42989853,"longitude":16.22107365,"canPickup":true,"canDropoff":true,"openingstijden":{"ma":"09:00 - 13:00, 16:00 - 20:00","di":"09:00 - 13:00, 16:00 - 20:00","wo":"09:00 - 13:00, 16:00 - 20:00","do":"09:00 - 13:00, 16:00 - 20:00","vr":"09:00 - 13:00, 16:00 - 20:00","za":"09:00 - 13:00, 16:00 - 19:00","zo":"gesloten"}}},{"type":"Feature","geometry":{"type":"Point","coordinates":[16.22944,39.43071]},"properties":{"type":"pakketpunt","locatieNaam":"InPost Point","straatNaam":"Via Alessandro Manzoni","straatNr":"14","vervoerder":"InPost","puntType":"servicepunt","bezettingsgraad":50,"latitude":39.43071,"longitude":16.22944,"canPickup":true,"canDropoff":true,"openingstijden":"Lun-Ven: 08:15 - 12:45 - 16:00 - 18:00 Sab: 08:30 - 12:30"}},{"type":"Feature","geometry":{"type":"Point","coordinates":[16.22283,39.42972]},"properties":{"type":"pakketpunt","locatieNaam":"InPost Locker 24/7","straatNaam":"Via Manzoni Alessandro","straatNr":"snc","vervoerder":"InPost","puntType":"automaat","bezettingsgraad":50,"latitude":39.42972,"longitude":16.22283,"canPickup":true,"canDropoff":true,"openingstijden":null}},{"type":"Feature","geometry":{"type":"Point","coordinates":[16.2397,39.40531]},"properties":{"type":"pakketpunt","locatieNaam":"InPost Locker 24/7","straatNaam":"Via Benedetto Croce","straatNr":"14/16","vervoerder":"InPost","puntType":"automaat","bezettingsgraad":50,"latitude":39.40531,"longitude":16.2397,"canPickup":true,"canDropoff":true,"openingstijden":null}},{"type":"Feature","geometry":{"type":"Point","coordinates":[16.2366001,39.387171]},"properties":{"type":"pakketpunt","locatieNaam":"Informatica servizi","straatNaam":"Via Trieste","straatNr":"132","vervoerder":"GLS","puntType":"parcel_shop","bezettingsgraad":50,"latitude":39.387171,"longitude":16.2366001,"canPickup":true,"canDropoff":true,"openingstijden":"ma: 09:00 - 13:00, 15:30 - 19:00; di: 09:00 - 13:00, 15:30 - 19:00"}},{"type":"Feature","geometry":{"type":"Point","coordinates":[16.2392432,39.4048277]},"properties":{"type":"pakketpunt","locatieNaam":"BAR TABACCHI IL CAFFE' PIU' CELEBRE","straatNaam":"Via Benedetto Croce","straatNr":"71","vervoerder":"GLS","puntType":"parcel_shop","bezettingsgraad":50,"latitude":39.4048277,"longitude":16.2392432,"canPickup":true,"canDropoff":true,"openingstijden":"za: 06:00 - 14:00, 15:00 - 20:00; ma: 06:00 - 14:00, 15:00 - 20:00"}},{"type":"Feature","geometry":{"type":"Point","coordinates":[16.1575625,39.4061726]},"properties":{"type":"pakketpunt","locatieNaam":"Centro Servizi","straatNaam":"Corso Giuseppe Garibaldi","straatNr":"7","vervoerder":"GLS","puntType":"parcel_shop","bezettingsgraad":50,"latitude":39.4061726,"longitude":16.1575625,"canPickup":true,"canDropoff":true,"openingstijden":"za: 08:30 - 13:00, 16:00 - 20:00; ma: 08:30 - 13:00, 16:00 - 20:00"}},{"type":"Feature","geometry":{"type":"Point","coordinates":[16.2538232,39.4075488]},"properties":{"type":"pakketpunt","locatieNaam":"Caffe' Mammone","straatNaam":"Strada Provinciale 247","straatNr":"14","vervoerder":"GLS","puntType":"parcel_shop","bezettingsgraad":50,"latitude":39.4075488,"longitude":16.2538232,"canPickup":true,"canDropoff":true,"openingstijden":"za: 08:30 - 13:00, 16:00 - 20:00; ma: 08:30 - 13:00, 16:00 - 20:00"}},{"type":"Feature","geometry":{"type":"Point","coordinates":[16.1560992,39.4082542]},"properties":{"type":"pakketpunt","locatieNaam":"trotta paolo assicurazioni","straatNaam":"Via Don Gaetano Mauro","straatNr":"23","vervoerder":"GLS","puntType":"parcel_shop","bezettingsgraad":50,"latitude":39.4082542,"longitude":16.1560992,"canPickup":true,"canDropoff":true,"openingstijden":"ma: 09:00 - 12:30, 16:00 - 19:00; di: 09:30 - 12:30, 16:00 - 19:00"}},{"type":"Feature","geometry":{"type":"Point","coordinates":[16.22112279,39.4299176]},"properties":{"type":"pakketpunt","locatieNaam":"Vi&Gi Servizi","straatNaam":"Via Alessandro Manzoni","straatNr":"80","vervoerder":"GLS","puntType":"parcel_shop","bezettingsgraad":50,"latitude":39.4299176,"longitude":16.22112279,"canPickup":true,"canDropoff":true,"openingstijden":"za: 09:00 - 13:00, 16:00 - 19:00; ma: 09:00 - 13:00, 16:00 - 20:00"}},{"type":"Feature","geometry":{"type":"Point","coordinates":[16.2294852,39.4305097]},"properties":{"type":"pakketpunt","locatieNaam":"Quiposte","straatNaam":"Via Alessandro Manzoni","straatNr":"14","vervoerder":"GLS","puntType":"parcel_shop","bezettingsgraad":50,"latitude":39.4305097,"longitude":16.2294852,"canPickup":true,"canDropoff":true,"openingstijden":"za: 08:00 - 12:30; ma: 08:00 - 13:00, 16:00 - 18:00"}},{"type":"Feature","geometry":{"type":"Point","coordinates":[16.2308323,39.4318145]},"properties":{"type":"pakketpunt","locatieNaam":"SiPosta","straatNaam":"Corso Otalia","straatNr":"174","vervoerder":"GLS","puntType":"parcel_shop","bezettingsgraad":50,"latitude":39.4318145,"longitude":16.2308323,"canPickup":true,"canDropoff":true,"openingstijden":"za: 09:00 - 12:00; ma: 08:00 - 13:00, 16:00 - 19:00"}},{"type":"Feature","geometry":{"type":"Point","coordinates":[16.155326,39.4033]},"properties":{"type":"pakketpunt","locatieNaam":"Ufficio Postale MONTALTO UFFUGO","straatNaam":"VIA ALDO MORO SNC 3","straatNr":"","vervoerder":"DHL","puntType":"postOffice","bezettingsgraad":50,"latitude":39.4033,"longitude":16.155326,"canPickup":true,"canDropoff":true,"openingstijden":{"ma":"08:20 - 13:35","di":"08:20 - 13:35","wo":"08:20 - 13:35","do":"08:20 - 13:35","vr":"08:20 - 13:35","za":"08:20 - 12:35","zo":"gesloten"}}},{"type":"Feature","geometry":{"type":"Point","coordinates":[16.156893,39.404209]},"properties":{"type":"pakketpunt","locatieNaam":"TABACCHERIA N. 3","straatNaam":"VIA ROMA 91","straatNr":"","vervoerder":"DHL","puntType":"parcelShop","bezettingsgraad":50,"latitude":39.404209,"longitude":16.156893,"canPickup":true,"canDropoff":true,"openingstijden":{"ma":"08:30 - 12:30, 16:00 - 20:00","di":"08:30 - 12:30, 16:00 - 20:00","wo":"08:00 - 12:30","do":"08:30 - 12:30, 16:00 - 20:00","vr":"08:30 - 12:30, 16:00 - 20:00","za":"08:30 - 12:30, 16:00 - 20:00","zo":"08:30 - 13:00"}}},{"type":"Feature","geometry":{"type":"Point","coordinates":[16.157826,39.405896]},"properties":{"type":"pakketpunt","locatieNaam":"TABACCHERIA N. 1","straatNaam":"VIA GIUSEPPE GARIBALDI 10","straatNr":"","vervoerder":"DHL","puntType":"parcelShop","bezettingsgraad":50,"latitude":39.405896,"longitude":16.157826,"canPickup":true,"canDropoff":true,"openingstijden":{"ma":"06:00 - 13:00, 13:30 - 21:00","di":"06:00 - 13:00, 13:30 - 21:00","wo":"06:00 - 13:00, 13:30 - 21:00","do":"06:00 - 13:00, 13:30 - 21:00","vr":"06:00 - 13:00, 13:30 - 21:00","za":"06:00 - 13:00, 13:30 - 21:00","zo":"gesloten"}}},{"type":"Feature","geometry":{"type":"Point","coordinates":[16.157027,39.407708]},"properties":{"type":"pakketpunt","locatieNaam":"TABACCHERIA N. 2","straatNaam":"VIA DELLE CALCARE SNC 1","straatNr":"","vervoerder":"DHL","puntType":"parcelShop","bezettingsgraad":50,"latitude":39.407708,"longitude":16.157027,"canPickup":true,"canDropoff":true,"openingstijden":{"ma":"07:30 - 13:00, 16:00 - 22:00","di":"07:30 - 13:00, 16:00 - 22:00","wo":"07:30 - 13:00, 16:00 - 22:00","do":"07:30 - 13:00, 16:00 - 22:00","vr":"07:30 - 13:00, 16:00 - 22:00","za":"07:30 - 13:00, 16:00 - 22:00","zo":"07:30 - 13:00, 16:00 - 22:00"}}},{"type":"Feature","geometry":{"type":"Point","coordinates":[16.200622,39.431327]},"properties":{"type":"pakketpunt","locatieNaam":"TABACCHERIA N. 17","straatNaam":"VIA PIANETTE 78","straatNr":"","vervoerder":"DHL","puntType":"parcelShop","bezettingsgraad":50,"latitude":39.431327,"longitude":16.200622,"canPickup":true,"canDropoff":true,"openingstijden":{"ma":"06:00 - 20:00","di":"06:00 - 20:00","wo":"06:00 - 20:00","do":"06:00 - 20:00","vr":"06:00 - 20:00","za":"06:00 - 20:00","zo":"gesloten"}}},{"type":"Feature","geometry":{"type":"Point","coordinates":[16.208193,39.430224]},"properties":{"type":"pakketpunt","locatieNaam":"SDA Cosenza","straatNaam":"VIA ARISTIDE DE NAPOLI SNC 3","straatNr":"","vervoerder":"DHL","puntType":"parcelShop","bezettingsgraad":50,"latitude":39.430224,"longitude":16.208193,"canPickup":false,"canDropoff":true,"openingstijden":{"ma":"08:30 - 18:00","di":"08:30 - 18:00","wo":"08:30 - 18:00","do":"08:30 - 18:00","vr":"08:30 - 18:00","za":"09:00 - 12:00","zo":"gesloten"}}},{"type":"Feature","geometry":{"type":"Point","coordinates":[16.234665,39.384726]},"properties":{"type":"pakketpunt","locatieNaam":"TABACCHERIA N. 11","straatNaam":"VIA TRIESTE 283","straatNr":"","vervoerder":"DHL","puntType":"parcelShop","bezettingsgraad":50,"latitude":39.384726,"longitude":16.234665,"canPickup":true,"canDropoff":true,"openingstijden":{"ma":"06:00 - 20:00","di":"06:00 - 20:00","wo":"06:00 - 20:00","do":"06:00 - 20:00","vr":"06:00 - 20:00","za":"06:00 - 20:00","zo":"gesloten"}}},{"type":"Feature","geometry":{"type":"Point","coordinates":[16.236896,39.390752]},"properties":{"type":"pakketpunt","locatieNaam":"COMPUTERCLICK","straatNaam":"VIA NUORO 19","straatNr":"","vervoerder":"DHL","puntType":"parcelShop","bezettingsgraad":50,"latitude":39.390752,"longitude":16.236896,"canPickup":true,"canDropoff":true,"openingstijden":{"ma":"09:30 - 13:00, 16:30 - 20:00","di":"09:30 - 13:00, 16:30 - 20:00","wo":"09:30 - 13:00, 16:30 - 20:00","do":"09:30 - 13:00, 16:30 - 20:00","vr":"09:30 - 13:00, 16:30 - 20:00","za":"gesloten","zo":"gesloten"}}},{"type":"Feature","geometry":{"type":"Point","coordinates":[16.238187,39.392372]},"properties":{"type":"pakketpunt","locatieNaam":"TABACCHERIA N. 8","straatNaam":"VIA TRIESTE 27","straatNr":"","vervoerder":"DHL","puntType":"parcelShop","bezettingsgraad":50,"latitude":39.392372,"longitude":16.238187,"canPickup":true,"canDropoff":true,"openingstijden":{"ma":"06:30 - 13:00, 15:30 - 20:00","di":"06:30 - 13:00, 15:30 - 20:00","wo":"06:30 - 13:00, 15:30 - 20:00","do":"06:30 - 13:00, 15:30 - 20:00","vr":"06:30 - 13:00, 15:30 - 20:00","za":"06:30 - 13:00, 15:30 - 20:00","zo":"gesloten"}}},{"type":"Feature","geometry":{"type":"Point","coordinates":[16.222942,39.429725]},"properties":{"type":"pakketpunt","locatieNaam":"STAZIONE DI SERVIZIO TAMOIL","straatNaam":"VIA ALESSANDRO MANZONI SNC 5","straatNr":"","vervoerder":"DHL","puntType":"packStation","bezettingsgraad":50,"latitude":39.429725,"longitude":16.222942,"canPickup":true,"canDropoff":true,"openingstijden":{"ma":"00:01 - 23:59","di":"00:01 - 23:59","wo":"00:01 - 23:59","do":"00:01 - 23:59","vr":"00:01 - 23:59","za":"00:01 - 23:59","zo":"00:01 - 23:59"}}},{"type":"Feature","geometry":{"type":"Point","coordinates":[16.239212,39.405757]},"properties":{"type":"pakketpunt","locatieNaam":"TABACCHERIA N. 9","straatNaam":"VIA BENEDETTO CROCE 71","straatNr":"","vervoerder":"DHL","puntType":"parcelShop","bezettingsgraad":50,"latitude":39.405757,"longitude":16.239212,"canPickup":true,"canDropoff":true,"openingstijden":{"ma":"07:30 - 14:00, 15:30 - 20:00","di":"12:30 - 14:00, 16:00 - 20:00","wo":"07:30 - 14:00, 15:30 - 20:00","do":"12:30 - 14:00, 15:30 - 20:00","vr":"07:30 - 14:00, 15:30 - 20:00","za":"07:30 - 14:00, 15:30 - 20:00","zo":"gesloten"}}},{"type":"Feature","geometry":{"type":"Point","coordinates":[16.239676,39.404982]},"properties":{"type":"pakketpunt","locatieNaam":"STAZIONE DI SERVIZIO TAMOIL","straatNaam":"VIA BENEDETTO CROCE SNC 14","straatNr":"","vervoerder":"DHL","puntType":"packStation","bezettingsgraad":50,"latitude":39.404982,"longitude":16.239676,"canPickup":true,"canDropoff":true,"openingstijden":{"ma":"00:01 - 23:59","di":"00:01 - 23:59","wo":"00:01 - 23:59","do":"00:01 - 23:59","vr":"00:01 - 23:59","za":"00:01 - 23:59","zo":"00:01 - 23:59"}}},{"type":"Feature","geometry":{"type":"Point","coordinates":[16.2388,39.4089]},"properties":{"type":"pakketpunt","locatieNaam":"LA NUOVA POSTA MONTALTO","straatNaam":"Via Benedetto Croce 106-108","straatNr":"","vervoerder":"DHL","puntType":"parcelShop","bezettingsgraad":50,"latitude":39.4089,"longitude":16.2388,"canPickup":false,"canDropoff":true,"openingstijden":{"ma":"09:00 - 19:00","di":"09:00 - 19:00","wo":"09:00 - 19:00","do":"09:00 - 19:00","vr":"09:00 - 19:00","za":"09:00 - 12:00","zo":"gesloten"}}},{"type":"Feature","geometry":{"type":"Point","coordinates":[16.238473,39.410804]},"properties":{"type":"pakketpunt","locatieNaam":"TABACCHERIA N. 16","straatNaam":"VIA BENEDETTO CROCE 261","straatNr":"","vervoerder":"DHL","puntType":"parcelShop","bezettingsgraad":50,"latitude":39.410804,"longitude":16.238473,"canPickup":true,"canDropoff":true,"openingstijden":{"ma":"04:30 - 23:59","di":"04:30 - 23:59","wo":"04:30 - 23:59","do":"04:30 - 23:59","vr":"04:30 - 23:59","za":"04:30 - 23:59","zo":"04:30 - 23:59"}}},{"type":"Feature","geometry":{"type":"Point","coordinates":[16.243323,39.412411]},"properties":{"type":"pakketpunt","locatieNaam":"Ufficio Postale MONTALTO UFFUGO SCA","straatNaam":"VIA VILLAGGIO, SNC 1","straatNr":"","vervoerder":"DHL","puntType":"postOffice","bezettingsgraad":50,"latitude":39.412411,"longitude":16.243323,"canPickup":true,"canDropoff":true,"openingstijden":{"ma":"08:20 - 13:35","di":"08:20 - 13:35","wo":"08:20 - 13:35","do":"08:20 - 13:35","vr":"08:20 - 13:35","za":"08:20 - 12:35","zo":"gesloten"}}},{"type":"Feature","geometry":{"type":"Point","coordinates":[16.233565,39.430189]},"properties":{"type":"pakketpunt","locatieNaam":"TABACCHERIA N. 4","straatNaam":"CORSO ITALIA 62","straatNr":"","vervoerder":"DHL","puntType":"parcelShop","bezettingsgraad":50,"latitude":39.430189,"longitude":16.233565,"canPickup":true,"canDropoff":true,"openingstijden":{"ma":"07:30 - 14:00, 16:00 - 20:00","di":"07:30 - 14:00, 16:00 - 20:00","wo":"07:30 - 14:00, 16:00 - 20:00","do":"07:30 - 14:00, 16:00 - 20:00","vr":"07:30 - 14:00, 16:00 - 20:00","za":"07:30 - 14:00, 16:00 - 20:00","zo":"gesloten"}}},{"type":"Feature","geometry":{"type":"Point","coordinates":[16.230337,39.430622]},"properties":{"type":"pakketpunt","locatieNaam":"TABACCHERIA N. 7","straatNaam":"VIA ALESSANDRO MANZONI 59","straatNr":"","vervoerder":"DHL","puntType":"parcelShop","bezettingsgraad":50,"latitude":39.430622,"longitude":16.230337,"canPickup":true,"canDropoff":true,"openingstijden":{"ma":"06:00 - 19:15","di":"06:00 - 19:15","wo":"06:00 - 19:15","do":"06:00 - 19:15","vr":"06:00 - 19:15","za":"06:00 - 19:15","zo":"gesloten"}}},{"type":"Feature","geometry":{"type":"Point","coordinates":[16.230511,39.433091]},"properties":{"type":"pakketpunt","locatieNaam":"Ufficio Postale TAVERNA DI MONTALTO","straatNaam":"VIA GIUSEPPE VERDI 34","straatNr":"","vervoerder":"DHL","puntType":"postOffice","bezettingsgraad":50,"latitude":39.433091,"longitude":16.230511,"canPickup":true,"canDropoff":true,"openingstijden":{"ma":"08:20 - 13:35","di":"08:20 - 13:35","wo":"08:20 - 13:35","do":"08:20 - 13:35","vr":"08:20 - 13:35","za":"08:20 - 12:35","zo":"gesloten"}}},{"type":"Feature","geometry":{"type":"Point","coordinates":[16.228073,39.433523]},"properties":{"type":"pakketpunt","locatieNaam":"Amazon Counter - PRIMAEDICOLA","straatNaam":"TALARICO LUIGI","straatNr":"","vervoerder":"Amazon","puntType":"helix","bezettingsgraad":50,"latitude":39.433523,"longitude":16.228073,"canPickup":true,"canDropoff":false,"openingstijden":null}},{"type":"Feature","geometry":{"type":"Point","coordinates":[16.2308323,39.4318145]},"properties":{"type":"pakketpunt","locatieNaam":"Amazon Counter (fermopoint)","straatNaam":"SiPosta Montalto Uffugo","straatNr":"","vervoerder":"Amazon","puntType":"helix","bezettingsgraad":50,"latitude":39.4318145,"longitude":16.2308323,"canPickup":true,"canDropoff":false,"openingstijden":null}},{"type":"Feature","geometry":{"type":"Point","coordinates":[16.2210736472214,39.4298985346697]},"properties":{"type":"pakketpunt","locatieNaam":"Amazon Counter","straatNaam":"Vi&Gi Servizi (fermopoint)","straatNr":"","vervoerder":"Amazon","puntType":"helix","bezettingsgraad":50,"latitude":39.4298985346697,"longitude":16.2210736472214,"canPickup":true,"canDropoff":false,"openingstijden":null}},{"type":"Feature","geometry":{"type":"Point","coordinates":[16.22981,39.4327]},"properties":{"type":"pakketpunt","locatieNaam":"Amazon Counter - EDISON ","straatNaam":"via verdi , 6","straatNr":"","vervoerder":"Amazon","puntType":"helix","bezettingsgraad":50,"latitude":39.4327,"longitude":16.22981,"canPickup":true,"canDropoff":false,"openingstijden":null}},{"type":"Feature","geometry":{"type":"Point","coordinates":[16.2305,39.433]},"properties":{"type":"pakketpunt","locatieNaam":"Ufficio Postale TAVERNA DI MONTALTO UFFUGO","straatNaam":"VIA GIUSEPPE VERDI 34","straatNr":"","vervoerder":"Amazon","puntType":"3p","bezettingsgraad":50,"latitude":39.433,"longitude":16.2305,"canPickup":true,"canDropoff":false,"openingstijden":null}},{"type":"Feature","geometry":{"type":"Point","coordinates":[16.23262,39.43039]},"properties":{"type":"pakketpunt","locatieNaam":"Amazon Counter - Emme Ufficio Cartoleria","straatNaam":"Corso Italia 237","straatNr":"","vervoerder":"Amazon","puntType":"helix","bezettingsgraad":50,"latitude":39.43039,"longitude":16.23262,"canPickup":true,"canDropoff":false,"openingstijden":null}},{"type":"Feature","geometry":{"type":"Point","coordinates":[16.22317,39.42955]},"properties":{"type":"pakketpunt","locatieNaam":"Amazon Counter - SMOKING CAFE'","straatNaam":"VIA A MANZONI 61","straatNr":"","vervoerder":"Amazon","puntType":"helix","bezettingsgraad":50,"latitude":39.42955,"longitude":16.22317,"canPickup":true,"canDropoff":false,"openingstijden":null}},{"type":"Feature","geometry":{"type":"Point","coordinates":[16.2303,39.4306]},"properties":{"type":"pakketpunt","locatieNaam":"PuntoPoste TABACCHERIA N. 7","straatNaam":"VIA ALESSANDRO MANZONI 59","straatNr":"","vervoerder":"Amazon","puntType":"3p","bezettingsgraad":50,"latitude":39.4306,"longitude":16.2303,"canPickup":true,"canDropoff":false,"openingstijden":null}},{"type":"Feature","geometry":{"type":"Point","coordinates":[16.22951,39.430369]},"properties":{"type":"pakketpunt","locatieNaam":"Amazon Counter","straatNaam":"QuiPoste - Montalto Uffugo (fermopoint)","straatNr":"","vervoerder":"Amazon","puntType":"helix","bezettingsgraad":50,"latitude":39.430369,"longitude":16.22951,"canPickup":true,"canDropoff":false,"openingstijden":null}},{"type":"Feature","geometry":{"type":"Point","coordinates":[16.2335,39.4301]},"properties":{"type":"pakketpunt","locatieNaam":"PuntoPoste TABACCHERIA N. 4","straatNaam":"CORSO ITALIA 62","straatNr":"","vervoerder":"Amazon","puntType":"3p","bezettingsgraad":50,"latitude":39.4301,"longitude":16.2335,"canPickup":true,"canDropoff":false,"openingstijden":null}},{"type":"Feature","geometry":{"type":"Point","coordinates":[16.2006,39.4313]},"properties":{"type":"pakketpunt","locatieNaam":"PuntoPoste TABACCHERIA N. 17","straatNaam":"VIA PIANETTE 78","straatNr":"","vervoerder":"Amazon","puntType":"3p","bezettingsgraad":50,"latitude":39.4313,"longitude":16.2006,"canPickup":true,"canDropoff":false,"openingstijden":null}},{"type":"Feature","geometry":{"type":"Point","coordinates":[16.239275,39.405633]},"properties":{"type":"pakketpunt","locatieNaam":"Amazon Counter - BAR TABACCHI CELEBRE","straatNaam":"VIA BENEDETTO CROCE 39","straatNr":"","vervoerder":"Amazon","puntType":"helix","bezettingsgraad":50,"latitude":39.405633,"longitude":16.239275,"canPickup":true,"canDropoff":false,"openingstijden":null}},{"type":"Feature","geometry":{"type":"Point","coordinates":[16.2433,39.4124]},"properties":{"type":"pakketpunt","locatieNaam":"Ufficio Postale MONTALTO UFFUGO SCALO","straatNaam":"VIA VILLAGGIO, SNC 1","straatNr":"","vervoerder":"Amazon","puntType":"3p","bezettingsgraad":50,"latitude":39.4124,"longitude":16.2433,"canPickup":true,"canDropoff":false,"openingstijden":null}},{"type":"Feature","geometry":{"type":"Point","coordinates":[16.1572179,39.4072102]},"properties":{"type":"pakketpunt","locatieNaam":"Amazon Counter - Scalino cafè wine bar e bistrot","straatNaam":"Piazza Enrico Bianco, 12","straatNr":"","vervoerder":"Amazon","puntType":"helix","bezettingsgraad":50,"latitude":39.4072102,"longitude":16.1572179,"canPickup":true,"canDropoff":false,"openingstijden":null}},{"type":"Feature","geometry":{"type":"Point","coordinates":[16.1578,39.4058]},"properties":{"type":"pakketpunt","locatieNaam":"PuntoPoste TABACCHERIA N. 1","straatNaam":"VIA GIUSEPPE GARIBALDI 10","straatNr":"","vervoerder":"Amazon","puntType":"3p","bezettingsgraad":50,"latitude":39.4058,"longitude":16.1578,"canPickup":true,"canDropoff":false,"openingstijden":null}},{"type":"Feature","geometry":{"type":"Point","coordinates":[16.1553,39.4032]},"properties":{"type":"pakketpunt","locatieNaam":"Ufficio Postale MONTALTO UFFUGO","straatNaam":"VIA ALDO MORO SNC 3","straatNr":"","vervoerder":"Amazon","puntType":"3p","bezettingsgraad":50,"latitude":39.4032,"longitude":16.1553,"canPickup":true,"canDropoff":false,"openingstijden":null}},{"type":"Feature","geometry":{"type":"Point","coordinates":[16.154734,39.402158]},"properties":{"type":"pakketpunt","locatieNaam":"Amazon Counter - DOPPIO SENSO","straatNaam":"VIA ALDO MORO 39","straatNr":"","vervoerder":"Amazon","puntType":"helix","bezettingsgraad":50,"latitude":39.402158,"longitude":16.154734,"canPickup":true,"canDropoff":false,"openingstijden":null}},{"type":"Feature","geometry":{"type":"Point","coordinates":[16.1568,39.4042]},"properties":{"type":"pakketpunt","locatieNaam":"PuntoPoste TABACCHERIA N. 3","straatNaam":"VIA ROMA 91","straatNr":"","vervoerder":"Amazon","puntType":"3p","bezettingsgraad":50,"latitude":39.4042,"longitude":16.1568,"canPickup":true,"canDropoff":false,"openingstijden":null}},{"type":"Feature","geometry":{"type":"Point","coordinates":[16.2392,39.4057]},"properties":{"type":"pakketpunt","locatieNaam":"PuntoPoste TABACCHERIA N. 9","straatNaam":"VIA BENEDETTO CROCE 71","straatNr":"","vervoerder":"Amazon","puntType":"3p","bezettingsgraad":50,"latitude":39.4057,"longitude":16.2392,"canPickup":true,"canDropoff":false,"openingstijden":null}},{"type":"Feature","geometry":{"type":"Point","coordinates":[16.22986,39.382439]},"properties":{"type":"pakketpunt","locatieNaam":"Amazon Locker - venceslava","straatNaam":"Barfe' coffee Montalto Uffugo","straatNr":"","vervoerder":"Amazon","puntType":"locker","bezettingsgraad":50,"latitude":39.382439,"longitude":16.22986,"canPickup":true,"canDropoff":false,"openingstijden":null}},{"type":"Feature","geometry":{"type":"Point","coordinates":[16.157611561549853,39.405974284420445]},"properties":{"type":"pakketpunt","locatieNaam":"FedEx OnSite","straatNaam":"Corso Giuseppe Garibaldi, 7","straatNr":"","vervoerder":"FedEx","puntType":"servicepunt","bezettingsgraad":50,"latitude":39.405974284420445,"longitude":16.157611561549853,"canPickup":true,"canDropoff":true,"openingstijden":{"ma":"08:30 - 13:00, 16:00 - 20:00","di":"08:30 - 13:00, 16:00 - 20:00","wo":"08:30 - 13:00, 16:00 - 20:00","do":"08:30 - 13:00, 16:00 - 20:00","vr":"08:30 - 13:00, 16:00 - 20:00","za":"08:30 - 13:00, 16:00 - 20:00","zo":"gesloten"}}},{"type":"Feature","geometry":{"type":"Point","coordinates":[16.15613785276125,39.408232262698014]},"properties":{"type":"pakketpunt","locatieNaam":"FedEx OnSite","straatNaam":"Via Don Gaetano Mauro, 23","straatNr":"","vervoerder":"FedEx","puntType":"servicepunt","bezettingsgraad":50,"latitude":39.408232262698014,"longitude":16.15613785276125,"canPickup":true,"canDropoff":true,"openingstijden":{"ma":"09:00 - 12:30, 16:00 - 19:00","di":"09:30 - 12:30, 16:00 - 19:00","wo":"09:30 - 12:30, 16:00 - 19:00","do":"09:30 - 12:30, 16:00 - 19:00","vr":"09:30 - 12:30, 16:00 - 19:00","za":"gesloten","zo":"gesloten"}}},{"type":"Feature","geometry":{"type":"Point","coordinates":[16.23908120510487,39.405612613617]},"properties":{"type":"pakketpunt","locatieNaam":"FedEx OnSite","straatNaam":"Via Benedetto Croce, 71","straatNr":"","vervoerder":"FedEx","puntType":"servicepunt","bezettingsgraad":50,"latitude":39.405612613617,"longitude":16.23908120510487,"canPickup":true,"canDropoff":true,"openingstijden":{"ma":"06:00 - 14:00, 15:00 - 20:00","di":"06:00 - 14:00, 15:00 - 20:00","wo":"06:00 - 14:00, 15:00 - 20:00","do":"06:00 - 14:00, 15:00 - 20:00","vr":"06:00 - 14:00, 15:00 - 20:00","za":"06:00 - 14:00, 15:00 - 20:00","zo":"gesloten"}}},{"type":"Feature","geometry":{"type":"Point","coordinates":[16.25381514723875,39.40752747072783]},"properties":{"type":"pakketpunt","locatieNaam":"FedEx OnSite","straatNaam":"Strada provinciale 247, 14","straatNr":"","vervoerder":"FedEx","puntType":"servicepunt","bezettingsgraad":50,"latitude":39.40752747072783,"longitude":16.25381514723875,"canPickup":true,"canDropoff":true,"openingstijden":{"ma":"08:30 - 13:00, 16:00 - 20:00","di":"08:30 - 13:00, 16:00 - 20:00","wo":"08:30 - 13:00, 16:00 - 20:00","do":"08:30 - 13:00, 16:00 - 20:00","vr":"08:30 - 13:00, 16:00 - 20:00","za":"08:30 - 13:00, 16:00 - 20:00","zo":"gesloten"}}},{"type":"Feature","geometry":{"type":"Point","coordinates":[16.221132199596223,39.42993827119735]},"properties":{"type":"pakketpunt","locatieNaam":"FedEx OnSite","straatNaam":"Via Alessandro Manzoni, 80","straatNr":"","vervoerder":"FedEx","puntType":"servicepunt","bezettingsgraad":50,"latitude":39.42993827119735,"longitude":16.221132199596223,"canPickup":true,"canDropoff":true,"openingstijden":{"ma":"09:00 - 13:00, 16:00 - 20:00","di":"09:00 - 13:00, 16:00 - 20:00","wo":"09:00 - 13:00, 16:00 - 20:00","do":"09:00 - 13:00, 16:00 - 20:00","vr":"09:00 - 13:00, 16:00 - 20:30","za":"09:00 - 13:00, 16:00 - 19:00","zo":"gesloten"}}},{"type":"Feature","geometry":{"type":"Point","coordinates":[16.22934990805949,39.43049168264405]},"properties":{"type":"pakketpunt","locatieNaam":"FedEx OnSite","straatNaam":"VIA ALESSANDRO MANZONI, 14","straatNr":"","vervoerder":"FedEx","puntType":"servicepunt","bezettingsgraad":50,"latitude":39.43049168264405,"longitude":16.22934990805949,"canPickup":true,"canDropoff":true,"openingstijden":{"ma":"08:00 - 13:00, 16:00 - 18:00","di":"08:00 - 13:00, 16:00 - 18:00","wo":"08:00 - 13:00, 16:00 - 18:00","do":"08:00 - 13:00, 16:00 - 18:00","vr":"08:00 - 13:00, 16:00 - 18:00","za":"08:00 - 12:30","zo":"gesloten"}}},{"type":"Feature","geometry":{"type":"Point","coordinates":[16.23098520749088,39.4320967919236]},"properties":{"type":"pakketpunt","locatieNaam":"FedEx OnSite","straatNaam":"Corso Otalia, 174","straatNr":"","vervoerder":"FedEx","puntType":"servicepunt","bezettingsgraad":50,"latitude":39.4320967919236,"longitude":16.23098520749088,"canPickup":true,"canDropoff":true,"openingstijden":{"ma":"08:00 - 13:00, 16:00 - 19:00","di":"08:00 - 13:00, 16:00 - 19:00","wo":"08:00 - 13:00, 16:00 - 19:00","do":"08:00 - 13:00, 16:00 - 19:00","vr":"08:00 - 13:00, 16:00 - 19:00","za":"09:00 - 12:00","zo":"gesloten"}}},{"type":"Feature","geometry":{"type":"Polygon","coordinates":[[[16.0857481,39.4026306],[16.0885013,39.4049137],[16.0909755,39.4064761],[16.0923153,39.4067494],[16.0959361,39.4072563],[16.0972385,39.4074328],[16.1015485,39.4067366],[16.1138792,39.4065192],[16.1143462,39.4067064],[16.122148,39.4114943],[16.1257172,39.4139288],[16.1341583,39.4158559],[16.153084,39.419573],[16.1549833,39.4207151],[16.1563486,39.4225291],[16.1564137,39.4228804],[16.156402,39.4249099],[16.1565068,39.4270717],[16.156668,39.4276376],[16.1578963,39.4302472],[16.1613762,39.4314264],[16.1637336,39.4323363],[16.168753,39.4319862],[16.180394,39.4326499],[16.1828486,39.4334737],[16.187059,39.4344044],[16.1984145,39.4354303],[16.2044092,39.4346119],[16.2067691,39.4332998],[16.207835,39.4332154],[16.2249179,39.4353348],[16.2320561,39.4363417],[16.2326307,39.4365397],[16.241915,39.4406057],[16.242446,39.4410673],[16.2431755,39.4422227],[16.2453927,39.4433883],[16.245908,39.443518],[16.2502857,39.443851],[16.250247,39.4417123],[16.2515539,39.4284549],[16.2518855,39.4274625],[16.2522136,39.4269516],[16.2525676,39.4266055],[16.2549057,39.4248171],[16.2553196,39.4246292],[16.2562685,39.4244122],[16.2587616,39.422569],[16.2596595,39.4217389],[16.2599545,39.4213561],[16.2604,39.420289],[16.2604696,39.4196909],[16.2604592,39.418396],[16.2601209,39.4157498],[16.2580101,39.4018341],[16.2568969,39.3987731],[16.2521859,39.3936885],[16.2505427,39.3921181],[16.2481888,39.3902908],[16.2457429,39.3886222],[16.2440764,39.3876199],[16.227994,39.3802226],[16.2222786,39.3780244],[16.2204284,39.3778159],[16.2188593,39.3783636],[16.2172691,39.3790296],[16.2132538,39.3791],[16.2093254,39.3789309],[16.206679,39.378268],[16.1986249,39.3757103],[16.1943539,39.3731328],[16.1904983,39.3722613],[16.1898349,39.3722216],[16.1892358,39.3724252],[16.1838241,39.3750419],[16.1736388,39.3811076],[16.1732729,39.3813822],[16.1680939,39.3868942],[16.1678546,39.387188],[16.1677158,39.3879523],[16.1664438,39.3889577],[16.164678,39.3895439],[16.1620889,39.3902709],[16.158287,39.3906771],[16.1542286,39.3903207],[16.1512912,39.3896745],[16.1479147,39.3876294],[16.1459672,39.3850595],[16.1459459,39.384485],[16.1465127,39.3829026],[16.146326,39.3821134],[16.1447448,39.379143],[16.144082,39.3784867],[16.1427464,39.3776424],[16.1344968,39.3760414],[16.1295262,39.3761362],[16.1273214,39.376029],[16.1203528,39.3750903],[16.1132794,39.3735773],[16.1130174,39.3733955],[16.110808,39.3708546],[16.108284,39.3663626],[16.1078219,39.3649695],[16.1076294,39.3608609],[16.1059695,39.3615157],[16.1010862,39.3624808],[16.100689,39.3622447],[16.1001619,39.3614358],[16.0995621,39.3599836],[16.0992533,39.3589139],[16.0992885,39.3581919],[16.0989478,39.3482486],[16.097769,39.3456307],[16.0972143,39.3456872],[16.096701,39.3459766],[16.0959404,39.346692],[16.0954563,39.3474729],[16.0926083,39.3553804],[16.0930387,39.3556104],[16.0931952,39.3558528],[16.0945793,39.3582107],[16.0961342,39.3612059],[16.0946405,39.3741408],[16.0934054,39.3835645],[16.0930325,39.3848425],[16.0924308,39.3864493],[16.092226,39.3867588],[16.0909942,39.3881838],[16.0892613,39.389599],[16.0884385,39.3903872],[16.088226,39.3908771],[16.0875944,39.3928906],[16.086854,39.3967552],[16.0874121,39.3992087],[16.0857481,39.4026306]]]},"properties":{"type":"boundary","gemeente":"Montalto Uffugo"}}]}