{"type":"FeatureCollection","metadata":{"gemeente":"Montabone","slug":"montabone","generated_at":"2026-09-26T14:27:34.936817Z","total_points":1,"providers":["PosteItaliane"],"bounds":[8.38957091,44.69847924,8.38957091,44.69847924]},"features":[{"type":"Feature","geometry":{"type":"Point","coordinates":[8.38957091,44.69847924]},"properties":{"type":"pakketpunt","locatieNaam":"Montabone","straatNaam":"Via Galileo Ferraris","straatNr":"2","vervoerder":"PosteItaliane","puntType":"postkantoor","bezettingsgraad":50,"latitude":44.69847924,"longitude":8.38957091,"canPickup":true,"canDropoff":true,"openingstijden":{"za":"gesloten","zo":"gesloten","ma":"08:20 - 13:45","di":"gesloten","wo":"08:20 - 13:45","do":"gesloten","vr":"08:20 - 13:45"}}},{"type":"Feature","geometry":{"type":"Polygon","coordinates":[[[8.3625087,44.695328],[8.3633696,44.6958009],[8.3640513,44.6969435],[8.3643505,44.6979985],[8.3644807,44.6995161],[8.3646258,44.7000975],[8.3646014,44.7014658],[8.3650481,44.7015853],[8.3652217,44.7017303],[8.3653356,44.7028562],[8.3653021,44.7046205],[8.3652279,44.7056373],[8.3650544,44.7066401],[8.365241,44.7073785],[8.3659632,44.7076669],[8.368145,44.7075665],[8.36872,44.7073626],[8.3695252,44.7073221],[8.3707242,44.7070586],[8.3716281,44.7073697],[8.3726829,44.7073034],[8.373186,44.7070361],[8.3740145,44.7070272],[8.3751368,44.7071458],[8.375494,44.7072378],[8.3755098,44.707526],[8.375793,44.7077526],[8.3762506,44.7077506],[8.3767951,44.7078931],[8.3772008,44.7083184],[8.3771043,44.708777],[8.3774613,44.7090355],[8.3775963,44.7092523],[8.3780857,44.709381],[8.3784314,44.709815],[8.3790469,44.7099579],[8.3797775,44.7102499],[8.381287,44.7110593],[8.3812808,44.7113429],[8.3815433,44.7115918],[8.3819626,44.7116346],[8.3827691,44.7114769],[8.3833771,44.7115838],[8.3841373,44.7113268],[8.3842941,44.7114177],[8.3842974,44.7117012],[8.3853616,44.7116485],[8.3857346,44.7117405],[8.386167,44.7120399],[8.3862902,44.7124817],[8.3873354,44.7124288],[8.3881217,44.712694],[8.3895118,44.712562],[8.3900958,44.7127001],[8.3908812,44.7132039],[8.3918407,44.7132045],[8.3925285,44.7135278],[8.3941509,44.7133744],[8.3945592,44.713408],[8.3947163,44.7134854],[8.3949074,44.713923],[8.3951209,44.7141762],[8.3959364,44.714221],[8.3961657,44.7147804],[8.3962772,44.7148305],[8.3968733,44.7145681],[8.3971483,44.7145335],[8.3979931,44.7147945],[8.3984747,44.7147701],[8.3986888,44.7146632],[8.3989487,44.7142594],[8.3991124,44.7136887],[8.3993089,44.7136132],[8.3996162,44.7136553],[8.4007331,44.7139987],[8.4010069,44.7142252],[8.4009268,44.7152623],[8.4018565,44.7146348],[8.4021003,44.712417],[8.4045242,44.7101071],[8.4061511,44.7091883],[8.4076587,44.7078953],[8.4081763,44.7075829],[8.408548,44.7071842],[8.4087353,44.7068602],[8.4088844,44.7060742],[8.4087344,44.7053082],[8.4088031,44.705061],[8.4100881,44.7034607],[8.4105356,44.7022702],[8.4103726,44.7015447],[8.4103898,44.7010947],[8.4110985,44.6974884],[8.412657,44.6961056],[8.4140933,44.6943215],[8.4148149,44.6942622],[8.4158747,44.6946097],[8.4178317,44.6950023],[8.4182923,44.6950136],[8.4189601,44.6948055],[8.4203036,44.6949338],[8.4203797,44.6943581],[8.4200863,44.6934023],[8.4201011,44.6931908],[8.42055,44.6923064],[8.4177001,44.6911351],[8.4154517,44.690705],[8.4081967,44.6886961],[8.4079735,44.6886139],[8.4076194,44.6882295],[8.4058031,44.6881345],[8.4052075,44.6879154],[8.4047536,44.6878815],[8.404355,44.687983],[8.4037554,44.6884615],[8.4031092,44.6885616],[8.4006033,44.6883459],[8.3998499,44.6881304],[8.3989073,44.6882155],[8.3963063,44.6881973],[8.3954789,44.6876753],[8.3942719,44.6873943],[8.3939858,44.6871497],[8.3936884,44.686617],[8.3930559,44.686015],[8.3930754,44.6862671],[8.3929304,44.6867075],[8.3925326,44.6865793],[8.3909449,44.6875611],[8.3888479,44.687775],[8.387966,44.6882294],[8.3868859,44.6883361],[8.3855032,44.6891704],[8.3848434,44.6889058],[8.3842779,44.6888307],[8.3827555,44.6889891],[8.3813801,44.688536],[8.3812489,44.6885623],[8.3810598,44.6886918],[8.3810394,44.6892724],[8.3805502,44.6898819],[8.3804367,44.6907635],[8.3773936,44.691215],[8.3776243,44.6922111],[8.3755792,44.6935818],[8.3751064,44.6938312],[8.3731195,44.694338],[8.3705112,44.6959846],[8.3683497,44.6961392],[8.3675502,44.6961077],[8.3659463,44.6957703],[8.3655221,44.6956059],[8.3648221,44.6951294],[8.3643562,44.6944561],[8.364235,44.694721],[8.3639615,44.6949175],[8.3635003,44.6951085],[8.3625087,44.695328]]]},"properties":{"type":"boundary","gemeente":"Montabone"}}]}