{"type":"FeatureCollection","metadata":{"gemeente":"Montiglio Monferrato","slug":"montiglio-monferrato","generated_at":"2026-09-26T14:27:37.473950Z","total_points":1,"providers":["PosteItaliane"],"bounds":[8.09941139,45.06416901,8.09941139,45.06416901]},"features":[{"type":"Feature","geometry":{"type":"Point","coordinates":[8.09941139,45.06416901]},"properties":{"type":"pakketpunt","locatieNaam":"Montiglio","straatNaam":"Via Alla Stazione","straatNr":"1","vervoerder":"PosteItaliane","puntType":"postkantoor","bezettingsgraad":50,"latitude":45.06416901,"longitude":8.09941139,"canPickup":true,"canDropoff":true,"openingstijden":{"za":"08:20 - 12:45","zo":"gesloten","ma":"gesloten","di":"08:20 - 13:45","wo":"gesloten","do":"08:20 - 13:45","vr":"gesloten"}}},{"type":"Feature","geometry":{"type":"Polygon","coordinates":[[[8.0517205,45.0678126],[8.0497652,45.0665091],[8.0497907,45.0662213],[8.0505501,45.0657145],[8.051058,45.0657232],[8.0517084,45.0655711],[8.0522495,45.0653011],[8.0530964,45.0650695],[8.0535982,45.0650647],[8.0541472,45.0651863],[8.0557192,45.0660499],[8.0565177,45.0662501],[8.0574791,45.0657224],[8.0588117,45.0647252],[8.0591919,45.0642962],[8.0600077,45.0638304],[8.060382,45.0637569],[8.0608034,45.0639134],[8.0623562,45.0650784],[8.0636734,45.0642431],[8.064666,45.0633465],[8.0657188,45.0629501],[8.0661389,45.0623099],[8.0669221,45.0620822],[8.0672235,45.0619047],[8.067784,45.0601449],[8.0682922,45.0591588],[8.0687289,45.0586583],[8.069002,45.0579764],[8.0691161,45.0574012],[8.0691512,45.0569019],[8.0690772,45.0563702],[8.0691492,45.0561457],[8.070911,45.0559665],[8.0718954,45.055664],[8.0719168,45.0554211],[8.0721091,45.0553101],[8.0726618,45.0552966],[8.0726421,45.0547429],[8.0726973,45.0543923],[8.0728076,45.0542311],[8.0736158,45.0540216],[8.0750936,45.0532414],[8.0761152,45.0525971],[8.0769783,45.0522305],[8.077231,45.0523135],[8.0774734,45.052041],[8.0777572,45.0514716],[8.0782222,45.0499991],[8.0789748,45.0500817],[8.0799999,45.0505985],[8.0804882,45.0506385],[8.0814052,45.0505694],[8.0837739,45.0511465],[8.0847748,45.0512941],[8.0854761,45.0512097],[8.0863721,45.0516669],[8.0869421,45.0521576],[8.0872764,45.0522998],[8.087502,45.0521845],[8.0876808,45.0519249],[8.0883486,45.0521508],[8.0884617,45.0517331],[8.0886368,45.0515995],[8.0892303,45.0522118],[8.0895294,45.0521692],[8.0901751,45.0522914],[8.0906466,45.0524887],[8.0908911,45.0523871],[8.0916419,45.0525911],[8.0925261,45.0525936],[8.0928509,45.0525332],[8.093356,45.0522087],[8.0943717,45.0520277],[8.0950729,45.0512456],[8.0956319,45.0508314],[8.0958948,45.0507705],[8.0967215,45.0511911],[8.0972094,45.0507539],[8.0980796,45.0503287],[8.0992609,45.0499014],[8.0994765,45.0497186],[8.0997352,45.0493156],[8.1004419,45.0490961],[8.101125,45.0482508],[8.1018632,45.0477345],[8.1026497,45.0475831],[8.1032406,45.0473492],[8.1049796,45.0464807],[8.1067417,45.0457474],[8.1074144,45.0455636],[8.1084027,45.0457018],[8.1089091,45.0460028],[8.1095637,45.0466741],[8.1097458,45.0470131],[8.11072,45.0469351],[8.110943,45.0466803],[8.1109935,45.0459831],[8.1115598,45.043539],[8.1115708,45.0428279],[8.1114914,45.0421162],[8.111212,45.0412003],[8.1105379,45.0400429],[8.1105848,45.0394761],[8.1115983,45.0381787],[8.1126741,45.0369628],[8.1133068,45.0365852],[8.1137842,45.0360893],[8.1142432,45.0353457],[8.1143371,45.0341987],[8.1142411,45.0337344],[8.1145773,45.0333364],[8.1155196,45.0327361],[8.1157459,45.0321617],[8.1172841,45.0328487],[8.119596,45.0317234],[8.1215278,45.0312701],[8.123021,45.0303319],[8.1259477,45.0296657],[8.1274963,45.0291555],[8.1277322,45.0288737],[8.1305783,45.0283868],[8.1322954,45.0278463],[8.1327369,45.0273995],[8.1339019,45.0270663],[8.1342921,45.0271818],[8.1344495,45.027156],[8.1355145,45.026822],[8.1360347,45.0266234],[8.1359385,45.0263751],[8.1371603,45.0260603],[8.1371366,45.0259431],[8.1413908,45.0250794],[8.1424501,45.0256455],[8.1443661,45.026227],[8.1450778,45.0262773],[8.1476477,45.0256709],[8.1486474,45.0255613],[8.1514104,45.0246637],[8.1518821,45.0258105],[8.1522628,45.0256063],[8.1519465,45.0245687],[8.1524631,45.0245005],[8.1531128,45.0258466],[8.15346,45.0257637],[8.1527812,45.0242373],[8.1531078,45.0241452],[8.1537154,45.02523],[8.1538298,45.0256449],[8.1541322,45.0258001],[8.1544637,45.0252715],[8.1552228,45.0260828],[8.1552395,45.026461],[8.1564221,45.0264292],[8.1565498,45.0261556],[8.1584704,45.0262193],[8.1584345,45.0271012],[8.1589539,45.0273301],[8.1590635,45.0286226],[8.158928,45.0293148],[8.1587529,45.0293022],[8.1586395,45.0296232],[8.1585544,45.0302347],[8.1581134,45.0310911],[8.1564048,45.0330059],[8.1549998,45.0343403],[8.1533466,45.0354983],[8.151225,45.0373144],[8.1489681,45.0388189],[8.1481866,45.0391867],[8.1472573,45.0394633],[8.1468799,45.03987],[8.1463245,45.0421028],[8.1470835,45.042293],[8.1465865,45.042951],[8.146386,45.0434131],[8.1464714,45.0435397],[8.148601,45.0442082],[8.1487922,45.0443717],[8.1484695,45.045157],[8.1484858,45.0454451],[8.1489667,45.0465154],[8.1498902,45.0480346],[8.1504012,45.0505094],[8.1502196,45.0535155],[8.1465549,45.0537709],[8.1439288,45.0537467],[8.1426285,45.0535479],[8.1421433,45.0527656],[8.1419119,45.0516792],[8.1410007,45.0516858],[8.1402582,45.0515497],[8.1397827,45.0516046],[8.1390304,45.0520265],[8.1371192,45.0523362],[8.1351992,45.0532353],[8.1350264,45.0534321],[8.1345907,45.0543155],[8.1318444,45.056311],[8.1315835,45.0568716],[8.1316707,45.0572999],[8.1327033,45.0595627],[8.132867,45.0607071],[8.1328711,45.0620124],[8.1322769,45.0629846],[8.1318067,45.0642593],[8.1312119,45.0651594],[8.1319011,45.0652592],[8.1322126,45.0654461],[8.1323689,45.0651952],[8.1336871,45.0651692],[8.1336102,45.0659518],[8.1340748,45.0666215],[8.1323872,45.0670272],[8.1325433,45.0671994],[8.131909,45.0673567],[8.1321452,45.067696],[8.131173,45.0681477],[8.1293731,45.0685166],[8.1292176,45.0688214],[8.1278164,45.0687658],[8.1266811,45.0688651],[8.1260021,45.069346],[8.1256975,45.0694337],[8.1247413,45.0694534],[8.1234791,45.0688181],[8.1226999,45.068578],[8.1221065,45.068551],[8.1220744,45.0684697],[8.1198413,45.0688171],[8.1192016,45.0683891],[8.1180212,45.06874],[8.1188931,45.0699665],[8.1189873,45.0702463],[8.118026,45.0705944],[8.1185363,45.0720026],[8.1186733,45.0728003],[8.1186311,45.0741008],[8.1186934,45.0749024],[8.1192787,45.0788767],[8.119261,45.0794077],[8.1189184,45.0803097],[8.1177211,45.0801924],[8.1174712,45.080024],[8.1168519,45.0799112],[8.1156981,45.0798617],[8.1151407,45.0799564],[8.1146855,45.0798179],[8.1141882,45.0836352],[8.1137762,45.0835735],[8.1129132,45.0837109],[8.1128215,45.0838857],[8.1114863,45.0845684],[8.1109194,45.0850726],[8.1097487,45.0850815],[8.1090747,45.0852203],[8.1092665,45.0849337],[8.1090892,45.0847973],[8.1070019,45.0851186],[8.106685,45.0853726],[8.1066138,45.0858672],[8.1063419,45.0860856],[8.106017,45.0861461],[8.1058388,45.0855551],[8.1055997,45.0853011],[8.105022,45.0855802],[8.102614,45.0859888],[8.1019823,45.086767],[8.1004079,45.0872993],[8.1000343,45.0873143],[8.0990108,45.0876573],[8.0974939,45.0879604],[8.0964011,45.0877537],[8.0957069,45.0872576],[8.0932383,45.0877736],[8.0925164,45.0876239],[8.0894603,45.0882252],[8.0862137,45.0892119],[8.0856689,45.0888115],[8.0838864,45.0870374],[8.0793027,45.0840525],[8.0783781,45.0828748],[8.0777232,45.0824194],[8.0771059,45.0822839],[8.0761238,45.0819294],[8.0752553,45.0813192],[8.0708615,45.0801943],[8.0694021,45.0798899],[8.0677373,45.0792327],[8.0670752,45.0788312],[8.0651651,45.0773393],[8.0619063,45.074333],[8.060531,45.073174],[8.0590584,45.0729143],[8.0586972,45.0729564],[8.0579599,45.0732743],[8.0571291,45.0732945],[8.0566716,45.0732052],[8.0558222,45.0733917],[8.0543589,45.070256],[8.0538664,45.0697883],[8.0531474,45.0688102],[8.0526596,45.068347],[8.0517205,45.0678126]]]},"properties":{"type":"boundary","gemeente":"Montiglio Monferrato"}}]}