{"type":"FeatureCollection","metadata":{"gemeente":"Montalto Dora","slug":"montalto-dora","generated_at":"2026-09-26T13:10:12.899696Z","total_points":6,"providers":["PosteItaliane","DPD","GLS","DHL"],"bounds":[7.86262685,45.48264347,7.8630313,45.492451]},"features":[{"type":"Feature","geometry":{"type":"Point","coordinates":[7.86262685,45.4924506]},"properties":{"type":"pakketpunt","locatieNaam":"Montalto Dora","straatNaam":"Via Giuseppe Mazzini","straatNr":"18","vervoerder":"PosteItaliane","puntType":"postkantoor","bezettingsgraad":50,"latitude":45.4924506,"longitude":7.86262685,"canPickup":true,"canDropoff":true,"openingstijden":{"za":"08:20 - 12:45","zo":"gesloten","ma":"08:20 - 13:45","di":"08:20 - 13:45","wo":"08:20 - 13:45","do":"08:20 - 13:45","vr":"08:20 - 13:45"}}},{"type":"Feature","geometry":{"type":"Point","coordinates":[7.86300567,45.48286903]},"properties":{"type":"pakketpunt","locatieNaam":"World Market Hi Fi Car","straatNaam":"Via Ivrea","straatNr":"84","vervoerder":"PosteItaliane","puntType":"servicepunt","bezettingsgraad":50,"latitude":45.48286903,"longitude":7.86300567,"canPickup":true,"canDropoff":true,"openingstijden":{"za":"09:00 - 12:00, 15:00 - 18:30","zo":"gesloten","ma":"15:00 - 19:00","di":"09:00 - 12:00, 15:00 - 19:00","wo":"09:00 - 12:00, 15:00 - 19:00","do":"09:00 - 12:00, 15:00 - 19:00","vr":"09:00 - 12:00, 15:00 - 19:00"}}},{"type":"Feature","geometry":{"type":"Point","coordinates":[7.8630313,45.48264347]},"properties":{"type":"pakketpunt","locatieNaam":"World Market Hi-Fi Car","straatNaam":"VIA IVREA","straatNr":"84-88","vervoerder":"DPD","puntType":"pickup_point","bezettingsgraad":50,"latitude":45.48264347,"longitude":7.8630313,"canPickup":true,"canDropoff":true,"openingstijden":{"ma":"15:00 - 19:00","di":"09:00 - 12:00, 15:00 - 19:00","wo":"09:00 - 12:00, 15:00 - 19:00","do":"09:00 - 12:00, 15:00 - 19:00","vr":"09:00 - 12:00, 15:00 - 19:00","za":"09:00 - 12:00, 15:00 - 18:30","zo":"gesloten"}}},{"type":"Feature","geometry":{"type":"Point","coordinates":[7.8630313,45.482824]},"properties":{"type":"pakketpunt","locatieNaam":"WORLD MARKET HI-FI CAR SAS","straatNaam":"Via Ivrea","straatNr":"84/88","vervoerder":"GLS","puntType":"parcel_shop","bezettingsgraad":50,"latitude":45.482824,"longitude":7.8630313,"canPickup":true,"canDropoff":true,"openingstijden":"za: 09:00 - 12:00, 15:00 - 19:00; ma: 15:00 - 19:00"}},{"type":"Feature","geometry":{"type":"Point","coordinates":[7.863006,45.482869]},"properties":{"type":"pakketpunt","locatieNaam":"WORLD MARKET HI FI CAR","straatNaam":"VIA IVREA 84","straatNr":"","vervoerder":"DHL","puntType":"parcelShop","bezettingsgraad":50,"latitude":45.482869,"longitude":7.863006,"canPickup":true,"canDropoff":true,"openingstijden":{"ma":"15:00 - 19:00","di":"09:00 - 12:00, 15:00 - 19:00","wo":"09:00 - 12:00, 15:00 - 19:00","do":"09:00 - 12:00, 15:00 - 19:00","vr":"09:00 - 12:00, 15:00 - 19:00","za":"09:00 - 12:00, 15:00 - 18:30","zo":"gesloten"}}},{"type":"Feature","geometry":{"type":"Point","coordinates":[7.862627,45.492451]},"properties":{"type":"pakketpunt","locatieNaam":"Ufficio Postale MONTALTO DORA","straatNaam":"VIA GIUSEPPE MAZZINI 18","straatNr":"","vervoerder":"DHL","puntType":"postOffice","bezettingsgraad":50,"latitude":45.492451,"longitude":7.862627,"canPickup":true,"canDropoff":true,"openingstijden":{"ma":"08:20 - 13:45","di":"08:20 - 13:45","wo":"08:20 - 13:45","do":"08:20 - 13:45","vr":"08:20 - 13:45","za":"08:20 - 12:45","zo":"gesloten"}}},{"type":"Feature","geometry":{"type":"Polygon","coordinates":[[[7.8378868,45.4960646],[7.8382465,45.4944795],[7.8389555,45.4931816],[7.8394972,45.4911889],[7.839906,45.4900544],[7.8406443,45.4890762],[7.8398188,45.4885728],[7.8403015,45.4876956],[7.8408868,45.4871795],[7.8413962,45.4868696],[7.8420199,45.4867004],[7.8426969,45.4863697],[7.8446434,45.4844047],[7.8458294,45.4827245],[7.8464266,45.4820869],[7.8474102,45.4810482],[7.8485328,45.4801369],[7.8510477,45.4775069],[7.852178,45.4779998],[7.853085,45.478522],[7.8542177,45.4789204],[7.8589887,45.481529],[7.8594693,45.4816688],[7.8602421,45.4820906],[7.8606503,45.4821352],[7.8608895,45.4820521],[7.8612782,45.4817499],[7.8617656,45.4815567],[7.8631774,45.4813007],[7.8656184,45.4817436],[7.8666494,45.4818393],[7.867351,45.4820038],[7.8678561,45.4829809],[7.8683015,45.4833814],[7.8688013,45.4836024],[7.8691853,45.4836557],[7.8699636,45.4839694],[7.8717521,45.4838386],[7.8723334,45.4839028],[7.8727892,45.4840649],[7.8730308,45.4843823],[7.8730151,45.4845486],[7.8727,45.4848111],[7.8720987,45.4851022],[7.8709432,45.4853968],[7.8721363,45.4863267],[7.8770082,45.4897681],[7.8798512,45.4902281],[7.8805079,45.4905113],[7.8813356,45.4910437],[7.8817012,45.4913219],[7.8817923,45.4916108],[7.8815367,45.4919548],[7.8818544,45.492615],[7.8825167,45.492959],[7.8827934,45.4933848],[7.8834935,45.4938417],[7.8845701,45.495972],[7.8847712,45.496703],[7.8841612,45.4975162],[7.8834004,45.4982693],[7.8835699,45.498577],[7.8837668,45.4997851],[7.8839551,45.500075],[7.8840705,45.5007107],[7.8850848,45.5013012],[7.8863335,45.502425],[7.8869222,45.5027953],[7.8875166,45.5028956],[7.8874085,45.503142],[7.8873926,45.5046631],[7.8850758,45.5053651],[7.881049,45.5067838],[7.8770613,45.5063667],[7.8766007,45.5068167],[7.8723836,45.5065951],[7.8687983,45.5059656],[7.8661505,45.5057233],[7.8654667,45.505415],[7.8653332,45.504275],[7.8639057,45.5038693],[7.8617251,45.5037351],[7.856893,45.5027597],[7.8574558,45.5009426],[7.8457231,45.4979893],[7.8416326,45.4973988],[7.8393441,45.497182],[7.8392366,45.4965509],[7.8378868,45.4960646]]]},"properties":{"type":"boundary","gemeente":"Montalto Dora"}}]}