{"type":"FeatureCollection","metadata":{"gemeente":"Montelepre","slug":"montelepre","generated_at":"2026-09-26T14:27:36.641622Z","total_points":11,"providers":["PosteItaliane","DPD","GLS","DHL","Amazon","FedEx"],"bounds":[13.17268763,38.087921,13.174774,38.090186]},"features":[{"type":"Feature","geometry":{"type":"Point","coordinates":[13.17280564,38.09018598]},"properties":{"type":"pakketpunt","locatieNaam":"Montelepre","straatNaam":"Piazza Principe Di Piemonte","straatNr":"13","vervoerder":"PosteItaliane","puntType":"postkantoor","bezettingsgraad":50,"latitude":38.09018598,"longitude":13.17280564,"canPickup":true,"canDropoff":true,"openingstijden":{"za":"08:20 - 12:35","zo":"gesloten","ma":"08:20 - 13:35","di":"08:20 - 13:35","wo":"08:20 - 13:35","do":"08:20 - 13:35","vr":"08:20 - 13:35"}}},{"type":"Feature","geometry":{"type":"Point","coordinates":[13.17354099,38.08999075]},"properties":{"type":"pakketpunt","locatieNaam":"Tabaccheria N. 3","straatNaam":"Via Castrenze Di Bella","straatNr":"81","vervoerder":"PosteItaliane","puntType":"servicepunt","bezettingsgraad":50,"latitude":38.08999075,"longitude":13.17354099,"canPickup":true,"canDropoff":true,"openingstijden":{"za":"07:00 - 14:00","zo":"07:00 - 14:00","ma":"07:00 - 14:00","di":"07:00 - 14:00","wo":"07:00 - 14:00","do":"07:00 - 14:00","vr":"07:00 - 14:00"}}},{"type":"Feature","geometry":{"type":"Point","coordinates":[13.17268763,38.08953684]},"properties":{"type":"pakketpunt","locatieNaam":"Tabaccheria N. 2","straatNaam":"Via Castrenze Di Bella","straatNr":"20","vervoerder":"PosteItaliane","puntType":"servicepunt","bezettingsgraad":50,"latitude":38.08953684,"longitude":13.17268763,"canPickup":true,"canDropoff":true,"openingstijden":{"za":"08:00 - 13:00, 16:00 - 20:00","zo":"08:00 - 13:00","ma":"08:00 - 13:00, 16:00 - 20:00","di":"08:00 - 13:00, 16:00 - 20:00","wo":"08:00 - 13:00, 16:00 - 20:00","do":"08:00 - 13:00, 16:00 - 20:00","vr":"08:00 - 13:00, 16:00 - 20:00"}}},{"type":"Feature","geometry":{"type":"Point","coordinates":[13.1730555,38.0897979]},"properties":{"type":"pakketpunt","locatieNaam":"3G.Net","straatNaam":"VIA PODGORA","straatNr":"6","vervoerder":"DPD","puntType":"pickup_point","bezettingsgraad":50,"latitude":38.0897979,"longitude":13.1730555,"canPickup":true,"canDropoff":true,"openingstijden":{"ma":"16:30 - 20:00","di":"09:30 - 13:30, 16:30 - 20:00","wo":"09:30 - 13:30, 16:30 - 20:00","do":"09:30 - 13:30, 16:30 - 20:00","vr":"09:30 - 13:30, 16:30 - 20:00","za":"09:30 - 13:30, 16:30 - 20:00","zo":"gesloten"}}},{"type":"Feature","geometry":{"type":"Point","coordinates":[13.1730555,38.0897979]},"properties":{"type":"pakketpunt","locatieNaam":"3G.net","straatNaam":"Via Podgora","straatNr":"6","vervoerder":"GLS","puntType":"parcel_shop","bezettingsgraad":50,"latitude":38.0897979,"longitude":13.1730555,"canPickup":true,"canDropoff":true,"openingstijden":"za: 09:30 - 13:00, 16:30 - 20:00; ma: 16:30 - 20:00"}},{"type":"Feature","geometry":{"type":"Point","coordinates":[13.172688,38.089537]},"properties":{"type":"pakketpunt","locatieNaam":"TABACCHERIA N. 2","straatNaam":"VIA CASTRENZE DI BELLA 20","straatNr":"","vervoerder":"DHL","puntType":"parcelShop","bezettingsgraad":50,"latitude":38.089537,"longitude":13.172688,"canPickup":true,"canDropoff":true,"openingstijden":{"ma":"08:00 - 13:00, 16:00 - 20:00","di":"08:00 - 13:00, 16:00 - 20:00","wo":"08:00 - 13:00, 16:00 - 20:00","do":"08:00 - 13:00, 16:00 - 20:00","vr":"08:00 - 13:00, 16:00 - 20:00","za":"08:00 - 13:00, 16:00 - 20:00","zo":"08:00 - 13:00"}}},{"type":"Feature","geometry":{"type":"Point","coordinates":[13.172806,38.090186]},"properties":{"type":"pakketpunt","locatieNaam":"Ufficio Postale MONTELEPRE","straatNaam":"PIAZZA PRINCIPE DI PIEMONTE 13","straatNr":"","vervoerder":"DHL","puntType":"postOffice","bezettingsgraad":50,"latitude":38.090186,"longitude":13.172806,"canPickup":true,"canDropoff":true,"openingstijden":{"ma":"08:20 - 13:35","di":"08:20 - 13:35","wo":"08:20 - 13:35","do":"08:20 - 13:35","vr":"08:20 - 13:35","za":"08:20 - 12:35","zo":"gesloten"}}},{"type":"Feature","geometry":{"type":"Point","coordinates":[13.173541,38.089991]},"properties":{"type":"pakketpunt","locatieNaam":"TABACCHERIA n. 3","straatNaam":"VIA CASTRENZE DI BELLA 81","straatNr":"","vervoerder":"DHL","puntType":"parcelShop","bezettingsgraad":50,"latitude":38.089991,"longitude":13.173541,"canPickup":true,"canDropoff":true,"openingstijden":{"ma":"07:00 - 14:00","di":"07:00 - 14:00","wo":"07:00 - 14:00","do":"07:00 - 14:00","vr":"07:00 - 14:00","za":"07:00 - 14:00","zo":"07:00 - 14:00"}}},{"type":"Feature","geometry":{"type":"Point","coordinates":[13.174774,38.087921]},"properties":{"type":"pakketpunt","locatieNaam":"Amazon Locker - euripide","straatNaam":"Sagist Viaggi Montelepre","straatNr":"","vervoerder":"Amazon","puntType":"locker","bezettingsgraad":50,"latitude":38.087921,"longitude":13.174774,"canPickup":true,"canDropoff":false,"openingstijden":null}},{"type":"Feature","geometry":{"type":"Point","coordinates":[13.1728,38.0901]},"properties":{"type":"pakketpunt","locatieNaam":"Ufficio Postale MONTELEPRE","straatNaam":"PIAZZA PRINCIPE DI PIEMONTE 13","straatNr":"","vervoerder":"Amazon","puntType":"3p","bezettingsgraad":50,"latitude":38.0901,"longitude":13.1728,"canPickup":true,"canDropoff":false,"openingstijden":null}},{"type":"Feature","geometry":{"type":"Point","coordinates":[13.173051402761255,38.08979786555941]},"properties":{"type":"pakketpunt","locatieNaam":"FedEx OnSite","straatNaam":"Via Podgora, 6","straatNr":"","vervoerder":"FedEx","puntType":"servicepunt","bezettingsgraad":50,"latitude":38.08979786555941,"longitude":13.173051402761255,"canPickup":true,"canDropoff":true,"openingstijden":{"ma":"16:30 - 20:00","di":"09:30 - 13:00, 16:30 - 20:00","wo":"09:30 - 13:00, 16:30 - 20:00","do":"09:30 - 13:00, 16:30 - 20:00","vr":"09:30 - 13:00, 16:30 - 20:00","za":"09:30 - 13:00, 16:30 - 20:00","zo":"gesloten"}}},{"type":"Feature","geometry":{"type":"Polygon","coordinates":[[[13.1608037,38.0851714],[13.1609257,38.084974],[13.1617928,38.0844017],[13.1629835,38.0832214],[13.1635406,38.08231],[13.1637132,38.0816023],[13.164137,38.0808485],[13.1650664,38.0801085],[13.1665433,38.079502],[13.1671221,38.078771],[13.1676064,38.0787763],[13.1677536,38.0786553],[13.1679913,38.0786392],[13.1686565,38.0789008],[13.1691993,38.0787253],[13.1694317,38.0787795],[13.1696624,38.078866],[13.1699547,38.0791869],[13.170316,38.0793081],[13.170943,38.0793431],[13.171033,38.0795733],[13.1715211,38.079567],[13.1717939,38.0797507],[13.1728034,38.0798737],[13.1735178,38.0797868],[13.173952,38.0798577],[13.1741363,38.0799956],[13.1741846,38.080232],[13.1748819,38.0806205],[13.175016,38.0808401],[13.1749907,38.0813042],[13.1751951,38.0818049],[13.1750751,38.0822462],[13.1751287,38.0823665],[13.1756195,38.0825396],[13.176083,38.0825671],[13.1761533,38.0829619],[13.1764832,38.083135],[13.1766149,38.0833596],[13.1769369,38.0835038],[13.1768936,38.082964],[13.1766871,38.0822589],[13.1766823,38.081787],[13.1767442,38.0815734],[13.1773559,38.0805999],[13.1774924,38.0801255],[13.1773824,38.0797615],[13.1770076,38.0791472],[13.1761079,38.078806],[13.1765932,38.0782411],[13.1762167,38.0779967],[13.1761318,38.0770608],[13.1764162,38.076326],[13.1769191,38.07548],[13.1771859,38.075568],[13.1773266,38.0755014],[13.1775427,38.0748797],[13.1772664,38.074506],[13.1772852,38.0744025],[13.1775025,38.0744342],[13.1777262,38.0740704],[13.1782857,38.0741386],[13.1791574,38.0738979],[13.17927,38.0739232],[13.1793854,38.0741977],[13.1795704,38.0742927],[13.1800693,38.07443],[13.180241,38.0744067],[13.1805333,38.0737754],[13.1806648,38.0737817],[13.1807291,38.0739549],[13.1812656,38.0739908],[13.1813782,38.0739359],[13.1815606,38.0735453],[13.1817296,38.0734334],[13.1825718,38.0733932],[13.1829151,38.0731525],[13.1831646,38.0730765],[13.1833926,38.0732095],[13.1835186,38.073522],[13.1837493,38.0737036],[13.1846961,38.0735178],[13.1850743,38.0733046],[13.1852272,38.0733067],[13.1856617,38.073541],[13.1857932,38.0738979],[13.1859836,38.0739802],[13.1866086,38.073786],[13.1868902,38.0738937],[13.1880516,38.0739106],[13.1885558,38.0736888],[13.1888053,38.0736635],[13.1889018,38.0736825],[13.1889796,38.0738472],[13.1893095,38.0739676],[13.191053,38.0739169],[13.1926301,38.0742357],[13.193467,38.0742209],[13.1937459,38.0744067],[13.1938988,38.0744215],[13.1940705,38.0744067],[13.1944726,38.074177],[13.1950656,38.0744067],[13.1955028,38.074468],[13.1961651,38.0741649],[13.1965622,38.0743751],[13.1967634,38.0749093],[13.1975381,38.0754897],[13.1981635,38.0757306],[13.1983781,38.0760178],[13.1987643,38.0762162],[13.1989092,38.0764696],[13.1991827,38.0766428],[13.1995314,38.0776647],[13.1997353,38.0777956],[13.2008135,38.0770904],[13.2020903,38.076533],[13.202557,38.0763894],[13.2044989,38.0761022],[13.2046115,38.0759502],[13.2051694,38.0757222],[13.2056308,38.0754097],[13.205899,38.0750043],[13.2059848,38.0747087],[13.2061887,38.0745398],[13.2058293,38.0740647],[13.2054108,38.0739929],[13.2052066,38.073858],[13.204206,38.0738219],[13.2039237,38.0737159],[13.2035046,38.0734511],[13.2036406,38.0732982],[13.2037157,38.0730111],[13.2029459,38.0727767],[13.2026482,38.0730174],[13.2023893,38.0730402],[13.2020178,38.0728632],[13.201122,38.0722467],[13.2011032,38.0721453],[13.2007948,38.0719891],[13.2017952,38.0713873],[13.2027876,38.070946],[13.2038498,38.0709544],[13.204295,38.0710642],[13.2045981,38.0709924],[13.2053947,38.0712078],[13.2065052,38.0713007],[13.208136,38.0711445],[13.208779,38.0708573],[13.2095575,38.070946],[13.2098043,38.0708108],[13.2102174,38.0707939],[13.2103461,38.0709164],[13.2107031,38.0709371],[13.2124811,38.0720313],[13.2131892,38.0723037],[13.2136962,38.0726521],[13.2141536,38.0728148],[13.2137968,38.0736958],[13.213613,38.0753316],[13.2134011,38.0760558],[13.2134655,38.0765625],[13.2133699,38.07675],[13.2137284,38.0766955],[13.2144928,38.0763978],[13.2151451,38.0764087],[13.2168533,38.0766678],[13.2174084,38.07697],[13.2178402,38.076989],[13.2180391,38.0771182],[13.2182372,38.0774451],[13.2182613,38.0782115],[13.218779,38.0794086],[13.218787,38.0798605],[13.2192349,38.0800969],[13.2194921,38.0804704],[13.2193798,38.081237],[13.2195688,38.0818145],[13.2194361,38.0825692],[13.2197928,38.0838887],[13.21979,38.0853096],[13.2199746,38.0864497],[13.2192886,38.0866163],[13.2190847,38.0869245],[13.2190406,38.0870702],[13.2192469,38.0877676],[13.217985,38.0884825],[13.2170784,38.0887232],[13.2166832,38.0884111],[13.2152492,38.0880223],[13.214909,38.0880235],[13.2140178,38.0883252],[13.2133073,38.088377],[13.2129371,38.0883136],[13.2125241,38.0884361],[13.212052,38.0884023],[13.2109035,38.0886711],[13.2103515,38.0885501],[13.2097077,38.0885416],[13.209461,38.0886176],[13.2081091,38.0886641],[13.2076535,38.0886139],[13.2073152,38.088339],[13.2061779,38.0880519],[13.2055661,38.0881148],[13.20492,38.0877859],[13.2040322,38.0880856],[13.2034237,38.0878745],[13.2028305,38.0875283],[13.2020886,38.0869104],[13.2008377,38.0863039],[13.1999314,38.086016],[13.198995,38.0859028],[13.19799,38.0856508],[13.1977075,38.0858352],[13.1973696,38.0857634],[13.1970642,38.085816],[13.1964308,38.0861645],[13.1946337,38.086743],[13.1942122,38.0867946],[13.1939685,38.0869794],[13.1941697,38.0876038],[13.1925206,38.0877747],[13.192032,38.0885923],[13.1917155,38.0891918],[13.1916618,38.0895887],[13.191293,38.0902992],[13.1921774,38.0904293],[13.1922573,38.0910326],[13.1925003,38.0917782],[13.1925007,38.0930839],[13.1926811,38.0934982],[13.1914274,38.0959739],[13.1906397,38.0958984],[13.1898041,38.0955447],[13.1895,38.0961157],[13.1898755,38.0963901],[13.1903798,38.0972567],[13.1895912,38.0968629],[13.1885452,38.0966039],[13.1854103,38.0972836],[13.1835991,38.0978466],[13.1820737,38.0981746],[13.1810616,38.0986501],[13.1775158,38.1006396],[13.1770192,38.1008502],[13.1754772,38.1008275],[13.1737342,38.1015187],[13.1716456,38.1019796],[13.1712321,38.1023412],[13.1706427,38.1022621],[13.16979,38.1006971],[13.1683726,38.0994094],[13.1673373,38.0988185],[13.1667683,38.0980091],[13.1666234,38.0976418],[13.1663364,38.0974582],[13.1661676,38.0966162],[13.1662291,38.0959933],[13.1661334,38.0957895],[13.1662157,38.0954233],[13.1657544,38.0955415],[13.1655691,38.0954832],[13.1645688,38.0955922],[13.1637856,38.0953452],[13.1634717,38.0951531],[13.161691,38.0928707],[13.1608137,38.0915625],[13.1605706,38.0908501],[13.1606769,38.090617],[13.1606329,38.089219],[13.1605278,38.0887422],[13.1606613,38.0887205],[13.1608037,38.0851714]]]},"properties":{"type":"boundary","gemeente":"Montelepre"}}]}