{"type":"FeatureCollection","metadata":{"gemeente":"Montelabbate","slug":"montelabbate","generated_at":"2026-09-26T13:10:14.105203Z","total_points":12,"providers":["PosteItaliane","DPD","GLS","DHL","Amazon"],"bounds":[12.7786637,43.8475,12.7891,43.864557]},"features":[{"type":"Feature","geometry":{"type":"Point","coordinates":[12.78748239,43.85033503]},"properties":{"type":"pakketpunt","locatieNaam":"Montelabbate","straatNaam":"Piazza Giuseppe Garibaldi","straatNr":"14","vervoerder":"PosteItaliane","puntType":"postkantoor","bezettingsgraad":50,"latitude":43.85033503,"longitude":12.78748239,"canPickup":true,"canDropoff":true,"openingstijden":{"za":"08:20 - 12:35","zo":"gesloten","ma":"08:20 - 13:35","di":"08:20 - 13:35","wo":"08:20 - 13:35","do":"08:20 - 13:35","vr":"08:20 - 13:35"}}},{"type":"Feature","geometry":{"type":"Point","coordinates":[12.78006199,43.86455682]},"properties":{"type":"pakketpunt","locatieNaam":"Tabaccheria N. 3","straatNaam":"Via Provinciale","straatNr":"167","vervoerder":"PosteItaliane","puntType":"servicepunt","bezettingsgraad":50,"latitude":43.86455682,"longitude":12.78006199,"canPickup":true,"canDropoff":true,"openingstijden":{"za":"06:30 - 14:00, 15:30 - 20:00","zo":"gesloten","ma":"06:30 - 14:00, 15:30 - 20:00","di":"06:30 - 14:00, 15:30 - 20:00","wo":"06:30 - 14:00, 15:30 - 20:00","do":"06:30 - 14:00, 15:30 - 20:00","vr":"06:30 - 14:00, 15:30 - 20:00"}}},{"type":"Feature","geometry":{"type":"Point","coordinates":[12.78689501,43.84758555]},"properties":{"type":"pakketpunt","locatieNaam":"Tabaccheria N. 1","straatNaam":"Via Zambonini","straatNr":"15","vervoerder":"PosteItaliane","puntType":"servicepunt","bezettingsgraad":50,"latitude":43.84758555,"longitude":12.78689501,"canPickup":true,"canDropoff":true,"openingstijden":{"za":"05:30 - 13:00, 16:00 - 20:00","zo":"07:00 - 12:30","ma":"05:30 - 13:00","di":"05:30 - 13:00, 16:00 - 20:00","wo":"05:30 - 13:00, 16:00 - 20:00","do":"05:30 - 13:00, 16:00 - 20:00","vr":"05:30 - 13:00, 16:00 - 20:00"}}},{"type":"Feature","geometry":{"type":"Point","coordinates":[12.7786637,43.863843]},"properties":{"type":"pakketpunt","locatieNaam":"Fact Nutrition","straatNaam":"L.GO D. DEL SANGUE","straatNr":"11","vervoerder":"DPD","puntType":"pickup_point","bezettingsgraad":50,"latitude":43.863843,"longitude":12.7786637,"canPickup":true,"canDropoff":true,"openingstijden":{"ma":"09:30 - 13:00, 16:00 - 20:00","di":"09:30 - 13:00, 16:00 - 20:00","wo":"09:30 - 13:00, 16:00 - 20:00","do":"09:30 - 13:00, 16:00 - 20:00","vr":"09:30 - 13:00, 16:00 - 20:00","za":"09:30 - 13:00, 16:00 - 20:00","zo":"gesloten"}}},{"type":"Feature","geometry":{"type":"Point","coordinates":[12.7786637,43.863843]},"properties":{"type":"pakketpunt","locatieNaam":"Fact Nutrition","straatNaam":"Largo Donatori Del Sangue","straatNr":"11","vervoerder":"GLS","puntType":"parcel_shop","bezettingsgraad":50,"latitude":43.863843,"longitude":12.7786637,"canPickup":true,"canDropoff":true,"openingstijden":"za: 09:30 - 13:00, 16:00 - 20:00; ma: 09:30 - 13:00, 16:00 - 20:00"}},{"type":"Feature","geometry":{"type":"Point","coordinates":[12.786895,43.847586]},"properties":{"type":"pakketpunt","locatieNaam":"TABACCHERIA N. 1","straatNaam":"VIA ZAMBONINI 15","straatNr":"","vervoerder":"DHL","puntType":"parcelShop","bezettingsgraad":50,"latitude":43.847586,"longitude":12.786895,"canPickup":true,"canDropoff":true,"openingstijden":{"ma":"05:30 - 13:00","di":"05:30 - 13:00, 16:00 - 20:00","wo":"05:30 - 13:00, 16:00 - 20:00","do":"05:30 - 13:00, 16:00 - 20:00","vr":"05:30 - 13:00, 16:00 - 20:00","za":"05:30 - 13:00, 16:00 - 20:00","zo":"07:00 - 12:30"}}},{"type":"Feature","geometry":{"type":"Point","coordinates":[12.7891,43.8497]},"properties":{"type":"pakketpunt","locatieNaam":"MEGA TECNO","straatNaam":"Via Donatori Del Sangue 10","straatNr":"","vervoerder":"DHL","puntType":"parcelShop","bezettingsgraad":50,"latitude":43.8497,"longitude":12.7891,"canPickup":false,"canDropoff":true,"openingstijden":{"ma":"09:00 - 19:30","di":"09:00 - 19:30","wo":"09:00 - 19:30","do":"09:00 - 19:30","vr":"09:00 - 19:30","za":"gesloten","zo":"gesloten"}}},{"type":"Feature","geometry":{"type":"Point","coordinates":[12.787482,43.850335]},"properties":{"type":"pakketpunt","locatieNaam":"Ufficio Postale MONTELABBATE","straatNaam":"PIAZZA GIUSEPPE GARIBALDI 14","straatNr":"","vervoerder":"DHL","puntType":"postOffice","bezettingsgraad":50,"latitude":43.850335,"longitude":12.787482,"canPickup":true,"canDropoff":true,"openingstijden":{"ma":"08:20 - 13:35","di":"08:20 - 13:35","wo":"08:20 - 13:35","do":"gesloten","vr":"08:20 - 13:35","za":"08:20 - 12:35","zo":"gesloten"}}},{"type":"Feature","geometry":{"type":"Point","coordinates":[12.780062,43.864557]},"properties":{"type":"pakketpunt","locatieNaam":"TABACCHERIA N. 3","straatNaam":"VIA PROVINCIALE 167","straatNr":"","vervoerder":"DHL","puntType":"parcelShop","bezettingsgraad":50,"latitude":43.864557,"longitude":12.780062,"canPickup":true,"canDropoff":true,"openingstijden":{"ma":"06:30 - 14:00, 15:30 - 20:00","di":"06:30 - 14:00, 15:30 - 20:00","wo":"06:30 - 14:00, 15:30 - 20:00","do":"06:30 - 14:00, 15:30 - 20:00","vr":"06:30 - 14:00, 15:30 - 20:00","za":"06:30 - 14:00, 15:30 - 20:00","zo":"gesloten"}}},{"type":"Feature","geometry":{"type":"Point","coordinates":[12.7786637,43.863843]},"properties":{"type":"pakketpunt","locatieNaam":"Amazon Counter (fermopoint)","straatNaam":"Fact Nutrition","straatNr":"","vervoerder":"Amazon","puntType":"helix","bezettingsgraad":50,"latitude":43.863843,"longitude":12.7786637,"canPickup":true,"canDropoff":false,"openingstijden":null}},{"type":"Feature","geometry":{"type":"Point","coordinates":[12.7874,43.8503]},"properties":{"type":"pakketpunt","locatieNaam":"Ufficio Postale MONTELABBATE","straatNaam":"PIAZZA GIUSEPPE GARIBALDI 14","straatNr":"","vervoerder":"Amazon","puntType":"3p","bezettingsgraad":50,"latitude":43.8503,"longitude":12.7874,"canPickup":true,"canDropoff":false,"openingstijden":null}},{"type":"Feature","geometry":{"type":"Point","coordinates":[12.7868,43.8475]},"properties":{"type":"pakketpunt","locatieNaam":"PuntoPoste TABACCHERIA N. 1","straatNaam":"VIA ZAMBONINI 15","straatNr":"","vervoerder":"Amazon","puntType":"3p","bezettingsgraad":50,"latitude":43.8475,"longitude":12.7868,"canPickup":true,"canDropoff":false,"openingstijden":null}},{"type":"Feature","geometry":{"type":"MultiPolygon","coordinates":[[[[12.7555326,43.8682062],[12.7557127,43.8683983],[12.7558231,43.8687683],[12.7558299,43.8699655],[12.7563558,43.8708079],[12.7566818,43.8711438],[12.7571193,43.8713725],[12.7583501,43.8727364],[12.7595823,43.8737762],[12.7602508,43.8748075],[12.7607257,43.875431],[12.7610529,43.8756858],[12.7613572,43.8761709],[12.7646344,43.8748025],[12.766028,43.8761294],[12.7664731,43.8758852],[12.767134,43.8751656],[12.7677662,43.8749287],[12.768077,43.8749229],[12.768731,43.8750814],[12.7696018,43.8757638],[12.7700789,43.8759281],[12.7706387,43.8762698],[12.7711357,43.8769466],[12.7717276,43.8774987],[12.7719829,43.8767633],[12.7723822,43.8763854],[12.7727151,43.8761381],[12.7736734,43.8758431],[12.7749099,43.8750752],[12.7763177,43.8750489],[12.7772161,43.8749381],[12.7778839,43.874772],[12.7781378,43.874606],[12.779321,43.8732434],[12.7851267,43.867647],[12.7882324,43.8684465],[12.7913132,43.8700277],[12.7920155,43.8705536],[12.7929049,43.8710372],[12.7934105,43.8712094],[12.7956702,43.8716654],[12.796496,43.8711968],[12.7977813,43.8700782],[12.7985599,43.8695526],[12.8004868,43.8685927],[12.801702,43.867742],[12.8036408,43.8661401],[12.8046631,43.8657797],[12.8050291,43.8655672],[12.8051173,43.8652424],[12.8052002,43.8639567],[12.8088178,43.8626836],[12.8103508,43.861309],[12.8113024,43.8607686],[12.8126248,43.8603351],[12.814652,43.8604181],[12.8154287,43.8605497],[12.8169792,43.8617402],[12.8183937,43.8625527],[12.8191407,43.8628518],[12.8197139,43.8628641],[12.8200234,43.8627907],[12.8201983,43.8625598],[12.8205916,43.8622878],[12.8214805,43.8621792],[12.8219462,43.8619701],[12.8223439,43.8613311],[12.8224346,43.8610467],[12.8223102,43.8597837],[12.8219997,43.8584302],[12.8217981,43.8580993],[12.8215132,43.8578275],[12.8203456,43.8572252],[12.8191909,43.8568744],[12.8182221,43.8568506],[12.817509,43.8566922],[12.816249,43.8565903],[12.8157926,43.8566528],[12.8148704,43.8564338],[12.8138968,43.8565789],[12.8133544,43.8569999],[12.8127536,43.8571865],[12.8107882,43.8571936],[12.8093003,43.8570295],[12.8091346,43.8571138],[12.808945,43.8575545],[12.8085806,43.8579876],[12.8080354,43.8582668],[12.8078388,43.8581586],[12.8076844,43.8576394],[12.807156,43.8568152],[12.8062826,43.8562389],[12.8063764,43.8559544],[12.8070848,43.8550148],[12.8074887,43.8548617],[12.807946,43.8548622],[12.8086705,43.8541268],[12.8091195,43.8539003],[12.8099813,43.8537095],[12.8092543,43.8530878],[12.809039,43.8521497],[12.8087271,43.8515996],[12.8076634,43.8503792],[12.8067715,43.8496078],[12.8062109,43.8490098],[12.8057838,43.8484073],[12.806352,43.8471234],[12.8065109,43.8461999],[12.807228,43.8446184],[12.8072895,43.8443148],[12.8082116,43.843314],[12.8078145,43.8431832],[12.8065037,43.8430603],[12.8053731,43.8425916],[12.8044482,43.8427665],[12.8033203,43.8426353],[12.803208,43.8422384],[12.8028339,43.8418818],[12.8020008,43.8414954],[12.8009193,43.8415044],[12.8003687,43.8415993],[12.7995295,43.8414112],[12.7987001,43.840642],[12.7983904,43.8402202],[12.797935,43.8404919],[12.797696,43.8408915],[12.7966269,43.8401663],[12.7963279,43.8402078],[12.7956497,43.8401068],[12.7950721,43.8394798],[12.794245,43.8389897],[12.7930057,43.8385222],[12.7921288,43.8383263],[12.7919519,43.837792],[12.7917588,43.8375913],[12.7910362,43.8372777],[12.7900824,43.8371429],[12.789718,43.837281],[12.7888126,43.8379098],[12.7883364,43.8383442],[12.7875405,43.8386407],[12.7866759,43.8391285],[12.7859488,43.8399719],[12.7855131,43.84036],[12.7847075,43.8415841],[12.7832205,43.8427543],[12.7819623,43.844493],[12.7819167,43.8447556],[12.7823179,43.8453455],[12.7823417,43.8456733],[12.7820234,43.846197],[12.7819461,43.8466453],[12.7820121,43.8471967],[12.781869,43.8476876],[12.7812614,43.8486036],[12.7816802,43.8487832],[12.7849186,43.8510076],[12.7866041,43.851888],[12.7874126,43.8521808],[12.7879925,43.8523011],[12.7885625,43.8523632],[12.789646,43.8523317],[12.7907495,43.8528127],[12.7909399,43.8530675],[12.7904487,43.8535609],[12.7899238,43.8539655],[12.7853762,43.8567588],[12.783027,43.8584167],[12.7819977,43.8589433],[12.7799723,43.8601937],[12.7792794,43.86049],[12.7774726,43.8615311],[12.7760703,43.8628199],[12.7756501,43.8630634],[12.7742704,43.8622988],[12.7738738,43.8619293],[12.7734961,43.8617122],[12.7728591,43.8614767],[12.7724369,43.8614411],[12.7713913,43.8610886],[12.7706375,43.8609739],[12.7691666,43.860521],[12.7674712,43.8595593],[12.7670739,43.8587734],[12.766821,43.8588583],[12.766502,43.859472],[12.7665961,43.8598785],[12.7664542,43.8600452],[12.7658116,43.8599179],[12.7654611,43.8599835],[12.7648398,43.8606387],[12.7642221,43.8608571],[12.7635258,43.8618524],[12.7628743,43.8622745],[12.7623718,43.8627412],[12.7621632,43.8629867],[12.7620465,43.8634542],[12.7622381,43.8636819],[12.7623392,43.8639532],[12.7615485,43.8640918],[12.7612462,43.8642323],[12.7610543,43.8644457],[12.7605551,43.8647682],[12.7599445,43.8654456],[12.7587488,43.8660701],[12.7579814,43.8666806],[12.7569821,43.8670646],[12.7564069,43.8671691],[12.755981,43.8675207],[12.7555326,43.8682062]]],[[[12.7709571,43.802287],[12.7697189,43.8048307],[12.7696654,43.8053141],[12.7686975,43.806575],[12.7678196,43.8071442],[12.766349,43.8092094],[12.7661824,43.8093274],[12.765574,43.8093385],[12.7638643,43.8108173],[12.7635793,43.8108312],[12.7633458,43.8107264],[12.7628032,43.8103031],[12.7623272,43.8097021],[12.7613629,43.8091938],[12.7605142,43.809933],[12.7600704,43.8101411],[12.7587198,43.8101136],[12.7580434,43.8102304],[12.7556182,43.8102157],[12.7523198,43.8103512],[12.7509067,43.8095739],[12.7502236,43.8111719],[12.7501226,43.8115938],[12.7501487,43.8125563],[12.7500502,43.8134643],[12.7498243,43.8135798],[12.7496137,43.8138883],[12.7495231,43.8142289],[12.749573,43.8146279],[12.7494686,43.8150454],[12.7487913,43.8165397],[12.7478392,43.8177143],[12.7474081,43.8186242],[12.7500135,43.8194255],[12.7503519,43.8196664],[12.7505242,43.8200839],[12.7505072,43.8205076],[12.750255,43.8212946],[12.7498661,43.821735],[12.7491181,43.8220522],[12.7480478,43.8220874],[12.747135,43.8216087],[12.7467148,43.8215009],[12.7461897,43.8215542],[12.745931,43.8217923],[12.7456997,43.822367],[12.7455321,43.8225706],[12.7445591,43.8229176],[12.7456308,43.8242464],[12.7456056,43.825233],[12.7461763,43.825858],[12.7466244,43.826559],[12.7481091,43.8280768],[12.7484534,43.8288577],[12.7486863,43.8299439],[12.7489373,43.8301788],[12.750076,43.8303394],[12.7503834,43.8304329],[12.7506023,43.8306012],[12.7520503,43.8324217],[12.7525743,43.8337369],[12.7528569,43.8341283],[12.753014,43.8346002],[12.7530126,43.8349244],[12.7528481,43.8360192],[12.7519601,43.8371287],[12.7507287,43.8378219],[12.7504818,43.8383972],[12.7503478,43.8389868],[12.7503993,43.8396108],[12.7505872,43.8402258],[12.7514489,43.841818],[12.7518089,43.8427965],[12.7523359,43.8430673],[12.7536813,43.8433471],[12.7540963,43.843518],[12.7547364,43.8440056],[12.755839,43.844478],[12.7574079,43.8448],[12.7585971,43.8452155],[12.7602947,43.8454566],[12.7605896,43.8458431],[12.7605961,43.846392],[12.7603817,43.8467907],[12.7600488,43.8470357],[12.7592267,43.8473644],[12.7581329,43.847675],[12.7579123,43.8478759],[12.7579721,43.8486797],[12.7585097,43.8492652],[12.7597102,43.8494147],[12.7612792,43.8493405],[12.7633592,43.8489838],[12.7649838,43.8491508],[12.7675078,43.8488334],[12.7699763,43.8486708],[12.770969,43.848386],[12.7727719,43.8484209],[12.7732298,43.8481852],[12.7730237,43.8476788],[12.7724367,43.8473967],[12.7723712,43.8471963],[12.7723923,43.846939],[12.7730762,43.8452598],[12.7721024,43.8446618],[12.7723215,43.8441909],[12.7730131,43.8436189],[12.7733114,43.8432714],[12.7738328,43.8423179],[12.7719871,43.841159],[12.7698053,43.8399437],[12.7683356,43.8393215],[12.7677046,43.8391758],[12.7674168,43.8389512],[12.7688689,43.8383586],[12.7702345,43.8374312],[12.7709782,43.8367989],[12.7720538,43.8366464],[12.7724205,43.8364947],[12.7744496,43.8351447],[12.7751999,43.8349623],[12.7764132,43.8351202],[12.7764544,43.8337549],[12.7762282,43.8331277],[12.7759799,43.8327893],[12.7760109,43.8326397],[12.7764547,43.8323325],[12.7763881,43.8321141],[12.774708,43.8308643],[12.7741444,43.8306038],[12.7735379,43.8305023],[12.7737262,43.830136],[12.7744596,43.8294905],[12.7747111,43.8290906],[12.7747742,43.8287599],[12.7753119,43.828265],[12.7760239,43.8279218],[12.776592,43.8273178],[12.7772389,43.8270263],[12.777824,43.8266423],[12.7787778,43.8264352],[12.7791031,43.8260733],[12.7788677,43.8256445],[12.7789353,43.8254847],[12.7799234,43.8250333],[12.7805932,43.8244169],[12.7809237,43.8242349],[12.7816228,43.8241307],[12.7819781,43.8239479],[12.7838957,43.8225654],[12.7842926,43.8221561],[12.784434,43.8217373],[12.7844259,43.8213144],[12.7841902,43.8196522],[12.7852288,43.8177902],[12.7855405,43.8174107],[12.7856418,43.8169977],[12.7854722,43.8161841],[12.7857645,43.8153506],[12.7854972,43.8142206],[12.786803,43.8131465],[12.786885,43.8129682],[12.7869825,43.8117091],[12.7868497,43.8112318],[12.7844216,43.8103355],[12.7838084,43.8104684],[12.7823749,43.8112452],[12.7815959,43.8114105],[12.7806661,43.8110587],[12.7792063,43.8101393],[12.7784867,43.8098165],[12.7784535,43.8093404],[12.778329,43.8089934],[12.7778562,43.8083474],[12.7776815,43.8076959],[12.7784053,43.8069517],[12.7785718,43.8058479],[12.7790523,43.8052378],[12.7791114,43.8049927],[12.7786821,43.8045433],[12.7782679,43.8043319],[12.7775376,43.8041355],[12.777242,43.8038347],[12.7769304,43.8034759],[12.7767715,43.803076],[12.7766617,43.8027151],[12.7766867,43.8022731],[12.7753958,43.8032386],[12.7746316,43.8028002],[12.7736239,43.8024914],[12.771956,43.8025061],[12.7709571,43.802287]]]]},"properties":{"type":"boundary","gemeente":"Montelabbate"}}]}