{"type":"FeatureCollection","metadata":{"gemeente":"Monteferrante","slug":"monteferrante","generated_at":"2026-09-26T14:27:36.121031Z","total_points":1,"providers":["PosteItaliane"],"bounds":[14.38798217,41.95519048,14.38798217,41.95519048]},"features":[{"type":"Feature","geometry":{"type":"Point","coordinates":[14.38798217,41.95519048]},"properties":{"type":"pakketpunt","locatieNaam":"Monteferrante","straatNaam":"Corso Umberto","straatNr":"42","vervoerder":"PosteItaliane","puntType":"postkantoor","bezettingsgraad":50,"latitude":41.95519048,"longitude":14.38798217,"canPickup":true,"canDropoff":true,"openingstijden":{"za":"gesloten","zo":"gesloten","ma":"08:20 - 13:45","di":"gesloten","wo":"08:20 - 13:45","do":"gesloten","vr":"08:20 - 13:45"}}},{"type":"Feature","geometry":{"type":"Polygon","coordinates":[[[14.3681325,41.9662752],[14.3654481,41.9632503],[14.3652245,41.9626081],[14.3695124,41.9414137],[14.3702735,41.9388259],[14.3704067,41.9372892],[14.3719956,41.9329251],[14.3726338,41.9318419],[14.3773482,41.9281367],[14.3817721,41.9259888],[14.3840084,41.9254786],[14.3887117,41.9241995],[14.3890767,41.9239213],[14.3901205,41.9219096],[14.3908285,41.9172221],[14.3907118,41.9155802],[14.390058,41.9120191],[14.3906476,41.9070806],[14.3919718,41.9009237],[14.3925566,41.8989292],[14.3982538,41.8982916],[14.401781,41.89885],[14.4053855,41.9027353],[14.4060254,41.9039159],[14.4063541,41.9048726],[14.40637,41.905232],[14.404988,41.914331],[14.4011514,41.9261744],[14.4001401,41.9312139],[14.4003092,41.9401496],[14.4012457,41.9534827],[14.4023314,41.9548313],[14.4052938,41.9593592],[14.4058501,41.9629788],[14.405252,41.9688405],[14.3936657,41.9703007],[14.3955425,41.9671065],[14.3897538,41.9629141],[14.3812721,41.9627235],[14.3787483,41.9629637],[14.3781435,41.9630866],[14.3681325,41.9662752]]]},"properties":{"type":"boundary","gemeente":"Monteferrante"}}]}