{"type":"FeatureCollection","metadata":{"gemeente":"Montemurlo","slug":"montemurlo","generated_at":"2026-09-26T13:10:14.390966Z","total_points":48,"providers":["PosteItaliane","DPD","InPost","GLS","DHL","Amazon"],"bounds":[11.029111,43.901696,11.0647111,43.9294211]},"features":[{"type":"Feature","geometry":{"type":"Point","coordinates":[11.03096799,43.92278731]},"properties":{"type":"pakketpunt","locatieNaam":"Tabaccheria N. 12","straatNaam":"Via Livorno","straatNr":"41","vervoerder":"PosteItaliane","puntType":"servicepunt","bezettingsgraad":50,"latitude":43.92278731,"longitude":11.03096799,"canPickup":true,"canDropoff":true,"openingstijden":{"za":"06:00 - 20:00","zo":"gesloten","ma":"06:00 - 20:00","di":"06:00 - 20:00","wo":"06:00 - 20:00","do":"06:00 - 20:00","vr":"06:00 - 20:00"}}},{"type":"Feature","geometry":{"type":"Point","coordinates":[11.03510739,43.92385368]},"properties":{"type":"pakketpunt","locatieNaam":"Montemurlo","straatNaam":"Via Barzano","straatNr":"82","vervoerder":"PosteItaliane","puntType":"postkantoor","bezettingsgraad":50,"latitude":43.92385368,"longitude":11.03510739,"canPickup":true,"canDropoff":true,"openingstijden":{"za":"08:20 - 12:35","zo":"gesloten","ma":"08:20 - 19:05","di":"08:20 - 19:05","wo":"08:20 - 19:05","do":"08:20 - 19:05","vr":"08:20 - 19:05"}}},{"type":"Feature","geometry":{"type":"Point","coordinates":[11.03261951,43.90775579]},"properties":{"type":"pakketpunt","locatieNaam":"Oste","straatNaam":"Via Treviso","straatNr":"17","vervoerder":"PosteItaliane","puntType":"postkantoor","bezettingsgraad":50,"latitude":43.90775579,"longitude":11.03261951,"canPickup":true,"canDropoff":true,"openingstijden":{"za":"08:20 - 12:35","zo":"gesloten","ma":"08:20 - 13:35","di":"08:20 - 13:35","wo":"08:20 - 13:35","do":"08:20 - 13:35","vr":"08:20 - 13:35"}}},{"type":"Feature","geometry":{"type":"Point","coordinates":[11.03194235,43.90173565]},"properties":{"type":"pakketpunt","locatieNaam":"Stazione Di Servizio","straatNaam":"Via Pistoiese","straatNr":"26/1","vervoerder":"PosteItaliane","puntType":"automaat","bezettingsgraad":50,"latitude":43.90173565,"longitude":11.03194235,"canPickup":true,"canDropoff":true,"openingstijden":{"za":"00:01 - 23:59","zo":"00:01 - 23:59","ma":"00:01 - 23:59","di":"00:01 - 23:59","wo":"00:01 - 23:59","do":"00:01 - 23:59","vr":"00:01 - 23:59"}}},{"type":"Feature","geometry":{"type":"Point","coordinates":[11.03089841,43.92735721]},"properties":{"type":"pakketpunt","locatieNaam":"Recoprint","straatNaam":"Via Udine","straatNr":"45","vervoerder":"PosteItaliane","puntType":"automaat","bezettingsgraad":50,"latitude":43.92735721,"longitude":11.03089841,"canPickup":true,"canDropoff":true,"openingstijden":{"za":"00:01 - 23:59","zo":"00:01 - 23:59","ma":"00:01 - 23:59","di":"00:01 - 23:59","wo":"00:01 - 23:59","do":"00:01 - 23:59","vr":"00:01 - 23:59"}}},{"type":"Feature","geometry":{"type":"Point","coordinates":[11.042347,43.924389]},"properties":{"type":"pakketpunt","locatieNaam":"Tabaccheria N. 2","straatNaam":"Via Montalese","straatNr":"379","vervoerder":"PosteItaliane","puntType":"servicepunt","bezettingsgraad":50,"latitude":43.924389,"longitude":11.042347,"canPickup":true,"canDropoff":true,"openingstijden":{"za":"07:00 - 13:00, 14:30 - 19:30","zo":"08:00 - 12:00","ma":"07:00 - 13:00, 14:30 - 19:30","di":"07:00 - 13:00, 14:30 - 19:30","wo":"07:00 - 13:00, 14:30 - 19:30","do":"07:00 - 13:00, 14:30 - 19:30","vr":"07:00 - 13:00, 14:30 - 19:30"}}},{"type":"Feature","geometry":{"type":"Point","coordinates":[11.0647111,43.91282205]},"properties":{"type":"pakketpunt","locatieNaam":"Tabaccheria N. 8","straatNaam":"Via Montalese","straatNr":"67","vervoerder":"PosteItaliane","puntType":"servicepunt","bezettingsgraad":50,"latitude":43.91282205,"longitude":11.0647111,"canPickup":true,"canDropoff":true,"openingstijden":{"za":"08:00 - 13:00, 15:30 - 19:30","zo":"gesloten","ma":"07:00 - 20:00","di":"07:00 - 20:00","wo":"07:00 - 20:00","do":"07:00 - 20:00","vr":"07:00 - 20:00"}}},{"type":"Feature","geometry":{"type":"Point","coordinates":[11.05260182,43.90796984]},"properties":{"type":"pakketpunt","locatieNaam":"Carta And Co.","straatNaam":"Via Del Commercio","straatNr":"13","vervoerder":"PosteItaliane","puntType":"servicepunt","bezettingsgraad":50,"latitude":43.90796984,"longitude":11.05260182,"canPickup":true,"canDropoff":true,"openingstijden":{"za":"09:00 - 13:00, 15:00 - 19:30","zo":"gesloten","ma":"08:30 - 19:30","di":"08:30 - 19:30","wo":"08:30 - 19:30","do":"08:30 - 19:30","vr":"08:30 - 19:30"}}},{"type":"Feature","geometry":{"type":"Point","coordinates":[11.02987572,43.91529656]},"properties":{"type":"pakketpunt","locatieNaam":"Tabaccheria N. 10","straatNaam":"Via Raffaello Scarpettini","straatNr":"287","vervoerder":"PosteItaliane","puntType":"servicepunt","bezettingsgraad":50,"latitude":43.91529656,"longitude":11.02987572,"canPickup":true,"canDropoff":true,"openingstijden":{"za":"06:00 - 20:00","zo":"gesloten","ma":"06:00 - 20:00","di":"06:00 - 20:00","wo":"06:00 - 20:00","do":"06:00 - 20:00","vr":"06:00 - 20:00"}}},{"type":"Feature","geometry":{"type":"Point","coordinates":[11.05728755,43.91893511]},"properties":{"type":"pakketpunt","locatieNaam":"Tabaccheria N. 1","straatNaam":"Via Riva","straatNr":"4","vervoerder":"PosteItaliane","puntType":"servicepunt","bezettingsgraad":50,"latitude":43.91893511,"longitude":11.05728755,"canPickup":true,"canDropoff":true,"openingstijden":{"za":"08:00 - 19:30","zo":"08:00 - 12:30","ma":"08:00 - 19:30","di":"08:00 - 19:30","wo":"08:00 - 19:30","do":"08:00 - 19:30","vr":"08:00 - 19:30"}}},{"type":"Feature","geometry":{"type":"Point","coordinates":[11.03207875,43.92931481]},"properties":{"type":"pakketpunt","locatieNaam":"Tabaccheria N. 3","straatNaam":"Via Udine","straatNr":"2","vervoerder":"PosteItaliane","puntType":"servicepunt","bezettingsgraad":50,"latitude":43.92931481,"longitude":11.03207875,"canPickup":true,"canDropoff":true,"openingstijden":{"za":"07:30 - 13:00, 15:30 - 19:30","zo":"07:30 - 12:30","ma":"07:30 - 19:30","di":"07:30 - 19:30","wo":"07:30 - 19:30","do":"07:30 - 19:30","vr":"07:30 - 19:30"}}},{"type":"Feature","geometry":{"type":"Point","coordinates":[11.04234705,43.92431056]},"properties":{"type":"pakketpunt","locatieNaam":"Tabaccheria Biblo","straatNaam":"VIA MONTALESE","straatNr":"379","vervoerder":"DPD","puntType":"pickup_point","bezettingsgraad":50,"latitude":43.92431056,"longitude":11.04234705,"canPickup":true,"canDropoff":true,"openingstijden":{"ma":"07:00 - 13:00, 14:30 - 19:30","di":"07:00 - 13:00, 14:30 - 19:30","wo":"07:00 - 13:00, 14:30 - 19:30","do":"07:00 - 13:00, 14:30 - 19:30","vr":"07:00 - 13:00, 14:30 - 19:30","za":"07:00 - 13:00, 14:30 - 19:30","zo":"08:00 - 12:00"}}},{"type":"Feature","geometry":{"type":"Point","coordinates":[11.03113041,43.90771992]},"properties":{"type":"pakketpunt","locatieNaam":"Tecnoufficio - Montemurlo","straatNaam":"VIA SCARPETTINI","straatNr":"396","vervoerder":"DPD","puntType":"pickup_point","bezettingsgraad":50,"latitude":43.90771992,"longitude":11.03113041,"canPickup":true,"canDropoff":true,"openingstijden":{"ma":"09:00 - 13:00, 16:00 - 19:30","di":"09:00 - 13:00, 16:00 - 19:30","wo":"09:00 - 13:00, 16:00 - 19:30","do":"09:00 - 13:00, 16:00 - 19:30","vr":"09:00 - 13:00, 16:00 - 19:30","za":"gesloten","zo":"gesloten"}}},{"type":"Feature","geometry":{"type":"Point","coordinates":[11.0320755,43.9294211]},"properties":{"type":"pakketpunt","locatieNaam":"Tabaccheria Udine","straatNaam":"VIA UDINE","straatNr":"2","vervoerder":"DPD","puntType":"pickup_point","bezettingsgraad":50,"latitude":43.9294211,"longitude":11.0320755,"canPickup":true,"canDropoff":true,"openingstijden":{"ma":"07:30 - 19:30","di":"07:30 - 19:30","wo":"07:30 - 19:30","do":"07:30 - 19:30","vr":"07:30 - 19:30","za":"07:30 - 13:00","zo":"gesloten"}}},{"type":"Feature","geometry":{"type":"Point","coordinates":[11.03114,43.927437]},"properties":{"type":"pakketpunt","locatieNaam":"BRT LOCKER - Recoprint Via Udine","straatNaam":"VIA UDINE","straatNr":"41/45/47","vervoerder":"DPD","puntType":"dpd_box","bezettingsgraad":50,"latitude":43.927437,"longitude":11.03114,"canPickup":true,"canDropoff":true,"openingstijden":{"ma":"00:00 - 23:45","di":"00:00 - 23:45","wo":"00:00 - 23:45","do":"00:00 - 23:45","vr":"00:00 - 23:45","za":"00:00 - 23:45","zo":"00:00 - 23:45"}}},{"type":"Feature","geometry":{"type":"Point","coordinates":[11.0524871,43.9078397]},"properties":{"type":"pakketpunt","locatieNaam":"Carta & Co. Srl","straatNaam":"VIA DEL COMMERCIO","straatNr":"13","vervoerder":"DPD","puntType":"pickup_point","bezettingsgraad":50,"latitude":43.9078397,"longitude":11.0524871,"canPickup":true,"canDropoff":true,"openingstijden":{"ma":"08:30 - 19:30","di":"08:30 - 19:30","wo":"08:30 - 19:30","do":"08:30 - 19:30","vr":"08:30 - 19:30","za":"09:00 - 13:00, 15:00 - 19:30","zo":"gesloten"}}},{"type":"Feature","geometry":{"type":"Point","coordinates":[11.03962,43.92586]},"properties":{"type":"pakketpunt","locatieNaam":"InPost Locker 24/7","straatNaam":"Via Montalese","straatNr":"469","vervoerder":"InPost","puntType":"automaat","bezettingsgraad":50,"latitude":43.92586,"longitude":11.03962,"canPickup":true,"canDropoff":true,"openingstijden":null}},{"type":"Feature","geometry":{"type":"Point","coordinates":[11.0637,43.91357]},"properties":{"type":"pakketpunt","locatieNaam":"InPost Locker 24/7","straatNaam":"Via Giuseppe Di Vittorio","straatNr":"3","vervoerder":"InPost","puntType":"automaat","bezettingsgraad":50,"latitude":43.91357,"longitude":11.0637,"canPickup":true,"canDropoff":true,"openingstijden":null}},{"type":"Feature","geometry":{"type":"Point","coordinates":[11.03674,43.91946]},"properties":{"type":"pakketpunt","locatieNaam":"InPost Locker 24/7","straatNaam":"Via Enrico Berlinguer","straatNr":"Snc","vervoerder":"InPost","puntType":"automaat","bezettingsgraad":50,"latitude":43.91946,"longitude":11.03674,"canPickup":true,"canDropoff":true,"openingstijden":null}},{"type":"Feature","geometry":{"type":"Point","coordinates":[11.0308,43.92735]},"properties":{"type":"pakketpunt","locatieNaam":"Recoprint","straatNaam":"Via Udine","straatNr":"41-45-47","vervoerder":"InPost","puntType":"automaat","bezettingsgraad":50,"latitude":43.92735,"longitude":11.0308,"canPickup":true,"canDropoff":true,"openingstijden":null}},{"type":"Feature","geometry":{"type":"Point","coordinates":[11.04238,43.9245]},"properties":{"type":"pakketpunt","locatieNaam":"InPost Point","straatNaam":"Via Montalese","straatNr":"379","vervoerder":"InPost","puntType":"servicepunt","bezettingsgraad":50,"latitude":43.9245,"longitude":11.04238,"canPickup":true,"canDropoff":true,"openingstijden":"Lun-Ven: 07:00 - 13:00 - 14:30 - 19:30 Sab: 07:00 - 13:00 - 15:30 - 19:30"}},{"type":"Feature","geometry":{"type":"Point","coordinates":[11.0311626,43.9076832]},"properties":{"type":"pakketpunt","locatieNaam":"TECNOUFFICIO","straatNaam":"Via R. Scarpettini","straatNr":"396","vervoerder":"GLS","puntType":"parcel_shop","bezettingsgraad":50,"latitude":43.9076832,"longitude":11.0311626,"canPickup":true,"canDropoff":true,"openingstijden":"ma: 09:00 - 13:00, 16:00 - 19:30; di: 09:00 - 13:00, 16:00 - 19:30"}},{"type":"Feature","geometry":{"type":"Point","coordinates":[11.0524871,43.9078397]},"properties":{"type":"pakketpunt","locatieNaam":"Carta & Co","straatNaam":"Via Del Commercio","straatNr":"13","vervoerder":"GLS","puntType":"parcel_shop","bezettingsgraad":50,"latitude":43.9078397,"longitude":11.0524871,"canPickup":true,"canDropoff":true,"openingstijden":"za: 09:00 - 13:00, 15:00 - 19:30; ma: 08:30 - 19:30"}},{"type":"Feature","geometry":{"type":"Point","coordinates":[11.0496438,43.9233715]},"properties":{"type":"pakketpunt","locatieNaam":"l acqilone","straatNaam":"Via Circonvallazione Sinistra","straatNr":"1\\3","vervoerder":"GLS","puntType":"parcel_shop","bezettingsgraad":50,"latitude":43.9233715,"longitude":11.0496438,"canPickup":true,"canDropoff":true,"openingstijden":"za: 06:00 - 20:00; ma: 06:00 - 20:00"}},{"type":"Feature","geometry":{"type":"Point","coordinates":[11.042368,43.9242881]},"properties":{"type":"pakketpunt","locatieNaam":"BIBLO RICEVITORIA TABACCHI","straatNaam":"Via Montalese","straatNr":"379","vervoerder":"GLS","puntType":"parcel_shop","bezettingsgraad":50,"latitude":43.9242881,"longitude":11.042368,"canPickup":true,"canDropoff":true,"openingstijden":"za: 07:00 - 13:00, 15:30 - 19:30; zo: 08:00 - 12:00"}},{"type":"Feature","geometry":{"type":"Point","coordinates":[11.029876,43.915297]},"properties":{"type":"pakketpunt","locatieNaam":"TABACCHERIA N. 10","straatNaam":"VIA RAFFAELLO SCARPETTINI 287","straatNr":"","vervoerder":"DHL","puntType":"parcelShop","bezettingsgraad":50,"latitude":43.915297,"longitude":11.029876,"canPickup":true,"canDropoff":true,"openingstijden":{"ma":"06:00 - 20:00","di":"06:00 - 20:00","wo":"06:00 - 20:00","do":"06:00 - 20:00","vr":"06:00 - 20:00","za":"06:00 - 20:00","zo":"gesloten"}}},{"type":"Feature","geometry":{"type":"Point","coordinates":[11.030034,43.915799]},"properties":{"type":"pakketpunt","locatieNaam":"TRAVEL MACHINE AGENCY SAS","straatNaam":"Scarpettini, 275","straatNr":"","vervoerder":"DHL","puntType":"parcelShop","bezettingsgraad":50,"latitude":43.915799,"longitude":11.030034,"canPickup":false,"canDropoff":true,"openingstijden":{"ma":"10:00 - 18:00","di":"10:00 - 18:00","wo":"10:00 - 18:00","do":"10:00 - 18:00","vr":"10:00 - 18:00","za":"10:00 - 12:30","zo":"gesloten"}}},{"type":"Feature","geometry":{"type":"Point","coordinates":[11.030968,43.922787]},"properties":{"type":"pakketpunt","locatieNaam":"TABACCHERIA N. 12","straatNaam":"VIA LIVORNO 41","straatNr":"","vervoerder":"DHL","puntType":"parcelShop","bezettingsgraad":50,"latitude":43.922787,"longitude":11.030968,"canPickup":true,"canDropoff":true,"openingstijden":{"ma":"06:00 - 20:00","di":"06:00 - 20:00","wo":"06:00 - 20:00","do":"06:00 - 20:00","vr":"06:00 - 20:00","za":"06:00 - 20:00","zo":"gesloten"}}},{"type":"Feature","geometry":{"type":"Point","coordinates":[11.030898,43.927357]},"properties":{"type":"pakketpunt","locatieNaam":"RECOPRINT","straatNaam":"VIA UDINE 45","straatNr":"","vervoerder":"DHL","puntType":"packStation","bezettingsgraad":50,"latitude":43.927357,"longitude":11.030898,"canPickup":true,"canDropoff":true,"openingstijden":{"ma":"00:01 - 23:59","di":"00:01 - 23:59","wo":"00:01 - 23:59","do":"00:01 - 23:59","vr":"00:01 - 23:59","za":"00:01 - 23:59","zo":"00:01 - 23:59"}}},{"type":"Feature","geometry":{"type":"Point","coordinates":[11.032079,43.929315]},"properties":{"type":"pakketpunt","locatieNaam":"TABACCHERIA N. 3","straatNaam":"VIA UDINE 2","straatNr":"","vervoerder":"DHL","puntType":"parcelShop","bezettingsgraad":50,"latitude":43.929315,"longitude":11.032079,"canPickup":true,"canDropoff":true,"openingstijden":{"ma":"07:30 - 19:30","di":"07:30 - 19:30","wo":"07:30 - 19:30","do":"07:30 - 19:30","vr":"07:30 - 19:30","za":"07:30 - 13:00, 15:30 - 19:30","zo":"07:30 - 12:30"}}},{"type":"Feature","geometry":{"type":"Point","coordinates":[11.035107,43.923854]},"properties":{"type":"pakketpunt","locatieNaam":"Ufficio Postale MONTEMURLO","straatNaam":"VIA BARZANO 82","straatNr":"","vervoerder":"DHL","puntType":"postOffice","bezettingsgraad":50,"latitude":43.923854,"longitude":11.035107,"canPickup":true,"canDropoff":true,"openingstijden":{"ma":"08:20 - 19:05","di":"08:20 - 19:05","wo":"08:20 - 19:05","do":"08:20 - 19:05","vr":"08:20 - 19:05","za":"08:20 - 12:35","zo":"gesloten"}}},{"type":"Feature","geometry":{"type":"Point","coordinates":[11.03262,43.907756]},"properties":{"type":"pakketpunt","locatieNaam":"Ufficio Postale OSTE","straatNaam":"VIA TREVISO 17","straatNr":"","vervoerder":"DHL","puntType":"postOffice","bezettingsgraad":50,"latitude":43.907756,"longitude":11.03262,"canPickup":true,"canDropoff":true,"openingstijden":{"ma":"08:20 - 13:35","di":"08:20 - 13:35","wo":"08:20 - 13:35","do":"08:20 - 13:35","vr":"08:20 - 13:35","za":"08:20 - 12:35","zo":"gesloten"}}},{"type":"Feature","geometry":{"type":"Point","coordinates":[11.064711,43.912822]},"properties":{"type":"pakketpunt","locatieNaam":"TABACCHERIA N. 8","straatNaam":"VIA MONTALESE 67","straatNr":"","vervoerder":"DHL","puntType":"parcelShop","bezettingsgraad":50,"latitude":43.912822,"longitude":11.064711,"canPickup":true,"canDropoff":true,"openingstijden":{"ma":"07:00 - 20:00","di":"07:00 - 20:00","wo":"07:00 - 20:00","do":"07:00 - 20:00","vr":"07:00 - 20:00","za":"08:00 - 13:00, 15:30 - 19:30","zo":"gesloten"}}},{"type":"Feature","geometry":{"type":"Point","coordinates":[11.057288,43.918935]},"properties":{"type":"pakketpunt","locatieNaam":"TABACCHERIA N. 1","straatNaam":"VIA RIVA 4","straatNr":"","vervoerder":"DHL","puntType":"parcelShop","bezettingsgraad":50,"latitude":43.918935,"longitude":11.057288,"canPickup":true,"canDropoff":true,"openingstijden":{"ma":"08:00 - 19:30","di":"08:00 - 19:30","wo":"08:00 - 19:30","do":"08:00 - 19:30","vr":"08:00 - 19:30","za":"08:00 - 19:30","zo":"08:00 - 12:30"}}},{"type":"Feature","geometry":{"type":"Point","coordinates":[11.037607,43.927556]},"properties":{"type":"pakketpunt","locatieNaam":"CENTRO OTTICO GIANDONATI","straatNaam":"Via Matteotti 2","straatNr":"","vervoerder":"DHL","puntType":"parcelShop","bezettingsgraad":50,"latitude":43.927556,"longitude":11.037607,"canPickup":false,"canDropoff":true,"openingstijden":{"ma":"15:30 - 19:30","di":"09:30 - 19:30","wo":"09:30 - 19:30","do":"09:30 - 19:30","vr":"09:30 - 19:30","za":"09:30 - 19:30","zo":"gesloten"}}},{"type":"Feature","geometry":{"type":"Point","coordinates":[11.042347,43.924389]},"properties":{"type":"pakketpunt","locatieNaam":"TABACCHERIA N. 2","straatNaam":"VIA MONTALESE 379","straatNr":"","vervoerder":"DHL","puntType":"parcelShop","bezettingsgraad":50,"latitude":43.924389,"longitude":11.042347,"canPickup":true,"canDropoff":true,"openingstijden":{"ma":"07:00 - 13:00, 14:30 - 19:30","di":"07:00 - 13:00, 14:30 - 19:30","wo":"07:00 - 13:00, 14:30 - 19:30","do":"07:00 - 13:00, 14:30 - 19:30","vr":"07:00 - 13:00, 14:30 - 19:30","za":"07:00 - 13:00, 14:30 - 19:30","zo":"08:00 - 12:00"}}},{"type":"Feature","geometry":{"type":"Point","coordinates":[11.042368,43.924288]},"properties":{"type":"pakketpunt","locatieNaam":"BIBLO RICEVITORIA TABACCHI","straatNaam":"Via Montalese 379","straatNr":"","vervoerder":"DHL","puntType":"parcelShop","bezettingsgraad":50,"latitude":43.924288,"longitude":11.042368,"canPickup":false,"canDropoff":true,"openingstijden":{"ma":"07:00 - 19:30","di":"07:00 - 19:30","wo":"07:00 - 19:30","do":"07:00 - 19:30","vr":"07:00 - 19:30","za":"08:30 - 12:30","zo":"gesloten"}}},{"type":"Feature","geometry":{"type":"Point","coordinates":[11.031942,43.901736]},"properties":{"type":"pakketpunt","locatieNaam":"STAZIONE DI SERVIZIO","straatNaam":"VIA PISTOIESE 26-1","straatNr":"","vervoerder":"DHL","puntType":"packStation","bezettingsgraad":50,"latitude":43.901736,"longitude":11.031942,"canPickup":true,"canDropoff":true,"openingstijden":{"ma":"00:01 - 23:59","di":"00:01 - 23:59","wo":"00:01 - 23:59","do":"00:01 - 23:59","vr":"00:01 - 23:59","za":"00:01 - 23:59","zo":"00:01 - 23:59"}}},{"type":"Feature","geometry":{"type":"Point","coordinates":[11.032012,43.901696]},"properties":{"type":"pakketpunt","locatieNaam":"GIAP - DISTRIBUTORE CARBURANTE","straatNaam":"Via Pistoiese, 22","straatNr":"","vervoerder":"DHL","puntType":"parcelShop","bezettingsgraad":50,"latitude":43.901696,"longitude":11.032012,"canPickup":false,"canDropoff":true,"openingstijden":{"ma":"07:30 - 19:00","di":"07:30 - 19:00","wo":"07:30 - 19:00","do":"07:30 - 19:00","vr":"07:30 - 19:00","za":"07:30 - 12:30","zo":"gesloten"}}},{"type":"Feature","geometry":{"type":"Point","coordinates":[11.052602,43.90797]},"properties":{"type":"pakketpunt","locatieNaam":"CARTA AND CO.","straatNaam":"VIA DEL COMMERCIO 13","straatNr":"","vervoerder":"DHL","puntType":"parcelShop","bezettingsgraad":50,"latitude":43.90797,"longitude":11.052602,"canPickup":true,"canDropoff":true,"openingstijden":{"ma":"08:30 - 19:30","di":"08:30 - 19:30","wo":"08:30 - 19:30","do":"08:30 - 19:30","vr":"08:30 - 19:30","za":"09:00 - 13:00, 15:00 - 19:30","zo":"gesloten"}}},{"type":"Feature","geometry":{"type":"Point","coordinates":[11.03085,43.92717]},"properties":{"type":"pakketpunt","locatieNaam":"Amazon Locker - gaspero","straatNaam":"Recoprint S.R.L. Prato","straatNr":"","vervoerder":"Amazon","puntType":"locker","bezettingsgraad":50,"latitude":43.92717,"longitude":11.03085,"canPickup":true,"canDropoff":false,"openingstijden":null}},{"type":"Feature","geometry":{"type":"Point","coordinates":[11.0367832,43.9191863]},"properties":{"type":"pakketpunt","locatieNaam":"Amazon Locker - basalto","straatNaam":"Aquila Energie Montemurlo","straatNr":"","vervoerder":"Amazon","puntType":"locker","bezettingsgraad":50,"latitude":43.9191863,"longitude":11.0367832,"canPickup":true,"canDropoff":false,"openingstijden":null}},{"type":"Feature","geometry":{"type":"Point","coordinates":[11.061474,43.910637]},"properties":{"type":"pakketpunt","locatieNaam":"Amazon Locker - massimiliano","straatNaam":"PENNY MARKET - Montemurlo","straatNr":"","vervoerder":"Amazon","puntType":"locker","bezettingsgraad":50,"latitude":43.910637,"longitude":11.061474,"canPickup":true,"canDropoff":false,"openingstijden":null}},{"type":"Feature","geometry":{"type":"Point","coordinates":[11.0572,43.9189]},"properties":{"type":"pakketpunt","locatieNaam":"PuntoPoste TABACCHERIA N. 1","straatNaam":"VIA RIVA 4","straatNr":"","vervoerder":"Amazon","puntType":"3p","bezettingsgraad":50,"latitude":43.9189,"longitude":11.0572,"canPickup":true,"canDropoff":false,"openingstijden":null}},{"type":"Feature","geometry":{"type":"Point","coordinates":[11.029111,43.908442]},"properties":{"type":"pakketpunt","locatieNaam":"Amazon Counter - Ò BAR DÈ GUAGLIUNE","straatNaam":"Via Raffaello scarpettini , 370/4","straatNr":"","vervoerder":"Amazon","puntType":"helix","bezettingsgraad":50,"latitude":43.908442,"longitude":11.029111,"canPickup":true,"canDropoff":false,"openingstijden":null}},{"type":"Feature","geometry":{"type":"Point","coordinates":[11.0423,43.9243]},"properties":{"type":"pakketpunt","locatieNaam":"PuntoPoste TABACCHERIA N. 2","straatNaam":"VIA MONTALESE 379","straatNr":"","vervoerder":"Amazon","puntType":"3p","bezettingsgraad":50,"latitude":43.9243,"longitude":11.0423,"canPickup":true,"canDropoff":false,"openingstijden":null}},{"type":"Feature","geometry":{"type":"Point","coordinates":[11.037236,43.926934]},"properties":{"type":"pakketpunt","locatieNaam":"Amazon Counter - Centro Ottico Giandonati SRL","straatNaam":"Via Giacomo Matteotti 2","straatNr":"","vervoerder":"Amazon","puntType":"helix","bezettingsgraad":50,"latitude":43.926934,"longitude":11.037236,"canPickup":true,"canDropoff":false,"openingstijden":null}},{"type":"Feature","geometry":{"type":"Point","coordinates":[11.0351,43.9238]},"properties":{"type":"pakketpunt","locatieNaam":"Ufficio Postale MONTEMURLO","straatNaam":"VIA BARZANO 82","straatNr":"","vervoerder":"Amazon","puntType":"3p","bezettingsgraad":50,"latitude":43.9238,"longitude":11.0351,"canPickup":true,"canDropoff":false,"openingstijden":null}},{"type":"Feature","geometry":{"type":"Polygon","coordinates":[[[11.0245719,43.8968488],[11.0248431,43.8964057],[11.025267,43.8969909],[11.0262098,43.8979003],[11.0287211,43.9006276],[11.030013,43.9017653],[11.0345593,43.9008447],[11.0351065,43.9010693],[11.0353003,43.9010429],[11.0374934,43.9026748],[11.03744,43.9027253],[11.0388674,43.9036511],[11.0402924,43.9026633],[11.0421086,43.9041175],[11.0440515,43.9029673],[11.0449672,43.9036369],[11.0452037,43.9034797],[11.0449687,43.9032939],[11.0464483,43.9024061],[11.0480799,43.9034662],[11.049947,43.903884],[11.0535195,43.9043639],[11.0539154,43.9043175],[11.0557659,43.9046319],[11.0569147,43.9050144],[11.0573273,43.9052719],[11.0585567,43.9065655],[11.0590544,43.9064325],[11.0595766,43.9070323],[11.0600784,43.9068588],[11.0612171,43.9080759],[11.0620838,43.9075126],[11.062346,43.9074947],[11.0633059,43.9070789],[11.0643901,43.9069078],[11.0646291,43.9069718],[11.0656586,43.9077029],[11.0665217,43.9081994],[11.0667332,43.9084518],[11.0678635,43.9089519],[11.0670503,43.9101579],[11.0713618,43.91453],[11.0727926,43.915425],[11.0740398,43.9172081],[11.0763887,43.9202622],[11.0801898,43.9247796],[11.079732,43.9262017],[11.0809529,43.9291403],[11.0814394,43.9305108],[11.0815658,43.9317009],[11.081313,43.9338682],[11.0813631,43.9347423],[11.0812629,43.9349672],[11.0807526,43.9353897],[11.0804664,43.9357795],[11.0849209,43.9417157],[11.0854653,43.9419274],[11.0915124,43.9459771],[11.0914001,43.9461044],[11.0914955,43.9462726],[11.0927963,43.9482267],[11.0933819,43.9487698],[11.0939109,43.9490237],[11.0953732,43.9505703],[11.0954461,43.9534583],[11.0952324,43.9539238],[11.0954635,43.9542189],[11.0953452,43.9542786],[11.0948433,43.954144],[11.0948084,43.9542317],[11.0949189,43.9544708],[11.094461,43.9543379],[11.0944136,43.9544051],[11.0944738,43.9545875],[11.0943388,43.9546789],[11.0937893,43.9543262],[11.0929694,43.9541001],[11.0928669,43.9541816],[11.0931183,43.9544542],[11.0931186,43.9547556],[11.0929555,43.9547819],[11.0924223,43.9545105],[11.0921459,43.9545099],[11.0919789,43.9546049],[11.0919073,43.9547806],[11.0919714,43.9552376],[11.0917436,43.9555726],[11.091509,43.956367],[11.0908715,43.9568739],[11.0903505,43.9574974],[11.0898218,43.9578928],[11.089516,43.9584489],[11.0892129,43.9586275],[11.0889299,43.9591246],[11.0886496,43.9593515],[11.0886228,43.9595455],[11.0884941,43.9596884],[11.0884662,43.9600797],[11.0885702,43.9602734],[11.0886202,43.9608636],[11.0887676,43.961009],[11.0888431,43.9613288],[11.0883509,43.9616527],[11.0877474,43.9618322],[11.0875757,43.9619973],[11.0874953,43.9623492],[11.0876309,43.9626814],[11.0876371,43.9632136],[11.0874796,43.9634283],[11.0873803,43.9640673],[11.0872892,43.964187],[11.0873508,43.9646194],[11.0870907,43.9652314],[11.085948,43.9664361],[11.0848512,43.9669493],[11.082429,43.9684766],[11.0817294,43.9690079],[11.0816905,43.9693709],[11.0819171,43.9703495],[11.0819002,43.9707154],[11.081472,43.9716605],[11.0814325,43.9720253],[11.0814983,43.9722954],[11.0813186,43.9734202],[11.0809296,43.9738198],[11.0798607,43.9741628],[11.0795804,43.9744667],[11.0785874,43.9749986],[11.078156,43.9753382],[11.0777709,43.9762949],[11.0769187,43.9774361],[11.0769659,43.9777587],[11.0767144,43.9782452],[11.0763925,43.9783681],[11.0761281,43.9786569],[11.0757454,43.9789047],[11.0753817,43.9790291],[11.0741126,43.9797754],[11.0732802,43.9807145],[11.0732468,43.9810514],[11.0730454,43.9813708],[11.0722734,43.9819097],[11.0714374,43.9828859],[11.070579,43.9819284],[11.0696607,43.9806216],[11.0689174,43.9792501],[11.0679516,43.9782997],[11.0678016,43.9774937],[11.0675227,43.9770673],[11.0670002,43.976555],[11.0666622,43.9757362],[11.0665128,43.9756017],[11.0654837,43.9752072],[11.0647431,43.9745657],[11.0645924,43.974142],[11.0640822,43.9739419],[11.0639599,43.9737913],[11.0639653,43.9730453],[11.0643947,43.9726706],[11.0649193,43.9725131],[11.0659933,43.9723892],[11.0657184,43.9718257],[11.0654442,43.9715933],[11.0649883,43.97098],[11.0649837,43.9703432],[11.0648284,43.9701185],[11.0641836,43.9696243],[11.0641629,43.9694631],[11.0638641,43.968973],[11.0630962,43.968462],[11.062328,43.9682591],[11.0617707,43.9677491],[11.0616744,43.96754],[11.0619431,43.9668921],[11.0619477,43.9665867],[11.0618401,43.9664435],[11.0616532,43.9663705],[11.0609826,43.9664209],[11.0605629,43.9661921],[11.0579633,43.9652236],[11.0568185,43.9643],[11.056476,43.9644274],[11.0562306,43.9644118],[11.0558009,43.9643473],[11.0549691,43.9640071],[11.0546585,43.9640228],[11.053944,43.9637978],[11.0531664,43.9638536],[11.0513857,43.9630837],[11.0508868,43.962486],[11.0501723,43.9619647],[11.0497705,43.9618647],[11.0493083,43.9616047],[11.0490672,43.9612577],[11.0485954,43.9608293],[11.0483653,43.960764],[11.0477478,43.9608023],[11.0473506,43.9606984],[11.046231,43.959343],[11.0452746,43.9588329],[11.0450007,43.9585862],[11.0447663,43.9581458],[11.044733,43.9576318],[11.0442717,43.957431],[11.0434887,43.9565191],[11.0430907,43.9563265],[11.0430269,43.9561688],[11.0428292,43.9560568],[11.0422552,43.955454],[11.0417893,43.9551723],[11.0413591,43.954532],[11.0405174,43.9537708],[11.0395566,43.9519743],[11.0387257,43.9512015],[11.0382431,43.9506],[11.0376734,43.9502568],[11.0369546,43.9500431],[11.0366719,43.9498745],[11.0363492,43.9494215],[11.0361776,43.9493601],[11.035823,43.9490115],[11.0351374,43.9485326],[11.0341343,43.9473137],[11.0335104,43.9463587],[11.0330708,43.9459646],[11.0324606,43.9452344],[11.0318756,43.9447647],[11.030458,43.943369],[11.030009,43.9424688],[11.0295085,43.9418253],[11.0292205,43.9404695],[11.0285271,43.9395023],[11.0280937,43.9390861],[11.0277219,43.9383564],[11.0278732,43.9381712],[11.0281079,43.9374405],[11.0280888,43.9366948],[11.0279582,43.9364584],[11.0274282,43.9360844],[11.0272246,43.9354924],[11.0272839,43.9334481],[11.0271656,43.9328893],[11.0269245,43.9325995],[11.0259796,43.9318742],[11.0258141,43.9316495],[11.0256998,43.9310117],[11.0252833,43.9299891],[11.0250716,43.9289259],[11.0243496,43.9272226],[11.0235162,43.9264886],[11.0220362,43.9249802],[11.0207916,43.9234173],[11.0205835,43.9226202],[11.0205947,43.9222682],[11.0208898,43.9213801],[11.0209048,43.9210636],[11.0205608,43.9185109],[11.0205616,43.9155721],[11.0204948,43.9153367],[11.019826,43.9142274],[11.0196679,43.9137446],[11.0189436,43.9129756],[11.0188316,43.9118949],[11.0185103,43.9113933],[11.0183594,43.9108864],[11.0183998,43.9106204],[11.0190216,43.9100928],[11.0192955,43.9097446],[11.0216852,43.9058215],[11.0224956,43.9046914],[11.0227398,43.9041405],[11.0234745,43.9033234],[11.0254352,43.9023376],[11.0253892,43.9019809],[11.0251376,43.9015132],[11.0254057,43.9007806],[11.0256499,43.9004169],[11.0257895,43.8998966],[11.0257602,43.8996956],[11.0255668,43.8991759],[11.0255262,43.8984671],[11.0249095,43.8971871],[11.0245719,43.8968488]]]},"properties":{"type":"boundary","gemeente":"Montemurlo"}}]}