{"type":"FeatureCollection","metadata":{"gemeente":"Monte Compatri","slug":"monte-compatri","generated_at":"2026-09-26T13:10:13.087238Z","total_points":25,"providers":["PosteItaliane","DPD","InPost","GLS","DHL","Amazon"],"bounds":[12.70587961,41.7883649,12.7413159227,41.86526114]},"features":[{"type":"Feature","geometry":{"type":"Point","coordinates":[12.73764676,41.80614197]},"properties":{"type":"pakketpunt","locatieNaam":"Montecompatri","straatNaam":"Via Alfredo Serranti","straatNr":"6","vervoerder":"PosteItaliane","puntType":"postkantoor","bezettingsgraad":50,"latitude":41.80614197,"longitude":12.73764676,"canPickup":true,"canDropoff":true,"openingstijden":{"za":"08:20 - 12:35","zo":"gesloten","ma":"08:20 - 13:35","di":"08:20 - 13:35","wo":"08:20 - 13:35","do":"08:20 - 13:35","vr":"08:20 - 13:35"}}},{"type":"Feature","geometry":{"type":"Point","coordinates":[12.7366797,41.8489775]},"properties":{"type":"pakketpunt","locatieNaam":"Laghetto Di Montecompatri","straatNaam":"Via Casilina Km.23","straatNr":"600","vervoerder":"PosteItaliane","puntType":"postkantoor","bezettingsgraad":50,"latitude":41.8489775,"longitude":12.7366797,"canPickup":true,"canDropoff":true,"openingstijden":{"za":"08:20 - 12:35","zo":"gesloten","ma":"08:20 - 13:35","di":"08:20 - 13:35","wo":"08:20 - 13:35","do":"08:20 - 13:35","vr":"08:20 - 13:35"}}},{"type":"Feature","geometry":{"type":"Point","coordinates":[12.73784902,41.80813342]},"properties":{"type":"pakketpunt","locatieNaam":"Tabaccheria N. 1","straatNaam":"Piazza Giacomo Matteotti","straatNr":"2","vervoerder":"PosteItaliane","puntType":"servicepunt","bezettingsgraad":50,"latitude":41.80813342,"longitude":12.73784902,"canPickup":true,"canDropoff":true,"openingstijden":{"za":"08:00 - 13:10, 16:00 - 19:40","zo":"gesloten","ma":"08:00 - 13:10, 16:00 - 19:40","di":"08:00 - 13:10, 16:00 - 19:40","wo":"08:00 - 13:10, 16:00 - 19:40","do":"08:00 - 13:10, 16:00 - 19:40","vr":"08:00 - 13:10, 16:00 - 19:40"}}},{"type":"Feature","geometry":{"type":"Point","coordinates":[12.70587961,41.86526114]},"properties":{"type":"pakketpunt","locatieNaam":"Tabaccheria N. 8","straatNaam":"Via Casilina","straatNr":"8","vervoerder":"PosteItaliane","puntType":"servicepunt","bezettingsgraad":50,"latitude":41.86526114,"longitude":12.70587961,"canPickup":true,"canDropoff":true,"openingstijden":{"za":"05:30 - 20:00","zo":"05:30 - 13:30","ma":"05:30 - 20:00","di":"05:30 - 20:00","wo":"05:30 - 20:00","do":"05:30 - 20:00","vr":"05:30 - 20:00"}}},{"type":"Feature","geometry":{"type":"Point","coordinates":[12.73604832,41.80759656]},"properties":{"type":"pakketpunt","locatieNaam":"Tabaccheria N. 2","straatNaam":"Via Leandro Ciuffa","straatNr":"9","vervoerder":"PosteItaliane","puntType":"servicepunt","bezettingsgraad":50,"latitude":41.80759656,"longitude":12.73604832,"canPickup":true,"canDropoff":true,"openingstijden":{"za":"08:00 - 13:00, 16:00 - 20:00","zo":"gesloten","ma":"08:00 - 13:00, 16:00 - 20:00","di":"08:00 - 13:00, 16:00 - 20:00","wo":"08:00 - 13:00, 16:00 - 20:00","do":"08:00 - 13:00, 16:00 - 20:00","vr":"08:00 - 13:00, 16:00 - 20:00"}}},{"type":"Feature","geometry":{"type":"Point","coordinates":[12.7413159227,41.8094293501]},"properties":{"type":"pakketpunt","locatieNaam":"Casali Elettrodomestici","straatNaam":"VIA CAMPO GILLARO. 11  (MONTE COMPA","straatNr":"","vervoerder":"DPD","puntType":"pickup_point","bezettingsgraad":50,"latitude":41.8094293501,"longitude":12.7413159227,"canPickup":true,"canDropoff":true,"openingstijden":{"ma":"09:00 - 13:00, 16:30 - 19:30","di":"09:00 - 13:00, 16:30 - 19:30","wo":"09:00 - 13:00, 16:30 - 19:30","do":"09:00 - 13:00, 16:30 - 19:30","vr":"09:00 - 13:00, 16:30 - 19:30","za":"09:00 - 13:00","zo":"gesloten"}}},{"type":"Feature","geometry":{"type":"Point","coordinates":[12.7354135,41.8490738]},"properties":{"type":"pakketpunt","locatieNaam":"Top Svapo","straatNaam":"VIA CASILINA","straatNr":"3300","vervoerder":"DPD","puntType":"pickup_point","bezettingsgraad":50,"latitude":41.8490738,"longitude":12.7354135,"canPickup":true,"canDropoff":true,"openingstijden":{"ma":"09:00 - 13:30, 15:30 - 19:30","di":"09:00 - 13:30, 15:30 - 19:30","wo":"09:00 - 13:30, 15:30 - 19:30","do":"09:00 - 13:30, 15:30 - 19:30","vr":"09:00 - 13:30, 15:30 - 19:30","za":"09:00 - 13:30, 15:30 - 19:30","zo":"gesloten"}}},{"type":"Feature","geometry":{"type":"Point","coordinates":[12.7114303426,41.8640778145]},"properties":{"type":"pakketpunt","locatieNaam":"Black Caffé","straatNaam":"VIA CASILINA","straatNr":"500","vervoerder":"DPD","puntType":"pickup_point","bezettingsgraad":50,"latitude":41.8640778145,"longitude":12.7114303426,"canPickup":true,"canDropoff":true,"openingstijden":{"ma":"05:00 - 21:00","di":"05:00 - 21:00","wo":"05:00 - 21:00","do":"05:00 - 21:00","vr":"05:00 - 21:00","za":"05:00 - 21:00","zo":"07:00 - 13:00"}}},{"type":"Feature","geometry":{"type":"Point","coordinates":[12.73719,41.8077]},"properties":{"type":"pakketpunt","locatieNaam":"InPost Point","straatNaam":"Via Campo Gillaro","straatNr":"11","vervoerder":"InPost","puntType":"servicepunt","bezettingsgraad":50,"latitude":41.8077,"longitude":12.73719,"canPickup":true,"canDropoff":true,"openingstijden":"Lun-Ven: 09:00 - 13:00 - 16:30 - 19:30 Sab: 09:00 - 13:00"}},{"type":"Feature","geometry":{"type":"Point","coordinates":[12.7321197,41.7883649]},"properties":{"type":"pakketpunt","locatieNaam":"Bar pizzeria hollywood","straatNaam":"Via Tuscolana Km 27","straatNr":"SNC","vervoerder":"GLS","puntType":"parcel_shop","bezettingsgraad":50,"latitude":41.7883649,"longitude":12.7321197,"canPickup":true,"canDropoff":true,"openingstijden":"za: 07:00 - 12:00, 12:00 - 23:30; zo: 07:00 - 12:00, 12:00 - 23:30"}},{"type":"Feature","geometry":{"type":"Point","coordinates":[12.7372069,41.8074666]},"properties":{"type":"pakketpunt","locatieNaam":"Casali Elettrodomestici","straatNaam":"Via Campo Gillaro","straatNr":"11","vervoerder":"GLS","puntType":"parcel_shop","bezettingsgraad":50,"latitude":41.8074666,"longitude":12.7372069,"canPickup":true,"canDropoff":true,"openingstijden":"za: 09:00 - 13:00; ma: 09:00 - 13:00, 16:30 - 19:30"}},{"type":"Feature","geometry":{"type":"Point","coordinates":[12.7354175,41.8490318]},"properties":{"type":"pakketpunt","locatieNaam":"TOP SVAPO","straatNaam":"Via Casilina","straatNr":"3300","vervoerder":"GLS","puntType":"parcel_shop","bezettingsgraad":50,"latitude":41.8490318,"longitude":12.7354175,"canPickup":true,"canDropoff":true,"openingstijden":"za: 09:00 - 13:30, 15:30 - 19:30; ma: 09:00 - 13:30, 15:30 - 19:30"}},{"type":"Feature","geometry":{"type":"Point","coordinates":[12.7115347,41.8641758]},"properties":{"type":"pakketpunt","locatieNaam":"BLACK CAFFE'","straatNaam":"Via Casilina","straatNr":"500","vervoerder":"GLS","puntType":"parcel_shop","bezettingsgraad":50,"latitude":41.8641758,"longitude":12.7115347,"canPickup":true,"canDropoff":true,"openingstijden":"za: 07:00 - 20:30; zo: 07:00 - 13:00"}},{"type":"Feature","geometry":{"type":"Point","coordinates":[12.737647,41.806142]},"properties":{"type":"pakketpunt","locatieNaam":"Ufficio Postale MONTECOMPATRI","straatNaam":"VIA ALFREDO SERRANTI 6","straatNr":"","vervoerder":"DHL","puntType":"postOffice","bezettingsgraad":50,"latitude":41.806142,"longitude":12.737647,"canPickup":true,"canDropoff":true,"openingstijden":{"ma":"08:20 - 13:35","di":"08:20 - 13:35","wo":"08:20 - 13:35","do":"08:20 - 13:35","vr":"08:20 - 13:35","za":"08:20 - 12:35","zo":"gesloten"}}},{"type":"Feature","geometry":{"type":"Point","coordinates":[12.736048,41.807597]},"properties":{"type":"pakketpunt","locatieNaam":"TABACCHERIA N. 2","straatNaam":"VIA LEANDRO CIUFFA 9","straatNr":"","vervoerder":"DHL","puntType":"parcelShop","bezettingsgraad":50,"latitude":41.807597,"longitude":12.736048,"canPickup":true,"canDropoff":true,"openingstijden":{"ma":"08:00 - 13:00, 16:00 - 20:00","di":"08:00 - 13:00, 16:00 - 20:00","wo":"08:00 - 13:00, 16:00 - 20:00","do":"08:00 - 13:00, 16:00 - 20:00","vr":"08:00 - 13:00, 16:00 - 20:00","za":"08:00 - 13:00, 16:00 - 20:00","zo":"gesloten"}}},{"type":"Feature","geometry":{"type":"Point","coordinates":[12.70588,41.865261]},"properties":{"type":"pakketpunt","locatieNaam":"TABACCHERIA N. 8","straatNaam":"VIA CASILINA 8","straatNr":"","vervoerder":"DHL","puntType":"parcelShop","bezettingsgraad":50,"latitude":41.865261,"longitude":12.70588,"canPickup":true,"canDropoff":true,"openingstijden":{"ma":"05:30 - 20:00","di":"05:30 - 20:00","wo":"05:30 - 20:00","do":"05:30 - 20:00","vr":"05:30 - 20:00","za":"05:30 - 20:00","zo":"05:30 - 13:30"}}},{"type":"Feature","geometry":{"type":"Point","coordinates":[12.73668,41.848978]},"properties":{"type":"pakketpunt","locatieNaam":"Ufficio Postale LAGHETTO DI MONTECO","straatNaam":"VIA CASILINA KM 23,600","straatNr":"","vervoerder":"DHL","puntType":"postOffice","bezettingsgraad":50,"latitude":41.848978,"longitude":12.73668,"canPickup":true,"canDropoff":true,"openingstijden":{"ma":"08:20 - 13:35","di":"08:20 - 13:35","wo":"08:20 - 13:35","do":"08:20 - 13:35","vr":"08:20 - 13:35","za":"08:20 - 12:35","zo":"gesloten"}}},{"type":"Feature","geometry":{"type":"Point","coordinates":[12.737849,41.808133]},"properties":{"type":"pakketpunt","locatieNaam":"TABACCHERIA n. 1","straatNaam":"PIAZZA GIACOMO MATTEOTTI 2","straatNr":"","vervoerder":"DHL","puntType":"parcelShop","bezettingsgraad":50,"latitude":41.808133,"longitude":12.737849,"canPickup":true,"canDropoff":true,"openingstijden":{"ma":"08:00 - 13:10, 16:00 - 19:40","di":"08:00 - 13:10, 16:00 - 19:40","wo":"08:00 - 13:10, 16:00 - 19:40","do":"08:00 - 13:10, 16:00 - 19:40","vr":"08:00 - 13:10, 16:00 - 19:40","za":"08:00 - 13:10, 16:00 - 19:40","zo":"gesloten"}}},{"type":"Feature","geometry":{"type":"Point","coordinates":[12.732141,41.788788]},"properties":{"type":"pakketpunt","locatieNaam":"Amazon Counter - Bar pizzeria Hollywood","straatNaam":"Via Tuscolana, Km. 27","straatNr":"","vervoerder":"Amazon","puntType":"helix","bezettingsgraad":50,"latitude":41.788788,"longitude":12.732141,"canPickup":true,"canDropoff":false,"openingstijden":null}},{"type":"Feature","geometry":{"type":"Point","coordinates":[12.740074,41.805145]},"properties":{"type":"pakketpunt","locatieNaam":"Amazon Locker - villelma","straatNaam":"Supermercato Todis Montecompatri","straatNr":"","vervoerder":"Amazon","puntType":"locker","bezettingsgraad":50,"latitude":41.805145,"longitude":12.740074,"canPickup":true,"canDropoff":false,"openingstijden":null}},{"type":"Feature","geometry":{"type":"Point","coordinates":[12.737481,41.807709]},"properties":{"type":"pakketpunt","locatieNaam":"Amazon Counter","straatNaam":"Casali Elettrodomestici (fermopoint)","straatNr":"","vervoerder":"Amazon","puntType":"helix","bezettingsgraad":50,"latitude":41.807709,"longitude":12.737481,"canPickup":true,"canDropoff":false,"openingstijden":null}},{"type":"Feature","geometry":{"type":"Point","coordinates":[12.7354135,41.8490738]},"properties":{"type":"pakketpunt","locatieNaam":"Amazon Counter (fermopoint)","straatNaam":"Top Svapo","straatNr":"","vervoerder":"Amazon","puntType":"helix","bezettingsgraad":50,"latitude":41.8490738,"longitude":12.7354135,"canPickup":true,"canDropoff":false,"openingstijden":null}},{"type":"Feature","geometry":{"type":"Point","coordinates":[12.7369,41.848735]},"properties":{"type":"pakketpunt","locatieNaam":"Amazon Counter - BAR LA DOLCE VITA","straatNaam":"VIA CASILINA KM 23 M 400 SNC","straatNr":"","vervoerder":"Amazon","puntType":"helix","bezettingsgraad":50,"latitude":41.848735,"longitude":12.7369,"canPickup":true,"canDropoff":false,"openingstijden":null}},{"type":"Feature","geometry":{"type":"Point","coordinates":[12.735414,41.8490777]},"properties":{"type":"pakketpunt","locatieNaam":"Amazon Counter - Top svapo","straatNaam":"Via Casilina 3300","straatNr":"","vervoerder":"Amazon","puntType":"helix","bezettingsgraad":50,"latitude":41.8490777,"longitude":12.735414,"canPickup":true,"canDropoff":false,"openingstijden":null}},{"type":"Feature","geometry":{"type":"Point","coordinates":[12.7366,41.8489]},"properties":{"type":"pakketpunt","locatieNaam":"Ufficio Postale LAGHETTO DI MONTECOMPATRI","straatNaam":"VIA CASILINA KM 23,600","straatNr":"","vervoerder":"Amazon","puntType":"3p","bezettingsgraad":50,"latitude":41.8489,"longitude":12.7366,"canPickup":true,"canDropoff":false,"openingstijden":null}},{"type":"Feature","geometry":{"type":"MultiPolygon","coordinates":[[[[12.7117541,41.8378106],[12.7119066,41.8380512],[12.7130721,41.8389873],[12.7154167,41.8390609],[12.7150683,41.8399866],[12.7152878,41.840858],[12.7165509,41.8407248],[12.7166599,41.8401766],[12.7179224,41.8375814],[12.7211601,41.8379327],[12.7222005,41.8377556],[12.7234319,41.8377974],[12.7239005,41.8376731],[12.7242032,41.8373856],[12.7249745,41.8360535],[12.7250809,41.8354632],[12.7248975,41.8351221],[12.7249109,41.8343255],[12.7262525,41.8322533],[12.7262779,41.8316601],[12.7260865,41.8304937],[12.7261243,41.8302783],[12.7270816,41.8282349],[12.7274576,41.8276738],[12.7288492,41.8279267],[12.7286783,41.8282618],[12.7310373,41.8294022],[12.732476,41.8297905],[12.7331423,41.8285205],[12.7451126,41.8321198],[12.7469097,41.8325357],[12.7503736,41.8316121],[12.7573666,41.8208258],[12.7593203,41.8190635],[12.760216,41.8175449],[12.7604884,41.8155292],[12.7603654,41.814678],[12.7601532,41.8141301],[12.760417,41.812842],[12.7602967,41.8116996],[12.7603575,41.8115901],[12.7598561,41.809246],[12.7594977,41.8083267],[12.7596746,41.8073447],[12.7564902,41.8067846],[12.7470314,41.7984946],[12.7450821,41.7964197],[12.7382742,41.7870834],[12.738192,41.7865368],[12.7396165,41.7796712],[12.7299534,41.7829674],[12.7243019,41.7932557],[12.7234703,41.7973708],[12.7235123,41.7978872],[12.7243056,41.8006213],[12.7239294,41.8058202],[12.727497,41.8094367],[12.7279346,41.810341],[12.7254296,41.8209171],[12.723779,41.8257026],[12.7165161,41.833565],[12.7153803,41.8345645],[12.7149808,41.8353682],[12.7144215,41.8374816],[12.7117541,41.8378106]]],[[[12.7283495,41.8864646],[12.7274346,41.885434],[12.7273706,41.8836346],[12.7289314,41.8818792],[12.732868,41.8792094],[12.737916,41.8761708],[12.7399872,41.8762579],[12.7410512,41.8748005],[12.7406913,41.8736016],[12.7416824,41.8700481],[12.7435573,41.8675454],[12.7444231,41.865865],[12.7447572,41.8646633],[12.7452962,41.8633014],[12.7444666,41.8613276],[12.7449895,41.8606876],[12.7449895,41.8601547],[12.7452791,41.859368],[12.7448743,41.856454],[12.7426467,41.8503269],[12.7409482,41.8472441],[12.7400754,41.8461886],[12.738975,41.8427197],[12.73865,41.8421919],[12.7381727,41.8418749],[12.7381077,41.8427119],[12.7367207,41.8427019],[12.7354889,41.8454511],[12.7345827,41.8468874],[12.7339974,41.8474604],[12.7326835,41.8479844],[12.7316296,41.8479581],[12.7301791,41.8483731],[12.7274942,41.8495856],[12.7276344,41.8505694],[12.7275847,41.8511926],[12.7273443,41.8522128],[12.7269249,41.8523846],[12.7261311,41.8528763],[12.7254277,41.8534299],[12.7231584,41.8546754],[12.7224815,41.8548533],[12.7214944,41.8553736],[12.7206992,41.8559395],[12.7207395,41.856921],[12.7204078,41.8578304],[12.7201954,41.8583542],[12.7198371,41.8588583],[12.7194289,41.8591987],[12.7184955,41.8597517],[12.718071,41.85958],[12.717074,41.859415],[12.7166879,41.8598952],[12.715393,41.8593649],[12.7075444,41.8640741],[12.7059057,41.8649718],[12.7051504,41.866308],[12.7036355,41.8746169],[12.7011486,41.8790207],[12.6991477,41.8823195],[12.6994059,41.8873068],[12.697432,41.8904464],[12.6975514,41.8907077],[12.6985068,41.890102],[12.699649,41.8897487],[12.7007883,41.8892252],[12.7045785,41.8887516],[12.7052436,41.888549],[12.7053522,41.8905493],[12.7200351,41.8871487],[12.7232918,41.8867115],[12.7263408,41.8866887],[12.7283495,41.8864646]]],[[[12.7379885,41.8392293],[12.7403924,41.8387425],[12.741027,41.8391897],[12.7405231,41.8395204],[12.7403155,41.8395023],[12.7396188,41.8400955],[12.7401448,41.8404175],[12.7408592,41.8407601],[12.7422293,41.8410053],[12.7436093,41.8415804],[12.7456266,41.841877],[12.7460679,41.8400579],[12.7461843,41.8386944],[12.7467549,41.8371519],[12.7471375,41.8357853],[12.746474,41.8352118],[12.745901,41.8343827],[12.7444943,41.8341454],[12.7438838,41.8342245],[12.7426363,41.8346596],[12.7406318,41.833751],[12.7414737,41.8322953],[12.7405256,41.8321194],[12.7395557,41.8339202],[12.739126,41.8352313],[12.7396046,41.8354341],[12.7395201,41.8357767],[12.7398841,41.8359396],[12.7386044,41.8377271],[12.7379885,41.8392293]]]]},"properties":{"type":"boundary","gemeente":"Monte Compatri"}}]}