{"type":"FeatureCollection","metadata":{"gemeente":"Monte San Vito","slug":"monte-san-vito","generated_at":"2026-09-26T13:10:13.308490Z","total_points":12,"providers":["PosteItaliane","DPD","DHL","Amazon"],"bounds":[13.2708,43.5856242,13.308866,43.600749]},"features":[{"type":"Feature","geometry":{"type":"Point","coordinates":[13.27084991,43.6001672]},"properties":{"type":"pakketpunt","locatieNaam":"Tabaccheria N. 1","straatNaam":"Piazza Della Repubblica","straatNr":"5","vervoerder":"PosteItaliane","puntType":"servicepunt","bezettingsgraad":50,"latitude":43.6001672,"longitude":13.27084991,"canPickup":true,"canDropoff":true,"openingstijden":{"za":"07:30 - 13:00, 15:30 - 20:00","zo":"07:30 - 13:00","ma":"07:30 - 13:00, 15:30 - 20:00","di":"07:30 - 13:00, 15:30 - 20:00","wo":"07:30 - 13:00, 15:30 - 20:00","do":"07:30 - 13:00, 15:30 - 20:00","vr":"07:30 - 13:00, 15:30 - 20:00"}}},{"type":"Feature","geometry":{"type":"Point","coordinates":[13.29902292,43.59460169]},"properties":{"type":"pakketpunt","locatieNaam":"Tabaccheria N. 3","straatNaam":"Via Selva","straatNr":"47","vervoerder":"PosteItaliane","puntType":"servicepunt","bezettingsgraad":50,"latitude":43.59460169,"longitude":13.29902292,"canPickup":true,"canDropoff":true,"openingstijden":{"za":"06:00 - 20:00","zo":"07:00 - 13:00","ma":"06:00 - 20:00","di":"06:00 - 20:00","wo":"06:00 - 20:00","do":"06:00 - 20:00","vr":"06:00 - 20:00"}}},{"type":"Feature","geometry":{"type":"Point","coordinates":[13.27131551,43.60074895]},"properties":{"type":"pakketpunt","locatieNaam":"Monte San Vito","straatNaam":"Piazza Della Repubblica","straatNr":"24","vervoerder":"PosteItaliane","puntType":"postkantoor","bezettingsgraad":50,"latitude":43.60074895,"longitude":13.27131551,"canPickup":true,"canDropoff":true,"openingstijden":{"za":"08:20 - 12:35","zo":"gesloten","ma":"08:20 - 13:35","di":"08:20 - 13:35","wo":"08:20 - 13:35","do":"08:20 - 13:35","vr":"08:20 - 13:35"}}},{"type":"Feature","geometry":{"type":"Point","coordinates":[13.29906703,43.59468793]},"properties":{"type":"pakketpunt","locatieNaam":"Tabaccheria Edicola Pietropaolo","straatNaam":"VIA SELVA","straatNr":"47","vervoerder":"DPD","puntType":"pickup_point","bezettingsgraad":50,"latitude":43.59468793,"longitude":13.29906703,"canPickup":true,"canDropoff":true,"openingstijden":{"ma":"06:00 - 13:00, 15:30 - 20:00","di":"06:00 - 13:00, 15:30 - 20:00","wo":"06:00 - 13:00, 15:30 - 20:00","do":"06:00 - 13:00, 15:30 - 20:00","vr":"06:00 - 13:00, 15:30 - 20:00","za":"06:00 - 13:00, 15:30 - 20:00","zo":"06:30 - 13:00"}}},{"type":"Feature","geometry":{"type":"Point","coordinates":[13.27085,43.600167]},"properties":{"type":"pakketpunt","locatieNaam":"TABACCHERIA N. 1","straatNaam":"PIAZZA DELLA REPUBBLICA 5","straatNr":"","vervoerder":"DHL","puntType":"parcelShop","bezettingsgraad":50,"latitude":43.600167,"longitude":13.27085,"canPickup":true,"canDropoff":true,"openingstijden":{"ma":"07:30 - 13:00, 15:30 - 20:00","di":"07:30 - 13:00, 15:30 - 20:00","wo":"07:30 - 13:00, 15:30 - 20:00","do":"07:30 - 13:00, 15:30 - 20:00","vr":"07:30 - 13:00, 15:30 - 20:00","za":"07:30 - 13:00, 15:30 - 20:00","zo":"07:30 - 13:00"}}},{"type":"Feature","geometry":{"type":"Point","coordinates":[13.271316,43.600749]},"properties":{"type":"pakketpunt","locatieNaam":"Ufficio Postale MONTE SAN VITO","straatNaam":"PIAZZA DELLA REPUBBLICA 24","straatNr":"","vervoerder":"DHL","puntType":"postOffice","bezettingsgraad":50,"latitude":43.600749,"longitude":13.271316,"canPickup":true,"canDropoff":true,"openingstijden":{"ma":"08:20 - 13:35","di":"08:20 - 13:35","wo":"08:20 - 13:35","do":"08:20 - 13:35","vr":"08:20 - 13:35","za":"08:20 - 12:35","zo":"gesloten"}}},{"type":"Feature","geometry":{"type":"Point","coordinates":[13.299023,43.594602]},"properties":{"type":"pakketpunt","locatieNaam":"TABACCHERIA n. 3","straatNaam":"VIA SELVA 47","straatNr":"","vervoerder":"DHL","puntType":"parcelShop","bezettingsgraad":50,"latitude":43.594602,"longitude":13.299023,"canPickup":true,"canDropoff":true,"openingstijden":{"ma":"06:00 - 20:00","di":"06:00 - 20:00","wo":"06:00 - 20:00","do":"06:00 - 20:00","vr":"06:00 - 20:00","za":"06:00 - 20:00","zo":"07:00 - 13:00"}}},{"type":"Feature","geometry":{"type":"Point","coordinates":[13.2989216,43.5946412]},"properties":{"type":"pakketpunt","locatieNaam":"Amazon Counter (fermopoint)","straatNaam":"Tabaccheria Edicola Pietropaolo","straatNr":"","vervoerder":"Amazon","puntType":"helix","bezettingsgraad":50,"latitude":43.5946412,"longitude":13.2989216,"canPickup":true,"canDropoff":false,"openingstijden":null}},{"type":"Feature","geometry":{"type":"Point","coordinates":[13.299,43.5946]},"properties":{"type":"pakketpunt","locatieNaam":"PuntoPoste TABACCHERIA n. 3","straatNaam":"VIA SELVA 47","straatNr":"","vervoerder":"Amazon","puntType":"3p","bezettingsgraad":50,"latitude":43.5946,"longitude":13.299,"canPickup":true,"canDropoff":false,"openingstijden":null}},{"type":"Feature","geometry":{"type":"Point","coordinates":[13.2708,43.6001]},"properties":{"type":"pakketpunt","locatieNaam":"PuntoPoste TABACCHERIA N. 1","straatNaam":"PIAZZA DELLA REPUBBLICA 5","straatNr":"","vervoerder":"Amazon","puntType":"3p","bezettingsgraad":50,"latitude":43.6001,"longitude":13.2708,"canPickup":true,"canDropoff":false,"openingstijden":null}},{"type":"Feature","geometry":{"type":"Point","coordinates":[13.2713,43.6007]},"properties":{"type":"pakketpunt","locatieNaam":"Ufficio Postale MONTE SAN VITO","straatNaam":"PIAZZA DELLA REPUBBLICA 24","straatNr":"","vervoerder":"Amazon","puntType":"3p","bezettingsgraad":50,"latitude":43.6007,"longitude":13.2713,"canPickup":true,"canDropoff":false,"openingstijden":null}},{"type":"Feature","geometry":{"type":"Point","coordinates":[13.308866,43.5856242]},"properties":{"type":"pakketpunt","locatieNaam":"Amazon Locker - gilio","straatNaam":"Stazione Tamoil - PV 7302","straatNr":"","vervoerder":"Amazon","puntType":"locker","bezettingsgraad":50,"latitude":43.5856242,"longitude":13.308866,"canPickup":true,"canDropoff":false,"openingstijden":null}},{"type":"Feature","geometry":{"type":"Polygon","coordinates":[[[13.2450659,43.5906132],[13.2465671,43.590002],[13.2483972,43.5889693],[13.2488832,43.588528],[13.2506571,43.5875572],[13.2521341,43.5874256],[13.2526272,43.5875243],[13.2528519,43.5874182],[13.2529222,43.5871671],[13.253118,43.5870332],[13.2534981,43.5870152],[13.2540325,43.5871588],[13.2545022,43.5870281],[13.2549833,43.586817],[13.2552334,43.5863628],[13.2557433,43.5861666],[13.2558732,43.5859515],[13.2563788,43.5857787],[13.2571752,43.585768],[13.2576123,43.5854635],[13.2580604,43.5853681],[13.2588844,43.5854248],[13.2592376,43.5852407],[13.2628589,43.5849143],[13.2653014,43.5844269],[13.267144,43.5842995],[13.2678507,43.5844008],[13.2681456,43.5846881],[13.268398,43.5855389],[13.2686663,43.585688],[13.2705283,43.5857711],[13.2711056,43.5859342],[13.2721528,43.5860774],[13.2731093,43.5859444],[13.2734014,43.5855767],[13.2738006,43.5855629],[13.2743421,43.58534],[13.2766262,43.5851509],[13.2774279,43.5852784],[13.2778027,43.5852374],[13.279784,43.5843168],[13.2805409,43.5837501],[13.2811898,43.583877],[13.281849,43.5846806],[13.2824398,43.5849599],[13.2828622,43.5849351],[13.2831069,43.5851104],[13.2831945,43.5854718],[13.283524,43.5856214],[13.2846239,43.5848914],[13.2854742,43.5850486],[13.2864762,43.585119],[13.2871374,43.5848375],[13.2879979,43.5846161],[13.2884434,43.5846984],[13.2891035,43.5850112],[13.2895619,43.585057],[13.2898473,43.5849788],[13.2903563,43.5844735],[13.2906297,43.5844857],[13.2908886,43.5849486],[13.2912917,43.5852171],[13.2922046,43.5853403],[13.2931479,43.5852823],[13.2933965,43.5851649],[13.2931151,43.5846038],[13.2933199,43.5843935],[13.2944638,43.584283],[13.2952055,43.5838724],[13.2963499,43.5836808],[13.2966309,43.5838008],[13.2966332,43.5842238],[13.2975466,43.5843109],[13.2982031,43.5847904],[13.2983447,43.5849966],[13.2986027,43.5850544],[13.2988531,43.5850045],[13.2991049,43.5848014],[13.2994239,43.5840647],[13.2994798,43.583806],[13.2992322,43.5833742],[13.2996128,43.5826756],[13.2994799,43.5816363],[13.3002244,43.5811356],[13.3009781,43.5811117],[13.3014846,43.5803994],[13.302631,43.5796314],[13.3030761,43.5795989],[13.3046859,43.5801391],[13.3051471,43.5800947],[13.3062006,43.5795868],[13.3069664,43.5796885],[13.3072024,43.579612],[13.3078953,43.5796039],[13.3082157,43.5796683],[13.3083613,43.5798429],[13.308356,43.5804192],[13.3084742,43.5805993],[13.3088549,43.5808145],[13.3102762,43.5809049],[13.3111525,43.5814255],[13.3114363,43.5814553],[13.3120231,43.5813476],[13.3127883,43.5814402],[13.3134811,43.5818641],[13.3138669,43.5822367],[13.3145912,43.5824929],[13.3152362,43.5828961],[13.3155814,43.5837833],[13.3157473,43.5845873],[13.3159512,43.5847102],[13.3164944,43.5848156],[13.3165639,43.5850516],[13.3165268,43.5854851],[13.3166608,43.5855836],[13.3176767,43.5855452],[13.3178172,43.5858639],[13.3178051,43.586256],[13.3180002,43.5863432],[13.3185813,43.5859836],[13.3188166,43.5859837],[13.319701,43.5862698],[13.3200732,43.5866248],[13.3204065,43.5876025],[13.3203412,43.5882037],[13.3196649,43.5888775],[13.3174912,43.591386],[13.3172078,43.5917523],[13.3169099,43.5925649],[13.316878,43.5928542],[13.3169565,43.5932158],[13.3171096,43.5934081],[13.3176853,43.5939954],[13.3185182,43.5944038],[13.3151896,43.5947918],[13.3178517,43.5968506],[13.3179959,43.5969396],[13.3184764,43.5966874],[13.3187801,43.597064],[13.31259,43.5974375],[13.3125807,43.5978855],[13.3130986,43.5994663],[13.3132523,43.5995251],[13.3133287,43.5997621],[13.3134417,43.5998182],[13.3136759,43.5996904],[13.3139644,43.5993304],[13.3142642,43.599373],[13.3144731,43.5997825],[13.3145436,43.6001449],[13.314352,43.6004894],[13.3139736,43.6008132],[13.3123317,43.6017483],[13.31187,43.6020745],[13.3110098,43.602902],[13.3108204,43.6028549],[13.3107048,43.6027219],[13.3107425,43.6025246],[13.3114151,43.6014383],[13.3112583,43.6011359],[13.3101733,43.6010191],[13.3095256,43.6012994],[13.308557,43.6026779],[13.3083124,43.6026894],[13.3078954,43.6024367],[13.3075769,43.6023429],[13.3072432,43.6023482],[13.3059439,43.6026471],[13.3037797,43.6027074],[13.3036117,43.6029568],[13.3034743,43.6034616],[13.3032549,43.6037715],[13.3029647,43.603958],[13.301928,43.6042311],[13.3012852,43.6045975],[13.3003507,43.6043491],[13.2995114,43.6042637],[13.2968892,43.6044975],[13.2962415,43.604666],[13.2948816,43.6054014],[13.2931297,43.6060705],[13.2919048,43.6072239],[13.2916764,43.6079302],[13.2911243,43.6090943],[13.2906725,43.6105788],[13.2900408,43.6114083],[13.2896105,43.6117171],[13.2886494,43.6120098],[13.2878919,43.6124209],[13.2863202,43.61284],[13.28594,43.6131559],[13.2851447,43.6135594],[13.284522,43.6137763],[13.2831027,43.6139872],[13.2820805,43.6150338],[13.2814417,43.6152424],[13.2811776,43.6163641],[13.2808941,43.6166899],[13.2805316,43.6169083],[13.2796113,43.6177328],[13.2789497,43.6188425],[13.2784591,43.6186088],[13.2776438,43.6185133],[13.2770403,43.6187835],[13.2766055,43.6193355],[13.2765697,43.6196609],[13.276661,43.6199861],[13.2763375,43.6204484],[13.2769062,43.6209087],[13.2772662,43.6213543],[13.2781041,43.6218541],[13.2787678,43.6226485],[13.2800349,43.6246086],[13.280381,43.6255544],[13.2804566,43.6259207],[13.280404,43.6264448],[13.2805328,43.6266875],[13.2811315,43.6270027],[13.2821748,43.6273822],[13.2822221,43.6275244],[13.2815616,43.6276483],[13.2821308,43.6285497],[13.2816267,43.6292168],[13.2804159,43.6303606],[13.2800546,43.6305092],[13.2792304,43.6306391],[13.2785911,43.6312798],[13.278316,43.6314206],[13.2773168,43.631269],[13.2767963,43.6312705],[13.2763981,43.631335],[13.2753451,43.6317796],[13.274606,43.6311456],[13.2740444,43.6303924],[13.2737413,43.6297465],[13.2730593,43.6276024],[13.2727275,43.6270746],[13.2727289,43.6265704],[13.272174,43.6251687],[13.2720773,43.6246367],[13.2721847,43.6244031],[13.2726522,43.624093],[13.2728483,43.623712],[13.2731043,43.6230408],[13.2731006,43.6226403],[13.2724182,43.6222787],[13.2719863,43.6222183],[13.2716976,43.6222967],[13.2713037,43.62264],[13.2704362,43.6230776],[13.2697149,43.6236538],[13.2691751,43.623863],[13.2687867,43.6244583],[13.2687387,43.6248742],[13.2683729,43.6250454],[13.2675543,43.6250805],[13.2672035,43.6252017],[13.2669278,43.6261213],[13.2665476,43.6263966],[13.2657165,43.6264727],[13.2655264,43.6266328],[13.2650341,43.6273805],[13.2649226,43.6277312],[13.2652931,43.6281945],[13.2651405,43.6283578],[13.2637294,43.6291713],[13.2632231,43.6303785],[13.2628512,43.6307453],[13.261728,43.630877],[13.2614802,43.6310548],[13.2612289,43.6321051],[13.2607635,43.632271],[13.2605504,43.6321232],[13.2595676,43.6318148],[13.2586398,43.6316398],[13.2578675,43.6313258],[13.256489,43.6309811],[13.2559673,43.6309645],[13.2553426,43.6311138],[13.2548715,43.63155],[13.2541825,43.6310086],[13.254724,43.6306913],[13.2530426,43.6296106],[13.2525974,43.6292378],[13.2501409,43.6278221],[13.2490559,43.6270145],[13.2489069,43.6254659],[13.2483677,43.6254841],[13.2474683,43.6250438],[13.246775,43.624834],[13.2463007,43.624523],[13.2458532,43.6241075],[13.2433069,43.6221811],[13.2427684,43.6210893],[13.2423488,43.6206469],[13.2420368,43.6205307],[13.2422733,43.6198744],[13.2429329,43.6188284],[13.2430547,43.618493],[13.2414745,43.6166302],[13.2414108,43.6162422],[13.2408175,43.6156719],[13.2389285,43.6146564],[13.2388308,43.6143001],[13.238578,43.6138897],[13.2382287,43.6135921],[13.2402606,43.6134119],[13.2408565,43.6123286],[13.2394797,43.6119116],[13.2399683,43.6104035],[13.2405465,43.6097293],[13.2410515,43.6094224],[13.2430422,43.6087047],[13.2433472,43.6085043],[13.2435106,43.607967],[13.2435528,43.6068941],[13.243731,43.6063023],[13.2441726,43.6056242],[13.2445577,43.6047591],[13.2446171,43.6044148],[13.2445646,43.6040656],[13.2439247,43.602676],[13.2436277,43.6021964],[13.2432028,43.6006052],[13.2431928,43.6001104],[13.2434773,43.5997532],[13.243625,43.5993876],[13.2428003,43.598671],[13.2425481,43.5979917],[13.2411538,43.5956937],[13.2411046,43.5952139],[13.2413349,43.5941745],[13.2415881,43.5935034],[13.2421996,43.5924679],[13.2431231,43.5914657],[13.2436302,43.5910597],[13.2443568,43.5907356],[13.2450659,43.5906132]]]},"properties":{"type":"boundary","gemeente":"Monte San Vito"}}]}