{"type":"FeatureCollection","metadata":{"gemeente":"Monterosi","slug":"monterosi","generated_at":"2026-09-26T13:10:14.584278Z","total_points":7,"providers":["PosteItaliane","DPD","GLS","DHL","Amazon"],"bounds":[12.3060592,42.195452,12.30980115,42.2053021]},"features":[{"type":"Feature","geometry":{"type":"Point","coordinates":[12.30980115,42.19545246]},"properties":{"type":"pakketpunt","locatieNaam":"Monterosi","straatNaam":"Via Roma","straatNr":"64","vervoerder":"PosteItaliane","puntType":"postkantoor","bezettingsgraad":50,"latitude":42.19545246,"longitude":12.30980115,"canPickup":true,"canDropoff":true,"openingstijden":{"za":"08:20 - 12:35","zo":"gesloten","ma":"gesloten","di":"08:20 - 13:35","wo":"08:20 - 13:35","do":"08:20 - 13:35","vr":"08:20 - 13:35"}}},{"type":"Feature","geometry":{"type":"Point","coordinates":[12.3060592,42.2052957]},"properties":{"type":"pakketpunt","locatieNaam":"I Miei Amici Animali","straatNaam":"VIA CIMINA","straatNr":"29","vervoerder":"DPD","puntType":"pickup_point","bezettingsgraad":50,"latitude":42.2052957,"longitude":12.3060592,"canPickup":true,"canDropoff":true,"openingstijden":{"ma":"09:00 - 13:00, 16:00 - 19:00","di":"09:00 - 13:00, 16:00 - 19:00","wo":"09:00 - 13:00, 16:00 - 19:00","do":"09:00 - 13:00, 16:00 - 19:00","vr":"09:00 - 13:00, 16:00 - 19:00","za":"09:00 - 13:00, 16:00 - 19:00","zo":"gesloten"}}},{"type":"Feature","geometry":{"type":"Point","coordinates":[12.3060592,42.2052957]},"properties":{"type":"pakketpunt","locatieNaam":"Imieiamicianimali","straatNaam":"Via Cimina","straatNr":"29","vervoerder":"GLS","puntType":"parcel_shop","bezettingsgraad":50,"latitude":42.2052957,"longitude":12.3060592,"canPickup":true,"canDropoff":true,"openingstijden":"za: 09:00 - 13:00, 16:00 - 19:00; ma: 09:00 - 13:00, 16:00 - 19:00"}},{"type":"Feature","geometry":{"type":"Point","coordinates":[12.309801,42.195452]},"properties":{"type":"pakketpunt","locatieNaam":"Ufficio Postale MONTEROSI","straatNaam":"VIA ROMA 64","straatNr":"","vervoerder":"DHL","puntType":"postOffice","bezettingsgraad":50,"latitude":42.195452,"longitude":12.309801,"canPickup":true,"canDropoff":true,"openingstijden":{"ma":"08:20 - 13:35","di":"08:20 - 13:35","wo":"08:20 - 13:35","do":"08:20 - 13:35","vr":"08:20 - 13:35","za":"08:20 - 12:35","zo":"gesloten"}}},{"type":"Feature","geometry":{"type":"Point","coordinates":[12.3077794,42.202247]},"properties":{"type":"pakketpunt","locatieNaam":"Amazon Locker - Paletta","straatNaam":"CR supermercati - Location EU 46","straatNr":"","vervoerder":"Amazon","puntType":"locker","bezettingsgraad":50,"latitude":42.202247,"longitude":12.3077794,"canPickup":true,"canDropoff":false,"openingstijden":null}},{"type":"Feature","geometry":{"type":"Point","coordinates":[12.309276,42.196156]},"properties":{"type":"pakketpunt","locatieNaam":"Amazon Counter - EASY FOOD AND DRINK S.R.L.","straatNaam":"VIA URBANO DEL DRAGO 11","straatNr":"","vervoerder":"Amazon","puntType":"helix","bezettingsgraad":50,"latitude":42.196156,"longitude":12.309276,"canPickup":true,"canDropoff":false,"openingstijden":null}},{"type":"Feature","geometry":{"type":"Point","coordinates":[12.3062409,42.2053021]},"properties":{"type":"pakketpunt","locatieNaam":"Amazon Counter (fermopoint)","straatNaam":"I Miei Amici Animali","straatNr":"","vervoerder":"Amazon","puntType":"helix","bezettingsgraad":50,"latitude":42.2053021,"longitude":12.3062409,"canPickup":true,"canDropoff":false,"openingstijden":null}},{"type":"Feature","geometry":{"type":"Polygon","coordinates":[[[12.2751415,42.1788606],[12.2789964,42.182394],[12.2876189,42.1926824],[12.2874046,42.1967496],[12.28654,42.1992102],[12.2876783,42.2010775],[12.2956375,42.2036448],[12.2985702,42.208549],[12.2994847,42.2096257],[12.3009107,42.2102329],[12.3014369,42.2103348],[12.3026374,42.2103633],[12.3038423,42.2099954],[12.3045881,42.2096632],[12.3058139,42.2087679],[12.3103521,42.2044678],[12.3125902,42.2016567],[12.3149098,42.1959662],[12.3151767,42.1950355],[12.3152268,42.1943723],[12.3147063,42.1885884],[12.3141204,42.1878039],[12.3131421,42.1862429],[12.3128101,42.1854511],[12.3113086,42.1798711],[12.3113128,42.1790245],[12.3128644,42.1725459],[12.3134486,42.170521],[12.3124586,42.1673259],[12.3075556,42.1606542],[12.3069084,42.1607899],[12.3059113,42.1611654],[12.300767,42.1644383],[12.3001496,42.1649018],[12.2973306,42.1685758],[12.2954244,42.1699768],[12.2919014,42.1720636],[12.2863446,42.1751451],[12.2857841,42.174828],[12.2852719,42.1743024],[12.2840987,42.173386],[12.2832174,42.1729655],[12.2787479,42.1722381],[12.2763639,42.1722657],[12.2744737,42.1727295],[12.273597,42.1733173],[12.2729963,42.1741089],[12.272817,42.1746227],[12.2729034,42.1753587],[12.2739392,42.1778504],[12.2751415,42.1788606]]]},"properties":{"type":"boundary","gemeente":"Monterosi"}}]}