{"type":"FeatureCollection","metadata":{"gemeente":"Mozzecane","slug":"mozzecane","generated_at":"2026-09-26T14:27:38.400813Z","total_points":13,"providers":["PosteItaliane","DPD","GLS","DHL","Amazon"],"bounds":[10.8143,45.3052,10.817782,45.3100453]},"features":[{"type":"Feature","geometry":{"type":"Point","coordinates":[10.81436996,45.30521576]},"properties":{"type":"pakketpunt","locatieNaam":"Tabaccheria N. 5","straatNaam":"Via Carlo Montanari","straatNr":"56/b","vervoerder":"PosteItaliane","puntType":"servicepunt","bezettingsgraad":50,"latitude":45.30521576,"longitude":10.81436996,"canPickup":true,"canDropoff":true,"openingstijden":{"za":"06:30 - 12:30, 15:30 - 19:30","zo":"gesloten","ma":"06:30 - 12:30, 15:30 - 19:30","di":"06:30 - 12:30, 15:30 - 19:30","wo":"06:30 - 12:30, 15:30 - 19:30","do":"06:30 - 12:30, 15:30 - 19:30","vr":"06:30 - 12:30, 15:30 - 19:30"}}},{"type":"Feature","geometry":{"type":"Point","coordinates":[10.81699905,45.30662945]},"properties":{"type":"pakketpunt","locatieNaam":"Mozzecane","straatNaam":"Viale Della Repubblica","straatNr":"17","vervoerder":"PosteItaliane","puntType":"postkantoor","bezettingsgraad":50,"latitude":45.30662945,"longitude":10.81699905,"canPickup":true,"canDropoff":true,"openingstijden":{"za":"08:20 - 12:35","zo":"gesloten","ma":"08:20 - 13:35","di":"08:20 - 13:35","wo":"08:20 - 13:35","do":"08:20 - 13:35","vr":"08:20 - 13:35"}}},{"type":"Feature","geometry":{"type":"Point","coordinates":[10.81688517,45.30844737]},"properties":{"type":"pakketpunt","locatieNaam":"Tabaccheria N. 1","straatNaam":"Via Carlo Montanari","straatNr":"14","vervoerder":"PosteItaliane","puntType":"servicepunt","bezettingsgraad":50,"latitude":45.30844737,"longitude":10.81688517,"canPickup":true,"canDropoff":true,"openingstijden":{"za":"07:30 - 13:00, 15:00 - 19:30","zo":"08:30 - 12:30","ma":"06:30 - 13:00, 15:00 - 19:30","di":"06:30 - 13:00, 15:00 - 19:30","wo":"06:30 - 13:00, 15:00 - 19:30","do":"06:30 - 13:00, 15:00 - 19:30","vr":"06:30 - 13:00, 15:00 - 19:30"}}},{"type":"Feature","geometry":{"type":"Point","coordinates":[10.81687046,45.30843886]},"properties":{"type":"pakketpunt","locatieNaam":"Tabaccheria Bonato","straatNaam":"VIA MONTANARI","straatNr":"14","vervoerder":"DPD","puntType":"pickup_point","bezettingsgraad":50,"latitude":45.30843886,"longitude":10.81687046,"canPickup":true,"canDropoff":true,"openingstijden":{"ma":"06:30 - 13:00, 15:00 - 19:30","di":"06:30 - 13:00, 15:00 - 19:30","wo":"06:30 - 13:00, 15:00 - 19:30","do":"06:30 - 13:00, 15:00 - 19:30","vr":"06:30 - 13:00, 15:00 - 19:30","za":"06:30 - 13:00, 15:00 - 19:30","zo":"08:30 - 12:00"}}},{"type":"Feature","geometry":{"type":"Point","coordinates":[10.8176936,45.3099024]},"properties":{"type":"pakketpunt","locatieNaam":"edicola, cartoleria","straatNaam":"Via C.Bon Brenzoni","straatNr":"21","vervoerder":"GLS","puntType":"parcel_shop","bezettingsgraad":50,"latitude":45.3099024,"longitude":10.8176936,"canPickup":true,"canDropoff":true,"openingstijden":"za: 06:30 - 12:30; zo: 06:30 - 12:00"}},{"type":"Feature","geometry":{"type":"Point","coordinates":[10.817782,45.309899]},"properties":{"type":"pakketpunt","locatieNaam":"EDICOLA-CARTASHOP DI SINGH","straatNaam":"Via C.b. Brenzoni, 21","straatNr":"","vervoerder":"DHL","puntType":"parcelShop","bezettingsgraad":50,"latitude":45.309899,"longitude":10.817782,"canPickup":false,"canDropoff":true,"openingstijden":{"ma":"06:30 - 19:30","di":"06:30 - 19:30","wo":"06:30 - 19:30","do":"06:30 - 19:30","vr":"06:30 - 19:30","za":"gesloten","zo":"gesloten"}}},{"type":"Feature","geometry":{"type":"Point","coordinates":[10.816885,45.308447]},"properties":{"type":"pakketpunt","locatieNaam":"TABACCHERIA N. 1","straatNaam":"VIA CARLO MONTANARI 14","straatNr":"","vervoerder":"DHL","puntType":"parcelShop","bezettingsgraad":50,"latitude":45.308447,"longitude":10.816885,"canPickup":true,"canDropoff":true,"openingstijden":{"ma":"06:30 - 13:00, 15:00 - 19:30","di":"06:30 - 13:00, 15:00 - 19:30","wo":"06:30 - 13:00, 15:00 - 19:30","do":"06:30 - 13:00, 15:00 - 19:30","vr":"06:30 - 13:00, 15:00 - 19:30","za":"07:30 - 13:00, 15:00 - 19:30","zo":"08:30 - 12:30"}}},{"type":"Feature","geometry":{"type":"Point","coordinates":[10.81437,45.305216]},"properties":{"type":"pakketpunt","locatieNaam":"TABACCHERIA N. 5","straatNaam":"VIA CARLO MONTANARI 56-B","straatNr":"","vervoerder":"DHL","puntType":"parcelShop","bezettingsgraad":50,"latitude":45.305216,"longitude":10.81437,"canPickup":true,"canDropoff":true,"openingstijden":{"ma":"06:30 - 12:30, 15:30 - 19:30","di":"06:30 - 12:30, 15:30 - 19:30","wo":"06:30 - 12:30, 15:30 - 19:30","do":"06:30 - 12:30, 15:30 - 19:30","vr":"06:30 - 12:30, 15:30 - 19:30","za":"06:30 - 12:30, 15:30 - 19:30","zo":"gesloten"}}},{"type":"Feature","geometry":{"type":"Point","coordinates":[10.816999,45.306629]},"properties":{"type":"pakketpunt","locatieNaam":"Ufficio Postale MOZZECANE","straatNaam":"VIALE DELLA REPUBBLICA 17","straatNr":"","vervoerder":"DHL","puntType":"postOffice","bezettingsgraad":50,"latitude":45.306629,"longitude":10.816999,"canPickup":true,"canDropoff":true,"openingstijden":{"ma":"08:20 - 13:35","di":"08:20 - 13:35","wo":"08:20 - 13:35","do":"08:20 - 13:35","vr":"08:20 - 13:35","za":"08:20 - 12:35","zo":"gesloten"}}},{"type":"Feature","geometry":{"type":"Point","coordinates":[10.8177047,45.3100453]},"properties":{"type":"pakketpunt","locatieNaam":"Amazon Counter - EDICOLA-CARTA SHOP","straatNaam":"VIA CATERINA BON BRENZONI 21","straatNr":"","vervoerder":"Amazon","puntType":"helix","bezettingsgraad":50,"latitude":45.3100453,"longitude":10.8177047,"canPickup":true,"canDropoff":false,"openingstijden":null}},{"type":"Feature","geometry":{"type":"Point","coordinates":[10.8168,45.3084]},"properties":{"type":"pakketpunt","locatieNaam":"PuntoPoste TABACCHERIA N. 1","straatNaam":"VIA CARLO MONTANARI 14","straatNr":"","vervoerder":"Amazon","puntType":"3p","bezettingsgraad":50,"latitude":45.3084,"longitude":10.8168,"canPickup":true,"canDropoff":false,"openingstijden":null}},{"type":"Feature","geometry":{"type":"Point","coordinates":[10.8169,45.3066]},"properties":{"type":"pakketpunt","locatieNaam":"Ufficio Postale MOZZECANE","straatNaam":"VIALE DELLA REPUBBLICA 17","straatNr":"","vervoerder":"Amazon","puntType":"3p","bezettingsgraad":50,"latitude":45.3066,"longitude":10.8169,"canPickup":true,"canDropoff":false,"openingstijden":null}},{"type":"Feature","geometry":{"type":"Point","coordinates":[10.8143,45.3052]},"properties":{"type":"pakketpunt","locatieNaam":"PuntoPoste TABACCHERIA N. 5","straatNaam":"VIA CARLO MONTANARI 56/B","straatNr":"","vervoerder":"Amazon","puntType":"3p","bezettingsgraad":50,"latitude":45.3052,"longitude":10.8143,"canPickup":true,"canDropoff":false,"openingstijden":null}},{"type":"Feature","geometry":{"type":"Polygon","coordinates":[[[10.7830599,45.3156942],[10.7962772,45.3238865],[10.7988256,45.3223537],[10.8042945,45.3206488],[10.8103754,45.3183233],[10.8133642,45.3172679],[10.8145155,45.3180444],[10.8147059,45.3179832],[10.8147514,45.3181181],[10.8170657,45.3196031],[10.8173378,45.3199477],[10.8190477,45.3192904],[10.8201571,45.3213276],[10.8208851,45.3221786],[10.8209444,45.3218869],[10.8210643,45.3217687],[10.8235789,45.323919],[10.8242103,45.3234728],[10.8254187,45.3247328],[10.8266646,45.3241701],[10.8276592,45.3251914],[10.8283954,45.3262942],[10.8321027,45.324936],[10.8309719,45.3226764],[10.8313349,45.3224283],[10.8317787,45.3225568],[10.8320509,45.322475],[10.8325178,45.3227714],[10.8333118,45.3235813],[10.834022,45.3241453],[10.8353563,45.3248912],[10.8361661,45.325471],[10.8390975,45.3266794],[10.8392941,45.3274087],[10.8419921,45.3259876],[10.8429078,45.3305939],[10.8458497,45.3298315],[10.8474043,45.3305039],[10.8491894,45.3314166],[10.8493399,45.3368026],[10.8560995,45.337094],[10.857626,45.3346278],[10.8579527,45.3332798],[10.8582154,45.3329964],[10.859202,45.3330643],[10.8591626,45.3310549],[10.8622197,45.3317495],[10.8640907,45.3320819],[10.8660992,45.3329797],[10.8703566,45.3300005],[10.8716256,45.3286973],[10.872081,45.3260182],[10.8717138,45.3252944],[10.871699,45.3250292],[10.8726425,45.3229414],[10.8726718,45.3225617],[10.8726204,45.322453],[10.8724754,45.3224006],[10.8702218,45.3220622],[10.8703049,45.3201405],[10.8704324,45.3200246],[10.8706656,45.3175815],[10.8738038,45.3169572],[10.8764324,45.3165388],[10.8815933,45.3162266],[10.88253,45.3154781],[10.8828976,45.3153066],[10.8858033,45.312832],[10.8861934,45.3128142],[10.8886374,45.3134107],[10.8908518,45.3104009],[10.8911241,45.3098939],[10.8915958,45.309429],[10.8913433,45.3085415],[10.8909321,45.3089614],[10.8822386,45.3078885],[10.8830382,45.3065765],[10.8778844,45.3026256],[10.8765916,45.3017279],[10.8759674,45.3012076],[10.8757872,45.3009277],[10.8756869,45.3008921],[10.8752617,45.3013935],[10.8746306,45.3016512],[10.871335,45.3019417],[10.8709778,45.3017325],[10.8665189,45.2969961],[10.8625927,45.2996231],[10.8610447,45.2993259],[10.8584125,45.3012713],[10.8561013,45.3009219],[10.8555786,45.3009178],[10.8552228,45.3012773],[10.8545363,45.3014269],[10.8543559,45.2992413],[10.8542105,45.2988489],[10.8525162,45.2990876],[10.8513291,45.2993656],[10.84965,45.3006504],[10.8496033,45.3006189],[10.8477243,45.2990333],[10.8460107,45.2974302],[10.8465503,45.2972566],[10.844402,45.2954591],[10.8446282,45.2952264],[10.8448396,45.295342],[10.8445153,45.2941471],[10.8442569,45.2925847],[10.8436333,45.2917611],[10.8422278,45.2904462],[10.8424557,45.2902685],[10.8425402,45.2900747],[10.8424913,45.289764],[10.8417724,45.288685],[10.8421687,45.2885581],[10.842787,45.2881573],[10.8430873,45.2878553],[10.8434907,45.2871452],[10.8434739,45.2867976],[10.8430182,45.2862343],[10.842631,45.2849613],[10.8426963,45.2847532],[10.8431729,45.2842529],[10.8434445,45.2836629],[10.8438352,45.2832656],[10.8449469,45.2827801],[10.8465576,45.2817377],[10.8471951,45.2815906],[10.8482094,45.2806835],[10.8490584,45.2803847],[10.8490744,45.2802671],[10.8487519,45.2799242],[10.848008,45.2793957],[10.8446442,45.2773063],[10.8443739,45.2769717],[10.8443249,45.276661],[10.8421625,45.2747995],[10.8416328,45.274066],[10.8400894,45.272704],[10.8399841,45.2729587],[10.8392165,45.2737096],[10.8382066,45.2734064],[10.8369126,45.2738896],[10.8363117,45.2737143],[10.8349818,45.274568],[10.8321724,45.2777597],[10.8321127,45.2778786],[10.832306,45.2781522],[10.8322459,45.2782549],[10.8305819,45.279547],[10.8312317,45.2800656],[10.8304562,45.2805012],[10.8308174,45.2813417],[10.8290788,45.2821304],[10.8300549,45.2845274],[10.8261709,45.2843658],[10.8262189,45.2845805],[10.8261518,45.2854154],[10.8258417,45.2853729],[10.8256024,45.285443],[10.8244698,45.2852811],[10.8243052,45.2851701],[10.8234583,45.2851268],[10.8227817,45.2857913],[10.8225548,45.2870929],[10.8214457,45.2872433],[10.8213877,45.2875284],[10.8206154,45.2877208],[10.8191183,45.2891752],[10.8186311,45.2890504],[10.8183574,45.2888842],[10.8172378,45.2891294],[10.8173464,45.2895919],[10.8173402,45.2902363],[10.8167496,45.2923395],[10.8168475,45.2937213],[10.817279,45.2950409],[10.8123284,45.2968154],[10.8099828,45.2977716],[10.809402,45.2980841],[10.8077427,45.2990957],[10.8011983,45.3035807],[10.7830599,45.3156942]]]},"properties":{"type":"boundary","gemeente":"Mozzecane"}}]}