{"type":"FeatureCollection","metadata":{"gemeente":"Mozzagrogna","slug":"mozzagrogna","generated_at":"2026-09-26T13:10:15.904271Z","total_points":10,"providers":["PosteItaliane","DHL","Amazon"],"bounds":[14.42773046,42.2127,14.445518,42.21462542]},"features":[{"type":"Feature","geometry":{"type":"Point","coordinates":[14.445518,42.2127442]},"properties":{"type":"pakketpunt","locatieNaam":"Mozzagrogna","straatNaam":"Via Roma","straatNr":"1","vervoerder":"PosteItaliane","puntType":"postkantoor","bezettingsgraad":50,"latitude":42.2127442,"longitude":14.445518,"canPickup":true,"canDropoff":true,"openingstijden":{"za":"08:20 - 12:35","zo":"gesloten","ma":"08:20 - 13:35","di":"08:20 - 13:35","wo":"08:20 - 13:35","do":"08:20 - 13:35","vr":"08:20 - 13:35"}}},{"type":"Feature","geometry":{"type":"Point","coordinates":[14.42773046,42.21276583]},"properties":{"type":"pakketpunt","locatieNaam":"Villa Romagnoli","straatNaam":"Via Principale","straatNr":"7","vervoerder":"PosteItaliane","puntType":"postkantoor","bezettingsgraad":50,"latitude":42.21276583,"longitude":14.42773046,"canPickup":true,"canDropoff":true,"openingstijden":{"za":"gesloten","zo":"gesloten","ma":"08:20 - 13:45","di":"gesloten","wo":"08:20 - 13:45","do":"gesloten","vr":"08:20 - 13:45"}}},{"type":"Feature","geometry":{"type":"Point","coordinates":[14.44412859,42.21304084]},"properties":{"type":"pakketpunt","locatieNaam":"Tabaccheria N. 1","straatNaam":"Viale Frentano","straatNr":"11","vervoerder":"PosteItaliane","puntType":"servicepunt","bezettingsgraad":50,"latitude":42.21304084,"longitude":14.44412859,"canPickup":true,"canDropoff":true,"openingstijden":{"za":"07:00 - 13:30, 16:00 - 20:00","zo":"gesloten","ma":"07:00 - 13:30, 16:00 - 20:00","di":"07:00 - 13:30, 16:00 - 20:00","wo":"07:00 - 13:30, 16:00 - 20:00","do":"07:00 - 13:30, 16:00 - 20:00","vr":"07:00 - 13:30, 16:00 - 20:00"}}},{"type":"Feature","geometry":{"type":"Point","coordinates":[14.43726568,42.21462542]},"properties":{"type":"pakketpunt","locatieNaam":"Tabaccheria N. 2","straatNaam":"Via Nazionale Per Lanciano","straatNr":"40","vervoerder":"PosteItaliane","puntType":"servicepunt","bezettingsgraad":50,"latitude":42.21462542,"longitude":14.43726568,"canPickup":true,"canDropoff":true,"openingstijden":{"za":"07:00 - 20:00","zo":"gesloten","ma":"07:00 - 20:00","di":"07:00 - 20:00","wo":"07:00 - 20:00","do":"07:00 - 20:00","vr":"07:00 - 20:00"}}},{"type":"Feature","geometry":{"type":"Point","coordinates":[14.437266,42.214625]},"properties":{"type":"pakketpunt","locatieNaam":"TABACCHERIA N. 2","straatNaam":"VIA NAZIONALE PER LANCIANO 40","straatNr":"","vervoerder":"DHL","puntType":"parcelShop","bezettingsgraad":50,"latitude":42.214625,"longitude":14.437266,"canPickup":true,"canDropoff":true,"openingstijden":{"ma":"07:00 - 20:00","di":"07:00 - 20:00","wo":"07:00 - 20:00","do":"07:00 - 20:00","vr":"07:00 - 20:00","za":"07:00 - 20:00","zo":"gesloten"}}},{"type":"Feature","geometry":{"type":"Point","coordinates":[14.444129,42.213041]},"properties":{"type":"pakketpunt","locatieNaam":"TABACCHERIA N. 1","straatNaam":"VIALE FRENTANO 11","straatNr":"","vervoerder":"DHL","puntType":"parcelShop","bezettingsgraad":50,"latitude":42.213041,"longitude":14.444129,"canPickup":true,"canDropoff":true,"openingstijden":{"ma":"07:00 - 13:30, 16:00 - 20:00","di":"07:00 - 13:30, 16:00 - 20:00","wo":"07:00 - 13:30, 16:00 - 20:00","do":"07:00 - 13:30, 16:00 - 20:00","vr":"07:00 - 13:30, 16:00 - 20:00","za":"07:00 - 13:30, 16:00 - 20:00","zo":"gesloten"}}},{"type":"Feature","geometry":{"type":"Point","coordinates":[14.445518,42.212744]},"properties":{"type":"pakketpunt","locatieNaam":"Ufficio Postale MOZZAGROGNA","straatNaam":"VIA ROMA 1","straatNr":"","vervoerder":"DHL","puntType":"postOffice","bezettingsgraad":50,"latitude":42.212744,"longitude":14.445518,"canPickup":true,"canDropoff":true,"openingstijden":{"ma":"08:20 - 13:35","di":"08:20 - 13:35","wo":"08:20 - 13:35","do":"08:20 - 13:35","vr":"08:20 - 13:35","za":"08:20 - 12:35","zo":"gesloten"}}},{"type":"Feature","geometry":{"type":"Point","coordinates":[14.4372,42.2146]},"properties":{"type":"pakketpunt","locatieNaam":"PuntoPoste TABACCHERIA N. 2","straatNaam":"VIA NAZIONALE PER LANCIANO 40","straatNr":"","vervoerder":"Amazon","puntType":"3p","bezettingsgraad":50,"latitude":42.2146,"longitude":14.4372,"canPickup":true,"canDropoff":false,"openingstijden":null}},{"type":"Feature","geometry":{"type":"Point","coordinates":[14.4441,42.213]},"properties":{"type":"pakketpunt","locatieNaam":"PuntoPoste TABACCHERIA N. 1","straatNaam":"VIALE FRENTANO 11","straatNr":"","vervoerder":"Amazon","puntType":"3p","bezettingsgraad":50,"latitude":42.213,"longitude":14.4441,"canPickup":true,"canDropoff":false,"openingstijden":null}},{"type":"Feature","geometry":{"type":"Point","coordinates":[14.4455,42.2127]},"properties":{"type":"pakketpunt","locatieNaam":"Ufficio Postale MOZZAGROGNA","straatNaam":"VIA ROMA 1","straatNr":"","vervoerder":"Amazon","puntType":"3p","bezettingsgraad":50,"latitude":42.2127,"longitude":14.4455,"canPickup":true,"canDropoff":false,"openingstijden":null}},{"type":"Feature","geometry":{"type":"Polygon","coordinates":[[[14.4231414,42.2156796],[14.420651,42.2161677],[14.4197472,42.2141985],[14.4184409,42.2109302],[14.4165781,42.2058236],[14.4190927,42.2024592],[14.4235867,42.2011435],[14.4248339,42.2010303],[14.4258192,42.2007225],[14.4267545,42.200327],[14.430299,42.1981963],[14.4410955,42.19063],[14.4506795,42.1831835],[14.4559624,42.1786962],[14.4615913,42.1743631],[14.4657834,42.1726054],[14.4678486,42.1718226],[14.470577,42.1727093],[14.4753374,42.1810378],[14.4758324,42.1829677],[14.4754893,42.1843928],[14.4751021,42.185084],[14.4739221,42.1863457],[14.4715718,42.1891021],[14.4706794,42.1934901],[14.4716655,42.1946142],[14.4721391,42.1955304],[14.4725655,42.1958276],[14.4743458,42.1967147],[14.4754301,42.1980784],[14.4771461,42.1994519],[14.4775431,42.2002198],[14.4698121,42.2057476],[14.4648989,42.2090342],[14.4574529,42.2136972],[14.4523289,42.2165027],[14.451625,42.2167163],[14.4506416,42.2168982],[14.4497336,42.2169325],[14.427354,42.216633],[14.4231414,42.2156796]]]},"properties":{"type":"boundary","gemeente":"Mozzagrogna"}}]}