{"type":"FeatureCollection","metadata":{"gemeente":"Neviano degli Arduini","slug":"neviano-degli-arduini","generated_at":"2026-09-26T13:10:17.070731Z","total_points":6,"providers":["PosteItaliane","DHL","Amazon"],"bounds":[10.30489686,44.49989621,10.37021544,44.58254611]},"features":[{"type":"Feature","geometry":{"type":"Point","coordinates":[10.37021544,44.57128845]},"properties":{"type":"pakketpunt","locatieNaam":"Bazzano","straatNaam":"Via Costa","straatNr":"40","vervoerder":"PosteItaliane","puntType":"postkantoor","bezettingsgraad":50,"latitude":44.57128845,"longitude":10.37021544,"canPickup":true,"canDropoff":true,"openingstijden":{"za":"gesloten","zo":"gesloten","ma":"08:20 - 13:45","di":"gesloten","wo":"08:20 - 13:45","do":"gesloten","vr":"08:20 - 13:45"}}},{"type":"Feature","geometry":{"type":"Point","coordinates":[10.30489686,44.49989621]},"properties":{"type":"pakketpunt","locatieNaam":"Scurano","straatNaam":"Strada Scurano","straatNr":"45","vervoerder":"PosteItaliane","puntType":"postkantoor","bezettingsgraad":50,"latitude":44.49989621,"longitude":10.30489686,"canPickup":true,"canDropoff":true,"openingstijden":{"za":"08:20 - 12:45","zo":"gesloten","ma":"gesloten","di":"gesloten","wo":"08:20 - 13:45","do":"gesloten","vr":"gesloten"}}},{"type":"Feature","geometry":{"type":"Point","coordinates":[10.31394403,44.53341181]},"properties":{"type":"pakketpunt","locatieNaam":"Mediano","straatNaam":"Strada Sella","straatNr":"19","vervoerder":"PosteItaliane","puntType":"postkantoor","bezettingsgraad":50,"latitude":44.53341181,"longitude":10.31394403,"canPickup":true,"canDropoff":true,"openingstijden":{"za":"gesloten","zo":"gesloten","ma":"gesloten","di":"gesloten","wo":"gesloten","do":"08:20 - 13:45","vr":"gesloten"}}},{"type":"Feature","geometry":{"type":"Point","coordinates":[10.31653247,44.58254611]},"properties":{"type":"pakketpunt","locatieNaam":"Neviano Degli Arduini","straatNaam":"Via Buca","straatNr":"28","vervoerder":"PosteItaliane","puntType":"postkantoor","bezettingsgraad":50,"latitude":44.58254611,"longitude":10.31653247,"canPickup":true,"canDropoff":true,"openingstijden":{"za":"08:20 - 12:45","zo":"gesloten","ma":"08:20 - 13:45","di":"08:20 - 12:00","wo":"08:20 - 13:45","do":"08:20 - 13:45","vr":"08:20 - 13:45"}}},{"type":"Feature","geometry":{"type":"Point","coordinates":[10.316532,44.582546]},"properties":{"type":"pakketpunt","locatieNaam":"Ufficio Postale NEVIANO DEGLI ARDUI","straatNaam":"VIA BUCA 28","straatNr":"","vervoerder":"DHL","puntType":"postOffice","bezettingsgraad":50,"latitude":44.582546,"longitude":10.316532,"canPickup":true,"canDropoff":true,"openingstijden":{"ma":"08:20 - 13:45","di":"08:20 - 13:45","wo":"08:20 - 13:45","do":"08:20 - 13:45","vr":"08:20 - 13:45","za":"08:20 - 12:45","zo":"gesloten"}}},{"type":"Feature","geometry":{"type":"Point","coordinates":[10.3165,44.5825]},"properties":{"type":"pakketpunt","locatieNaam":"Ufficio Postale NEVIANO DEGLI ARDUINI","straatNaam":"VIA BUCA 28","straatNr":"","vervoerder":"Amazon","puntType":"3p","bezettingsgraad":50,"latitude":44.5825,"longitude":10.3165,"canPickup":true,"canDropoff":false,"openingstijden":null}},{"type":"Feature","geometry":{"type":"Polygon","coordinates":[[[10.230788,44.5644627],[10.2338136,44.5653945],[10.2375493,44.5676693],[10.2401073,44.5718295],[10.2441644,44.5690397],[10.2491325,44.5670229],[10.2498711,44.5668168],[10.2609392,44.5669202],[10.2645711,44.5671591],[10.2653571,44.5674025],[10.2736616,44.5752051],[10.2744297,44.5757727],[10.280577,44.5787647],[10.281769,44.5791294],[10.2821963,44.5790886],[10.2829374,44.5784592],[10.2889694,44.5789764],[10.2954444,44.5802264],[10.3031243,44.5823986],[10.3070795,44.584649],[10.3101462,44.5917706],[10.3105009,44.593612],[10.3109705,44.594957],[10.3118256,44.5967898],[10.3124687,44.5971453],[10.3307374,44.6029294],[10.3388572,44.604932],[10.3415827,44.6034506],[10.3420807,44.5992587],[10.3413506,44.5970978],[10.3409986,44.5954545],[10.3412001,44.594903],[10.3417689,44.5944372],[10.3563962,44.5880839],[10.3772608,44.5894595],[10.3826507,44.5894484],[10.3913839,44.5866511],[10.3921473,44.5868806],[10.3930211,44.5869252],[10.3944502,44.5872196],[10.3952421,44.5875315],[10.3966086,44.5878257],[10.4006881,44.5881471],[10.4006755,44.5859023],[10.4002687,44.5851576],[10.4000509,44.5843173],[10.4001252,44.5838162],[10.4006793,44.583391],[10.4008778,44.581886],[10.4004011,44.5805962],[10.4021931,44.5765955],[10.4033423,44.5755918],[10.4030475,44.5710369],[10.4026152,44.5683411],[10.4023861,44.5653093],[10.4020334,44.5640625],[10.4016161,44.5632295],[10.3985546,44.5605345],[10.3977655,44.5597366],[10.3968572,44.5578849],[10.3913712,44.554643],[10.3889652,44.5535964],[10.3873604,44.5523522],[10.3857677,44.5498726],[10.3859998,44.5466016],[10.3853035,44.5454175],[10.383588,44.5443949],[10.3820845,44.5438817],[10.3785494,44.5442308],[10.3770504,44.5450459],[10.3746509,44.5452849],[10.3711511,44.545184],[10.3692006,44.5446075],[10.3654884,44.5440462],[10.3624726,44.5423929],[10.3620523,44.5418708],[10.3617499,44.540061],[10.3609678,44.5386913],[10.3575698,44.5363025],[10.355553,44.533797],[10.3550115,44.5326962],[10.3544746,44.5312532],[10.3544362,44.5309205],[10.3469984,44.5283619],[10.3455607,44.5275909],[10.3448827,44.526826],[10.3440372,44.5261238],[10.3437304,44.5253941],[10.3431939,44.5247853],[10.3428485,44.5240418],[10.3421554,44.5222717],[10.3418486,44.5207694],[10.3414795,44.5171602],[10.340398,44.5132753],[10.3404195,44.5116182],[10.3397822,44.5089801],[10.3400332,44.507485],[10.3400654,44.5064246],[10.3385076,44.5037511],[10.3355936,44.4990297],[10.3356773,44.4951635],[10.3297765,44.4943752],[10.329654,44.4934207],[10.3310661,44.4923594],[10.3279526,44.4907751],[10.3328664,44.4855475],[10.3318793,44.4846841],[10.3279998,44.4837105],[10.3259052,44.480527],[10.3250214,44.4794177],[10.3240923,44.4785756],[10.3222277,44.4773232],[10.3150207,44.4762236],[10.3089411,44.472272],[10.3034071,44.4695234],[10.2965917,44.4779738],[10.2884916,44.4839891],[10.2878838,44.4837979],[10.2869949,44.4839789],[10.2752007,44.486803],[10.2715828,44.4910294],[10.2716326,44.491587],[10.2719549,44.4925287],[10.2752088,44.4964084],[10.2768938,44.4986942],[10.2780991,44.5013274],[10.2779161,44.5023107],[10.2775536,44.50299],[10.2709651,44.5077177],[10.2673526,44.5098734],[10.2628089,44.5097347],[10.2533173,44.508795],[10.2526838,44.5085859],[10.2485651,44.5065515],[10.247952,44.506117],[10.2472819,44.5053682],[10.2467218,44.5050592],[10.2415364,44.5048546],[10.2349217,44.5055475],[10.2341266,44.5059882],[10.2337648,44.5063162],[10.2356031,44.5186746],[10.2358179,44.5193114],[10.2418113,44.5249089],[10.2466712,44.5268005],[10.250323,44.5269136],[10.2530359,44.5296386],[10.2565005,44.5356681],[10.2567001,44.53617],[10.2570441,44.5387049],[10.2567731,44.5401482],[10.2565847,44.5407535],[10.2561977,44.5409018],[10.2547046,44.5410892],[10.2411286,44.5500869],[10.2323353,44.5610209],[10.230788,44.5644627]]]},"properties":{"type":"boundary","gemeente":"Neviano degli Arduini"}}]}