{"type":"FeatureCollection","metadata":{"gemeente":"Nogarole Vicentino","slug":"nogarole-vicentino","generated_at":"2026-09-26T14:27:39.594305Z","total_points":4,"providers":["PosteItaliane","DHL","Amazon"],"bounds":[11.2867,45.55902034,11.29095086,45.560165]},"features":[{"type":"Feature","geometry":{"type":"Point","coordinates":[11.29095086,45.55902034]},"properties":{"type":"pakketpunt","locatieNaam":"Nogarole Vicentino","straatNaam":"Via Dello Sport","straatNr":"21","vervoerder":"PosteItaliane","puntType":"postkantoor","bezettingsgraad":50,"latitude":45.55902034,"longitude":11.29095086,"canPickup":true,"canDropoff":true,"openingstijden":{"za":"08:20 - 12:45","zo":"gesloten","ma":"gesloten","di":"08:20 - 13:45","wo":"gesloten","do":"08:20 - 13:45","vr":"gesloten"}}},{"type":"Feature","geometry":{"type":"Point","coordinates":[11.28672504,45.56016461]},"properties":{"type":"pakketpunt","locatieNaam":"Tabaccheria N. 1","straatNaam":"Via Roma","straatNr":"18","vervoerder":"PosteItaliane","puntType":"servicepunt","bezettingsgraad":50,"latitude":45.56016461,"longitude":11.28672504,"canPickup":true,"canDropoff":true,"openingstijden":{"za":"08:30 - 14:30, 17:30 - 23:59","zo":"08:30 - 14:30, 17:30 - 23:59","ma":"08:30 - 14:30, 17:30 - 23:59","di":"gesloten","wo":"08:30 - 14:30, 17:30 - 23:59","do":"08:30 - 14:30, 17:30 - 23:59","vr":"08:30 - 14:30, 17:30 - 23:59"}}},{"type":"Feature","geometry":{"type":"Point","coordinates":[11.286725,45.560165]},"properties":{"type":"pakketpunt","locatieNaam":"TABACCHERIA N. 1","straatNaam":"VIA ROMA 18","straatNr":"","vervoerder":"DHL","puntType":"parcelShop","bezettingsgraad":50,"latitude":45.560165,"longitude":11.286725,"canPickup":true,"canDropoff":true,"openingstijden":{"ma":"08:30 - 14:30, 17:30 - 23:59","di":"gesloten","wo":"08:30 - 14:30, 17:30 - 23:59","do":"08:30 - 14:30, 17:30 - 23:59","vr":"08:30 - 14:30, 17:30 - 23:59","za":"08:30 - 14:30, 17:30 - 23:59","zo":"08:30 - 14:30, 17:30 - 23:59"}}},{"type":"Feature","geometry":{"type":"Point","coordinates":[11.2867,45.5601]},"properties":{"type":"pakketpunt","locatieNaam":"PuntoPoste TABACCHERIA N. 1","straatNaam":"VIA ROMA 18","straatNr":"","vervoerder":"Amazon","puntType":"3p","bezettingsgraad":50,"latitude":45.5601,"longitude":11.2867,"canPickup":true,"canDropoff":false,"openingstijden":null}},{"type":"Feature","geometry":{"type":"Polygon","coordinates":[[[11.2681855,45.5943979],[11.2682478,45.593984],[11.2686007,45.5937393],[11.2691987,45.5937058],[11.2693865,45.593525],[11.269763,45.5934284],[11.2701977,45.5931933],[11.2699053,45.5928619],[11.2695109,45.5921531],[11.2694167,45.5921772],[11.2693092,45.5919711],[11.2694431,45.5913366],[11.2698108,45.5910439],[11.269113,45.5908],[11.26893,45.5905955],[11.2689752,45.5904199],[11.2687404,45.5904806],[11.2684753,45.5903642],[11.2685325,45.5902979],[11.2683023,45.5901361],[11.2682154,45.5899494],[11.2684258,45.5896786],[11.2683396,45.5893651],[11.2680865,45.5893221],[11.2679574,45.5890962],[11.2679907,45.5890204],[11.2677331,45.5889859],[11.2676388,45.589069],[11.2673806,45.5890126],[11.2672806,45.5882532],[11.2671675,45.5882349],[11.2671848,45.5881384],[11.2671018,45.5880961],[11.2669977,45.587649],[11.2670301,45.587446],[11.2675797,45.5870414],[11.2683387,45.5855683],[11.2686327,45.5854838],[11.2686116,45.5851909],[11.2693943,45.5850352],[11.2700868,45.5851445],[11.2703014,45.5850104],[11.2708568,45.5851245],[11.2708922,45.5852174],[11.2711838,45.5851582],[11.2717701,45.5848468],[11.2710872,45.5847171],[11.2706987,45.5844182],[11.2704889,45.5844715],[11.2698301,45.5840233],[11.2705342,45.583788],[11.2703152,45.5832884],[11.2703653,45.5831873],[11.2712094,45.5832043],[11.2713238,45.5830962],[11.2727666,45.5832212],[11.2729852,45.5830885],[11.2730663,45.5828157],[11.2729275,45.582817],[11.2730568,45.5822858],[11.2729126,45.5819806],[11.2729868,45.5816798],[11.2735666,45.5810122],[11.2737067,45.5807264],[11.2741553,45.5804192],[11.2745616,45.5803098],[11.274382,45.5811907],[11.2744322,45.5812787],[11.2759191,45.5815628],[11.276189,45.581247],[11.2767963,45.5810378],[11.2772093,45.5805837],[11.2777608,45.5803229],[11.2778363,45.5801496],[11.277265,45.5792312],[11.2771356,45.5789023],[11.2771749,45.5786209],[11.2771148,45.5785007],[11.2774985,45.5783348],[11.2772864,45.5776084],[11.2775797,45.5775848],[11.2782624,45.5769538],[11.2781581,45.5765836],[11.2778553,45.5763548],[11.2778829,45.5761788],[11.2771948,45.5760317],[11.2771518,45.575431],[11.2769137,45.5754019],[11.276902,45.5751586],[11.2771622,45.5748315],[11.277262,45.574852],[11.2775262,45.5746023],[11.2769941,45.5746916],[11.2768867,45.5741071],[11.2764733,45.5742116],[11.2763876,45.5741339],[11.2769457,45.5726013],[11.276898,45.572302],[11.2767806,45.5721681],[11.2767956,45.5719606],[11.2765056,45.5716912],[11.2764521,45.5715489],[11.2768316,45.5711249],[11.2754997,45.5709269],[11.2749311,45.5706153],[11.2742255,45.5698125],[11.2739915,45.5683991],[11.2742993,45.5667202],[11.2746276,45.566412],[11.2744192,45.5662392],[11.2745898,45.5658625],[11.2749166,45.5656949],[11.2750247,45.5658115],[11.2756634,45.5656386],[11.276585,45.5661521],[11.2767605,45.5661667],[11.2769963,45.5660168],[11.277126,45.5661193],[11.277215,45.5660394],[11.2778534,45.5659117],[11.2780152,45.5655674],[11.2781037,45.565582],[11.278123,45.5653803],[11.277916,45.5651811],[11.2781078,45.5650676],[11.2783574,45.5652543],[11.2783722,45.5656303],[11.2782973,45.5656665],[11.2784519,45.5658255],[11.2791959,45.5661144],[11.2787896,45.5657277],[11.279958,45.5654271],[11.2799871,45.5648122],[11.2802693,45.5641773],[11.2807242,45.5643278],[11.2813546,45.5637881],[11.2815868,45.5634718],[11.2812665,45.5632142],[11.2815227,45.5630461],[11.2818633,45.5630668],[11.2819277,45.5630095],[11.2815567,45.5627256],[11.2808494,45.562679],[11.2808347,45.5625691],[11.2805834,45.5623018],[11.2807643,45.5612157],[11.2812392,45.5603517],[11.2816813,45.5600039],[11.2820949,45.5599401],[11.282976,45.5602552],[11.2832846,45.5605079],[11.2833933,45.559945],[11.2832328,45.5588775],[11.2837393,45.5586193],[11.2835675,45.5578463],[11.2846693,45.5571094],[11.2854002,45.5567497],[11.2859082,45.556185],[11.2864306,45.5554412],[11.2864203,45.5553252],[11.2865751,45.5552959],[11.2874652,45.5544313],[11.2876664,45.5541375],[11.2875563,45.5538287],[11.2874509,45.5536994],[11.2869375,45.5535548],[11.2880813,45.5529868],[11.2881603,45.5530828],[11.2891642,45.5531415],[11.2897879,45.5527375],[11.2903989,45.5525522],[11.2906118,45.5527442],[11.2910324,45.5528558],[11.2912728,45.5530265],[11.2913382,45.5528483],[11.2920771,45.5521451],[11.2933284,45.5513852],[11.2935333,45.5513496],[11.293442,45.5511355],[11.2940165,45.5510803],[11.2940974,45.5511279],[11.2944482,45.5519694],[11.2947371,45.5520432],[11.2957458,45.5518186],[11.2958631,45.5519242],[11.2954726,45.5528429],[11.2952053,45.5531155],[11.2954869,45.5535672],[11.2960415,45.553945],[11.2968961,45.5542326],[11.2975776,45.5543054],[11.2977675,45.5540259],[11.298113,45.5539585],[11.2982653,45.5537065],[11.2986517,45.5535382],[11.2989986,45.5535958],[11.29924,45.5537611],[11.2996679,45.5536938],[11.3000526,45.5537365],[11.3002163,45.5540231],[11.3002177,45.5542823],[11.3007041,45.5545067],[11.3007948,45.5545863],[11.3007915,45.5548204],[11.3011959,45.5550526],[11.3009012,45.5555334],[11.3004317,45.5555718],[11.3000977,45.5554133],[11.2996912,45.5553897],[11.2990324,45.5555393],[11.2984338,45.5557985],[11.2982829,45.5559236],[11.2982516,45.5568954],[11.2987937,45.5569418],[11.2995317,45.5572699],[11.3001809,45.5571293],[11.3011262,45.5572112],[11.301239,45.5568537],[11.3014234,45.5565948],[11.301783,45.5565575],[11.3024374,45.5567361],[11.3026799,45.5570216],[11.3027233,45.5572144],[11.3032274,45.557666],[11.3034537,45.5580113],[11.3050422,45.5587908],[11.3051702,45.5590963],[11.3050397,45.5595529],[11.3052196,45.5596865],[11.3055514,45.5597554],[11.3065007,45.5596931],[11.3071025,45.5597996],[11.3072719,45.5597062],[11.3075157,45.5593418],[11.3079901,45.5591934],[11.3080667,45.5595612],[11.3083485,45.5602045],[11.3089593,45.5600374],[11.3087567,45.5597992],[11.3116228,45.5599385],[11.3116854,45.5598799],[11.311578,45.5597972],[11.3115715,45.5593559],[11.3124693,45.5591551],[11.3126317,45.5589522],[11.3125872,45.5588217],[11.312668,45.5586712],[11.313053,45.5590201],[11.313081,45.5592688],[11.3138458,45.5595238],[11.314252,45.5594575],[11.3145424,45.5595156],[11.3147137,45.5596686],[11.3150104,45.5596741],[11.3162432,45.5599641],[11.3165882,45.5599198],[11.3175213,45.560146],[11.3179865,45.5599875],[11.3185256,45.5602054],[11.3190106,45.5601785],[11.3197529,45.55998],[11.3206594,45.5601773],[11.3212112,45.5599891],[11.3216349,45.5602085],[11.3222916,45.5600709],[11.3225671,45.5599065],[11.3228183,45.5595997],[11.3235298,45.5591792],[11.3238984,45.55917],[11.3241108,45.5589789],[11.3242427,45.5589619],[11.3246461,45.5585686],[11.3250594,45.5585142],[11.3255406,45.5583059],[11.326539,45.5584193],[11.3266376,45.5584602],[11.3270115,45.5590139],[11.327404,45.559057],[11.3251991,45.5609581],[11.3238309,45.562295],[11.3228102,45.562638],[11.3219382,45.5631163],[11.3206287,45.5631856],[11.3198885,45.5636147],[11.3189553,45.5640182],[11.3185111,45.5643691],[11.3178457,45.5646121],[11.3175089,45.564612],[11.3170069,45.5649337],[11.3168905,45.5650888],[11.3165568,45.5652482],[11.3165808,45.5653738],[11.3168588,45.5654678],[11.3170538,45.5657293],[11.3161808,45.5665635],[11.3157038,45.566686],[11.3153967,45.5670308],[11.3149429,45.5672591],[11.314538,45.5672938],[11.3142525,45.5674788],[11.313449,45.5674752],[11.3129924,45.5676305],[11.3128577,45.5678058],[11.3128713,45.5680185],[11.3122292,45.5682638],[11.3118338,45.5685308],[11.3115293,45.5689418],[11.3115244,45.5690548],[11.3116322,45.5691456],[11.311595,45.5693919],[11.3111168,45.5697136],[11.3104182,45.5699668],[11.3100868,45.5702976],[11.3095473,45.5705077],[11.308201,45.5704088],[11.3078255,45.5707018],[11.3069376,45.5709454],[11.3058785,45.5720887],[11.3047506,45.5730149],[11.3043211,45.573162],[11.3022083,45.5735321],[11.3021092,45.573745],[11.3013886,45.5736757],[11.3013177,45.5737676],[11.3007591,45.5738307],[11.3006129,45.5738748],[11.300437,45.5741571],[11.2980476,45.5743044],[11.2971147,45.5748453],[11.2962975,45.5750909],[11.2961424,45.5750121],[11.2954746,45.5753919],[11.2950477,45.5755185],[11.2940834,45.5754904],[11.2936436,45.575634],[11.2931964,45.5756001],[11.2929514,45.575741],[11.2923093,45.5758149],[11.291303,45.5760716],[11.2903674,45.576176],[11.2898356,45.5763804],[11.2901598,45.5787477],[11.2913039,45.5795702],[11.2914046,45.5797191],[11.2914871,45.5802381],[11.2912939,45.5810023],[11.2906162,45.5820379],[11.2906076,45.5830685],[11.2903046,45.5837403],[11.2904107,45.5844797],[11.2896477,45.5857346],[11.2895343,45.5872306],[11.2896041,45.5881859],[11.2897711,45.5885218],[11.2897544,45.5893227],[11.2894505,45.590217],[11.2896678,45.5906523],[11.2896449,45.5909904],[11.2893266,45.591292],[11.2873593,45.5921715],[11.2867941,45.5925353],[11.2855144,45.5930428],[11.2841759,45.5930735],[11.283984,45.5931649],[11.2838384,45.5934572],[11.2838833,45.5936738],[11.2837999,45.5938735],[11.2829644,45.5943146],[11.2826015,45.5946231],[11.2822988,45.59587],[11.2819893,45.5961208],[11.2819203,45.5964377],[11.2820587,45.5971215],[11.281425,45.59756],[11.2807573,45.5977148],[11.2806056,45.5978719],[11.280258,45.5979882],[11.2797906,45.5980314],[11.2789604,45.5978582],[11.2788724,45.5978528],[11.2788662,45.5979326],[11.2783135,45.5974782],[11.2772669,45.5973198],[11.2751736,45.5974678],[11.2741114,45.5971571],[11.2737535,45.5969583],[11.2735683,45.5967042],[11.2730493,45.5962632],[11.2724431,45.596003],[11.2714667,45.5959428],[11.2709512,45.5958203],[11.2704428,45.5958769],[11.2701391,45.5954977],[11.2696258,45.5951959],[11.269622,45.5951031],[11.2698209,45.5949921],[11.2698269,45.5949057],[11.26953,45.5945797],[11.269214,45.5944798],[11.2681855,45.5943979]]]},"properties":{"type":"boundary","gemeente":"Nogarole Vicentino"}}]}