{"type":"FeatureCollection","metadata":{"gemeente":"Nole","slug":"nole","generated_at":"2026-09-26T13:10:17.689139Z","total_points":10,"providers":["PosteItaliane","DPD","InPost","GLS","DHL"],"bounds":[7.56839552,45.2416321,7.5774,45.24382044]},"features":[{"type":"Feature","geometry":{"type":"Point","coordinates":[7.57101127,45.24336853]},"properties":{"type":"pakketpunt","locatieNaam":"Nole","straatNaam":"Via San Vito","straatNr":"23","vervoerder":"PosteItaliane","puntType":"postkantoor","bezettingsgraad":50,"latitude":45.24336853,"longitude":7.57101127,"canPickup":true,"canDropoff":true,"openingstijden":{"za":"08:20 - 12:35","zo":"gesloten","ma":"08:20 - 13:35","di":"08:20 - 13:35","wo":"08:20 - 13:35","do":"08:20 - 13:35","vr":"08:20 - 13:35"}}},{"type":"Feature","geometry":{"type":"Point","coordinates":[7.57259657,45.24382044]},"properties":{"type":"pakketpunt","locatieNaam":"Tabaccheria N. 1","straatNaam":"Via Ventiquattro Maggio","straatNr":"1","vervoerder":"PosteItaliane","puntType":"servicepunt","bezettingsgraad":50,"latitude":45.24382044,"longitude":7.57259657,"canPickup":true,"canDropoff":true,"openingstijden":{"za":"07:30 - 12:45, 15:00 - 19:30","zo":"gesloten","ma":"07:30 - 12:45, 15:00 - 19:30","di":"07:30 - 12:45, 15:00 - 19:30","wo":"07:30 - 12:45, 15:00 - 19:30","do":"07:30 - 12:45, 15:00 - 19:30","vr":"07:30 - 12:45, 15:00 - 19:30"}}},{"type":"Feature","geometry":{"type":"Point","coordinates":[7.56839552,45.24379243]},"properties":{"type":"pakketpunt","locatieNaam":"Tabaccheria N. 5","straatNaam":"Via Villanova","straatNr":"31","vervoerder":"PosteItaliane","puntType":"servicepunt","bezettingsgraad":50,"latitude":45.24379243,"longitude":7.56839552,"canPickup":true,"canDropoff":true,"openingstijden":{"za":"07:30 - 12:30, 15:00 - 19:30","zo":"gesloten","ma":"07:30 - 12:30, 15:00 - 19:00","di":"07:30 - 12:30, 15:00 - 19:30","wo":"07:30 - 12:30, 15:00 - 19:30","do":"07:30 - 12:30, 15:00 - 19:30","vr":"07:30 - 12:30, 15:00 - 19:30"}}},{"type":"Feature","geometry":{"type":"Point","coordinates":[7.5700331,45.2416321]},"properties":{"type":"pakketpunt","locatieNaam":"Edicola Carta e Penna","straatNaam":"VIA MARTIRI DELLA LIBERTA","straatNr":"22","vervoerder":"DPD","puntType":"pickup_point","bezettingsgraad":50,"latitude":45.2416321,"longitude":7.5700331,"canPickup":true,"canDropoff":true,"openingstijden":{"ma":"06:30 - 12:45, 15:30 - 19:30","di":"06:30 - 12:45, 15:30 - 19:30","wo":"06:30 - 12:45, 15:30 - 19:30","do":"06:30 - 12:45, 15:30 - 19:30","vr":"06:30 - 12:45, 15:30 - 19:00","za":"07:00 - 12:45, 15:30 - 19:30","zo":"08:00 - 12:45"}}},{"type":"Feature","geometry":{"type":"Point","coordinates":[7.56999,45.24181]},"properties":{"type":"pakketpunt","locatieNaam":"InPost Point","straatNaam":"via martiri della libertà","straatNr":"22","vervoerder":"InPost","puntType":"servicepunt","bezettingsgraad":50,"latitude":45.24181,"longitude":7.56999,"canPickup":true,"canDropoff":true,"openingstijden":"Lun: 06:15 - 12:30 Mar-Sab: 06:15 - 12:30 - 16:00 - 19:30"}},{"type":"Feature","geometry":{"type":"Point","coordinates":[7.5700331,45.2416321]},"properties":{"type":"pakketpunt","locatieNaam":"EDICOLA CARTA E PENNA","straatNaam":"Via Martiri Della Liberta'","straatNr":"22","vervoerder":"GLS","puntType":"parcel_shop","bezettingsgraad":50,"latitude":45.2416321,"longitude":7.5700331,"canPickup":true,"canDropoff":true,"openingstijden":"za: 07:00 - 12:30, 16:00 - 19:30; ma: 06:30 - 12:30"}},{"type":"Feature","geometry":{"type":"Point","coordinates":[7.568396,45.243792]},"properties":{"type":"pakketpunt","locatieNaam":"TABACCHERIA N. 5","straatNaam":"VIA VILLANOVA 31","straatNr":"","vervoerder":"DHL","puntType":"parcelShop","bezettingsgraad":50,"latitude":45.243792,"longitude":7.568396,"canPickup":true,"canDropoff":true,"openingstijden":{"ma":"07:30 - 12:30, 15:00 - 19:00","di":"07:30 - 12:30, 15:00 - 19:30","wo":"07:30 - 12:30, 15:00 - 19:30","do":"07:30 - 12:30, 15:00 - 19:30","vr":"07:30 - 12:30, 15:00 - 19:30","za":"07:30 - 12:30, 15:00 - 19:30","zo":"gesloten"}}},{"type":"Feature","geometry":{"type":"Point","coordinates":[7.571011,45.243369]},"properties":{"type":"pakketpunt","locatieNaam":"Ufficio Postale NOLE","straatNaam":"VIA SAN VITO 23","straatNr":"","vervoerder":"DHL","puntType":"postOffice","bezettingsgraad":50,"latitude":45.243369,"longitude":7.571011,"canPickup":true,"canDropoff":true,"openingstijden":{"ma":"08:20 - 13:35","di":"08:20 - 13:35","wo":"08:20 - 13:35","do":"08:20 - 13:35","vr":"08:20 - 13:35","za":"08:20 - 12:35","zo":"gesloten"}}},{"type":"Feature","geometry":{"type":"Point","coordinates":[7.572597,45.24382]},"properties":{"type":"pakketpunt","locatieNaam":"TABACCHERIA N. 1","straatNaam":"VIA VENTIQUATTRO MAGGIO 1","straatNr":"","vervoerder":"DHL","puntType":"parcelShop","bezettingsgraad":50,"latitude":45.24382,"longitude":7.572597,"canPickup":true,"canDropoff":true,"openingstijden":{"ma":"07:30 - 12:45, 15:00 - 19:30","di":"07:30 - 12:45, 15:00 - 19:30","wo":"07:30 - 12:45, 15:00 - 19:30","do":"07:30 - 12:45, 15:00 - 19:30","vr":"07:30 - 12:45, 15:00 - 19:30","za":"07:30 - 12:45, 15:00 - 19:30","zo":"gesloten"}}},{"type":"Feature","geometry":{"type":"Point","coordinates":[7.5774,45.2436]},"properties":{"type":"pakketpunt","locatieNaam":"BALBO SMARTCOM","straatNaam":"Via Circonvallazione 15/b","straatNr":"","vervoerder":"DHL","puntType":"parcelShop","bezettingsgraad":50,"latitude":45.2436,"longitude":7.5774,"canPickup":false,"canDropoff":true,"openingstijden":{"ma":"gesloten","di":"09:30 - 19:00","wo":"09:30 - 19:00","do":"09:30 - 19:00","vr":"09:30 - 19:00","za":"09:30 - 19:00","zo":"gesloten"}}},{"type":"Feature","geometry":{"type":"Polygon","coordinates":[[[7.5412119,45.2182769],[7.5392696,45.2199714],[7.5393652,45.2203732],[7.5384397,45.2212165],[7.5377338,45.2220311],[7.5385192,45.2222482],[7.5393515,45.2222769],[7.5403042,45.2225816],[7.5439121,45.2199677],[7.5441611,45.2203084],[7.5447021,45.2218006],[7.5440884,45.2223283],[7.5449876,45.2236225],[7.5457299,45.2244196],[7.5461152,45.2248116],[7.5468873,45.2244433],[7.5485157,45.2256613],[7.5479743,45.2261315],[7.5486966,45.2268923],[7.5504562,45.2282333],[7.5500664,45.2285659],[7.5543542,45.2320949],[7.5562617,45.2335007],[7.5583472,45.2353859],[7.5594957,45.2366021],[7.55994,45.2372018],[7.5615505,45.2385858],[7.5623311,45.2390052],[7.5613343,45.2395958],[7.5618144,45.2407225],[7.5591646,45.241533],[7.5599845,45.2421792],[7.5600387,45.2423655],[7.5607639,45.2426041],[7.5607519,45.2441972],[7.5606148,45.2457167],[7.5607365,45.2476131],[7.5605793,45.2476741],[7.5618908,45.2505216],[7.5622015,45.2511241],[7.5653491,45.2512807],[7.5655244,45.251895],[7.5662294,45.2519534],[7.5665995,45.2518365],[7.5668585,45.2519433],[7.5673913,45.2526566],[7.5675313,45.2552463],[7.5684538,45.2559194],[7.5699312,45.2554246],[7.5710628,45.2577974],[7.5718588,45.258775],[7.5731118,45.2617792],[7.573796,45.2640741],[7.5739135,45.2647597],[7.5731443,45.2661273],[7.5731385,45.2666268],[7.5730447,45.2669857],[7.5726304,45.2674486],[7.5706252,45.2690618],[7.5704271,45.2693518],[7.5707847,45.2703105],[7.5709235,45.2704112],[7.5713937,45.2713938],[7.571988,45.2722068],[7.5720514,45.2726667],[7.572261,45.2731554],[7.5718217,45.2746126],[7.5712094,45.2773234],[7.570669,45.2791394],[7.5707423,45.2795994],[7.5665942,45.2812442],[7.5661042,45.2813326],[7.5655362,45.2817215],[7.5610877,45.2838709],[7.5606726,45.2841537],[7.5640036,45.2852983],[7.5662234,45.2861566],[7.5674961,45.2857158],[7.5733258,45.2829038],[7.5742285,45.282627],[7.5823267,45.280995],[7.5858568,45.2800356],[7.5843466,45.2788283],[7.5850675,45.2771404],[7.5853273,45.276302],[7.5853489,45.2706268],[7.5854257,45.2695071],[7.5853336,45.266432],[7.5854618,45.2623604],[7.5830787,45.2622949],[7.5826944,45.2622451],[7.5819849,45.2619468],[7.5820671,45.2605945],[7.5827772,45.2597977],[7.5828293,45.2587902],[7.5830765,45.2586672],[7.5832917,45.2583279],[7.5837043,45.2581192],[7.5827225,45.2570831],[7.5821996,45.2568066],[7.5811118,45.2554698],[7.5824058,45.2546353],[7.5827781,45.2543023],[7.5829831,45.2539223],[7.5826782,45.2532929],[7.5824277,45.2517866],[7.5800792,45.2518699],[7.5793109,45.2519684],[7.5793607,45.252158],[7.5784643,45.2523629],[7.5783753,45.2518127],[7.5784279,45.2513856],[7.5802446,45.2509043],[7.5803599,45.2491054],[7.5803299,45.2483624],[7.5813327,45.2484379],[7.5822717,45.2486791],[7.582933,45.2489394],[7.5833767,45.2489989],[7.5838164,45.2490133],[7.5841582,45.248815],[7.5841728,45.2486622],[7.5840272,45.2483183],[7.5840683,45.2470181],[7.5838869,45.2456792],[7.5839616,45.245095],[7.5838588,45.2448867],[7.5830374,45.2438278],[7.5821727,45.2430069],[7.5812135,45.2424594],[7.58032,45.2417642],[7.5826966,45.2411501],[7.5818107,45.2405585],[7.5807208,45.2392533],[7.5804194,45.2386599],[7.5804035,45.2380701],[7.580152,45.2369778],[7.5804147,45.2368506],[7.5796542,45.2355584],[7.5785226,45.2347027],[7.5782012,45.2342621],[7.577687,45.2338687],[7.577416,45.2335142],[7.5770988,45.2328891],[7.5769751,45.2320685],[7.5768294,45.2316768],[7.5765682,45.2313633],[7.5752752,45.230571],[7.5732661,45.2287862],[7.5729931,45.2286252],[7.5724021,45.2277942],[7.5700835,45.2237685],[7.568176,45.220063],[7.5651403,45.2156006],[7.5636918,45.2138856],[7.5627149,45.2129147],[7.5598071,45.2136657],[7.5529181,45.2100095],[7.5512358,45.2113969],[7.5504101,45.2118635],[7.5492616,45.2122854],[7.5484289,45.2127745],[7.5475549,45.2130154],[7.5465579,45.2136103],[7.5451632,45.2150058],[7.5434979,45.2164473],[7.5416696,45.2177022],[7.5412119,45.2182769]]]},"properties":{"type":"boundary","gemeente":"Nole"}}]}