{"type":"FeatureCollection","metadata":{"gemeente":"Nonantola","slug":"nonantola","generated_at":"2026-09-26T13:10:17.774180Z","total_points":23,"providers":["PosteItaliane","DPD","InPost","GLS","DHL","Amazon"],"bounds":[11.0388235,44.6724001,11.068956,44.678756]},"features":[{"type":"Feature","geometry":{"type":"Point","coordinates":[11.04186344,44.67635444]},"properties":{"type":"pakketpunt","locatieNaam":"Nonantola","straatNaam":"Via Salvo D'acquisto","straatNr":"5","vervoerder":"PosteItaliane","puntType":"postkantoor","bezettingsgraad":50,"latitude":44.67635444,"longitude":11.04186344,"canPickup":true,"canDropoff":true,"openingstijden":{"za":"08:20 - 12:35","zo":"gesloten","ma":"08:20 - 13:35","di":"08:20 - 13:35","wo":"08:20 - 13:35","do":"08:20 - 13:35","vr":"08:20 - 13:35"}}},{"type":"Feature","geometry":{"type":"Point","coordinates":[11.04485757,44.67842246]},"properties":{"type":"pakketpunt","locatieNaam":"Tabaccheria N. 1","straatNaam":"Via Vittorio Veneto","straatNr":"125/a","vervoerder":"PosteItaliane","puntType":"servicepunt","bezettingsgraad":50,"latitude":44.67842246,"longitude":11.04485757,"canPickup":true,"canDropoff":true,"openingstijden":{"za":"06:00 - 21:30","zo":"06:00 - 21:30","ma":"06:00 - 21:30","di":"06:00 - 21:30","wo":"06:00 - 21:30","do":"06:00 - 21:30","vr":"06:00 - 21:30"}}},{"type":"Feature","geometry":{"type":"Point","coordinates":[11.06884208,44.67250042]},"properties":{"type":"pakketpunt","locatieNaam":"Tabaccheria N. 7","straatNaam":"Via Provinciale Est","straatNr":"78","vervoerder":"PosteItaliane","puntType":"servicepunt","bezettingsgraad":50,"latitude":44.67250042,"longitude":11.06884208,"canPickup":true,"canDropoff":true,"openingstijden":{"za":"06:00 - 12:30, 15:00 - 19:00","zo":"gesloten","ma":"06:00 - 12:30, 15:00 - 19:00","di":"06:00 - 12:30, 15:00 - 19:00","wo":"06:00 - 12:30, 15:00 - 19:00","do":"06:00 - 12:30, 15:00 - 19:00","vr":"06:00 - 12:30, 15:00 - 19:00"}}},{"type":"Feature","geometry":{"type":"Point","coordinates":[11.04232901,44.67738364]},"properties":{"type":"pakketpunt","locatieNaam":"Tabaccheria N. 2","straatNaam":"Piazza Della Liberazione","straatNr":"10","vervoerder":"PosteItaliane","puntType":"servicepunt","bezettingsgraad":50,"latitude":44.67738364,"longitude":11.04232901,"canPickup":true,"canDropoff":true,"openingstijden":{"za":"08:00 - 12:30, 15:00 - 19:30","zo":"gesloten","ma":"08:00 - 12:30, 15:00 - 19:30","di":"08:00 - 12:30, 15:00 - 19:30","wo":"08:00 - 12:30, 15:00 - 19:30","do":"08:00 - 12:30, 15:00 - 19:30","vr":"08:00 - 12:30, 15:00 - 19:30"}}},{"type":"Feature","geometry":{"type":"Point","coordinates":[11.0688802626,44.6724584439]},"properties":{"type":"pakketpunt","locatieNaam":"Tabaccheria Via Larga","straatNaam":"VIA PROVINCIALE EST","straatNr":"78/80","vervoerder":"DPD","puntType":"pickup_point","bezettingsgraad":50,"latitude":44.6724584439,"longitude":11.0688802626,"canPickup":true,"canDropoff":true,"openingstijden":{"ma":"06:00 - 12:30, 15:00 - 19:00","di":"06:00 - 12:30, 15:00 - 19:00","wo":"06:00 - 12:30, 15:00 - 19:00","do":"06:00 - 12:30, 15:00 - 19:00","vr":"06:00 - 12:30, 15:00 - 19:00","za":"06:00 - 12:30, 15:00 - 19:00","zo":"gesloten"}}},{"type":"Feature","geometry":{"type":"Point","coordinates":[11.04208965,44.67802972]},"properties":{"type":"pakketpunt","locatieNaam":"Quadrifoglio","straatNaam":"VIA ROMA","straatNr":"40","vervoerder":"DPD","puntType":"pickup_point","bezettingsgraad":50,"latitude":44.67802972,"longitude":11.04208965,"canPickup":true,"canDropoff":true,"openingstijden":{"ma":"07:15 - 12:45, 15:45 - 18:45","di":"07:15 - 12:45, 15:45 - 18:45","wo":"07:15 - 13:00","do":"07:15 - 12:45, 15:45 - 18:45","vr":"07:15 - 12:45, 15:45 - 18:45","za":"07:15 - 13:00","zo":"07:15 - 13:00"}}},{"type":"Feature","geometry":{"type":"Point","coordinates":[11.06845,44.67494]},"properties":{"type":"pakketpunt","locatieNaam":"InPost Point","straatNaam":"Via Provinciale Est","straatNr":"78","vervoerder":"InPost","puntType":"servicepunt","bezettingsgraad":50,"latitude":44.67494,"longitude":11.06845,"canPickup":true,"canDropoff":true,"openingstijden":"Lun-Sab: 07:00 - 12:30 - 15:00 - 19:00 Dom: 15:00 - 19:00"}},{"type":"Feature","geometry":{"type":"Point","coordinates":[11.04203,44.67808]},"properties":{"type":"pakketpunt","locatieNaam":"InPost Point","straatNaam":"Via Roma","straatNr":"40","vervoerder":"InPost","puntType":"servicepunt","bezettingsgraad":50,"latitude":44.67808,"longitude":11.04203,"canPickup":true,"canDropoff":true,"openingstijden":"Lun-Mar: 06:00 - 12:45 - 15:45 - 19:15 Mer: 06:00 - 12:45 Gio-Ven: 06:00 - 12:45 - 15:45 - 19:15 Sab-Dom: 06:00 - 12:45"}},{"type":"Feature","geometry":{"type":"Point","coordinates":[11.0689331,44.6724001]},"properties":{"type":"pakketpunt","locatieNaam":"TABACCHERIA VIA LARGA","straatNaam":"Via Provinciale Est","straatNr":"78","vervoerder":"GLS","puntType":"parcel_shop","bezettingsgraad":50,"latitude":44.6724001,"longitude":11.0689331,"canPickup":true,"canDropoff":true,"openingstijden":"za: 06:30 - 12:30, 15:00 - 19:00; ma: 06:30 - 12:30, 15:00 - 19:00"}},{"type":"Feature","geometry":{"type":"Point","coordinates":[11.0420903,44.6780325]},"properties":{"type":"pakketpunt","locatieNaam":"Edicola Cartoleria Quadrifoglio","straatNaam":"Via Roma","straatNr":"40","vervoerder":"GLS","puntType":"parcel_shop","bezettingsgraad":50,"latitude":44.6780325,"longitude":11.0420903,"canPickup":true,"canDropoff":true,"openingstijden":"za: 07:30 - 12:30; zo: 07:30 - 12:30"}},{"type":"Feature","geometry":{"type":"Point","coordinates":[11.0388235,44.6781307]},"properties":{"type":"pakketpunt","locatieNaam":"MUHAMMAD SHOAIB KHAN","straatNaam":"Via Vittorio Veneto","straatNr":"14","vervoerder":"GLS","puntType":"parcel_shop","bezettingsgraad":50,"latitude":44.6781307,"longitude":11.0388235,"canPickup":true,"canDropoff":true,"openingstijden":"za: 09:30 - 19:30; ma: 09:30 - 19:30"}},{"type":"Feature","geometry":{"type":"Point","coordinates":[11.042093,44.678057]},"properties":{"type":"pakketpunt","locatieNaam":"QUADRIFOGLIO DI VEZZALI","straatNaam":"Via Roma 40","straatNr":"","vervoerder":"DHL","puntType":"parcelShop","bezettingsgraad":50,"latitude":44.678057,"longitude":11.042093,"canPickup":false,"canDropoff":true,"openingstijden":{"ma":"06:45 - 19:00","di":"06:45 - 19:00","wo":"06:45 - 12:45","do":"06:45 - 19:00","vr":"06:45 - 19:00","za":"gesloten","zo":"gesloten"}}},{"type":"Feature","geometry":{"type":"Point","coordinates":[11.041863,44.676354]},"properties":{"type":"pakketpunt","locatieNaam":"Ufficio Postale NONANTOLA","straatNaam":"VIA SALVO DACQUISTO 5","straatNr":"","vervoerder":"DHL","puntType":"postOffice","bezettingsgraad":50,"latitude":44.676354,"longitude":11.041863,"canPickup":true,"canDropoff":true,"openingstijden":{"ma":"08:20 - 13:35","di":"08:20 - 13:35","wo":"gesloten","do":"gesloten","vr":"08:20 - 13:35","za":"08:20 - 12:35","zo":"gesloten"}}},{"type":"Feature","geometry":{"type":"Point","coordinates":[11.042329,44.677384]},"properties":{"type":"pakketpunt","locatieNaam":"TABACCHERIA n. 2","straatNaam":"PIAZZA DELLA LIBERAZIONE 10","straatNr":"","vervoerder":"DHL","puntType":"parcelShop","bezettingsgraad":50,"latitude":44.677384,"longitude":11.042329,"canPickup":true,"canDropoff":true,"openingstijden":{"ma":"08:00 - 12:30, 15:00 - 19:30","di":"08:00 - 12:30, 15:00 - 19:30","wo":"08:00 - 12:30, 15:00 - 19:30","do":"08:00 - 12:30, 15:00 - 19:30","vr":"08:00 - 12:30, 15:00 - 19:30","za":"08:00 - 12:30, 15:00 - 19:30","zo":"gesloten"}}},{"type":"Feature","geometry":{"type":"Point","coordinates":[11.044858,44.678422]},"properties":{"type":"pakketpunt","locatieNaam":"TABACCHERIA N. 1","straatNaam":"VIA VITTORIO VENETO 125-A","straatNr":"","vervoerder":"DHL","puntType":"parcelShop","bezettingsgraad":50,"latitude":44.678422,"longitude":11.044858,"canPickup":true,"canDropoff":true,"openingstijden":{"ma":"06:00 - 21:30","di":"06:00 - 21:30","wo":"06:00 - 21:30","do":"06:00 - 21:30","vr":"06:00 - 21:30","za":"06:00 - 21:30","zo":"06:00 - 21:30"}}},{"type":"Feature","geometry":{"type":"Point","coordinates":[11.0542,44.6756]},"properties":{"type":"pakketpunt","locatieNaam":"TABACCHERIA CORSINI DANIELE","straatNaam":"Provinciale Est 80","straatNr":"","vervoerder":"DHL","puntType":"parcelShop","bezettingsgraad":50,"latitude":44.6756,"longitude":11.0542,"canPickup":false,"canDropoff":true,"openingstijden":{"ma":"06:00 - 19:00","di":"06:00 - 19:00","wo":"06:00 - 19:00","do":"06:00 - 19:00","vr":"06:00 - 19:00","za":"06:00 - 19:00","zo":"gesloten"}}},{"type":"Feature","geometry":{"type":"Point","coordinates":[11.068842,44.6725]},"properties":{"type":"pakketpunt","locatieNaam":"TABACCHERIA N. 7","straatNaam":"VIA PROVINCIALE EST 78","straatNr":"","vervoerder":"DHL","puntType":"parcelShop","bezettingsgraad":50,"latitude":44.6725,"longitude":11.068842,"canPickup":true,"canDropoff":true,"openingstijden":{"ma":"06:00 - 12:30, 15:00 - 19:00","di":"06:00 - 12:30, 15:00 - 19:00","wo":"06:00 - 12:30, 15:00 - 19:00","do":"06:00 - 12:30, 15:00 - 19:00","vr":"06:00 - 12:30, 15:00 - 19:00","za":"06:00 - 12:30, 15:00 - 19:00","zo":"gesloten"}}},{"type":"Feature","geometry":{"type":"Point","coordinates":[11.046728,44.678392]},"properties":{"type":"pakketpunt","locatieNaam":"Amazon Locker - brasilia","straatNaam":"ENI pv 6219","straatNr":"","vervoerder":"Amazon","puntType":"locker","bezettingsgraad":50,"latitude":44.678392,"longitude":11.046728,"canPickup":true,"canDropoff":false,"openingstijden":null}},{"type":"Feature","geometry":{"type":"Point","coordinates":[11.042147,44.677974]},"properties":{"type":"pakketpunt","locatieNaam":"Amazon Counter - PRIMAEDICOLA","straatNaam":"QUADRIFOGLIO-NONANTOLA","straatNr":"","vervoerder":"Amazon","puntType":"helix","bezettingsgraad":50,"latitude":44.677974,"longitude":11.042147,"canPickup":true,"canDropoff":false,"openingstijden":null}},{"type":"Feature","geometry":{"type":"Point","coordinates":[11.041128,44.678756]},"properties":{"type":"pakketpunt","locatieNaam":"Amazon Counter - TABACCHERIA DI MAO XIULI","straatNaam":"VIA VITTORIO VENETO 90","straatNr":"","vervoerder":"Amazon","puntType":"helix","bezettingsgraad":50,"latitude":44.678756,"longitude":11.041128,"canPickup":true,"canDropoff":false,"openingstijden":null}},{"type":"Feature","geometry":{"type":"Point","coordinates":[11.0418,44.6763]},"properties":{"type":"pakketpunt","locatieNaam":"Ufficio Postale NONANTOLA","straatNaam":"VIA SALVO DACQUISTO 5","straatNr":"","vervoerder":"Amazon","puntType":"3p","bezettingsgraad":50,"latitude":44.6763,"longitude":11.0418,"canPickup":true,"canDropoff":false,"openingstijden":null}},{"type":"Feature","geometry":{"type":"Point","coordinates":[11.0423,44.6773]},"properties":{"type":"pakketpunt","locatieNaam":"PuntoPoste TABACCHERIA n. 2","straatNaam":"PIAZZA DELLA LIBERAZIONE 10","straatNr":"","vervoerder":"Amazon","puntType":"3p","bezettingsgraad":50,"latitude":44.6773,"longitude":11.0423,"canPickup":true,"canDropoff":false,"openingstijden":null}},{"type":"Feature","geometry":{"type":"Point","coordinates":[11.068956,44.672413]},"properties":{"type":"pakketpunt","locatieNaam":"Amazon Counter - TABACCHI CORSINI DANIELE","straatNaam":"VIA PROVINCIALE EST 78","straatNr":"","vervoerder":"Amazon","puntType":"helix","bezettingsgraad":50,"latitude":44.672413,"longitude":11.068956,"canPickup":true,"canDropoff":false,"openingstijden":null}},{"type":"Feature","geometry":{"type":"Polygon","coordinates":[[[10.9922313,44.6621129],[10.9937142,44.6615259],[11.0093392,44.6541844],[11.0135718,44.6529218],[11.0162289,44.6525799],[11.0172961,44.6523365],[11.0224019,44.650588],[11.038347,44.6458705],[11.0468675,44.643008],[11.0492359,44.6423984],[11.0498427,44.6434043],[11.050067,44.6449353],[11.0499237,44.6458257],[11.0497345,44.6461457],[11.0498303,44.6464332],[11.0498379,44.6488026],[11.050428,44.6497185],[11.0508893,44.650268],[11.0509644,44.6505276],[11.0519837,44.652283],[11.0535823,44.6548856],[11.0690583,44.6502928],[11.0700248,44.6501405],[11.0698971,44.6499368],[11.072453,44.6490107],[11.0730267,44.6486523],[11.0742082,44.6481461],[11.0779754,44.6469852],[11.0910674,44.6681796],[11.0959694,44.675643],[11.0960174,44.6760739],[11.0980442,44.6793084],[11.1001124,44.6824007],[11.1009555,44.6838192],[11.1016714,44.6847689],[11.1020415,44.6855582],[11.105141,44.6903815],[11.1055609,44.6906523],[11.1059389,44.691613],[11.1076253,44.6948619],[11.1094707,44.6978607],[11.1119865,44.7010699],[11.1126877,44.7025898],[11.113987,44.7047808],[11.1155895,44.7070649],[11.1170679,44.7101663],[11.116628,44.7102727],[11.1164354,44.7104622],[11.1150666,44.7108705],[11.1140728,44.7114877],[11.1023862,44.7141555],[11.1001627,44.7153439],[11.0985983,44.7165109],[11.0965801,44.7175695],[11.096311,44.7176878],[11.0941451,44.7178756],[11.0936803,44.7180313],[11.092573,44.7192443],[11.0919612,44.7197749],[11.0905592,44.7231524],[11.0878076,44.7249638],[11.0864126,44.7257417],[11.0859057,44.7249571],[11.0798371,44.7277038],[11.0779115,44.7261309],[11.0755981,44.7256808],[11.0706199,44.7255158],[11.0688586,44.7252396],[11.0666767,44.7252318],[11.0634185,44.7257663],[11.0611885,44.7266521],[11.0605032,44.7255791],[11.0606265,44.725533],[11.0558321,44.7225791],[11.0560902,44.7223861],[11.055295,44.7217493],[11.0548413,44.7214925],[11.0543771,44.7214042],[11.0537894,44.7214573],[11.0501079,44.7223542],[11.0494268,44.722594],[11.0479599,44.7209342],[11.0472143,44.7198021],[11.0456478,44.7169547],[11.0449397,44.716421],[11.0440761,44.7162037],[11.0435504,44.7162304],[11.0431802,44.7163752],[11.0425204,44.7168899],[11.0412973,44.7186929],[11.0406375,44.719398],[11.040042,44.7196915],[11.0394895,44.7197449],[11.0389745,44.7193828],[11.0383254,44.7186624],[11.037848,44.7179724],[11.0372633,44.7173587],[11.0359007,44.7165277],[11.0339802,44.7157749],[11.0326284,44.7150563],[11.0320169,44.7145836],[11.0314268,44.7139927],[11.0300749,44.7116711],[11.0284442,44.7096506],[11.0271245,44.7077177],[11.0248661,44.7039393],[11.0228383,44.7009348],[11.0224628,44.7002141],[11.0222107,44.6987499],[11.0217172,44.6972323],[11.0212451,44.6963476],[11.0206443,44.6959053],[11.0182786,44.6946736],[11.0174149,44.6939795],[11.0172433,44.6935944],[11.0171843,44.6929957],[11.0174149,44.6915313],[11.0176188,44.6909325],[11.017836,44.689859],[11.0176563,44.6892087],[11.0173881,44.6887034],[11.0168865,44.6884136],[11.0157466,44.688322],[11.0138556,44.6883545],[11.0128123,44.6882839],[11.0117581,44.6880055],[11.0111493,44.6875841],[11.0089928,44.6847732],[11.0077831,44.683526],[11.0067531,44.6822349],[11.006206,44.6812184],[11.0058412,44.6801104],[11.0052833,44.6790366],[11.0047924,44.6786323],[11.0025367,44.6777778],[11.0013968,44.6771923],[11.0009328,44.6768605],[11.0006592,44.6765133],[11.0002059,44.6754147],[10.9999511,44.6740109],[10.9995729,44.6733929],[10.9976444,44.6719299],[10.9970596,44.6715942],[10.9959814,44.6706462],[10.9955254,44.6701331],[10.9942836,44.6683782],[10.9936908,44.6677258],[10.9930953,44.6673634],[10.9916013,44.6666785],[10.9905231,44.6659212],[10.9904668,44.6655225],[10.9905848,44.6651333],[10.9916872,44.6633497],[10.9922313,44.6621129]]]},"properties":{"type":"boundary","gemeente":"Nonantola"}}]}