{"type":"FeatureCollection","metadata":{"gemeente":"Nosate","slug":"nosate","generated_at":"2026-09-26T14:27:39.742416Z","total_points":1,"providers":["PosteItaliane"],"bounds":[8.72609787,45.55238899,8.72609787,45.55238899]},"features":[{"type":"Feature","geometry":{"type":"Point","coordinates":[8.72609787,45.55238899]},"properties":{"type":"pakketpunt","locatieNaam":"Nosate","straatNaam":"Via Ponte Di Castano","straatNr":"2","vervoerder":"PosteItaliane","puntType":"postkantoor","bezettingsgraad":50,"latitude":45.55238899,"longitude":8.72609787,"canPickup":true,"canDropoff":true,"openingstijden":{"za":"gesloten","zo":"gesloten","ma":"08:20 - 13:45","di":"gesloten","wo":"08:20 - 13:45","do":"gesloten","vr":"08:20 - 13:45"}}},{"type":"Feature","geometry":{"type":"Polygon","coordinates":[[[8.706843,45.5577666],[8.7060961,45.5535882],[8.7061643,45.5527873],[8.7072214,45.5490636],[8.7091056,45.5439019],[8.7094543,45.5433447],[8.7110017,45.5413309],[8.7123917,45.5424523],[8.7126469,45.542957],[8.7149982,45.543755],[8.7159295,45.5438788],[8.715833,45.5442836],[8.7172131,45.544305],[8.7182943,45.5435786],[8.7188577,45.5433145],[8.7196704,45.543114],[8.720426,45.5431518],[8.7213579,45.54283],[8.7221497,45.542994],[8.7225802,45.5427025],[8.7243512,45.5430128],[8.7252399,45.5429879],[8.7259985,45.5440519],[8.7264881,45.5441341],[8.7269774,45.5446078],[8.7268528,45.5452195],[8.7263648,45.546114],[8.7269314,45.5474925],[8.7328672,45.5485506],[8.7333868,45.5494114],[8.7335935,45.5500599],[8.7350579,45.5505944],[8.7352615,45.5512204],[8.7361021,45.5519469],[8.7374227,45.5534396],[8.7377057,45.5538858],[8.7381516,45.5558085],[8.7391077,45.5584466],[8.7392693,45.5596104],[8.7395028,45.5605427],[8.7394541,45.560573],[8.7384837,45.5598122],[8.729915,45.5610299],[8.7297964,45.5611188],[8.7262986,45.5639963],[8.7239317,45.5667617],[8.7232674,45.5685338],[8.7225318,45.5737857],[8.7219647,45.5733527],[8.7184605,45.5728451],[8.7191567,45.5701397],[8.719277,45.5675082],[8.7193482,45.5675059],[8.7195236,45.5667959],[8.7190316,45.5667111],[8.7193172,45.5659888],[8.7187827,45.5658311],[8.7171067,45.5643815],[8.7169069,45.5639633],[8.7168657,45.5633598],[8.7167624,45.5636185],[8.7165533,45.5634396],[8.7161789,45.5633773],[8.7162273,45.56312],[8.7151661,45.5631089],[8.7146203,45.5632527],[8.7144824,45.5631411],[8.7144724,45.5626941],[8.7142913,45.5621849],[8.7132747,45.5621471],[8.7120224,45.5619235],[8.7079437,45.5605949],[8.7068786,45.5583143],[8.706843,45.5577666]]]},"properties":{"type":"boundary","gemeente":"Nosate"}}]}