{"type":"FeatureCollection","metadata":{"gemeente":"Novella","slug":"novella","generated_at":"2026-09-26T13:10:18.259791Z","total_points":4,"providers":["PosteItaliane","Amazon"],"bounds":[11.05833721,46.39045602,11.10758397,46.4309274]},"features":[{"type":"Feature","geometry":{"type":"Point","coordinates":[11.05833721,46.39045602]},"properties":{"type":"pakketpunt","locatieNaam":"Revo'","straatNaam":"Via Carlo Antonio Martini","straatNr":"21","vervoerder":"PosteItaliane","puntType":"postkantoor","bezettingsgraad":50,"latitude":46.39045602,"longitude":11.05833721,"canPickup":true,"canDropoff":true,"openingstijden":{"za":"08:20 - 12:45","zo":"gesloten","ma":"gesloten","di":"08:20 - 13:45","wo":"gesloten","do":"08:20 - 13:45","vr":"gesloten"}}},{"type":"Feature","geometry":{"type":"Point","coordinates":[11.10758397,46.4309274]},"properties":{"type":"pakketpunt","locatieNaam":"Brez","straatNaam":"Piazza Municipio","straatNr":"13","vervoerder":"PosteItaliane","puntType":"postkantoor","bezettingsgraad":50,"latitude":46.4309274,"longitude":11.10758397,"canPickup":true,"canDropoff":true,"openingstijden":{"za":"08:20 - 12:45","zo":"gesloten","ma":"gesloten","di":"08:20 - 13:45","wo":"gesloten","do":"08:20 - 13:45","vr":"gesloten"}}},{"type":"Feature","geometry":{"type":"Point","coordinates":[11.08723213,46.41969073]},"properties":{"type":"pakketpunt","locatieNaam":"Cloz","straatNaam":"Via Di Santo Stefano","straatNr":"21","vervoerder":"PosteItaliane","puntType":"postkantoor","bezettingsgraad":50,"latitude":46.41969073,"longitude":11.08723213,"canPickup":true,"canDropoff":true,"openingstijden":{"za":"gesloten","zo":"gesloten","ma":"08:20 - 13:45","di":"gesloten","wo":"08:20 - 13:45","do":"gesloten","vr":"08:20 - 13:45"}}},{"type":"Feature","geometry":{"type":"Point","coordinates":[11.06248,46.392499]},"properties":{"type":"pakketpunt","locatieNaam":"Amazon Locker - odolindo","straatNaam":"COOP Trentino Revò - F.Coop Anaunia","straatNr":"","vervoerder":"Amazon","puntType":"locker","bezettingsgraad":50,"latitude":46.392499,"longitude":11.06248,"canPickup":true,"canDropoff":false,"openingstijden":null}},{"type":"Feature","geometry":{"type":"Polygon","coordinates":[[[11.0283022,46.3908794],[11.0286534,46.3915306],[11.0297209,46.3925259],[11.0300875,46.3934211],[11.031298,46.3940021],[11.0317781,46.3945423],[11.0320196,46.3946256],[11.0324729,46.3944295],[11.0327491,46.3945848],[11.032902,46.3948827],[11.0331756,46.3950788],[11.0336101,46.3950861],[11.0342646,46.3954117],[11.0349417,46.3955862],[11.0355004,46.3961697],[11.0355037,46.3962886],[11.034997,46.3966378],[11.0340632,46.3976548],[11.0332051,46.3978091],[11.0326606,46.3981106],[11.0325287,46.398295],[11.0325506,46.3984806],[11.0327518,46.3987599],[11.0327769,46.399014],[11.0325587,46.3992889],[11.0322431,46.3994557],[11.0316684,46.3995885],[11.0314129,46.3998565],[11.0314887,46.4003433],[11.0316628,46.4007224],[11.0316264,46.4009034],[11.0311872,46.4013807],[11.0299777,46.401844],[11.0296456,46.4023266],[11.0291949,46.4032672],[11.0291302,46.4036738],[11.0284762,46.4040325],[11.0277862,46.4046098],[11.0270199,46.4049118],[11.0267173,46.4051205],[11.0265774,46.4053409],[11.0265372,46.4055807],[11.0268821,46.406604],[11.0276051,46.4070342],[11.0278097,46.4072992],[11.0274514,46.4082152],[11.0273684,46.4085832],[11.0274158,46.409033],[11.0271668,46.4094173],[11.0271549,46.4097935],[11.0276797,46.4105212],[11.0267225,46.4110326],[11.0264181,46.4113999],[11.0264996,46.4117787],[11.0266837,46.4118506],[11.0273328,46.4118707],[11.0275582,46.4120833],[11.0279377,46.4135225],[11.0277242,46.4139886],[11.0279733,46.4146101],[11.028424,46.4150598],[11.0281986,46.4157222],[11.027914,46.4160574],[11.0275344,46.4169324],[11.0277005,46.4173412],[11.0281275,46.4178645],[11.0285426,46.4180199],[11.0290408,46.4184369],[11.0293491,46.4190419],[11.0294559,46.4197124],[11.0293729,46.4202848],[11.029017,46.4206445],[11.0290526,46.4210533],[11.0286375,46.4214458],[11.0284359,46.4218546],[11.0286849,46.4222552],[11.0301675,46.4230728],[11.0300608,46.4235552],[11.0305708,46.4240294],[11.0312943,46.4242501],[11.0315789,46.4246099],[11.0316857,46.4251413],[11.031911,46.4254438],[11.0324482,46.4256509],[11.0328384,46.4256596],[11.0330307,46.4257484],[11.0331166,46.4259444],[11.0329181,46.4264436],[11.0329646,46.4270184],[11.0331166,46.4273569],[11.033358,46.4274549],[11.033702,46.4277819],[11.0336546,46.4282725],[11.0344255,46.4291881],[11.0352676,46.4296867],[11.0360267,46.4300219],[11.0363944,46.4306268],[11.0366079,46.4315588],[11.0371179,46.4318285],[11.0374263,46.4322945],[11.0379007,46.4335043],[11.0376753,46.4340683],[11.0380015,46.4343704],[11.0379715,46.434719],[11.0380407,46.4349345],[11.0388496,46.435695],[11.0394663,46.4358748],[11.0396798,46.4362181],[11.0396086,46.4367494],[11.0397502,46.4369198],[11.0400356,46.4370518],[11.041232,46.4371008],[11.0420313,46.4372695],[11.042799,46.4371884],[11.0432804,46.4374292],[11.0436252,46.4378415],[11.0433514,46.4382329],[11.0435238,46.4384635],[11.0444161,46.4388967],[11.0447305,46.4393719],[11.0454707,46.4398261],[11.0457242,46.4401825],[11.0466227,46.440745],[11.04686,46.4416022],[11.0468011,46.4420158],[11.0474851,46.4426453],[11.0475471,46.4427928],[11.0474711,46.4431786],[11.0475828,46.4434201],[11.047755,46.4435163],[11.0478201,46.4436574],[11.0477767,46.4438199],[11.0472943,46.4444461],[11.0472617,46.4447347],[11.0475191,46.4453254],[11.0480558,46.4458162],[11.0477177,46.4463933],[11.0485677,46.4468262],[11.0487802,46.4470559],[11.0487755,46.4472408],[11.0486034,46.4476063],[11.0488934,46.4479686],[11.0487569,46.4482026],[11.0489979,46.4488086],[11.0489859,46.4494222],[11.0493077,46.4495984],[11.049713,46.4496636],[11.0509416,46.4492554],[11.0513786,46.4489307],[11.0515804,46.4489413],[11.0539798,46.449724],[11.0557274,46.448985],[11.0574923,46.4484087],[11.0590796,46.4477846],[11.0613925,46.4472623],[11.0645571,46.4462766],[11.0651287,46.4462074],[11.065979,46.4444868],[11.0672933,46.4431209],[11.0686129,46.4427846],[11.0730064,46.4413096],[11.076858,46.4429879],[11.0786068,46.4469725],[11.0785747,46.4496375],[11.0747337,46.4533241],[11.0746694,46.4537251],[11.0747981,46.4547618],[11.0747203,46.4551433],[11.0744575,46.4552727],[11.0732612,46.4555342],[11.0725746,46.4558003],[11.0723774,46.4559712],[11.0721615,46.4565763],[11.0709022,46.4572683],[11.0709067,46.4574008],[11.071487,46.4583105],[11.0717206,46.4588726],[11.0717753,46.4595419],[11.0716491,46.4597519],[11.0710626,46.4601877],[11.0708395,46.4605414],[11.0704563,46.4620773],[11.0705139,46.4628528],[11.0704204,46.4632615],[11.0691455,46.4644321],[11.0675866,46.4656188],[11.0674453,46.4658783],[11.0664648,46.4699427],[11.0660965,46.4711586],[11.0664206,46.4719997],[11.066968,46.4726031],[11.0669889,46.4727152],[11.0668113,46.4729921],[11.0660165,46.4735169],[11.065656,46.4764982],[11.0656848,46.4770465],[11.06364,46.4808342],[11.0627703,46.483112],[11.0616902,46.4873083],[11.061356,46.4889563],[11.0610317,46.4894488],[11.0581392,46.4898968],[11.0563353,46.4918553],[11.0553964,46.4934359],[11.0545235,46.4951907],[11.0522766,46.5010161],[11.0518653,46.5014952],[11.0506431,46.5025349],[11.0494881,46.5043616],[11.0492687,46.5060982],[11.0490059,46.5070418],[11.0514451,46.507174],[11.0616804,46.5007545],[11.0642144,46.4981239],[11.0713351,46.4910091],[11.0900019,46.4809547],[11.1001597,46.4772587],[11.1012974,46.4766978],[11.1028355,46.4757921],[11.1030674,46.4750903],[11.1033982,46.4723529],[11.1035869,46.4698565],[11.1055386,46.4610235],[11.110081,46.4568757],[11.110296,46.4561927],[11.1100951,46.4557874],[11.1102804,46.4553508],[11.1098392,46.4548227],[11.1098157,46.4546957],[11.1103555,46.4533773],[11.1110718,46.4527063],[11.1118339,46.4432428],[11.1124012,46.4415967],[11.1133647,46.4401389],[11.1149313,46.4383016],[11.1161932,46.437363],[11.1161597,46.4372556],[11.1164927,46.4364845],[11.1165351,46.4361507],[11.1164717,46.4360664],[11.1161097,46.4357536],[11.1155309,46.4354718],[11.1154242,46.4353208],[11.1154684,46.434699],[11.1153656,46.4342689],[11.1151202,46.4340259],[11.1146093,46.4338149],[11.1144696,46.4335699],[11.1145185,46.4327725],[11.1146924,46.4325578],[11.1154524,46.4324358],[11.1155786,46.4321229],[11.1157892,46.43193],[11.1160578,46.4312186],[11.1157147,46.4310134],[11.1155006,46.4307384],[11.1153584,46.4303855],[11.1156585,46.4301505],[11.1156353,46.4300564],[11.1155258,46.4298334],[11.1150075,46.429348],[11.1148152,46.4287936],[11.1145432,46.4286591],[11.1135447,46.4284616],[11.1132101,46.4283058],[11.1126283,46.427313],[11.1123032,46.4271931],[11.1118773,46.4272459],[11.1111553,46.4271693],[11.1102677,46.4266412],[11.1101656,46.4264811],[11.110058,46.426222],[11.1101446,46.4260225],[11.1108826,46.4253743],[11.1109409,46.4248197],[11.1115563,46.4245384],[11.1114989,46.4244],[11.1116549,46.4242666],[11.1118885,46.4238303],[11.1117936,46.42331],[11.1116053,46.423111],[11.1102226,46.423069],[11.1093766,46.4232376],[11.1086911,46.4230523],[11.1083594,46.4226354],[11.1081171,46.4221314],[11.1076032,46.4215874],[11.1075195,46.4210624],[11.107637,46.4206913],[11.1068118,46.4202565],[11.1061206,46.4197112],[11.1056788,46.4194764],[11.1055397,46.4193709],[11.1053455,46.4190145],[11.1044634,46.4187517],[11.1032481,46.4187471],[11.1023393,46.4188448],[11.1011943,46.4187219],[11.1010486,46.4186121],[11.1010096,46.4181898],[11.1008,46.4178156],[11.1007991,46.4174962],[11.1010249,46.4170645],[11.1009757,46.4169709],[11.1004245,46.4167651],[11.0999933,46.415954],[11.0995833,46.4155295],[11.0988016,46.4150135],[11.0980554,46.4146593],[11.0971313,46.4145973],[11.0967576,46.4144795],[11.096534,46.4141246],[11.0965608,46.4134826],[11.0964404,46.4132221],[11.096202,46.4130102],[11.0948915,46.4124949],[11.0943219,46.4118662],[11.0940444,46.4117729],[11.0933945,46.4118074],[11.0930966,46.4116581],[11.0926482,46.4112185],[11.0925314,46.4110335],[11.0925278,46.410828],[11.0914899,46.410157],[11.0912454,46.4098359],[11.0896387,46.4094264],[11.0886137,46.4089267],[11.0883612,46.4083872],[11.0884898,46.4079612],[11.088426,46.4078356],[11.0881665,46.4076836],[11.088032,46.4072268],[11.0873983,46.4068121],[11.0868095,46.4062955],[11.0864253,46.4060788],[11.0857151,46.4059343],[11.0852245,46.4061039],[11.0843529,46.4062072],[11.0837007,46.4062277],[11.0816341,46.4060817],[11.0812732,46.4059718],[11.0810293,46.4056495],[11.0802973,46.4051111],[11.079372,46.4047259],[11.0791112,46.4044673],[11.0789627,46.4037107],[11.0786134,46.4034918],[11.0776674,46.4025485],[11.0775364,46.4022374],[11.0775801,46.4018459],[11.0779148,46.4016352],[11.0780427,46.4011609],[11.0776701,46.4006757],[11.0767091,46.3999065],[11.078235,46.4001298],[11.0786904,46.399927],[11.0787304,46.3997483],[11.0785285,46.3993751],[11.0781381,46.3990825],[11.077897,46.3983795],[11.0783637,46.3977302],[11.0788392,46.3976079],[11.0787637,46.39749],[11.0788434,46.3971883],[11.0792738,46.396814],[11.0790311,46.3962915],[11.0789207,46.3956411],[11.0791245,46.3948494],[11.0789314,46.394435],[11.0784915,46.3940502],[11.0784164,46.3937099],[11.0789528,46.3932659],[11.079299,46.392822],[11.0786941,46.3924178],[11.0778531,46.3901431],[11.0770884,46.3899203],[11.0759327,46.3898323],[11.075246,46.3893143],[11.072478,46.3884706],[11.0720596,46.38796],[11.0721205,46.3875626],[11.0716313,46.3870766],[11.0712177,46.3869068],[11.0708975,46.3866733],[11.0707444,46.3863948],[11.0703988,46.3860911],[11.0703,46.3858249],[11.0690823,46.3858286],[11.0686639,46.3855622],[11.0678056,46.385355],[11.0674408,46.3857324],[11.0655203,46.3863245],[11.0647795,46.3862121],[11.0635849,46.3839571],[11.0616633,46.3813066],[11.0598394,46.3792786],[11.0583588,46.3787605],[11.0577747,46.3783811],[11.0561465,46.3780344],[11.0530387,46.3763575],[11.0532913,46.3723686],[11.0542682,46.3679097],[11.0543268,46.3668321],[11.0521285,46.3673483],[11.0509482,46.3681268],[11.0481412,46.3713765],[11.0477291,46.3724369],[11.0475777,46.3763055],[11.0450129,46.3820687],[11.0417447,46.3853378],[11.0407394,46.3860469],[11.0387868,46.3871274],[11.0370916,46.3876455],[11.0356969,46.3883707],[11.0353267,46.38978],[11.0325104,46.3899914],[11.0304612,46.3900062],[11.0283022,46.3908794]]]},"properties":{"type":"boundary","gemeente":"Novella"}}]}