{"type":"FeatureCollection","metadata":{"gemeente":"Numana","slug":"numana","generated_at":"2026-09-26T14:27:40.074538Z","total_points":15,"providers":["PosteItaliane","DPD","GLS","DHL","Amazon","FedEx"],"bounds":[13.61913,43.4960911,13.6228947,43.514282233033896]},"features":[{"type":"Feature","geometry":{"type":"Point","coordinates":[13.62210773,43.51351962]},"properties":{"type":"pakketpunt","locatieNaam":"Numana","straatNaam":"Piazza Del Santuario","straatNr":"11","vervoerder":"PosteItaliane","puntType":"postkantoor","bezettingsgraad":50,"latitude":43.51351962,"longitude":13.62210773,"canPickup":true,"canDropoff":true,"openingstijden":{"za":"08:20 - 12:35","zo":"gesloten","ma":"08:20 - 13:35","di":"08:20 - 13:35","wo":"08:20 - 13:35","do":"08:20 - 13:35","vr":"08:20 - 13:35"}}},{"type":"Feature","geometry":{"type":"Point","coordinates":[13.61941339,43.49832936]},"properties":{"type":"pakketpunt","locatieNaam":"Is - Stazione Di Servizio","straatNaam":"Via Del Conero Snc","straatNr":"1","vervoerder":"PosteItaliane","puntType":"servicepunt","bezettingsgraad":50,"latitude":43.49832936,"longitude":13.61941339,"canPickup":true,"canDropoff":true,"openingstijden":{"za":"07:30 - 14:00, 16:00 - 20:30","zo":"gesloten","ma":"07:30 - 14:00, 16:00 - 20:30","di":"07:30 - 14:00, 16:00 - 20:30","wo":"07:30 - 14:00, 16:00 - 20:30","do":"07:30 - 14:00","vr":"07:30 - 14:00, 16:00 - 20:30"}}},{"type":"Feature","geometry":{"type":"Point","coordinates":[13.62149549,43.51379695]},"properties":{"type":"pakketpunt","locatieNaam":"Tabaccheria N. 1","straatNaam":"Piazza Del Santuario","straatNr":"25","vervoerder":"PosteItaliane","puntType":"servicepunt","bezettingsgraad":50,"latitude":43.51379695,"longitude":13.62149549,"canPickup":true,"canDropoff":true,"openingstijden":{"za":"gesloten","zo":"gesloten","ma":"08:30 - 12:00, 16:00 - 18:30","di":"08:30 - 12:00, 16:00 - 18:30","wo":"08:30 - 12:00, 16:00 - 18:30","do":"08:30 - 12:00, 16:00 - 18:30","vr":"08:30 - 10:00"}}},{"type":"Feature","geometry":{"type":"Point","coordinates":[13.62052004,43.51422742]},"properties":{"type":"pakketpunt","locatieNaam":"Conero Energia","straatNaam":"VIA FLAMINIA","straatNr":"38","vervoerder":"DPD","puntType":"pickup_point","bezettingsgraad":50,"latitude":43.51422742,"longitude":13.62052004,"canPickup":true,"canDropoff":true,"openingstijden":{"ma":"16:30 - 19:00","di":"09:00 - 12:00, 16:30 - 19:00","wo":"09:00 - 12:00, 16:30 - 19:00","do":"09:00 - 12:00, 16:30 - 19:00","vr":"09:00 - 12:00, 16:30 - 19:00","za":"09:00 - 12:00","zo":"gesloten"}}},{"type":"Feature","geometry":{"type":"Point","coordinates":[13.61918252,43.49827806]},"properties":{"type":"pakketpunt","locatieNaam":"IS","straatNaam":"VIA DEL CONERO","straatNr":"SNC","vervoerder":"DPD","puntType":"pickup_point","bezettingsgraad":50,"latitude":43.49827806,"longitude":13.61918252,"canPickup":true,"canDropoff":true,"openingstijden":{"ma":"07:00 - 12:30, 15:00 - 19:00","di":"07:00 - 12:30, 15:00 - 19:00","wo":"07:00 - 12:30, 15:00 - 19:00","do":"07:00 - 12:30, 15:00 - 19:00","vr":"07:00 - 12:30, 15:00 - 19:00","za":"07:00 - 12:00","zo":"gesloten"}}},{"type":"Feature","geometry":{"type":"Point","coordinates":[13.6228947,43.4960911]},"properties":{"type":"pakketpunt","locatieNaam":"IS","straatNaam":"Via Del Conero","straatNr":"snc","vervoerder":"GLS","puntType":"parcel_shop","bezettingsgraad":50,"latitude":43.4960911,"longitude":13.6228947,"canPickup":true,"canDropoff":true,"openingstijden":"za: 07:00 - 12:30; ma: 07:00 - 12:30, 15:00 - 19:00"}},{"type":"Feature","geometry":{"type":"Point","coordinates":[13.6204694,43.5141465]},"properties":{"type":"pakketpunt","locatieNaam":"ConeroEnergia","straatNaam":"Via Flaminia","straatNr":"38","vervoerder":"GLS","puntType":"parcel_shop","bezettingsgraad":50,"latitude":43.5141465,"longitude":13.6204694,"canPickup":true,"canDropoff":true,"openingstijden":"za: 09:00 - 12:00; ma: 09:00 - 12:00, 16:30 - 19:00"}},{"type":"Feature","geometry":{"type":"Point","coordinates":[13.61976,43.49812]},"properties":{"type":"pakketpunt","locatieNaam":"STAZIONE DI SERVIZIO IS","straatNaam":"Via Del Conero Snc","straatNr":"","vervoerder":"DHL","puntType":"parcelShop","bezettingsgraad":50,"latitude":43.49812,"longitude":13.61976,"canPickup":false,"canDropoff":true,"openingstijden":{"ma":"07:00 - 19:00","di":"07:00 - 19:00","wo":"07:00 - 19:00","do":"07:00 - 19:00","vr":"07:00 - 19:00","za":"06:30 - 12:30","zo":"gesloten"}}},{"type":"Feature","geometry":{"type":"Point","coordinates":[13.619413,43.498329]},"properties":{"type":"pakketpunt","locatieNaam":"IS - STAZIONE DI SERVIZIO","straatNaam":"VIA DEL CONERO SNC 1","straatNr":"","vervoerder":"DHL","puntType":"parcelShop","bezettingsgraad":50,"latitude":43.498329,"longitude":13.619413,"canPickup":true,"canDropoff":true,"openingstijden":{"ma":"07:30 - 14:00, 16:00 - 20:30","di":"07:30 - 14:00, 16:00 - 20:30","wo":"07:30 - 14:00, 16:00 - 20:30","do":"07:30 - 14:00","vr":"07:30 - 14:00, 16:00 - 20:30","za":"07:30 - 14:00, 16:00 - 20:30","zo":"gesloten"}}},{"type":"Feature","geometry":{"type":"Point","coordinates":[13.6222,43.5105]},"properties":{"type":"pakketpunt","locatieNaam":"CONERO ENERGIA","straatNaam":"Via Flaminia 38","straatNr":"","vervoerder":"DHL","puntType":"parcelShop","bezettingsgraad":50,"latitude":43.5105,"longitude":13.6222,"canPickup":false,"canDropoff":true,"openingstijden":{"ma":"16:30 - 18:30","di":"09:00 - 19:00","wo":"09:00 - 19:00","do":"09:00 - 19:00","vr":"09:00 - 19:00","za":"08:30 - 12:00","zo":"gesloten"}}},{"type":"Feature","geometry":{"type":"Point","coordinates":[13.622108,43.51352]},"properties":{"type":"pakketpunt","locatieNaam":"Ufficio Postale NUMANA","straatNaam":"PIAZZA DEL SANTUARIO 11","straatNr":"","vervoerder":"DHL","puntType":"postOffice","bezettingsgraad":50,"latitude":43.51352,"longitude":13.622108,"canPickup":true,"canDropoff":true,"openingstijden":{"ma":"08:20 - 13:35","di":"08:20 - 13:35","wo":"08:20 - 13:35","do":"08:20 - 13:35","vr":"08:20 - 13:35","za":"08:20 - 12:35","zo":"gesloten"}}},{"type":"Feature","geometry":{"type":"Point","coordinates":[13.621495,43.513797]},"properties":{"type":"pakketpunt","locatieNaam":"TABACCHERIA N. 1","straatNaam":"PIAZZA DEL SANTUARIO 25","straatNr":"","vervoerder":"DHL","puntType":"parcelShop","bezettingsgraad":50,"latitude":43.513797,"longitude":13.621495,"canPickup":true,"canDropoff":true,"openingstijden":{"ma":"08:30 - 12:00, 16:00 - 18:30","di":"08:30 - 12:00, 16:00 - 18:30","wo":"08:30 - 12:00, 16:00 - 18:30","do":"08:30 - 12:00, 16:00 - 18:30","vr":"08:30 - 10:00","za":"gesloten","zo":"gesloten"}}},{"type":"Feature","geometry":{"type":"Point","coordinates":[13.61913,43.4981933]},"properties":{"type":"pakketpunt","locatieNaam":"Amazon Counter (fermopoint)","straatNaam":"IS","straatNr":"","vervoerder":"Amazon","puntType":"helix","bezettingsgraad":50,"latitude":43.4981933,"longitude":13.61913,"canPickup":true,"canDropoff":false,"openingstijden":null}},{"type":"Feature","geometry":{"type":"Point","coordinates":[13.6228947,43.4960911]},"properties":{"type":"pakketpunt","locatieNaam":"FedEx OnSite","straatNaam":"Via del conero, snc","straatNr":"","vervoerder":"FedEx","puntType":"servicepunt","bezettingsgraad":50,"latitude":43.4960911,"longitude":13.6228947,"canPickup":true,"canDropoff":true,"openingstijden":{"ma":"07:00 - 12:30, 15:00 - 19:00","di":"07:00 - 12:30, 15:00 - 19:00","wo":"07:00 - 12:30, 15:00 - 19:00","do":"07:00 - 12:30, 15:00 - 19:00","vr":"07:00 - 12:30, 15:00 - 19:00","za":"07:00 - 12:30","zo":"gesloten"}}},{"type":"Feature","geometry":{"type":"Point","coordinates":[13.620506124032783,43.514282233033896]},"properties":{"type":"pakketpunt","locatieNaam":"FedEx OnSite","straatNaam":"Via Flaminia, 38","straatNr":"","vervoerder":"FedEx","puntType":"servicepunt","bezettingsgraad":50,"latitude":43.514282233033896,"longitude":13.620506124032783,"canPickup":true,"canDropoff":true,"openingstijden":{"ma":"09:00 - 12:00, 16:30 - 19:00","di":"09:00 - 12:00, 16:30 - 19:00","wo":"09:00 - 12:00","do":"09:00 - 12:00, 16:30 - 19:00","vr":"09:00 - 12:00, 16:30 - 19:00","za":"09:00 - 12:00","zo":"gesloten"}}},{"type":"Feature","geometry":{"type":"Polygon","coordinates":[[[13.5911878,43.4791502],[13.5917154,43.4782827],[13.5926323,43.47717],[13.5931337,43.4767717],[13.5970317,43.4745035],[13.5986209,43.4742279],[13.5998804,43.4743302],[13.601502,43.4742783],[13.603151,43.4746259],[13.6063128,43.4747909],[13.6067691,43.474777],[13.6072183,43.4746283],[13.6091152,43.4743357],[13.6111,43.4741429],[13.6131517,43.4735288],[13.6153994,43.4725692],[13.6186415,43.4713982],[13.6210588,43.4700714],[13.621626,43.4695263],[13.6219641,43.4693415],[13.6224221,43.4693095],[13.6244488,43.4687772],[13.62523,43.4687681],[13.6279612,43.4692875],[13.6288147,43.4698201],[13.6314777,43.4707788],[13.6318037,43.4710807],[13.6328041,43.4717153],[13.6335522,43.4725266],[13.6339169,43.4728089],[13.6353556,43.4737183],[13.6366503,43.4738772],[13.6383475,43.4735971],[13.6388809,43.4735853],[13.6422828,43.4739419],[13.640588,43.4765475],[13.6385639,43.4798876],[13.6336534,43.4866736],[13.6313981,43.4894693],[13.6286705,43.4932693],[13.6257298,43.4978658],[13.624715,43.4997299],[13.624046,43.5011867],[13.6228493,43.5045148],[13.6227305,43.5055911],[13.6228143,43.5063498],[13.6230075,43.5071637],[13.6234696,43.5077991],[13.6243774,43.508375],[13.6243855,43.5082888],[13.6247741,43.5083796],[13.6247323,43.508496],[13.6244705,43.5084478],[13.6243824,43.5090336],[13.6247655,43.5092761],[13.6243981,43.5091397],[13.6240332,43.5098192],[13.6255278,43.5111561],[13.6256072,43.5111646],[13.6263154,43.5105989],[13.625992,43.5103616],[13.6260497,43.5103281],[13.6263981,43.5106176],[13.6266041,43.5104106],[13.6267656,43.5104811],[13.6265874,43.510703],[13.6251935,43.5117775],[13.6251632,43.511878],[13.6253248,43.5120318],[13.6249771,43.5119171],[13.6247371,43.5122225],[13.6248225,43.5134136],[13.6250554,43.5138999],[13.6253361,43.5139189],[13.6248602,43.5139823],[13.6246077,43.5149869],[13.6242639,43.5156512],[13.624027,43.5155746],[13.623463,43.5156807],[13.6222339,43.5163112],[13.6220495,43.5156794],[13.6216888,43.5156941],[13.621192,43.515264],[13.619524,43.5146024],[13.6185059,43.5143105],[13.6173443,43.5136778],[13.6166896,43.5130021],[13.6162264,43.5122421],[13.6156345,43.5115774],[13.6152659,43.5109216],[13.6144855,43.5101586],[13.6142074,43.509614],[13.6138358,43.5091609],[13.6135795,43.5089237],[13.6120498,43.5082473],[13.6115747,43.5078974],[13.6096057,43.5058388],[13.6088033,43.5052095],[13.607896,43.5043414],[13.6072984,43.5039649],[13.6068131,43.5034804],[13.6064643,43.502027],[13.6059044,43.5016985],[13.6055711,43.5016669],[13.6048184,43.5010806],[13.604202,43.5007409],[13.60301,43.4995826],[13.6021477,43.4993023],[13.602044,43.4989959],[13.60204,43.4986585],[13.6021561,43.4984377],[13.6021613,43.4981404],[13.6016719,43.4969088],[13.6014806,43.4960613],[13.6012071,43.4955546],[13.6010266,43.4954179],[13.5995422,43.4948835],[13.5999139,43.4942429],[13.5985176,43.4936465],[13.5981177,43.493388],[13.5979876,43.4931006],[13.5981665,43.4928504],[13.5986285,43.4925842],[13.5988481,43.4923007],[13.5986749,43.4918126],[13.5973573,43.4893629],[13.5954598,43.4863604],[13.5940015,43.4837228],[13.5929157,43.4819615],[13.5921128,43.4803418],[13.5911878,43.4791502]]]},"properties":{"type":"boundary","gemeente":"Numana"}}]}