{"type":"FeatureCollection","metadata":{"gemeente":"Nuvolera","slug":"nuvolera","generated_at":"2026-09-26T13:10:18.586223Z","total_points":9,"providers":["PosteItaliane","DPD","InPost","GLS","DHL","Amazon"],"bounds":[10.3666,45.5279,10.38869,45.53431]},"features":[{"type":"Feature","geometry":{"type":"Point","coordinates":[10.36662752,45.53098342]},"properties":{"type":"pakketpunt","locatieNaam":"Nuvolera","straatNaam":"Viale Alcide De Gasperi","straatNr":"1","vervoerder":"PosteItaliane","puntType":"postkantoor","bezettingsgraad":50,"latitude":45.53098342,"longitude":10.36662752,"canPickup":true,"canDropoff":true,"openingstijden":{"za":"08:20 - 12:35","zo":"gesloten","ma":"08:20 - 13:35","di":"08:20 - 13:35","wo":"08:20 - 13:35","do":"08:20 - 13:35","vr":"08:20 - 13:35"}}},{"type":"Feature","geometry":{"type":"Point","coordinates":[10.3710133,45.5341275]},"properties":{"type":"pakketpunt","locatieNaam":"Tabaccheria 1 - Nuvolera","straatNaam":"VIA BONFADINI","straatNr":"51","vervoerder":"DPD","puntType":"pickup_point","bezettingsgraad":50,"latitude":45.5341275,"longitude":10.3710133,"canPickup":true,"canDropoff":true,"openingstijden":{"ma":"09:30 - 12:00","di":"09:30 - 12:00","wo":"09:30 - 12:00","do":"09:30 - 12:00","vr":"09:30 - 12:00","za":"09:30 - 12:00","zo":"gesloten"}}},{"type":"Feature","geometry":{"type":"Point","coordinates":[10.37102,45.53431]},"properties":{"type":"pakketpunt","locatieNaam":"InPost Point","straatNaam":"Via Bonfadini","straatNr":"51","vervoerder":"InPost","puntType":"servicepunt","bezettingsgraad":50,"latitude":45.53431,"longitude":10.37102,"canPickup":true,"canDropoff":true,"openingstijden":"Lun-Sab: 08:30 - 12:00 - 16:30 - 19:30"}},{"type":"Feature","geometry":{"type":"Point","coordinates":[10.38869,45.5279]},"properties":{"type":"pakketpunt","locatieNaam":"InPost Locker 24/7","straatNaam":"Via Gardesana (SS45bis)","straatNr":"54","vervoerder":"InPost","puntType":"automaat","bezettingsgraad":50,"latitude":45.5279,"longitude":10.38869,"canPickup":true,"canDropoff":true,"openingstijden":null}},{"type":"Feature","geometry":{"type":"Point","coordinates":[10.37083,45.53366]},"properties":{"type":"pakketpunt","locatieNaam":"InPost Locker","straatNaam":"Viale Italia","straatNr":"10","vervoerder":"InPost","puntType":"automaat","bezettingsgraad":50,"latitude":45.53366,"longitude":10.37083,"canPickup":true,"canDropoff":true,"openingstijden":"lunedì a venerdì dalle 09:00 - 13:00 e dalle 14:00 alle 18:00."}},{"type":"Feature","geometry":{"type":"Point","coordinates":[10.3710133,45.5341275]},"properties":{"type":"pakketpunt","locatieNaam":"tabaccheria","straatNaam":"Via Bonfadini","straatNr":"51","vervoerder":"GLS","puntType":"parcel_shop","bezettingsgraad":50,"latitude":45.5341275,"longitude":10.3710133,"canPickup":true,"canDropoff":true,"openingstijden":"za: 09:00 - 12:00; ma: 09:00 - 12:00"}},{"type":"Feature","geometry":{"type":"Point","coordinates":[10.366628,45.530983]},"properties":{"type":"pakketpunt","locatieNaam":"Ufficio Postale NUVOLERA","straatNaam":"VIA ALCIDE DE GASPERI 1","straatNr":"","vervoerder":"DHL","puntType":"postOffice","bezettingsgraad":50,"latitude":45.530983,"longitude":10.366628,"canPickup":true,"canDropoff":true,"openingstijden":{"ma":"08:20 - 13:35","di":"08:20 - 13:35","wo":"08:20 - 13:35","do":"08:20 - 13:35","vr":"08:20 - 13:35","za":"08:20 - 12:35","zo":"gesloten"}}},{"type":"Feature","geometry":{"type":"Point","coordinates":[10.37078,45.53402]},"properties":{"type":"pakketpunt","locatieNaam":"TABACCHERIA  NR 1 NUVOLERA","straatNaam":"Via Bonfadini 51","straatNr":"","vervoerder":"DHL","puntType":"parcelShop","bezettingsgraad":50,"latitude":45.53402,"longitude":10.37078,"canPickup":false,"canDropoff":true,"openingstijden":{"ma":"08:30 - 19:30","di":"08:30 - 19:30","wo":"08:30 - 19:30","do":"08:30 - 19:30","vr":"08:30 - 19:30","za":"08:30 - 19:30","zo":"gesloten"}}},{"type":"Feature","geometry":{"type":"Point","coordinates":[10.3666,45.5309]},"properties":{"type":"pakketpunt","locatieNaam":"Ufficio Postale NUVOLERA","straatNaam":"VIA ALCIDE DE GASPERI 1","straatNr":"","vervoerder":"Amazon","puntType":"3p","bezettingsgraad":50,"latitude":45.5309,"longitude":10.3666,"canPickup":true,"canDropoff":false,"openingstijden":null}},{"type":"Feature","geometry":{"type":"Polygon","coordinates":[[[10.3351697,45.5669079],[10.3354176,45.5652878],[10.335494,45.5642205],[10.3353234,45.562949],[10.335335,45.5614357],[10.3350806,45.5606935],[10.3360304,45.5580384],[10.3365875,45.5566542],[10.3368827,45.5563385],[10.337398,45.5559366],[10.3379507,45.5556443],[10.338946,45.5553398],[10.339662,45.5548518],[10.3402747,45.5539593],[10.3396881,45.5536818],[10.3393812,45.5531507],[10.3392459,45.5525518],[10.3393663,45.5518482],[10.3397491,45.5510444],[10.34011,45.550493],[10.3403332,45.549413],[10.3398295,45.5482376],[10.3397027,45.5476872],[10.3396501,45.5466371],[10.341947,45.5459362],[10.3416421,45.5457527],[10.3415302,45.5454907],[10.3415683,45.5451259],[10.3423161,45.5440884],[10.3422751,45.5439102],[10.3412709,45.5433128],[10.340608,45.5430243],[10.3417252,45.5417043],[10.3423793,45.5408035],[10.3427817,45.5402042],[10.3430746,45.5394231],[10.343178,45.5389519],[10.3428751,45.5378401],[10.342929,45.5371244],[10.3431424,45.5364109],[10.3432696,45.5341999],[10.3446153,45.5340178],[10.3452952,45.5333343],[10.3457863,45.5325435],[10.3470934,45.5318234],[10.347927,45.5309452],[10.3484758,45.530566],[10.3489369,45.5304173],[10.3488394,45.530311],[10.3501373,45.5298362],[10.3485589,45.5291875],[10.3490708,45.5289968],[10.3515504,45.5273065],[10.3527151,45.5266228],[10.3565875,45.5253706],[10.3567423,45.5251025],[10.3587284,45.5232495],[10.3590739,45.5232652],[10.3595635,45.5247385],[10.3617615,45.5235607],[10.3623941,45.5233357],[10.3658303,45.5198418],[10.3657091,45.5198138],[10.3671535,45.5183673],[10.367416,45.5177837],[10.3678848,45.5172429],[10.3702932,45.5156036],[10.3729459,45.513649],[10.3733631,45.5138904],[10.3767119,45.511277],[10.3764209,45.5111231],[10.3772726,45.5104875],[10.3775579,45.5106207],[10.3782322,45.5099943],[10.3795119,45.5090405],[10.3868394,45.5092284],[10.3917506,45.5094631],[10.3971251,45.5099519],[10.3983714,45.513277],[10.398317,45.5137361],[10.3987778,45.5142289],[10.3994397,45.5157728],[10.3991492,45.5163868],[10.3997269,45.5178357],[10.3952815,45.5221527],[10.39535,45.522374],[10.3934292,45.5242999],[10.3931431,45.524201],[10.3896012,45.5279636],[10.3898533,45.5285511],[10.3901329,45.528675],[10.3900737,45.5290589],[10.3893785,45.528675],[10.3890285,45.5286205],[10.38583,45.5318051],[10.3832472,45.5336054],[10.3802569,45.5360441],[10.3766467,45.538666],[10.3773794,45.5389968],[10.3774604,45.5394172],[10.378075,45.5393922],[10.3784312,45.5397629],[10.3790679,45.5400376],[10.3777428,45.5411273],[10.3777658,45.5412438],[10.3778878,45.5412925],[10.376011,45.5427729],[10.3742072,45.5452766],[10.3734623,45.5459566],[10.3719788,45.547092],[10.3693231,45.54758],[10.3680727,45.5440873],[10.3667071,45.5442653],[10.3662558,45.5444163],[10.3648578,45.545147],[10.3649072,45.5462601],[10.3644417,45.5462645],[10.3645469,45.5476129],[10.3646716,45.5479731],[10.364455,45.5483544],[10.3625345,45.5489278],[10.3597102,45.5494477],[10.3564328,45.5482619],[10.3564225,45.5490891],[10.3558197,45.549888],[10.3557753,45.5501365],[10.3561288,45.5509255],[10.3560756,45.5514703],[10.3556663,45.5522591],[10.3551075,45.5526425],[10.3547815,45.5526939],[10.3545724,45.5529105],[10.3546996,45.5541206],[10.3549461,45.5545125],[10.3549305,45.5547942],[10.3553409,45.5552628],[10.3551827,45.5555868],[10.354632,45.5557807],[10.3543692,45.5560801],[10.3540756,45.5567301],[10.3535415,45.5569444],[10.352427,45.5575705],[10.3519336,45.5583637],[10.3513725,45.5589789],[10.3506598,45.5592381],[10.3501111,45.5595784],[10.3495735,45.560246],[10.3490912,45.5606776],[10.3485062,45.560993],[10.3477579,45.5617263],[10.347348,45.5624502],[10.346132,45.5635027],[10.3454952,45.5638391],[10.3449781,45.5643486],[10.3444814,45.5646932],[10.3435945,45.5648413],[10.3429433,45.5650772],[10.3420674,45.5655503],[10.3415743,45.5659132],[10.3411869,45.5663852],[10.339806,45.5673127],[10.339575,45.5673304],[10.3393061,45.5669614],[10.3389711,45.5667555],[10.33851,45.5666145],[10.3361259,45.566583],[10.3351697,45.5669079]]]},"properties":{"type":"boundary","gemeente":"Nuvolera"}}]}