{"type":"FeatureCollection","metadata":{"gemeente":"Olivadi","slug":"olivadi","generated_at":"2026-09-26T14:27:40.555355Z","total_points":2,"providers":["GLS","Amazon"],"bounds":[16.4240457,38.7250246,16.4240457,38.7250246]},"features":[{"type":"Feature","geometry":{"type":"Point","coordinates":[16.4240457,38.7250246]},"properties":{"type":"pakketpunt","locatieNaam":"SM@RT-HUB","straatNaam":"Via Duca Degli Abruzzi","straatNr":"13","vervoerder":"GLS","puntType":"parcel_shop","bezettingsgraad":50,"latitude":38.7250246,"longitude":16.4240457,"canPickup":true,"canDropoff":true,"openingstijden":"za: 10:00 - 12:30; ma: 09:00 - 12:30, 17:00 - 19:30"}},{"type":"Feature","geometry":{"type":"Point","coordinates":[16.4240457,38.7250246]},"properties":{"type":"pakketpunt","locatieNaam":"Amazon Counter (fermopoint)","straatNaam":"Smart-Hub","straatNr":"","vervoerder":"Amazon","puntType":"helix","bezettingsgraad":50,"latitude":38.7250246,"longitude":16.4240457,"canPickup":true,"canDropoff":false,"openingstijden":null}},{"type":"Feature","geometry":{"type":"Polygon","coordinates":[[[16.3963836,38.7432928],[16.3978506,38.7476477],[16.4000147,38.7506943],[16.4063395,38.7527921],[16.4078423,38.7524706],[16.4081124,38.7513105],[16.4083977,38.7507121],[16.4118416,38.7473486],[16.4129612,38.7463777],[16.4134158,38.7461103],[16.4143349,38.7448553],[16.4146183,38.7445853],[16.4163861,38.7432627],[16.4182389,38.7421235],[16.4199416,38.7415021],[16.4205907,38.7411863],[16.4211363,38.7408006],[16.4216869,38.7407385],[16.4220415,38.7405449],[16.42309,38.7395695],[16.4231659,38.7392849],[16.4230763,38.7389002],[16.4228645,38.7385899],[16.4222932,38.73828],[16.4222849,38.7378488],[16.422487,38.737584],[16.4228862,38.7374191],[16.4231564,38.7371277],[16.4230976,38.7364431],[16.4222465,38.7359217],[16.4221018,38.7355546],[16.4221346,38.7349472],[16.4219465,38.7345868],[16.4221098,38.7341943],[16.4230586,38.7333511],[16.4234845,38.7333195],[16.4237686,38.7331799],[16.424295,38.7324446],[16.4250378,38.7316236],[16.4259555,38.7298391],[16.4270257,38.7274577],[16.4278077,38.7263103],[16.4281814,38.7260255],[16.4288453,38.7258122],[16.4303853,38.7257138],[16.4322424,38.7259864],[16.4327973,38.7259125],[16.4340066,38.7255318],[16.4346943,38.724948],[16.4353704,38.7242257],[16.436458,38.7234095],[16.4374255,38.7223086],[16.4378106,38.7219962],[16.4384162,38.7212513],[16.438849,38.7204185],[16.4392547,38.7200148],[16.43989,38.7195828],[16.4414306,38.7188725],[16.4427819,38.7187006],[16.4433762,38.7184961],[16.4446536,38.7182582],[16.441997,38.709459],[16.431784,38.7114364],[16.4270274,38.7202812],[16.4249253,38.7233344],[16.4245541,38.7237539],[16.4207439,38.7259537],[16.420081,38.7261489],[16.4179131,38.7265166],[16.4162027,38.7261085],[16.412533,38.7255195],[16.4121898,38.7255594],[16.4114481,38.7258945],[16.4101414,38.7267469],[16.4089766,38.7277072],[16.3990316,38.7391889],[16.3972473,38.7415018],[16.396767,38.7422969],[16.3963836,38.7432928]]]},"properties":{"type":"boundary","gemeente":"Olivadi"}}]}