{"type":"FeatureCollection","metadata":{"gemeente":"Ollollai/Ollolai","slug":"ollollai-ollolai","generated_at":"2026-09-26T13:10:19.055433Z","total_points":6,"providers":["PosteItaliane","GLS","DHL","Amazon"],"bounds":[9.17931,40.168974,9.18041521,40.16904932]},"features":[{"type":"Feature","geometry":{"type":"Point","coordinates":[9.17931414,40.16904932]},"properties":{"type":"pakketpunt","locatieNaam":"Ollolai","straatNaam":"Piazza Marconi","straatNr":"19","vervoerder":"PosteItaliane","puntType":"postkantoor","bezettingsgraad":50,"latitude":40.16904932,"longitude":9.17931414,"canPickup":true,"canDropoff":true,"openingstijden":{"za":"08:20 - 12:45","zo":"gesloten","ma":"08:20 - 13:45","di":"gesloten","wo":"08:20 - 13:45","do":"08:20 - 13:45","vr":"08:20 - 13:45"}}},{"type":"Feature","geometry":{"type":"Point","coordinates":[9.18041521,40.16899316]},"properties":{"type":"pakketpunt","locatieNaam":"Tabaccheria N. 1","straatNaam":"Via Mazzini","straatNr":"15","vervoerder":"PosteItaliane","puntType":"servicepunt","bezettingsgraad":50,"latitude":40.16899316,"longitude":9.18041521,"canPickup":true,"canDropoff":true,"openingstijden":{"za":"07:00 - 21:00","zo":"gesloten","ma":"07:00 - 21:00","di":"07:00 - 21:00","wo":"07:00 - 21:00","do":"07:00 - 21:00","vr":"07:00 - 21:00"}}},{"type":"Feature","geometry":{"type":"Point","coordinates":[9.1802972,40.168974]},"properties":{"type":"pakketpunt","locatieNaam":"Alimentari e tabacchi di Bussu Martino","straatNaam":"Via Mazzini","straatNr":"15","vervoerder":"GLS","puntType":"parcel_shop","bezettingsgraad":50,"latitude":40.168974,"longitude":9.1802972,"canPickup":true,"canDropoff":true,"openingstijden":"za: 07:30 - 13:00, 16:30 - 20:00; ma: 07:30 - 13:00, 16:30 - 20:00"}},{"type":"Feature","geometry":{"type":"Point","coordinates":[9.179314,40.169049]},"properties":{"type":"pakketpunt","locatieNaam":"Ufficio Postale OLLOLAI","straatNaam":"PIAZZA MARCONI 19","straatNr":"","vervoerder":"DHL","puntType":"postOffice","bezettingsgraad":50,"latitude":40.169049,"longitude":9.179314,"canPickup":true,"canDropoff":true,"openingstijden":{"ma":"08:20 - 13:45","di":"08:20 - 13:45","wo":"08:20 - 13:45","do":"08:20 - 13:45","vr":"08:20 - 13:45","za":"08:20 - 12:45","zo":"gesloten"}}},{"type":"Feature","geometry":{"type":"Point","coordinates":[9.180415,40.168993]},"properties":{"type":"pakketpunt","locatieNaam":"TABACCHERIA N. 1","straatNaam":"VIA MAZZINI 15","straatNr":"","vervoerder":"DHL","puntType":"parcelShop","bezettingsgraad":50,"latitude":40.168993,"longitude":9.180415,"canPickup":true,"canDropoff":true,"openingstijden":{"ma":"07:00 - 21:00","di":"07:00 - 21:00","wo":"07:00 - 21:00","do":"07:00 - 21:00","vr":"07:00 - 21:00","za":"07:00 - 21:00","zo":"gesloten"}}},{"type":"Feature","geometry":{"type":"Point","coordinates":[9.17931,40.169]},"properties":{"type":"pakketpunt","locatieNaam":"Ufficio Postale OLLOLAI","straatNaam":"PIAZZA MARCONI 19","straatNr":"","vervoerder":"Amazon","puntType":"3p","bezettingsgraad":50,"latitude":40.169,"longitude":9.17931,"canPickup":true,"canDropoff":false,"openingstijden":null}},{"type":"Feature","geometry":{"type":"Polygon","coordinates":[[[9.1272868,40.1412224],[9.1310784,40.141101],[9.1337788,40.1412961],[9.13419,40.1414939],[9.1346724,40.1420159],[9.1350484,40.1422136],[9.1360352,40.1425638],[9.1370217,40.1427248],[9.1373272,40.1428867],[9.1386088,40.1438582],[9.1389265,40.1441911],[9.1390687,40.1448577],[9.1394689,40.1453437],[9.1393052,40.1456862],[9.1388131,40.1461914],[9.138767,40.1465788],[9.1389553,40.1467948],[9.1401301,40.1471988],[9.1404593,40.1474417],[9.1405049,40.1478313],[9.140766,40.1481441],[9.141295,40.1484497],[9.1416361,40.1487557],[9.1421656,40.1493136],[9.1427072,40.1500787],[9.1432835,40.1505105],[9.1441885,40.1509778],[9.1450719,40.1523372],[9.1453072,40.1525351],[9.1461652,40.1529665],[9.1464006,40.1532455],[9.1463664,40.153678],[9.1464739,40.1545517],[9.1468167,40.1556054],[9.1465604,40.1565698],[9.1465846,40.1569031],[9.1469159,40.1580649],[9.1467177,40.1587318],[9.1467544,40.1593805],[9.1465934,40.1609844],[9.1469107,40.161074],[9.1477557,40.1608928],[9.1497026,40.1598182],[9.1501485,40.1596734],[9.1504324,40.160601],[9.1511259,40.1608974],[9.1516085,40.1614284],[9.1533596,40.1620747],[9.1540064,40.1624613],[9.1545946,40.162947],[9.1550646,40.1630635],[9.1555703,40.1634142],[9.155807,40.1641887],[9.1554138,40.166865],[9.1560135,40.1671976],[9.156463,40.1673501],[9.156684,40.1676922],[9.1562545,40.1698641],[9.1562095,40.170747],[9.1563996,40.1716928],[9.1571053,40.1721333],[9.1581877,40.1729697],[9.1586111,40.1731943],[9.1588938,40.1735633],[9.158918,40.1738696],[9.1587782,40.1743743],[9.1595641,40.1739408],[9.1598112,40.1741026],[9.1620331,40.1750005],[9.1628682,40.1755039],[9.1640197,40.1757004],[9.1647734,40.1765553],[9.1650558,40.1767711],[9.1658084,40.1771124],[9.1662784,40.1772108],[9.1672899,40.1777589],[9.167361,40.1780021],[9.167103,40.1781736],[9.1666331,40.1781563],[9.1662694,40.178301],[9.1659531,40.1786438],[9.1658135,40.1792026],[9.1660499,40.1798149],[9.1659214,40.1800943],[9.1653583,40.1804105],[9.1654059,40.1806717],[9.1658534,40.1811305],[9.1661246,40.1815626],[9.1663139,40.1821209],[9.165306,40.1830593],[9.1641093,40.1836647],[9.1648618,40.1839339],[9.1651208,40.1841858],[9.165157,40.1845731],[9.1656153,40.1846626],[9.1670125,40.1843813],[9.1674823,40.1843626],[9.1674137,40.1851104],[9.1675099,40.1860383],[9.1680038,40.1862268],[9.1679927,40.186488],[9.1677702,40.1867857],[9.1673006,40.1869035],[9.166092,40.1874458],[9.1654472,40.1880053],[9.1643579,40.1893132],[9.1642297,40.1897458],[9.1642191,40.1902143],[9.1642551,40.1905116],[9.1646331,40.191376],[9.1646236,40.192304],[9.1644833,40.1925835],[9.1641434,40.1929083],[9.1628877,40.1934957],[9.1617268,40.1944072],[9.1613659,40.1957772],[9.1619312,40.19638],[9.1620143,40.1967313],[9.1615922,40.1970742],[9.1630021,40.1971263],[9.1646104,40.1965564],[9.1656321,40.1963838],[9.1662776,40.1961036],[9.1693076,40.1956487],[9.1708465,40.1955744],[9.1720453,40.1957708],[9.1736896,40.1955611],[9.1746994,40.1953434],[9.1770355,40.1946191],[9.1788076,40.1938956],[9.1806863,40.1934873],[9.1812385,40.1935224],[9.1827317,40.1939345],[9.1831316,40.1941141],[9.1844499,40.1950309],[9.184662,40.1952558],[9.1847685,40.195535],[9.1851799,40.1956244],[9.1859084,40.1956322],[9.1879071,40.1961606],[9.1883889,40.1961868],[9.1888585,40.1960689],[9.190691,40.1959578],[9.1924644,40.1957387],[9.1931453,40.1955483],[9.1935801,40.1955836],[9.1938625,40.1957633],[9.1940985,40.1961143],[9.1944637,40.1964561],[9.1950403,40.1967884],[9.1967333,40.197191],[9.1980156,40.1977654],[9.1993546,40.197637],[9.2000372,40.1980052],[9.200968,40.1989225],[9.2017793,40.1991013],[9.2022854,40.1994248],[9.2051403,40.1993657],[9.2067494,40.1991736],[9.2085785,40.1979361],[9.2098205,40.1968437],[9.2113945,40.1967237],[9.211852,40.1965066],[9.2122153,40.1962087],[9.2136404,40.1973142],[9.2141341,40.1974124],[9.2149207,40.1972307],[9.2154834,40.1968243],[9.2159174,40.1966162],[9.2168218,40.1965245],[9.2171278,40.1966861],[9.2177657,40.197766],[9.2185437,40.1985664],[9.2183368,40.2000083],[9.2186084,40.2004222],[9.2190088,40.2007277],[9.2203981,40.201599],[9.2209041,40.2018323],[9.2220916,40.2020733],[9.2225034,40.2022527],[9.2243048,40.2033664],[9.2267496,40.2036048],[9.2274923,40.2043331],[9.2288455,40.2049251],[9.22923,40.2039603],[9.2298038,40.2033646],[9.230226,40.2031295],[9.2310694,40.202371],[9.2313028,40.2019021],[9.2324869,40.2011249],[9.2333068,40.2003935],[9.2338702,40.2002122],[9.2352184,40.1993715],[9.2355814,40.1989924],[9.2358146,40.1985054],[9.2360228,40.19755],[9.2365474,40.1963777],[9.2374952,40.1952586],[9.2380427,40.1939331],[9.2384758,40.1934817],[9.2386859,40.1930669],[9.2386245,40.1923192],[9.2386706,40.1920579],[9.2394627,40.1901462],[9.2396133,40.1895333],[9.240116,40.1888475],[9.2408535,40.1881162],[9.2390535,40.1873632],[9.2393565,40.1866778],[9.2389681,40.1864444],[9.2385789,40.1860127],[9.238483,40.1854543],[9.2380481,40.1853742],[9.2376492,40.1855191],[9.2371553,40.185367],[9.2341759,40.1832018],[9.2331391,40.1822939],[9.2327625,40.1820875],[9.2318451,40.1817289],[9.2309403,40.1816496],[9.2305647,40.1817135],[9.2281485,40.1827633],[9.2271389,40.1829365],[9.224449,40.1829598],[9.2239091,40.1830779],[9.222443,40.1837655],[9.2217851,40.1837217],[9.221197,40.1835066],[9.2199248,40.1823918],[9.2195002,40.1818611],[9.2192515,40.1812129],[9.2190155,40.18088],[9.2180169,40.1808188],[9.2174878,40.1806576],[9.2169934,40.1803162],[9.2164974,40.1794973],[9.2146037,40.1786629],[9.2142854,40.1782941],[9.2139899,40.177682],[9.2126047,40.1779278],[9.2120285,40.1777307],[9.2116058,40.1777855],[9.2113014,40.1780834],[9.2109611,40.1781921],[9.2095278,40.1780686],[9.2078708,40.1778013],[9.2075214,40.1787839],[9.2071578,40.1789287],[9.205336,40.1785356],[9.2038778,40.1779706],[9.2035137,40.1779532],[9.2027245,40.1772158],[9.2015121,40.176326],[9.2009098,40.1752189],[9.2005452,40.1750483],[9.1989121,40.1748349],[9.1981587,40.1742686],[9.1975811,40.1735398],[9.1962889,40.1734249],[9.195854,40.1733175],[9.1955008,40.1730118],[9.1949951,40.1727964],[9.1939613,40.17269],[9.1932568,40.1727633],[9.1928445,40.1723225],[9.1924917,40.1721699],[9.1909522,40.1717941],[9.1910334,40.1714336],[9.1909974,40.1711814],[9.1905155,40.171029],[9.1900215,40.1707595],[9.1861579,40.1665854],[9.1851094,40.1653618],[9.184284,40.1641108],[9.1839071,40.163688],[9.1831774,40.1630855],[9.1822482,40.1625464],[9.1812341,40.1609623],[9.1811977,40.1605119],[9.1818281,40.1591055],[9.1819096,40.1588531],[9.1818854,40.1586008],[9.1816499,40.1583309],[9.1807209,40.1578459],[9.1803086,40.157324],[9.1802372,40.1569547],[9.1793327,40.156848],[9.1789319,40.1562269],[9.1785415,40.1551194],[9.1783293,40.1547954],[9.177882,40.1543726],[9.1772694,40.1535807],[9.1768212,40.1527796],[9.1744771,40.149819],[9.1732987,40.148127],[9.1722845,40.1463266],[9.1715542,40.1453727],[9.1678953,40.1422157],[9.1675778,40.1419819],[9.1665435,40.1414969],[9.165062,40.140508],[9.1606395,40.1368744],[9.1588043,40.1351651],[9.1541564,40.1301531],[9.1537807,40.1300905],[9.1533114,40.1301812],[9.1475864,40.131468],[9.1468483,40.1321176],[9.1464258,40.1321362],[9.1461203,40.1320014],[9.1456498,40.1315245],[9.1444274,40.1307422],[9.1440396,40.1305355],[9.1435699,40.1304099],[9.142948,40.1305008],[9.1415287,40.130926],[9.1388876,40.1308661],[9.1377492,40.1309215],[9.1371392,40.1311115],[9.1351791,40.1311138],[9.1341456,40.1308537],[9.1335939,40.1308003],[9.1331011,40.1308999],[9.1326439,40.1311798],[9.1320222,40.1313877],[9.1314353,40.1313523],[9.1305898,40.1311731],[9.129992,40.1316062],[9.1293232,40.1317421],[9.1280909,40.1318156],[9.1276334,40.1319332],[9.1274813,40.1322036],[9.1274938,40.1326181],[9.1278729,40.1344646],[9.128179,40.1349868],[9.1290613,40.1359769],[9.1291088,40.1362921],[9.1288051,40.1370853],[9.1285007,40.1374731],[9.127422,40.138168],[9.1265902,40.1390608],[9.12645,40.1394034],[9.1263686,40.1398269],[9.1265456,40.1403402],[9.1269105,40.1408714],[9.1272868,40.1412224]]]},"properties":{"type":"boundary","gemeente":"Ollollai/Ollolai"}}]}