{"type":"FeatureCollection","metadata":{"gemeente":"Onore","slug":"onore","generated_at":"2026-09-26T14:27:40.809489Z","total_points":3,"providers":["PosteItaliane","DHL","Amazon"],"bounds":[10.0108,45.889,10.01087803,45.889078]},"features":[{"type":"Feature","geometry":{"type":"Point","coordinates":[10.01087803,45.8890777]},"properties":{"type":"pakketpunt","locatieNaam":"Tabaccheria N. 1","straatNaam":"Via Chiesa","straatNr":"384","vervoerder":"PosteItaliane","puntType":"servicepunt","bezettingsgraad":50,"latitude":45.8890777,"longitude":10.01087803,"canPickup":true,"canDropoff":true,"openingstijden":{"za":"06:30 - 23:00","zo":"06:30 - 23:00","ma":"06:30 - 23:00","di":"06:30 - 23:00","wo":"06:30 - 12:00","do":"06:30 - 23:00","vr":"06:30 - 23:00"}}},{"type":"Feature","geometry":{"type":"Point","coordinates":[10.010878,45.889078]},"properties":{"type":"pakketpunt","locatieNaam":"TABACCHERIA N. 1","straatNaam":"VIA CHIESA 384","straatNr":"","vervoerder":"DHL","puntType":"parcelShop","bezettingsgraad":50,"latitude":45.889078,"longitude":10.010878,"canPickup":true,"canDropoff":true,"openingstijden":{"ma":"06:30 - 23:00","di":"06:30 - 23:00","wo":"06:30 - 12:00","do":"06:30 - 23:00","vr":"06:30 - 23:00","za":"06:30 - 23:00","zo":"06:30 - 23:00"}}},{"type":"Feature","geometry":{"type":"Point","coordinates":[10.0108,45.889]},"properties":{"type":"pakketpunt","locatieNaam":"PuntoPoste TABACCHERIA N.  1","straatNaam":"VIA CHIESA 384","straatNr":"","vervoerder":"Amazon","puntType":"3p","bezettingsgraad":50,"latitude":45.889,"longitude":10.0108,"canPickup":true,"canDropoff":false,"openingstijden":null}},{"type":"Feature","geometry":{"type":"Polygon","coordinates":[[[9.9966988,45.8893092],[9.9982087,45.889233],[9.9997083,45.8902055],[10.0027623,45.8894497],[10.0035309,45.8891009],[10.0040015,45.8885747],[10.0049261,45.8880311],[10.0068706,45.8862499],[10.0088188,45.8852111],[10.0084117,45.8849672],[10.007752,45.8848335],[10.0066034,45.8851902],[10.0062731,45.8851886],[10.0058729,45.8850616],[10.0056017,45.884767],[10.0054427,45.8840798],[10.0047987,45.8836535],[10.0047768,45.8833297],[10.0061295,45.8823277],[10.0065984,45.8818871],[10.0068066,45.8816422],[10.0068663,45.8812952],[10.0072454,45.8806123],[10.0077207,45.8801716],[10.0088587,45.8794145],[10.0095491,45.8781348],[10.0098645,45.877763],[10.0100324,45.8776085],[10.0113577,45.8772323],[10.0119975,45.8768126],[10.0178444,45.8765446],[10.0182733,45.8760413],[10.0195075,45.8749187],[10.0207954,45.8741827],[10.021902,45.8733987],[10.0235867,45.8703325],[10.0289805,45.8719041],[10.0304715,45.8714452],[10.0314418,45.8705319],[10.0318929,45.8707978],[10.0322729,45.8711409],[10.0332593,45.8711815],[10.0345726,45.8714756],[10.0354607,45.8719491],[10.037052,45.8724657],[10.0375347,45.8725288],[10.0397833,45.8724543],[10.0405443,45.8727534],[10.0415364,45.8728389],[10.0424487,45.8731321],[10.0437927,45.8737723],[10.0447044,45.874376],[10.0461861,45.8751455],[10.0466337,45.8753034],[10.0475866,45.8754432],[10.0485205,45.8760242],[10.0496985,45.8763148],[10.0500122,45.8764605],[10.0513415,45.8775103],[10.0540284,45.8792226],[10.0545007,45.8798348],[10.0548645,45.8805875],[10.055197,45.8809579],[10.055315,45.8809838],[10.0562461,45.8807277],[10.0567027,45.880854],[10.0568876,45.8811718],[10.0569798,45.881873],[10.0572437,45.8823656],[10.0575359,45.8826509],[10.0581616,45.8829421],[10.0586592,45.8833605],[10.0584236,45.8840962],[10.0583116,45.8853213],[10.0578677,45.886041],[10.0579955,45.8870838],[10.0579619,45.8874352],[10.0576615,45.8878205],[10.0570508,45.8882357],[10.0563418,45.8900963],[10.0561456,45.8909622],[10.0556007,45.8922183],[10.0549926,45.8925209],[10.0542803,45.892685],[10.0529181,45.8928145],[10.052341,45.8934814],[10.0511724,45.8937982],[10.0510999,45.8941408],[10.0511695,45.8947522],[10.0477459,45.8952832],[10.0466656,45.8950681],[10.0461852,45.89514],[10.0459749,45.8953534],[10.0451985,45.8967376],[10.0431095,45.8982463],[10.0417655,45.898065],[10.0410189,45.8981214],[10.0396161,45.8985031],[10.0385188,45.8986796],[10.0372342,45.8993528],[10.0356216,45.8991965],[10.0336178,45.8991516],[10.0327564,45.8992764],[10.0318811,45.8992573],[10.0309466,45.8994368],[10.0292845,45.8995733],[10.0283993,45.8990187],[10.0270987,45.8978738],[10.0261477,45.8972434],[10.0255488,45.8970957],[10.0247148,45.8973057],[10.0241754,45.8972431],[10.0234039,45.8969935],[10.0227325,45.896671],[10.0220709,45.8960964],[10.0216853,45.8959783],[10.0209778,45.8958856],[10.0200589,45.8959478],[10.0195806,45.8957856],[10.0191015,45.8957539],[10.0174852,45.8960068],[10.0173855,45.8961067],[10.0179971,45.8965108],[10.0183697,45.8968854],[10.0182894,45.8980427],[10.0181399,45.8982376],[10.0180363,45.8989135],[10.0179082,45.8992207],[10.0170347,45.8999215],[10.0170479,45.9003804],[10.0166538,45.9007709],[10.0165989,45.9013789],[10.0163899,45.9015833],[10.0163492,45.9018267],[10.0159674,45.9021811],[10.0158194,45.9028124],[10.0159797,45.9030315],[10.0160601,45.9036383],[10.0154288,45.904454],[10.0154132,45.9045711],[10.0170508,45.9070542],[10.0169679,45.9074554],[10.0151731,45.9082814],[10.0147354,45.9092889],[10.0148831,45.9103181],[10.0148283,45.9104896],[10.0144199,45.9108082],[10.0133154,45.910872],[10.0120344,45.9138985],[10.0118167,45.914247],[10.009468,45.9157349],[10.0095952,45.9144916],[10.009501,45.9139209],[10.0089111,45.9129451],[10.0078374,45.911771],[10.007736,45.9110699],[10.0073124,45.9107271],[10.0071816,45.9104493],[10.0068435,45.9101102],[10.0067916,45.9098272],[10.006151,45.9088068],[10.0061759,45.908577],[10.0064101,45.908161],[10.0065982,45.9073358],[10.0065275,45.9066343],[10.0065854,45.9064493],[10.0064527,45.9062435],[10.0064752,45.9060633],[10.0062641,45.9059751],[10.005459,45.9060092],[10.0050593,45.9055627],[10.0047778,45.9054122],[10.0048185,45.9051688],[10.0045701,45.904802],[10.0046637,45.9045402],[10.0043985,45.9043985],[10.0042792,45.9042195],[10.0036189,45.9039778],[10.003395,45.9034443],[10.0029193,45.9028049],[10.0026859,45.9026405],[10.0025994,45.9023982],[10.0022967,45.9022344],[10.0023532,45.9017928],[10.0021304,45.9015923],[10.0022731,45.901375],[10.0022626,45.9012356],[10.0018598,45.9007936],[10.0015065,45.9001442],[10.0011235,45.8999045],[10.0010607,45.8995496],[10.00047,45.8986007],[10.0004416,45.8981869],[10.0001085,45.8969568],[10.0003544,45.8965631],[10.0002673,45.8961139],[10.0003368,45.8954067],[9.999614,45.8939235],[9.9987599,45.8929229],[9.9987702,45.8924233],[9.9991157,45.8919252],[9.9991383,45.891745],[9.9987113,45.8912087],[9.9985602,45.890868],[9.9978426,45.8902938],[9.9976312,45.8900031],[9.9976105,45.8898368],[9.9972846,45.8894526],[9.9966988,45.8893092]]]},"properties":{"type":"boundary","gemeente":"Onore"}}]}