{"type":"FeatureCollection","metadata":{"gemeente":"Osio Sopra","slug":"osio-sopra","generated_at":"2026-09-26T14:27:41.531424Z","total_points":7,"providers":["PosteItaliane","DPD","InPost","DHL"],"bounds":[9.57699,45.628663,9.591847,45.63087]},"features":[{"type":"Feature","geometry":{"type":"Point","coordinates":[9.59184656,45.63003958]},"properties":{"type":"pakketpunt","locatieNaam":"Osio Sopra","straatNaam":"Via Antonio Locatelli","straatNr":"3/a","vervoerder":"PosteItaliane","puntType":"postkantoor","bezettingsgraad":50,"latitude":45.63003958,"longitude":9.59184656,"canPickup":true,"canDropoff":true,"openingstijden":{"za":"08:20 - 12:45","zo":"gesloten","ma":"08:20 - 13:45","di":"08:20 - 13:45","wo":"08:20 - 13:45","do":"08:20 - 13:45","vr":"08:20 - 13:45"}}},{"type":"Feature","geometry":{"type":"Point","coordinates":[9.57782165,45.62881539]},"properties":{"type":"pakketpunt","locatieNaam":"Tabaccheria N. 4","straatNaam":"Via Stelvio","straatNr":"1","vervoerder":"PosteItaliane","puntType":"servicepunt","bezettingsgraad":50,"latitude":45.62881539,"longitude":9.57782165,"canPickup":true,"canDropoff":true,"openingstijden":{"za":"07:00 - 12:30, 15:30 - 19:30","zo":"08:00 - 12:00","ma":"07:00 - 12:30, 15:30 - 19:30","di":"07:00 - 12:30, 15:30 - 19:30","wo":"07:00 - 12:30, 15:30 - 19:30","do":"07:00 - 12:30, 15:30 - 19:30","vr":"07:00 - 12:30, 15:30 - 19:30"}}},{"type":"Feature","geometry":{"type":"Point","coordinates":[9.577844,45.628663]},"properties":{"type":"pakketpunt","locatieNaam":"Parole In Fumo","straatNaam":"VIA STELVIO","straatNr":"1","vervoerder":"DPD","puntType":"pickup_point","bezettingsgraad":50,"latitude":45.628663,"longitude":9.577844,"canPickup":true,"canDropoff":true,"openingstijden":{"ma":"07:00 - 12:30, 15:30 - 19:30","di":"07:00 - 12:30, 15:30 - 19:30","wo":"07:00 - 12:30, 15:30 - 19:30","do":"07:00 - 12:30, 15:30 - 19:30","vr":"07:00 - 12:30, 15:30 - 19:30","za":"07:00 - 12:30, 15:30 - 19:30","zo":"08:00 - 12:00"}}},{"type":"Feature","geometry":{"type":"Point","coordinates":[9.57699,45.62889]},"properties":{"type":"pakketpunt","locatieNaam":"InPost Point","straatNaam":"Via Monte Stelvio","straatNr":"1","vervoerder":"InPost","puntType":"servicepunt","bezettingsgraad":50,"latitude":45.62889,"longitude":9.57699,"canPickup":true,"canDropoff":true,"openingstijden":"Lun-Sab: 07:00 - 12:30 - 15:00 - 19:30; Dom: 08:00 - 12:00"}},{"type":"Feature","geometry":{"type":"Point","coordinates":[9.58806,45.63087]},"properties":{"type":"pakketpunt","locatieNaam":"ENI","straatNaam":"Via Papa Giovanni XXIII","straatNr":"13","vervoerder":"InPost","puntType":"automaat","bezettingsgraad":50,"latitude":45.63087,"longitude":9.58806,"canPickup":true,"canDropoff":true,"openingstijden":null}},{"type":"Feature","geometry":{"type":"Point","coordinates":[9.577822,45.628815]},"properties":{"type":"pakketpunt","locatieNaam":"TABACCHERIA N. 4","straatNaam":"VIA STELVIO 1","straatNr":"","vervoerder":"DHL","puntType":"parcelShop","bezettingsgraad":50,"latitude":45.628815,"longitude":9.577822,"canPickup":true,"canDropoff":true,"openingstijden":{"ma":"07:00 - 12:30, 15:30 - 19:30","di":"07:00 - 12:30, 15:30 - 19:30","wo":"07:00 - 12:30, 15:30 - 19:30","do":"07:00 - 12:30, 15:30 - 19:30","vr":"07:00 - 12:30, 15:30 - 19:30","za":"07:00 - 12:30, 15:30 - 19:30","zo":"08:00 - 12:00"}}},{"type":"Feature","geometry":{"type":"Point","coordinates":[9.591847,45.63004]},"properties":{"type":"pakketpunt","locatieNaam":"Ufficio Postale OSIO SOPRA","straatNaam":"VIA ANTONIO LOCATELLI 3-A","straatNr":"","vervoerder":"DHL","puntType":"postOffice","bezettingsgraad":50,"latitude":45.63004,"longitude":9.591847,"canPickup":true,"canDropoff":true,"openingstijden":{"ma":"08:20 - 13:45","di":"08:20 - 13:45","wo":"08:20 - 13:45","do":"08:20 - 13:45","vr":"08:20 - 13:45","za":"08:20 - 12:45","zo":"gesloten"}}},{"type":"Feature","geometry":{"type":"Polygon","coordinates":[[[9.5598885,45.6260889],[9.5613171,45.6261205],[9.5621528,45.6262773],[9.562119,45.6265176],[9.5635796,45.6265689],[9.567191,45.6256728],[9.574516,45.6247654],[9.5770999,45.6246633],[9.5783659,45.6244545],[9.5790045,45.6244289],[9.5815595,45.62362],[9.5853466,45.6228492],[9.5853338,45.6225084],[9.5879183,45.6221269],[9.5894135,45.6224043],[9.5892872,45.6228624],[9.5901293,45.6229232],[9.590205,45.6227143],[9.5917281,45.6228314],[9.5923138,45.6223508],[9.5923007,45.621978],[9.5930018,45.6220185],[9.5929173,45.6224032],[9.5953197,45.62245],[9.5954442,45.6217884],[9.5963676,45.6218965],[9.5966813,45.6217526],[9.5967489,45.6218995],[9.5968227,45.621771],[9.5990547,45.6220634],[9.6017219,45.6221914],[9.6022212,45.6222646],[9.6025292,45.6224486],[9.6037988,45.6226306],[9.6039581,45.6225888],[9.6041372,45.622206],[9.6062769,45.6227479],[9.606041,45.6233346],[9.6064063,45.6233535],[9.608244,45.6240019],[9.6083469,45.6238505],[9.6095017,45.6239598],[9.6097151,45.6230622],[9.6114093,45.6233498],[9.6113608,45.623732],[9.610482,45.6242369],[9.6104087,45.6244088],[9.6102853,45.626221],[9.6100244,45.6262221],[9.6083372,45.6277805],[9.6094354,45.6288994],[9.6098265,45.630217],[9.6104422,45.6301823],[9.6106404,45.6311787],[9.6108056,45.631409],[9.6116913,45.6316636],[9.612357,45.631743],[9.6124197,45.6325273],[9.6126976,45.6329448],[9.6120506,45.6327989],[9.6111938,45.6328507],[9.6072467,45.6343459],[9.6016227,45.6346541],[9.6005071,45.6342106],[9.5991931,45.6338228],[9.5976719,45.6335961],[9.5963483,45.6332289],[9.5948313,45.6323548],[9.5939844,45.6328044],[9.5927238,45.6336425],[9.5924992,45.6336732],[9.5920085,45.6334899],[9.5913754,45.6330398],[9.590315,45.6336871],[9.5893788,45.6339815],[9.5882982,45.634169],[9.587365,45.634825],[9.5868172,45.6348044],[9.5869245,45.6345742],[9.5839409,45.6350635],[9.5841974,45.6357007],[9.5835927,45.6358863],[9.5834872,45.6357402],[9.5816138,45.6362628],[9.5812287,45.6354615],[9.5799909,45.6359584],[9.5784419,45.6362828],[9.5753524,45.6367782],[9.574082,45.6369024],[9.5707519,45.6370945],[9.5703911,45.6364532],[9.5686775,45.6369656],[9.5692117,45.6373112],[9.5697891,45.6381323],[9.5691845,45.6383361],[9.5686629,45.6383428],[9.5682074,45.6388273],[9.5659806,45.6399388],[9.5655492,45.6394717],[9.5652629,45.6387683],[9.565072,45.6385403],[9.5638819,45.6377582],[9.5620008,45.6369628],[9.5606241,45.6368974],[9.5601128,45.6353462],[9.5587258,45.63241],[9.5583735,45.6312081],[9.5598422,45.6294592],[9.5598804,45.6285716],[9.5598099,45.6283111],[9.559589,45.62801],[9.5597606,45.6274808],[9.5598885,45.6260889]]]},"properties":{"type":"boundary","gemeente":"Osio Sopra"}}]}