{"type":"FeatureCollection","metadata":{"gemeente":"Ozegna","slug":"ozegna","generated_at":"2026-09-26T14:27:41.943370Z","total_points":3,"providers":["PosteItaliane","DHL","Amazon"],"bounds":[7.74204,45.349,7.742041,45.349097]},"features":[{"type":"Feature","geometry":{"type":"Point","coordinates":[7.74204072,45.34909658]},"properties":{"type":"pakketpunt","locatieNaam":"Ozegna","straatNaam":"Corso Principe Tommaso","straatNr":"52","vervoerder":"PosteItaliane","puntType":"postkantoor","bezettingsgraad":50,"latitude":45.34909658,"longitude":7.74204072,"canPickup":true,"canDropoff":true,"openingstijden":{"za":"08:20 - 12:45","zo":"gesloten","ma":"08:20 - 13:45","di":"08:20 - 13:45","wo":"08:20 - 13:45","do":"08:20 - 13:45","vr":"08:20 - 13:45"}}},{"type":"Feature","geometry":{"type":"Point","coordinates":[7.742041,45.349097]},"properties":{"type":"pakketpunt","locatieNaam":"Ufficio Postale OZEGNA","straatNaam":"CORSO PRINCIPE TOMMASO 52","straatNr":"","vervoerder":"DHL","puntType":"postOffice","bezettingsgraad":50,"latitude":45.349097,"longitude":7.742041,"canPickup":true,"canDropoff":true,"openingstijden":{"ma":"08:20 - 13:45","di":"08:20 - 13:45","wo":"08:20 - 13:45","do":"08:20 - 13:45","vr":"08:20 - 13:45","za":"08:20 - 12:45","zo":"gesloten"}}},{"type":"Feature","geometry":{"type":"Point","coordinates":[7.74204,45.349]},"properties":{"type":"pakketpunt","locatieNaam":"Ufficio Postale OZEGNA","straatNaam":"CORSO PRINCIPE TOMMASO 52","straatNr":"","vervoerder":"Amazon","puntType":"3p","bezettingsgraad":50,"latitude":45.349,"longitude":7.74204,"canPickup":true,"canDropoff":false,"openingstijden":null}},{"type":"Feature","geometry":{"type":"Polygon","coordinates":[[[7.7311553,45.35302],[7.7281627,45.3520416],[7.728988,45.3516727],[7.7289811,45.3514116],[7.7293015,45.3507851],[7.730295,45.349743],[7.7308991,45.3495606],[7.7316994,45.3491645],[7.7326999,45.3489505],[7.733599,45.3475563],[7.7350522,45.344782],[7.7369755,45.3415268],[7.7367933,45.3411107],[7.7365146,45.3410176],[7.7365563,45.3408651],[7.7367142,45.3406508],[7.7369069,45.3400228],[7.7374191,45.3393714],[7.7380576,45.3382083],[7.7381007,45.3379927],[7.737833,45.3378772],[7.7384789,45.3370517],[7.7386724,45.3363878],[7.739176,45.3355472],[7.739452,45.3346141],[7.739326,45.3345407],[7.739328,45.3344507],[7.7395028,45.3340476],[7.7400642,45.3334777],[7.7402796,45.332976],[7.7401723,45.3326328],[7.7419192,45.3315449],[7.742052,45.3313123],[7.7451094,45.3298247],[7.7454425,45.3297654],[7.746013,45.3299336],[7.7464694,45.3289125],[7.7467009,45.3285955],[7.7480594,45.329146],[7.7480825,45.3292542],[7.7478683,45.329711],[7.7489462,45.3300198],[7.7495955,45.3300899],[7.749444,45.3305924],[7.7497525,45.3310728],[7.7496734,45.331189],[7.7480299,45.3322241],[7.7472978,45.3332287],[7.7485069,45.3339756],[7.7488696,45.333228],[7.7501277,45.3329627],[7.7503932,45.3330016],[7.7508286,45.3332089],[7.7504128,45.3335464],[7.7499137,45.3341891],[7.7499751,45.3342977],[7.7513416,45.3348348],[7.7516542,45.3345501],[7.7520726,45.3346717],[7.7520658,45.3355628],[7.7531857,45.33571],[7.7533266,45.3362697],[7.7540664,45.3362867],[7.7542638,45.3350332],[7.7566267,45.3353515],[7.7565422,45.3362957],[7.7569381,45.336282],[7.7570612,45.3364904],[7.7611918,45.3366973],[7.761193,45.3366433],[7.7622642,45.3366819],[7.7637605,45.3371302],[7.7640628,45.3373135],[7.7648553,45.3372591],[7.7659849,45.3375503],[7.7663704,45.3374285],[7.7663882,45.3371946],[7.7684391,45.3373788],[7.7686966,45.3372735],[7.7696144,45.3373284],[7.7695799,45.3377421],[7.7692783,45.338702],[7.7694306,45.3387397],[7.7703621,45.3387497],[7.7704656,45.3386878],[7.7708987,45.3375493],[7.7717797,45.3375318],[7.7716459,45.3384035],[7.7716569,45.3390787],[7.7717621,45.340115],[7.7721259,45.3404069],[7.7719418,45.340657],[7.7733388,45.3415721],[7.7733365,45.3416801],[7.7724646,45.3424539],[7.7722254,45.3428924],[7.7703498,45.3434483],[7.7692354,45.3436253],[7.769068,45.3436955],[7.7690209,45.3441001],[7.7687235,45.3442769],[7.7678361,45.3445823],[7.7671454,45.3446469],[7.7664485,45.3449994],[7.7647432,45.34535],[7.7638905,45.3458179],[7.7636569,45.3459954],[7.7639765,45.3465569],[7.7638703,45.3467448],[7.7633559,45.3469193],[7.762721,45.3467684],[7.7623306,45.3471062],[7.7626678,45.3474519],[7.7618261,45.3480009],[7.7616334,45.3480528],[7.7611767,45.3479218],[7.7609722,45.3479376],[7.760553,45.3484281],[7.7597218,45.3484911],[7.7589195,45.3489865],[7.7586888,45.349029],[7.7579402,45.3488228],[7.7566625,45.349457],[7.7560244,45.34945],[7.7555285,45.3499397],[7.7547582,45.3501383],[7.7543836,45.3503413],[7.7538871,45.3508579],[7.7523557,45.3514173],[7.7520325,45.3516028],[7.7508413,45.3517788],[7.750686,45.3518761],[7.7505283,45.3520814],[7.7504431,45.3530526],[7.7504022,45.3531692],[7.7502078,45.3533021],[7.7497924,45.3547738],[7.7495777,45.3552485],[7.7485338,45.355111],[7.7482716,45.3559993],[7.7480299,45.3559607],[7.7479945,45.3569864],[7.7475525,45.3579267],[7.7458576,45.3577821],[7.7458306,45.3578448],[7.744976,45.3578084],[7.7438954,45.3575985],[7.7421337,45.3575881],[7.7412301,45.3574611],[7.7393714,45.3574361],[7.7357602,45.3552134],[7.7346759,45.3541707],[7.7329911,45.3536525],[7.7311954,45.3529754],[7.7311553,45.35302]]]},"properties":{"type":"boundary","gemeente":"Ozegna"}}]}