{"type":"FeatureCollection","metadata":{"gemeente":"Pabillois/Pabillonis","slug":"pabillois-pabillonis","generated_at":"2026-09-26T13:10:20.477238Z","total_points":13,"providers":["PosteItaliane","DPD","GLS","DHL","Amazon"],"bounds":[8.718612,39.5924813,8.7221972,39.595828]},"features":[{"type":"Feature","geometry":{"type":"Point","coordinates":[8.71879492,39.59582794]},"properties":{"type":"pakketpunt","locatieNaam":"Pabillonis","straatNaam":"Via San Giovanni","straatNr":"34","vervoerder":"PosteItaliane","puntType":"postkantoor","bezettingsgraad":50,"latitude":39.59582794,"longitude":8.71879492,"canPickup":true,"canDropoff":true,"openingstijden":{"za":"08:20 - 12:45","zo":"gesloten","ma":"08:20 - 13:45","di":"08:20 - 13:45","wo":"08:20 - 13:45","do":"08:20 - 13:45","vr":"08:20 - 13:45"}}},{"type":"Feature","geometry":{"type":"Point","coordinates":[8.7186121,39.59308547]},"properties":{"type":"pakketpunt","locatieNaam":"Tabaccheria N. 2","straatNaam":"Via Cesare Battisti","straatNr":"9/a","vervoerder":"PosteItaliane","puntType":"servicepunt","bezettingsgraad":50,"latitude":39.59308547,"longitude":8.7186121,"canPickup":true,"canDropoff":true,"openingstijden":{"za":"08:30 - 12:30, 15:30 - 19:00","zo":"07:00 - 12:30, 14:30 - 21:00","ma":"gesloten","di":"08:30 - 12:30, 15:30 - 19:00","wo":"08:30 - 12:30, 15:30 - 19:00","do":"08:30 - 12:30, 15:30 - 19:00","vr":"08:30 - 12:30, 15:30 - 19:00"}}},{"type":"Feature","geometry":{"type":"Point","coordinates":[8.72193542,39.59253755]},"properties":{"type":"pakketpunt","locatieNaam":"Nmarket Supermercato","straatNaam":"Via Cristoforo Colombo","straatNr":"41","vervoerder":"PosteItaliane","puntType":"servicepunt","bezettingsgraad":50,"latitude":39.59253755,"longitude":8.72193542,"canPickup":true,"canDropoff":true,"openingstijden":{"za":"07:30 - 13:00, 17:00 - 20:00","zo":"gesloten","ma":"07:30 - 13:00, 17:00 - 20:00","di":"07:30 - 13:00, 17:00 - 20:00","wo":"07:30 - 13:00, 17:00 - 20:00","do":"07:30 - 13:00, 17:00 - 20:00","vr":"07:30 - 13:00, 17:00 - 20:00"}}},{"type":"Feature","geometry":{"type":"Point","coordinates":[8.7221972,39.5924813]},"properties":{"type":"pakketpunt","locatieNaam":"NMarket Crai","straatNaam":"VIA COLOMBO","straatNr":"41","vervoerder":"DPD","puntType":"pickup_point","bezettingsgraad":50,"latitude":39.5924813,"longitude":8.7221972,"canPickup":true,"canDropoff":true,"openingstijden":{"ma":"07:30 - 13:00, 17:00 - 20:00","di":"07:30 - 13:00, 17:00 - 20:00","wo":"07:30 - 13:00, 17:00 - 20:00","do":"07:30 - 13:00, 17:00 - 20:00","vr":"07:30 - 13:00, 17:00 - 20:00","za":"07:30 - 13:00, 17:00 - 20:00","zo":"gesloten"}}},{"type":"Feature","geometry":{"type":"Point","coordinates":[8.7221972,39.5924813]},"properties":{"type":"pakketpunt","locatieNaam":"CRAI Pabillonis","straatNaam":"Via Cristoforo Colombo","straatNr":"41","vervoerder":"GLS","puntType":"parcel_shop","bezettingsgraad":50,"latitude":39.5924813,"longitude":8.7221972,"canPickup":true,"canDropoff":true,"openingstijden":"za: 07:30 - 13:00, 16:30 - 20:00; ma: 07:30 - 13:00, 16:30 - 20:00"}},{"type":"Feature","geometry":{"type":"Point","coordinates":[8.718795,39.595828]},"properties":{"type":"pakketpunt","locatieNaam":"Ufficio Postale PABILLONIS","straatNaam":"VIA SAN GIOVANNI 34","straatNr":"","vervoerder":"DHL","puntType":"postOffice","bezettingsgraad":50,"latitude":39.595828,"longitude":8.718795,"canPickup":true,"canDropoff":true,"openingstijden":{"ma":"08:20 - 13:45","di":"08:20 - 13:45","wo":"08:20 - 13:45","do":"08:20 - 13:45","vr":"08:20 - 13:45","za":"08:20 - 12:45","zo":"gesloten"}}},{"type":"Feature","geometry":{"type":"Point","coordinates":[8.720954,39.592933]},"properties":{"type":"pakketpunt","locatieNaam":"CRAI - NMARKET","straatNaam":"Via Colombo 41","straatNr":"","vervoerder":"DHL","puntType":"parcelShop","bezettingsgraad":50,"latitude":39.592933,"longitude":8.720954,"canPickup":false,"canDropoff":true,"openingstijden":{"ma":"07:30 - 20:00","di":"07:30 - 20:00","wo":"07:30 - 20:00","do":"07:30 - 20:00","vr":"07:30 - 20:00","za":"07:30 - 20:00","zo":"gesloten"}}},{"type":"Feature","geometry":{"type":"Point","coordinates":[8.721935,39.592538]},"properties":{"type":"pakketpunt","locatieNaam":"NMARKET SUPERMERCATO","straatNaam":"VIA CRISTOFORO COLOMBO 41","straatNr":"","vervoerder":"DHL","puntType":"parcelShop","bezettingsgraad":50,"latitude":39.592538,"longitude":8.721935,"canPickup":true,"canDropoff":true,"openingstijden":{"ma":"07:30 - 13:00, 17:00 - 20:00","di":"07:30 - 13:00, 17:00 - 20:00","wo":"07:30 - 13:00, 17:00 - 20:00","do":"07:30 - 13:00, 17:00 - 20:00","vr":"07:30 - 13:00, 17:00 - 20:00","za":"07:30 - 13:00, 17:00 - 20:00","zo":"gesloten"}}},{"type":"Feature","geometry":{"type":"Point","coordinates":[8.718612,39.593085]},"properties":{"type":"pakketpunt","locatieNaam":"TABACCHERIA N. 2","straatNaam":"VIA CESARE BATTISTI 9-A","straatNr":"","vervoerder":"DHL","puntType":"parcelShop","bezettingsgraad":50,"latitude":39.593085,"longitude":8.718612,"canPickup":true,"canDropoff":true,"openingstijden":{"ma":"gesloten","di":"08:30 - 12:30, 15:30 - 19:00","wo":"08:30 - 12:30, 15:30 - 19:00","do":"08:30 - 12:30, 15:30 - 19:00","vr":"08:30 - 12:30, 15:30 - 19:00","za":"08:30 - 12:30, 15:30 - 19:00","zo":"07:00 - 12:30, 14:30 - 21:00"}}},{"type":"Feature","geometry":{"type":"Point","coordinates":[8.719673,39.593959]},"properties":{"type":"pakketpunt","locatieNaam":"Amazon Counter - EDICOLA CARTOLIBRERIA DI ENNAS","straatNaam":"VIA VITTORIO EMANUELE 6","straatNr":"","vervoerder":"Amazon","puntType":"helix","bezettingsgraad":50,"latitude":39.593959,"longitude":8.719673,"canPickup":true,"canDropoff":false,"openingstijden":null}},{"type":"Feature","geometry":{"type":"Point","coordinates":[8.7221972,39.5924813]},"properties":{"type":"pakketpunt","locatieNaam":"Amazon Counter","straatNaam":"NMarket Crai (fermopoint)","straatNr":"","vervoerder":"Amazon","puntType":"helix","bezettingsgraad":50,"latitude":39.5924813,"longitude":8.7221972,"canPickup":true,"canDropoff":false,"openingstijden":null}},{"type":"Feature","geometry":{"type":"Point","coordinates":[8.72193,39.5925]},"properties":{"type":"pakketpunt","locatieNaam":"PuntoPoste NMARKET SUPERMERCATO","straatNaam":"VIA CRISTOFORO COLOMBO 41","straatNr":"","vervoerder":"Amazon","puntType":"3p","bezettingsgraad":50,"latitude":39.5925,"longitude":8.72193,"canPickup":true,"canDropoff":false,"openingstijden":null}},{"type":"Feature","geometry":{"type":"Point","coordinates":[8.71879,39.5958]},"properties":{"type":"pakketpunt","locatieNaam":"Ufficio Postale PABILLONIS","straatNaam":"VIA SAN GIOVANNI 34","straatNr":"","vervoerder":"Amazon","puntType":"3p","bezettingsgraad":50,"latitude":39.5958,"longitude":8.71879,"canPickup":true,"canDropoff":false,"openingstijden":null}},{"type":"Feature","geometry":{"type":"Polygon","coordinates":[[[8.6713263,39.6311375],[8.6723212,39.6302032],[8.6757081,39.6260409],[8.6764356,39.6249527],[8.6779006,39.6231187],[8.6809351,39.6194329],[8.681007,39.6190096],[8.6803251,39.6178183],[8.6795719,39.6169423],[8.6793992,39.6164913],[8.6793667,39.6159596],[8.6786255,39.6150115],[8.6785218,39.6147589],[8.6786864,39.614435],[8.6789207,39.6141563],[8.6797379,39.6137801],[8.6806965,39.6130619],[8.6817929,39.6127496],[8.6824007,39.6123187],[8.6837574,39.6111241],[8.6842009,39.6109451],[8.6846917,39.610613],[8.6852069,39.6100288],[8.6870395,39.6091958],[8.6875657,39.6087647],[8.6879743,39.6085585],[8.6888952,39.6084168],[8.6892104,39.6082555],[8.6893868,39.6078865],[8.6891337,39.6071831],[8.6888974,39.6053173],[8.6884473,39.604379],[8.6884966,39.6037935],[8.6877665,39.6029536],[8.6875821,39.6025206],[8.6873183,39.6016008],[8.6871831,39.6006003],[8.68751,39.600421],[8.6878375,39.6001155],[8.6876891,39.5994483],[8.6877025,39.5990609],[8.6881951,39.5982874],[8.6884187,39.5977654],[8.6885027,39.597225],[8.6883181,39.596837],[8.6878081,39.596286],[8.6879156,39.5956826],[8.68854,39.5940985],[8.6885304,39.5936299],[8.6883807,39.5932511],[8.6881608,39.5929532],[8.6881629,39.5924936],[8.6885836,39.5921704],[8.6888539,39.5916125],[8.6897418,39.5909841],[8.6901515,39.5905167],[8.6902111,39.5902015],[8.6901088,39.5896426],[8.6895192,39.5886769],[8.6895091,39.5883255],[8.6899113,39.5869299],[8.6898577,39.5858756],[8.6902456,39.5850657],[8.6903061,39.5845523],[8.6904475,39.5841922],[8.6910901,39.5837074],[8.6910216,39.5833918],[8.6908364,39.5831391],[8.690384,39.5827594],[8.6895464,39.582586],[8.6899159,39.5823076],[8.6894328,39.5819459],[8.6893882,39.5814953],[8.6894482,39.581099],[8.6893211,39.5808734],[8.688869,39.5804307],[8.6909931,39.5793281],[8.6924527,39.5784039],[8.693045,39.5761078],[8.6930234,39.5757203],[8.6926883,39.5751338],[8.6909057,39.5727954],[8.690097,39.5713696],[8.6898538,39.5710896],[8.689041,39.5706009],[8.6890425,39.5702675],[8.6902222,39.5694056],[8.6904965,39.5653157],[8.6904221,39.5637296],[8.6902842,39.5633238],[8.6908318,39.5632081],[8.6914049,39.562606],[8.692,39.5622832],[8.6926178,39.5620956],[8.6935359,39.5624494],[8.6941174,39.5625861],[8.6951046,39.5630933],[8.6974307,39.5635859],[8.7001606,39.5649355],[8.7022646,39.5656528],[8.7031252,39.5658712],[8.7065651,39.5672856],[8.7074598,39.5678172],[8.7110119,39.5695065],[8.7136848,39.5705554],[8.7145287,39.5711241],[8.7147673,39.5716043],[8.7153902,39.5722616],[8.7157481,39.5730381],[8.7164064,39.5737907],[8.7170912,39.5741653],[8.7183415,39.5746761],[8.7204136,39.5759293],[8.7212442,39.5762596],[8.7274586,39.5792048],[8.728885,39.5796815],[8.7305369,39.5810782],[8.730879,39.5812857],[8.732742,39.5821999],[8.7338554,39.5826318],[8.7348524,39.5828618],[8.7357766,39.5833553],[8.7382655,39.5850491],[8.7398811,39.5859577],[8.7402013,39.5862662],[8.7417799,39.5870405],[8.7421938,39.587316],[8.7424899,39.5872931],[8.7427121,39.5874149],[8.7435208,39.5881959],[8.7435891,39.5886286],[8.7432392,39.588763],[8.7420399,39.5887063],[8.7415963,39.5889936],[8.7414903,39.5893358],[8.7408457,39.5904156],[8.7412043,39.5910741],[8.7407719,39.5914876],[8.7402681,39.5922794],[8.7411283,39.5927228],[8.7413248,39.5931287],[8.7413345,39.5936423],[8.7416241,39.5940575],[8.7429617,39.59452],[8.7428441,39.5948441],[8.7424,39.5952395],[8.7434683,39.5992605],[8.7438613,39.6000723],[8.7446836,39.6013446],[8.7453222,39.6018956],[8.7457877,39.6020228],[8.7461596,39.6022308],[8.7467748,39.6028268],[8.7471224,39.6033232],[8.7471561,39.6036837],[8.7469324,39.6043319],[8.74693,39.6049897],[8.746964,39.60526],[8.7472193,39.6055219],[8.7473807,39.6059638],[8.7478093,39.6066405],[8.7478413,39.6074334],[8.7477446,39.6084063],[8.747499,39.6086671],[8.7470205,39.6089184],[8.7468101,39.6091341],[8.7465524,39.609512],[8.7462116,39.6103402],[8.7460466,39.6108534],[8.7462526,39.6118721],[8.7460982,39.6126646],[8.7462361,39.6131965],[8.746734,39.6140176],[8.7479993,39.6152728],[8.7484506,39.6161207],[8.7488578,39.6162567],[8.7491599,39.6164736],[8.7494497,39.6168797],[8.7495415,39.6172674],[8.7494699,39.6177357],[8.7497112,39.6186914],[8.7501644,39.6190077],[8.7496973,39.619295],[8.7494634,39.6195558],[8.7492623,39.6203843],[8.7492461,39.6216457],[8.7488582,39.622609],[8.7482252,39.6236708],[8.747804,39.6241475],[8.7467641,39.6249381],[8.7458313,39.6251343],[8.7449213,39.6254567],[8.7433909,39.6265436],[8.7431562,39.6270116],[8.7426309,39.6272627],[8.7422067,39.6285322],[8.7413885,39.6292242],[8.73973,39.6302476],[8.7381286,39.6315776],[8.7365122,39.6337904],[8.7360091,39.6343119],[8.735714,39.6344124],[8.735238,39.6348508],[8.73414,39.635533],[8.7333113,39.6358735],[8.7316525,39.6369149],[8.7308221,39.6376788],[8.7298504,39.6388119],[8.72889,39.640044],[8.7283858,39.6408358],[8.7275638,39.6397894],[8.72691,39.6385955],[8.7249632,39.6369623],[8.7244517,39.6366277],[8.7229377,39.6364079],[8.7156601,39.6378319],[8.7151928,39.6381011],[8.7125589,39.6381577],[8.7107632,39.6383875],[8.7028372,39.6387369],[8.7028695,39.6393497],[8.7024128,39.6398801],[8.7020416,39.6404829],[8.7020409,39.6413343],[8.7019272,39.6416809],[8.7001485,39.6433613],[8.6998577,39.6432344],[8.6994961,39.6433055],[8.6992603,39.6439356],[8.698886,39.644241],[8.6985129,39.6442671],[8.6981857,39.6444644],[8.6974748,39.6444716],[8.6971581,39.6449303],[8.6965734,39.6453793],[8.6944096,39.6444546],[8.6904958,39.6439757],[8.6883094,39.6429336],[8.6880539,39.6427257],[8.6869653,39.6412001],[8.686501,39.6407753],[8.6854076,39.6403128],[8.6845926,39.6401394],[8.6840809,39.6399128],[8.6812912,39.6383194],[8.6803965,39.6377403],[8.678806,39.6364474],[8.6778417,39.635805],[8.6774129,39.6352992],[8.6761477,39.6342325],[8.6731946,39.6327916],[8.6723696,39.6322937],[8.6713263,39.6311375]]]},"properties":{"type":"boundary","gemeente":"Pabillois/Pabillonis"}}]}