{"type":"FeatureCollection","metadata":{"gemeente":"Palata","slug":"palata","generated_at":"2026-09-26T13:10:20.887083Z","total_points":11,"providers":["PosteItaliane","DPD","GLS","DHL","Amazon"],"bounds":[14.7845,41.8863581,14.793949,41.8905018144]},"features":[{"type":"Feature","geometry":{"type":"Point","coordinates":[14.78492465,41.88838606]},"properties":{"type":"pakketpunt","locatieNaam":"Palata","straatNaam":"Via San Rocco","straatNr":"44","vervoerder":"PosteItaliane","puntType":"postkantoor","bezettingsgraad":50,"latitude":41.88838606,"longitude":14.78492465,"canPickup":true,"canDropoff":true,"openingstijden":{"za":"08:20 - 12:45","zo":"gesloten","ma":"08:20 - 13:45","di":"08:20 - 13:45","wo":"08:20 - 13:45","do":"08:20 - 13:45","vr":"08:20 - 13:45"}}},{"type":"Feature","geometry":{"type":"Point","coordinates":[14.78458688,41.88976032]},"properties":{"type":"pakketpunt","locatieNaam":"Tabaccheria N. 1","straatNaam":"Via San Rocco","straatNr":"9","vervoerder":"PosteItaliane","puntType":"servicepunt","bezettingsgraad":50,"latitude":41.88976032,"longitude":14.78458688,"canPickup":true,"canDropoff":true,"openingstijden":{"za":"07:30 - 12:30, 16:00 - 20:00","zo":"gesloten","ma":"07:30 - 12:30, 16:00 - 20:00","di":"07:30 - 12:30, 16:00 - 20:00","wo":"07:30 - 12:30, 16:00 - 20:00","do":"07:30 - 12:30, 16:00 - 20:00","vr":"07:30 - 12:30, 16:00 - 20:00"}}},{"type":"Feature","geometry":{"type":"Point","coordinates":[14.7890504,41.8863581]},"properties":{"type":"pakketpunt","locatieNaam":"SD Garden","straatNaam":"CONTRADA PAGLIARINI. SNC","straatNr":"","vervoerder":"DPD","puntType":"pickup_point","bezettingsgraad":50,"latitude":41.8863581,"longitude":14.7890504,"canPickup":true,"canDropoff":true,"openingstijden":{"ma":"08:00 - 13:00, 16:00 - 19:30","di":"08:00 - 13:00, 16:00 - 19:30","wo":"08:00 - 13:00, 16:00 - 19:30","do":"08:00 - 13:00, 16:00 - 19:30","vr":"08:00 - 13:00, 16:00 - 19:30","za":"08:00 - 13:00, 16:00 - 19:30","zo":"09:30 - 12:30"}}},{"type":"Feature","geometry":{"type":"Point","coordinates":[14.7854721221,41.8905018144]},"properties":{"type":"pakketpunt","locatieNaam":"TABACCHERIA DI ROCCO LORIS","straatNaam":"Piazza Del Popolo 10","straatNr":"10","vervoerder":"GLS","puntType":"parcel_shop","bezettingsgraad":50,"latitude":41.8905018144,"longitude":14.7854721221,"canPickup":true,"canDropoff":true,"openingstijden":"za: 07:00 - 12:30, 15:30 - 20:00; ma: 07:00 - 12:30, 15:30 - 20:00"}},{"type":"Feature","geometry":{"type":"Point","coordinates":[14.784925,41.888386]},"properties":{"type":"pakketpunt","locatieNaam":"Ufficio Postale PALATA","straatNaam":"VIA SAN ROCCO 44","straatNr":"","vervoerder":"DHL","puntType":"postOffice","bezettingsgraad":50,"latitude":41.888386,"longitude":14.784925,"canPickup":true,"canDropoff":true,"openingstijden":{"ma":"08:20 - 13:45","di":"08:20 - 13:45","wo":"08:20 - 13:45","do":"08:20 - 13:45","vr":"08:20 - 13:45","za":"08:20 - 12:45","zo":"gesloten"}}},{"type":"Feature","geometry":{"type":"Point","coordinates":[14.784587,41.88976]},"properties":{"type":"pakketpunt","locatieNaam":"TABACCHERIA N. 1","straatNaam":"VIA SAN ROCCO 9","straatNr":"","vervoerder":"DHL","puntType":"parcelShop","bezettingsgraad":50,"latitude":41.88976,"longitude":14.784587,"canPickup":true,"canDropoff":true,"openingstijden":{"ma":"07:30 - 12:30, 16:00 - 20:00","di":"07:30 - 12:30, 16:00 - 20:00","wo":"07:30 - 12:30, 16:00 - 20:00","do":"07:30 - 12:30, 16:00 - 20:00","vr":"07:30 - 12:30, 16:00 - 20:00","za":"07:30 - 12:30, 16:00 - 20:00","zo":"gesloten"}}},{"type":"Feature","geometry":{"type":"Point","coordinates":[14.793949,41.88894]},"properties":{"type":"pakketpunt","locatieNaam":"SD GARDEN","straatNaam":"Contrada Pagliarini, Snc","straatNr":"","vervoerder":"DHL","puntType":"parcelShop","bezettingsgraad":50,"latitude":41.88894,"longitude":14.793949,"canPickup":false,"canDropoff":true,"openingstijden":{"ma":"08:30 - 19:30","di":"08:30 - 19:30","wo":"08:30 - 19:30","do":"08:30 - 19:30","vr":"08:30 - 19:30","za":"08:30 - 19:30","zo":"gesloten"}}},{"type":"Feature","geometry":{"type":"Point","coordinates":[14.7890504,41.8863581]},"properties":{"type":"pakketpunt","locatieNaam":"Amazon Counter (fermopoint)","straatNaam":"SD Garden","straatNr":"","vervoerder":"Amazon","puntType":"helix","bezettingsgraad":50,"latitude":41.8863581,"longitude":14.7890504,"canPickup":true,"canDropoff":false,"openingstijden":null}},{"type":"Feature","geometry":{"type":"Point","coordinates":[14.785472,41.890498]},"properties":{"type":"pakketpunt","locatieNaam":"Amazon Counter - L'APOTECA SALI E TABACCHI DI DI","straatNaam":"PIAZZA DEL POPOLO 10","straatNr":"","vervoerder":"Amazon","puntType":"helix","bezettingsgraad":50,"latitude":41.890498,"longitude":14.785472,"canPickup":true,"canDropoff":false,"openingstijden":null}},{"type":"Feature","geometry":{"type":"Point","coordinates":[14.7849,41.8883]},"properties":{"type":"pakketpunt","locatieNaam":"Ufficio Postale PALATA","straatNaam":"VIA SAN ROCCO 44","straatNr":"","vervoerder":"Amazon","puntType":"3p","bezettingsgraad":50,"latitude":41.8883,"longitude":14.7849,"canPickup":true,"canDropoff":false,"openingstijden":null}},{"type":"Feature","geometry":{"type":"Point","coordinates":[14.7845,41.8897]},"properties":{"type":"pakketpunt","locatieNaam":"PuntoPoste TABACCHERIA N. 1","straatNaam":"VIA SAN ROCCO 9","straatNr":"","vervoerder":"Amazon","puntType":"3p","bezettingsgraad":50,"latitude":41.8897,"longitude":14.7845,"canPickup":true,"canDropoff":false,"openingstijden":null}},{"type":"Feature","geometry":{"type":"Polygon","coordinates":[[[14.7620361,41.8934451],[14.762283,41.8933808],[14.7624814,41.8931691],[14.7626538,41.8926123],[14.762755,41.8924983],[14.7626477,41.8922387],[14.7636314,41.8912659],[14.7636011,41.8906745],[14.7632539,41.8900224],[14.7637153,41.8897588],[14.7642732,41.8897029],[14.7649598,41.8893994],[14.7649705,41.8892557],[14.7648311,41.8889661],[14.764418,41.888441],[14.7647774,41.8882543],[14.7648056,41.8880317],[14.7637609,41.8869654],[14.7637984,41.8868056],[14.7639084,41.8867697],[14.764426,41.8868376],[14.7645092,41.8867677],[14.7643161,41.8860548],[14.763726,41.8853799],[14.7643589,41.8841885],[14.7642061,41.8838523],[14.7645709,41.8834928],[14.7642517,41.8831893],[14.7641873,41.8824145],[14.7648525,41.8817834],[14.7644609,41.8811963],[14.7639427,41.8810395],[14.7640425,41.879383],[14.7645575,41.878049],[14.7655238,41.8770995],[14.7657323,41.87596],[14.7655821,41.8754647],[14.7657537,41.875265],[14.767524,41.8739669],[14.7665477,41.8728404],[14.7664404,41.8726207],[14.7664297,41.8723411],[14.7675347,41.8712945],[14.7684413,41.870923],[14.7694123,41.8699523],[14.772191,41.8683664],[14.7735643,41.8660214],[14.7734946,41.865566],[14.7735321,41.8651226],[14.7733122,41.8648869],[14.774251,41.8642916],[14.7750422,41.8635625],[14.7754365,41.8634367],[14.7756806,41.8632209],[14.7761983,41.8630112],[14.7763136,41.8628094],[14.7762519,41.8626157],[14.7767716,41.8620893],[14.7773758,41.8620084],[14.7798407,41.8607799],[14.782668,41.8590611],[14.7832633,41.8596941],[14.7835433,41.8603339],[14.7839957,41.8607717],[14.78438,41.8609654],[14.7849971,41.8608256],[14.7851407,41.8610835],[14.7856635,41.8612058],[14.7866642,41.8617228],[14.7870612,41.8622981],[14.7882736,41.8630571],[14.7900975,41.863169],[14.7922432,41.8643276],[14.792887,41.8653902],[14.7931445,41.8660534],[14.7946159,41.8662987],[14.796685,41.8651505],[14.7966528,41.8646392],[14.7980046,41.8646072],[14.7986805,41.8641358],[14.7998822,41.8613951],[14.8008585,41.8606281],[14.8018241,41.8597171],[14.8056883,41.8597756],[14.8059761,41.8596772],[14.8065233,41.859789],[14.8077786,41.8593815],[14.8087013,41.8593735],[14.8098117,41.8590259],[14.8116946,41.8578313],[14.8118126,41.8575776],[14.8122525,41.857232],[14.812451,41.857204],[14.8129821,41.8574478],[14.8132127,41.857264],[14.8132879,41.8570922],[14.812974,41.8565907],[14.8135453,41.8566886],[14.8138538,41.8566307],[14.8145109,41.8568205],[14.8155382,41.8566447],[14.8157206,41.8562451],[14.8160344,41.8561552],[14.8167881,41.8561912],[14.8167425,41.8557197],[14.817346,41.8552922],[14.8178315,41.8551223],[14.8177886,41.8549405],[14.8179039,41.8547947],[14.8182768,41.8545909],[14.8181185,41.8543532],[14.818199,41.8542014],[14.8183867,41.8541734],[14.8184645,41.8540335],[14.8198029,41.8539796],[14.8203193,41.8541224],[14.820554,41.8539506],[14.8208798,41.8540645],[14.8211052,41.8539177],[14.8214163,41.8539147],[14.8223108,41.8533922],[14.8228607,41.8531705],[14.8235862,41.8534312],[14.8240623,41.8533982],[14.8246792,41.8535091],[14.8259506,41.8530426],[14.8269255,41.8528648],[14.8272286,41.8524932],[14.8275062,41.8524133],[14.8279005,41.8525471],[14.8283538,41.8525122],[14.828673,41.8530556],[14.828897,41.8531575],[14.8297754,41.8532444],[14.830599,41.8537081],[14.8308161,41.853628],[14.8309261,41.8534222],[14.8308778,41.8530066],[14.8309851,41.8528188],[14.8308644,41.8520557],[14.8304405,41.8509568],[14.8305693,41.8504453],[14.8310709,41.849868],[14.8313177,41.8488729],[14.8318193,41.8481497],[14.8323583,41.8467889],[14.8343221,41.8435078],[14.8350316,41.8432414],[14.8369865,41.8427138],[14.8374548,41.8423917],[14.8378285,41.8422646],[14.8422283,41.841176],[14.8428907,41.8408496],[14.8436978,41.8405924],[14.8456497,41.8401506],[14.8468067,41.8398035],[14.8497738,41.8383196],[14.8512825,41.8378374],[14.8519682,41.8372398],[14.8523549,41.8370265],[14.8531519,41.8361981],[14.8538285,41.8351733],[14.854202,41.8347491],[14.8553974,41.8341659],[14.8563367,41.8333482],[14.8569774,41.8321947],[14.8578718,41.8312487],[14.8581137,41.8310968],[14.8602668,41.835407],[14.8634501,41.8390741],[14.8646885,41.8401673],[14.8657457,41.8408513],[14.8795975,41.8532962],[14.8846799,41.8581297],[14.8690736,41.8654978],[14.8650726,41.8689974],[14.8622136,41.8705706],[14.8614173,41.871219],[14.8611642,41.8715695],[14.8575335,41.8778584],[14.8572556,41.8784892],[14.8508768,41.8798327],[14.843266,41.8826159],[14.837098,41.8861262],[14.8362769,41.8867397],[14.8339702,41.8886711],[14.8326292,41.8899232],[14.832662,41.8911817],[14.8323446,41.8927777],[14.8319926,41.8935157],[14.8274947,41.8988847],[14.8153466,41.9100886],[14.814042,41.9107895],[14.8124976,41.911282],[14.8113762,41.9114065],[14.8100129,41.9114397],[14.8084581,41.9113206],[14.8073608,41.9113628],[14.8069742,41.9114769],[14.8040472,41.9145824],[14.8039257,41.9148946],[14.8040925,41.9194635],[14.8047977,41.921399],[14.8016736,41.9210616],[14.8013857,41.9204461],[14.8013629,41.9199972],[14.8012071,41.919609],[14.8007153,41.9189048],[14.800861,41.9186183],[14.801162,41.9183825],[14.8011993,41.9181961],[14.8011166,41.9179167],[14.800638,41.9173919],[14.800673,41.9169805],[14.8008204,41.9167795],[14.8006041,41.9165204],[14.799988,41.9162726],[14.7995543,41.915777],[14.7995426,41.9156155],[14.7996667,41.9154562],[14.7997154,41.9151297],[14.7996684,41.9144795],[14.7995487,41.9140579],[14.7994171,41.9139026],[14.7992012,41.9138145],[14.7987456,41.9130769],[14.7978734,41.9134587],[14.7976717,41.9131628],[14.7970564,41.9129555],[14.7965134,41.91328],[14.7948508,41.9127881],[14.7932953,41.9129119],[14.7930537,41.9128386],[14.7928365,41.9125705],[14.7928972,41.9123424],[14.792791,41.9122353],[14.7921879,41.9121623],[14.7917569,41.9117295],[14.7915264,41.9112146],[14.7911794,41.91071],[14.7903599,41.9103779],[14.7896381,41.9099598],[14.7892073,41.9089959],[14.7886554,41.9080922],[14.788247,41.9076087],[14.7880569,41.9070737],[14.7876253,41.9065329],[14.7875414,41.9061726],[14.7872144,41.9059551],[14.7864941,41.9056855],[14.7860366,41.9056231],[14.7852267,41.9059611],[14.7846242,41.9060951],[14.7829712,41.9062371],[14.7814872,41.9068837],[14.7810766,41.9068729],[14.7809194,41.9067008],[14.7809209,41.9064847],[14.7820694,41.905261],[14.7822661,41.9048054],[14.7820603,41.9042622],[14.7816075,41.9036696],[14.7806384,41.904262],[14.7802031,41.9043786],[14.77736,41.9043871],[14.7767708,41.9038677],[14.7762065,41.9030905],[14.7760009,41.9029164],[14.7749661,41.9023655],[14.7736432,41.9018606],[14.7728619,41.9013824],[14.7721396,41.9005232],[14.7714453,41.8993069],[14.7710244,41.8989816],[14.7704692,41.8988385],[14.7698576,41.8985363],[14.7692944,41.8974035],[14.7690407,41.8971957],[14.7675006,41.8963191],[14.7669101,41.8963174],[14.7667439,41.8962447],[14.7665734,41.8960913],[14.7663955,41.8957222],[14.7660344,41.8954928],[14.7649263,41.8953956],[14.7634802,41.8950589],[14.7632047,41.8947757],[14.7628571,41.894028],[14.7620361,41.8934451]]]},"properties":{"type":"boundary","gemeente":"Palata"}}]}