{"type":"FeatureCollection","metadata":{"gemeente":"Papasidero","slug":"papasidero","generated_at":"2026-09-26T13:10:21.470654Z","total_points":3,"providers":["PosteItaliane","DHL","Amazon"],"bounds":[15.9054,39.8716,15.90544021,39.87166639]},"features":[{"type":"Feature","geometry":{"type":"Point","coordinates":[15.90544021,39.87166639]},"properties":{"type":"pakketpunt","locatieNaam":"Papasidero","straatNaam":"Via Nicola Dario","straatNr":"11","vervoerder":"PosteItaliane","puntType":"postkantoor","bezettingsgraad":50,"latitude":39.87166639,"longitude":15.90544021,"canPickup":true,"canDropoff":true,"openingstijden":{"za":"gesloten","zo":"gesloten","ma":"08:20 - 13:45","di":"08:20 - 13:45","wo":"08:20 - 13:45","do":"08:20 - 13:45","vr":"08:20 - 13:45"}}},{"type":"Feature","geometry":{"type":"Point","coordinates":[15.90544,39.871666]},"properties":{"type":"pakketpunt","locatieNaam":"Ufficio Postale PAPASIDERO","straatNaam":"VIA NICOLA DARIO 11","straatNr":"","vervoerder":"DHL","puntType":"postOffice","bezettingsgraad":50,"latitude":39.871666,"longitude":15.90544,"canPickup":true,"canDropoff":true,"openingstijden":{"ma":"08:20 - 13:45","di":"08:20 - 13:45","wo":"08:20 - 13:45","do":"08:20 - 13:45","vr":"08:20 - 13:45","za":"gesloten","zo":"gesloten"}}},{"type":"Feature","geometry":{"type":"Point","coordinates":[15.9054,39.8716]},"properties":{"type":"pakketpunt","locatieNaam":"Ufficio Postale PAPASIDERO","straatNaam":"VIA NICOLA DARIO 11","straatNr":"","vervoerder":"Amazon","puntType":"3p","bezettingsgraad":50,"latitude":39.8716,"longitude":15.9054,"canPickup":true,"canDropoff":false,"openingstijden":null}},{"type":"Feature","geometry":{"type":"Polygon","coordinates":[[[15.848998,39.8665513],[15.8492257,39.8660517],[15.8543181,39.8609398],[15.8611068,39.8559743],[15.8670461,39.8486926],[15.866296,39.8484448],[15.8660783,39.8479178],[15.866058,39.8472486],[15.8670832,39.8432329],[15.8673551,39.8425239],[15.8685651,39.8402833],[15.8738801,39.8326334],[15.8746978,39.8316355],[15.8767499,39.829597],[15.8791298,39.8291944],[15.8806459,39.8298953],[15.8825897,39.8301799],[15.883989,39.8300605],[15.8907986,39.8269639],[15.8924221,39.8350688],[15.8898204,39.8409645],[15.8944373,39.8453234],[15.9125688,39.8473795],[15.9131394,39.8472058],[15.9135687,39.8469777],[15.9144916,39.8460586],[15.9172148,39.8443253],[15.9230575,39.8433317],[15.9331046,39.8421888],[15.9429211,39.8455175],[15.9520668,39.8527278],[15.957456,39.8585667],[15.9582526,39.8594995],[15.9598628,39.8618183],[15.9601245,39.8629723],[15.960476,39.8663478],[15.9594861,39.8717343],[15.9576148,39.8776868],[15.9556788,39.8813217],[15.9577451,39.8886565],[15.9563618,39.8943458],[15.9558036,39.8944963],[15.9541167,39.8951828],[15.9502524,39.8973772],[15.9485851,39.8985889],[15.9483657,39.898845],[15.9482424,39.8992124],[15.9478067,39.9007323],[15.9477651,39.9011536],[15.9452003,39.9034266],[15.9350046,39.9132494],[15.9350914,39.9135726],[15.9350603,39.9138714],[15.9347776,39.9146127],[15.9311403,39.9165408],[15.9306119,39.9165456],[15.9189612,39.911342],[15.9181592,39.9107198],[15.9178892,39.9097821],[15.9092711,39.8968237],[15.9069456,39.8952668],[15.9065571,39.8950786],[15.9060894,39.8950301],[15.9043012,39.8951956],[15.9025305,39.8956794],[15.8961968,39.898834],[15.8947043,39.9002056],[15.8906939,39.9056189],[15.8852272,39.9108582],[15.8783729,39.916135],[15.8778834,39.9157413],[15.8751072,39.9128248],[15.8713822,39.9058526],[15.8710792,39.9050023],[15.8707964,39.9030575],[15.8707423,39.8996953],[15.8708781,39.898459],[15.8714901,39.8950257],[15.8724411,39.8934439],[15.8738081,39.8886744],[15.8708049,39.8760261],[15.8692313,39.8735958],[15.8630392,39.8674178],[15.8626514,39.8673059],[15.848998,39.8665513]]]},"properties":{"type":"boundary","gemeente":"Papasidero"}}]}