{"type":"FeatureCollection","metadata":{"gemeente":"Pasturo","slug":"pasturo","generated_at":"2026-09-26T14:27:43.590791Z","total_points":5,"providers":["PosteItaliane","DHL","Amazon"],"bounds":[9.44223573,45.95047,9.449566,45.95712]},"features":[{"type":"Feature","geometry":{"type":"Point","coordinates":[9.44234254,45.95047026]},"properties":{"type":"pakketpunt","locatieNaam":"Tabaccheria N. 1","straatNaam":"Via Alessandro Manzoni","straatNr":"49","vervoerder":"PosteItaliane","puntType":"servicepunt","bezettingsgraad":50,"latitude":45.95047026,"longitude":9.44234254,"canPickup":true,"canDropoff":true,"openingstijden":{"za":"07:00 - 13:00, 15:30 - 19:30","zo":"07:00 - 12:30","ma":"07:00 - 13:00, 15:30 - 19:30","di":"07:00 - 13:00, 15:30 - 19:30","wo":"07:00 - 13:00, 15:30 - 19:30","do":"07:00 - 13:00, 15:30 - 19:30","vr":"07:00 - 13:00, 15:30 - 19:30"}}},{"type":"Feature","geometry":{"type":"Point","coordinates":[9.44223573,45.95097259]},"properties":{"type":"pakketpunt","locatieNaam":"Pasturo","straatNaam":"Piazza Vittorio Veneto","straatNr":"14","vervoerder":"PosteItaliane","puntType":"postkantoor","bezettingsgraad":50,"latitude":45.95097259,"longitude":9.44223573,"canPickup":true,"canDropoff":true,"openingstijden":{"za":"08:20 - 12:45","zo":"gesloten","ma":"08:20 - 13:45","di":"08:20 - 13:45","wo":"08:20 - 13:45","do":"08:20 - 13:45","vr":"08:20 - 13:45"}}},{"type":"Feature","geometry":{"type":"Point","coordinates":[9.442236,45.950973]},"properties":{"type":"pakketpunt","locatieNaam":"Ufficio Postale PASTURO","straatNaam":"PIAZZA VITTORIO VENETO 14","straatNr":"","vervoerder":"DHL","puntType":"postOffice","bezettingsgraad":50,"latitude":45.950973,"longitude":9.442236,"canPickup":true,"canDropoff":true,"openingstijden":{"ma":"08:20 - 13:45","di":"08:20 - 13:45","wo":"08:20 - 13:45","do":"08:20 - 13:45","vr":"08:20 - 13:45","za":"08:20 - 12:45","zo":"gesloten"}}},{"type":"Feature","geometry":{"type":"Point","coordinates":[9.442343,45.95047]},"properties":{"type":"pakketpunt","locatieNaam":"TABACCHERIA n. 1","straatNaam":"VIA ALESSANDRO MANZONI 49","straatNr":"","vervoerder":"DHL","puntType":"parcelShop","bezettingsgraad":50,"latitude":45.95047,"longitude":9.442343,"canPickup":true,"canDropoff":true,"openingstijden":{"ma":"07:00 - 13:00, 15:30 - 19:30","di":"07:00 - 13:00, 15:30 - 19:30","wo":"07:00 - 13:00, 15:30 - 19:30","do":"07:00 - 13:00, 15:30 - 19:30","vr":"07:00 - 13:00, 15:30 - 19:30","za":"07:00 - 13:00, 15:30 - 19:30","zo":"07:00 - 12:30"}}},{"type":"Feature","geometry":{"type":"Point","coordinates":[9.449566,45.95712]},"properties":{"type":"pakketpunt","locatieNaam":"Amazon Locker - lidovina","straatNaam":"Parafarmacia Valsassina Pasturo","straatNr":"","vervoerder":"Amazon","puntType":"locker","bezettingsgraad":50,"latitude":45.95712,"longitude":9.449566,"canPickup":true,"canDropoff":false,"openingstijden":null}},{"type":"Feature","geometry":{"type":"Polygon","coordinates":[[[9.3872055,45.9533022],[9.3872027,45.952966],[9.3870755,45.9527403],[9.3867574,45.9524694],[9.3864827,45.951805],[9.3865326,45.9515516],[9.3866587,45.9513824],[9.3865833,45.9509216],[9.386304,45.9502311],[9.3862759,45.9498062],[9.3857298,45.9491423],[9.3856507,45.9486151],[9.3855346,45.9483679],[9.3861206,45.9479817],[9.38649,45.947843],[9.3874621,45.947089],[9.3880023,45.9468714],[9.3882467,45.9465457],[9.3885113,45.9463725],[9.3885027,45.9461894],[9.3888302,45.9460976],[9.3890327,45.9456951],[9.3892529,45.9455614],[9.3892934,45.9452795],[9.3890655,45.9446633],[9.38932,45.9444777],[9.3899421,45.9432377],[9.3899911,45.942896],[9.39063,45.9424672],[9.3908183,45.9422001],[9.3908835,45.9415401],[9.3907425,45.9405243],[9.3906395,45.9402366],[9.3901941,45.9398851],[9.3899196,45.9393729],[9.3900048,45.9391949],[9.3900115,45.9375397],[9.3896953,45.9368735],[9.3894092,45.9358013],[9.3890368,45.9353615],[9.3882554,45.9348081],[9.387793,45.9331235],[9.3877871,45.9323044],[9.3878373,45.9319264],[9.3882049,45.9312459],[9.3882578,45.9310096],[9.3892482,45.9299549],[9.3901654,45.9291216],[9.3905757,45.9282384],[9.3908443,45.9271156],[9.391249,45.9240274],[9.3910752,45.9220124],[9.3915581,45.9224304],[9.3927858,45.9230994],[9.3936949,45.9232508],[9.3998458,45.9237049],[9.4008036,45.9236668],[9.4019906,45.9237467],[9.4030875,45.9244426],[9.4034493,45.9245356],[9.4043363,45.9245308],[9.4044606,45.9246616],[9.4049719,45.924733],[9.4052197,45.9249233],[9.4061353,45.9247245],[9.4076756,45.9246813],[9.4081835,45.9250305],[9.4089085,45.9252371],[9.4092596,45.9256811],[9.4097017,45.9258075],[9.4106931,45.9256198],[9.4119434,45.925537],[9.4133378,45.925317],[9.4141656,45.9253529],[9.4147953,45.9252732],[9.4149853,45.9253775],[9.4161289,45.9254052],[9.4170374,45.9250514],[9.4178843,45.9249425],[9.4182694,45.9249648],[9.4197147,45.9256491],[9.4205146,45.9258274],[9.4241041,45.9249067],[9.4246444,45.924684],[9.4256596,45.9245811],[9.4270211,45.9248771],[9.4275249,45.9251874],[9.4277948,45.9255565],[9.4283296,45.925929],[9.4286193,45.9260068],[9.4288613,45.9259295],[9.4292693,45.9256039],[9.429984,45.9254201],[9.430353,45.9251994],[9.4317727,45.9249643],[9.4323407,45.9246694],[9.4333398,45.9246813],[9.4339479,45.9245958],[9.4345188,45.92474],[9.4352771,45.9244798],[9.4355018,45.9234588],[9.435794,45.9228771],[9.4357735,45.9225297],[9.4365881,45.9219685],[9.4372437,45.9218393],[9.4375737,45.9219412],[9.4381035,45.9224525],[9.4385781,45.9227341],[9.439205,45.9227092],[9.4398059,45.9228734],[9.4404201,45.9228665],[9.4410821,45.9230035],[9.4414302,45.9233981],[9.442217,45.9236201],[9.4424127,45.9238939],[9.4427694,45.9241535],[9.4429206,45.9245129],[9.4434806,45.9245917],[9.4439362,45.9249185],[9.444488,45.9249748],[9.4450037,45.9251483],[9.4452624,45.9254488],[9.4462846,45.9260703],[9.4466179,45.9266135],[9.4486057,45.9274158],[9.4489381,45.9278555],[9.4488043,45.92845],[9.448925,45.9296241],[9.4498378,45.9304485],[9.4500408,45.9308347],[9.450525,45.9312873],[9.4506282,45.9316829],[9.4509426,45.9322802],[9.4512456,45.9324725],[9.4522106,45.9327657],[9.4526102,45.9333266],[9.4526565,45.933871],[9.4531314,45.9341751],[9.4530876,45.9343328],[9.4524668,45.9351183],[9.4529277,45.936075],[9.4528777,45.9368627],[9.4532794,45.9380716],[9.4532196,45.9384589],[9.4530601,45.9392605],[9.4524988,45.9398388],[9.452468,45.9400144],[9.4526352,45.9405403],[9.4525596,45.9409636],[9.4518124,45.9418801],[9.451444,45.9447661],[9.4518061,45.9456647],[9.4518353,45.9466726],[9.4521159,45.9478595],[9.4527174,45.9486402],[9.4530488,45.9495299],[9.4530973,45.9501372],[9.4533261,45.9508923],[9.4533043,45.9514882],[9.4534938,45.9524192],[9.4532067,45.953083],[9.4531161,45.9539853],[9.4514174,45.9566182],[9.4513545,45.9568356],[9.4515824,45.9576758],[9.4515544,45.9582091],[9.4509907,45.9591907],[9.450855,45.9597441],[9.4499162,45.9610114],[9.449819,45.9613932],[9.4498664,45.961738],[9.4495003,45.9619804],[9.4480399,45.9621385],[9.4465656,45.9626764],[9.4466254,45.9628101],[9.4462381,45.9630935],[9.445777,45.963973],[9.4456888,45.9640131],[9.4437037,45.9677778],[9.4431323,45.9684311],[9.4420047,45.9689491],[9.4418644,45.9692267],[9.4387573,45.9695304],[9.4386512,45.9697606],[9.4381699,45.9698651],[9.4368735,45.9697118],[9.4365333,45.9698218],[9.4355099,45.9699426],[9.4350008,45.9699094],[9.4349154,45.9698362],[9.4316233,45.9705042],[9.4313796,45.9704271],[9.4310737,45.9704612],[9.4304505,45.9707151],[9.4293161,45.9701251],[9.4287435,45.9696888],[9.4283042,45.9697183],[9.427139,45.9701332],[9.4264628,45.9705046],[9.4262382,45.9708229],[9.4262061,45.971839],[9.4259524,45.9724085],[9.4255909,45.9726245],[9.4250975,45.9731304],[9.4251822,45.9737633],[9.4250346,45.9740526],[9.4246174,45.9743464],[9.4243185,45.974438],[9.4241768,45.9743924],[9.4241711,45.9741206],[9.4234405,45.9732444],[9.4232581,45.972733],[9.4230774,45.9714749],[9.4227784,45.9703783],[9.4225903,45.9701872],[9.4221375,45.9692433],[9.421809,45.9688389],[9.4210372,45.9684729],[9.4203118,45.9676301],[9.4197492,45.9671938],[9.418782,45.9660527],[9.4182493,45.9656024],[9.4156694,45.9637922],[9.4133042,45.9626457],[9.4126837,45.9624566],[9.4119914,45.9619999],[9.4115706,45.9618205],[9.4112608,45.9617798],[9.4103756,45.9609097],[9.4098549,45.9606958],[9.4086298,45.9614927],[9.4070749,45.9620082],[9.4051959,45.9624584],[9.4021675,45.9620393],[9.3997963,45.9618354],[9.3992397,45.9619858],[9.3988758,45.9619056],[9.398129,45.9605809],[9.3971335,45.9592968],[9.3969439,45.959234],[9.3952288,45.9580628],[9.3913886,45.9549712],[9.3900616,45.9542564],[9.3886981,45.9539944],[9.3872055,45.9533022]]]},"properties":{"type":"boundary","gemeente":"Pasturo"}}]}