{"type":"FeatureCollection","metadata":{"gemeente":"Patada/Pattada","slug":"patada-pattada","generated_at":"2026-09-26T14:27:43.602659Z","total_points":6,"providers":["PosteItaliane","DPD","DHL","Amazon"],"bounds":[9.1098976,40.58090927,9.1116071,40.58350441]},"features":[{"type":"Feature","geometry":{"type":"Point","coordinates":[9.1116071,40.58350441]},"properties":{"type":"pakketpunt","locatieNaam":"Pattada","straatNaam":"Piazza Vittorio Veneto","straatNr":"10","vervoerder":"PosteItaliane","puntType":"postkantoor","bezettingsgraad":50,"latitude":40.58350441,"longitude":9.1116071,"canPickup":true,"canDropoff":true,"openingstijden":{"za":"08:20 - 12:35","zo":"gesloten","ma":"08:20 - 13:35","di":"08:20 - 13:35","wo":"08:20 - 13:35","do":"08:20 - 13:35","vr":"08:20 - 13:35"}}},{"type":"Feature","geometry":{"type":"Point","coordinates":[9.11000365,40.58090927]},"properties":{"type":"pakketpunt","locatieNaam":"Dryuf di Andrea e Stefy","straatNaam":"VIA DUCA D'AOSTA","straatNr":"59","vervoerder":"DPD","puntType":"pickup_point","bezettingsgraad":50,"latitude":40.58090927,"longitude":9.11000365,"canPickup":true,"canDropoff":true,"openingstijden":{"ma":"09:00 - 13:00, 16:00 - 19:30","di":"09:00 - 13:00, 16:00 - 19:30","wo":"09:00 - 13:00, 16:00 - 19:30","do":"09:00 - 13:00, 16:00 - 19:30","vr":"09:00 - 13:00, 16:00 - 19:30","za":"09:00 - 13:00","zo":"gesloten"}}},{"type":"Feature","geometry":{"type":"Point","coordinates":[9.111607,40.583504]},"properties":{"type":"pakketpunt","locatieNaam":"Ufficio Postale PATTADA","straatNaam":"PIAZZA VITTORIO VENETO 10","straatNr":"","vervoerder":"DHL","puntType":"postOffice","bezettingsgraad":50,"latitude":40.583504,"longitude":9.111607,"canPickup":true,"canDropoff":true,"openingstijden":{"ma":"08:20 - 13:35","di":"08:20 - 13:35","wo":"08:20 - 13:35","do":"08:20 - 13:35","vr":"gesloten","za":"08:20 - 12:35","zo":"gesloten"}}},{"type":"Feature","geometry":{"type":"Point","coordinates":[9.1098976,40.5809545]},"properties":{"type":"pakketpunt","locatieNaam":"Amazon Counter (fermopoint)","straatNaam":"Dryuf di Andrea e Stefy","straatNr":"","vervoerder":"Amazon","puntType":"helix","bezettingsgraad":50,"latitude":40.5809545,"longitude":9.1098976,"canPickup":true,"canDropoff":false,"openingstijden":null}},{"type":"Feature","geometry":{"type":"Point","coordinates":[9.110152,40.580996]},"properties":{"type":"pakketpunt","locatieNaam":"Amazon Locker - ardimento","straatNaam":"Crai - Pattada","straatNr":"","vervoerder":"Amazon","puntType":"locker","bezettingsgraad":50,"latitude":40.580996,"longitude":9.110152,"canPickup":true,"canDropoff":false,"openingstijden":null}},{"type":"Feature","geometry":{"type":"Point","coordinates":[9.1116,40.5835]},"properties":{"type":"pakketpunt","locatieNaam":"Ufficio Postale PATTADA","straatNaam":"PIAZZA VITTORIO VENETO 10","straatNr":"","vervoerder":"Amazon","puntType":"3p","bezettingsgraad":50,"latitude":40.5835,"longitude":9.1116,"canPickup":true,"canDropoff":false,"openingstijden":null}},{"type":"Feature","geometry":{"type":"Polygon","coordinates":[[[9.0463568,40.5715517],[9.04651,40.5710382],[9.046545,40.5703355],[9.0470759,40.5692902],[9.048765,40.5689472],[9.0492137,40.5686858],[9.0497211,40.5678838],[9.0500517,40.5676224],[9.0504061,40.5675862],[9.0510443,40.5679643],[9.051434,40.5678019],[9.0512087,40.56673],[9.0519273,40.564045],[9.0521502,40.562054],[9.0521023,40.5612882],[9.0522199,40.5606215],[9.0533875,40.5583418],[9.0530567,40.5582338],[9.0526549,40.5579367],[9.0516617,40.5566218],[9.0516769,40.5562649],[9.0531374,40.5556662],[9.0534087,40.5553238],[9.0538338,40.5551524],[9.0548848,40.5549087],[9.0553573,40.5549355],[9.0557352,40.5548632],[9.0560422,40.554755],[9.0562546,40.5545477],[9.0560653,40.5541334],[9.0549075,40.5537826],[9.0544584,40.5533774],[9.0541748,40.5532424],[9.0538204,40.5531975],[9.0529819,40.55327],[9.0521196,40.5530992],[9.0519894,40.5527659],[9.0531701,40.5523059],[9.0545992,40.5522602],[9.0551306,40.5521248],[9.0554137,40.5517013],[9.0556965,40.5509984],[9.0554836,40.5505841],[9.0550348,40.5505123],[9.054184,40.5500532],[9.0537349,40.5496571],[9.0537346,40.5492697],[9.0540531,40.5488112],[9.0540172,40.5481975],[9.053828,40.5479183],[9.0536035,40.5477382],[9.0532846,40.5476753],[9.0517493,40.5477211],[9.0512887,40.5476492],[9.0509342,40.5474421],[9.0508513,40.5471449],[9.0511814,40.5463069],[9.0511278,40.5456926],[9.0507318,40.5452441],[9.050401,40.5451361],[9.0493617,40.5450375],[9.0489955,40.5448845],[9.048771,40.5446503],[9.0497743,40.5440193],[9.0527378,40.5431621],[9.0538476,40.5429274],[9.0544143,40.5427019],[9.0550515,40.542062],[9.056066,40.5407732],[9.0575889,40.5403761],[9.0625718,40.539914],[9.0643187,40.5392104],[9.0647436,40.5389399],[9.064719,40.5379399],[9.0650121,40.5357145],[9.0660037,40.5354707],[9.0662514,40.5352454],[9.0664635,40.5347588],[9.0668281,40.5332991],[9.0670403,40.5330467],[9.0675952,40.5329834],[9.0689998,40.5325051],[9.0688458,40.5320367],[9.0688691,40.5317214],[9.0694828,40.5314778],[9.07038,40.531315],[9.0707106,40.5313239],[9.0711949,40.5314947],[9.071455,40.5318549],[9.0714081,40.5321252],[9.0715383,40.5324044],[9.0719757,40.5329447],[9.0722711,40.5331337],[9.0727198,40.5331965],[9.0730029,40.532863],[9.0729784,40.5321242],[9.0731314,40.5316377],[9.0737801,40.5310427],[9.07365,40.5307725],[9.0726228,40.5307731],[9.0720913,40.5306113],[9.0718668,40.5304313],[9.0715711,40.530008],[9.0715236,40.5297468],[9.0717005,40.5294854],[9.0725858,40.5293768],[9.073093,40.528917],[9.0738605,40.5289075],[9.0750178,40.529141],[9.0755254,40.5291226],[9.0770039,40.5288424],[9.0774735,40.5290583],[9.0792686,40.5294895],[9.0804847,40.5295607],[9.0809831,40.5297693],[9.0813476,40.5303349],[9.0816548,40.5305329],[9.0821863,40.5307037],[9.0838271,40.5304052],[9.0844529,40.5304408],[9.0859294,40.5309352],[9.0875236,40.5311502],[9.0878191,40.5313572],[9.0898391,40.5320943],[9.0902287,40.5321211],[9.0927667,40.5316866],[9.0940538,40.5317667],[9.0947856,40.5316129],[9.0973643,40.5308281],[9.0978477,40.5308927],[9.1059751,40.5293149],[9.110012,40.5287256],[9.1118066,40.5286968],[9.1143092,40.5285052],[9.1164104,40.5282689],[9.1187945,40.527807],[9.1225479,40.5272445],[9.1254045,40.5269352],[9.1278482,40.5268424],[9.1306695,40.526623],[9.1348357,40.5259336],[9.1362995,40.5258688],[9.1367364,40.5259223],[9.1379077,40.5271281],[9.1396809,40.528198],[9.1405807,40.5293861],[9.1422486,40.5308886],[9.14323,40.53159],[9.1454989,40.5324521],[9.1464918,40.5329643],[9.148087,40.5335208],[9.1513357,40.5342644],[9.1520797,40.5343084],[9.1544666,40.53508],[9.1550521,40.5348901],[9.1552685,40.5346195],[9.1552903,40.5338357],[9.1549458,40.5329443],[9.1535227,40.5302345],[9.1529407,40.5286767],[9.1522414,40.5275065],[9.1518967,40.5264529],[9.1511173,40.5263999],[9.1510808,40.5259044],[9.1509858,40.5256613],[9.1523075,40.5254164],[9.151876,40.5225251],[9.1518509,40.5218765],[9.1513186,40.5213997],[9.1512588,40.5210664],[9.1513632,40.5202285],[9.1513606,40.5190663],[9.1512168,40.5181476],[9.1514601,40.5160662],[9.1521999,40.5143626],[9.1549638,40.5151337],[9.1555062,40.5148717],[9.1561306,40.5143483],[9.1563306,40.5140598],[9.1570241,40.5128156],[9.1573053,40.5119233],[9.1585426,40.5110388],[9.1657269,40.5141818],[9.1688226,40.5153935],[9.1696971,40.5158067],[9.1703469,40.5160219],[9.1729571,40.5165766],[9.1774582,40.5179391],[9.1792897,40.518603],[9.1805773,40.5189433],[9.1826457,40.519886],[9.19134,40.5234512],[9.1907815,40.5247917],[9.1904878,40.5253057],[9.1891353,40.5271367],[9.1883594,40.5283452],[9.1890449,40.5285783],[9.1897433,40.5292168],[9.1895671,40.5295504],[9.189014,40.5301999],[9.1888974,40.5307316],[9.1879657,40.5310935],[9.1878383,40.5319676],[9.1876267,40.5323193],[9.1876867,40.5326615],[9.1881484,40.5330842],[9.1881963,40.5333273],[9.1881855,40.5336967],[9.1879286,40.5347241],[9.1880484,40.5353456],[9.1883458,40.5361379],[9.188726,40.5364949],[9.1891027,40.53656],[9.1894576,40.5367847],[9.1890802,40.5369565],[9.1877112,40.5371929],[9.1872866,40.5373828],[9.1868748,40.537924],[9.1865701,40.5387533],[9.1864326,40.540276],[9.1864223,40.5407986],[9.1865657,40.5414019],[9.1860355,40.5418532],[9.1854827,40.5426559],[9.1854009,40.5429804],[9.1856029,40.5434215],[9.1866436,40.5439423],[9.1859485,40.544547],[9.1852998,40.5448363],[9.1848049,40.5452606],[9.1848772,40.5457739],[9.1852913,40.5460616],[9.1856942,40.5465384],[9.18662,40.5482125],[9.186739,40.5485457],[9.1864817,40.549447],[9.1865532,40.5496991],[9.1877957,40.5505349],[9.1880207,40.5507508],[9.18814,40.55121],[9.1881068,40.5519939],[9.1878241,40.5522736],[9.1873656,40.5530311],[9.1867243,40.5548417],[9.1866873,40.5554556],[9.1868807,40.5570228],[9.1873101,40.5585266],[9.1879019,40.558967],[9.1889192,40.5594789],[9.1894045,40.5598655],[9.1904828,40.5610439],[9.1905204,40.5618095],[9.1902985,40.5627198],[9.190347,40.5631431],[9.1907148,40.5637281],[9.1908341,40.5641423],[9.1908352,40.5645027],[9.1907059,40.5647371],[9.1903051,40.5650261],[9.1898581,40.5657115],[9.1896707,40.5662793],[9.1897546,40.5666936],[9.190252,40.5671342],[9.1907487,40.5673406],[9.1921487,40.5686609],[9.1918872,40.5688702],[9.1912734,40.5690694],[9.1906251,40.569557],[9.1903213,40.5707646],[9.1903355,40.5715934],[9.1908454,40.5722773],[9.1918147,40.5724648],[9.1921935,40.5727165],[9.1922297,40.5729686],[9.1906845,40.5738361],[9.1903663,40.5741159],[9.1901197,40.5746478],[9.1896959,40.575216],[9.1892352,40.5752258],[9.1891651,40.5754962],[9.1894502,40.5760543],[9.1894982,40.5763064],[9.188956,40.5767668],[9.1887325,40.5771455],[9.1886626,40.577497],[9.1887461,40.5777671],[9.1891138,40.578262],[9.1888787,40.5786948],[9.1893998,40.5791263],[9.1896617,40.5798376],[9.1910503,40.5820155],[9.1915258,40.5829876],[9.1922229,40.584027],[9.1940288,40.5863798],[9.1960816,40.5893132],[9.1903145,40.5933858],[9.1899981,40.5943322],[9.1898821,40.5950801],[9.1896752,40.5971435],[9.1889217,40.6023788],[9.1889229,40.6028112],[9.189042,40.6031354],[9.1905181,40.6068085],[9.1915173,40.609023],[9.1938154,40.6148118],[9.1938999,40.6154063],[9.1939031,40.6164963],[9.1944098,40.6200269],[9.1945809,40.6219455],[9.194833,40.6232603],[9.194896,40.6245845],[9.1948416,40.6262062],[9.1936849,40.6269198],[9.1919505,40.6282109],[9.1888946,40.6305312],[9.1874907,40.6316956],[9.1822747,40.6355597],[9.1813664,40.636399],[9.1811931,40.6378857],[9.1800732,40.6435989],[9.1798617,40.6441128],[9.1787311,40.6459253],[9.1776492,40.6482782],[9.1769772,40.649099],[9.1765931,40.6514329],[9.175888,40.657686],[9.1756539,40.6586232],[9.1753426,40.6617227],[9.1739579,40.6615176],[9.1724547,40.6611865],[9.1665137,40.6602403],[9.1648448,40.6598554],[9.1522061,40.6578458],[9.1442219,40.6581353],[9.1334459,40.6583915],[9.1331971,40.6582116],[9.1328172,40.6574913],[9.1328874,40.6571039],[9.1331349,40.6566622],[9.1332167,40.6561486],[9.133133,40.6556982],[9.133155,40.6548964],[9.1332488,40.6544639],[9.1337322,40.6536616],[9.1334583,40.652743],[9.1340819,40.6511117],[9.1338328,40.6507246],[9.1330157,40.6502571],[9.1323533,40.6502218],[9.1313125,40.6502771],[9.1300112,40.6501434],[9.1256708,40.6503734],[9.1251855,40.6501848],[9.1245214,40.6492846],[9.1241425,40.6490778],[9.1229946,40.6487007],[9.1216564,40.6477922],[9.1215022,40.6475762],[9.1212645,40.6469008],[9.1210748,40.6466668],[9.1210977,40.6462794],[9.1204825,40.6461449],[9.119111,40.6464166],[9.1181057,40.6463996],[9.1145584,40.6469437],[9.1134358,40.6475123],[9.1115326,40.6481358],[9.1110717,40.6483975],[9.1104225,40.6491909],[9.1090754,40.6499759],[9.1085198,40.6501386],[9.1073961,40.6501306],[9.1067221,40.6502303],[9.1056941,40.650934],[9.1052094,40.6510605],[9.1024538,40.6512972],[9.1023231,40.650937],[9.1022984,40.6502344],[9.1018608,40.6502708],[9.0963742,40.6513295],[9.0924254,40.652684],[9.0884525,40.6537502],[9.0856021,40.6539685],[9.084136,40.6544921],[9.0835452,40.6550421],[9.0830605,40.6552586],[9.0827418,40.6557633],[9.0820206,40.6561152],[9.07904,40.6563785],[9.0783301,40.6562349],[9.0775135,40.6558931],[9.0769959,40.6558484],[9.0765199,40.6559478],[9.0760707,40.6561463],[9.0760949,40.6566778],[9.0758353,40.6572455],[9.0752206,40.6575522],[9.073896,40.6578233],[9.073636,40.6580577],[9.0734707,40.6583461],[9.0732225,40.6585354],[9.0724535,40.6584549],[9.0721106,40.6585632],[9.0717089,40.6590859],[9.0714489,40.6592663],[9.0703014,40.659321],[9.0699117,40.6599248],[9.0701374,40.6607805],[9.069558,40.6610782],[9.0691924,40.6621504],[9.0689803,40.6630064],[9.0689698,40.6642676],[9.0688169,40.6651595],[9.0691843,40.6657809],[9.0692913,40.6662673],[9.0692209,40.6668529],[9.0690439,40.6672674],[9.0694937,40.6675464],[9.0696123,40.6678076],[9.0696364,40.6681679],[9.0694118,40.6684023],[9.068525,40.6689704],[9.0681235,40.6696913],[9.067686,40.6698988],[9.0663017,40.6698996],[9.0660652,40.6700709],[9.0653911,40.6702965],[9.0643499,40.6702881],[9.063794,40.6705046],[9.0632031,40.6711986],[9.0629074,40.6713789],[9.0617719,40.6717128],[9.0616776,40.6720462],[9.0611808,40.6722717],[9.0595601,40.6725698],[9.0592528,40.6728492],[9.0590165,40.6732818],[9.0587682,40.6734531],[9.0581412,40.6736246],[9.054674,40.6731758],[9.054295,40.6726265],[9.0544246,40.6719508],[9.0547673,40.6715092],[9.0543057,40.6712121],[9.0523057,40.6706995],[9.0520334,40.6704114],[9.0522222,40.6697897],[9.052494,40.6693752],[9.0529315,40.6690507],[9.0528839,40.6687714],[9.0525879,40.6684112],[9.0520195,40.6678709],[9.0514751,40.667637],[9.0511466,40.6673713],[9.0502445,40.6673717],[9.0488596,40.6664129],[9.0486227,40.6661067],[9.0485515,40.6656923],[9.0507973,40.6630789],[9.0511045,40.6625022],[9.0512341,40.6618084],[9.0512448,40.6604031],[9.0511728,40.6590788],[9.0509833,40.6587456],[9.05064,40.6584935],[9.0505329,40.6576467],[9.0499409,40.6568993],[9.0488985,40.6549628],[9.0486024,40.6543143],[9.0485429,40.653882],[9.0491562,40.6514313],[9.0534557,40.6439252],[9.0547664,40.6414381],[9.0552975,40.6400776],[9.0555691,40.639618],[9.0560062,40.6391223],[9.0561469,40.6376628],[9.0560281,40.6370143],[9.0560276,40.6364197],[9.0564523,40.6351402],[9.0567122,40.6348698],[9.0567707,40.6341581],[9.0561185,40.6319153],[9.0559521,40.6309334],[9.0559631,40.6299154],[9.0558438,40.6287083],[9.0559259,40.6278254],[9.0557601,40.6275912],[9.0553697,40.6273212],[9.0547665,40.6270512],[9.0544588,40.626745],[9.0542694,40.6265109],[9.0540561,40.6259435],[9.0537602,40.6255022],[9.0534408,40.6252591],[9.0530975,40.6247367],[9.0527185,40.6239081],[9.052186,40.6233678],[9.0512872,40.6230619],[9.0508375,40.6225396],[9.0501869,40.6221255],[9.0495485,40.6220987],[9.0490579,40.6222465],[9.0485433,40.6218559],[9.0481289,40.6210183],[9.0481046,40.6200183],[9.0477475,40.61871],[9.0495576,40.6183781],[9.0505742,40.6182966],[9.0511652,40.6181162],[9.0518979,40.6178005],[9.0523706,40.617485],[9.0531148,40.6167279],[9.0533272,40.6162324],[9.0533266,40.6155297],[9.0531489,40.6150343],[9.0526283,40.6144129],[9.0524269,40.6139536],[9.0524738,40.613413],[9.0538202,40.6118629],[9.0542569,40.6109978],[9.0542204,40.6097727],[9.0539837,40.6093313],[9.0531086,40.6089804],[9.0525293,40.6088636],[9.0517729,40.608945],[9.0512527,40.6088821],[9.0505314,40.6085581],[9.0500704,40.6085133],[9.0485338,40.6086401],[9.0480255,40.6085953],[9.0476353,40.6084963],[9.0474224,40.6083072],[9.0474104,40.608037],[9.0475039,40.6065235],[9.047953,40.6064332],[9.0480359,40.6067124],[9.0483789,40.6070006],[9.04871,40.6070815],[9.0497147,40.607045],[9.0502819,40.6069097],[9.0511799,40.6063597],[9.0520186,40.6057197],[9.0527512,40.6053951],[9.0533184,40.6052507],[9.053909,40.6047369],[9.0546535,40.6044573],[9.0553977,40.6039164],[9.0557165,40.6036009],[9.0559172,40.6032585],[9.0560232,40.602826],[9.056046,40.6018441],[9.0561876,40.6014746],[9.056943,40.6002941],[9.0571198,40.5996904],[9.0570485,40.5993301],[9.0567527,40.5989339],[9.0563743,40.5986368],[9.0552628,40.5980788],[9.055038,40.5977365],[9.0548247,40.597025],[9.0545644,40.5966918],[9.0544814,40.5962954],[9.0549184,40.5959799],[9.0554973,40.5957003],[9.0565041,40.5948907],[9.0555034,40.5941902],[9.0559212,40.5938984],[9.0558263,40.5934029],[9.0554715,40.5930968],[9.054301,40.5925388],[9.0540862,40.5920859],[9.0541228,40.5913227],[9.05457,40.5890793],[9.0553147,40.5892501],[9.0556928,40.5892139],[9.0562715,40.5888353],[9.0568272,40.5891683],[9.0570756,40.5894835],[9.0575247,40.5894743],[9.0576426,40.589213],[9.0555966,40.587205],[9.0552653,40.5867007],[9.0548863,40.5856919],[9.0547089,40.5854847],[9.0546378,40.5851785],[9.0548972,40.5845297],[9.0548969,40.5842144],[9.0539275,40.5835302],[9.0528747,40.5821613],[9.0527918,40.5818551],[9.0528622,40.5812875],[9.0530864,40.580891],[9.0535351,40.5804674],[9.0539839,40.580269],[9.0542908,40.5798544],[9.0543374,40.5790706],[9.0545378,40.578485],[9.054833,40.5782146],[9.0555179,40.5777908],[9.0557421,40.5774033],[9.0556942,40.5766917],[9.0558948,40.5763853],[9.0558945,40.5760249],[9.0547601,40.5758453],[9.0539922,40.5758456],[9.0540509,40.5754312],[9.0538735,40.575134],[9.0534481,40.5750892],[9.0531169,40.5746389],[9.0533056,40.5741793],[9.0536714,40.5736476],[9.0538245,40.573026],[9.0535281,40.5716477],[9.053575,40.5712063],[9.0531607,40.5702786],[9.052936,40.5699453],[9.0522269,40.5695673],[9.0496866,40.5691901],[9.0494626,40.5697667],[9.048884,40.5700913],[9.0482816,40.5703077],[9.0482702,40.5708663],[9.0478931,40.5712396],[9.046971,40.5712812],[9.0463568,40.5715517]]]},"properties":{"type":"boundary","gemeente":"Patada/Pattada"}}]}