{"type":"FeatureCollection","metadata":{"gemeente":"Pegognaga","slug":"pegognaga","generated_at":"2026-09-26T14:27:44.006541Z","total_points":16,"providers":["PosteItaliane","DPD","InPost","GLS","DHL","Amazon","FedEx"],"bounds":[10.80381426,44.98334587,10.86279328,44.998503]},"features":[{"type":"Feature","geometry":{"type":"Point","coordinates":[10.80381426,44.98345012]},"properties":{"type":"pakketpunt","locatieNaam":"Polesine","straatNaam":"Strada Mantovana","straatNr":"2","vervoerder":"PosteItaliane","puntType":"postkantoor","bezettingsgraad":50,"latitude":44.98345012,"longitude":10.80381426,"canPickup":true,"canDropoff":true,"openingstijden":{"za":"08:20 - 12:45","zo":"gesloten","ma":"gesloten","di":"08:20 - 13:45","wo":"gesloten","do":"08:20 - 13:45","vr":"gesloten"}}},{"type":"Feature","geometry":{"type":"Point","coordinates":[10.86279328,44.998503]},"properties":{"type":"pakketpunt","locatieNaam":"Pegognaga","straatNaam":"Via Enrico Fermi","straatNr":"2/a","vervoerder":"PosteItaliane","puntType":"postkantoor","bezettingsgraad":50,"latitude":44.998503,"longitude":10.86279328,"canPickup":true,"canDropoff":true,"openingstijden":{"za":"08:20 - 12:35","zo":"gesloten","ma":"08:20 - 13:35","di":"08:20 - 13:35","wo":"08:20 - 13:35","do":"08:20 - 13:35","vr":"08:20 - 13:35"}}},{"type":"Feature","geometry":{"type":"Point","coordinates":[10.85807953,44.99643562]},"properties":{"type":"pakketpunt","locatieNaam":"Tabaccheria N. 2","straatNaam":"Via Guglielmo Marconi","straatNr":"3","vervoerder":"PosteItaliane","puntType":"servicepunt","bezettingsgraad":50,"latitude":44.99643562,"longitude":10.85807953,"canPickup":true,"canDropoff":true,"openingstijden":{"za":"07:00 - 12:30, 15:00 - 19:30","zo":"gesloten","ma":"07:00 - 12:30, 15:00 - 19:30","di":"07:00 - 12:30, 15:00 - 19:30","wo":"07:00 - 12:30, 15:00 - 19:30","do":"07:00 - 12:30, 15:00 - 19:30","vr":"07:00 - 12:30, 15:00 - 19:30"}}},{"type":"Feature","geometry":{"type":"Point","coordinates":[10.80418152,44.98334587]},"properties":{"type":"pakketpunt","locatieNaam":"Tabaccheria N. 4","straatNaam":"Strada Mantovana","straatNr":"5","vervoerder":"PosteItaliane","puntType":"servicepunt","bezettingsgraad":50,"latitude":44.98334587,"longitude":10.80418152,"canPickup":true,"canDropoff":true,"openingstijden":{"za":"06:30 - 22:30","zo":"06:30 - 13:00, 15:00 - 22:30","ma":"06:30 - 14:00","di":"06:30 - 22:30","wo":"06:30 - 22:30","do":"06:30 - 22:30","vr":"06:30 - 22:30"}}},{"type":"Feature","geometry":{"type":"Point","coordinates":[10.8576021,44.99742191]},"properties":{"type":"pakketpunt","locatieNaam":"Stazione Di Servizio Tamoil","straatNaam":"Via Guglielmo Marconi","straatNr":"4","vervoerder":"PosteItaliane","puntType":"automaat","bezettingsgraad":50,"latitude":44.99742191,"longitude":10.8576021,"canPickup":true,"canDropoff":true,"openingstijden":{"za":"00:01 - 23:59","zo":"00:01 - 23:59","ma":"00:01 - 23:59","di":"00:01 - 23:59","wo":"00:01 - 23:59","do":"00:01 - 23:59","vr":"00:01 - 23:59"}}},{"type":"Feature","geometry":{"type":"Point","coordinates":[10.85777214,44.99591683]},"properties":{"type":"pakketpunt","locatieNaam":"Bar Masella","straatNaam":"P.ZZA G. MATTEOTTI","straatNr":"20","vervoerder":"DPD","puntType":"pickup_point","bezettingsgraad":50,"latitude":44.99591683,"longitude":10.85777214,"canPickup":true,"canDropoff":true,"openingstijden":{"ma":"06:00 - 13:00, 16:30 - 23:45","di":"06:00 - 14:00","wo":"06:00 - 13:00, 16:30 - 23:45","do":"06:00 - 13:00, 16:30 - 23:45","vr":"06:00 - 13:00, 16:30 - 23:45","za":"06:00 - 13:00, 16:30 - 23:45","zo":"06:00 - 13:00, 16:30 - 23:45"}}},{"type":"Feature","geometry":{"type":"Point","coordinates":[10.85768,44.99744]},"properties":{"type":"pakketpunt","locatieNaam":"InPost Locker 24/7","straatNaam":"Via Marconi","straatNr":"4","vervoerder":"InPost","puntType":"automaat","bezettingsgraad":50,"latitude":44.99744,"longitude":10.85768,"canPickup":true,"canDropoff":true,"openingstijden":null}},{"type":"Feature","geometry":{"type":"Point","coordinates":[10.8577486,44.9959799]},"properties":{"type":"pakketpunt","locatieNaam":"Bar Masella","straatNaam":"Piazza Giacomo Matteotti","straatNr":"20","vervoerder":"GLS","puntType":"parcel_shop","bezettingsgraad":50,"latitude":44.9959799,"longitude":10.8577486,"canPickup":true,"canDropoff":true,"openingstijden":"za: 06:00 - 23:59; zo: 07:30 - 23:59"}},{"type":"Feature","geometry":{"type":"Point","coordinates":[10.804182,44.983346]},"properties":{"type":"pakketpunt","locatieNaam":"TABACCHERIA N. 4","straatNaam":"STRADA MANTOVANA 5","straatNr":"","vervoerder":"DHL","puntType":"parcelShop","bezettingsgraad":50,"latitude":44.983346,"longitude":10.804182,"canPickup":true,"canDropoff":true,"openingstijden":{"ma":"06:30 - 14:00","di":"06:30 - 22:30","wo":"06:30 - 22:30","do":"06:30 - 22:30","vr":"06:30 - 22:30","za":"06:30 - 22:30","zo":"06:30 - 13:00, 15:00 - 22:30"}}},{"type":"Feature","geometry":{"type":"Point","coordinates":[10.857602,44.997422]},"properties":{"type":"pakketpunt","locatieNaam":"STAZIONE DI SERVIZIO TAMOIL","straatNaam":"VIA GUGLIELMO MARCONI 4","straatNr":"","vervoerder":"DHL","puntType":"packStation","bezettingsgraad":50,"latitude":44.997422,"longitude":10.857602,"canPickup":true,"canDropoff":true,"openingstijden":{"ma":"00:01 - 23:59","di":"00:01 - 23:59","wo":"00:01 - 23:59","do":"00:01 - 23:59","vr":"00:01 - 23:59","za":"00:01 - 23:59","zo":"00:01 - 23:59"}}},{"type":"Feature","geometry":{"type":"Point","coordinates":[10.85808,44.996436]},"properties":{"type":"pakketpunt","locatieNaam":"TABACCHERIA N. 2","straatNaam":"VIA GUGLIELMO MARCONI 3","straatNr":"","vervoerder":"DHL","puntType":"parcelShop","bezettingsgraad":50,"latitude":44.996436,"longitude":10.85808,"canPickup":true,"canDropoff":true,"openingstijden":{"ma":"07:00 - 12:30, 15:00 - 19:30","di":"07:00 - 12:30, 15:00 - 19:30","wo":"07:00 - 12:30, 15:00 - 19:30","do":"07:00 - 12:30, 15:00 - 19:30","vr":"07:00 - 12:30, 15:00 - 19:30","za":"07:00 - 12:30, 15:00 - 19:30","zo":"gesloten"}}},{"type":"Feature","geometry":{"type":"Point","coordinates":[10.85812,44.995328]},"properties":{"type":"pakketpunt","locatieNaam":"TONER E CARTUCCE","straatNaam":"Matteotti, 16","straatNr":"","vervoerder":"DHL","puntType":"parcelShop","bezettingsgraad":50,"latitude":44.995328,"longitude":10.85812,"canPickup":false,"canDropoff":true,"openingstijden":{"ma":"07:45 - 19:30","di":"07:45 - 19:30","wo":"07:45 - 19:30","do":"07:45 - 19:30","vr":"07:45 - 19:30","za":"07:45 - 19:30","zo":"gesloten"}}},{"type":"Feature","geometry":{"type":"Point","coordinates":[10.862793,44.998503]},"properties":{"type":"pakketpunt","locatieNaam":"Ufficio Postale PEGOGNAGA","straatNaam":"VIA ENRICO FERMI 2-A","straatNr":"","vervoerder":"DHL","puntType":"postOffice","bezettingsgraad":50,"latitude":44.998503,"longitude":10.862793,"canPickup":true,"canDropoff":true,"openingstijden":{"ma":"08:20 - 13:35","di":"08:20 - 13:35","wo":"08:20 - 13:35","do":"08:20 - 13:35","vr":"08:20 - 13:35","za":"08:20 - 12:35","zo":"gesloten"}}},{"type":"Feature","geometry":{"type":"Point","coordinates":[10.8627,44.9985]},"properties":{"type":"pakketpunt","locatieNaam":"Ufficio Postale PEGOGNAGA","straatNaam":"VIA ENRICO FERMI 2-A","straatNr":"","vervoerder":"Amazon","puntType":"3p","bezettingsgraad":50,"latitude":44.9985,"longitude":10.8627,"canPickup":true,"canDropoff":false,"openingstijden":null}},{"type":"Feature","geometry":{"type":"Point","coordinates":[10.8578629,44.9958028]},"properties":{"type":"pakketpunt","locatieNaam":"Amazon Counter (fermopoint)","straatNaam":"Bar Masella","straatNr":"","vervoerder":"Amazon","puntType":"helix","bezettingsgraad":50,"latitude":44.9958028,"longitude":10.8578629,"canPickup":true,"canDropoff":false,"openingstijden":null}},{"type":"Feature","geometry":{"type":"Point","coordinates":[10.857906981407721,44.99591243655797]},"properties":{"type":"pakketpunt","locatieNaam":"FedEx OnSite","straatNaam":"Piazza Giacomo Matteotti, 20","straatNr":"","vervoerder":"FedEx","puntType":"servicepunt","bezettingsgraad":50,"latitude":44.99591243655797,"longitude":10.857906981407721,"canPickup":true,"canDropoff":true,"openingstijden":{"ma":"06:00 - 23:59","di":"06:00 - 14:00","wo":"06:00 - 23:59","do":"06:00 - 23:59","vr":"06:00 - 23:59","za":"06:00 - 23:59","zo":"07:30 - 23:59"}}},{"type":"Feature","geometry":{"type":"Polygon","coordinates":[[[10.7957596,44.9812129],[10.7973579,44.9812659],[10.7977562,44.9811386],[10.7985884,44.9805677],[10.8001537,44.9792705],[10.8003893,44.9789653],[10.8008848,44.9787304],[10.8008118,44.9785875],[10.8009412,44.9781466],[10.8018075,44.9765474],[10.8022753,44.975298],[10.8029975,44.9740099],[10.8032454,44.9737246],[10.8037529,44.9733882],[10.8039341,44.973137],[10.8042571,44.9713856],[10.8043578,44.9711202],[10.8048058,44.9705062],[10.8053323,44.969409],[10.8057032,44.968162],[10.8060293,44.9675027],[10.8086978,44.9683416],[10.808821,44.9682992],[10.8097387,44.9672841],[10.8140942,44.9688103],[10.8141601,44.9689948],[10.813297,44.9702415],[10.8134143,44.9704288],[10.815795,44.9712245],[10.8173831,44.9715377],[10.8176008,44.9714434],[10.8180269,44.9707089],[10.8207002,44.9721325],[10.8209816,44.9721782],[10.8220387,44.9718814],[10.8225178,44.9716553],[10.8232947,44.971693],[10.8265994,44.9759106],[10.8278843,44.9756964],[10.82858,44.9754855],[10.8302573,44.9746165],[10.8336671,44.9780168],[10.8350364,44.9776262],[10.8342247,44.9762125],[10.8375442,44.9751013],[10.8377164,44.9745827],[10.843308,44.9747184],[10.8517695,44.9721747],[10.8527229,44.9718272],[10.854213,44.9709767],[10.8550584,44.9705872],[10.8559705,44.9702981],[10.8571566,44.9700969],[10.8568339,44.9719287],[10.8578199,44.9755025],[10.8590855,44.9774681],[10.8636199,44.9761122],[10.8658379,44.9779324],[10.8689455,44.9823409],[10.8693415,44.9827554],[10.8703204,44.9834465],[10.8735135,44.9853241],[10.8757535,44.9827015],[10.8773657,44.9809498],[10.8780028,44.9806146],[10.8786616,44.9772713],[10.8847921,44.9757361],[10.8849396,44.9783687],[10.8851873,44.9789832],[10.8855267,44.9785802],[10.8877717,44.9783965],[10.8878855,44.9782845],[10.8876966,44.9776025],[10.8876599,44.9770013],[10.8871016,44.9757546],[10.8869415,44.9745828],[10.8868401,44.9724074],[10.88686,44.9706129],[10.8905392,44.9701944],[10.8919847,44.9703039],[10.8934408,44.9700109],[10.8936444,44.9700491],[10.8937231,44.969889],[10.8959135,44.9689456],[10.8972862,44.9662137],[10.8993915,44.967098],[10.8992985,44.9677187],[10.9022075,44.9677273],[10.9074935,44.9692211],[10.9082757,44.9685015],[10.910255,44.9702193],[10.9105074,44.9708026],[10.9088879,44.972821],[10.9135652,44.9749649],[10.9157737,44.9733275],[10.9167571,44.9738424],[10.9177068,44.9734982],[10.9177093,44.9748517],[10.9176081,44.9758565],[10.9197363,44.9764914],[10.9203795,44.9751854],[10.9213098,44.9754478],[10.9206147,44.9766339],[10.9205607,44.9770151],[10.9207271,44.9787805],[10.923881,44.9800758],[10.9237467,44.9802932],[10.9233299,44.9806355],[10.9217783,44.981491],[10.9213731,44.9818991],[10.9209457,44.982628],[10.920828,44.9842193],[10.9207728,44.9842577],[10.920967,44.9849331],[10.9211069,44.985926],[10.920944,44.9862731],[10.9194952,44.9874556],[10.9189952,44.9879954],[10.9188762,44.9891574],[10.9191048,44.9898646],[10.9190963,44.9902903],[10.9185135,44.991943],[10.9174413,44.9934908],[10.9162242,44.9947987],[10.9159937,44.9951742],[10.9156977,44.9961321],[10.9149182,44.9975408],[10.9146461,44.9978094],[10.9119886,44.9996584],[10.9115846,45.0000692],[10.9111448,45.0007768],[10.9106196,45.001973],[10.9100769,45.0022383],[10.9096609,45.0023039],[10.9094444,45.0025414],[10.9089865,45.0034878],[10.9091729,45.0051528],[10.9094445,45.0062055],[10.9099472,45.0072042],[10.9098397,45.0098909],[10.9099085,45.0107503],[10.9100608,45.011446],[10.9098644,45.0123602],[10.9093442,45.0135307],[10.9091023,45.0137283],[10.9088355,45.0143571],[10.908822,45.0146768],[10.9090103,45.0154121],[10.9089496,45.0158178],[10.9071343,45.0179424],[10.9057597,45.0188925],[10.9050425,45.0195198],[10.90346,45.0206566],[10.9018798,45.0223309],[10.9014257,45.0229803],[10.9010078,45.0237946],[10.9008526,45.0239667],[10.9001819,45.0242526],[10.8998923,45.0245157],[10.8998648,45.0246553],[10.8994152,45.0247624],[10.8973296,45.0258249],[10.8953532,45.0270221],[10.8931783,45.0285921],[10.8908931,45.030007],[10.889266,45.0305445],[10.888722,45.0305953],[10.8876504,45.0309685],[10.8859916,45.0313248],[10.88381,45.0316511],[10.88255,45.0316815],[10.8823247,45.0319257],[10.8823611,45.0324513],[10.8809104,45.0325074],[10.8806431,45.0302022],[10.8807227,45.0259033],[10.8801845,45.0251155],[10.8797194,45.0246736],[10.87886,45.0243339],[10.8778318,45.0241639],[10.8754435,45.0240417],[10.8753586,45.0239305],[10.8749405,45.0238877],[10.871602,45.0245395],[10.870671,45.0248684],[10.8699364,45.0250068],[10.8663385,45.0262142],[10.8649952,45.0267507],[10.8639202,45.0269252],[10.8617959,45.0274596],[10.8589937,45.028624],[10.8556794,45.0301843],[10.8547744,45.0307105],[10.8540309,45.0309056],[10.8536985,45.0311154],[10.851634,45.0319635],[10.8467408,45.0331638],[10.8453461,45.0333334],[10.8434617,45.033389],[10.842139,45.0332618],[10.8394432,45.0327756],[10.8383932,45.032432],[10.8376368,45.0319167],[10.8367876,45.0312419],[10.8356036,45.0298423],[10.8350289,45.028177],[10.83516,45.0268012],[10.8357226,45.0255369],[10.8362897,45.02358],[10.8370669,45.0225199],[10.838568,45.0216095],[10.8393932,45.0212664],[10.8406237,45.0214695],[10.8424695,45.0213061],[10.8436945,45.0213952],[10.8450369,45.0211716],[10.8458895,45.0208938],[10.8464225,45.0201699],[10.8469643,45.0196459],[10.846949,45.0192008],[10.8466517,45.0186517],[10.8429086,45.0166178],[10.8416871,45.015573],[10.8398447,45.0117117],[10.8384075,45.0103685],[10.8372287,45.0097515],[10.8362552,45.0093753],[10.8345743,45.0090008],[10.8331998,45.0090204],[10.8324838,45.0093695],[10.8320519,45.0099054],[10.8338407,45.0165073],[10.8335904,45.0169633],[10.8329313,45.0174243],[10.8317267,45.0175969],[10.8307873,45.0176374],[10.8292612,45.0170773],[10.8249001,45.0150379],[10.8229842,45.0145238],[10.8199822,45.0146071],[10.8167531,45.0155253],[10.8164157,45.0149746],[10.8162325,45.0138243],[10.8161319,45.0117321],[10.8160266,45.0111177],[10.8161368,45.0085883],[10.8183833,45.0048926],[10.8189715,45.0037848],[10.8198625,45.0025052],[10.8182528,45.0025861],[10.8164966,45.0025818],[10.8158656,45.0025047],[10.8147936,45.0021596],[10.8140526,45.0021621],[10.8123526,45.0016831],[10.8115939,45.0014474],[10.8115385,45.0011374],[10.8106325,45.0009175],[10.8102333,45.0004583],[10.8075352,44.9981438],[10.8071159,44.9976245],[10.8050194,44.9938792],[10.8040598,44.9928113],[10.8031768,44.9916766],[10.8029019,44.9915379],[10.8025461,44.9911464],[10.8021538,44.9905941],[10.8018317,44.9898498],[10.8016427,44.9890294],[10.8016697,44.9887699],[10.8014837,44.9877836],[10.8019558,44.9860451],[10.8022743,44.985232],[10.8001379,44.9847919],[10.7991687,44.9849012],[10.7987947,44.9848296],[10.7979316,44.9844347],[10.797392,44.9838981],[10.7968498,44.9831958],[10.7962836,44.9823525],[10.7957596,44.9812129]]]},"properties":{"type":"boundary","gemeente":"Pegognaga"}}]}