{"type":"FeatureCollection","metadata":{"gemeente":"Perarolo di Cadore","slug":"perarolo-di-cadore","generated_at":"2026-09-26T14:27:44.188646Z","total_points":1,"providers":["PosteItaliane"],"bounds":[12.35516141,46.39792181,12.35516141,46.39792181]},"features":[{"type":"Feature","geometry":{"type":"Point","coordinates":[12.35516141,46.39792181]},"properties":{"type":"pakketpunt","locatieNaam":"Perarolo Di Cadore","straatNaam":"Piazza Roma","straatNr":"4","vervoerder":"PosteItaliane","puntType":"postkantoor","bezettingsgraad":50,"latitude":46.39792181,"longitude":12.35516141,"canPickup":true,"canDropoff":true,"openingstijden":{"za":"08:20 - 12:45","zo":"gesloten","ma":"gesloten","di":"08:20 - 13:45","wo":"gesloten","do":"08:20 - 13:45","vr":"gesloten"}}},{"type":"Feature","geometry":{"type":"Polygon","coordinates":[[[12.3267847,46.3532001],[12.3290162,46.3525914],[12.3304569,46.3520306],[12.3319411,46.3521024],[12.3323528,46.3519378],[12.3329351,46.3519716],[12.3346136,46.3517994],[12.3357966,46.3518017],[12.3374835,46.3521552],[12.3386344,46.3520476],[12.3390024,46.35165],[12.339421,46.3514312],[12.3396894,46.3511614],[12.3398343,46.3505454],[12.3397038,46.3500812],[12.3393886,46.3497979],[12.3389142,46.3495285],[12.3386351,46.3491826],[12.3386139,46.3490526],[12.3370638,46.3474235],[12.3357103,46.3458566],[12.3344067,46.3446313],[12.3322331,46.3428006],[12.3318207,46.3425875],[12.3321007,46.3423362],[12.3323432,46.338881],[12.3328322,46.3367476],[12.3327305,46.3358524],[12.3325065,46.3350271],[12.3322841,46.3347213],[12.3322776,46.3345845],[12.3329063,46.3343987],[12.3330345,46.3342445],[12.3347268,46.3344961],[12.3350294,46.334651],[12.3367355,46.3348312],[12.3375433,46.3346372],[12.3406847,46.3347065],[12.3399584,46.3341795],[12.3391242,46.3337047],[12.3380588,46.3333793],[12.3371292,46.3329661],[12.3355714,46.3300052],[12.3353249,46.32938],[12.3353263,46.3290662],[12.335561,46.3289381],[12.3356895,46.3287057],[12.3361766,46.3285272],[12.3368196,46.3284151],[12.337097,46.3285643],[12.3373416,46.32859],[12.3380755,46.3282931],[12.3456796,46.3286422],[12.3462464,46.3284497],[12.3471767,46.3286405],[12.3477997,46.3285319],[12.3487056,46.3290189],[12.3519004,46.3298909],[12.3522354,46.3300534],[12.3556556,46.3293943],[12.357173,46.3293745],[12.3584206,46.3294761],[12.3592402,46.3294313],[12.3610491,46.3307574],[12.3616304,46.3310076],[12.3627267,46.330969],[12.3662076,46.3290354],[12.368584,46.3275866],[12.3712736,46.3261254],[12.3723073,46.326636],[12.3734676,46.3276922],[12.373762,46.3281094],[12.3740565,46.3283628],[12.3749913,46.3298963],[12.3759349,46.3301609],[12.376742,46.3305071],[12.3772878,46.3305592],[12.3773449,46.3308863],[12.3782393,46.3312578],[12.3786766,46.3312408],[12.3790621,46.3309509],[12.3802627,46.3309478],[12.3814031,46.3306841],[12.382419,46.3301962],[12.3838512,46.3292606],[12.3841316,46.3289376],[12.3852704,46.3288142],[12.3863887,46.3289568],[12.3877259,46.3289793],[12.3909879,46.3299412],[12.3917965,46.3299866],[12.3926931,46.3299047],[12.3928098,46.3297862],[12.3930244,46.32975],[12.3939883,46.3300514],[12.3943124,46.3300607],[12.3949054,46.3302431],[12.3954238,46.3302689],[12.3961378,46.3301786],[12.3967752,46.3298612],[12.3972293,46.3289574],[12.3974566,46.3287612],[12.3976136,46.3288518],[12.3982164,46.3289073],[12.3981631,46.3291707],[12.4006735,46.3293413],[12.4086038,46.3305095],[12.410533,46.3306857],[12.4108376,46.3307502],[12.4111207,46.3309179],[12.4116525,46.3314541],[12.4121253,46.3316549],[12.4128733,46.3328987],[12.4133176,46.3334387],[12.413834,46.3338622],[12.4141822,46.3346794],[12.4141597,46.335949],[12.4143174,46.3360447],[12.4148098,46.3360962],[12.4154168,46.336274],[12.4162059,46.3368218],[12.4163232,46.3370693],[12.4162565,46.3376898],[12.4164155,46.338376],[12.4174735,46.3393964],[12.4181477,46.3395614],[12.4185377,46.3399331],[12.4187062,46.3404178],[12.4195163,46.3407875],[12.4204375,46.3420669],[12.4210023,46.3423474],[12.4208849,46.3428978],[12.4211341,46.3434362],[12.4210711,46.3441548],[12.4206743,46.345341],[12.4208287,46.3455951],[12.4207894,46.3458131],[12.4205859,46.3461598],[12.4205944,46.3464221],[12.4204388,46.3468996],[12.4204729,46.3477672],[12.4199209,46.3482732],[12.4191843,46.3491666],[12.4189709,46.3497234],[12.4191415,46.3521954],[12.4183235,46.3534902],[12.4182475,46.3540444],[12.4181135,46.3543293],[12.417679,46.3547782],[12.4172404,46.3548144],[12.4159506,46.3551421],[12.4146037,46.3551979],[12.4137745,46.3554705],[12.4116631,46.3564623],[12.4115069,46.3569054],[12.4094775,46.3559335],[12.4101009,46.3572841],[12.4100869,46.3581082],[12.4099643,46.358372],[12.4096762,46.3587314],[12.4093489,46.3589861],[12.4087793,46.3603383],[12.4080491,46.3614718],[12.4078481,46.3620492],[12.4075087,46.3626364],[12.4069817,46.3641491],[12.4068254,46.3649189],[12.4063379,46.3656237],[12.4058038,46.3666281],[12.4052788,46.3672549],[12.404077,46.3680375],[12.4035059,46.3685792],[12.4029328,46.3689584],[12.4027408,46.3691565],[12.4024856,46.3699166],[12.4023215,46.3701685],[12.401153,46.3713576],[12.4010058,46.3717523],[12.4012577,46.3719916],[12.4012565,46.3721047],[12.4009562,46.3724023],[12.4006657,46.372988],[12.4000709,46.374598],[12.399778,46.3751442],[12.399414,46.375602],[12.3993522,46.3764497],[12.3987508,46.3774273],[12.3987314,46.3779032],[12.3984344,46.3785196],[12.3984265,46.3791818],[12.3981802,46.3796927],[12.3981487,46.3799747],[12.3973684,46.380575],[12.3966999,46.3808665],[12.3963168,46.3811494],[12.3947803,46.3815516],[12.3938169,46.3820978],[12.3930393,46.3823472],[12.3927478,46.3826558],[12.3920478,46.3827048],[12.3918482,46.3829144],[12.3924539,46.3833208],[12.3932034,46.3834116],[12.3939694,46.383766],[12.3943087,46.3839652],[12.3947179,46.3843662],[12.3964347,46.3844961],[12.396765,46.3846787],[12.3967974,46.3848078],[12.3966886,46.3851619],[12.3967753,46.3856367],[12.3972172,46.3859065],[12.3975993,46.3863986],[12.3977584,46.3871181],[12.3978622,46.3872096],[12.3979911,46.3877037],[12.3979498,46.3879595],[12.3980665,46.3883916],[12.3977868,46.3895471],[12.3972653,46.390366],[12.3969755,46.391229],[12.3967055,46.3917545],[12.3960894,46.3923668],[12.3956686,46.393228],[12.3953955,46.3935721],[12.3951023,46.3942484],[12.3910775,46.3968591],[12.3905122,46.3978964],[12.3902451,46.3986003],[12.3903584,46.3992668],[12.3902212,46.3998098],[12.3896487,46.4003846],[12.3892017,46.4013268],[12.3884444,46.4018975],[12.3867856,46.4043481],[12.3863824,46.404568],[12.3858357,46.4051185],[12.3847938,46.4057331],[12.3840792,46.4065532],[12.3829384,46.4073173],[12.3822333,46.4080709],[12.381714,46.4082944],[12.3801554,46.4087163],[12.3791104,46.4091679],[12.3787964,46.4093946],[12.3784643,46.4099906],[12.3764293,46.409779],[12.375078,46.4098095],[12.3743923,46.4096596],[12.3741273,46.4094642],[12.3737965,46.4089776],[12.3737137,46.4084151],[12.3739096,46.4080454],[12.3749807,46.407255],[12.375103,46.406911],[12.3750365,46.406497],[12.374921,46.4062878],[12.3742936,46.4057532],[12.3738758,46.4055126],[12.3733715,46.4054236],[12.3734341,46.4041122],[12.372899,46.403634],[12.3723513,46.4028419],[12.3720819,46.4026843],[12.3706898,46.4026026],[12.3702679,46.4023148],[12.3701902,46.4019437],[12.3698444,46.4015426],[12.3696513,46.4010709],[12.3698886,46.400818],[12.3678348,46.4008763],[12.3677756,46.4010245],[12.3675924,46.4010441],[12.3675429,46.4012394],[12.3672918,46.4013791],[12.3663029,46.4007418],[12.3661554,46.4007886],[12.3663947,46.4010132],[12.366285,46.4012292],[12.366274,46.4014942],[12.3661803,46.4015253],[12.3659186,46.4013818],[12.3642804,46.4017349],[12.3625661,46.4024142],[12.361851,46.401771],[12.3612462,46.4010466],[12.3605135,46.4005766],[12.359229,46.4001392],[12.3563571,46.3997698],[12.3561135,46.3993658],[12.3556252,46.3989239],[12.3541913,46.399378],[12.3531968,46.3995368],[12.3509435,46.3997045],[12.3499125,46.3999471],[12.3482462,46.4000053],[12.3476626,46.4001591],[12.3464098,46.4002516],[12.3453529,46.4001352],[12.3448875,46.4002567],[12.344429,46.4004919],[12.3436124,46.4010767],[12.3431936,46.401621],[12.3427218,46.4018937],[12.3419191,46.4014282],[12.3417331,46.4010202],[12.3415964,46.4009955],[12.3415259,46.4008612],[12.3411014,46.3998669],[12.3413711,46.3990705],[12.3413891,46.3987705],[12.3415655,46.3984433],[12.3416828,46.3969081],[12.3423361,46.3959148],[12.3427869,46.3957857],[12.3429905,46.395543],[12.3430286,46.3946201],[12.3429609,46.3943451],[12.3421755,46.3948365],[12.3418537,46.3948107],[12.3417284,46.3946683],[12.3408439,46.3942509],[12.3405846,46.3940541],[12.3402125,46.393584],[12.340216,46.3930973],[12.3411702,46.3917866],[12.3405696,46.3914365],[12.3406396,46.3907529],[12.3400092,46.388018],[12.3399447,46.3849971],[12.340282,46.384761],[12.3401209,46.3840211],[12.3406538,46.3837364],[12.3408665,46.3831544],[12.3424755,46.3832877],[12.3424748,46.3832076],[12.3419785,46.3824647],[12.3401654,46.3816989],[12.340268,46.3812804],[12.3393464,46.3801419],[12.3394625,46.379606],[12.3415143,46.3791995],[12.3416766,46.379146],[12.3417958,46.3789307],[12.3415372,46.3787608],[12.3408345,46.3787011],[12.3402283,46.3784612],[12.3386607,46.3781532],[12.3380445,46.3783201],[12.3370313,46.3783417],[12.3368105,46.3782498],[12.3366971,46.3780282],[12.3365571,46.3779391],[12.335462,46.3778274],[12.3350809,46.3776376],[12.3346824,46.3772207],[12.3340006,46.3769514],[12.3336512,46.3766965],[12.3332739,46.3762346],[12.3330601,46.3756137],[12.3329967,46.3751677],[12.3330945,46.3748083],[12.333664,46.3742973],[12.3396142,46.369949],[12.3396996,46.3690668],[12.3393961,46.3685024],[12.3387865,46.3677661],[12.3384124,46.3670639],[12.3380718,46.36666],[12.3372235,46.3653142],[12.3367274,46.3649024],[12.3353789,46.3641051],[12.3352143,46.3632732],[12.3350558,46.3628801],[12.3323529,46.3579326],[12.3312827,46.3567847],[12.3267847,46.3532001]]]},"properties":{"type":"boundary","gemeente":"Perarolo di Cadore"}}]}