{"type":"FeatureCollection","metadata":{"gemeente":"Pernumia","slug":"pernumia","generated_at":"2026-09-26T14:27:44.334080Z","total_points":7,"providers":["PosteItaliane","DHL","Amazon"],"bounds":[11.7853132,45.257,11.788953,45.2604536]},"features":[{"type":"Feature","geometry":{"type":"Point","coordinates":[11.78694186,45.25700297]},"properties":{"type":"pakketpunt","locatieNaam":"Pernumia","straatNaam":"Piazza Ruzzante","straatNr":"3","vervoerder":"PosteItaliane","puntType":"postkantoor","bezettingsgraad":50,"latitude":45.25700297,"longitude":11.78694186,"canPickup":true,"canDropoff":true,"openingstijden":{"za":"08:20 - 12:35","zo":"gesloten","ma":"08:20 - 13:35","di":"08:20 - 13:35","wo":"08:20 - 13:35","do":"08:20 - 13:35","vr":"08:20 - 13:35"}}},{"type":"Feature","geometry":{"type":"Point","coordinates":[11.78895275,45.2584348]},"properties":{"type":"pakketpunt","locatieNaam":"Tabaccheria N. 1","straatNaam":"Via Del Castello","straatNr":"22","vervoerder":"PosteItaliane","puntType":"servicepunt","bezettingsgraad":50,"latitude":45.2584348,"longitude":11.78895275,"canPickup":true,"canDropoff":true,"openingstijden":{"za":"07:00 - 12:50, 16:00 - 19:15","zo":"09:00 - 12:30","ma":"07:00 - 12:50, 16:00 - 19:15","di":"07:00 - 12:50, 16:00 - 19:15","wo":"07:00 - 12:50, 16:00 - 19:15","do":"07:00 - 12:50, 16:00 - 19:15","vr":"07:00 - 12:50, 16:00 - 19:15"}}},{"type":"Feature","geometry":{"type":"Point","coordinates":[11.786942,45.257003]},"properties":{"type":"pakketpunt","locatieNaam":"Ufficio Postale PERNUMIA","straatNaam":"PIAZZA RUZZANTE 3","straatNr":"","vervoerder":"DHL","puntType":"postOffice","bezettingsgraad":50,"latitude":45.257003,"longitude":11.786942,"canPickup":true,"canDropoff":true,"openingstijden":{"ma":"08:20 - 13:35","di":"08:20 - 13:35","wo":"08:20 - 13:35","do":"08:20 - 13:35","vr":"08:20 - 13:35","za":"08:20 - 12:35","zo":"gesloten"}}},{"type":"Feature","geometry":{"type":"Point","coordinates":[11.788953,45.258435]},"properties":{"type":"pakketpunt","locatieNaam":"TABACCHERIA N. 1","straatNaam":"VIA DEL CASTELLO 22","straatNr":"","vervoerder":"DHL","puntType":"parcelShop","bezettingsgraad":50,"latitude":45.258435,"longitude":11.788953,"canPickup":true,"canDropoff":true,"openingstijden":{"ma":"07:00 - 12:50, 16:00 - 19:15","di":"07:00 - 12:50, 16:00 - 19:15","wo":"07:00 - 12:50, 16:00 - 19:15","do":"07:00 - 12:50, 16:00 - 19:15","vr":"07:00 - 12:50, 16:00 - 19:15","za":"07:00 - 12:50, 16:00 - 19:15","zo":"09:00 - 12:30"}}},{"type":"Feature","geometry":{"type":"Point","coordinates":[11.7853132,45.2604536]},"properties":{"type":"pakketpunt","locatieNaam":"Amazon Locker - seta","straatNaam":"Supermercati B2 Pernumia","straatNr":"","vervoerder":"Amazon","puntType":"locker","bezettingsgraad":50,"latitude":45.2604536,"longitude":11.7853132,"canPickup":true,"canDropoff":false,"openingstijden":null}},{"type":"Feature","geometry":{"type":"Point","coordinates":[11.788083,45.257194]},"properties":{"type":"pakketpunt","locatieNaam":"Amazon Counter - EDICOLA","straatNaam":"PIAZZA DON LUCIO FERRAZZI 11","straatNr":"","vervoerder":"Amazon","puntType":"helix","bezettingsgraad":50,"latitude":45.257194,"longitude":11.788083,"canPickup":true,"canDropoff":false,"openingstijden":null}},{"type":"Feature","geometry":{"type":"Point","coordinates":[11.7869,45.257]},"properties":{"type":"pakketpunt","locatieNaam":"Ufficio Postale PERNUMIA","straatNaam":"PIAZZA RUZZANTE 3","straatNr":"","vervoerder":"Amazon","puntType":"3p","bezettingsgraad":50,"latitude":45.257,"longitude":11.7869,"canPickup":true,"canDropoff":false,"openingstijden":null}},{"type":"Feature","geometry":{"type":"Polygon","coordinates":[[[11.7745946,45.2713846],[11.7750669,45.2717387],[11.7748901,45.2718528],[11.7749859,45.2720239],[11.7749196,45.2720472],[11.7752709,45.272339],[11.7751155,45.2724443],[11.7754558,45.2728534],[11.7757188,45.273745],[11.7759398,45.2737424],[11.7761572,45.2743023],[11.7769746,45.2743614],[11.7766876,45.2748544],[11.7777765,45.275164],[11.7774242,45.2759327],[11.7775679,45.2759275],[11.7775545,45.2763677],[11.7782383,45.2764562],[11.7787724,45.2769124],[11.7790302,45.2768036],[11.7793249,45.2772753],[11.7790811,45.2774406],[11.7794804,45.2778544],[11.7803299,45.2783597],[11.7801534,45.2785446],[11.780215,45.2792809],[11.7811617,45.2800797],[11.7807969,45.2802807],[11.7818858,45.2810355],[11.7822114,45.2808802],[11.7828016,45.2808453],[11.7836652,45.2821205],[11.7833342,45.2830263],[11.7837221,45.2830309],[11.7843644,45.2827911],[11.7853847,45.283135],[11.7847191,45.2841353],[11.7845456,45.2846308],[11.7848638,45.2867445],[11.7845875,45.2869244],[11.7845411,45.2871996],[11.7846781,45.287147],[11.7849036,45.2874824],[11.7850253,45.2874232],[11.7853436,45.2879],[11.7858192,45.2878114],[11.786414,45.2875831],[11.7867099,45.2876001],[11.7884535,45.2867888],[11.78903,45.2857183],[11.7906069,45.2836509],[11.7906682,45.2828026],[11.7907476,45.2825835],[11.7915333,45.281672],[11.792979,45.279747],[11.7938614,45.2787547],[11.7946824,45.2782873],[11.7961757,45.2779502],[11.7969072,45.277907],[11.7985811,45.2781796],[11.7992092,45.2781669],[11.8005606,45.2777307],[11.8009576,45.2776741],[11.8016901,45.2777302],[11.8035189,45.2773144],[11.8046506,45.2771689],[11.8063798,45.2764609],[11.8069982,45.2760496],[11.8076605,45.2753765],[11.8080608,45.2751828],[11.8098111,45.2753386],[11.8104859,45.2752729],[11.8113323,45.2750593],[11.8126991,45.274515],[11.8145275,45.2744196],[11.8161065,45.2738381],[11.8185552,45.2731546],[11.8197211,45.2726621],[11.8205833,45.2716162],[11.8209579,45.2714876],[11.8228114,45.271798],[11.8242575,45.2724353],[11.8250317,45.2729701],[11.8254705,45.2731205],[11.8276485,45.273048],[11.8282792,45.2731794],[11.8286066,45.2733461],[11.8290331,45.2730963],[11.8283285,45.2727283],[11.830058,45.2724272],[11.8318004,45.2717146],[11.8319155,45.2715317],[11.831781,45.2709284],[11.8324141,45.27099],[11.8326135,45.2711277],[11.8329073,45.270947],[11.8337977,45.2708277],[11.8340366,45.2693344],[11.8345983,45.2691556],[11.8370415,45.2678471],[11.8365514,45.2668103],[11.8365383,45.2666452],[11.8368382,45.2664846],[11.8374416,45.2664484],[11.8375793,45.2662733],[11.8374329,45.26589],[11.8374854,45.2655646],[11.8384841,45.2654269],[11.8394428,45.2659826],[11.8397168,45.2663273],[11.8402129,45.2672652],[11.8410737,45.2679727],[11.8422894,45.2675141],[11.8427721,45.2674711],[11.8434819,45.2671748],[11.8435414,45.2670212],[11.8445635,45.2667207],[11.8450997,45.2663733],[11.8459063,45.2668264],[11.8463194,45.2665193],[11.8462881,45.266435],[11.8481055,45.2660774],[11.8487193,45.2660785],[11.848522,45.2655507],[11.849779,45.2654879],[11.8494756,45.2643997],[11.8490927,45.2644341],[11.8484408,45.2643137],[11.8471076,45.2643467],[11.8454016,45.263818],[11.8426176,45.263499],[11.8395553,45.2628047],[11.8390239,45.262747],[11.8378712,45.2628323],[11.835347,45.2637613],[11.8344874,45.2635077],[11.8340219,45.2635208],[11.8316133,45.2639719],[11.8293729,45.2641481],[11.8258603,45.2647254],[11.8252067,45.2648927],[11.8238772,45.2655228],[11.8230071,45.2657391],[11.8217461,45.2658509],[11.8188664,45.2657771],[11.8184711,45.2650816],[11.8205085,45.2643615],[11.8201116,45.2631266],[11.8166407,45.2628626],[11.8168155,45.2614773],[11.8156253,45.2613408],[11.8148258,45.2609574],[11.8139843,45.2607411],[11.8141599,45.2595394],[11.8143949,45.2595396],[11.8143988,45.2589408],[11.8156913,45.2587727],[11.8168849,45.2584706],[11.8157206,45.2569878],[11.816394,45.2566926],[11.8151548,45.2553896],[11.8150276,45.2553631],[11.8146172,45.2541329],[11.8147944,45.2540588],[11.814369,45.2535467],[11.813496,45.2527398],[11.8132179,45.2521953],[11.8134717,45.2521365],[11.8133868,45.251527],[11.813534,45.2515117],[11.8129255,45.2500673],[11.8131619,45.2500123],[11.8128071,45.2494041],[11.8119655,45.2496032],[11.811371,45.248441],[11.8108558,45.2485505],[11.8102707,45.2477984],[11.8083686,45.2483446],[11.807989,45.2476494],[11.8088224,45.2473377],[11.8093212,45.2469984],[11.8104753,45.2458701],[11.8116046,45.2444527],[11.8095042,45.2445926],[11.8075048,45.2448315],[11.8063513,45.244554],[11.8049813,45.2445529],[11.8037784,45.2448302],[11.8030044,45.2452479],[11.8019568,45.2454517],[11.8013786,45.2457292],[11.8009721,45.2447055],[11.7995603,45.24489],[11.7995512,45.2447044],[11.798188,45.2445818],[11.7981767,45.2443517],[11.7979159,45.2439642],[11.7977929,45.2433876],[11.7972202,45.2424356],[11.7953149,45.2426235],[11.7911673,45.2427771],[11.7907662,45.2421032],[11.790702,45.2416514],[11.7905221,45.2412025],[11.7903949,45.2409678],[11.7901457,45.2408044],[11.7898513,45.2408034],[11.7889395,45.2410354],[11.7882499,45.2410241],[11.7878449,45.2408491],[11.7870771,45.2402886],[11.7862157,45.2415316],[11.786548,45.2417157],[11.7859862,45.2432698],[11.7847501,45.2452206],[11.7847139,45.2455384],[11.7848302,45.2462686],[11.7850579,45.2469621],[11.785186,45.247121],[11.7850828,45.247143],[11.7837081,45.2465095],[11.7828911,45.2465534],[11.7818712,45.2464667],[11.7812956,45.2488243],[11.7802884,45.2487012],[11.7802047,45.2494191],[11.7803702,45.2495277],[11.7802688,45.2500847],[11.7798174,45.2500592],[11.7797088,45.2502337],[11.7792884,45.2518815],[11.7790826,45.2519167],[11.7787067,45.2523795],[11.7776022,45.2518887],[11.7771038,45.2523407],[11.7761401,45.2536299],[11.7755682,45.2539135],[11.7756198,45.254415],[11.7748382,45.2542095],[11.7744503,45.2552973],[11.774145,45.2556149],[11.7749294,45.2569328],[11.7750788,45.2578937],[11.775393,45.2580968],[11.7756516,45.2584359],[11.7730788,45.2609555],[11.7739085,45.2620837],[11.7755243,45.2633564],[11.7761816,45.26408],[11.7783589,45.2652506],[11.7793951,45.2657189],[11.7801027,45.2653455],[11.7802038,45.2654201],[11.7799603,45.2656373],[11.7798084,45.2659524],[11.7787769,45.2665292],[11.7784973,45.2669124],[11.7786665,45.2675078],[11.7789438,45.2679609],[11.7789297,45.2682983],[11.7786759,45.2685662],[11.7779804,45.2689982],[11.7777366,45.2692646],[11.7745946,45.2713846]]]},"properties":{"type":"boundary","gemeente":"Pernumia"}}]}