{"type":"FeatureCollection","metadata":{"gemeente":"Pertusio","slug":"pertusio","generated_at":"2026-09-26T13:10:24.982902Z","total_points":1,"providers":["PosteItaliane"],"bounds":[7.642287,45.35567255,7.642287,45.35567255]},"features":[{"type":"Feature","geometry":{"type":"Point","coordinates":[7.642287,45.35567255]},"properties":{"type":"pakketpunt","locatieNaam":"Pertusio","straatNaam":"Via San Firmino","straatNr":"17","vervoerder":"PosteItaliane","puntType":"postkantoor","bezettingsgraad":50,"latitude":45.35567255,"longitude":7.642287,"canPickup":true,"canDropoff":true,"openingstijden":{"za":"08:20 - 12:45","zo":"gesloten","ma":"gesloten","di":"08:20 - 13:45","wo":"gesloten","do":"08:20 - 13:45","vr":"gesloten"}}},{"type":"Feature","geometry":{"type":"Polygon","coordinates":[[[7.6244003,45.3480034],[7.6287154,45.3477402],[7.6294412,45.348343],[7.6304065,45.3485437],[7.6307703,45.348809],[7.630445,45.3490662],[7.6301257,45.3490714],[7.6303071,45.3500187],[7.6303448,45.3516304],[7.6310045,45.3523314],[7.6312597,45.3533966],[7.6315054,45.3537956],[7.6317914,45.3541141],[7.6323687,45.354526],[7.6325651,45.3548524],[7.632428,45.3552469],[7.6318893,45.3558795],[7.6318806,45.3562395],[7.6320791,45.3570069],[7.6318906,45.3579408],[7.6315492,45.3583328],[7.6317183,45.359793],[7.6319,45.3602003],[7.6329468,45.361797],[7.632386,45.3622854],[7.6320987,45.3627083],[7.6314514,45.3623912],[7.6312037,45.3620732],[7.6299301,45.3614098],[7.6291371,45.3614633],[7.6284052,45.3616346],[7.6279423,45.361242],[7.6267431,45.3612005],[7.6264958,45.3608645],[7.6263321,45.3607725],[7.6255948,45.3606376],[7.6247327,45.3614374],[7.624726,45.3616983],[7.6244158,45.3619511],[7.6239503,45.361959],[7.6237879,45.3618311],[7.6230243,45.3618579],[7.6220712,45.3621974],[7.6217535,45.3625009],[7.6222777,45.362632],[7.622706,45.3628712],[7.623497,45.3639519],[7.6246375,45.3648387],[7.6251115,45.3653035],[7.6257034,45.3656437],[7.6262235,45.3657849],[7.6268241,45.3657652],[7.6280438,45.3654918],[7.6283797,45.3653338],[7.6299144,45.3641731],[7.6311973,45.3633963],[7.6321066,45.3627126],[7.6329031,45.3625526],[7.6332811,45.3627642],[7.6334905,45.3630817],[7.6337045,45.3632103],[7.6344546,45.3633453],[7.6349003,45.3628646],[7.6350809,45.3627857],[7.6355208,45.3622486],[7.6360474,45.3618881],[7.6360879,45.3617986],[7.6357227,45.3615872],[7.6361757,45.3608005],[7.6379502,45.3608127],[7.6385914,45.3606943],[7.6396466,45.3608869],[7.6410656,45.3608138],[7.6413107,45.3607087],[7.6413786,45.3605385],[7.6422089,45.3599903],[7.6433924,45.3596848],[7.6438087,45.3596987],[7.6440653,45.3599133],[7.6447025,45.3601819],[7.6452752,45.3602922],[7.6461825,45.3607283],[7.6467279,45.3608135],[7.6480157,45.3606397],[7.6494953,45.3601982],[7.6500931,45.3597237],[7.6508136,45.3589581],[7.6508413,45.3583283],[7.6513547,45.3576773],[7.6516286,45.3563573],[7.6518048,45.3559273],[7.6521461,45.3555353],[7.6519257,45.3551366],[7.6519218,45.3547676],[7.6522556,45.3541504],[7.6523413,45.3537643],[7.6523728,45.3535127],[7.6522112,45.3531585],[7.6525223,45.3531499],[7.6525384,45.3529926],[7.6522259,45.3527098],[7.6514653,45.3524848],[7.6513034,45.3523119],[7.6511854,45.3519054],[7.6511791,45.3516353],[7.6515796,45.3503619],[7.6515879,45.3500109],[7.6514176,45.3496578],[7.6514538,45.3492082],[7.6516637,45.3489676],[7.6516671,45.3488237],[7.6516187,45.3487151],[7.6512027,45.3484941],[7.650143,45.3484996],[7.6499584,45.3482094],[7.6498028,45.3472354],[7.6495881,45.3466028],[7.649227,45.3462205],[7.6485999,45.345754],[7.6487973,45.3455042],[7.6488605,45.3449919],[7.6489967,45.3446335],[7.6487639,45.3442257],[7.6478755,45.343477],[7.6477402,45.3432594],[7.6482107,45.3425989],[7.6481238,45.3424088],[7.6475826,45.3419703],[7.6472638,45.3413764],[7.6474099,45.3410862],[7.6471391,45.3406464],[7.6471191,45.3404166],[7.647266,45.3400763],[7.6476169,45.3397609],[7.6472715,45.3396623],[7.6450466,45.3394784],[7.6443543,45.3394927],[7.6410641,45.339107],[7.6405565,45.3392855],[7.6401224,45.3396404],[7.6395448,45.3403266],[7.6392709,45.3407869],[7.6372542,45.3405379],[7.6367089,45.3405764],[7.6356367,45.340028],[7.6346146,45.3398897],[7.6331713,45.3403316],[7.6330098,45.3406942],[7.6324949,45.3411696],[7.6321657,45.3413807],[7.6318139,45.34149],[7.6292449,45.3412881],[7.628378,45.3414578],[7.6279467,45.3418261],[7.6276593,45.3424978],[7.6264772,45.3434962],[7.6262999,45.3440972],[7.6250537,45.3451353],[7.6250383,45.3454952],[7.6254342,45.345815],[7.6254654,45.3461394],[7.625194,45.3466267],[7.6247229,45.3470351],[7.6244003,45.3480034]]]},"properties":{"type":"boundary","gemeente":"Pertusio"}}]}