{"type":"FeatureCollection","metadata":{"gemeente":"Pescina","slug":"pescina","generated_at":"2026-09-26T13:10:25.259573Z","total_points":13,"providers":["PosteItaliane","DHL","Amazon"],"bounds":[13.6441666,41.99088814,13.66459035,42.02913]},"features":[{"type":"Feature","geometry":{"type":"Point","coordinates":[13.65500591,42.02473171]},"properties":{"type":"pakketpunt","locatieNaam":"Pescina","straatNaam":"Via Serafino Rinaldi","straatNr":"39","vervoerder":"PosteItaliane","puntType":"postkantoor","bezettingsgraad":50,"latitude":42.02473171,"longitude":13.65500591,"canPickup":true,"canDropoff":true,"openingstijden":{"za":"08:20 - 12:35","zo":"gesloten","ma":"08:20 - 13:35","di":"08:20 - 13:35","wo":"08:20 - 13:35","do":"08:20 - 13:35","vr":"08:20 - 13:35"}}},{"type":"Feature","geometry":{"type":"Point","coordinates":[13.64510489,41.99088814]},"properties":{"type":"pakketpunt","locatieNaam":"Venere","straatNaam":"Via Monte Carmelo","straatNr":"1","vervoerder":"PosteItaliane","puntType":"postkantoor","bezettingsgraad":50,"latitude":41.99088814,"longitude":13.64510489,"canPickup":true,"canDropoff":true,"openingstijden":{"za":"gesloten","zo":"gesloten","ma":"08:20 - 13:45","di":"gesloten","wo":"08:20 - 13:45","do":"gesloten","vr":"08:20 - 13:45"}}},{"type":"Feature","geometry":{"type":"Point","coordinates":[13.6601432,42.02593464]},"properties":{"type":"pakketpunt","locatieNaam":"Tabaccheria N. 2","straatNaam":"Piazza Mazzarino","straatNr":"17","vervoerder":"PosteItaliane","puntType":"servicepunt","bezettingsgraad":50,"latitude":42.02593464,"longitude":13.6601432,"canPickup":true,"canDropoff":true,"openingstijden":{"za":"07:30 - 13:00, 15:30 - 20:00","zo":"gesloten","ma":"07:30 - 13:00, 15:30 - 20:00","di":"07:30 - 13:00, 15:30 - 20:00","wo":"07:30 - 13:00, 15:30 - 20:00","do":"07:30 - 13:00, 15:30 - 20:00","vr":"07:30 - 13:00, 15:30 - 20:00"}}},{"type":"Feature","geometry":{"type":"Point","coordinates":[13.65131574,42.02479963]},"properties":{"type":"pakketpunt","locatieNaam":"Tabaccheria N. 1","straatNaam":"Via Serafino Rinaldi","straatNr":"132","vervoerder":"PosteItaliane","puntType":"servicepunt","bezettingsgraad":50,"latitude":42.02479963,"longitude":13.65131574,"canPickup":true,"canDropoff":true,"openingstijden":{"za":"06:30 - 21:00","zo":"06:30 - 21:00","ma":"06:30 - 21:00","di":"06:30 - 21:00","wo":"06:30 - 21:00","do":"06:30 - 21:00","vr":"06:30 - 21:00"}}},{"type":"Feature","geometry":{"type":"Point","coordinates":[13.66459035,42.0291299]},"properties":{"type":"pakketpunt","locatieNaam":"Tabaccheria N. 7","straatNaam":"Via Romolo Tranquilli","straatNr":"58","vervoerder":"PosteItaliane","puntType":"servicepunt","bezettingsgraad":50,"latitude":42.0291299,"longitude":13.66459035,"canPickup":true,"canDropoff":true,"openingstijden":{"za":"05:30 - 22:00","zo":"06:30 - 22:00","ma":"05:30 - 13:00","di":"05:30 - 22:00","wo":"05:30 - 22:00","do":"05:30 - 22:00","vr":"05:30 - 22:00"}}},{"type":"Feature","geometry":{"type":"Point","coordinates":[13.651316,42.0248]},"properties":{"type":"pakketpunt","locatieNaam":"TABACCHERIA n. 1","straatNaam":"VIA SERAFINO RINALDI 132","straatNr":"","vervoerder":"DHL","puntType":"parcelShop","bezettingsgraad":50,"latitude":42.0248,"longitude":13.651316,"canPickup":true,"canDropoff":true,"openingstijden":{"ma":"06:30 - 21:00","di":"06:30 - 21:00","wo":"06:30 - 21:00","do":"06:30 - 21:00","vr":"06:30 - 21:00","za":"06:30 - 21:00","zo":"06:30 - 21:00"}}},{"type":"Feature","geometry":{"type":"Point","coordinates":[13.655006,42.024732]},"properties":{"type":"pakketpunt","locatieNaam":"Ufficio Postale PESCINA","straatNaam":"VIA SERAFINO RINALDI 39","straatNr":"","vervoerder":"DHL","puntType":"postOffice","bezettingsgraad":50,"latitude":42.024732,"longitude":13.655006,"canPickup":true,"canDropoff":true,"openingstijden":{"ma":"08:20 - 13:35","di":"08:20 - 13:35","wo":"08:20 - 13:35","do":"08:20 - 13:35","vr":"08:20 - 13:35","za":"08:20 - 12:35","zo":"gesloten"}}},{"type":"Feature","geometry":{"type":"Point","coordinates":[13.660143,42.025935]},"properties":{"type":"pakketpunt","locatieNaam":"TABACCHERIA N. 2","straatNaam":"PIAZZA MAZZARINO 17","straatNr":"","vervoerder":"DHL","puntType":"parcelShop","bezettingsgraad":50,"latitude":42.025935,"longitude":13.660143,"canPickup":true,"canDropoff":true,"openingstijden":{"ma":"07:30 - 13:00, 15:30 - 20:00","di":"07:30 - 13:00, 15:30 - 20:00","wo":"07:30 - 13:00, 15:30 - 20:00","do":"07:30 - 13:00, 15:30 - 20:00","vr":"07:30 - 13:00, 15:30 - 20:00","za":"07:30 - 13:00, 15:30 - 20:00","zo":"gesloten"}}},{"type":"Feature","geometry":{"type":"Point","coordinates":[13.66459,42.02913]},"properties":{"type":"pakketpunt","locatieNaam":"TABACCHERIA N. 7","straatNaam":"VIA ROMOLO TRANQUILLI 58","straatNr":"","vervoerder":"DHL","puntType":"parcelShop","bezettingsgraad":50,"latitude":42.02913,"longitude":13.66459,"canPickup":true,"canDropoff":true,"openingstijden":{"ma":"05:30 - 13:00","di":"05:30 - 22:00","wo":"05:30 - 22:00","do":"05:30 - 22:00","vr":"05:30 - 22:00","za":"05:30 - 22:00","zo":"06:30 - 22:00"}}},{"type":"Feature","geometry":{"type":"Point","coordinates":[13.645944,42.01969]},"properties":{"type":"pakketpunt","locatieNaam":"Amazon Locker - melita","straatNaam":"Todis Pescina","straatNr":"","vervoerder":"Amazon","puntType":"locker","bezettingsgraad":50,"latitude":42.01969,"longitude":13.645944,"canPickup":true,"canDropoff":false,"openingstijden":null}},{"type":"Feature","geometry":{"type":"Point","coordinates":[13.6441666,41.992419]},"properties":{"type":"pakketpunt","locatieNaam":"Amazon Counter","straatNaam":"Marsicauto (fermopoint)","straatNr":"","vervoerder":"Amazon","puntType":"helix","bezettingsgraad":50,"latitude":41.992419,"longitude":13.6441666,"canPickup":true,"canDropoff":false,"openingstijden":null}},{"type":"Feature","geometry":{"type":"Point","coordinates":[13.655,42.0247]},"properties":{"type":"pakketpunt","locatieNaam":"Ufficio Postale PESCINA","straatNaam":"VIA SERAFINO RINALDI 39","straatNr":"","vervoerder":"Amazon","puntType":"3p","bezettingsgraad":50,"latitude":42.0247,"longitude":13.655,"canPickup":true,"canDropoff":false,"openingstijden":null}},{"type":"Feature","geometry":{"type":"Point","coordinates":[13.651123,42.024921]},"properties":{"type":"pakketpunt","locatieNaam":"Amazon Counter - PRIMAEDICOLA","straatNaam":"COCOCCIA ROBERTA","straatNr":"","vervoerder":"Amazon","puntType":"helix","bezettingsgraad":50,"latitude":42.024921,"longitude":13.651123,"canPickup":true,"canDropoff":false,"openingstijden":null}},{"type":"Feature","geometry":{"type":"Polygon","coordinates":[[[13.5524718,41.9870949],[13.5532269,41.9862096],[13.558417,41.9820147],[13.5593715,41.9814095],[13.5641191,41.9790821],[13.569405,41.9775164],[13.5730298,41.9767235],[13.575223,41.9764019],[13.5780376,41.9761949],[13.5905697,41.976067],[13.5900907,41.9797731],[13.5901119,41.9826353],[13.6033159,41.9827177],[13.6086182,41.9786736],[13.6087671,41.9745666],[13.6510875,41.9748503],[13.6623965,41.9748092],[13.6649886,41.97266],[13.6678194,41.9769877],[13.6780345,41.982027],[13.6785503,41.98215],[13.6796646,41.9825861],[13.6768335,41.990422],[13.6706319,41.9990166],[13.6739846,42.0008831],[13.6761401,42.0023662],[13.677326,42.0051718],[13.6837494,42.0075337],[13.6884661,42.0153221],[13.688497,42.0214925],[13.6871239,42.0259873],[13.6868887,42.0263391],[13.6863854,42.0307802],[13.6875684,42.0349453],[13.690927,42.0396335],[13.6938299,42.0430078],[13.6985668,42.048292],[13.703034,42.0530334],[13.7086841,42.0582706],[13.7068229,42.0648114],[13.7058166,42.0650193],[13.6914903,42.0634689],[13.6905051,42.0625189],[13.6784938,42.056591],[13.6775829,42.0562591],[13.6602423,42.0504432],[13.6505271,42.0476105],[13.6497463,42.0479708],[13.648739,42.0481738],[13.6474321,42.0482763],[13.64619,42.0482007],[13.6441554,42.0477971],[13.6416951,42.047001],[13.63925,42.0460917],[13.6379812,42.0455354],[13.6359493,42.0444832],[13.6335871,42.0431248],[13.6314133,42.0402236],[13.6290898,42.0364867],[13.6252233,42.0334197],[13.6300395,42.0311228],[13.6374193,42.0226448],[13.6379444,42.0218042],[13.6385499,42.0205958],[13.6411142,42.0136179],[13.6420171,42.0024307],[13.627273,41.9968825],[13.6066416,41.9965976],[13.5871833,41.9960731],[13.5780372,41.9920634],[13.5620462,41.99181],[13.5549985,41.9915187],[13.5524718,41.9870949]]]},"properties":{"type":"boundary","gemeente":"Pescina"}}]}