{"type":"FeatureCollection","metadata":{"gemeente":"Pescate","slug":"pescate","generated_at":"2026-09-26T14:27:44.575778Z","total_points":13,"providers":["PosteItaliane","DPD","GLS","DHL","Amazon","FedEx"],"bounds":[9.39391,45.830737,9.396819,45.8433923]},"features":[{"type":"Feature","geometry":{"type":"Point","coordinates":[9.39553607,45.83073704]},"properties":{"type":"pakketpunt","locatieNaam":"Pescate","straatNaam":"Via Roma","straatNr":"98","vervoerder":"PosteItaliane","puntType":"postkantoor","bezettingsgraad":50,"latitude":45.83073704,"longitude":9.39553607,"canPickup":true,"canDropoff":true,"openingstijden":{"za":"08:20 - 12:45","zo":"gesloten","ma":"08:20 - 13:45","di":"08:20 - 13:45","wo":"08:20 - 13:45","do":"gesloten","vr":"08:20 - 13:45"}}},{"type":"Feature","geometry":{"type":"Point","coordinates":[9.39495808,45.83674858]},"properties":{"type":"pakketpunt","locatieNaam":"Tabaccheria N. 3","straatNaam":"Via Roma","straatNr":"57","vervoerder":"PosteItaliane","puntType":"servicepunt","bezettingsgraad":50,"latitude":45.83674858,"longitude":9.39495808,"canPickup":true,"canDropoff":true,"openingstijden":{"za":"06:00 - 20:00","zo":"07:00 - 20:00","ma":"06:00 - 20:00","di":"06:00 - 20:00","wo":"06:00 - 20:00","do":"06:00 - 20:00","vr":"06:00 - 20:00"}}},{"type":"Feature","geometry":{"type":"Point","coordinates":[9.39643838,45.84195572]},"properties":{"type":"pakketpunt","locatieNaam":"Supermercato Conad","straatNaam":"Via Roma","straatNr":"7","vervoerder":"PosteItaliane","puntType":"automaat","bezettingsgraad":50,"latitude":45.84195572,"longitude":9.39643838,"canPickup":true,"canDropoff":true,"openingstijden":{"za":"09:00 - 20:00","zo":"09:00 - 20:00","ma":"09:00 - 20:00","di":"09:00 - 20:00","wo":"09:00 - 20:00","do":"09:00 - 20:00","vr":"09:00 - 20:00"}}},{"type":"Feature","geometry":{"type":"Point","coordinates":[9.3951033,45.8321316]},"properties":{"type":"pakketpunt","locatieNaam":"Cartoleria Da Terry","straatNaam":"VIA ROMA","straatNr":"78","vervoerder":"DPD","puntType":"pickup_point","bezettingsgraad":50,"latitude":45.8321316,"longitude":9.3951033,"canPickup":true,"canDropoff":true,"openingstijden":{"ma":"15:00 - 19:00","di":"08:30 - 12:30, 15:00 - 19:00","wo":"08:30 - 12:30, 15:00 - 19:00","do":"08:30 - 12:30, 15:00 - 19:00","vr":"08:30 - 12:30, 15:00 - 19:00","za":"08:30 - 12:30, 15:00 - 19:00","zo":"gesloten"}}},{"type":"Feature","geometry":{"type":"Point","coordinates":[9.3943463,45.8330868]},"properties":{"type":"pakketpunt","locatieNaam":"Cartoleria Da Terry","straatNaam":"Via Roma","straatNr":"78","vervoerder":"GLS","puntType":"parcel_shop","bezettingsgraad":50,"latitude":45.8330868,"longitude":9.3943463,"canPickup":true,"canDropoff":true,"openingstijden":"za: 08:30 - 12:30, 15:00 - 19:00; zo: 08:30 - 13:00, 15:00 - 19:00"}},{"type":"Feature","geometry":{"type":"Point","coordinates":[9.396438,45.841956]},"properties":{"type":"pakketpunt","locatieNaam":"SUPERMERCATO CONAD","straatNaam":"VIA ROMA 7","straatNr":"","vervoerder":"DHL","puntType":"packStation","bezettingsgraad":50,"latitude":45.841956,"longitude":9.396438,"canPickup":true,"canDropoff":true,"openingstijden":{"ma":"09:00 - 20:00","di":"09:00 - 20:00","wo":"09:00 - 20:00","do":"09:00 - 20:00","vr":"09:00 - 20:00","za":"09:00 - 20:00","zo":"09:00 - 20:00"}}},{"type":"Feature","geometry":{"type":"Point","coordinates":[9.394958,45.836749]},"properties":{"type":"pakketpunt","locatieNaam":"TABACCHERIA N. 3","straatNaam":"VIA ROMA 57","straatNr":"","vervoerder":"DHL","puntType":"parcelShop","bezettingsgraad":50,"latitude":45.836749,"longitude":9.394958,"canPickup":true,"canDropoff":true,"openingstijden":{"ma":"06:00 - 20:00","di":"06:00 - 20:00","wo":"06:00 - 20:00","do":"06:00 - 20:00","vr":"06:00 - 20:00","za":"06:00 - 20:00","zo":"07:00 - 20:00"}}},{"type":"Feature","geometry":{"type":"Point","coordinates":[9.39391,45.836121]},"properties":{"type":"pakketpunt","locatieNaam":"TRANSERVICE SRL","straatNaam":"Via Roma, 42","straatNr":"","vervoerder":"DHL","puntType":"parcelShop","bezettingsgraad":50,"latitude":45.836121,"longitude":9.39391,"canPickup":false,"canDropoff":true,"openingstijden":{"ma":"09:00 - 16:00","di":"09:00 - 16:00","wo":"09:00 - 16:00","do":"09:00 - 16:00","vr":"09:00 - 16:00","za":"gesloten","zo":"gesloten"}}},{"type":"Feature","geometry":{"type":"Point","coordinates":[9.395536,45.830737]},"properties":{"type":"pakketpunt","locatieNaam":"Ufficio Postale PESCATE","straatNaam":"VIA ROMA 98","straatNr":"","vervoerder":"DHL","puntType":"postOffice","bezettingsgraad":50,"latitude":45.830737,"longitude":9.395536,"canPickup":true,"canDropoff":true,"openingstijden":{"ma":"08:20 - 13:45","di":"08:20 - 13:45","wo":"08:20 - 13:45","do":"08:20 - 13:45","vr":"08:20 - 13:45","za":"08:20 - 12:45","zo":"gesloten"}}},{"type":"Feature","geometry":{"type":"Point","coordinates":[9.396819,45.84198]},"properties":{"type":"pakketpunt","locatieNaam":"Amazon Locker - andreatta","straatNaam":"Centro Commerciale Pescate","straatNr":"","vervoerder":"Amazon","puntType":"locker","bezettingsgraad":50,"latitude":45.84198,"longitude":9.396819,"canPickup":true,"canDropoff":false,"openingstijden":null}},{"type":"Feature","geometry":{"type":"Point","coordinates":[9.394248054923192,45.83307412018804]},"properties":{"type":"pakketpunt","locatieNaam":"FedEx OnSite","straatNaam":"Via Roma, 78","straatNr":"","vervoerder":"FedEx","puntType":"servicepunt","bezettingsgraad":50,"latitude":45.83307412018804,"longitude":9.394248054923192,"canPickup":true,"canDropoff":true,"openingstijden":{"ma":"15:00 - 19:00","di":"08:30 - 12:30, 15:00 - 19:00","wo":"08:30 - 12:30, 15:00 - 19:00","do":"08:30 - 12:30, 15:00 - 19:00","vr":"08:30 - 12:30, 15:00 - 19:00","za":"08:30 - 12:30, 15:00 - 19:00","zo":"08:30 - 13:00, 15:00 - 19:00"}}},{"type":"Feature","geometry":{"type":"Point","coordinates":[9.394200263364922,45.83314689314013]},"properties":{"type":"pakketpunt","locatieNaam":"FedEx OnSite","straatNaam":"VIA ROMA 78","straatNr":"","vervoerder":"FedEx","puntType":"servicepunt","bezettingsgraad":50,"latitude":45.83314689314013,"longitude":9.394200263364922,"canPickup":true,"canDropoff":true,"openingstijden":{"ma":"08:30 - 12:30, 15:00 - 19:00","di":"08:30 - 12:30, 15:00 - 19:00","wo":"08:30 - 12:30, 15:00 - 19:00","do":"08:30 - 12:30, 15:00 - 19:00","vr":"08:30 - 12:30, 15:00 - 19:00","za":"08:30 - 12:30, 15:00 - 19:00","zo":"gesloten"}}},{"type":"Feature","geometry":{"type":"Point","coordinates":[9.3968169,45.8433923]},"properties":{"type":"pakketpunt","locatieNaam":"FedEx OnSite","straatNaam":"Via Ettore Monte, 16","straatNr":"","vervoerder":"FedEx","puntType":"servicepunt","bezettingsgraad":50,"latitude":45.8433923,"longitude":9.3968169,"canPickup":true,"canDropoff":true,"openingstijden":{"ma":"gesloten","di":"09:30 - 12:30, 16:00 - 19:00","wo":"09:30 - 12:30, 16:00 - 19:00","do":"09:30 - 12:30, 16:00 - 19:00","vr":"09:30 - 12:30, 16:00 - 19:00","za":"09:30 - 12:30","zo":"gesloten"}}},{"type":"Feature","geometry":{"type":"Polygon","coordinates":[[[9.3933225,45.8202498],[9.3914857,45.8203686],[9.3913338,45.8204997],[9.3911499,45.8208873],[9.3911758,45.8211392],[9.3914134,45.8215254],[9.3897373,45.8211487],[9.3890501,45.8215875],[9.3894073,45.8215953],[9.388385,45.8222109],[9.3882814,45.8221212],[9.3866373,45.8231078],[9.3869015,45.8236155],[9.3876222,45.8245086],[9.3877709,45.8250661],[9.3893853,45.8251101],[9.38956,45.8259285],[9.3899028,45.8263909],[9.3899084,45.8269624],[9.3901894,45.827344],[9.3903505,45.8278249],[9.3903656,45.8288329],[9.3900397,45.8291716],[9.3900792,45.8302065],[9.3902361,45.830323],[9.391498,45.8298911],[9.3917175,45.8299804],[9.3918635,45.8301419],[9.3920832,45.8307172],[9.391833,45.8322166],[9.39138,45.8332487],[9.3910758,45.8346133],[9.3909549,45.8352843],[9.3912632,45.8360933],[9.3912266,45.8363769],[9.390712,45.8375937],[9.3906547,45.8381474],[9.3909204,45.8399826],[9.391309,45.8412279],[9.391859,45.842531],[9.3921411,45.8430386],[9.3936085,45.843623],[9.3939502,45.8436849],[9.3958491,45.8433723],[9.3964099,45.8434648],[9.3968845,45.8434137],[9.3973954,45.8437359],[9.3971475,45.8442417],[9.3979519,45.8433704],[9.3982237,45.8428983],[9.3989857,45.840012],[9.4004662,45.8373073],[9.4005448,45.8365237],[9.4005694,45.83407],[9.4013935,45.827925],[9.4041034,45.8235088],[9.3960317,45.821082],[9.3946007,45.8205649],[9.3933225,45.8202498]]]},"properties":{"type":"boundary","gemeente":"Pescate"}}]}