{"type":"FeatureCollection","metadata":{"gemeente":"Petina","slug":"petina","generated_at":"2026-09-26T14:27:44.778280Z","total_points":6,"providers":["PosteItaliane","GLS","DHL","Amazon","FedEx"],"bounds":[15.3705,40.5308,15.3754,40.5329618]},"features":[{"type":"Feature","geometry":{"type":"Point","coordinates":[15.37051829,40.53082756]},"properties":{"type":"pakketpunt","locatieNaam":"Petina","straatNaam":"Via Franco Mansi","straatNr":"5","vervoerder":"PosteItaliane","puntType":"postkantoor","bezettingsgraad":50,"latitude":40.53082756,"longitude":15.37051829,"canPickup":true,"canDropoff":true,"openingstijden":{"za":"08:20 - 12:45","zo":"gesloten","ma":"08:20 - 13:45","di":"08:20 - 13:45","wo":"08:20 - 13:45","do":"08:20 - 13:45","vr":"08:20 - 13:45"}}},{"type":"Feature","geometry":{"type":"Point","coordinates":[15.3751278,40.5329618]},"properties":{"type":"pakketpunt","locatieNaam":"BAR CENTRALE","straatNaam":"P.Zza Umberto 1°","straatNr":"37","vervoerder":"GLS","puntType":"parcel_shop","bezettingsgraad":50,"latitude":40.5329618,"longitude":15.3751278,"canPickup":true,"canDropoff":true,"openingstijden":"za: 06:00 - 12:00, 15:00 - 20:00; zo: 06:00 - 12:00, 15:00 - 20:00"}},{"type":"Feature","geometry":{"type":"Point","coordinates":[15.370518,40.530828]},"properties":{"type":"pakketpunt","locatieNaam":"Ufficio Postale PETINA","straatNaam":"VIA MANSI 5","straatNr":"","vervoerder":"DHL","puntType":"postOffice","bezettingsgraad":50,"latitude":40.530828,"longitude":15.370518,"canPickup":true,"canDropoff":true,"openingstijden":{"ma":"08:20 - 13:45","di":"08:20 - 13:45","wo":"08:20 - 13:45","do":"08:20 - 13:45","vr":"08:20 - 13:45","za":"08:20 - 12:45","zo":"gesloten"}}},{"type":"Feature","geometry":{"type":"Point","coordinates":[15.3754,40.53282]},"properties":{"type":"pakketpunt","locatieNaam":"Amazon Counter - ALIMENTARI E DIVERSI","straatNaam":"CORSO UMBERTO I, 25","straatNr":"","vervoerder":"Amazon","puntType":"helix","bezettingsgraad":50,"latitude":40.53282,"longitude":15.3754,"canPickup":true,"canDropoff":false,"openingstijden":null}},{"type":"Feature","geometry":{"type":"Point","coordinates":[15.3705,40.5308]},"properties":{"type":"pakketpunt","locatieNaam":"Ufficio Postale PETINA","straatNaam":"VIA MANSI 5","straatNr":"","vervoerder":"Amazon","puntType":"3p","bezettingsgraad":50,"latitude":40.5308,"longitude":15.3705,"canPickup":true,"canDropoff":false,"openingstijden":null}},{"type":"Feature","geometry":{"type":"Point","coordinates":[15.375095227047971,40.53294296434472]},"properties":{"type":"pakketpunt","locatieNaam":"FedEx OnSite","straatNaam":"P.zza Umberto 1°, 37","straatNr":"","vervoerder":"FedEx","puntType":"servicepunt","bezettingsgraad":50,"latitude":40.53294296434472,"longitude":15.375095227047971,"canPickup":true,"canDropoff":true,"openingstijden":{"ma":"06:00 - 12:00, 15:00 - 20:00","di":"06:00 - 12:00, 15:00 - 20:00","wo":"06:00 - 12:00, 15:00 - 20:00","do":"06:00 - 12:00, 15:00 - 20:00","vr":"06:00 - 12:00, 15:00 - 20:00","za":"06:00 - 12:00, 15:00 - 20:00","zo":"06:00 - 12:00, 15:00 - 20:00"}}},{"type":"Feature","geometry":{"type":"Polygon","coordinates":[[[15.3286244,40.5329147],[15.3302973,40.5320577],[15.331003,40.5315598],[15.3315073,40.5310685],[15.331836,40.5304744],[15.3321714,40.5290699],[15.3323716,40.5288789],[15.3329953,40.5285521],[15.335186,40.5277069],[15.3361777,40.5274273],[15.3385232,40.5265826],[15.3408357,40.5259827],[15.341775,40.5255169],[15.3437623,40.5239808],[15.3470061,40.5210344],[15.3501365,40.5190796],[15.3512878,40.5181386],[15.3522644,40.5171891],[15.3531922,40.5164944],[15.354038,40.5155972],[15.3544825,40.5149291],[15.3577362,40.5120178],[15.358489,40.5114227],[15.3592448,40.5111154],[15.360007,40.5105963],[15.3606182,40.510063],[15.3619515,40.5079507],[15.3626093,40.5073653],[15.3633389,40.506938],[15.3645515,40.5064209],[15.3654227,40.5057697],[15.3664236,40.5052823],[15.3722527,40.5030472],[15.3750457,40.5024515],[15.3766109,40.5015907],[15.3791333,40.5009244],[15.3793349,40.5006882],[15.3800859,40.5003181],[15.3831486,40.4999601],[15.3836161,40.4997871],[15.3870129,40.4980771],[15.3879402,40.4976924],[15.3898779,40.4974237],[15.3912611,40.4960992],[15.3917219,40.4958536],[15.3948831,40.4953602],[15.3976883,40.4951261],[15.3985322,40.4948356],[15.4003413,40.4946283],[15.4017484,40.4943134],[15.4080647,40.4936761],[15.4095722,40.4933979],[15.4098596,40.4944664],[15.4102249,40.495039],[15.4105331,40.4957847],[15.4109612,40.4982144],[15.4111604,40.4988847],[15.4115504,40.4995906],[15.4117129,40.5000516],[15.4122048,40.5006969],[15.412297,40.5009776],[15.4129507,40.501808],[15.4128027,40.5025105],[15.4123006,40.503425],[15.4121411,40.5042619],[15.4117604,40.5054086],[15.4118622,40.5063719],[15.4120285,40.5070221],[15.4122994,40.5097426],[15.4127032,40.5105617],[15.4148303,40.5113009],[15.4149602,40.5117582],[15.4147805,40.5124822],[15.4148551,40.5127982],[15.4156503,40.5132264],[15.4158871,40.5134308],[15.416325,40.5138473],[15.4165226,40.5142451],[15.4158643,40.5147602],[15.4145914,40.515245],[15.413557,40.5159495],[15.4131963,40.5168246],[15.4126839,40.5186717],[15.4127667,40.5188448],[15.4132394,40.5186756],[15.4147117,40.5191185],[15.4154352,40.519213],[15.4161419,40.520164],[15.417521,40.5215448],[15.418413,40.522282],[15.4188987,40.5229036],[15.419554,40.5235186],[15.4205096,40.5241559],[15.4238837,40.5269128],[15.4231928,40.5278502],[15.4225936,40.5284363],[15.421166,40.5281424],[15.4208364,40.5284992],[15.4203259,40.5298642],[15.4195134,40.5303866],[15.4189045,40.530902],[15.418649,40.531431],[15.4181468,40.531677],[15.4169684,40.531888],[15.4128235,40.5328624],[15.4122827,40.5334043],[15.4118222,40.5349015],[15.4116865,40.5360566],[15.4115466,40.5365594],[15.410539,40.537763],[15.4056198,40.5425742],[15.4020039,40.5422486],[15.400619,40.5435534],[15.4003264,40.5439252],[15.4002585,40.5442457],[15.400495,40.5445008],[15.4003298,40.5447321],[15.3993647,40.5451275],[15.39756,40.5472921],[15.3975392,40.5477366],[15.3976731,40.5487529],[15.3973869,40.5500873],[15.3973703,40.5506132],[15.3975258,40.5512648],[15.3983001,40.5521688],[15.3986714,40.5534602],[15.3991575,40.5540044],[15.3995453,40.5542839],[15.4001801,40.5552532],[15.4004267,40.555469],[15.4008691,40.555602],[15.4009397,40.556011],[15.4014621,40.5560174],[15.4018894,40.5563453],[15.4019444,40.5568948],[15.4021005,40.5572472],[15.4027889,40.5575327],[15.4030347,40.557944],[15.4031626,40.5584436],[15.4036875,40.559233],[15.4042458,40.5595498],[15.4050218,40.5596702],[15.4060351,40.5592849],[15.4066423,40.5596541],[15.4070628,40.5602469],[15.4077882,40.560758],[15.4091964,40.5612719],[15.4094255,40.5623224],[15.4100184,40.5628081],[15.4100211,40.5631589],[15.4097875,40.5634689],[15.4097661,40.5639921],[15.40917,40.5647228],[15.4087712,40.5653808],[15.4079763,40.565515],[15.4068053,40.5659245],[15.4059281,40.5660691],[15.4050217,40.5660794],[15.4044928,40.565488],[15.4032422,40.565542],[15.4024994,40.5654195],[15.40185,40.5652208],[15.3998168,40.5642857],[15.3982372,40.5642169],[15.3977418,40.5644153],[15.3978894,40.564637],[15.3979611,40.5651668],[15.3965327,40.5662326],[15.3950914,40.5666259],[15.3944727,40.5663101],[15.3939485,40.5658043],[15.3933103,40.5660373],[15.3925693,40.5665794],[15.3910258,40.5671684],[15.3906377,40.5674638],[15.3900645,40.5684902],[15.389677,40.5688357],[15.3891521,40.5698279],[15.3879016,40.5706729],[15.3874204,40.5708691],[15.3858144,40.5707154],[15.3861387,40.5700447],[15.3868701,40.5697701],[15.3882839,40.5689401],[15.3883152,40.5683263],[15.3886894,40.5677565],[15.3900551,40.5667717],[15.3909624,40.5662623],[15.3915721,40.5656029],[15.3925469,40.5647882],[15.3943265,40.5640908],[15.3942169,40.5637009],[15.393749,40.5632926],[15.391845,40.5620506],[15.3913814,40.5615679],[15.3910144,40.5609762],[15.3905967,40.5606799],[15.3900667,40.5607139],[15.388331,40.5611523],[15.3878134,40.561154],[15.3871489,40.5609074],[15.3865201,40.5605013],[15.3859138,40.5597744],[15.3855679,40.5588936],[15.3849943,40.5580299],[15.3840856,40.5559878],[15.3834213,40.5555026],[15.3801421,40.5540915],[15.3793383,40.5540146],[15.3783732,40.5542886],[15.3773554,40.554273],[15.3756343,40.5546924],[15.3741677,40.5544631],[15.3723997,40.5551506],[15.3711723,40.5553266],[15.369884,40.5553664],[15.368612,40.5556708],[15.3675153,40.556213],[15.3639379,40.5564335],[15.3606526,40.5562821],[15.3589146,40.5559597],[15.3581052,40.556864],[15.3575941,40.5562352],[15.3572825,40.5556494],[15.3558126,40.554196],[15.3546067,40.5541636],[15.3530828,40.5543558],[15.3521343,40.554273],[15.3516273,40.5536126],[15.3505735,40.5509167],[15.3500023,40.5499717],[15.3492193,40.5493353],[15.3465449,40.5481328],[15.3456545,40.5473899],[15.3438475,40.5449425],[15.3420183,40.5428517],[15.3412672,40.5417726],[15.3404002,40.5407763],[15.3380887,40.5390406],[15.3371756,40.5382268],[15.3365461,40.5374335],[15.3361409,40.5367672],[15.335832,40.5358707],[15.3309562,40.5339745],[15.3286244,40.5329147]]]},"properties":{"type":"boundary","gemeente":"Petina"}}]}