{"type":"FeatureCollection","metadata":{"gemeente":"Petrella Salto","slug":"petrella-salto","generated_at":"2026-09-26T14:27:44.815175Z","total_points":3,"providers":["PosteItaliane"],"bounds":[13.06437076,42.25018618,13.09611369,42.29453162]},"features":[{"type":"Feature","geometry":{"type":"Point","coordinates":[13.06907163,42.29453162]},"properties":{"type":"pakketpunt","locatieNaam":"Petrella Salto","straatNaam":"Via John Fitzgerald Kennedy","straatNr":"2","vervoerder":"PosteItaliane","puntType":"postkantoor","bezettingsgraad":50,"latitude":42.29453162,"longitude":13.06907163,"canPickup":true,"canDropoff":true,"openingstijden":{"za":"08:20 - 12:45","zo":"gesloten","ma":"08:20 - 13:45","di":"gesloten","wo":"08:20 - 13:45","do":"08:20 - 13:45","vr":"gesloten"}}},{"type":"Feature","geometry":{"type":"Point","coordinates":[13.09611369,42.25018618]},"properties":{"type":"pakketpunt","locatieNaam":"Fiumata","straatNaam":"Viale Del Lago","straatNr":"7","vervoerder":"PosteItaliane","puntType":"postkantoor","bezettingsgraad":50,"latitude":42.25018618,"longitude":13.09611369,"canPickup":true,"canDropoff":true,"openingstijden":{"za":"08:20 - 12:45","zo":"gesloten","ma":"gesloten","di":"08:20 - 13:45","wo":"gesloten","do":"gesloten","vr":"gesloten"}}},{"type":"Feature","geometry":{"type":"Point","coordinates":[13.06437076,42.27274691]},"properties":{"type":"pakketpunt","locatieNaam":"Borgo San Pietro","straatNaam":"Via Giovanni Riccioni","straatNr":"1","vervoerder":"PosteItaliane","puntType":"postkantoor","bezettingsgraad":50,"latitude":42.27274691,"longitude":13.06437076,"canPickup":true,"canDropoff":true,"openingstijden":{"za":"gesloten","zo":"gesloten","ma":"gesloten","di":"08:20 - 13:45","wo":"gesloten","do":"gesloten","vr":"08:20 - 13:45"}}},{"type":"Feature","geometry":{"type":"Polygon","coordinates":[[[12.9720138,42.3382978],[12.9710555,42.3372299],[12.9713988,42.3366906],[12.9719138,42.3363733],[12.9741883,42.3354534],[12.9782009,42.3350251],[12.9790377,42.3348506],[12.9795895,42.3343096],[12.9800463,42.333423],[12.9795527,42.3324554],[12.9798531,42.3317257],[12.9811406,42.3311547],[12.9818594,42.3310991],[12.9849116,42.3315969],[12.985754,42.331456],[12.9868541,42.3310861],[12.9888848,42.3299032],[12.9892516,42.3281882],[12.9911132,42.3270537],[12.9914296,42.3269984],[12.9912402,42.3264064],[12.9907409,42.325784],[12.9909682,42.3250313],[12.9925561,42.3232862],[12.9940152,42.3208905],[12.9937524,42.319875],[12.9944232,42.3193248],[12.9935431,42.3175745],[12.9919553,42.3168606],[12.9923415,42.3156864],[12.9936719,42.3121798],[12.997148,42.3097361],[12.9949536,42.3088061],[12.9945731,42.3066417],[12.9931569,42.3052135],[12.9942512,42.3048485],[12.9968691,42.3050072],[12.9980707,42.3044835],[12.9980278,42.3036741],[12.9950666,42.3020871],[12.9949593,42.3008968],[12.9960975,42.300298],[12.997663,42.3007064],[12.9983926,42.3012618],[12.9990148,42.3012539],[12.9995835,42.3010952],[12.9996371,42.3005159],[12.9991382,42.299159],[12.9993139,42.2988257],[13.0000582,42.2980638],[13.0009997,42.295445],[13.0026841,42.2952308],[13.0042934,42.2945007],[13.0055809,42.2934214],[13.0055352,42.2919957],[13.0052483,42.2893341],[13.0057418,42.2890008],[13.0065357,42.288842],[13.0076938,42.2887856],[13.0097063,42.2875769],[13.0109606,42.2861973],[13.0137497,42.2850551],[13.0180713,42.2833819],[13.0246628,42.2810688],[13.0578511,42.2686983],[13.0583466,42.2683566],[13.0603595,42.2663855],[13.0672355,42.2528383],[13.0685304,42.2529138],[13.0709315,42.2528555],[13.0726479,42.2526324],[13.0734385,42.2521586],[13.0737742,42.2518675],[13.073039,42.2489449],[13.0788411,42.2462984],[13.0838311,42.2452021],[13.0845871,42.2446529],[13.0852106,42.2440815],[13.0854255,42.2437857],[13.0860362,42.2420217],[13.0864312,42.239392],[13.0863353,42.2373335],[13.086465,42.2334572],[13.0873225,42.2283305],[13.0881595,42.2262973],[13.0897535,42.2264879],[13.0986978,42.2288063],[13.1009584,42.2302019],[13.1022069,42.2318004],[13.1024772,42.2324885],[13.1024708,42.2327048],[13.1020468,42.2331027],[13.1018622,42.2335955],[13.101649,42.2355029],[13.1018856,42.236863],[13.1046908,42.2423494],[13.1054725,42.2433433],[13.1066707,42.2446148],[13.1082189,42.2459459],[13.1048314,42.2477466],[13.1030957,42.2494655],[13.1017195,42.2516937],[13.1014971,42.2538806],[13.1014717,42.2554977],[13.1028506,42.2669326],[13.1041142,42.2716998],[13.1051398,42.2738869],[13.1059412,42.2751896],[13.1098402,42.278378],[13.1104239,42.278647],[13.1109686,42.2787912],[13.1112851,42.279067],[13.1128792,42.2799934],[13.1139177,42.2842025],[13.1216766,42.2888521],[13.1235738,42.290931],[13.1265067,42.2926614],[13.1270016,42.2931478],[13.1277367,42.2941432],[13.1318703,42.3032589],[13.1318974,42.3039512],[13.1288267,42.3207814],[13.1281996,42.3214684],[13.1279236,42.3231525],[13.1283568,42.3245243],[13.1283068,42.3265655],[13.1284942,42.3268657],[13.1286566,42.3276046],[13.1284567,42.3279741],[13.128819,42.328773],[13.1276122,42.3293305],[13.1209792,42.3304774],[13.1181464,42.3338078],[13.1089421,42.3430962],[13.1063109,42.3464735],[13.102961,42.3480927],[13.0979951,42.346902],[13.0936304,42.3467296],[13.0902172,42.3483372],[13.0858825,42.3540203],[13.0852361,42.3549212],[13.0850271,42.3553834],[13.0853843,42.3572164],[13.0867117,42.361094],[13.0776818,42.3605562],[13.0761505,42.3613172],[13.0734872,42.3647167],[13.0726087,42.3660445],[13.0719371,42.3681797],[13.0697731,42.3726547],[13.0687762,42.3730236],[13.0610619,42.3711187],[13.0579565,42.3702114],[13.0561132,42.3693403],[13.0540951,42.3682278],[13.0493551,42.3640603],[13.0270493,42.3477356],[13.0257762,42.3469122],[13.0248548,42.3464667],[13.0188008,42.3448176],[13.0158382,42.344675],[13.0124036,42.3450399],[13.010252,42.3431372],[13.0074353,42.3411395],[13.0065926,42.3382535],[13.0015185,42.3338775],[12.9981125,42.3340924],[12.9982977,42.3371502],[13.0000708,42.338955],[12.9992667,42.341666],[12.9975514,42.343037],[12.9939726,42.3448623],[12.9919462,42.3440754],[12.9898248,42.3435806],[12.9884108,42.3421509],[12.9883039,42.3419126],[12.9861638,42.3412422],[12.9837054,42.3411072],[12.9808616,42.3392918],[12.9797458,42.3387367],[12.977074,42.3382941],[12.9762268,42.3392919],[12.9757118,42.3390222],[12.9744458,42.3386097],[12.9720138,42.3382978]]]},"properties":{"type":"boundary","gemeente":"Petrella Salto"}}]}