{"type":"FeatureCollection","metadata":{"gemeente":"Pietrastornina","slug":"pietrastornina","generated_at":"2026-09-26T13:10:26.999851Z","total_points":5,"providers":["PosteItaliane","DPD","GLS","DHL","Amazon"],"bounds":[14.72913756,40.9918184,14.7302908961,40.99199211]},"features":[{"type":"Feature","geometry":{"type":"Point","coordinates":[14.72913756,40.99199211]},"properties":{"type":"pakketpunt","locatieNaam":"Pietrastornina","straatNaam":"Piazzale Salvatore Iermano","straatNr":"2","vervoerder":"PosteItaliane","puntType":"postkantoor","bezettingsgraad":50,"latitude":40.99199211,"longitude":14.72913756,"canPickup":true,"canDropoff":true,"openingstijden":{"za":"08:20 - 12:45","zo":"gesloten","ma":"08:20 - 13:45","di":"08:20 - 13:45","wo":"08:20 - 13:45","do":"08:20 - 13:45","vr":"08:20 - 13:45"}}},{"type":"Feature","geometry":{"type":"Point","coordinates":[14.7300999,40.9918184]},"properties":{"type":"pakketpunt","locatieNaam":"Tabacchi Greco","straatNaam":"CORSO PARTENIO","straatNr":"72","vervoerder":"DPD","puntType":"pickup_point","bezettingsgraad":50,"latitude":40.9918184,"longitude":14.7300999,"canPickup":true,"canDropoff":true,"openingstijden":{"ma":"08:00 - 13:30, 16:00 - 21:00","di":"08:00 - 13:30, 16:00 - 21:00","wo":"08:00 - 13:30, 16:00 - 21:00","do":"08:00 - 13:30, 16:00 - 21:00","vr":"08:00 - 13:30, 16:00 - 21:00","za":"08:00 - 13:30, 16:00 - 21:00","zo":"08:00 - 13:30"}}},{"type":"Feature","geometry":{"type":"Point","coordinates":[14.7302908961,40.9919281658]},"properties":{"type":"pakketpunt","locatieNaam":"TABACCHI GRECO ","straatNaam":"Corso Partenio ","straatNr":"72","vervoerder":"GLS","puntType":"parcel_shop","bezettingsgraad":50,"latitude":40.9919281658,"longitude":14.7302908961,"canPickup":true,"canDropoff":true,"openingstijden":"za: 08:30 - 13:00, 16:00 - 20:00; zo: 09:00 - 13:00"}},{"type":"Feature","geometry":{"type":"Point","coordinates":[14.729138,40.991992]},"properties":{"type":"pakketpunt","locatieNaam":"Ufficio Postale PIETRASTORNINA","straatNaam":"PIAZZALE IERMANO SALVATORE 2","straatNr":"","vervoerder":"DHL","puntType":"postOffice","bezettingsgraad":50,"latitude":40.991992,"longitude":14.729138,"canPickup":true,"canDropoff":true,"openingstijden":{"ma":"08:20 - 13:45","di":"08:20 - 13:45","wo":"08:20 - 13:45","do":"08:20 - 13:45","vr":"08:20 - 13:45","za":"08:20 - 12:45","zo":"gesloten"}}},{"type":"Feature","geometry":{"type":"Point","coordinates":[14.730288,40.991907]},"properties":{"type":"pakketpunt","locatieNaam":"Amazon Counter - Greco Rossella","straatNaam":"CORSO Partenio 72","straatNr":"","vervoerder":"Amazon","puntType":"helix","bezettingsgraad":50,"latitude":40.991907,"longitude":14.730288,"canPickup":true,"canDropoff":false,"openingstijden":null}},{"type":"Feature","geometry":{"type":"Polygon","coordinates":[[[14.6936095,40.9751363],[14.6946321,40.9748471],[14.6958451,40.9747104],[14.6972975,40.9742243],[14.7008101,40.9726323],[14.7021775,40.9721774],[14.7035842,40.9715585],[14.7066947,40.9698017],[14.7093376,40.9685813],[14.7109486,40.9699369],[14.7121342,40.9706251],[14.7155807,40.9733253],[14.7163536,40.9732374],[14.7163527,40.9736425],[14.7165053,40.9742561],[14.7168922,40.9752945],[14.7171164,40.9755174],[14.7178886,40.9755465],[14.7199228,40.9753013],[14.7206581,40.9755167],[14.7224266,40.9763063],[14.7235926,40.9762482],[14.724627,40.9760077],[14.7255534,40.9759165],[14.7261941,40.9762807],[14.7262746,40.9770643],[14.7258863,40.9792621],[14.7262343,40.9810902],[14.7300489,40.9813141],[14.7311185,40.9815083],[14.7334668,40.9827819],[14.7344763,40.9828576],[14.7354395,40.982751],[14.7379457,40.9832334],[14.7391472,40.9830655],[14.7423916,40.9832454],[14.7435689,40.983002],[14.7455072,40.9829096],[14.7461267,40.9827301],[14.7469698,40.9826969],[14.7473381,40.9829576],[14.7472765,40.9834602],[14.7465997,40.9836426],[14.7463128,40.98381],[14.7465368,40.9841904],[14.7466881,40.9846651],[14.7459511,40.9850523],[14.7462095,40.9856921],[14.7465175,40.9861178],[14.7477517,40.9866141],[14.74824,40.9867336],[14.7490609,40.9862967],[14.7495709,40.9868202],[14.7497693,40.9874944],[14.7502786,40.988099],[14.7505742,40.9882327],[14.7512889,40.9882285],[14.7529311,40.9877457],[14.7541191,40.9876547],[14.7550004,40.987669],[14.7570419,40.9882014],[14.7576596,40.9885575],[14.7576225,40.988924],[14.7564554,40.9895541],[14.755988,40.9905542],[14.7572116,40.991123],[14.7578281,40.9913126],[14.758648,40.9913615],[14.7589812,40.9910703],[14.7594492,40.9903627],[14.7601503,40.9903816],[14.7604567,40.9906588],[14.76112,40.9915887],[14.7617254,40.9919229],[14.7628662,40.9921718],[14.7639102,40.9928485],[14.764504,40.9931293],[14.7645347,40.994127],[14.7641755,40.9947571],[14.7642205,40.9955785],[14.7632059,40.9967817],[14.7631096,40.9971421],[14.7633104,40.9974426],[14.7631785,40.9978362],[14.7626181,40.9981794],[14.7621651,40.9986207],[14.7614156,40.9989329],[14.7609492,40.9992218],[14.76084,40.9997314],[14.7603984,41.0002531],[14.7602306,41.0008827],[14.7605238,41.0020022],[14.7599161,41.0026043],[14.7591652,41.0026194],[14.7582868,41.0022224],[14.7579299,41.0022763],[14.7578467,41.002591],[14.7581893,41.0030869],[14.7586856,41.0041603],[14.7593488,41.0048922],[14.7594293,41.0053968],[14.7594024,41.0062623],[14.7598656,41.0066847],[14.7598346,41.0086756],[14.7603417,41.0093793],[14.7599367,41.0095122],[14.7591995,41.0095581],[14.7571671,41.0092999],[14.7564305,41.0093369],[14.7556114,41.0091078],[14.7548485,41.0091326],[14.7542068,41.0089712],[14.7531612,41.0088795],[14.7520545,41.0090834],[14.7510331,41.0090896],[14.7486172,41.0095436],[14.7477215,41.0103355],[14.7472083,41.0110093],[14.7471096,41.0116579],[14.747154,41.0123624],[14.7462238,41.0130075],[14.7452244,41.0133095],[14.7443187,41.0137239],[14.7415307,41.0152046],[14.7391702,41.0167583],[14.7376113,41.0167867],[14.7366596,41.0166227],[14.736312,41.0172251],[14.7354842,41.0163888],[14.7347043,41.015118],[14.7345979,41.0146462],[14.7346192,41.0127907],[14.7339307,41.0121769],[14.7327189,41.0118233],[14.7310696,41.0109469],[14.7300611,41.0106192],[14.7292996,41.0107516],[14.7261208,41.0087002],[14.7249804,41.0083114],[14.723816,41.0081264],[14.7224968,41.0076025],[14.7204333,41.006499],[14.7179583,41.0068518],[14.7156379,41.0070257],[14.7154628,41.0064403],[14.7147065,41.0053752],[14.7139957,41.0046724],[14.713249,41.0041379],[14.7141909,41.0034114],[14.7128157,41.0026426],[14.7128996,41.0024539],[14.7136498,41.0021376],[14.7135921,41.0017713],[14.7132245,41.0015061],[14.7125243,41.0013879],[14.7128513,41.0006874],[14.7117477,40.9993155],[14.7097105,40.9975714],[14.7077243,40.9949155],[14.7063577,40.9921477],[14.7057754,40.990047],[14.7054698,40.9886045],[14.7049487,40.9881173],[14.7033289,40.9862308],[14.701716,40.9853432],[14.7011013,40.984829],[14.6992203,40.982608],[14.6984721,40.9823084],[14.6979705,40.9819149],[14.6976992,40.9815888],[14.6973973,40.9807548],[14.6957181,40.9791052],[14.6954112,40.9785173],[14.6940381,40.977298],[14.6938266,40.9766289],[14.6935833,40.9753311],[14.6936095,40.9751363]]]},"properties":{"type":"boundary","gemeente":"Pietrastornina"}}]}