{"type":"FeatureCollection","metadata":{"gemeente":"Placanica","slug":"placanica","generated_at":"2026-09-26T14:27:46.621628Z","total_points":1,"providers":["PosteItaliane"],"bounds":[16.45256026,38.40923524,16.45256026,38.40923524]},"features":[{"type":"Feature","geometry":{"type":"Point","coordinates":[16.45256026,38.40923524]},"properties":{"type":"pakketpunt","locatieNaam":"Placanica","straatNaam":"Via San Tommaso","straatNr":"102","vervoerder":"PosteItaliane","puntType":"postkantoor","bezettingsgraad":50,"latitude":38.40923524,"longitude":16.45256026,"canPickup":true,"canDropoff":true,"openingstijden":{"za":"gesloten","zo":"gesloten","ma":"08:20 - 13:45","di":"gesloten","wo":"08:20 - 13:45","do":"gesloten","vr":"08:20 - 13:45"}}},{"type":"Feature","geometry":{"type":"Polygon","coordinates":[[[16.4209007,38.4633889],[16.4213509,38.4634142],[16.4218735,38.4633089],[16.4219941,38.4630359],[16.4218791,38.4623776],[16.4220443,38.4620522],[16.4222912,38.4618251],[16.4226674,38.4617292],[16.4241848,38.4619383],[16.4272163,38.4626851],[16.4283362,38.4626587],[16.4290872,38.4629661],[16.4294994,38.4628993],[16.4327083,38.4611655],[16.434139,38.4605075],[16.4345896,38.4600515],[16.4348208,38.4594925],[16.4361697,38.4599956],[16.4366461,38.4585844],[16.43759,38.4565363],[16.4377497,38.4557705],[16.4382614,38.454564],[16.4397101,38.4524746],[16.4408424,38.4517816],[16.4418202,38.4513504],[16.4426999,38.4511323],[16.4430371,38.4509083],[16.4432709,38.4505831],[16.4432446,38.449222],[16.4433271,38.4488165],[16.443695,38.4482533],[16.4438011,38.4478552],[16.4443636,38.4473066],[16.4443905,38.446972],[16.4448632,38.4465101],[16.4454748,38.4461472],[16.4458677,38.4457577],[16.4458969,38.445459],[16.4456371,38.4450754],[16.4464541,38.4447218],[16.4468657,38.4440704],[16.4471676,38.4437407],[16.4480555,38.4434231],[16.4491518,38.4426874],[16.4501741,38.4421903],[16.4512455,38.4419059],[16.4519938,38.4415522],[16.4530033,38.4404757],[16.4532035,38.4406833],[16.4531566,38.441253],[16.4532194,38.4415008],[16.4534859,38.4416592],[16.453934,38.4417474],[16.4543109,38.4416873],[16.4544905,38.441406],[16.454831,38.4413392],[16.4551933,38.4416489],[16.455574,38.4417774],[16.4558833,38.4416857],[16.4559904,38.4414494],[16.4562966,38.4412859],[16.4570783,38.4413933],[16.457387,38.4413511],[16.457576,38.4410781],[16.4574859,38.4405936],[16.456994,38.4406071],[16.4567261,38.4404219],[16.4560805,38.4396537],[16.4558018,38.4394601],[16.4547528,38.4391315],[16.4544016,38.4393159],[16.454012,38.4393363],[16.4540452,38.438718],[16.4543224,38.4382191],[16.4544546,38.4374235],[16.4552151,38.4365114],[16.456025,38.4363111],[16.457061,38.4365147],[16.4582817,38.4362926],[16.4585916,38.4363178],[16.4588035,38.4359894],[16.4587234,38.4354773],[16.4594578,38.4349625],[16.459488,38.434205],[16.4597488,38.4340039],[16.4597521,38.4336349],[16.4594612,38.4333792],[16.4584192,38.4317504],[16.4578855,38.4313168],[16.4570158,38.4308688],[16.4567341,38.430536],[16.4589872,38.4303738],[16.4599776,38.430054],[16.4609524,38.4295284],[16.4614804,38.4289819],[16.4618567,38.4283641],[16.4622727,38.4279642],[16.462541,38.4276007],[16.4626141,38.4272992],[16.4632524,38.4265612],[16.4636832,38.4263042],[16.4645926,38.4259761],[16.4648385,38.4256591],[16.464774,38.4253259],[16.4649335,38.4241193],[16.465292,38.4231924],[16.466217,38.422436],[16.467051,38.4211458],[16.467893,38.4205949],[16.468889,38.4203174],[16.4691609,38.4201696],[16.469479,38.4195015],[16.4693956,38.4187648],[16.4691584,38.4178266],[16.4693804,38.4167824],[16.4698583,38.4161536],[16.4699849,38.4153607],[16.4697166,38.4148405],[16.4693479,38.4147157],[16.4687211,38.4148593],[16.4684546,38.414701],[16.4685167,38.4144317],[16.4694164,38.4141222],[16.4696987,38.413398],[16.4697247,38.4130005],[16.4696476,38.4125872],[16.4699802,38.4120172],[16.4699952,38.411652],[16.4704334,38.4106389],[16.4710445,38.4096958],[16.4717108,38.4092168],[16.4720394,38.4084852],[16.4723758,38.4070289],[16.4724712,38.4061008],[16.4729159,38.4052113],[16.4730118,38.4045325],[16.4729699,38.4030376],[16.4730477,38.4023265],[16.4732539,38.4017646],[16.4732878,38.4011958],[16.4734809,38.4005358],[16.4735872,38.399589],[16.4739129,38.3986911],[16.4739529,38.3983737],[16.473794,38.3979162],[16.4734523,38.3974164],[16.4731394,38.3966989],[16.4727941,38.3954888],[16.4728151,38.3947948],[16.4729228,38.3944686],[16.4735393,38.3937859],[16.4738165,38.3933589],[16.4739319,38.392886],[16.4739018,38.3924989],[16.473706,38.3918638],[16.4733708,38.3911927],[16.4732652,38.3904619],[16.4734505,38.3882913],[16.4733994,38.3874806],[16.4729683,38.3860061],[16.4726017,38.3854179],[16.4722427,38.3846269],[16.4718113,38.3842543],[16.4698495,38.3840967],[16.4690745,38.3842273],[16.4677784,38.384126],[16.4665782,38.3842478],[16.4645513,38.3841933],[16.4641497,38.3847722],[16.4626703,38.3862971],[16.4621177,38.3867552],[16.4616969,38.3868586],[16.4612339,38.3872165],[16.4605738,38.3879199],[16.4600312,38.3883234],[16.4581059,38.3887974],[16.4571754,38.3892213],[16.456627,38.3892923],[16.4562791,38.3890358],[16.4558903,38.3884805],[16.4553881,38.3886115],[16.4541791,38.389368],[16.4537695,38.3895246],[16.4533113,38.3894864],[16.4529023,38.389634],[16.4528513,38.3899431],[16.4526609,38.3902161],[16.4516834,38.390517],[16.4501024,38.3916704],[16.4495296,38.3921838],[16.4486352,38.392142],[16.4484101,38.3923138],[16.4482551,38.3926115],[16.4472044,38.3931852],[16.4473024,38.3936887],[16.4472325,38.3941385],[16.4468335,38.394245],[16.4465221,38.394121],[16.4461109,38.3941787],[16.4458301,38.394462],[16.4454569,38.3953044],[16.4450736,38.3955358],[16.4447279,38.3954949],[16.4441131,38.3956286],[16.4433078,38.3960353],[16.4428426,38.3967891],[16.4423627,38.3968872],[16.4419111,38.3971634],[16.4419008,38.3978117],[16.4415517,38.3981398],[16.4405764,38.3986024],[16.4402985,38.3990114],[16.4398379,38.399477],[16.4393933,38.3995999],[16.4390859,38.4002221],[16.4385639,38.4004938],[16.4379149,38.4006432],[16.4370064,38.401034],[16.436408,38.4015084],[16.4353267,38.4018023],[16.4348972,38.402113],[16.4332436,38.4024838],[16.4320448,38.4037881],[16.4297139,38.4058527],[16.4292937,38.4065451],[16.4287845,38.4069013],[16.4282519,38.4071692],[16.4268938,38.4074131],[16.4256472,38.407533],[16.4248405,38.4078588],[16.4246758,38.4081274],[16.4247117,38.4084038],[16.4244261,38.4086912],[16.4245983,38.4091994],[16.4225194,38.4103408],[16.4219222,38.4114538],[16.4215971,38.4117938],[16.4212327,38.4119474],[16.421055,38.4122061],[16.4209236,38.4124843],[16.4208947,38.412801],[16.4204858,38.4129935],[16.4201716,38.4132878],[16.4197156,38.414023],[16.4196528,38.4143013],[16.4193925,38.4144663],[16.418528,38.4147732],[16.4181675,38.415075],[16.4176901,38.4158385],[16.417258,38.4160009],[16.4168856,38.4162989],[16.4164272,38.4168723],[16.4157506,38.4173246],[16.415506,38.4177944],[16.4154792,38.4181061],[16.415646,38.4185322],[16.4160189,38.4188502],[16.4168763,38.4193488],[16.4170499,38.4196711],[16.4166795,38.4203958],[16.4158564,38.4210644],[16.4152655,38.4213223],[16.4143424,38.4215475],[16.4132608,38.4219401],[16.4126956,38.4223089],[16.4114351,38.4228523],[16.4099734,38.4231072],[16.4092115,38.423385],[16.4087347,38.4236267],[16.4081722,38.4241482],[16.4080195,38.4251384],[16.4075965,38.4263076],[16.4066395,38.4272184],[16.4065888,38.4274851],[16.4066537,38.4279417],[16.4071654,38.4283589],[16.4084566,38.4287671],[16.4086676,38.4289696],[16.4087382,38.4292186],[16.4083336,38.4301017],[16.4082659,38.430591],[16.4084409,38.4308819],[16.4088552,38.431004],[16.4105888,38.4311546],[16.4116019,38.4313871],[16.4129848,38.4318658],[16.4137726,38.4322699],[16.4145226,38.4320018],[16.4152259,38.4327936],[16.4153701,38.4331532],[16.4154563,38.4340337],[16.4159478,38.4345871],[16.4168976,38.4351069],[16.4173291,38.4354797],[16.4175863,38.4357556],[16.4177063,38.4360252],[16.4177001,38.4363061],[16.4172623,38.4367613],[16.4164858,38.4368422],[16.4158939,38.4370642],[16.4149324,38.4377371],[16.4140472,38.4386929],[16.4135336,38.4388426],[16.412621,38.4388091],[16.4117417,38.4386282],[16.4107612,38.4382543],[16.4103257,38.4382595],[16.4092319,38.438536],[16.4077556,38.4386523],[16.4073738,38.4390544],[16.407041,38.4396422],[16.4068574,38.4402206],[16.4067418,38.4413209],[16.4067843,38.4441655],[16.4065514,38.4456866],[16.4063036,38.4464894],[16.4063134,38.446988],[16.4063808,38.447519],[16.4072994,38.449417],[16.4074567,38.4504325],[16.4079023,38.4515888],[16.4078872,38.4519342],[16.4077376,38.4524183],[16.4077677,38.4528729],[16.4078901,38.4532564],[16.4083878,38.4541332],[16.4091164,38.4550449],[16.4093427,38.4556028],[16.409173,38.4561792],[16.408839,38.4567131],[16.4087673,38.4570143],[16.4088766,38.4573989],[16.4090647,38.4576568],[16.4093312,38.4578287],[16.4099547,38.4580364],[16.4108466,38.4585194],[16.4109775,38.4587629],[16.4110075,38.4591658],[16.4112927,38.4595615],[16.4116456,38.45953],[16.4121764,38.4596582],[16.4129154,38.4604882],[16.4134125,38.4608163],[16.4142764,38.4610537],[16.4158098,38.4609471],[16.417856,38.4611946],[16.4186667,38.4616512],[16.4193088,38.462249],[16.4209007,38.4633889]]]},"properties":{"type":"boundary","gemeente":"Placanica"}}]}