{"type":"FeatureCollection","metadata":{"gemeente":"Polverara","slug":"polverara","generated_at":"2026-09-26T14:27:47.260608Z","total_points":7,"providers":["PosteItaliane","DPD","GLS","DHL","Amazon","FedEx"],"bounds":[11.956802,45.309991,11.958217,45.311101]},"features":[{"type":"Feature","geometry":{"type":"Point","coordinates":[11.95680237,45.30999131]},"properties":{"type":"pakketpunt","locatieNaam":"Polverara","straatNaam":"Piazza Venticinque Aprile","straatNr":"3","vervoerder":"PosteItaliane","puntType":"postkantoor","bezettingsgraad":50,"latitude":45.30999131,"longitude":11.95680237,"canPickup":true,"canDropoff":true,"openingstijden":{"za":"08:20 - 12:45","zo":"gesloten","ma":"08:20 - 13:45","di":"08:20 - 13:45","wo":"08:20 - 13:45","do":"08:20 - 13:45","vr":"08:20 - 13:45"}}},{"type":"Feature","geometry":{"type":"Point","coordinates":[11.957625,45.3109596]},"properties":{"type":"pakketpunt","locatieNaam":"Cartoleria Da Silvia","straatNaam":"VIA VOLPARO","straatNr":"13","vervoerder":"DPD","puntType":"pickup_point","bezettingsgraad":50,"latitude":45.3109596,"longitude":11.957625,"canPickup":true,"canDropoff":true,"openingstijden":{"ma":"06:30 - 12:30, 15:30 - 19:00","di":"06:30 - 12:30, 15:30 - 19:00","wo":"06:30 - 12:30, 15:30 - 19:00","do":"06:30 - 12:30, 15:30 - 19:00","vr":"06:30 - 12:30, 15:30 - 19:00","za":"06:30 - 12:30, 15:30 - 19:00","zo":"gesloten"}}},{"type":"Feature","geometry":{"type":"Point","coordinates":[11.957625,45.3109596]},"properties":{"type":"pakketpunt","locatieNaam":"CARTOLERIA DA SILVIA","straatNaam":"Via Volparo","straatNr":"13","vervoerder":"GLS","puntType":"parcel_shop","bezettingsgraad":50,"latitude":45.3109596,"longitude":11.957625,"canPickup":true,"canDropoff":true,"openingstijden":"za: 06:30 - 12:30, 15:30 - 19:30; ma: 06:30 - 12:30, 15:30 - 19:30"}},{"type":"Feature","geometry":{"type":"Point","coordinates":[11.956802,45.309991]},"properties":{"type":"pakketpunt","locatieNaam":"Ufficio Postale POLVERARA","straatNaam":"PIAZZA XXV APRILE 3","straatNr":"","vervoerder":"DHL","puntType":"postOffice","bezettingsgraad":50,"latitude":45.309991,"longitude":11.956802,"canPickup":true,"canDropoff":true,"openingstijden":{"ma":"08:20 - 13:45","di":"08:20 - 13:45","wo":"08:20 - 13:45","do":"08:20 - 13:45","vr":"08:20 - 13:45","za":"08:20 - 12:45","zo":"gesloten"}}},{"type":"Feature","geometry":{"type":"Point","coordinates":[11.958217,45.311101]},"properties":{"type":"pakketpunt","locatieNaam":"Amazon Locker - reanto","straatNaam":"Farmacia San Fidenzio Polverara","straatNr":"","vervoerder":"Amazon","puntType":"locker","bezettingsgraad":50,"latitude":45.311101,"longitude":11.958217,"canPickup":true,"canDropoff":false,"openingstijden":null}},{"type":"Feature","geometry":{"type":"Point","coordinates":[11.957625,45.3109596]},"properties":{"type":"pakketpunt","locatieNaam":"Amazon Counter","straatNaam":"Cartoleria Da Silvia (fermopoint)","straatNr":"","vervoerder":"Amazon","puntType":"helix","bezettingsgraad":50,"latitude":45.3109596,"longitude":11.957625,"canPickup":true,"canDropoff":false,"openingstijden":null}},{"type":"Feature","geometry":{"type":"Point","coordinates":[11.957578734630694,45.310978615108006]},"properties":{"type":"pakketpunt","locatieNaam":"FedEx OnSite","straatNaam":"via volparo , 13","straatNr":"","vervoerder":"FedEx","puntType":"servicepunt","bezettingsgraad":50,"latitude":45.310978615108006,"longitude":11.957578734630694,"canPickup":true,"canDropoff":true,"openingstijden":{"ma":"06:30 - 12:30, 15:30 - 19:30","di":"06:30 - 12:30, 15:30 - 19:30","wo":"06:30 - 12:30, 15:30 - 19:30","do":"06:30 - 12:30, 15:30 - 19:30","vr":"06:30 - 12:30, 15:30 - 19:30","za":"06:30 - 12:30, 15:30 - 19:30","zo":"gesloten"}}},{"type":"Feature","geometry":{"type":"Polygon","coordinates":[[[11.9281394,45.2987486],[11.9288808,45.2986859],[11.9338423,45.2977657],[11.9341859,45.2977569],[11.9349587,45.2978299],[11.9385157,45.2989096],[11.938336,45.297393],[11.9383558,45.2960142],[11.9388251,45.2960878],[11.9388128,45.2936957],[11.9415115,45.2934476],[11.9433204,45.293401],[11.9433924,45.2942061],[11.9441365,45.2956795],[11.9484412,45.2949827],[11.9491105,45.2948155],[11.9485549,45.2938585],[11.9483352,45.2939143],[11.948082,45.2929353],[11.9508141,45.2925504],[11.9510702,45.2930008],[11.9511183,45.2933424],[11.952373,45.2929529],[11.953271,45.2925154],[11.9525682,45.2910624],[11.9532041,45.2908389],[11.9541501,45.2901573],[11.9555708,45.2894511],[11.9560325,45.289912],[11.9567528,45.2897007],[11.9590423,45.2892879],[11.9611644,45.2892399],[11.9623612,45.2891018],[11.9630614,45.2889209],[11.9639093,45.2902685],[11.9643403,45.2905787],[11.9644195,45.2907409],[11.9642929,45.2912227],[11.9644193,45.2915122],[11.964381,45.2919416],[11.9646423,45.2928775],[11.9645331,45.2935017],[11.963267,45.2950272],[11.9630078,45.2956838],[11.9630267,45.2962403],[11.9628424,45.296588],[11.9628859,45.2974224],[11.9630618,45.2984676],[11.9632357,45.2986988],[11.963344,45.2991902],[11.9641586,45.300496],[11.9649841,45.3014231],[11.965457,45.3016609],[11.9657405,45.302112],[11.9659373,45.3029404],[11.9659838,45.3036061],[11.96587,45.3043676],[11.9660965,45.3050869],[11.966277,45.3053739],[11.9671649,45.3063177],[11.9672605,45.3065653],[11.9680052,45.3074795],[11.9684315,45.3077269],[11.9688855,45.3078234],[11.9694935,45.3081576],[11.9697321,45.3082015],[11.9705162,45.3087395],[11.971505,45.3087713],[11.9721394,45.3086056],[11.9724487,45.3088726],[11.9726641,45.3089253],[11.9730731,45.3088397],[11.9732403,45.3093271],[11.9734539,45.3095715],[11.9734731,45.3097128],[11.9744601,45.3100622],[11.9748444,45.3108607],[11.977144,45.3123956],[11.9543855,45.3184895],[11.9544086,45.3185634],[11.9539041,45.3192693],[11.9520458,45.3216027],[11.9478461,45.3259021],[11.9481887,45.3263402],[11.9478308,45.326536],[11.9484174,45.3274217],[11.9488725,45.3286515],[11.9493201,45.3286318],[11.9496242,45.3296139],[11.9522869,45.3292692],[11.9529616,45.3305177],[11.9504865,45.3309306],[11.950793,45.3321805],[11.9496086,45.332414],[11.949553,45.3322289],[11.9480924,45.3324613],[11.9479891,45.3317986],[11.9467322,45.331969],[11.9468576,45.3326194],[11.9465395,45.3326881],[11.9469397,45.3344143],[11.94956,45.3341356],[11.9496601,45.3347336],[11.9497933,45.3348599],[11.9507602,45.3346484],[11.9511745,45.335092],[11.9513854,45.3353868],[11.9508112,45.335629],[11.9508652,45.3357817],[11.9506409,45.335893],[11.9507851,45.3366764],[11.9520695,45.3365945],[11.9524642,45.3379882],[11.9537409,45.3435057],[11.9517845,45.3435329],[11.9509605,45.3433941],[11.9496387,45.3435932],[11.9485552,45.3436331],[11.9474111,45.3434505],[11.9459965,45.343644],[11.9388074,45.3439338],[11.939454,45.3428085],[11.9396527,45.3420115],[11.9392867,45.3411729],[11.9373119,45.3381791],[11.9366164,45.3369274],[11.9362315,45.3360546],[11.9367808,45.3341661],[11.9373044,45.333068],[11.9387596,45.3291997],[11.9396191,45.3290388],[11.9401029,45.3290298],[11.9410378,45.3293927],[11.9425633,45.3303594],[11.9428937,45.3304843],[11.9434262,45.3304495],[11.9442087,45.3300717],[11.9446015,45.3297414],[11.9448426,45.3290257],[11.9452406,45.328234],[11.9451831,45.3280316],[11.9449495,45.3277768],[11.9439747,45.3271278],[11.9435813,45.326666],[11.9432694,45.3260945],[11.9431305,45.3256772],[11.9431495,45.3254074],[11.9425204,45.3246953],[11.9418598,45.32424],[11.9408826,45.324211],[11.9412365,45.3223031],[11.9412974,45.3214531],[11.9409392,45.3207596],[11.9398814,45.320016],[11.937954,45.3177613],[11.9371664,45.3171779],[11.9352419,45.3161617],[11.9345626,45.3153822],[11.9343839,45.3148692],[11.935643,45.3143752],[11.9357889,45.314173],[11.9357402,45.3138743],[11.9356,45.3135977],[11.9353784,45.313471],[11.9340224,45.3130387],[11.9336041,45.3128018],[11.9334826,45.3120873],[11.9335827,45.3117303],[11.9340619,45.3109858],[11.9346153,45.3110482],[11.9348275,45.3104327],[11.9350591,45.309199],[11.9350892,45.3080147],[11.9349991,45.3072033],[11.9347478,45.3066696],[11.9341395,45.3061368],[11.9325656,45.3052525],[11.9312277,45.3047722],[11.9306371,45.3044556],[11.9303844,45.3040847],[11.9303077,45.3034912],[11.9301114,45.3030003],[11.928855,45.301999],[11.9284586,45.3014922],[11.9283459,45.3009394],[11.9292048,45.3008323],[11.9301972,45.3004557],[11.9305116,45.3001674],[11.9305759,45.299872],[11.9304225,45.2996241],[11.9299311,45.2994067],[11.928214,45.2991086],[11.9281394,45.2987486]]]},"properties":{"type":"boundary","gemeente":"Polverara"}}]}