{"type":"FeatureCollection","metadata":{"gemeente":"Ponte di Piave","slug":"ponte-di-piave","generated_at":"2026-09-26T14:27:47.554768Z","total_points":31,"providers":["PosteItaliane","DPD","InPost","GLS","DHL","Amazon","FedEx"],"bounds":[12.4373783,45.715,12.484098,45.7408693754]},"features":[{"type":"Feature","geometry":{"type":"Point","coordinates":[12.46356252,45.71502577]},"properties":{"type":"pakketpunt","locatieNaam":"Ponte Di Piave","straatNaam":"Piazza Giuseppe Garibaldi","straatNr":"73","vervoerder":"PosteItaliane","puntType":"postkantoor","bezettingsgraad":50,"latitude":45.71502577,"longitude":12.46356252,"canPickup":true,"canDropoff":true,"openingstijden":{"za":"08:20 - 12:35","zo":"gesloten","ma":"08:20 - 13:35","di":"08:20 - 13:35","wo":"08:20 - 13:35","do":"08:20 - 13:35","vr":"08:20 - 13:35"}}},{"type":"Feature","geometry":{"type":"Point","coordinates":[12.43744116,45.73365067]},"properties":{"type":"pakketpunt","locatieNaam":"Negrisia","straatNaam":"Via Chiesa","straatNr":"46","vervoerder":"PosteItaliane","puntType":"postkantoor","bezettingsgraad":50,"latitude":45.73365067,"longitude":12.43744116,"canPickup":true,"canDropoff":true,"openingstijden":{"za":"08:20 - 12:45","zo":"gesloten","ma":"08:20 - 13:45","di":"08:20 - 13:45","wo":"08:20 - 13:45","do":"08:20 - 13:45","vr":"08:20 - 13:45"}}},{"type":"Feature","geometry":{"type":"Point","coordinates":[12.4795509,45.73997295]},"properties":{"type":"pakketpunt","locatieNaam":"Levada Di Ponte Di Piave","straatNaam":"Vicolo Della Vittoria","straatNr":"18","vervoerder":"PosteItaliane","puntType":"postkantoor","bezettingsgraad":50,"latitude":45.73997295,"longitude":12.4795509,"canPickup":true,"canDropoff":true,"openingstijden":{"za":"08:20 - 12:35","zo":"gesloten","ma":"08:20 - 13:35","di":"08:20 - 13:35","wo":"08:20 - 13:35","do":"08:20 - 13:35","vr":"08:20 - 13:35"}}},{"type":"Feature","geometry":{"type":"Point","coordinates":[12.46573341,45.71626761]},"properties":{"type":"pakketpunt","locatieNaam":"Tabaccheria N. 2","straatNaam":"Piazza Giuseppe Garibaldi","straatNr":"19","vervoerder":"PosteItaliane","puntType":"servicepunt","bezettingsgraad":50,"latitude":45.71626761,"longitude":12.46573341,"canPickup":true,"canDropoff":true,"openingstijden":{"za":"06:00 - 19:00","zo":"gesloten","ma":"06:00 - 20:00","di":"06:00 - 20:00","wo":"06:00 - 20:00","do":"06:00 - 20:00","vr":"06:00 - 20:00"}}},{"type":"Feature","geometry":{"type":"Point","coordinates":[12.47617773,45.73957147]},"properties":{"type":"pakketpunt","locatieNaam":"Tabaccheria N. 11","straatNaam":"Via Della Vittoria","straatNr":"3","vervoerder":"PosteItaliane","puntType":"servicepunt","bezettingsgraad":50,"latitude":45.73957147,"longitude":12.47617773,"canPickup":true,"canDropoff":true,"openingstijden":{"za":"08:30 - 12:30, 16:30 - 18:30","zo":"gesloten","ma":"08:30 - 12:30, 16:30 - 18:30","di":"08:30 - 12:30, 16:30 - 18:30","wo":"08:30 - 12:30","do":"08:30 - 12:30, 16:30 - 18:30","vr":"08:30 - 12:30, 16:30 - 18:30"}}},{"type":"Feature","geometry":{"type":"Point","coordinates":[12.46441191,45.71577636]},"properties":{"type":"pakketpunt","locatieNaam":"Tabaccheria N. 14","straatNaam":"Piazza Giuseppe Garibaldi","straatNr":"43","vervoerder":"PosteItaliane","puntType":"servicepunt","bezettingsgraad":50,"latitude":45.71577636,"longitude":12.46441191,"canPickup":true,"canDropoff":true,"openingstijden":{"za":"07:30 - 12:30, 15:30 - 19:30","zo":"gesloten","ma":"07:30 - 12:30, 15:30 - 19:30","di":"07:30 - 12:30, 15:30 - 19:30","wo":"07:30 - 12:30","do":"07:30 - 12:30, 15:30 - 19:30","vr":"07:30 - 12:30, 15:30 - 19:30"}}},{"type":"Feature","geometry":{"type":"Point","coordinates":[12.4839682476,45.7408693754]},"properties":{"type":"pakketpunt","locatieNaam":"Hotel Ristorante Al Gabbiano","straatNaam":"VIA DELLA VITTORIA","straatNr":"45","vervoerder":"DPD","puntType":"pickup_point","bezettingsgraad":50,"latitude":45.7408693754,"longitude":12.4839682476,"canPickup":true,"canDropoff":true,"openingstijden":{"ma":"08:00 - 12:00, 14:00 - 18:00","di":"08:00 - 12:00, 14:00 - 18:00","wo":"08:00 - 12:00, 14:00 - 18:00","do":"08:00 - 12:00, 14:00 - 18:00","vr":"08:00 - 12:00, 14:00 - 18:00","za":"08:00 - 12:00","zo":"gesloten"}}},{"type":"Feature","geometry":{"type":"Point","coordinates":[12.46334308,45.71639314]},"properties":{"type":"pakketpunt","locatieNaam":"Cartolibreria Centro Copie Cenedese","straatNaam":"P.ZZA MARCO POLO","straatNr":"12","vervoerder":"DPD","puntType":"pickup_point","bezettingsgraad":50,"latitude":45.71639314,"longitude":12.46334308,"canPickup":true,"canDropoff":true,"openingstijden":{"ma":"07:45 - 12:30, 15:30 - 19:00","di":"07:45 - 12:30, 15:30 - 19:00","wo":"07:45 - 12:30, 15:30 - 19:00","do":"07:45 - 12:30, 15:30 - 19:00","vr":"07:45 - 12:30, 15:30 - 19:00","za":"07:45 - 12:30","zo":"gesloten"}}},{"type":"Feature","geometry":{"type":"Point","coordinates":[12.4374997,45.7330833]},"properties":{"type":"pakketpunt","locatieNaam":"Agraria Roma Dino","straatNaam":"VIA CHIESA","straatNr":"32","vervoerder":"DPD","puntType":"pickup_point","bezettingsgraad":50,"latitude":45.7330833,"longitude":12.4374997,"canPickup":true,"canDropoff":true,"openingstijden":{"ma":"08:00 - 12:00, 14:30 - 18:30","di":"08:00 - 12:00, 14:30 - 18:30","wo":"08:00 - 12:00, 14:30 - 18:30","do":"08:00 - 12:00, 14:30 - 18:30","vr":"08:00 - 12:00, 14:30 - 18:30","za":"08:00 - 12:00","zo":"gesloten"}}},{"type":"Feature","geometry":{"type":"Point","coordinates":[12.46498,45.71518]},"properties":{"type":"pakketpunt","locatieNaam":"InPost Locker 24/7 ","straatNaam":"Piazza Giuseppe Garibaldi","straatNr":"37","vervoerder":"InPost","puntType":"automaat","bezettingsgraad":50,"latitude":45.71518,"longitude":12.46498,"canPickup":true,"canDropoff":true,"openingstijden":null}},{"type":"Feature","geometry":{"type":"Point","coordinates":[12.46334,45.71661]},"properties":{"type":"pakketpunt","locatieNaam":"InPost Point","straatNaam":"Piazza Marco Polo, 12, Ponte di Piave Province of Treviso, Italy","straatNr":"12","vervoerder":"InPost","puntType":"servicepunt","bezettingsgraad":50,"latitude":45.71661,"longitude":12.46334,"canPickup":true,"canDropoff":true,"openingstijden":"Lun-Ven 08:00-12:30, 15:30-19:00; Sab 08:00-12:30"}},{"type":"Feature","geometry":{"type":"Point","coordinates":[12.4374997,45.7330833]},"properties":{"type":"pakketpunt","locatieNaam":"AGRARIA ROMA DINO DI ROMA MAURIZIO","straatNaam":"Via Chiesa","straatNr":"32","vervoerder":"GLS","puntType":"parcel_shop","bezettingsgraad":50,"latitude":45.7330833,"longitude":12.4374997,"canPickup":true,"canDropoff":true,"openingstijden":"za: 08:00 - 12:00; ma: 08:00 - 12:00, 14:30 - 18:30"}},{"type":"Feature","geometry":{"type":"Point","coordinates":[12.463563,45.715026]},"properties":{"type":"pakketpunt","locatieNaam":"Ufficio Postale PONTE DI PIAVE","straatNaam":"PIAZZA GIUSEPPE GARIBALDI 73","straatNr":"","vervoerder":"DHL","puntType":"postOffice","bezettingsgraad":50,"latitude":45.715026,"longitude":12.463563,"canPickup":true,"canDropoff":true,"openingstijden":{"ma":"08:20 - 13:35","di":"08:20 - 13:35","wo":"08:20 - 13:35","do":"08:20 - 13:35","vr":"08:20 - 13:35","za":"08:20 - 12:35","zo":"gesloten"}}},{"type":"Feature","geometry":{"type":"Point","coordinates":[12.463895,45.715325]},"properties":{"type":"pakketpunt","locatieNaam":"EUROLAND","straatNaam":"Piazza Garibaldi 37","straatNr":"","vervoerder":"DHL","puntType":"parcelShop","bezettingsgraad":50,"latitude":45.715325,"longitude":12.463895,"canPickup":false,"canDropoff":true,"openingstijden":{"ma":"15:30 - 19:30","di":"09:00 - 19:00","wo":"09:00 - 19:00","do":"09:00 - 19:00","vr":"09:00 - 19:00","za":"09:00 - 18:30","zo":"gesloten"}}},{"type":"Feature","geometry":{"type":"Point","coordinates":[12.464412,45.715776]},"properties":{"type":"pakketpunt","locatieNaam":"TABACCHERIA N. 14","straatNaam":"PIAZZA GIUSEPPE GARIBALDI 43","straatNr":"","vervoerder":"DHL","puntType":"parcelShop","bezettingsgraad":50,"latitude":45.715776,"longitude":12.464412,"canPickup":true,"canDropoff":true,"openingstijden":{"ma":"07:30 - 12:30, 15:30 - 19:30","di":"07:30 - 12:30, 15:30 - 19:30","wo":"07:30 - 12:30","do":"07:30 - 12:30, 15:30 - 19:30","vr":"07:30 - 12:30, 15:30 - 19:30","za":"07:30 - 12:30, 15:30 - 19:30","zo":"gesloten"}}},{"type":"Feature","geometry":{"type":"Point","coordinates":[12.465733,45.716268]},"properties":{"type":"pakketpunt","locatieNaam":"TABACCHERIA N. 2","straatNaam":"PIAZZA GIUSEPPE GARIBALDI 19","straatNr":"","vervoerder":"DHL","puntType":"parcelShop","bezettingsgraad":50,"latitude":45.716268,"longitude":12.465733,"canPickup":true,"canDropoff":true,"openingstijden":{"ma":"06:00 - 20:00","di":"06:00 - 20:00","wo":"06:00 - 20:00","do":"06:00 - 20:00","vr":"06:00 - 20:00","za":"06:00 - 19:00","zo":"gesloten"}}},{"type":"Feature","geometry":{"type":"Point","coordinates":[12.437441,45.733651]},"properties":{"type":"pakketpunt","locatieNaam":"Ufficio Postale NEGRISIA","straatNaam":"VIA CHIESA 46","straatNr":"","vervoerder":"DHL","puntType":"postOffice","bezettingsgraad":50,"latitude":45.733651,"longitude":12.437441,"canPickup":true,"canDropoff":true,"openingstijden":{"ma":"08:20 - 13:45","di":"08:20 - 13:45","wo":"08:20 - 13:45","do":"08:20 - 13:45","vr":"08:20 - 13:45","za":"08:20 - 12:45","zo":"gesloten"}}},{"type":"Feature","geometry":{"type":"Point","coordinates":[12.479551,45.739973]},"properties":{"type":"pakketpunt","locatieNaam":"Ufficio Postale LEVADA DI PONTE DI","straatNaam":"VICOLO DELLA VITTORIA 18","straatNr":"","vervoerder":"DHL","puntType":"postOffice","bezettingsgraad":50,"latitude":45.739973,"longitude":12.479551,"canPickup":true,"canDropoff":true,"openingstijden":{"ma":"08:20 - 13:35","di":"08:20 - 13:35","wo":"08:20 - 13:35","do":"08:20 - 13:35","vr":"08:20 - 13:35","za":"08:20 - 12:35","zo":"gesloten"}}},{"type":"Feature","geometry":{"type":"Point","coordinates":[12.476178,45.739571]},"properties":{"type":"pakketpunt","locatieNaam":"TABACCHERIA N. 11","straatNaam":"VIA DELLA VITTORIA 3","straatNr":"","vervoerder":"DHL","puntType":"parcelShop","bezettingsgraad":50,"latitude":45.739571,"longitude":12.476178,"canPickup":true,"canDropoff":true,"openingstijden":{"ma":"08:30 - 12:30, 16:30 - 18:30","di":"08:30 - 12:30, 16:30 - 18:30","wo":"08:30 - 12:30","do":"08:30 - 12:30, 16:30 - 18:30","vr":"08:30 - 12:30, 16:30 - 18:30","za":"08:30 - 12:30, 16:30 - 18:30","zo":"gesloten"}}},{"type":"Feature","geometry":{"type":"Point","coordinates":[12.484098,45.740847]},"properties":{"type":"pakketpunt","locatieNaam":"Amazon Counter (fermopoint)","straatNaam":"Hotel Ristorante Al Gabbiano","straatNr":"","vervoerder":"Amazon","puntType":"helix","bezettingsgraad":50,"latitude":45.740847,"longitude":12.484098,"canPickup":true,"canDropoff":false,"openingstijden":null}},{"type":"Feature","geometry":{"type":"Point","coordinates":[12.465398,45.716226]},"properties":{"type":"pakketpunt","locatieNaam":"Amazon Counter - GIOCATUTTO","straatNaam":"PIAZZA GIUSEPPE GARIBALDI 14","straatNr":"","vervoerder":"Amazon","puntType":"helix","bezettingsgraad":50,"latitude":45.716226,"longitude":12.465398,"canPickup":true,"canDropoff":false,"openingstijden":null}},{"type":"Feature","geometry":{"type":"Point","coordinates":[12.4373783,45.733025]},"properties":{"type":"pakketpunt","locatieNaam":"Amazon Counter","straatNaam":"Agraria Roma Dino (fermopoint)","straatNr":"","vervoerder":"Amazon","puntType":"helix","bezettingsgraad":50,"latitude":45.733025,"longitude":12.4373783,"canPickup":true,"canDropoff":false,"openingstijden":null}},{"type":"Feature","geometry":{"type":"Point","coordinates":[12.4374,45.7336]},"properties":{"type":"pakketpunt","locatieNaam":"Ufficio Postale NEGRISIA","straatNaam":"VIA CHIESA 46","straatNr":"","vervoerder":"Amazon","puntType":"3p","bezettingsgraad":50,"latitude":45.7336,"longitude":12.4374,"canPickup":true,"canDropoff":false,"openingstijden":null}},{"type":"Feature","geometry":{"type":"Point","coordinates":[12.464515,45.715789]},"properties":{"type":"pakketpunt","locatieNaam":"Amazon Counter - Tabaccheria Barro Marisa","straatNaam":"PIAZZA GIUSEPPE GARIBALDI 43","straatNr":"","vervoerder":"Amazon","puntType":"helix","bezettingsgraad":50,"latitude":45.715789,"longitude":12.464515,"canPickup":true,"canDropoff":false,"openingstijden":null}},{"type":"Feature","geometry":{"type":"Point","coordinates":[12.4639111,45.7173156]},"properties":{"type":"pakketpunt","locatieNaam":"Amazon Counter","straatNaam":"Centro Copie Cenedese (fermopoint)","straatNr":"","vervoerder":"Amazon","puntType":"helix","bezettingsgraad":50,"latitude":45.7173156,"longitude":12.4639111,"canPickup":true,"canDropoff":false,"openingstijden":null}},{"type":"Feature","geometry":{"type":"Point","coordinates":[12.4657,45.7162]},"properties":{"type":"pakketpunt","locatieNaam":"PuntoPoste TABACCHERIA N. 2","straatNaam":"PIAZZA GIUSEPPE GARIBALDI 19","straatNr":"","vervoerder":"Amazon","puntType":"3p","bezettingsgraad":50,"latitude":45.7162,"longitude":12.4657,"canPickup":true,"canDropoff":false,"openingstijden":null}},{"type":"Feature","geometry":{"type":"Point","coordinates":[12.4644,45.7157]},"properties":{"type":"pakketpunt","locatieNaam":"PuntoPoste TABACCHERIA N. 14","straatNaam":"PIAZZA GIUSEPPE GARIBALDI 43","straatNr":"","vervoerder":"Amazon","puntType":"3p","bezettingsgraad":50,"latitude":45.7157,"longitude":12.4644,"canPickup":true,"canDropoff":false,"openingstijden":null}},{"type":"Feature","geometry":{"type":"Point","coordinates":[12.4635,45.715]},"properties":{"type":"pakketpunt","locatieNaam":"Ufficio Postale PONTE DI PIAVE","straatNaam":"PIAZZA GIUSEPPE GARIBALDI 73","straatNr":"","vervoerder":"Amazon","puntType":"3p","bezettingsgraad":50,"latitude":45.715,"longitude":12.4635,"canPickup":true,"canDropoff":false,"openingstijden":null}},{"type":"Feature","geometry":{"type":"Point","coordinates":[12.4795,45.7399]},"properties":{"type":"pakketpunt","locatieNaam":"Ufficio Postale LEVADA DI PONTE DI PIAVE","straatNaam":"VICOLO DELLA VITTORIA 18","straatNr":"","vervoerder":"Amazon","puntType":"3p","bezettingsgraad":50,"latitude":45.7399,"longitude":12.4795,"canPickup":true,"canDropoff":false,"openingstijden":null}},{"type":"Feature","geometry":{"type":"Point","coordinates":[12.437497167790998,45.73308221390647]},"properties":{"type":"pakketpunt","locatieNaam":"FedEx OnSite","straatNaam":"Via Chiesa, 32","straatNr":"","vervoerder":"FedEx","puntType":"servicepunt","bezettingsgraad":50,"latitude":45.73308221390647,"longitude":12.437497167790998,"canPickup":true,"canDropoff":true,"openingstijden":{"ma":"08:00 - 12:00, 14:30 - 18:30","di":"08:00 - 12:00, 14:30 - 18:30","wo":"08:00 - 12:00, 14:30 - 18:30","do":"08:00 - 12:00, 14:30 - 18:30","vr":"08:00 - 12:00, 14:30 - 18:30","za":"08:00 - 12:00","zo":"gesloten"}}},{"type":"Feature","geometry":{"type":"Point","coordinates":[12.465758,45.715316]},"properties":{"type":"pakketpunt","locatieNaam":"FedEx OnSite","straatNaam":"VIA SOTTO TREVISO 4","straatNr":"","vervoerder":"FedEx","puntType":"servicepunt","bezettingsgraad":50,"latitude":45.715316,"longitude":12.465758,"canPickup":true,"canDropoff":true,"openingstijden":{"ma":"15:30 - 19:30","di":"09:30 - 12:30, 15:30 - 19:30","wo":"15:30 - 19:30","do":"09:30 - 12:30, 15:30 - 19:30","vr":"09:30 - 12:30, 15:30 - 19:30","za":"09:30 - 12:30","zo":"gesloten"}}},{"type":"Feature","geometry":{"type":"Polygon","coordinates":[[[12.3953215,45.741394],[12.410702,45.7258259],[12.4131241,45.7232828],[12.4156867,45.7210438],[12.4167626,45.7205578],[12.4200137,45.7186378],[12.4281065,45.7157471],[12.4313928,45.7144069],[12.4352386,45.7129912],[12.4405647,45.711277],[12.4472408,45.7124872],[12.4539152,45.7107979],[12.4603833,45.7067311],[12.4625829,45.7055377],[12.4636082,45.7047804],[12.4657191,45.7073736],[12.4688216,45.7074386],[12.4703084,45.7062937],[12.4713924,45.7066678],[12.4719635,45.7070515],[12.4725591,45.7076941],[12.473782,45.7085417],[12.4746609,45.7094075],[12.4749418,45.709865],[12.4749428,45.7111019],[12.4747105,45.7118345],[12.4745671,45.7121044],[12.4732786,45.7132521],[12.4726094,45.7144818],[12.4722864,45.7144326],[12.4707979,45.7151445],[12.4700622,45.7153674],[12.4691293,45.7155315],[12.469012,45.715948],[12.46888,45.7159933],[12.4687034,45.7164057],[12.4687766,45.7166353],[12.4686509,45.7167807],[12.4676854,45.7169651],[12.4677954,45.7172739],[12.4671457,45.7175048],[12.4716424,45.724282],[12.481091,45.7208749],[12.4810985,45.7195061],[12.4856544,45.7181488],[12.4858742,45.7189738],[12.4870165,45.7189271],[12.4870736,45.7193029],[12.4869568,45.7197254],[12.4866624,45.7201354],[12.4883156,45.7216632],[12.4889946,45.7214772],[12.4891061,45.7216449],[12.4895136,45.7215616],[12.489727,45.7233628],[12.4896298,45.7234247],[12.4896347,45.7237726],[12.4898162,45.7246578],[12.490808,45.7278652],[12.4919026,45.7275898],[12.4944199,45.7255485],[12.4959838,45.7246964],[12.4973286,45.7241125],[12.4986457,45.7237594],[12.5011261,45.72373],[12.5029349,45.7235043],[12.5050154,45.722737],[12.5072089,45.7218081],[12.507485,45.7216002],[12.5084237,45.7199447],[12.5086283,45.7197327],[12.5103629,45.7186389],[12.5110181,45.7169048],[12.5108532,45.7164485],[12.5113115,45.7161175],[12.5121223,45.7162091],[12.5126073,45.7161444],[12.5131059,45.7157143],[12.5130059,45.7154627],[12.5141002,45.7147279],[12.5141552,45.7144128],[12.5142867,45.7142271],[12.5151204,45.713626],[12.5154902,45.7136333],[12.5161348,45.7138325],[12.5163986,45.7142735],[12.5166136,45.7149404],[12.5170364,45.715052],[12.5174474,45.7153982],[12.5180048,45.7156924],[12.5186253,45.7157734],[12.5187336,45.7159612],[12.5190674,45.7161923],[12.5190556,45.7164793],[12.5192689,45.7171204],[12.5189833,45.7173949],[12.5190538,45.7177213],[12.5192535,45.717827],[12.5196172,45.7178455],[12.5204436,45.717284],[12.5214727,45.7169309],[12.521762,45.7171411],[12.5236692,45.7173138],[12.5241856,45.7169017],[12.5249828,45.7166192],[12.5262884,45.7165881],[12.5264481,45.716483],[12.5266636,45.7159978],[12.5274376,45.7158874],[12.5295233,45.7147967],[12.5351967,45.7110612],[12.5362916,45.7146313],[12.5364819,45.7145882],[12.5367852,45.7155989],[12.5378754,45.7153717],[12.5381782,45.7162151],[12.5384761,45.7162966],[12.5378019,45.7172613],[12.5373317,45.7170335],[12.5363582,45.7193698],[12.535008,45.7190621],[12.5346392,45.7204928],[12.5337456,45.7203563],[12.5327769,45.720349],[12.5314441,45.7206859],[12.5312016,45.7207808],[12.5312051,45.7208649],[12.5307686,45.7209446],[12.5306926,45.7210297],[12.5309761,45.7214421],[12.5313094,45.7213992],[12.5314045,45.7214825],[12.5313359,45.7219245],[12.5317464,45.7223126],[12.5310404,45.7224614],[12.5315311,45.7231736],[12.5323422,45.7242685],[12.5325773,45.7244126],[12.5330664,45.7244673],[12.5328686,45.7246015],[12.532824,45.7248918],[12.5324524,45.7253001],[12.5312874,45.7270141],[12.5309485,45.7272614],[12.5307731,45.7275281],[12.5307091,45.727879],[12.5280691,45.7318913],[12.5277269,45.7322921],[12.5277554,45.7325657],[12.5281186,45.7333414],[12.5281603,45.733756],[12.527911,45.7346153],[12.5284803,45.7350349],[12.528546,45.7351833],[12.5283618,45.7353108],[12.5285223,45.73715],[12.5283537,45.7378715],[12.52848,45.7380324],[12.5282265,45.7385257],[12.5275933,45.7392418],[12.5273571,45.7398191],[12.5268725,45.7400257],[12.526805,45.7401492],[12.5279854,45.7414129],[12.5296727,45.7428823],[12.5310067,45.7449092],[12.5293513,45.745385],[12.5284232,45.745548],[12.5280534,45.7457929],[12.5278194,45.7458514],[12.5273708,45.7458143],[12.526239,45.7460908],[12.5259471,45.7462509],[12.5257594,45.7465889],[12.5252818,45.7464501],[12.524662,45.746703],[12.5243886,45.7466474],[12.5228385,45.7457779],[12.5223229,45.7456529],[12.5222552,45.7452883],[12.5216761,45.7452368],[12.5196621,45.7448235],[12.5190373,45.7448882],[12.5184832,45.7447212],[12.5179847,45.7449382],[12.5176356,45.7453493],[12.5170158,45.7455316],[12.5167527,45.7454195],[12.5145979,45.7452791],[12.513272,45.7449041],[12.5123593,45.7448649],[12.5119617,45.7449236],[12.5115772,45.7451371],[12.5105465,45.7451113],[12.5100858,45.7449493],[12.505992,45.7460328],[12.5054474,45.7460783],[12.5031949,45.7459951],[12.5027427,45.7462177],[12.5024297,45.7465438],[12.5021292,45.7470712],[12.5019632,45.7471914],[12.5008023,45.7474733],[12.5000455,45.7475701],[12.4983352,45.747364],[12.4981961,45.7471888],[12.4980213,45.7461888],[12.4978532,45.7460621],[12.4933513,45.7454374],[12.490254,45.7456863],[12.4876796,45.74648],[12.487257,45.7465125],[12.484646,45.7447924],[12.483325,45.7432633],[12.4816999,45.7420608],[12.4759605,45.7411531],[12.4731454,45.740386],[12.4707067,45.7401395],[12.4706332,45.7404387],[12.4699506,45.7401697],[12.469747,45.7402079],[12.4697997,45.7405998],[12.4701612,45.7415985],[12.4704776,45.7430943],[12.470248,45.7431321],[12.470392,45.7434372],[12.4703309,45.7438087],[12.4702254,45.7439128],[12.4706508,45.7447639],[12.4716744,45.7450801],[12.4719841,45.7450426],[12.4729983,45.7455874],[12.4729632,45.7456668],[12.4725172,45.7459576],[12.4722564,45.7460258],[12.4706889,45.7462276],[12.4700428,45.7461225],[12.4695844,45.7462149],[12.469606,45.7463039],[12.4695135,45.7463599],[12.4666648,45.747655],[12.4660096,45.7481969],[12.4622035,45.7504438],[12.4596304,45.750968],[12.4592107,45.7512592],[12.458272,45.7515986],[12.4569033,45.7518211],[12.4568014,45.7518751],[12.4565329,45.7527467],[12.4563334,45.753059],[12.4560338,45.7533605],[12.455695,45.75351],[12.4554219,45.7532747],[12.4556073,45.7531367],[12.4554238,45.7529857],[12.454548,45.7534577],[12.4539754,45.7530434],[12.4538311,45.7531209],[12.452837,45.7537717],[12.4521931,45.754296],[12.4512568,45.7548373],[12.4510206,45.7550393],[12.4511125,45.7552384],[12.4499278,45.7561875],[12.4451723,45.759312],[12.4450553,45.7596742],[12.4447247,45.7597174],[12.4446851,45.7598823],[12.4444243,45.7599249],[12.4442088,45.7611115],[12.4427444,45.7609812],[12.4322594,45.7595005],[12.4326129,45.7587169],[12.4330677,45.7582084],[12.43298,45.7581407],[12.4329951,45.7578416],[12.4331558,45.7574621],[12.4342069,45.7568683],[12.4346339,45.7567384],[12.4350383,45.7563894],[12.4351186,45.7561996],[12.4357389,45.755812],[12.4361026,45.7558772],[12.4361117,45.7557539],[12.4363123,45.7556132],[12.4362011,45.7551657],[12.4368419,45.7551113],[12.4368702,45.7550284],[12.4373645,45.7547676],[12.4372416,45.754537],[12.4372983,45.7543861],[12.4372157,45.7541309],[12.4378184,45.7533222],[12.4377347,45.7531842],[12.4384423,45.7529931],[12.4381832,45.7527256],[12.4388949,45.7523294],[12.4388207,45.752194],[12.439137,45.7518976],[12.4391568,45.7516745],[12.4394025,45.7515909],[12.4394393,45.7515079],[12.4392594,45.7513024],[12.4395296,45.7510718],[12.4394741,45.7509856],[12.4391767,45.7510473],[12.4390639,45.7509804],[12.4391769,45.7507779],[12.4390903,45.7505932],[12.439173,45.7503067],[12.4390809,45.7500342],[12.4393619,45.7499789],[12.4393848,45.7498084],[12.4395759,45.7496504],[12.439123,45.7494942],[12.4390588,45.7494024],[12.4390463,45.7486961],[12.4383134,45.7486388],[12.4377637,45.7487696],[12.4377258,45.748951],[12.4378613,45.7491924],[12.4374667,45.749561],[12.4371104,45.7496603],[12.4366572,45.7496285],[12.4363263,45.7494207],[12.4357708,45.7495043],[12.4342757,45.7486169],[12.4320614,45.7490375],[12.4295446,45.7478281],[12.4256537,45.7446436],[12.4243121,45.7457544],[12.4228569,45.744723],[12.4230232,45.7444243],[12.4214345,45.7434509],[12.4202695,45.742589],[12.4201634,45.7426072],[12.4202365,45.742901],[12.4201098,45.7431342],[12.4200495,45.7440536],[12.4201064,45.744783],[12.4204762,45.745068],[12.4201076,45.7455554],[12.4199849,45.7458529],[12.4196688,45.7461465],[12.4187308,45.7465437],[12.4176024,45.7471896],[12.4171256,45.7467616],[12.4142978,45.748027],[12.4136082,45.7481281],[12.412467,45.7472702],[12.4114501,45.7466654],[12.4121696,45.7451722],[12.4126227,45.7450612],[12.4129475,45.7447339],[12.4131964,45.7446502],[12.4136294,45.7446076],[12.4141754,45.7448327],[12.4145559,45.7447239],[12.4148234,45.7445465],[12.4149095,45.7443718],[12.4149119,45.744016],[12.4152868,45.7440132],[12.4156222,45.7437619],[12.4155075,45.7434688],[12.41481,45.7431382],[12.4145121,45.742912],[12.41465,45.7425948],[12.4141986,45.7415373],[12.4142205,45.7412023],[12.4144499,45.7408019],[12.4151114,45.7405494],[12.4154475,45.7402134],[12.4157727,45.7390596],[12.4177244,45.7376831],[12.416452,45.7334525],[12.3953215,45.741394]]]},"properties":{"type":"boundary","gemeente":"Ponte di Piave"}}]}