{"type":"FeatureCollection","metadata":{"gemeente":"Pontecorvo","slug":"pontecorvo","generated_at":"2026-09-26T14:27:47.695294Z","total_points":55,"providers":["PosteItaliane","DPD","InPost","GLS","DHL","Amazon","FedEx"],"bounds":[13.6277725,41.44143,13.6825,41.4700218]},"features":[{"type":"Feature","geometry":{"type":"Point","coordinates":[13.66945107,41.45514086]},"properties":{"type":"pakketpunt","locatieNaam":"Tabaccheria N. 14","straatNaam":"Via Tre Fontane Snc","straatNr":"1","vervoerder":"PosteItaliane","puntType":"servicepunt","bezettingsgraad":50,"latitude":41.45514086,"longitude":13.66945107,"canPickup":true,"canDropoff":true,"openingstijden":{"za":"06:00 - 13:00, 15:30 - 20:00","zo":"07:30 - 13:00","ma":"06:00 - 13:00, 15:30 - 20:00","di":"06:00 - 13:00, 15:30 - 20:00","wo":"06:00 - 13:00, 15:30 - 20:00","do":"06:00 - 13:00, 15:30 - 20:00","vr":"06:00 - 13:00, 15:30 - 20:00"}}},{"type":"Feature","geometry":{"type":"Point","coordinates":[13.66707161,41.45658148]},"properties":{"type":"pakketpunt","locatieNaam":"Pontecorvo","straatNaam":"Via Porta Leone","straatNr":"1","vervoerder":"PosteItaliane","puntType":"postkantoor","bezettingsgraad":50,"latitude":41.45658148,"longitude":13.66707161,"canPickup":true,"canDropoff":true,"openingstijden":{"za":"08:20 - 12:35","zo":"gesloten","ma":"08:20 - 19:05","di":"08:20 - 19:05","wo":"08:20 - 19:05","do":"08:20 - 19:05","vr":"08:20 - 19:05"}}},{"type":"Feature","geometry":{"type":"Point","coordinates":[13.66412521,41.45328041]},"properties":{"type":"pakketpunt","locatieNaam":"Pastine Di Pontecorvo","straatNaam":"Via Sant'antonio Snc","straatNr":"1","vervoerder":"PosteItaliane","puntType":"postkantoor","bezettingsgraad":50,"latitude":41.45328041,"longitude":13.66412521,"canPickup":true,"canDropoff":true,"openingstijden":{"za":"08:20 - 12:35","zo":"gesloten","ma":"08:20 - 13:35","di":"08:20 - 13:35","wo":"08:20 - 13:35","do":"08:20 - 13:35","vr":"08:20 - 13:35"}}},{"type":"Feature","geometry":{"type":"Point","coordinates":[13.66612428,41.45732978]},"properties":{"type":"pakketpunt","locatieNaam":"Tabaccheria N. 9","straatNaam":"Corso Vittorio Emanuele","straatNr":"2","vervoerder":"PosteItaliane","puntType":"servicepunt","bezettingsgraad":50,"latitude":41.45732978,"longitude":13.66612428,"canPickup":true,"canDropoff":true,"openingstijden":{"za":"07:30 - 13:00, 15:30 - 19:30","zo":"gesloten","ma":"07:30 - 13:00, 15:30 - 19:30","di":"07:30 - 13:00, 15:30 - 19:30","wo":"07:30 - 13:00, 15:30 - 19:30","do":"07:30 - 13:00, 15:30 - 19:30","vr":"07:30 - 13:00, 15:30 - 19:30"}}},{"type":"Feature","geometry":{"type":"Point","coordinates":[13.66655129,41.45498384]},"properties":{"type":"pakketpunt","locatieNaam":"Tabaccheria N. 3","straatNaam":"Via Masella Cardinale Aloisi","straatNr":"9","vervoerder":"PosteItaliane","puntType":"servicepunt","bezettingsgraad":50,"latitude":41.45498384,"longitude":13.66655129,"canPickup":true,"canDropoff":true,"openingstijden":{"za":"07:00 - 13:30, 15:30 - 19:50","zo":"gesloten","ma":"07:00 - 13:30, 15:30 - 19:50","di":"07:00 - 13:30, 15:30 - 19:50","wo":"07:00 - 13:30, 15:30 - 19:50","do":"07:00 - 13:30, 15:30 - 19:50","vr":"07:00 - 13:30, 15:30 - 19:50"}}},{"type":"Feature","geometry":{"type":"Point","coordinates":[13.66500696,41.46193279]},"properties":{"type":"pakketpunt","locatieNaam":"Tabaccheria N. 17","straatNaam":"Via San Giovanni Battista","straatNr":"47","vervoerder":"PosteItaliane","puntType":"servicepunt","bezettingsgraad":50,"latitude":41.46193279,"longitude":13.66500696,"canPickup":true,"canDropoff":true,"openingstijden":{"za":"08:00 - 13:00, 15:30 - 19:30","zo":"gesloten","ma":"08:00 - 13:00, 15:30 - 19:30","di":"08:00 - 13:00, 15:30 - 19:30","wo":"08:00 - 13:00, 15:30 - 19:30","do":"08:00 - 13:00, 15:30 - 19:30","vr":"08:00 - 13:00, 15:30 - 19:30"}}},{"type":"Feature","geometry":{"type":"Point","coordinates":[13.66548408,41.46163963]},"properties":{"type":"pakketpunt","locatieNaam":"Tabaccheria N. 24","straatNaam":"Via San Giovanni Battista Snc","straatNr":"12","vervoerder":"PosteItaliane","puntType":"servicepunt","bezettingsgraad":50,"latitude":41.46163963,"longitude":13.66548408,"canPickup":true,"canDropoff":true,"openingstijden":{"za":"05:00 - 23:00","zo":"05:00 - 23:00","ma":"05:00 - 23:00","di":"05:00 - 23:00","wo":"05:00 - 23:00","do":"05:00 - 23:00","vr":"05:00 - 23:00"}}},{"type":"Feature","geometry":{"type":"Point","coordinates":[13.66636039,41.45847927]},"properties":{"type":"pakketpunt","locatieNaam":"Tabaccheria N. 4","straatNaam":"Via Santa Maria Di Porta","straatNr":"5","vervoerder":"PosteItaliane","puntType":"servicepunt","bezettingsgraad":50,"latitude":41.45847927,"longitude":13.66636039,"canPickup":true,"canDropoff":true,"openingstijden":{"za":"07:30 - 13:00, 15:30 - 19:30","zo":"09:00 - 12:30","ma":"07:30 - 13:00, 15:30 - 19:30","di":"07:30 - 13:00, 15:30 - 19:30","wo":"07:30 - 13:00, 15:30 - 19:30","do":"07:30 - 13:00, 15:30 - 19:30","vr":"07:30 - 13:00, 15:30 - 19:30"}}},{"type":"Feature","geometry":{"type":"Point","coordinates":[13.66953291,41.4600532]},"properties":{"type":"pakketpunt","locatieNaam":"Ewtstore","straatNaam":"Via Ventiquattro Maggio","straatNr":"76","vervoerder":"PosteItaliane","puntType":"servicepunt","bezettingsgraad":50,"latitude":41.4600532,"longitude":13.66953291,"canPickup":true,"canDropoff":true,"openingstijden":{"za":"09:00 - 12:30","zo":"gesloten","ma":"09:00 - 12:30, 16:00 - 19:30","di":"09:00 - 12:30, 16:00 - 19:30","wo":"09:00 - 12:30, 16:00 - 19:30","do":"09:00 - 12:30, 16:00 - 18:00","vr":"09:00 - 12:30, 16:00 - 19:30"}}},{"type":"Feature","geometry":{"type":"Point","coordinates":[13.66381158,41.45453342]},"properties":{"type":"pakketpunt","locatieNaam":"Tabaccheria N. 16","straatNaam":"Via Le Croci","straatNr":"32","vervoerder":"PosteItaliane","puntType":"servicepunt","bezettingsgraad":50,"latitude":41.45453342,"longitude":13.66381158,"canPickup":true,"canDropoff":true,"openingstijden":{"za":"07:30 - 13:00","zo":"gesloten","ma":"07:30 - 13:00","di":"07:30 - 13:00","wo":"07:30 - 13:00","do":"07:30 - 13:00","vr":"07:30 - 13:00"}}},{"type":"Feature","geometry":{"type":"Point","coordinates":[13.6692568,41.4543722]},"properties":{"type":"pakketpunt","locatieNaam":"Stradone Casalinghi","straatNaam":"VIA VENERABILE S. M. T. ZONFRILLI","straatNr":"1","vervoerder":"DPD","puntType":"pickup_point","bezettingsgraad":50,"latitude":41.4543722,"longitude":13.6692568,"canPickup":true,"canDropoff":true,"openingstijden":{"ma":"08:30 - 13:00, 15:30 - 20:00","di":"08:30 - 13:00, 15:30 - 20:00","wo":"08:30 - 13:00, 15:30 - 20:00","do":"08:30 - 13:00","vr":"08:30 - 13:00, 15:30 - 20:00","za":"08:30 - 13:00, 15:30 - 20:00","zo":"gesloten"}}},{"type":"Feature","geometry":{"type":"Point","coordinates":[13.6696629411,41.4601312725]},"properties":{"type":"pakketpunt","locatieNaam":"Ewt Store","straatNaam":"VIA XXIV MAGGIO","straatNr":"76","vervoerder":"DPD","puntType":"pickup_point","bezettingsgraad":50,"latitude":41.4601312725,"longitude":13.6696629411,"canPickup":true,"canDropoff":true,"openingstijden":{"ma":"09:00 - 12:30, 16:00 - 19:00","di":"09:00 - 12:30, 16:00 - 19:00","wo":"09:00 - 12:30, 16:00 - 19:00","do":"09:00 - 12:30, 16:00 - 19:00","vr":"09:00 - 12:30, 16:00 - 19:00","za":"09:00 - 12:30","zo":"gesloten"}}},{"type":"Feature","geometry":{"type":"Point","coordinates":[13.6610486472,41.4667495519]},"properties":{"type":"pakketpunt","locatieNaam":"Elda Snc","straatNaam":"VIA SAN G.BATTISTA","straatNr":"49","vervoerder":"DPD","puntType":"pickup_point","bezettingsgraad":50,"latitude":41.4667495519,"longitude":13.6610486472,"canPickup":false,"canDropoff":true,"openingstijden":{"ma":"08:00 - 13:00, 16:00 - 20:00","di":"08:00 - 13:00, 16:00 - 20:00","wo":"08:00 - 13:00, 16:00 - 20:00","do":"08:00 - 13:00, 16:00 - 20:00","vr":"08:00 - 13:00, 16:00 - 20:00","za":"08:00 - 13:00, 16:00 - 20:00","zo":"gesloten"}}},{"type":"Feature","geometry":{"type":"Point","coordinates":[13.66896003,41.47000825]},"properties":{"type":"pakketpunt","locatieNaam":"Mio Bar 13","straatNaam":"V.LE D. ALIGHIERI","straatNr":"SNC","vervoerder":"DPD","puntType":"pickup_point","bezettingsgraad":50,"latitude":41.47000825,"longitude":13.66896003,"canPickup":true,"canDropoff":true,"openingstijden":{"ma":"06:00 - 21:00","di":"06:00 - 21:00","wo":"06:00 - 21:00","do":"06:00 - 21:00","vr":"06:00 - 21:00","za":"06:00 - 21:00","zo":"06:00 - 21:00"}}},{"type":"Feature","geometry":{"type":"Point","coordinates":[13.6654296,41.4584846]},"properties":{"type":"pakketpunt","locatieNaam":"Mi Point Multi Servizi","straatNaam":"VIA S. MARIA DI PORTA","straatNr":"35","vervoerder":"DPD","puntType":"pickup_point","bezettingsgraad":50,"latitude":41.4584846,"longitude":13.6654296,"canPickup":true,"canDropoff":true,"openingstijden":{"ma":"08:00 - 13:00, 16:00 - 20:00","di":"08:00 - 13:00, 16:00 - 20:00","wo":"08:00 - 13:00, 16:00 - 20:00","do":"08:00 - 13:00, 16:00 - 20:00","vr":"08:00 - 13:00, 16:00 - 20:00","za":"08:00 - 13:00","zo":"gesloten"}}},{"type":"Feature","geometry":{"type":"Point","coordinates":[13.6277725,41.4522919]},"properties":{"type":"pakketpunt","locatieNaam":"L'Arte del Regalo","straatNaam":"VIA LEUCIANA","straatNr":"SNC","vervoerder":"DPD","puntType":"pickup_point","bezettingsgraad":50,"latitude":41.4522919,"longitude":13.6277725,"canPickup":true,"canDropoff":true,"openingstijden":{"ma":"09:00 - 13:00, 16:00 - 19:00","di":"09:00 - 13:00, 16:00 - 19:00","wo":"09:00 - 13:00, 16:00 - 19:00","do":"09:00 - 13:00, 16:00 - 19:00","vr":"09:00 - 13:00, 16:00 - 19:00","za":"09:00 - 13:00, 16:00 - 19:00","zo":"gesloten"}}},{"type":"Feature","geometry":{"type":"Point","coordinates":[13.6656012,41.460529]},"properties":{"type":"pakketpunt","locatieNaam":"Il Bello Delle Donne","straatNaam":"VIA S. G. BATTISTA","straatNr":"17","vervoerder":"DPD","puntType":"pickup_point","bezettingsgraad":50,"latitude":41.460529,"longitude":13.6656012,"canPickup":true,"canDropoff":true,"openingstijden":{"ma":"08:30 - 13:00, 16:00 - 19:30","di":"08:30 - 13:00, 16:00 - 19:30","wo":"08:30 - 13:00, 16:00 - 19:30","do":"08:30 - 13:00, 16:00 - 19:30","vr":"08:30 - 13:00, 16:00 - 19:30","za":"08:30 - 13:00, 16:00 - 19:30","zo":"gesloten"}}},{"type":"Feature","geometry":{"type":"Point","coordinates":[13.66958,41.46008]},"properties":{"type":"pakketpunt","locatieNaam":"InPost Point","straatNaam":"Via XXIV Maggio","straatNr":"76","vervoerder":"InPost","puntType":"servicepunt","bezettingsgraad":50,"latitude":41.46008,"longitude":13.66958,"canPickup":true,"canDropoff":true,"openingstijden":"Lun-Ven: 08:30 - 12:30 - 16:00 - 19:30 Sab: 08:30 - 12:30"}},{"type":"Feature","geometry":{"type":"Point","coordinates":[13.66885,41.45432]},"properties":{"type":"pakketpunt","locatieNaam":"InPost Point","straatNaam":"VIA Venerabile suor Maria Teresina Zonfrilli","straatNr":"Snc","vervoerder":"InPost","puntType":"servicepunt","bezettingsgraad":50,"latitude":41.45432,"longitude":13.66885,"canPickup":true,"canDropoff":true,"openingstijden":"Lun-Mer: 08:30 - 13:00 - 16:00 - 20:00 Gio: 08:30 - 13:00 Ven-Sab: 08:30 - 13:00 - 16:00 - 20:00"}},{"type":"Feature","geometry":{"type":"Point","coordinates":[13.66083,41.46671]},"properties":{"type":"pakketpunt","locatieNaam":"InPost Locker","straatNaam":"Via San Giovanni Battista","straatNr":"49","vervoerder":"InPost","puntType":"automaat","bezettingsgraad":50,"latitude":41.46671,"longitude":13.66083,"canPickup":true,"canDropoff":true,"openingstijden":null}},{"type":"Feature","geometry":{"type":"Point","coordinates":[13.6825,41.44143]},"properties":{"type":"pakketpunt","locatieNaam":"InPost Locker 24/7","straatNaam":"Via Ravano","straatNr":"KM 1, 80","vervoerder":"InPost","puntType":"automaat","bezettingsgraad":50,"latitude":41.44143,"longitude":13.6825,"canPickup":true,"canDropoff":true,"openingstijden":null}},{"type":"Feature","geometry":{"type":"Point","coordinates":[13.66543,41.45848]},"properties":{"type":"pakketpunt","locatieNaam":"InPost Locker","straatNaam":"Via Santa Maria di Porta","straatNr":"35","vervoerder":"InPost","puntType":"automaat","bezettingsgraad":50,"latitude":41.45848,"longitude":13.66543,"canPickup":true,"canDropoff":true,"openingstijden":null}},{"type":"Feature","geometry":{"type":"Point","coordinates":[13.6682789,41.4542435]},"properties":{"type":"pakketpunt","locatieNaam":"STRADONE CASALINGHI","straatNaam":"Via Venerab.Suor Maria Teresina Zonfrilli","straatNr":"01","vervoerder":"GLS","puntType":"parcel_shop","bezettingsgraad":50,"latitude":41.4542435,"longitude":13.6682789,"canPickup":true,"canDropoff":true,"openingstijden":"za: 08:30 - 13:00, 15:30 - 20:00; ma: 08:30 - 13:00, 15:30 - 20:00"}},{"type":"Feature","geometry":{"type":"Point","coordinates":[13.6659512,41.4573929]},"properties":{"type":"pakketpunt","locatieNaam":"Centro post@","straatNaam":"Corso Vittorio Emanuele","straatNr":"3","vervoerder":"GLS","puntType":"parcel_shop","bezettingsgraad":50,"latitude":41.4573929,"longitude":13.6659512,"canPickup":true,"canDropoff":true,"openingstijden":"za: 08:30 - 13:00; ma: 08:30 - 13:00, 15:30 - 19:00"}},{"type":"Feature","geometry":{"type":"Point","coordinates":[13.6654296,41.4584846]},"properties":{"type":"pakketpunt","locatieNaam":"Mi point Multiservizi","straatNaam":"Via Santa Maria Di Porta","straatNr":"35","vervoerder":"GLS","puntType":"parcel_shop","bezettingsgraad":50,"latitude":41.4584846,"longitude":13.6654296,"canPickup":true,"canDropoff":true,"openingstijden":"za: 08:00 - 13:00, 15:30 - 19:30; ma: 08:00 - 13:00, 15:30 - 19:30"}},{"type":"Feature","geometry":{"type":"Point","coordinates":[13.6681788,41.4589151]},"properties":{"type":"pakketpunt","locatieNaam":"Ciammotta Lab","straatNaam":"Via La Cupa","straatNr":"2","vervoerder":"GLS","puntType":"parcel_shop","bezettingsgraad":50,"latitude":41.4589151,"longitude":13.6681788,"canPickup":true,"canDropoff":true,"openingstijden":"ma: 09:00 - 13:00, 16:00 - 19:00; di: 09:00 - 13:00"}},{"type":"Feature","geometry":{"type":"Point","coordinates":[13.6696325,41.4600485]},"properties":{"type":"pakketpunt","locatieNaam":"Ewtstore","straatNaam":"Via Xxiv Maggio","straatNr":"76","vervoerder":"GLS","puntType":"parcel_shop","bezettingsgraad":50,"latitude":41.4600485,"longitude":13.6696325,"canPickup":true,"canDropoff":true,"openingstijden":"za: 09:00 - 13:00; ma: 09:00 - 13:00, 16:00 - 19:30"}},{"type":"Feature","geometry":{"type":"Point","coordinates":[13.669451,41.455141]},"properties":{"type":"pakketpunt","locatieNaam":"TABACCHERIA N. 14","straatNaam":"VIA TRE FONTANE SNC 1","straatNr":"","vervoerder":"DHL","puntType":"parcelShop","bezettingsgraad":50,"latitude":41.455141,"longitude":13.669451,"canPickup":true,"canDropoff":true,"openingstijden":{"ma":"06:00 - 13:00, 15:30 - 20:00","di":"06:00 - 13:00, 15:30 - 20:00","wo":"06:00 - 13:00, 15:30 - 20:00","do":"06:00 - 13:00, 15:30 - 20:00","vr":"06:00 - 13:00, 15:30 - 20:00","za":"06:00 - 13:00, 15:30 - 20:00","zo":"07:30 - 13:00"}}},{"type":"Feature","geometry":{"type":"Point","coordinates":[13.664125,41.45328]},"properties":{"type":"pakketpunt","locatieNaam":"Ufficio Postale PASTINE DI PONTECOR","straatNaam":"VIA SANTANTONIO SNC 1","straatNr":"","vervoerder":"DHL","puntType":"postOffice","bezettingsgraad":50,"latitude":41.45328,"longitude":13.664125,"canPickup":true,"canDropoff":true,"openingstijden":{"ma":"08:20 - 13:35","di":"08:20 - 13:35","wo":"08:20 - 13:35","do":"08:20 - 13:35","vr":"08:20 - 13:35","za":"08:20 - 12:35","zo":"gesloten"}}},{"type":"Feature","geometry":{"type":"Point","coordinates":[13.666551,41.454984]},"properties":{"type":"pakketpunt","locatieNaam":"TABACCHERIA N. 3","straatNaam":"VIA MASELLA CARDINALE ALOISI 9","straatNr":"","vervoerder":"DHL","puntType":"parcelShop","bezettingsgraad":50,"latitude":41.454984,"longitude":13.666551,"canPickup":true,"canDropoff":true,"openingstijden":{"ma":"07:00 - 13:30, 15:30 - 19:50","di":"07:00 - 13:30, 15:30 - 19:50","wo":"07:00 - 13:30, 15:30 - 19:50","do":"07:00 - 13:30, 15:30 - 19:50","vr":"07:00 - 13:30, 15:30 - 19:50","za":"07:00 - 13:30, 15:30 - 19:50","zo":"gesloten"}}},{"type":"Feature","geometry":{"type":"Point","coordinates":[13.663812,41.454533]},"properties":{"type":"pakketpunt","locatieNaam":"TABACCHERIA N. 16","straatNaam":"VIA LE CROCI 32","straatNr":"","vervoerder":"DHL","puntType":"parcelShop","bezettingsgraad":50,"latitude":41.454533,"longitude":13.663812,"canPickup":true,"canDropoff":true,"openingstijden":{"ma":"07:30 - 13:00","di":"07:30 - 13:00","wo":"07:30 - 13:00","do":"07:30 - 13:00","vr":"07:30 - 13:00","za":"07:30 - 13:00","zo":"gesloten"}}},{"type":"Feature","geometry":{"type":"Point","coordinates":[13.667072,41.456581]},"properties":{"type":"pakketpunt","locatieNaam":"Ufficio Postale PONTECORVO","straatNaam":"VIA PORTA LEONE 1","straatNr":"","vervoerder":"DHL","puntType":"postOffice","bezettingsgraad":50,"latitude":41.456581,"longitude":13.667072,"canPickup":true,"canDropoff":true,"openingstijden":{"ma":"08:20 - 19:05","di":"08:20 - 19:05","wo":"08:20 - 19:05","do":"08:20 - 19:05","vr":"08:20 - 19:05","za":"08:20 - 12:35","zo":"gesloten"}}},{"type":"Feature","geometry":{"type":"Point","coordinates":[13.666491,41.456489]},"properties":{"type":"pakketpunt","locatieNaam":"AEMME","straatNaam":"IV Novembre, 23","straatNr":"","vervoerder":"DHL","puntType":"parcelShop","bezettingsgraad":50,"latitude":41.456489,"longitude":13.666491,"canPickup":false,"canDropoff":true,"openingstijden":{"ma":"10:00 - 19:30","di":"10:00 - 19:30","wo":"10:00 - 13:00","do":"10:00 - 19:30","vr":"10:00 - 19:30","za":"10:00 - 13:00","zo":"gesloten"}}},{"type":"Feature","geometry":{"type":"Point","coordinates":[13.666124,41.45733]},"properties":{"type":"pakketpunt","locatieNaam":"TABACCHERIA N. 9","straatNaam":"CORSO VITTORIO EMANUELE 2","straatNr":"","vervoerder":"DHL","puntType":"parcelShop","bezettingsgraad":50,"latitude":41.45733,"longitude":13.666124,"canPickup":true,"canDropoff":true,"openingstijden":{"ma":"07:30 - 13:00, 15:30 - 19:30","di":"07:30 - 13:00, 15:30 - 19:30","wo":"07:30 - 13:00, 15:30 - 19:30","do":"07:30 - 13:00, 15:30 - 19:30","vr":"07:30 - 13:00, 15:30 - 19:30","za":"07:30 - 13:00, 15:30 - 19:30","zo":"gesloten"}}},{"type":"Feature","geometry":{"type":"Point","coordinates":[13.66636,41.458479]},"properties":{"type":"pakketpunt","locatieNaam":"TABACCHERIA N. 4","straatNaam":"VIA SANTA MARIA DI PORTA 5","straatNr":"","vervoerder":"DHL","puntType":"parcelShop","bezettingsgraad":50,"latitude":41.458479,"longitude":13.66636,"canPickup":true,"canDropoff":true,"openingstijden":{"ma":"07:30 - 13:00, 15:30 - 19:30","di":"07:30 - 13:00, 15:30 - 19:30","wo":"07:30 - 13:00, 15:30 - 19:30","do":"07:30 - 13:00, 15:30 - 19:30","vr":"07:30 - 13:00, 15:30 - 19:30","za":"07:30 - 13:00, 15:30 - 19:30","zo":"09:00 - 12:30"}}},{"type":"Feature","geometry":{"type":"Point","coordinates":[13.669533,41.460053]},"properties":{"type":"pakketpunt","locatieNaam":"EWTSTORE","straatNaam":"VIA VENTIQUATTRO MAGGIO 76","straatNr":"","vervoerder":"DHL","puntType":"parcelShop","bezettingsgraad":50,"latitude":41.460053,"longitude":13.669533,"canPickup":true,"canDropoff":true,"openingstijden":{"ma":"09:00 - 12:30, 16:00 - 19:30","di":"09:00 - 12:30, 16:00 - 19:30","wo":"09:00 - 12:30, 16:00 - 19:30","do":"09:00 - 12:30, 16:00 - 18:00","vr":"09:00 - 12:30, 16:00 - 19:30","za":"09:00 - 12:30","zo":"gesloten"}}},{"type":"Feature","geometry":{"type":"Point","coordinates":[13.665484,41.46164]},"properties":{"type":"pakketpunt","locatieNaam":"TABACCHERIA N. 24","straatNaam":"VIA SAN GIOVANNI BATTISTA SNC 12","straatNr":"","vervoerder":"DHL","puntType":"parcelShop","bezettingsgraad":50,"latitude":41.46164,"longitude":13.665484,"canPickup":true,"canDropoff":true,"openingstijden":{"ma":"05:00 - 23:00","di":"05:00 - 23:00","wo":"05:00 - 23:00","do":"05:00 - 23:00","vr":"05:00 - 23:00","za":"05:00 - 23:00","zo":"05:00 - 23:00"}}},{"type":"Feature","geometry":{"type":"Point","coordinates":[13.665007,41.461933]},"properties":{"type":"pakketpunt","locatieNaam":"TABACCHERIA N. 17","straatNaam":"VIA SAN GIOVANNI BATTISTA 47","straatNr":"","vervoerder":"DHL","puntType":"parcelShop","bezettingsgraad":50,"latitude":41.461933,"longitude":13.665007,"canPickup":true,"canDropoff":true,"openingstijden":{"ma":"08:00 - 13:00, 15:30 - 19:30","di":"08:00 - 13:00, 15:30 - 19:30","wo":"08:00 - 13:00, 15:30 - 19:30","do":"08:00 - 13:00, 15:30 - 19:30","vr":"08:00 - 13:00, 15:30 - 19:30","za":"08:00 - 13:00, 15:30 - 19:30","zo":"gesloten"}}},{"type":"Feature","geometry":{"type":"Point","coordinates":[13.66101,41.46678]},"properties":{"type":"pakketpunt","locatieNaam":"ELDA ELETTRODOMESTICI","straatNaam":"Via San Giovanni Battista, 49","straatNr":"","vervoerder":"DHL","puntType":"parcelShop","bezettingsgraad":50,"latitude":41.46678,"longitude":13.66101,"canPickup":false,"canDropoff":true,"openingstijden":{"ma":"08:00 - 19:00","di":"08:00 - 19:00","wo":"08:00 - 19:00","do":"08:00 - 19:00","vr":"08:00 - 19:00","za":"08:00 - 19:00","zo":"gesloten"}}},{"type":"Feature","geometry":{"type":"Point","coordinates":[13.6277725,41.4522919]},"properties":{"type":"pakketpunt","locatieNaam":"Amazon Counter (fermopoint)","straatNaam":"L'Arte del Regalo","straatNr":"","vervoerder":"Amazon","puntType":"helix","bezettingsgraad":50,"latitude":41.4522919,"longitude":13.6277725,"canPickup":true,"canDropoff":false,"openingstijden":null}},{"type":"Feature","geometry":{"type":"Point","coordinates":[13.6780183,41.4441733]},"properties":{"type":"pakketpunt","locatieNaam":"Amazon Locker - ovatta","straatNaam":"Stazione Tamoil - PV 4761","straatNr":"","vervoerder":"Amazon","puntType":"locker","bezettingsgraad":50,"latitude":41.4441733,"longitude":13.6780183,"canPickup":true,"canDropoff":false,"openingstijden":null}},{"type":"Feature","geometry":{"type":"Point","coordinates":[13.6689551,41.4544668]},"properties":{"type":"pakketpunt","locatieNaam":"Amazon Hub Counter - Stradone casalinghi","straatNaam":"Via Tre Fontane SNC","straatNr":"","vervoerder":"Amazon","puntType":"helix","bezettingsgraad":50,"latitude":41.4544668,"longitude":13.6689551,"canPickup":true,"canDropoff":false,"openingstijden":null}},{"type":"Feature","geometry":{"type":"Point","coordinates":[13.66503,41.45398]},"properties":{"type":"pakketpunt","locatieNaam":"Amazon Locker - sivigliano","straatNaam":"Sigma Campania Franchising ? OK Sigma Pontecorvo - Location EU 618","straatNr":"","vervoerder":"Amazon","puntType":"locker","bezettingsgraad":50,"latitude":41.45398,"longitude":13.66503,"canPickup":true,"canDropoff":false,"openingstijden":null}},{"type":"Feature","geometry":{"type":"Point","coordinates":[13.6638,41.4545]},"properties":{"type":"pakketpunt","locatieNaam":"PuntoPoste TABACCHERIA N. 16","straatNaam":"VIA LE CROCI 32","straatNr":"","vervoerder":"Amazon","puntType":"3p","bezettingsgraad":50,"latitude":41.4545,"longitude":13.6638,"canPickup":true,"canDropoff":false,"openingstijden":null}},{"type":"Feature","geometry":{"type":"Point","coordinates":[13.666012,41.457309]},"properties":{"type":"pakketpunt","locatieNaam":"Amazon Counter - DI IANNA TIZIANA","straatNaam":"CORSO Vittorio Emanuele 3","straatNr":"","vervoerder":"Amazon","puntType":"helix","bezettingsgraad":50,"latitude":41.457309,"longitude":13.666012,"canPickup":true,"canDropoff":false,"openingstijden":null}},{"type":"Feature","geometry":{"type":"Point","coordinates":[13.6654676,41.4583446]},"properties":{"type":"pakketpunt","locatieNaam":"Amazon Counter (fermopoint)","straatNaam":"Mi Point Multi Servizi","straatNr":"","vervoerder":"Amazon","puntType":"helix","bezettingsgraad":50,"latitude":41.4583446,"longitude":13.6654676,"canPickup":true,"canDropoff":false,"openingstijden":null}},{"type":"Feature","geometry":{"type":"Point","coordinates":[13.6696629411392,41.4601312725069]},"properties":{"type":"pakketpunt","locatieNaam":"Amazon Counter (fermopoint)","straatNaam":"Ewt Store","straatNr":"","vervoerder":"Amazon","puntType":"helix","bezettingsgraad":50,"latitude":41.4601312725069,"longitude":13.6696629411392,"canPickup":true,"canDropoff":false,"openingstijden":null}},{"type":"Feature","geometry":{"type":"Point","coordinates":[13.667,41.4565]},"properties":{"type":"pakketpunt","locatieNaam":"Ufficio Postale PONTECORVO","straatNaam":"VIA PORTA LEONE 1","straatNr":"","vervoerder":"Amazon","puntType":"3p","bezettingsgraad":50,"latitude":41.4565,"longitude":13.667,"canPickup":true,"canDropoff":false,"openingstijden":null}},{"type":"Feature","geometry":{"type":"Point","coordinates":[13.660674,41.4665593]},"properties":{"type":"pakketpunt","locatieNaam":"Amazon Counter (fermopoint)","straatNaam":"Elda Snc","straatNr":"","vervoerder":"Amazon","puntType":"helix","bezettingsgraad":50,"latitude":41.4665593,"longitude":13.660674,"canPickup":true,"canDropoff":false,"openingstijden":null}},{"type":"Feature","geometry":{"type":"Point","coordinates":[13.6641,41.4532]},"properties":{"type":"pakketpunt","locatieNaam":"Ufficio Postale PASTINE DI PONTECORVO","straatNaam":"VIA SANTANTONIO SNC 1","straatNr":"","vervoerder":"Amazon","puntType":"3p","bezettingsgraad":50,"latitude":41.4532,"longitude":13.6641,"canPickup":true,"canDropoff":false,"openingstijden":null}},{"type":"Feature","geometry":{"type":"Point","coordinates":[13.6690088,41.4700218]},"properties":{"type":"pakketpunt","locatieNaam":"Amazon Counter (fermopoint)","straatNaam":"Mio Bar 13","straatNr":"","vervoerder":"Amazon","puntType":"helix","bezettingsgraad":50,"latitude":41.4700218,"longitude":13.6690088,"canPickup":true,"canDropoff":false,"openingstijden":null}},{"type":"Feature","geometry":{"type":"Point","coordinates":[13.66543,41.458485]},"properties":{"type":"pakketpunt","locatieNaam":"FedEx OnSite","straatNaam":"Via santa Maria di porta, 35","straatNr":"","vervoerder":"FedEx","puntType":"servicepunt","bezettingsgraad":50,"latitude":41.458485,"longitude":13.66543,"canPickup":true,"canDropoff":true,"openingstijden":{"ma":"08:00 - 13:00, 15:30 - 19:30","di":"08:00 - 13:00, 15:30 - 19:30","wo":"08:00 - 13:00, 15:30 - 19:30","do":"08:00 - 13:00, 15:30 - 19:30","vr":"08:00 - 13:00, 15:30 - 19:30","za":"08:00 - 13:00, 15:30 - 19:30","zo":"gesloten"}}},{"type":"Feature","geometry":{"type":"Point","coordinates":[13.665966703407397,41.4574152688587]},"properties":{"type":"pakketpunt","locatieNaam":"FedEx OnSite","straatNaam":"Corso Vittorio Emanuele , 3","straatNr":"","vervoerder":"FedEx","puntType":"servicepunt","bezettingsgraad":50,"latitude":41.4574152688587,"longitude":13.665966703407397,"canPickup":true,"canDropoff":true,"openingstijden":{"ma":"08:30 - 13:00, 15:30 - 19:00","di":"08:30 - 13:00, 15:30 - 19:00","wo":"08:30 - 13:00, 15:30 - 19:00","do":"08:30 - 13:00, 15:30 - 19:00","vr":"08:30 - 13:00, 15:30 - 19:00","za":"08:30 - 13:00","zo":"gesloten"}}},{"type":"Feature","geometry":{"type":"Point","coordinates":[13.668279,41.454244]},"properties":{"type":"pakketpunt","locatieNaam":"FedEx OnSite","straatNaam":"VIA VENERAB.SUOR MARIA TERESINA ZONFRILLI, 01","straatNr":"","vervoerder":"FedEx","puntType":"servicepunt","bezettingsgraad":50,"latitude":41.454244,"longitude":13.668279,"canPickup":true,"canDropoff":true,"openingstijden":{"ma":"08:30 - 13:00, 15:30 - 20:00","di":"08:30 - 13:00, 15:30 - 20:00","wo":"08:30 - 13:00, 15:30 - 20:00","do":"08:30 - 13:00, 15:30 - 20:00","vr":"08:30 - 13:00, 15:30 - 20:00","za":"08:30 - 13:00, 15:30 - 20:00","zo":"gesloten"}}},{"type":"Feature","geometry":{"type":"Point","coordinates":[13.66817379857482,41.45894093952779]},"properties":{"type":"pakketpunt","locatieNaam":"FedEx OnSite","straatNaam":"Via la cupa , 2","straatNr":"","vervoerder":"FedEx","puntType":"servicepunt","bezettingsgraad":50,"latitude":41.45894093952779,"longitude":13.66817379857482,"canPickup":true,"canDropoff":true,"openingstijden":{"ma":"09:00 - 13:00, 16:00 - 19:00","di":"09:00 - 13:00","wo":"09:00 - 13:00, 16:00 - 19:00","do":"09:00 - 13:00","vr":"09:00 - 13:00, 16:00 - 19:00","za":"gesloten","zo":"gesloten"}}},{"type":"Feature","geometry":{"type":"Polygon","coordinates":[[[13.5518627,41.4138874],[13.5583825,41.4085719],[13.5592159,41.4076339],[13.5591563,41.4070915],[13.5582454,41.405516],[13.5583045,41.4044602],[13.559027,41.4032295],[13.5597752,41.4023444],[13.5604264,41.401067],[13.561014,41.4004719],[13.5612668,41.4003358],[13.5675941,41.4025603],[13.5713815,41.403373],[13.5728766,41.4038762],[13.5771412,41.4045437],[13.5826974,41.4055916],[13.5860018,41.4060674],[13.5894063,41.4068183],[13.5902535,41.4069285],[13.5936716,41.4076381],[13.6051504,41.4096228],[13.6110459,41.4109213],[13.6133951,41.4112456],[13.6183655,41.4121443],[13.619697,41.4125364],[13.6228211,41.4130544],[13.6242021,41.4139532],[13.6264564,41.4148528],[13.6270784,41.4148322],[13.628389,41.4151081],[13.6288818,41.4150162],[13.6295261,41.4150982],[13.6304787,41.4153434],[13.6307806,41.4157409],[13.6310899,41.4158635],[13.6319622,41.4159363],[13.6328024,41.4163346],[13.633365,41.4163299],[13.6345055,41.4166936],[13.6349952,41.4167458],[13.6360017,41.4166872],[13.6365386,41.4167735],[13.6369663,41.4169319],[13.6375659,41.4173623],[13.6378981,41.4181322],[13.6381894,41.4184851],[13.6388301,41.4188104],[13.6396153,41.4189812],[13.6398419,41.4196429],[13.6401904,41.420115],[13.6403036,41.420403],[13.640797,41.422571],[13.6414165,41.4232798],[13.6422247,41.4235622],[13.6424593,41.4231836],[13.6424712,41.4226069],[13.6427862,41.4224321],[13.6432294,41.4224186],[13.6438842,41.4226262],[13.6444727,41.4230571],[13.6446091,41.4234073],[13.6444971,41.4241636],[13.6449947,41.4244316],[13.6456573,41.4242247],[13.6457343,41.4245277],[13.6456571,41.424828],[13.6458865,41.4252869],[13.64637,41.4256185],[13.6468452,41.4257928],[13.6473822,41.4258566],[13.647738,41.4260133],[13.6481327,41.4260333],[13.6485012,41.426167],[13.6483371,41.4265698],[13.6488474,41.4267742],[13.6495077,41.4266709],[13.6513138,41.4267193],[13.6517351,41.4265987],[13.6520398,41.4263432],[13.6525207,41.4262202],[13.6533926,41.4262839],[13.6541419,41.4265372],[13.6548015,41.4270506],[13.6553974,41.4270085],[13.6557635,41.426827],[13.656373,41.4256814],[13.6567975,41.4254075],[13.6583219,41.4253007],[13.6593371,41.4247147],[13.6604225,41.424306],[13.6609204,41.4239707],[13.6616413,41.4238063],[13.6623602,41.4237501],[13.6647885,41.4232283],[13.6657808,41.4227198],[13.6670585,41.4222402],[13.6698563,41.4217842],[13.6709237,41.4210745],[13.672339,41.4203462],[13.673303,41.4199873],[13.67471,41.4208304],[13.6750388,41.4211501],[13.6767033,41.4216856],[13.6772584,41.4220231],[13.6779709,41.4228855],[13.6822062,41.4253149],[13.6832195,41.4261379],[13.6838499,41.4270942],[13.6837274,41.4271959],[13.6849755,41.4286143],[13.6853184,41.4289242],[13.6859004,41.4290402],[13.6870638,41.4289252],[13.68899,41.4284189],[13.690172,41.4285011],[13.6907355,41.4284556],[13.6912528,41.4282994],[13.691401,41.4281043],[13.6914337,41.4276347],[13.6912665,41.4270383],[13.6911745,41.425669],[13.6910539,41.4251067],[13.6913072,41.4243896],[13.6921471,41.423689],[13.6928076,41.4235899],[13.6944725,41.4235264],[13.6957246,41.4237092],[13.6969887,41.4245354],[13.6976706,41.4251467],[13.6985262,41.4254719],[13.6989697,41.4254222],[13.6995962,41.425194],[13.7001911,41.424787],[13.7003419,41.4244116],[13.7003276,41.423935],[13.699428,41.4222566],[13.6993749,41.4219347],[13.6994338,41.4213741],[13.6990937,41.4198123],[13.699113,41.4188481],[13.6992865,41.4179587],[13.699317,41.4170255],[13.6997395,41.4156307],[13.7000684,41.4141406],[13.7006832,41.4127064],[13.7008551,41.4125102],[13.7012298,41.4123058],[13.7048289,41.4118072],[13.7058541,41.4119993],[13.7066127,41.4123689],[13.7068364,41.4125578],[13.7069691,41.4131105],[13.7069082,41.4137568],[13.7061318,41.4161476],[13.7058185,41.4168087],[13.7055996,41.4169753],[13.7054251,41.4173426],[13.7046439,41.4181084],[13.7047561,41.418491],[13.7052117,41.419044],[13.706483,41.4194553],[13.707526,41.4194218],[13.7085476,41.4191908],[13.7089821,41.4190065],[13.7097826,41.4184469],[13.710184,41.4181468],[13.7106388,41.4175204],[13.7111991,41.4170202],[13.7113986,41.4166474],[13.7115113,41.4157469],[13.7112266,41.4125803],[13.7112623,41.4120611],[13.711473,41.411017],[13.7119476,41.4100566],[13.7132327,41.4085318],[13.7140732,41.407804],[13.7162856,41.4072359],[13.7167763,41.4072203],[13.7173243,41.4073463],[13.7178307,41.4077847],[13.718119,41.4083176],[13.7182264,41.4089119],[13.7182054,41.4099932],[13.7179346,41.4109902],[13.716919,41.4133549],[13.7169671,41.4139247],[13.7172597,41.4142908],[13.7176858,41.4145074],[13.7193194,41.4147779],[13.7203013,41.4147735],[13.7226072,41.4143681],[13.7240436,41.4142909],[13.7245557,41.4144049],[13.7262648,41.4151089],[13.7269649,41.4154132],[13.7273669,41.4156983],[13.7270443,41.416855],[13.7270811,41.4174433],[13.7268193,41.418593],[13.7267184,41.4188718],[13.7263905,41.4190923],[13.726576,41.4193908],[13.7287855,41.4208665],[13.729029,41.4212751],[13.7291142,41.4217893],[13.7290817,41.4222363],[13.7292631,41.4227466],[13.7296882,41.4231027],[13.730127,41.4232872],[13.7303816,41.4237134],[13.7307686,41.4246968],[13.7321622,41.4238021],[13.7334026,41.4234133],[13.7338932,41.4234156],[13.7360879,41.4238112],[13.7367245,41.4236724],[13.7373043,41.4234009],[13.7378302,41.4234152],[13.7377639,41.4237466],[13.7372729,41.4244376],[13.7356497,41.4254004],[13.7352237,41.4257737],[13.7351666,41.4262307],[13.7353723,41.4267669],[13.7360634,41.4275398],[13.7360348,41.4278651],[13.7350486,41.4292203],[13.7348449,41.4304892],[13.7352845,41.4312589],[13.7348023,41.4321116],[13.7344456,41.4331888],[13.7344999,41.4340779],[13.7344288,41.4347561],[13.7340484,41.4363699],[13.7339566,41.4380259],[13.7337492,41.439439],[13.7330209,41.4430345],[13.7330219,41.4435927],[13.7332413,41.4440383],[13.7336289,41.4444095],[13.7337906,41.4446999],[13.7322548,41.4448893],[13.7285018,41.4470563],[13.7271669,41.4473454],[13.7256699,41.4479967],[13.7250608,41.4485485],[13.7234212,41.449719],[13.7218503,41.4504679],[13.7203597,41.4515948],[13.7197152,41.4519017],[13.7186482,41.4525669],[13.7170166,41.4533767],[13.7148308,41.4549297],[13.713844,41.4557625],[13.7114303,41.4573517],[13.7101449,41.4588225],[13.709268,41.4595428],[13.7083221,41.4601263],[13.7074444,41.4609277],[13.7063017,41.4617578],[13.7055937,41.4624351],[13.7051875,41.463055],[13.7036022,41.4644481],[13.7027041,41.4650521],[13.7021475,41.465228],[13.7014844,41.4661645],[13.6986066,41.4682046],[13.6979666,41.4684379],[13.6973203,41.4690091],[13.6960865,41.4696178],[13.6958879,41.4699546],[13.6928959,41.4711034],[13.6919141,41.4716387],[13.6897693,41.4723161],[13.6883727,41.4726523],[13.6847539,41.4739616],[13.6835915,41.4745987],[13.6818625,41.4753896],[13.6796554,41.4767311],[13.6790235,41.4771935],[13.6773902,41.4779849],[13.6763655,41.478873],[13.675494,41.4787735],[13.6749864,41.4789562],[13.6740409,41.479616],[13.6709502,41.4813895],[13.6695855,41.4819132],[13.6677772,41.4824595],[13.6663479,41.4832919],[13.6632222,41.4843869],[13.6612265,41.4853368],[13.6597235,41.4861767],[13.6553023,41.4880263],[13.6543324,41.4885473],[13.6522656,41.4894595],[13.6494892,41.4910396],[13.6465123,41.4925062],[13.6452701,41.4929076],[13.6437901,41.4938004],[13.6427872,41.4942191],[13.6413153,41.4946523],[13.63879,41.4957313],[13.6351083,41.4964879],[13.634065,41.49653],[13.6330073,41.4967077],[13.6308931,41.4968786],[13.6272584,41.4977185],[13.6254904,41.4980329],[13.6236122,41.4985138],[13.6227839,41.4986011],[13.6207373,41.4989987],[13.6166151,41.5001955],[13.6154325,41.5006302],[13.6144342,41.5007694],[13.6132178,41.5010524],[13.6115521,41.5016821],[13.6096941,41.5022385],[13.606843,41.5033389],[13.6057016,41.5034657],[13.6046055,41.5037798],[13.6026904,41.5041673],[13.6012549,41.50472],[13.6006655,41.5048022],[13.5997793,41.5047927],[13.5973994,41.5045369],[13.5954197,41.5041615],[13.5943071,41.5040935],[13.5945753,41.5026917],[13.5944797,41.5021868],[13.5935229,41.5015723],[13.5931382,41.5011992],[13.5935377,41.5004165],[13.5936714,41.499653],[13.5933726,41.4990482],[13.5938022,41.4975049],[13.5938773,41.4961873],[13.5944514,41.4946022],[13.5944823,41.4942768],[13.5943813,41.4939612],[13.5938606,41.4936579],[13.5920045,41.4936377],[13.5908612,41.4933142],[13.5906296,41.4929814],[13.5906269,41.4924998],[13.5907433,41.492135],[13.5910724,41.4918877],[13.5916636,41.4916659],[13.5924183,41.4916492],[13.5930331,41.4914941],[13.5934035,41.4910066],[13.5934687,41.4907338],[13.5930053,41.4894513],[13.5929789,41.4890067],[13.5932762,41.4886166],[13.5938316,41.4883423],[13.5955672,41.4878677],[13.5966607,41.4877113],[13.5982106,41.4869289],[13.5998321,41.4862292],[13.6013968,41.4858783],[13.6033987,41.4851813],[13.6048994,41.4844683],[13.6076233,41.4825582],[13.609889,41.4813958],[13.6116374,41.4808214],[13.6111867,41.4806189],[13.6104695,41.4805306],[13.6095204,41.4807263],[13.6092211,41.4806753],[13.6087285,41.4801864],[13.6085088,41.4798215],[13.6082503,41.4790261],[13.6067172,41.4756662],[13.6056097,41.4742925],[13.6048215,41.4730321],[13.6046555,41.4718322],[13.6044514,41.4712957],[13.6044699,41.4709978],[13.604703,41.4707499],[13.6047806,41.4704721],[13.6046199,41.4695782],[13.6048166,41.4693452],[13.6048571,41.4689144],[13.6043147,41.4687351],[13.6035987,41.4686288],[13.6004889,41.4684653],[13.599967,41.4682791],[13.5981326,41.4666644],[13.5962255,41.4651516],[13.5956673,41.4649399],[13.5942321,41.4648398],[13.5933205,41.4643585],[13.5916685,41.4621241],[13.5911733,41.4612255],[13.5908379,41.4601315],[13.5904174,41.4596216],[13.5902002,41.4591621],[13.5894469,41.4580082],[13.5893225,41.4576665],[13.5892627,41.4571062],[13.5893737,41.4564219],[13.5895505,41.4559917],[13.5896113,41.4553905],[13.5895429,41.4546774],[13.5888636,41.4506618],[13.588674,41.4478287],[13.5883415,41.4465724],[13.5885074,41.4455754],[13.5886709,41.4451997],[13.5897896,41.4438629],[13.5907024,41.4414854],[13.5918519,41.440386],[13.591957,41.4399361],[13.5918802,41.4374406],[13.5917696,41.4369768],[13.5913964,41.4365415],[13.5902071,41.4361569],[13.5879455,41.43559],[13.5848923,41.4345415],[13.5839809,41.4341187],[13.5834617,41.4337343],[13.5826054,41.4324269],[13.5824498,41.4318748],[13.5824938,41.4309187],[13.5821268,41.430177],[13.5806258,41.42822],[13.5800056,41.427547],[13.57898,41.4268496],[13.5781965,41.4265432],[13.5771421,41.4264862],[13.5727284,41.4248793],[13.5708095,41.4245235],[13.5701555,41.4243244],[13.5685462,41.4235421],[13.5662917,41.4226324],[13.5651567,41.4220022],[13.5600367,41.4187257],[13.5575429,41.4173526],[13.5518627,41.4138874]]]},"properties":{"type":"boundary","gemeente":"Pontecorvo"}}]}