{"type":"FeatureCollection","metadata":{"gemeente":"Prata Camportaccio","slug":"prata-camportaccio","generated_at":"2026-09-26T14:27:48.938403Z","total_points":7,"providers":["PosteItaliane","DHL","Amazon"],"bounds":[9.39666339,46.27461767,9.39827716,46.307279]},"features":[{"type":"Feature","geometry":{"type":"Point","coordinates":[9.39781464,46.3067274]},"properties":{"type":"pakketpunt","locatieNaam":"Tabaccheria N. 1","straatNaam":"Via Roma","straatNr":"33","vervoerder":"PosteItaliane","puntType":"servicepunt","bezettingsgraad":50,"latitude":46.3067274,"longitude":9.39781464,"canPickup":true,"canDropoff":true,"openingstijden":{"za":"07:00 - 23:59","zo":"07:00 - 11:59","ma":"gesloten","di":"07:00 - 23:59","wo":"07:00 - 23:59","do":"07:00 - 23:59","vr":"07:00 - 23:59"}}},{"type":"Feature","geometry":{"type":"Point","coordinates":[9.39827716,46.30727882]},"properties":{"type":"pakketpunt","locatieNaam":"Prata Camportaccio","straatNaam":"Via Vanoni","straatNr":"4","vervoerder":"PosteItaliane","puntType":"postkantoor","bezettingsgraad":50,"latitude":46.30727882,"longitude":9.39827716,"canPickup":true,"canDropoff":true,"openingstijden":{"za":"08:20 - 12:45","zo":"gesloten","ma":"08:20 - 13:45","di":"08:20 - 13:45","wo":"08:20 - 13:45","do":"08:20 - 13:45","vr":"08:20 - 13:45"}}},{"type":"Feature","geometry":{"type":"Point","coordinates":[9.39666339,46.27461767]},"properties":{"type":"pakketpunt","locatieNaam":"San Cassiano Valchiavenna","straatNaam":"Via Manzoni","straatNr":"1","vervoerder":"PosteItaliane","puntType":"postkantoor","bezettingsgraad":50,"latitude":46.27461767,"longitude":9.39666339,"canPickup":true,"canDropoff":true,"openingstijden":{"za":"08:20 - 12:45","zo":"gesloten","ma":"gesloten","di":"08:20 - 13:45","wo":"gesloten","do":"08:20 - 13:45","vr":"gesloten"}}},{"type":"Feature","geometry":{"type":"Point","coordinates":[9.397815,46.306727]},"properties":{"type":"pakketpunt","locatieNaam":"TABACCHERIA N. 1","straatNaam":"VIA ROMA 33","straatNr":"","vervoerder":"DHL","puntType":"parcelShop","bezettingsgraad":50,"latitude":46.306727,"longitude":9.397815,"canPickup":true,"canDropoff":true,"openingstijden":{"ma":"gesloten","di":"07:00 - 23:59","wo":"07:00 - 23:59","do":"07:00 - 23:59","vr":"07:00 - 23:59","za":"07:00 - 23:59","zo":"07:00 - 11:59"}}},{"type":"Feature","geometry":{"type":"Point","coordinates":[9.398277,46.307279]},"properties":{"type":"pakketpunt","locatieNaam":"Ufficio Postale PRATA CAMPORTACCIO","straatNaam":"VIA VANONI 4","straatNr":"","vervoerder":"DHL","puntType":"postOffice","bezettingsgraad":50,"latitude":46.307279,"longitude":9.398277,"canPickup":true,"canDropoff":true,"openingstijden":{"ma":"08:20 - 13:45","di":"08:20 - 13:45","wo":"08:20 - 13:45","do":"08:20 - 13:45","vr":"08:20 - 13:45","za":"08:20 - 12:45","zo":"gesloten"}}},{"type":"Feature","geometry":{"type":"Point","coordinates":[9.39827,46.3072]},"properties":{"type":"pakketpunt","locatieNaam":"Ufficio Postale PRATA CAMPORTACCIO","straatNaam":"VIA VANONI 4","straatNr":"","vervoerder":"Amazon","puntType":"3p","bezettingsgraad":50,"latitude":46.3072,"longitude":9.39827,"canPickup":true,"canDropoff":false,"openingstijden":null}},{"type":"Feature","geometry":{"type":"Point","coordinates":[9.39781,46.3067]},"properties":{"type":"pakketpunt","locatieNaam":"PuntoPoste TABACCHERIA N. 1","straatNaam":"VIA ROMA 33","straatNr":"","vervoerder":"Amazon","puntType":"3p","bezettingsgraad":50,"latitude":46.3067,"longitude":9.39781,"canPickup":true,"canDropoff":false,"openingstijden":null}},{"type":"Feature","geometry":{"type":"Polygon","coordinates":[[[9.3848038,46.2949097],[9.3849702,46.2943377],[9.3837482,46.2941213],[9.3836048,46.2940273],[9.3835233,46.2935191],[9.3837439,46.2930368],[9.3838937,46.2919473],[9.3841516,46.2914695],[9.3859729,46.2896904],[9.3860206,46.2893212],[9.385532,46.2888504],[9.3854745,46.2880451],[9.385571,46.2874688],[9.3854479,46.2870417],[9.3857785,46.2862801],[9.3871294,46.2866355],[9.3874433,46.284902],[9.3867636,46.2837838],[9.3867362,46.2835679],[9.3874825,46.2833314],[9.3877729,46.2828714],[9.3885844,46.2810596],[9.388308,46.2809796],[9.3899063,46.2778107],[9.3903909,46.2763735],[9.3904757,46.2739298],[9.3900209,46.2738504],[9.3900729,46.2736342],[9.3899834,46.273135],[9.3900041,46.2726354],[9.3895594,46.2719867],[9.3895294,46.2717033],[9.3892992,46.2712973],[9.389755,46.2709612],[9.3903412,46.2696846],[9.3910081,46.2691409],[9.3917299,46.2682781],[9.3934836,46.2671606],[9.3941807,46.2661997],[9.3948428,46.2655674],[9.3956726,46.265029],[9.3967775,46.2641657],[9.3972687,46.263903],[9.398634,46.2627327],[9.3991118,46.262632],[9.400158,46.2617464],[9.4006639,46.2617311],[9.4021341,46.2613884],[9.4032115,46.2596791],[9.4042327,46.2595945],[9.4047745,46.2593856],[9.4055985,46.2587392],[9.406343,46.257877],[9.4067994,46.2577404],[9.4072693,46.2574732],[9.4079019,46.257696],[9.41191,46.2608],[9.4126513,46.2605948],[9.413143,46.261052],[9.4132417,46.2610292],[9.4141709,46.2605758],[9.4146348,46.2599351],[9.4146915,46.2597099],[9.4148302,46.2600466],[9.4153958,46.2603794],[9.4168908,46.2594949],[9.4211325,46.2612433],[9.4232739,46.2619418],[9.4247052,46.262238],[9.4255851,46.2625587],[9.4268946,46.2628328],[9.4291772,46.2637197],[9.4307713,46.2636822],[9.4311938,46.2639866],[9.4315338,46.2647278],[9.4319776,46.2648566],[9.4330846,46.2647399],[9.433792,46.2645707],[9.4355812,46.2639654],[9.4366634,46.2633898],[9.4370098,46.2632984],[9.4404878,46.2631591],[9.4444646,46.2631121],[9.4453268,46.2630277],[9.4466894,46.2630494],[9.4483439,46.2624534],[9.450155,46.2621763],[9.4505441,46.2619632],[9.4510819,46.2614886],[9.4514875,46.2612935],[9.4524445,46.2611052],[9.4544305,46.2610073],[9.4553695,46.2606031],[9.4562163,46.2606267],[9.4565711,46.2603823],[9.4573831,46.260892],[9.4580819,46.2610647],[9.4590659,46.2610022],[9.4608895,46.2612604],[9.461001,46.2614084],[9.4610041,46.2615794],[9.4607991,46.2618952],[9.4607795,46.2620663],[9.460916,46.2624887],[9.4609505,46.2629161],[9.4622585,46.2635768],[9.4625374,46.2641426],[9.4636142,46.2650833],[9.4639514,46.2656399],[9.4639421,46.2660674],[9.4636216,46.2667257],[9.4634643,46.2673023],[9.4635058,46.2687646],[9.4632513,46.2701336],[9.4634832,46.2708932],[9.463493,46.2716671],[9.4632823,46.272073],[9.4622075,46.2731303],[9.4612972,46.2742635],[9.4606586,46.2749051],[9.4602922,46.2751315],[9.4600417,46.2755809],[9.4600869,46.2758029],[9.4600291,46.2758751],[9.4594261,46.2761064],[9.458376,46.2770427],[9.4576797,46.2774147],[9.4574335,46.2779275],[9.4578295,46.2780439],[9.4585097,46.2780997],[9.460101,46.2778683],[9.4611172,46.2779362],[9.4612867,46.27803],[9.4614784,46.2788257],[9.4613248,46.2792718],[9.4621,46.2792372],[9.4625673,46.2794332],[9.4629605,46.2798861],[9.4633987,46.2806718],[9.464204,46.2814965],[9.464365,46.2817299],[9.4644884,46.2821299],[9.464588,46.282206],[9.4661694,46.282321],[9.4670675,46.2828033],[9.4674523,46.2832112],[9.4683929,46.2833469],[9.4685536,46.2835352],[9.4689654,46.283502],[9.4691466,46.2838163],[9.4700754,46.2837134],[9.4704117,46.2837525],[9.4706998,46.2838638],[9.4707221,46.2840077],[9.4705178,46.2847781],[9.4698264,46.2851409],[9.4693798,46.2852778],[9.4681295,46.2859444],[9.466751,46.286985],[9.466072,46.2872848],[9.4651987,46.2880129],[9.4636161,46.2891083],[9.4634538,46.2892934],[9.4632115,46.2902034],[9.4625575,46.29116],[9.462571,46.2919925],[9.4624711,46.2924654],[9.4621365,46.2928132],[9.4615827,46.2931485],[9.4614425,46.2942245],[9.4612139,46.2944459],[9.4608213,46.294461],[9.4593169,46.2948631],[9.4579601,46.2950485],[9.4569765,46.2954215],[9.4559348,46.2954482],[9.4552379,46.2955679],[9.4547004,46.2959256],[9.4541423,46.2965353],[9.4524311,46.2968481],[9.4505966,46.2975799],[9.4501689,46.297874],[9.4496482,46.2984971],[9.4486594,46.2992435],[9.4480213,46.2996105],[9.4456835,46.3001461],[9.4450458,46.3003691],[9.4443946,46.3007271],[9.4426701,46.3012333],[9.4409138,46.3024281],[9.4389163,46.3033178],[9.4373496,46.3038818],[9.4372414,46.3039543],[9.4369879,46.3045267],[9.4358325,46.3051791],[9.4355926,46.305225],[9.4345889,46.3051569],[9.4344419,46.3050404],[9.4343825,46.3047122],[9.4347436,46.3039953],[9.4340448,46.3042905],[9.4334501,46.3042207],[9.4336444,46.30395],[9.4336077,46.3038331],[9.4329017,46.3036333],[9.433117,46.3031555],[9.4330036,46.30276],[9.4328097,46.3024637],[9.4318345,46.3025034],[9.4312734,46.302573],[9.4303981,46.3043763],[9.4301071,46.3043234],[9.4301469,46.3042198],[9.4300575,46.3040041],[9.4296351,46.3039517],[9.429254,46.3040026],[9.4286356,46.3042042],[9.4256753,46.3055087],[9.4246407,46.305626],[9.4240398,46.3046995],[9.4212913,46.3051438],[9.4209082,46.3051453],[9.4208129,46.3051996],[9.420946,46.3056781],[9.4199463,46.3062335],[9.4186127,46.3059637],[9.418362,46.3065046],[9.4180692,46.3068477],[9.4176795,46.3070471],[9.416849,46.3071221],[9.4158483,46.3070313],[9.4155855,46.3079052],[9.4153489,46.3077486],[9.414307,46.3082114],[9.4135966,46.3080745],[9.4133374,46.3079314],[9.4126192,46.3078395],[9.4122805,46.3081333],[9.4125085,46.3084429],[9.4126913,46.3085307],[9.4129057,46.3090175],[9.4132435,46.3094752],[9.4120457,46.3097226],[9.4120873,46.3102894],[9.411419,46.3114348],[9.4108948,46.3118912],[9.4099684,46.3122874],[9.4097467,46.3122208],[9.4095908,46.3123188],[9.4095494,46.3124914],[9.4092621,46.3126339],[9.409192,46.3127319],[9.4093149,46.3129695],[9.4102868,46.3134257],[9.4101555,46.3135363],[9.4097023,46.3137179],[9.4065169,46.3143523],[9.4040156,46.3142835],[9.4033976,46.3143719],[9.4033237,46.3143249],[9.4032393,46.3139559],[9.4023212,46.3139138],[9.4021332,46.3139699],[9.4021507,46.3141321],[9.4019796,46.3142048],[9.4018727,46.3146592],[9.4016448,46.3147346],[9.401856,46.3154059],[9.4022528,46.3158647],[9.4021225,46.315975],[9.4011417,46.3158304],[9.4004516,46.3158146],[9.40044,46.3155231],[9.4003129,46.3155101],[9.399842,46.3155979],[9.3991413,46.3154744],[9.3990818,46.3155466],[9.3982008,46.3156352],[9.3975663,46.31403],[9.3963621,46.3103897],[9.3962028,46.3100099],[9.3958394,46.3095338],[9.3955325,46.3092231],[9.3952997,46.3091056],[9.3930413,46.3083359],[9.3921239,46.3077005],[9.3914932,46.3078106],[9.3893285,46.3057583],[9.3882373,46.3042039],[9.387488,46.3033784],[9.3868832,46.3023185],[9.3853298,46.3004698],[9.3844701,46.2996222],[9.3839117,46.2986881],[9.384109,46.298584],[9.384107,46.298071],[9.3843671,46.2974401],[9.3843548,46.2970757],[9.3842171,46.2966442],[9.3843392,46.2957753],[9.3847467,46.2955624],[9.3848038,46.2949097]]]},"properties":{"type":"boundary","gemeente":"Prata Camportaccio"}}]}