{"type":"FeatureCollection","metadata":{"gemeente":"Pré-Saint-Didier","slug":"pre-saint-didier","generated_at":"2026-09-26T14:27:49.642487Z","total_points":3,"providers":["PosteItaliane","DHL","Amazon"],"bounds":[6.98507,45.7645,6.985079,45.76450206]},"features":[{"type":"Feature","geometry":{"type":"Point","coordinates":[6.98507863,45.76450206]},"properties":{"type":"pakketpunt","locatieNaam":"Tabaccheria N. 1","straatNaam":"Avenue Du Mont Blanc","straatNr":"46","vervoerder":"PosteItaliane","puntType":"servicepunt","bezettingsgraad":50,"latitude":45.76450206,"longitude":6.98507863,"canPickup":true,"canDropoff":true,"openingstijden":{"za":"08:00 - 12:30, 16:00 - 19:30","zo":"08:00 - 12:30","ma":"08:00 - 12:30, 16:00 - 19:30","di":"08:00 - 12:30, 16:00 - 19:30","wo":"08:00 - 12:30","do":"08:00 - 12:30, 16:00 - 19:30","vr":"08:00 - 12:30, 16:00 - 19:30"}}},{"type":"Feature","geometry":{"type":"Point","coordinates":[6.985079,45.764502]},"properties":{"type":"pakketpunt","locatieNaam":"TABACCHERIA N. 1","straatNaam":"AVENUE DU MONT BLANC 46","straatNr":"","vervoerder":"DHL","puntType":"parcelShop","bezettingsgraad":50,"latitude":45.764502,"longitude":6.985079,"canPickup":true,"canDropoff":true,"openingstijden":{"ma":"08:00 - 12:30, 16:00 - 19:30","di":"08:00 - 12:30, 16:00 - 19:30","wo":"08:00 - 12:30","do":"08:00 - 12:30, 16:00 - 19:30","vr":"08:00 - 12:30, 16:00 - 19:30","za":"08:00 - 12:30, 16:00 - 19:30","zo":"08:00 - 12:30"}}},{"type":"Feature","geometry":{"type":"Point","coordinates":[6.98507,45.7645]},"properties":{"type":"pakketpunt","locatieNaam":"PuntoPoste TABACCHERIA N. 1","straatNaam":"AVENUE DU MONT BLANC 46","straatNr":"","vervoerder":"Amazon","puntType":"3p","bezettingsgraad":50,"latitude":45.7645,"longitude":6.98507,"canPickup":true,"canDropoff":false,"openingstijden":null}},{"type":"Feature","geometry":{"type":"Polygon","coordinates":[[[6.8942299,45.7621559],[6.894585,45.7619464],[6.8949451,45.761602],[6.8956367,45.7606517],[6.8959448,45.7599823],[6.8965957,45.7590852],[6.8969457,45.7583266],[6.8971381,45.756287],[6.8971371,45.7552878],[6.8969646,45.7544026],[6.8969673,45.7539886],[6.8972287,45.7535344],[6.8988736,45.7528716],[6.9005199,45.7525148],[6.9018176,45.7525387],[6.9033537,45.7523779],[6.9045756,45.7523643],[6.9056911,45.7524478],[6.9085353,45.7523739],[6.9115093,45.7519242],[6.9122247,45.7517033],[6.9133694,45.7510042],[6.9134898,45.7507363],[6.9173273,45.7507344],[6.9174252,45.7505022],[6.9182674,45.7496354],[6.9183727,45.7492233],[6.9181426,45.7488411],[6.9180721,45.7483177],[6.9190104,45.7476328],[6.9192741,45.7467645],[6.9198002,45.746099],[6.9206431,45.7455563],[6.9220438,45.7441867],[6.9235312,45.7425576],[6.9253156,45.7401958],[6.9265407,45.7383549],[6.9269971,45.7371391],[6.9271751,45.7358012],[6.9271483,45.7344415],[6.9272844,45.7324998],[6.9276588,45.7310665],[6.9283779,45.7298422],[6.9302898,45.7283869],[6.9314044,45.7277861],[6.9326726,45.727548],[6.9346113,45.7276011],[6.936875,45.727552],[6.9396323,45.7273588],[6.9420159,45.7268437],[6.944552,45.7260253],[6.9463155,45.7252469],[6.9477318,45.7244713],[6.948127,45.7235063],[6.9490332,45.7233246],[6.9517729,45.7232567],[6.9535896,45.7234783],[6.9564585,45.7244478],[6.9595864,45.7257188],[6.9608721,45.7264079],[6.9619363,45.7271829],[6.9624736,45.7279576],[6.9634627,45.7286773],[6.963994,45.7289118],[6.9647918,45.7295921],[6.9655668,45.730902],[6.9666451,45.7334144],[6.9672949,45.7342811],[6.9680055,45.7348878],[6.9689452,45.7359126],[6.969861,45.737243],[6.9707388,45.7382037],[6.9736729,45.740596],[6.9760622,45.7417095],[6.9769163,45.7422647],[6.9779847,45.7432917],[6.9789116,45.7443252],[6.9800399,45.7451192],[6.9813878,45.7455301],[6.9826265,45.746119],[6.9839659,45.7471237],[6.9861555,45.7484405],[6.986569,45.7490958],[6.9867346,45.7498548],[6.9871328,45.7502219],[6.9870672,45.7506168],[6.9857306,45.7516733],[6.9854808,45.7521819],[6.9856111,45.7528503],[6.9858779,45.753296],[6.9867207,45.7538149],[6.9869274,45.7545026],[6.9868035,45.7554455],[6.9858203,45.7559683],[6.9856647,45.7563615],[6.9858131,45.7565262],[6.9863489,45.7566436],[6.9864927,45.7569342],[6.9864191,45.7571939],[6.9865359,45.75752],[6.9876544,45.7582418],[6.9884196,45.7584173],[6.9942781,45.7592764],[6.9953976,45.7606912],[6.9958595,45.7621574],[6.9960586,45.763061],[6.9965093,45.7637619],[6.9973128,45.7643071],[6.9976688,45.7647814],[6.9973342,45.7669447],[6.9978511,45.7679528],[6.9986685,45.7688312],[6.9993947,45.769384],[6.9998361,45.7699858],[7.0003984,45.7718858],[7.0010768,45.7734188],[7.001659,45.7776414],[7.0022147,45.7786502],[7.0037044,45.7805214],[7.0040149,45.7815529],[7.0043862,45.7834045],[7.0037826,45.7844561],[7.0038732,45.7851597],[7.0036322,45.7861456],[7.0037328,45.7865704],[7.0044544,45.786898],[7.0061462,45.7874406],[7.0082044,45.7885296],[7.0094898,45.7894431],[7.0077892,45.7893504],[6.9990212,45.7884501],[6.9975258,45.7885319],[6.9941,45.7882738],[6.9928978,45.7880726],[6.9893372,45.7854808],[6.9883551,45.7848874],[6.9867445,45.784598],[6.9853303,45.7845731],[6.9838443,45.7847539],[6.9806945,45.7854093],[6.9797097,45.7852479],[6.9786968,45.7847979],[6.9775257,45.7844532],[6.9759364,45.78429],[6.9745797,45.7837439],[6.9725229,45.7826363],[6.9712971,45.7813184],[6.9705977,45.7803879],[6.9703041,45.7789066],[6.9694797,45.7789369],[6.9688674,45.7791511],[6.9682716,45.7796175],[6.968038,45.7800274],[6.967825,45.7809327],[6.9678367,45.7813199],[6.9676993,45.7815605],[6.9612876,45.7817073],[6.9599137,45.7816377],[6.9591783,45.7816966],[6.9586565,45.7822453],[6.9575355,45.7826483],[6.9559743,45.7824223],[6.9539335,45.7815937],[6.9519243,45.7809997],[6.9511075,45.780427],[6.9489492,45.7796502],[6.9483621,45.7795226],[6.9468828,45.779523],[6.9459378,45.779335],[6.9444658,45.7787865],[6.9430176,45.7779414],[6.9414046,45.7773813],[6.9396498,45.7771786],[6.9378878,45.7768228],[6.9365946,45.7763134],[6.9357602,45.7755692],[6.9350669,45.7751877],[6.9338841,45.7748242],[6.932695,45.7746317],[6.9304998,45.774862],[6.9295503,45.7747998],[6.9289386,45.7746446],[6.9271784,45.7735506],[6.9267603,45.773381],[6.9257001,45.7731818],[6.923724,45.7723628],[6.9209389,45.771511],[6.9186063,45.7712885],[6.915075,45.7707921],[6.9124269,45.7707527],[6.9104727,45.7696999],[6.9095367,45.7689357],[6.9085709,45.7679369],[6.9082405,45.7667968],[6.9071851,45.7640682],[6.9068773,45.7637025],[6.9063402,45.7632786],[6.9059736,45.7631099],[6.9052735,45.762917],[6.9045451,45.7629724],[6.9044771,45.7628934],[6.9040878,45.7630117],[6.9018254,45.7633038],[6.9004497,45.7632965],[6.8988115,45.7630864],[6.8972079,45.7633269],[6.8963211,45.7633105],[6.8952461,45.7628317],[6.8942299,45.7621559]]]},"properties":{"type":"boundary","gemeente":"Pré-Saint-Didier"}}]}