{"type":"FeatureCollection","metadata":{"gemeente":"Prepotto / Prapotno / Prepot","slug":"prepotto-prapotno-prepot","generated_at":"2026-09-26T13:10:30.363718Z","total_points":1,"providers":["PosteItaliane"],"bounds":[13.47937901,46.04605184,13.47937901,46.04605184]},"features":[{"type":"Feature","geometry":{"type":"Point","coordinates":[13.47937901,46.04605184]},"properties":{"type":"pakketpunt","locatieNaam":"Prepotto","straatNaam":"Via Ventiquattro Maggio","straatNr":"18","vervoerder":"PosteItaliane","puntType":"postkantoor","bezettingsgraad":50,"latitude":46.04605184,"longitude":13.47937901,"canPickup":true,"canDropoff":true,"openingstijden":{"za":"gesloten","zo":"gesloten","ma":"08:20 - 13:45","di":"gesloten","wo":"08:20 - 13:45","do":"gesloten","vr":"08:20 - 13:45"}}},{"type":"Feature","geometry":{"type":"Polygon","coordinates":[[[13.4584966,46.0160173],[13.4584669,46.0165756],[13.4581348,46.0174111],[13.4581549,46.0176574],[13.4582344,46.0177876],[13.4586854,46.0180827],[13.4590035,46.0185817],[13.4592073,46.0197261],[13.4594077,46.019895],[13.4595241,46.020149],[13.4596564,46.0207076],[13.4596595,46.0215414],[13.4598284,46.0217538],[13.4604174,46.0219756],[13.4605514,46.022441],[13.460362,46.0231017],[13.4604364,46.0232938],[13.4603792,46.0234441],[13.4605475,46.0237873],[13.4606824,46.0243559],[13.4617298,46.0253448],[13.462385,46.0263268],[13.4627298,46.0280617],[13.4630009,46.0282339],[13.463318,46.02827],[13.4637296,46.02888],[13.4640409,46.0288032],[13.4641688,46.0290273],[13.4645533,46.0289791],[13.4648346,46.0291964],[13.4647644,46.0294268],[13.4644325,46.0298031],[13.4647781,46.0305018],[13.4648295,46.0308416],[13.4655513,46.0312724],[13.4653483,46.031667],[13.4655242,46.0321543],[13.4655593,46.0325199],[13.4663262,46.033285],[13.4674172,46.0336895],[13.4681888,46.0353155],[13.4678497,46.0354451],[13.4669836,46.0353816],[13.4668749,46.035442],[13.4673078,46.0358824],[13.4681135,46.0360831],[13.46833,46.0362905],[13.4686248,46.0370602],[13.4684548,46.037526],[13.4686718,46.0382036],[13.468834,46.0383334],[13.4688803,46.038559],[13.4688191,46.0386513],[13.4691312,46.039329],[13.468844,46.0395535],[13.4685766,46.0396434],[13.4678136,46.0397184],[13.4675703,46.0398427],[13.4674234,46.040402],[13.4671947,46.0405553],[13.4665769,46.040846],[13.4659914,46.0408624],[13.4659504,46.0417393],[13.4658224,46.0420008],[13.4661022,46.0425887],[13.4659473,46.0430064],[13.4659187,46.0433524],[13.4661293,46.0436512],[13.4661198,46.0439253],[13.4663382,46.0440608],[13.4664748,46.0442606],[13.4667312,46.0443794],[13.4666997,46.0445242],[13.4670531,46.0448168],[13.4674866,46.0456642],[13.4679922,46.0460891],[13.4682308,46.0466655],[13.4676924,46.0468553],[13.4664816,46.0470991],[13.4654284,46.0474925],[13.4632962,46.0492065],[13.4630151,46.0498975],[13.4625947,46.0503847],[13.4623355,46.0510838],[13.4619238,46.0518623],[13.4618628,46.0522495],[13.4620247,46.0532492],[13.4619917,46.0534312],[13.4618308,46.0536075],[13.4608226,46.0541631],[13.4610234,46.0544649],[13.460961,46.0546849],[13.461213,46.0550939],[13.461791,46.0555028],[13.4618235,46.0556253],[13.4617328,46.0558152],[13.4619528,46.0559952],[13.4619148,46.0562327],[13.4620263,46.056347],[13.4622413,46.056392],[13.4622526,46.0565843],[13.4624891,46.0567059],[13.4636272,46.0586065],[13.4639853,46.0589361],[13.4641923,46.0589297],[13.4645827,46.0591855],[13.4649943,46.0588175],[13.4653889,46.0589316],[13.4666668,46.0595915],[13.4686351,46.0609802],[13.4703072,46.0615861],[13.4702741,46.0623314],[13.4708387,46.0625444],[13.4725142,46.0629409],[13.4728455,46.0631116],[13.472774,46.0637044],[13.4722688,46.0642632],[13.4721072,46.0642957],[13.4717705,46.0645612],[13.4719094,46.0646086],[13.4708455,46.066902],[13.470455,46.0672357],[13.4692328,46.0676905],[13.4670925,46.0687694],[13.4668251,46.0687099],[13.4664304,46.0696609],[13.4665186,46.0698856],[13.4667055,46.070007],[13.4687154,46.0706955],[13.4689295,46.0712166],[13.4691014,46.071398],[13.4714991,46.0729816],[13.4715202,46.0734252],[13.4711951,46.0734628],[13.4710077,46.0735806],[13.47047,46.0745419],[13.4702046,46.0748153],[13.470041,46.0748374],[13.4698564,46.0749856],[13.4694714,46.075023],[13.469123,46.0754369],[13.4683499,46.0757394],[13.4677235,46.076239],[13.4675822,46.0767912],[13.4674381,46.0768577],[13.4676478,46.0769697],[13.4679736,46.0775555],[13.4689102,46.0780378],[13.4692963,46.0781192],[13.4696722,46.0774866],[13.4698904,46.0775173],[13.4706452,46.0772294],[13.4713447,46.0775021],[13.4721069,46.0776647],[13.4737039,46.0778295],[13.4744513,46.0775377],[13.4746867,46.077847],[13.474764,46.0787954],[13.4748974,46.0789071],[13.4748023,46.0790878],[13.4742059,46.0796519],[13.4739,46.0806295],[13.4737295,46.0807755],[13.4732527,46.0809207],[13.4730921,46.0812629],[13.4726488,46.0814341],[13.4727112,46.0815898],[13.4715258,46.0815378],[13.4699097,46.0808323],[13.4691373,46.0806029],[13.469191,46.0808988],[13.4691075,46.0810986],[13.4681316,46.0810481],[13.4672645,46.0813424],[13.4671003,46.0815675],[13.4673854,46.0818832],[13.4674255,46.0821165],[13.4671577,46.0828652],[13.4677503,46.0830117],[13.468197,46.0833169],[13.4682767,46.0834566],[13.4682704,46.0838477],[13.468528,46.0842376],[13.4684389,46.0844891],[13.4684932,46.084562],[13.469703,46.0847646],[13.4707602,46.0854252],[13.472103,46.0854998],[13.4726037,46.0856798],[13.473201,46.0857697],[13.4730479,46.0859339],[13.4741463,46.0854138],[13.4746403,46.0852881],[13.4767587,46.085716],[13.4780351,46.0857727],[13.4793489,46.0861316],[13.4819907,46.0865771],[13.4825224,46.0864893],[13.48361,46.0870659],[13.484558,46.0874003],[13.4850095,46.0882915],[13.4858728,46.0891706],[13.4863912,46.0893777],[13.486955,46.0894328],[13.4874645,46.0895897],[13.4886639,46.0902063],[13.4897889,46.0901568],[13.4911885,46.0899678],[13.4935143,46.0899015],[13.4942255,46.0897302],[13.49436,46.0896313],[13.4944493,46.0893245],[13.4949405,46.089257],[13.4950796,46.0893541],[13.4947852,46.0895001],[13.4948089,46.0896481],[13.4950693,46.0895717],[13.495285,46.0896053],[13.495762,46.0900084],[13.4963086,46.0901956],[13.4972839,46.0903321],[13.5004483,46.0910858],[13.5030111,46.0911383],[13.5048875,46.0922196],[13.5050739,46.0926273],[13.5050587,46.09319],[13.5055133,46.0930005],[13.5059028,46.092939],[13.5061374,46.0931111],[13.5059723,46.0931733],[13.5060402,46.0932803],[13.5065348,46.093514],[13.5068547,46.0935674],[13.5060836,46.0946107],[13.5070649,46.0946768],[13.5074387,46.0949847],[13.5080844,46.0957099],[13.5080084,46.095883],[13.5080968,46.0968303],[13.508264,46.0969709],[13.5082426,46.0974069],[13.5080931,46.097506],[13.5077916,46.0975302],[13.5075037,46.0978487],[13.5074562,46.0980663],[13.5075497,46.098211],[13.5074125,46.098487],[13.5081084,46.09908],[13.5094714,46.0997096],[13.5095881,46.0992512],[13.5101333,46.0988997],[13.5126567,46.0976588],[13.5134706,46.0971429],[13.5140845,46.0970456],[13.5148023,46.0966908],[13.515154,46.0964368],[13.5157416,46.0961727],[13.5172379,46.0951717],[13.5178975,46.0948364],[13.5181484,46.0947371],[13.5186972,46.0952141],[13.5197206,46.0945954],[13.5201941,46.0945809],[13.520565,46.0946381],[13.522154,46.0953496],[13.5227747,46.0958307],[13.5236589,46.0960241],[13.523598,46.0965418],[13.5240259,46.0972569],[13.5244698,46.0976612],[13.5245251,46.0978825],[13.5249507,46.0974749],[13.5266302,46.0989296],[13.5278982,46.0989878],[13.5296021,46.0987939],[13.5303525,46.0991319],[13.5321767,46.0994835],[13.533288,46.0973516],[13.5340157,46.0967395],[13.5345672,46.0965821],[13.5346659,46.0959104],[13.5352335,46.0954236],[13.5355752,46.0949614],[13.5375655,46.0936394],[13.5393792,46.0929898],[13.5410283,46.0928786],[13.5421802,46.0932821],[13.542248,46.0932119],[13.5419642,46.0927658],[13.5427658,46.0928454],[13.5431817,46.0930054],[13.5432938,46.093243],[13.5435335,46.0934154],[13.5440449,46.093196],[13.5443928,46.0934035],[13.544518,46.0933635],[13.5451925,46.0937863],[13.545285,46.0938814],[13.5453044,46.094084],[13.5454871,46.0942184],[13.545846,46.0942712],[13.5471263,46.0951332],[13.548456,46.0955054],[13.5493031,46.0960765],[13.5502851,46.0965446],[13.5504792,46.0969105],[13.5506104,46.0981113],[13.550874,46.0981969],[13.5522184,46.0982109],[13.5526124,46.0981384],[13.5546656,46.0985168],[13.5555455,46.0996953],[13.5554738,46.1003365],[13.5555224,46.1005243],[13.5563162,46.1008972],[13.5574976,46.1012205],[13.5588983,46.1017295],[13.5603568,46.1029498],[13.5611758,46.1035331],[13.5613184,46.1039604],[13.5622329,46.1047394],[13.5647331,46.1060852],[13.565945,46.1065256],[13.5664699,46.1068489],[13.5689959,46.1075092],[13.5700834,46.1081725],[13.5706453,46.1083646],[13.5715211,46.1084481],[13.5721525,46.1084123],[13.5723624,46.1086101],[13.573502,46.1086053],[13.5738546,46.1083885],[13.5749914,46.1082429],[13.5753186,46.1082697],[13.5755534,46.1083091],[13.575483,46.1084996],[13.5755721,46.1085873],[13.5764402,46.1084614],[13.5774126,46.1088567],[13.5775407,46.1089613],[13.5775467,46.1091242],[13.5781368,46.1091985],[13.5799891,46.1097102],[13.5810248,46.109715],[13.5819936,46.1095462],[13.5830537,46.1099927],[13.583841,46.1102135],[13.5847997,46.1107885],[13.5856553,46.1111558],[13.5863541,46.11182],[13.5873579,46.112165],[13.587883,46.1127593],[13.5882524,46.1129389],[13.5883893,46.112966],[13.5889899,46.1128022],[13.5898931,46.1133973],[13.592559,46.1143831],[13.5935604,46.1145533],[13.594127,46.1144398],[13.5953694,46.114612],[13.5956151,46.1149995],[13.5960287,46.115341],[13.5965373,46.1153329],[13.5966247,46.1154437],[13.5967729,46.1161659],[13.596901,46.1162041],[13.5972223,46.116195],[13.598609,46.1158466],[13.5989311,46.1159546],[13.5992181,46.1163085],[13.5993281,46.1162791],[13.5996926,46.1157931],[13.6000608,46.1155139],[13.6007947,46.1153905],[13.6016656,46.1154625],[13.6023502,46.1141868],[13.6018137,46.1139372],[13.6017973,46.11371],[13.6021383,46.1133885],[13.6023684,46.112983],[13.6012983,46.1127434],[13.6012241,46.1125933],[13.6019043,46.1119266],[13.6020852,46.111325],[13.6020136,46.1110732],[13.6015664,46.1106267],[13.5998151,46.110066],[13.599729,46.1098105],[13.5998189,46.1095301],[13.5999666,46.1090977],[13.6003583,46.108458],[13.6001605,46.1081707],[13.599197,46.1075076],[13.598893,46.1073818],[13.5971343,46.1071194],[13.5964777,46.1068671],[13.5968077,46.1061622],[13.5969896,46.1055234],[13.5966004,46.1047045],[13.5946584,46.1036088],[13.5942172,46.1035084],[13.5925698,46.1034644],[13.5918964,46.1033103],[13.590598,46.1027685],[13.5896957,46.1021977],[13.5893416,46.1017558],[13.5891693,46.1012381],[13.5890122,46.1010869],[13.5876284,46.1002896],[13.5868089,46.1001065],[13.5864089,46.1001186],[13.5857039,46.1002285],[13.5843629,46.1006088],[13.5833338,46.1006233],[13.5831507,46.100526],[13.5830322,46.1002125],[13.5831019,46.0993857],[13.5827229,46.0987636],[13.581919,46.0981804],[13.5812861,46.0981319],[13.5809056,46.0983239],[13.5806178,46.0983442],[13.5800337,46.0981096],[13.5794402,46.0974883],[13.5790194,46.096401],[13.5789397,46.095898],[13.5787614,46.0956346],[13.5785272,46.0954349],[13.578257,46.0953366],[13.5774116,46.0952175],[13.5766194,46.0945462],[13.5764102,46.0939568],[13.5765948,46.0930331],[13.5764104,46.0928137],[13.5758398,46.0924403],[13.5757264,46.0923066],[13.5757076,46.0920926],[13.5753826,46.0918308],[13.5743101,46.0914511],[13.5738981,46.0911746],[13.5737052,46.0907109],[13.5735316,46.0896809],[13.5730429,46.0887929],[13.5727685,46.0884605],[13.5724266,46.08829],[13.5721643,46.088263],[13.5716073,46.0885002],[13.5709899,46.0889979],[13.5706886,46.0891468],[13.5699696,46.0892498],[13.5695317,46.0892103],[13.5675999,46.0883077],[13.566889,46.0875288],[13.5665185,46.0873409],[13.5659281,46.0873573],[13.5638667,46.0877013],[13.5630236,46.0876907],[13.5620142,46.0875151],[13.5612247,46.0871389],[13.5609443,46.0868572],[13.5605971,46.0863305],[13.5603983,46.0857242],[13.5602617,46.0855528],[13.5595409,46.0853368],[13.55835,46.08521],[13.5566008,46.0848045],[13.5541845,46.0838073],[13.5533597,46.0836579],[13.5531199,46.0836955],[13.5529374,46.0837644],[13.5523601,46.0844118],[13.5519521,46.0845491],[13.5514994,46.0845162],[13.5510821,46.0842531],[13.5510181,46.0840896],[13.5510048,46.0827428],[13.550857,46.0822456],[13.5507591,46.082068],[13.5503407,46.0818523],[13.5494936,46.0820045],[13.5487807,46.0824228],[13.5466775,46.0832576],[13.5463585,46.0833214],[13.5457549,46.0832901],[13.5445369,46.0830948],[13.5434976,46.0825728],[13.5431455,46.0822427],[13.5429741,46.0819081],[13.5429033,46.0816358],[13.5434168,46.080082],[13.5434508,46.0791598],[13.5431878,46.0782203],[13.5424852,46.0771427],[13.5415667,46.0766731],[13.5386817,46.0764701],[13.5383219,46.0758821],[13.5380919,46.0748141],[13.5377589,46.0744943],[13.5373382,46.0741769],[13.536313,46.0736957],[13.5359598,46.0734131],[13.534182,46.0728238],[13.5336616,46.0722269],[13.5334656,46.071892],[13.5333183,46.0713847],[13.5335401,46.0699934],[13.5336558,46.0696828],[13.5335828,46.0694954],[13.5334533,46.0694089],[13.5325017,46.0692847],[13.5320269,46.0693465],[13.5309134,46.0698138],[13.5302222,46.0703308],[13.5300176,46.0703383],[13.5297001,46.070168],[13.5293858,46.0697128],[13.5292241,46.0691986],[13.5294361,46.0685466],[13.5301619,46.0676367],[13.5302999,46.0672212],[13.5301666,46.0665479],[13.5297408,46.0664406],[13.5284421,46.0665326],[13.5274992,46.0667918],[13.5267877,46.067349],[13.5254445,46.0674675],[13.5243876,46.0668976],[13.523715,46.0663529],[13.5231895,46.0657729],[13.522259,46.0652079],[13.5216576,46.0649153],[13.5206975,46.0645636],[13.5200386,46.0644195],[13.5187565,46.0638906],[13.5171552,46.0630931],[13.5159724,46.0623112],[13.5147007,46.0619555],[13.5138496,46.0618834],[13.5131952,46.0619461],[13.5113692,46.0626144],[13.5104761,46.0628605],[13.5091265,46.0626699],[13.5088486,46.0624865],[13.5080776,46.0614487],[13.5068471,46.0604523],[13.5066507,46.0605142],[13.505985,46.0609838],[13.5053346,46.0616164],[13.5047882,46.0620028],[13.5042546,46.0626301],[13.5036448,46.0626527],[13.5026834,46.0625384],[13.5016009,46.0620119],[13.5012662,46.0617837],[13.5008161,46.0613131],[13.5002912,46.060543],[13.499573,46.05917],[13.4991214,46.0591131],[13.4987325,46.0592607],[13.4981139,46.0592526],[13.4977081,46.0591319],[13.4965071,46.0585022],[13.4963125,46.0583029],[13.4962995,46.0577091],[13.4964319,46.0574903],[13.4972284,46.0566969],[13.4975223,46.0560935],[13.4974837,46.0546345],[13.4972568,46.0529491],[13.4974836,46.0523008],[13.497879,46.0517327],[13.4978374,46.0514778],[13.4977225,46.0513983],[13.4969378,46.0513351],[13.4958576,46.0507984],[13.4956273,46.0504719],[13.4953238,46.0497343],[13.4950681,46.0494622],[13.4942672,46.0489663],[13.493411,46.0485961],[13.4919717,46.0482695],[13.4911934,46.0482088],[13.4891301,46.0482731],[13.4884126,46.048227],[13.4871492,46.0485207],[13.4865928,46.0485282],[13.4863174,46.0484501],[13.4855187,46.0474074],[13.4853227,46.0470123],[13.4846153,46.0462932],[13.4845482,46.0461371],[13.4847238,46.0459116],[13.4852149,46.0456902],[13.4857746,46.0451635],[13.4857616,46.0447167],[13.4855429,46.044376],[13.4852705,46.0440853],[13.4848348,46.0438758],[13.4837353,46.0435911],[13.4825987,46.0434824],[13.4822547,46.0433299],[13.4820997,46.043088],[13.4823383,46.0426059],[13.4831988,46.0417009],[13.4836507,46.0407709],[13.4836446,46.0401819],[13.4833488,46.0392856],[13.4830449,46.0387683],[13.482498,46.0381756],[13.4816396,46.0377702],[13.4809349,46.0376525],[13.479996,46.0377637],[13.4792429,46.0377358],[13.4789435,46.0376596],[13.4786818,46.0373505],[13.4782211,46.0361453],[13.4776784,46.0351135],[13.4775569,46.0344767],[13.4775117,46.0325568],[13.4767729,46.0304954],[13.4764837,46.0293396],[13.476576,46.0285385],[13.4767654,46.0279659],[13.4766938,46.0275272],[13.4756855,46.0260933],[13.4753858,46.0247855],[13.4752388,46.0245501],[13.4746721,46.0239701],[13.4727889,46.0226925],[13.47266,46.0222946],[13.4726114,46.0207325],[13.4724762,46.0203916],[13.4722656,46.0201793],[13.4709222,46.0194172],[13.4709704,46.0190653],[13.471582,46.017858],[13.4717221,46.0169868],[13.4711851,46.0148958],[13.4710588,46.014107],[13.4710277,46.01366],[13.4712394,46.0122728],[13.4711429,46.0118408],[13.4710204,46.0116805],[13.4705656,46.0113429],[13.4692195,46.0107246],[13.4683373,46.0102159],[13.4679507,46.0099018],[13.4674855,46.0092978],[13.4670334,46.0089157],[13.4666993,46.0088038],[13.4659634,46.0082298],[13.4651516,46.0069161],[13.4637129,46.0059701],[13.4632262,46.0057956],[13.462342,46.0056974],[13.4613007,46.0054484],[13.4603048,46.0053635],[13.4602139,46.0056935],[13.46094,46.0060117],[13.4611797,46.006292],[13.4611328,46.0070653],[13.4574655,46.0090371],[13.4566731,46.0091867],[13.4529435,46.0102136],[13.4524057,46.0102467],[13.4521572,46.0103927],[13.4523373,46.01076],[13.4528002,46.011249],[13.4533907,46.0117747],[13.4537036,46.0118755],[13.4538662,46.012356],[13.4549877,46.0134756],[13.4559369,46.0142735],[13.4563893,46.0145427],[13.456735,46.0146314],[13.457289,46.0153936],[13.4584966,46.0160173]]]},"properties":{"type":"boundary","gemeente":"Prepotto / Prapotno / Prepot"}}]}