{"type":"FeatureCollection","metadata":{"gemeente":"Preseglie","slug":"preseglie","generated_at":"2026-09-26T13:10:30.373634Z","total_points":4,"providers":["PosteItaliane","DHL","Amazon"],"bounds":[10.389132,45.654553,10.3932033,45.67120427]},"features":[{"type":"Feature","geometry":{"type":"Point","coordinates":[10.3932033,45.66656341]},"properties":{"type":"pakketpunt","locatieNaam":"Preseglie","straatNaam":"Via Roma","straatNr":"59","vervoerder":"PosteItaliane","puntType":"postkantoor","bezettingsgraad":50,"latitude":45.66656341,"longitude":10.3932033,"canPickup":true,"canDropoff":true,"openingstijden":{"za":"08:20 - 12:45","zo":"gesloten","ma":"gesloten","di":"08:20 - 13:45","wo":"gesloten","do":"08:20 - 13:45","vr":"gesloten"}}},{"type":"Feature","geometry":{"type":"Point","coordinates":[10.39253007,45.67120427]},"properties":{"type":"pakketpunt","locatieNaam":"Tabaccheria N. 3","straatNaam":"Via Chiese","straatNr":"1","vervoerder":"PosteItaliane","puntType":"servicepunt","bezettingsgraad":50,"latitude":45.67120427,"longitude":10.39253007,"canPickup":true,"canDropoff":true,"openingstijden":{"za":"06:30 - 20:00","zo":"gesloten","ma":"06:30 - 20:00","di":"06:30 - 20:00","wo":"06:30 - 20:00","do":"06:30 - 20:00","vr":"06:30 - 20:00"}}},{"type":"Feature","geometry":{"type":"Point","coordinates":[10.39253,45.671204]},"properties":{"type":"pakketpunt","locatieNaam":"TABACCHERIA N. 3","straatNaam":"VIA CHIESE 1","straatNr":"","vervoerder":"DHL","puntType":"parcelShop","bezettingsgraad":50,"latitude":45.671204,"longitude":10.39253,"canPickup":true,"canDropoff":true,"openingstijden":{"ma":"06:30 - 20:00","di":"06:30 - 20:00","wo":"06:30 - 20:00","do":"06:30 - 20:00","vr":"06:30 - 20:00","za":"06:30 - 20:00","zo":"gesloten"}}},{"type":"Feature","geometry":{"type":"Point","coordinates":[10.389132,45.654553]},"properties":{"type":"pakketpunt","locatieNaam":"Amazon Locker - citronella","straatNaam":"Conad - Preseglie","straatNr":"","vervoerder":"Amazon","puntType":"locker","bezettingsgraad":50,"latitude":45.654553,"longitude":10.389132,"canPickup":true,"canDropoff":false,"openingstijden":null}},{"type":"Feature","geometry":{"type":"Polygon","coordinates":[[[10.3643078,45.6622579],[10.3635938,45.6614024],[10.3637315,45.6612567],[10.3646927,45.6606692],[10.3652575,45.6601404],[10.3658319,45.6600075],[10.3666881,45.6593222],[10.3699724,45.6571496],[10.3702786,45.6570739],[10.3708713,45.6571658],[10.371028,45.6562279],[10.3711795,45.6559245],[10.3711144,45.6545077],[10.3712104,45.6542995],[10.3711934,45.6540657],[10.370532,45.6537856],[10.3704373,45.6535887],[10.3708294,45.65335],[10.3716421,45.6524672],[10.3722828,45.6519014],[10.3722543,45.6512627],[10.3723484,45.6509105],[10.3729332,45.6501564],[10.373138,45.650136],[10.3728622,45.6498783],[10.3735148,45.6492764],[10.3739503,45.6497662],[10.3747965,45.6492069],[10.3759347,45.6500933],[10.3765705,45.6498516],[10.3768534,45.6498752],[10.3770669,45.6502057],[10.3769797,45.6503147],[10.3775778,45.6506315],[10.3787956,45.6500498],[10.3792475,45.6496393],[10.3791013,45.6499561],[10.3794126,45.6506094],[10.3792789,45.651439],[10.3794701,45.6519048],[10.3800926,45.6516452],[10.3815919,45.6520771],[10.382848,45.6520079],[10.3829699,45.6522675],[10.3832577,45.652489],[10.3846961,45.6530476],[10.3850945,45.6530698],[10.3862307,45.652822],[10.3870385,45.6522721],[10.3881035,45.6527812],[10.3891892,45.65257],[10.3896962,45.6523118],[10.3903983,45.6521592],[10.3911186,45.6522224],[10.3921532,45.6520208],[10.3942943,45.6503835],[10.3962727,45.6499453],[10.3977743,45.6494319],[10.3986726,45.6494299],[10.3994546,45.6488802],[10.4008886,45.6482326],[10.4018621,45.6476446],[10.4049535,45.6465625],[10.4055072,45.6466367],[10.4045378,45.6484128],[10.4049149,45.6491192],[10.4048485,45.649543],[10.4051989,45.6497007],[10.4057009,45.6502706],[10.4062233,45.6511462],[10.4062103,45.6513309],[10.4057142,45.6518276],[10.4056181,45.6520898],[10.4060185,45.6527059],[10.406451,45.6540867],[10.4064348,45.654978],[10.4060103,45.6559643],[10.4059061,45.6564156],[10.4058132,45.6573168],[10.4059899,45.6582237],[10.4059449,45.6584763],[10.4062065,45.6586711],[10.4064384,45.6592173],[10.4071131,45.660019],[10.4078698,45.6605047],[10.4081281,45.6610776],[10.4081063,45.6617439],[10.4084902,45.6622072],[10.4085093,45.662459],[10.4087077,45.6626906],[10.4086755,45.662943],[10.4077203,45.6637559],[10.4062207,45.6643594],[10.4056921,45.6647799],[10.4051225,45.665102],[10.4051072,45.6655162],[10.4048205,45.6658618],[10.404808,45.666384],[10.4049701,45.6677321],[10.4048989,45.667967],[10.4043261,45.6686761],[10.4037831,45.6690338],[10.4028621,45.6691711],[10.402258,45.6696556],[10.4017228,45.6698152],[10.401544,45.6698534],[10.4008586,45.6696548],[10.4008577,45.6701318],[10.4007415,45.6706193],[10.3999388,45.6708632],[10.4003877,45.6713617],[10.4000355,45.671654],[10.4006635,45.6721234],[10.4001654,45.6727415],[10.400599,45.6731412],[10.4006028,45.6733572],[10.4003502,45.6739724],[10.3998798,45.6741582],[10.3999126,45.6744458],[10.400265,45.6751885],[10.4002532,45.6757467],[10.4003588,45.6758624],[10.3996897,45.6773467],[10.3999953,45.677757],[10.4001486,45.6782412],[10.4000788,45.6785301],[10.3997342,45.6791283],[10.3978275,45.6799078],[10.3984641,45.680719],[10.3991918,45.6805481],[10.3993598,45.6805911],[10.399823,45.6811434],[10.3997626,45.6812972],[10.3989061,45.6814517],[10.3977602,45.6818438],[10.3975838,45.682494],[10.3969074,45.6836903],[10.3970969,45.6840841],[10.3970514,45.6843186],[10.3969014,45.6844825],[10.3959984,45.6848356],[10.3954416,45.6851664],[10.3948647,45.6857225],[10.3946048,45.6861127],[10.3936014,45.687079],[10.3928528,45.6879612],[10.3922203,45.688347],[10.3921661,45.6887527],[10.392001,45.6888267],[10.3914604,45.6887793],[10.3907635,45.6891568],[10.3898173,45.6888083],[10.3867977,45.688746],[10.386531,45.6888663],[10.3853606,45.6898346],[10.384396,45.6908184],[10.3837632,45.69016],[10.383064,45.6898624],[10.3821646,45.6889372],[10.3811587,45.6881799],[10.3801806,45.6878362],[10.3800615,45.6878241],[10.3791686,45.6881994],[10.3762623,45.6896116],[10.3743858,45.686934],[10.3734748,45.6859189],[10.373495,45.6856936],[10.3738786,45.685104],[10.3739021,45.6844917],[10.3733567,45.6831931],[10.3730225,45.6826571],[10.371484,45.6827566],[10.3705686,45.6826056],[10.3694167,45.6827634],[10.3691756,45.6828833],[10.3690597,45.6828667],[10.3690181,45.6827412],[10.3682983,45.6827138],[10.3679442,45.682412],[10.367469,45.6824087],[10.3673522,45.6823561],[10.3669014,45.6817765],[10.3663276,45.6814143],[10.3657582,45.6812321],[10.3647056,45.6807227],[10.3634768,45.6798283],[10.3620955,45.6779366],[10.3619349,45.6776685],[10.3619159,45.6774167],[10.3627863,45.6751922],[10.3633919,45.6742218],[10.3641061,45.6724402],[10.3640415,45.6713699],[10.3647106,45.6709028],[10.3652973,45.6707428],[10.3657269,45.6704586],[10.3660233,45.669978],[10.3665193,45.6697831],[10.3667198,45.6695827],[10.3668989,45.6690315],[10.3671112,45.6687859],[10.367504,45.6685742],[10.3677376,45.6681484],[10.3684871,45.6678243],[10.3684509,45.6673927],[10.3680039,45.6670291],[10.3674382,45.6661358],[10.367307,45.6657593],[10.3669548,45.6655295],[10.3644971,45.6626517],[10.3643078,45.6622579]]]},"properties":{"type":"boundary","gemeente":"Preseglie"}}]}