{"type":"FeatureCollection","metadata":{"gemeente":"Rignano Garganico","slug":"rignano-garganico","generated_at":"2026-09-26T14:27:51.260001Z","total_points":2,"providers":["PosteItaliane","DHL"],"bounds":[15.588344,41.67841383,15.58834409,41.678414]},"features":[{"type":"Feature","geometry":{"type":"Point","coordinates":[15.58834409,41.67841383]},"properties":{"type":"pakketpunt","locatieNaam":"Rignano Garganico","straatNaam":"Via Pio Xii","straatNr":"4","vervoerder":"PosteItaliane","puntType":"postkantoor","bezettingsgraad":50,"latitude":41.67841383,"longitude":15.58834409,"canPickup":true,"canDropoff":true,"openingstijden":{"za":"08:20 - 12:35","zo":"gesloten","ma":"08:20 - 13:35","di":"08:20 - 13:35","wo":"08:20 - 13:35","do":"08:20 - 13:35","vr":"08:20 - 13:35"}}},{"type":"Feature","geometry":{"type":"Point","coordinates":[15.588344,41.678414]},"properties":{"type":"pakketpunt","locatieNaam":"Ufficio Postale RIGNANO GARGANICO","straatNaam":"VIA PIO XII 4","straatNr":"","vervoerder":"DHL","puntType":"postOffice","bezettingsgraad":50,"latitude":41.678414,"longitude":15.588344,"canPickup":true,"canDropoff":true,"openingstijden":{"ma":"08:20 - 13:35","di":"08:20 - 13:35","wo":"08:20 - 13:35","do":"08:20 - 13:35","vr":"08:20 - 13:35","za":"08:20 - 12:35","zo":"gesloten"}}},{"type":"Feature","geometry":{"type":"Polygon","coordinates":[[[15.5197818,41.6973318],[15.5258773,41.7005799],[15.5297744,41.7024726],[15.5330413,41.7036721],[15.5358016,41.704509],[15.5375716,41.7048849],[15.5399056,41.7051835],[15.5404934,41.7051319],[15.5508551,41.7008626],[15.5521799,41.7000532],[15.5527528,41.6995479],[15.55384,41.7014431],[15.5521326,41.705618],[15.5481362,41.7121064],[15.5469524,41.7128943],[15.5498342,41.7121983],[15.5503144,41.7122652],[15.5528357,41.7131379],[15.5547049,41.7141378],[15.5559502,41.7150925],[15.5572317,41.7158786],[15.5621563,41.7180803],[15.5695581,41.720369],[15.575681,41.7209846],[15.5813061,41.7194732],[15.5863258,41.7163224],[15.5900348,41.7130758],[15.5909505,41.7119115],[15.5924859,41.7088485],[15.6062165,41.7041505],[15.6128654,41.7006568],[15.6257049,41.691139],[15.6321608,41.6828089],[15.634115,41.6800046],[15.6382664,41.6735854],[15.6388025,41.6718893],[15.642198,41.6570088],[15.6373327,41.6447946],[15.6208329,41.6420335],[15.6156346,41.6382391],[15.6331188,41.6286815],[15.6276033,41.6195691],[15.6236041,41.6093652],[15.6237782,41.6087251],[15.6235707,41.6082961],[15.6222347,41.6067444],[15.6220179,41.6065455],[15.6187607,41.6048799],[15.6106561,41.601843],[15.6062947,41.6035931],[15.5863807,41.6108969],[15.5854138,41.6113232],[15.5812175,41.6123009],[15.575607,41.6128381],[15.5755989,41.6106969],[15.5712681,41.610681],[15.5682815,41.6108525],[15.5682996,41.6130277],[15.5710241,41.6171256],[15.5540658,41.6257296],[15.5491081,41.6229493],[15.5471339,41.6221487],[15.546113,41.6219912],[15.5332332,41.6248469],[15.5323019,41.6254532],[15.5313944,41.6262925],[15.5304131,41.6294806],[15.5304765,41.629774],[15.5332754,41.6315268],[15.5361347,41.6331726],[15.5397831,41.6373517],[15.5414866,41.6472355],[15.5412741,41.6477202],[15.537662,41.6522152],[15.5323144,41.6578307],[15.5246946,41.6649143],[15.5214914,41.6739868],[15.5234524,41.6740955],[15.5252934,41.6745531],[15.5280098,41.6760362],[15.5285778,41.6766203],[15.5281745,41.6772148],[15.5265414,41.678712],[15.5163935,41.686711],[15.5155822,41.6890792],[15.5169044,41.6935356],[15.5171609,41.6940745],[15.5197818,41.6973318]]]},"properties":{"type":"boundary","gemeente":"Rignano Garganico"}}]}