{"type":"FeatureCollection","metadata":{"gemeente":"Rignano sull'Arno","slug":"rignano-sull-arno","generated_at":"2026-09-26T14:27:51.269940Z","total_points":9,"providers":["PosteItaliane","DPD","InPost","DHL","Amazon"],"bounds":[11.39618482,43.70395,11.45414353,43.7229028615919]},"features":[{"type":"Feature","geometry":{"type":"Point","coordinates":[11.39618482,43.71318442]},"properties":{"type":"pakketpunt","locatieNaam":"Troghi","straatNaam":"Via Fiorentina","straatNr":"82","vervoerder":"PosteItaliane","puntType":"postkantoor","bezettingsgraad":50,"latitude":43.71318442,"longitude":11.39618482,"canPickup":true,"canDropoff":true,"openingstijden":{"za":"08:20 - 12:45","zo":"gesloten","ma":"08:20 - 13:45","di":"08:20 - 13:45","wo":"08:20 - 13:45","do":"08:20 - 13:45","vr":"08:20 - 13:45"}}},{"type":"Feature","geometry":{"type":"Point","coordinates":[11.4539098,43.72255901]},"properties":{"type":"pakketpunt","locatieNaam":"Rignano Sull'arno","straatNaam":"Piazza Venticinque Aprile","straatNr":"27/m","vervoerder":"PosteItaliane","puntType":"postkantoor","bezettingsgraad":50,"latitude":43.72255901,"longitude":11.4539098,"canPickup":true,"canDropoff":true,"openingstijden":{"za":"08:20 - 12:35","zo":"gesloten","ma":"08:20 - 13:35","di":"08:20 - 13:35","wo":"08:20 - 13:35","do":"08:20 - 13:35","vr":"08:20 - 13:35"}}},{"type":"Feature","geometry":{"type":"Point","coordinates":[11.45414353,43.72290286]},"properties":{"type":"pakketpunt","locatieNaam":"Jolly Sistem","straatNaam":"VIA DELLA PIEVE","straatNr":"11","vervoerder":"DPD","puntType":"pickup_point","bezettingsgraad":50,"latitude":43.72290286,"longitude":11.45414353,"canPickup":true,"canDropoff":true,"openingstijden":{"ma":"09:00 - 12:30, 16:30 - 19:00","di":"09:00 - 12:30, 16:30 - 19:00","wo":"09:00 - 12:30, 16:30 - 19:00","do":"09:00 - 12:30, 16:30 - 19:00","vr":"09:00 - 12:30, 16:30 - 19:00","za":"09:00 - 12:30, 16:30 - 19:00","zo":"gesloten"}}},{"type":"Feature","geometry":{"type":"Point","coordinates":[11.44939,43.70395]},"properties":{"type":"pakketpunt","locatieNaam":"InPost Locker 24/7","straatNaam":"Via Pian dell'Isola","straatNr":"","vervoerder":"InPost","puntType":"automaat","bezettingsgraad":50,"latitude":43.70395,"longitude":11.44939,"canPickup":true,"canDropoff":true,"openingstijden":null}},{"type":"Feature","geometry":{"type":"Point","coordinates":[11.396185,43.713184]},"properties":{"type":"pakketpunt","locatieNaam":"Ufficio Postale TROGHI","straatNaam":"VIA FIORENTINA 82","straatNr":"","vervoerder":"DHL","puntType":"postOffice","bezettingsgraad":50,"latitude":43.713184,"longitude":11.396185,"canPickup":true,"canDropoff":true,"openingstijden":{"ma":"08:20 - 13:45","di":"08:20 - 13:45","wo":"08:20 - 13:45","do":"08:20 - 13:45","vr":"08:20 - 13:45","za":"08:20 - 12:45","zo":"gesloten"}}},{"type":"Feature","geometry":{"type":"Point","coordinates":[11.45391,43.722559]},"properties":{"type":"pakketpunt","locatieNaam":"Ufficio Postale RIGNANO SULL'ARNO","straatNaam":"PIAZZA VENTICINQUE APRILE 27-M","straatNr":"","vervoerder":"DHL","puntType":"postOffice","bezettingsgraad":50,"latitude":43.722559,"longitude":11.45391,"canPickup":true,"canDropoff":true,"openingstijden":{"ma":"08:20 - 13:35","di":"08:20 - 13:35","wo":"08:20 - 13:35","do":"08:20 - 13:35","vr":"08:20 - 13:35","za":"08:20 - 12:35","zo":"gesloten"}}},{"type":"Feature","geometry":{"type":"Point","coordinates":[11.39966,43.707106]},"properties":{"type":"pakketpunt","locatieNaam":"Amazon Locker - salverino","straatNaam":"Stazione Tamoil - PV 6098","straatNr":"","vervoerder":"Amazon","puntType":"locker","bezettingsgraad":50,"latitude":43.707106,"longitude":11.39966,"canPickup":true,"canDropoff":false,"openingstijden":null}},{"type":"Feature","geometry":{"type":"Point","coordinates":[11.4541435282417,43.7229028615919]},"properties":{"type":"pakketpunt","locatieNaam":"Amazon Counter (fermopoint)","straatNaam":"Jolly Sistem","straatNr":"","vervoerder":"Amazon","puntType":"helix","bezettingsgraad":50,"latitude":43.7229028615919,"longitude":11.4541435282417,"canPickup":true,"canDropoff":false,"openingstijden":null}},{"type":"Feature","geometry":{"type":"Point","coordinates":[11.4539,43.7225]},"properties":{"type":"pakketpunt","locatieNaam":"Ufficio Postale RIGNANO SULL'ARNO","straatNaam":"PIAZZA VENTICINQUE APRILE 27-M","straatNr":"","vervoerder":"Amazon","puntType":"3p","bezettingsgraad":50,"latitude":43.7225,"longitude":11.4539,"canPickup":true,"canDropoff":false,"openingstijden":null}},{"type":"Feature","geometry":{"type":"Polygon","coordinates":[[[11.3608783,43.6945086],[11.3612641,43.6942215],[11.3620767,43.6940606],[11.3624746,43.6941199],[11.3637044,43.6950624],[11.3642737,43.6953387],[11.36559,43.6956806],[11.3662986,43.6953958],[11.3670414,43.6953534],[11.3675799,43.6954773],[11.3685177,43.6954219],[11.3687939,43.69511],[11.368846,43.6945417],[11.3690993,43.6940413],[11.3692339,43.6930481],[11.3694425,43.6923595],[11.3687981,43.6914365],[11.3693284,43.6910383],[11.3696355,43.6906448],[11.3694039,43.6901184],[11.3688931,43.6897509],[11.3687191,43.6894303],[11.3693178,43.6882475],[11.3697261,43.6878248],[11.3721027,43.6882347],[11.3724003,43.6876005],[11.3728153,43.6876617],[11.3734509,43.6870272],[11.3748029,43.6873322],[11.3763116,43.6878321],[11.3768198,43.6878215],[11.3771351,43.68795],[11.3777947,43.6886295],[11.3785572,43.6881432],[11.3786876,43.6876746],[11.3790241,43.6872422],[11.3799555,43.687108],[11.3805959,43.6873017],[11.3811716,43.6877399],[11.3820657,43.6880724],[11.3834915,43.6883578],[11.3840854,43.6883184],[11.3845523,43.6882006],[11.3848299,43.6880057],[11.3848734,43.6875366],[11.384614,43.6872539],[11.3845869,43.6865702],[11.3848216,43.6862322],[11.3852286,43.6861697],[11.3866954,43.6865532],[11.3875552,43.6869584],[11.3883604,43.6874683],[11.388879,43.6876809],[11.3896369,43.6878504],[11.3906186,43.6885661],[11.391106,43.6890517],[11.3918007,43.6892223],[11.3937942,43.6890242],[11.3943589,43.6888396],[11.3955564,43.6889461],[11.3959304,43.6887648],[11.3963362,43.6884167],[11.397673,43.6882441],[11.3983812,43.6879593],[11.3990376,43.6880456],[11.3999805,43.6878845],[11.4007205,43.6878615],[11.4020786,43.6873901],[11.4028065,43.6869721],[11.403081,43.6869462],[11.4036619,43.6871246],[11.4042348,43.686998],[11.4056843,43.6872825],[11.4063566,43.6871128],[11.4076616,43.6877831],[11.4082862,43.688229],[11.4087537,43.6887569],[11.4089327,43.6892158],[11.4091177,43.6901177],[11.4095388,43.6907396],[11.4093784,43.6910427],[11.4094403,43.6913905],[11.4098454,43.6919092],[11.4102365,43.6921716],[11.4104896,43.6924808],[11.4108554,43.6932355],[11.4115669,43.6935988],[11.4123453,43.6941502],[11.4125909,43.6946496],[11.4125272,43.6950135],[11.4127078,43.6952412],[11.4143096,43.6951674],[11.4156603,43.6953328],[11.4165356,43.6957139],[11.4172517,43.6955859],[11.4185368,43.6960159],[11.4203092,43.6961382],[11.420345,43.6962993],[11.4205976,43.6965294],[11.4206093,43.6969592],[11.4207568,43.6972039],[11.4213297,43.6972212],[11.4218887,43.6969091],[11.422004,43.6970443],[11.4222626,43.6970357],[11.4225053,43.6971795],[11.4225928,43.6973851],[11.4228156,43.6975247],[11.4228355,43.6978439],[11.4232632,43.6976598],[11.4236372,43.6973362],[11.424045,43.6973463],[11.4242101,43.6976584],[11.4243719,43.6977835],[11.4256111,43.6977795],[11.4263361,43.6975841],[11.4264325,43.6973662],[11.427454,43.6968276],[11.4279147,43.6967932],[11.4283863,43.6969414],[11.4301608,43.6962787],[11.4311018,43.6963094],[11.4314099,43.6961894],[11.4320224,43.6961075],[11.4328693,43.6955023],[11.4329875,43.6953397],[11.4330718,43.6948543],[11.4338564,43.6938652],[11.434277,43.6939111],[11.4348078,43.6940874],[11.4350383,43.6942805],[11.4357855,43.6946567],[11.4362429,43.6946882],[11.4366951,43.6946642],[11.4372116,43.6944961],[11.4377424,43.6945042],[11.4385544,43.6943802],[11.4388877,43.6942077],[11.4393872,43.6935938],[11.4397792,43.6933849],[11.440506,43.6934026],[11.4407625,43.6935906],[11.4411907,43.6935635],[11.4413757,43.6936544],[11.4417613,43.693678],[11.4422998,43.6938993],[11.4424285,43.6937364],[11.4422731,43.6935951],[11.4423482,43.6929904],[11.4425437,43.6926534],[11.4437429,43.6921164],[11.4441989,43.6923143],[11.4444205,43.6922355],[11.4449767,43.692334],[11.4457919,43.6921649],[11.4460283,43.6922387],[11.4464352,43.6925499],[11.4465806,43.6927647],[11.4465839,43.6930307],[11.4467651,43.6933981],[11.4474899,43.6939204],[11.4476396,43.694343],[11.4477716,43.6944078],[11.4479755,43.6943378],[11.448503,43.6938213],[11.4485996,43.6933135],[11.4498777,43.6926284],[11.4501795,43.6925725],[11.4519043,43.6926928],[11.4526277,43.6926594],[11.452978,43.6924949],[11.4532584,43.6921519],[11.4537384,43.6917673],[11.4546574,43.6914023],[11.4548378,43.6911973],[11.4548757,43.6910213],[11.4551385,43.6908121],[11.4557386,43.6905326],[11.4561839,43.6905104],[11.4559366,43.693067],[11.4553357,43.6957666],[11.4548542,43.696878],[11.4545761,43.6977894],[11.4543058,43.6995519],[11.4535333,43.7017548],[11.4530472,43.7026189],[11.4522101,43.7048873],[11.4516747,43.7074805],[11.4516476,43.7085979],[11.4518064,43.7092966],[11.4520742,43.7098519],[11.452558,43.7114673],[11.4526594,43.7120026],[11.4525811,43.713802],[11.4527578,43.7150385],[11.4534804,43.7173192],[11.4534388,43.7177407],[11.4524998,43.719145],[11.4523374,43.7196364],[11.4524959,43.7200642],[11.4528501,43.7204539],[11.4552879,43.7217964],[11.4560033,43.7219602],[11.4592238,43.7222091],[11.4599408,43.7224559],[11.4602664,43.7227348],[11.4604399,43.7230258],[11.4609147,43.7243371],[11.461163,43.7247057],[11.4618827,43.7251772],[11.4623282,43.7252863],[11.4632066,43.7253408],[11.4655839,43.7251351],[11.4663888,43.7253637],[11.4666672,43.7255183],[11.4671028,43.7259711],[11.4673588,43.7264273],[11.4675154,43.7269175],[11.4675633,43.7275148],[11.4673057,43.72902],[11.4658558,43.731677],[11.465475,43.7320307],[11.4647304,43.7325316],[11.46415,43.7332911],[11.4639252,43.7337516],[11.4639206,43.734259],[11.4641685,43.734709],[11.4649517,43.7352712],[11.4677245,43.7378295],[11.4681301,43.7383859],[11.4687396,43.7395516],[11.4688559,43.7400338],[11.4687709,43.7402939],[11.4669658,43.7416093],[11.4662148,43.7423578],[11.4661352,43.7427315],[11.4662791,43.7431905],[11.466645,43.7438019],[11.467478,43.7458322],[11.46759,43.7463693],[11.467584,43.747099],[11.4672529,43.7477288],[11.4669456,43.7479402],[11.4659385,43.748999],[11.4652679,43.7495018],[11.4648109,43.7501222],[11.4638133,43.7524935],[11.4636693,43.7533692],[11.4636575,43.7539627],[11.4640539,43.7556129],[11.465,43.7571597],[11.4656638,43.7579726],[11.4658676,43.7583903],[11.4658789,43.758739],[11.4657818,43.7591241],[11.4652778,43.7603978],[11.4649015,43.7610134],[11.4641714,43.7617002],[11.4618074,43.7630103],[11.4598869,43.7643342],[11.4584326,43.7662703],[11.4581681,43.7669349],[11.4576287,43.7688122],[11.4575839,43.7695757],[11.457456,43.7698192],[11.4570491,43.7703499],[11.4563573,43.7708736],[11.4553099,43.7713263],[11.4541486,43.7715626],[11.4514103,43.771396],[11.4480506,43.770933],[11.4462704,43.7705207],[11.4411428,43.7700599],[11.4375271,43.7687478],[11.4345081,43.7684287],[11.4331379,43.7685436],[11.4274362,43.7697768],[11.4262045,43.7701173],[11.4164037,43.7723524],[11.4141847,43.7686097],[11.4139565,43.7675702],[11.4134162,43.7664922],[11.4133507,43.7657913],[11.4126,43.7650418],[11.4112192,43.7643777],[11.4108041,43.7642514],[11.4099641,43.7643682],[11.4084628,43.7644179],[11.4065612,43.7643949],[11.4058103,43.7642577],[11.4051051,43.7640204],[11.4031951,43.7631693],[11.4008874,43.7620024],[11.3991457,43.7613187],[11.398857,43.7610884],[11.3984947,43.7602609],[11.3981853,43.7599793],[11.3975065,43.7597775],[11.3953981,43.7595516],[11.3943302,43.7586286],[11.3937169,43.7582003],[11.3929001,43.7579653],[11.3920302,43.7579566],[11.3908425,43.7577653],[11.3901133,43.7575465],[11.3879249,43.7571398],[11.3872875,43.7565342],[11.3875839,43.7562413],[11.3891579,43.7553877],[11.3895184,43.755083],[11.3894583,43.7548232],[11.3883158,43.7538927],[11.3883451,43.7533789],[11.3885704,43.7527194],[11.3885442,43.7521412],[11.3873257,43.7517976],[11.3870661,43.7515149],[11.3872105,43.7507736],[11.3867029,43.7501899],[11.3867923,43.7493147],[11.3860995,43.7484469],[11.3853736,43.7472128],[11.3854623,43.7469442],[11.3862627,43.7466158],[11.3866288,43.7461399],[11.3873923,43.7456648],[11.3885052,43.7455425],[11.3890894,43.7452422],[11.3894693,43.744802],[11.3902286,43.7445341],[11.3908998,43.744547],[11.391036,43.7439139],[11.3908847,43.7432328],[11.3905916,43.7427348],[11.3889758,43.7420753],[11.3875645,43.7412495],[11.3858446,43.7398449],[11.3855953,43.7395079],[11.3853653,43.7387204],[11.3853421,43.7381357],[11.3850304,43.7368547],[11.3850266,43.734883],[11.3847761,43.731701],[11.3858331,43.7304905],[11.3859818,43.7298571],[11.3855767,43.7290372],[11.3837634,43.7265181],[11.3838238,43.7258506],[11.3845307,43.7239541],[11.3851325,43.7228521],[11.3856168,43.7224855],[11.3851733,43.7220858],[11.3825459,43.7211132],[11.3816316,43.7209538],[11.3811833,43.7206251],[11.3801354,43.7201832],[11.3797352,43.7196379],[11.3793795,43.7186504],[11.3790194,43.7180186],[11.3778596,43.7166292],[11.3774205,43.7165123],[11.376171,43.7166193],[11.3752591,43.7164762],[11.3746042,43.7162378],[11.3741187,43.7158877],[11.3737122,43.7153379],[11.3734516,43.714398],[11.3730568,43.7141451],[11.3735026,43.7134876],[11.3734444,43.7126424],[11.373254,43.7122232],[11.3717211,43.7117509],[11.3711916,43.7112307],[11.3712554,43.7106441],[11.3714952,43.7100381],[11.3684654,43.7062632],[11.3672404,43.7051362],[11.36685,43.7046761],[11.3666175,43.7041317],[11.3667416,43.7034989],[11.3667504,43.701833],[11.365897,43.7009593],[11.3656834,43.7005766],[11.3656937,43.6998921],[11.3654351,43.6993123],[11.3640691,43.698026],[11.3626425,43.6974073],[11.3621714,43.6971019],[11.3619568,43.6957468],[11.3615402,43.6955663],[11.36105,43.6950903],[11.3608783,43.6945086]]]},"properties":{"type":"boundary","gemeente":"Rignano sull'Arno"}}]}