{"type":"FeatureCollection","metadata":{"gemeente":"Riofreddo","slug":"riofreddo","generated_at":"2026-09-26T14:27:51.354080Z","total_points":1,"providers":["PosteItaliane"],"bounds":[12.99836394,42.06031339,12.99836394,42.06031339]},"features":[{"type":"Feature","geometry":{"type":"Point","coordinates":[12.99836394,42.06031339]},"properties":{"type":"pakketpunt","locatieNaam":"Riofreddo","straatNaam":"Via Della Pace","straatNr":"6","vervoerder":"PosteItaliane","puntType":"postkantoor","bezettingsgraad":50,"latitude":42.06031339,"longitude":12.99836394,"canPickup":true,"canDropoff":true,"openingstijden":{"za":"08:20 - 12:45","zo":"gesloten","ma":"gesloten","di":"08:20 - 13:45","wo":"gesloten","do":"08:20 - 13:45","vr":"gesloten"}}},{"type":"Feature","geometry":{"type":"Polygon","coordinates":[[[12.9728735,42.0729594],[12.9751921,42.0729271],[12.9785767,42.0739251],[12.9802185,42.073433],[12.9813455,42.073653],[12.9816333,42.0741675],[12.9820644,42.0746788],[12.9828391,42.0745309],[12.984294,42.0746979],[12.9846678,42.0749541],[12.9854582,42.0745023],[12.9863117,42.0742802],[12.9878937,42.0747463],[12.9888978,42.0747384],[12.9894908,42.0751378],[12.9913525,42.0757027],[12.9937034,42.0758719],[12.9959672,42.0757958],[12.9976889,42.0763124],[12.9988684,42.0759426],[13.0001066,42.0759753],[13.0016451,42.0758067],[13.0020993,42.0755293],[13.002385,42.0757849],[13.0033081,42.076084],[13.0040041,42.0774435],[13.0042035,42.0775053],[13.0057331,42.0774326],[13.0071059,42.0775544],[13.0072204,42.0770465],[13.0075969,42.0766242],[13.0126345,42.0766985],[13.013618,42.076186],[13.0142316,42.0760024],[13.0142536,42.0761248],[13.0148268,42.0762839],[13.0148085,42.0761194],[13.0149862,42.0760772],[13.017543,42.0767039],[13.017697,42.0766309],[13.0184149,42.0775686],[13.0182024,42.0786235],[13.0184401,42.0788934],[13.0196725,42.0791295],[13.0199636,42.0784274],[13.0201987,42.0775329],[13.020081,42.0765916],[13.0198217,42.0756028],[13.0191368,42.0752857],[13.0189718,42.0749768],[13.0200911,42.0733312],[13.0206722,42.0718826],[13.0211314,42.0717016],[13.0212031,42.0697417],[13.022021,42.0679468],[13.0217289,42.0667931],[13.0222829,42.0656726],[13.0222375,42.0650401],[13.0228174,42.064618],[13.0232275,42.0639339],[13.0230796,42.0633892],[13.0255975,42.0631],[13.0291238,42.061827],[13.0277721,42.0565846],[13.0269346,42.0498827],[13.0214483,42.0506615],[13.020485,42.0505236],[13.0202373,42.0506692],[13.0175505,42.0510728],[13.0167111,42.0506232],[13.0157525,42.0503774],[13.0145093,42.0515939],[13.0135116,42.052253],[13.0119704,42.0528405],[13.0088953,42.0522652],[13.0073742,42.0497904],[13.0067825,42.0489627],[13.0068651,42.0485948],[13.0057521,42.045755],[13.0051479,42.0452384],[13.0042556,42.0448758],[13.0034827,42.0447427],[13.0030085,42.0444036],[13.0016841,42.0448758],[13.0010587,42.0448445],[13.0008269,42.0449984],[13.0004334,42.0449149],[12.9999697,42.0451993],[12.9986031,42.0455645],[12.9972212,42.0456567],[12.9969134,42.045348],[12.9961756,42.044868],[12.9949601,42.0442575],[12.9936533,42.0442105],[12.9933863,42.0443305],[12.9925291,42.0443879],[12.986936,42.045517],[12.9840795,42.0466801],[12.9830275,42.0476941],[12.9829127,42.0484933],[12.9826903,42.0491166],[12.9828625,42.0496813],[12.9824605,42.0513694],[12.9806025,42.0538154],[12.9804966,42.0541453],[12.9806424,42.0546706],[12.9796223,42.0549986],[12.9774532,42.0575249],[12.977656,42.0578246],[12.9776778,42.0581181],[12.9778156,42.0582389],[12.9777957,42.0584079],[12.9779369,42.0585275],[12.9778871,42.0587397],[12.9781177,42.0588437],[12.9781499,42.0591536],[12.9779067,42.0595413],[12.9780555,42.0596578],[12.978113,42.0598321],[12.9779774,42.0599324],[12.9781462,42.0601276],[12.9784525,42.0602976],[12.9784365,42.0606807],[12.9782961,42.0610032],[12.9760141,42.0602886],[12.973885,42.0611069],[12.9729904,42.0630572],[12.972497,42.0642313],[12.9718997,42.0679853],[12.9717259,42.0684693],[12.9718801,42.0687575],[12.9717203,42.0691103],[12.9718585,42.06941],[12.9719853,42.0703457],[12.9728735,42.0729594]]]},"properties":{"type":"boundary","gemeente":"Riofreddo"}}]}