{"type":"FeatureCollection","metadata":{"gemeente":"Robecchetto con Induno","slug":"robecchetto-con-induno","generated_at":"2026-09-26T14:27:52.026616Z","total_points":10,"providers":["PosteItaliane","DPD","InPost","GLS","DHL","Amazon","FedEx"],"bounds":[8.757629,45.520545,8.780661,45.53359324]},"features":[{"type":"Feature","geometry":{"type":"Point","coordinates":[8.76487677,45.53359324]},"properties":{"type":"pakketpunt","locatieNaam":"Robecchetto Con Induno","straatNaam":"Piazza Della Liberta'","straatNr":"16","vervoerder":"PosteItaliane","puntType":"postkantoor","bezettingsgraad":50,"latitude":45.53359324,"longitude":8.76487677,"canPickup":true,"canDropoff":true,"openingstijden":{"ma":"gesloten","di":"gesloten","wo":"gesloten","do":"gesloten","vr":"gesloten","za":"gesloten","zo":"gesloten"}}},{"type":"Feature","geometry":{"type":"Point","coordinates":[8.78066053,45.52060615]},"properties":{"type":"pakketpunt","locatieNaam":"Sorrisi Quotidiani","straatNaam":"Via Roma","straatNr":"4","vervoerder":"PosteItaliane","puntType":"servicepunt","bezettingsgraad":50,"latitude":45.52060615,"longitude":8.78066053,"canPickup":true,"canDropoff":true,"openingstijden":{"za":"06:00 - 18:30","zo":"06:00 - 12:00","ma":"06:00 - 19:00","di":"06:00 - 19:00","wo":"06:00 - 19:00","do":"06:00 - 19:00","vr":"06:00 - 19:00"}}},{"type":"Feature","geometry":{"type":"Point","coordinates":[8.757629,45.522481]},"properties":{"type":"pakketpunt","locatieNaam":"Tabaccheria Fraire Mauro","straatNaam":"VIA GRAMSCI","straatNr":"39/41","vervoerder":"DPD","puntType":"pickup_point","bezettingsgraad":50,"latitude":45.522481,"longitude":8.757629,"canPickup":true,"canDropoff":true,"openingstijden":{"ma":"07:00 - 19:30","di":"07:00 - 19:30","wo":"07:00 - 19:30","do":"07:00 - 19:30","vr":"07:00 - 19:30","za":"07:00 - 19:30","zo":"gesloten"}}},{"type":"Feature","geometry":{"type":"Point","coordinates":[8.78051598,45.52056462]},"properties":{"type":"pakketpunt","locatieNaam":"Sorrisi Quotidiani","straatNaam":"VIA ROMA","straatNr":"4","vervoerder":"DPD","puntType":"pickup_point","bezettingsgraad":50,"latitude":45.52056462,"longitude":8.78051598,"canPickup":true,"canDropoff":true,"openingstijden":{"ma":"06:00 - 19:00","di":"06:00 - 19:00","wo":"06:00 - 19:00","do":"06:00 - 19:00","vr":"06:00 - 19:00","za":"06:00 - 18:30","zo":"06:00 - 12:00"}}},{"type":"Feature","geometry":{"type":"Point","coordinates":[8.78055,45.52074]},"properties":{"type":"pakketpunt","locatieNaam":"InPost Point","straatNaam":"Via Roma","straatNr":"4","vervoerder":"InPost","puntType":"servicepunt","bezettingsgraad":50,"latitude":45.52074,"longitude":8.78055,"canPickup":true,"canDropoff":true,"openingstijden":"Lun-Sab: 06:00-19:00 Dom: 06:00 - 12:00"}},{"type":"Feature","geometry":{"type":"Point","coordinates":[8.78052243,45.52057635]},"properties":{"type":"pakketpunt","locatieNaam":"SORRISI QUOTIDIANI","straatNaam":"Via Roma","straatNr":"4","vervoerder":"GLS","puntType":"parcel_shop","bezettingsgraad":50,"latitude":45.52057635,"longitude":8.78052243,"canPickup":true,"canDropoff":true,"openingstijden":"za: 06:00 - 18:30; zo: 06:00 - 12:00"}},{"type":"Feature","geometry":{"type":"Point","coordinates":[8.780587,45.520545]},"properties":{"type":"pakketpunt","locatieNaam":"SORRISI QUOTIDIANI","straatNaam":"Via Roma, 4","straatNr":"","vervoerder":"DHL","puntType":"parcelShop","bezettingsgraad":50,"latitude":45.520545,"longitude":8.780587,"canPickup":false,"canDropoff":true,"openingstijden":{"ma":"06:00 - 19:00","di":"06:00 - 19:00","wo":"06:00 - 19:00","do":"06:00 - 19:00","vr":"06:00 - 19:00","za":"06:00 - 18:30","zo":"gesloten"}}},{"type":"Feature","geometry":{"type":"Point","coordinates":[8.780661,45.520606]},"properties":{"type":"pakketpunt","locatieNaam":"SORRISI QUOTIDIANI","straatNaam":"VIA ROMA 4","straatNr":"","vervoerder":"DHL","puntType":"parcelShop","bezettingsgraad":50,"latitude":45.520606,"longitude":8.780661,"canPickup":true,"canDropoff":true,"openingstijden":{"ma":"06:00 - 19:00","di":"06:00 - 19:00","wo":"06:00 - 19:00","do":"06:00 - 19:00","vr":"06:00 - 19:00","za":"06:00 - 18:30","zo":"06:00 - 12:00"}}},{"type":"Feature","geometry":{"type":"Point","coordinates":[8.780502,45.520546]},"properties":{"type":"pakketpunt","locatieNaam":"Amazon Counter - PRIMAEDICOLA","straatNaam":"SORRISI QUOTIDIANI","straatNr":"","vervoerder":"Amazon","puntType":"helix","bezettingsgraad":50,"latitude":45.520546,"longitude":8.780502,"canPickup":true,"canDropoff":false,"openingstijden":null}},{"type":"Feature","geometry":{"type":"Point","coordinates":[8.780484365084686,45.52060951326658]},"properties":{"type":"pakketpunt","locatieNaam":"FedEx OnSite","straatNaam":"Via Roma, 4","straatNr":"","vervoerder":"FedEx","puntType":"servicepunt","bezettingsgraad":50,"latitude":45.52060951326658,"longitude":8.780484365084686,"canPickup":true,"canDropoff":true,"openingstijden":{"ma":"06:00 - 19:00","di":"06:00 - 19:00","wo":"06:00 - 19:00","do":"06:00 - 19:00","vr":"06:00 - 19:00","za":"06:00 - 18:30","zo":"06:00 - 12:00"}}},{"type":"Feature","geometry":{"type":"Polygon","coordinates":[[[8.7228362,45.5076423],[8.7229302,45.506753],[8.722727,45.5064104],[8.7228441,45.5060237],[8.7235133,45.5053142],[8.7244901,45.5044975],[8.7278924,45.5023994],[8.7290586,45.5020961],[8.7310423,45.5021728],[8.7349474,45.5007463],[8.7385347,45.4984638],[8.7393427,45.4981056],[8.7407136,45.4978117],[8.7419044,45.4976973],[8.7428383,45.4977985],[8.7456668,45.4978228],[8.748187,45.4980894],[8.749235,45.4984518],[8.7505652,45.4986527],[8.7562112,45.4983138],[8.7570826,45.4980622],[8.7576556,45.4981643],[8.7596237,45.4992486],[8.7610995,45.4998367],[8.7603758,45.5011089],[8.7605982,45.5011138],[8.7628331,45.5003984],[8.7652529,45.5002414],[8.7655224,45.5004625],[8.765238,45.5019065],[8.7672701,45.5026668],[8.768019,45.5030418],[8.7697707,45.5015557],[8.7724913,45.5021867],[8.7739048,45.5032246],[8.7728767,45.5046312],[8.7741092,45.5053267],[8.775807,45.5061087],[8.777851,45.5055501],[8.7784204,45.5064333],[8.7785883,45.5068522],[8.7784466,45.5070904],[8.7786047,45.5071627],[8.7789334,45.5069923],[8.7794555,45.5072949],[8.7812007,45.5057725],[8.7848412,45.5074131],[8.7861168,45.5056378],[8.7868432,45.5060802],[8.7870686,45.5057161],[8.7873734,45.5059282],[8.7876691,45.5055867],[8.7883664,45.505696],[8.7884493,45.5057772],[8.7877116,45.5066309],[8.7872016,45.5073635],[8.7885414,45.5072445],[8.789712,45.5074357],[8.7887087,45.508712],[8.7872572,45.510874],[8.7900295,45.5115632],[8.7903853,45.5109788],[8.7905508,45.5108126],[8.7906515,45.5108308],[8.791593,45.511134],[8.7910601,45.5119881],[8.7918836,45.5121741],[8.7933093,45.5126448],[8.7935719,45.5121682],[8.7938772,45.5118357],[8.7957329,45.5124511],[8.7950436,45.5136515],[8.7948835,45.5150059],[8.7943395,45.5158375],[8.7953335,45.5162353],[8.7942173,45.517768],[8.7930056,45.5173652],[8.7923508,45.5196098],[8.7933071,45.5198186],[8.7930783,45.5206957],[8.7934629,45.521421],[8.794543,45.5210809],[8.7945934,45.5230702],[8.7934613,45.5231807],[8.7918224,45.5232024],[8.7919483,45.5250412],[8.7914075,45.5249817],[8.7906069,45.5250477],[8.7905787,45.5270594],[8.7917926,45.5273451],[8.7912517,45.5281767],[8.792369,45.5286153],[8.7916574,45.5296986],[8.7887378,45.5287842],[8.7881158,45.5303132],[8.7870413,45.5299647],[8.7865323,45.5308188],[8.781689,45.5289465],[8.7810227,45.5298813],[8.7797254,45.5292083],[8.7795512,45.52955],[8.7767247,45.5314617],[8.7761096,45.5311365],[8.7699263,45.5353051],[8.7675197,45.5384956],[8.7622981,45.5367432],[8.7583798,45.5425202],[8.7540186,45.5409091],[8.7541899,45.5405875],[8.7538268,45.5404268],[8.753407,45.5405502],[8.7538538,45.5398217],[8.753772,45.5394975],[8.7543396,45.5385806],[8.7556395,45.5389659],[8.7567389,45.5372446],[8.7580552,45.5356857],[8.7598114,45.5338172],[8.7609701,45.5323795],[8.7599392,45.5316168],[8.7588937,45.5305254],[8.7566176,45.5293415],[8.7564965,45.5292152],[8.7563418,45.5287064],[8.7556094,45.5281647],[8.7555192,45.5279125],[8.755633,45.5271432],[8.7556081,45.525865],[8.7553181,45.5255673],[8.754448,45.5250389],[8.7543611,45.5247867],[8.7544121,45.5240847],[8.7541688,45.5237287],[8.7538146,45.5234579],[8.7524283,45.5238689],[8.7519646,45.52412],[8.7515024,45.5236644],[8.7507027,45.5238922],[8.7491528,45.5240103],[8.748143,45.5232385],[8.7482961,45.5230183],[8.7490614,45.5233261],[8.7493671,45.5233222],[8.7509204,45.5217009],[8.7482239,45.5208805],[8.7468216,45.5202293],[8.7460772,45.5206192],[8.7460065,45.520331],[8.7458435,45.5202676],[8.7418025,45.519147],[8.7401462,45.5176986],[8.7383278,45.5167178],[8.738538,45.5162683],[8.7390757,45.5159275],[8.7393225,45.5130612],[8.7393074,45.5125256],[8.7379706,45.512293],[8.7378104,45.5126842],[8.7366825,45.5126051],[8.7366939,45.5129067],[8.7361117,45.5128423],[8.7360092,45.5132111],[8.7350987,45.5131955],[8.7350926,45.5124349],[8.7322503,45.5114517],[8.7321665,45.5112355],[8.7321147,45.5103533],[8.7319161,45.5103933],[8.7316836,45.5098077],[8.7305886,45.5092426],[8.7301676,45.5092686],[8.7269444,45.509999],[8.7258771,45.510001],[8.7253912,45.5092122],[8.7243321,45.5078505],[8.7228362,45.5076423]]]},"properties":{"type":"boundary","gemeente":"Robecchetto con Induno"}}]}