{"type":"FeatureCollection","metadata":{"gemeente":"Roccafranca","slug":"roccafranca","generated_at":"2026-09-26T13:10:33.089454Z","total_points":9,"providers":["PosteItaliane","DPD","InPost","DHL","Amazon"],"bounds":[9.9119979,45.44974,9.9202,45.4649482]},"features":[{"type":"Feature","geometry":{"type":"Point","coordinates":[9.9119979,45.4649482]},"properties":{"type":"pakketpunt","locatieNaam":"Roccafranca","straatNaam":"Via Santi Gervasio E Protasio","straatNr":"30","vervoerder":"PosteItaliane","puntType":"postkantoor","bezettingsgraad":50,"latitude":45.4649482,"longitude":9.9119979,"canPickup":true,"canDropoff":true,"openingstijden":{"za":"08:20 - 12:35","zo":"gesloten","ma":"08:20 - 13:35","di":"08:20 - 13:35","wo":"08:20 - 13:35","do":"08:20 - 13:35","vr":"08:20 - 13:35"}}},{"type":"Feature","geometry":{"type":"Point","coordinates":[9.91995646,45.46154425]},"properties":{"type":"pakketpunt","locatieNaam":"Tabaccheria N. 5","straatNaam":"Via Milano","straatNr":"19","vervoerder":"PosteItaliane","puntType":"servicepunt","bezettingsgraad":50,"latitude":45.46154425,"longitude":9.91995646,"canPickup":true,"canDropoff":true,"openingstijden":{"za":"08:00 - 13:00, 15:30 - 19:00","zo":"gesloten","ma":"08:00 - 12:30, 15:30 - 19:00","di":"08:00 - 13:00, 15:30 - 19:00","wo":"08:00 - 13:00, 15:30 - 19:00","do":"08:00 - 13:00, 15:30 - 19:00","vr":"08:00 - 13:00, 15:30 - 19:00"}}},{"type":"Feature","geometry":{"type":"Point","coordinates":[9.9198499,45.461504]},"properties":{"type":"pakketpunt","locatieNaam":"Tabaccheria Italia-Roccafranca","straatNaam":"VIA MILANO","straatNr":"19","vervoerder":"DPD","puntType":"pickup_point","bezettingsgraad":50,"latitude":45.461504,"longitude":9.9198499,"canPickup":true,"canDropoff":true,"openingstijden":{"ma":"08:00 - 12:30, 15:30 - 19:30","di":"08:00 - 12:30, 15:30 - 19:30","wo":"08:00 - 12:30, 15:30 - 19:30","do":"08:00 - 12:30, 15:30 - 19:30","vr":"08:00 - 12:30, 15:30 - 19:30","za":"08:00 - 19:00","zo":"gesloten"}}},{"type":"Feature","geometry":{"type":"Point","coordinates":[9.9202,45.44974]},"properties":{"type":"pakketpunt","locatieNaam":"InPost Locker 24/7","straatNaam":"SP2 Urago-Orzinuovi","straatNr":"km 18 e 593","vervoerder":"InPost","puntType":"automaat","bezettingsgraad":50,"latitude":45.44974,"longitude":9.9202,"canPickup":true,"canDropoff":true,"openingstijden":null}},{"type":"Feature","geometry":{"type":"Point","coordinates":[9.911998,45.464948]},"properties":{"type":"pakketpunt","locatieNaam":"Ufficio Postale ROCCAFRANCA","straatNaam":"VIA SANTI GERVASIO E PROTASIO 30","straatNr":"","vervoerder":"DHL","puntType":"postOffice","bezettingsgraad":50,"latitude":45.464948,"longitude":9.911998,"canPickup":true,"canDropoff":true,"openingstijden":{"ma":"08:20 - 13:35","di":"08:20 - 13:35","wo":"08:20 - 13:35","do":"08:20 - 13:35","vr":"08:20 - 13:35","za":"08:20 - 12:35","zo":"gesloten"}}},{"type":"Feature","geometry":{"type":"Point","coordinates":[9.919956,45.461544]},"properties":{"type":"pakketpunt","locatieNaam":"TABACCHERIA N. 5","straatNaam":"VIA MILANO 19","straatNr":"","vervoerder":"DHL","puntType":"parcelShop","bezettingsgraad":50,"latitude":45.461544,"longitude":9.919956,"canPickup":true,"canDropoff":true,"openingstijden":{"ma":"08:00 - 12:30, 15:30 - 19:00","di":"08:00 - 13:00, 15:30 - 19:00","wo":"08:00 - 13:00, 15:30 - 19:00","do":"08:00 - 13:00, 15:30 - 19:00","vr":"08:00 - 13:00, 15:30 - 19:00","za":"08:00 - 13:00, 15:30 - 19:00","zo":"gesloten"}}},{"type":"Feature","geometry":{"type":"Point","coordinates":[9.913476,45.463111]},"properties":{"type":"pakketpunt","locatieNaam":"Amazon Counter - Karta IDea 2","straatNaam":"VIA santi gervasio e protasio 90","straatNr":"","vervoerder":"Amazon","puntType":"helix","bezettingsgraad":50,"latitude":45.463111,"longitude":9.913476,"canPickup":true,"canDropoff":false,"openingstijden":null}},{"type":"Feature","geometry":{"type":"Point","coordinates":[9.91995,45.4615]},"properties":{"type":"pakketpunt","locatieNaam":"PuntoPoste TABACCHERIA N. 5","straatNaam":"VIA MILANO 19","straatNr":"","vervoerder":"Amazon","puntType":"3p","bezettingsgraad":50,"latitude":45.4615,"longitude":9.91995,"canPickup":true,"canDropoff":false,"openingstijden":null}},{"type":"Feature","geometry":{"type":"Point","coordinates":[9.9198499,45.461504]},"properties":{"type":"pakketpunt","locatieNaam":"Amazon Counter (fermopoint)","straatNaam":"Tabaccheria Italia-Roccafranca","straatNr":"","vervoerder":"Amazon","puntType":"helix","bezettingsgraad":50,"latitude":45.461504,"longitude":9.9198499,"canPickup":true,"canDropoff":false,"openingstijden":null}},{"type":"Feature","geometry":{"type":"Polygon","coordinates":[[[9.8852791,45.4280589],[9.8847546,45.4270407],[9.884613,45.4265692],[9.8846851,45.4262716],[9.8851382,45.4258225],[9.8854561,45.4257166],[9.8859594,45.4257126],[9.8869458,45.425948],[9.8875432,45.4257319],[9.8877594,45.4254601],[9.8878849,45.4251081],[9.8878492,45.4247664],[9.8877072,45.4244749],[9.8872967,45.423974],[9.8873503,45.4237216],[9.8875151,45.4234323],[9.887818,45.4231869],[9.8883888,45.4228883],[9.8882985,45.4242616],[9.8887444,45.4247757],[9.8888125,45.4250452],[9.8892747,45.4254782],[9.8900287,45.4253643],[9.890722,45.4250484],[9.8912679,45.4251161],[9.8924084,45.4255933],[9.8923901,45.426057],[9.8924985,45.4262451],[9.892391,45.4265205],[9.8915195,45.4266803],[9.89097,45.4266891],[9.8897107,45.4263749],[9.8892823,45.4263692],[9.8882554,45.4269128],[9.8882233,45.4274126],[9.8882835,45.4275787],[9.888522,45.4276083],[9.8888165,45.4274794],[9.8892341,45.4274678],[9.8902132,45.4272396],[9.8904779,45.4281196],[9.891904,45.427861],[9.891821,45.4276636],[9.8919168,45.4275549],[9.8926486,45.4276526],[9.8937754,45.4273648],[9.8943797,45.4273871],[9.8949281,45.4276078],[9.8952224,45.4281321],[9.89533,45.4286668],[9.8949063,45.4291562],[9.8939528,45.4298972],[9.8938745,45.4301994],[9.8945355,45.4310763],[9.8943235,45.4324236],[9.8940157,45.4330651],[9.8937575,45.4333102],[9.8937494,45.4335083],[9.8933632,45.4338488],[9.8936697,45.434229],[9.8939604,45.4344247],[9.8946445,45.4346309],[9.8949679,45.4348669],[9.8952659,45.4358277],[9.8961783,45.4362166],[9.8977853,45.436672],[9.8981699,45.4369435],[9.8979601,45.4387274],[9.8980207,45.4390194],[9.8989649,45.438895],[9.9003467,45.4390551],[9.9010131,45.4390454],[9.9027154,45.4397565],[9.9024872,45.4416846],[9.905179,45.4415958],[9.9074903,45.4408078],[9.9076028,45.441248],[9.9088354,45.4412652],[9.9089809,45.4405709],[9.9092594,45.4403977],[9.9099419,45.4402032],[9.9117191,45.4398965],[9.9131608,45.439507],[9.914206,45.4371313],[9.9145016,45.4351532],[9.9147967,45.4348178],[9.9153089,45.4344761],[9.9166161,45.4345692],[9.9175527,45.4343771],[9.9229071,45.4339334],[9.9238455,45.4337548],[9.9241002,45.4335997],[9.9242745,45.4336028],[9.9240938,45.4341849],[9.927651,45.4338815],[9.9298579,45.433778],[9.9304294,45.4336429],[9.9310509,45.4336333],[9.9315841,45.4335029],[9.9331329,45.4333238],[9.9332136,45.4334671],[9.9357958,45.4331625],[9.9357992,45.4329824],[9.9394533,45.4321693],[9.9406122,45.4322813],[9.9456247,45.4324379],[9.9459035,45.4323861],[9.9461958,45.4326779],[9.9464735,45.4332291],[9.9467102,45.4347709],[9.9467912,45.4349322],[9.9467172,45.4350904],[9.9467596,45.435333],[9.9466452,45.4359461],[9.9470662,45.4363656],[9.9473142,45.4367641],[9.947447,45.4372536],[9.9476362,45.437477],[9.9477619,45.4379215],[9.9476602,45.4380529],[9.9474417,45.4379827],[9.9473385,45.4380286],[9.9474219,45.4381404],[9.9473763,45.4381858],[9.9463407,45.4383744],[9.9442787,45.4392196],[9.9435079,45.4400585],[9.9442278,45.4399986],[9.9441156,45.4414172],[9.9447405,45.4413175],[9.9462299,45.4414042],[9.9461859,45.4411615],[9.9483429,45.4408286],[9.9483281,45.4410897],[9.9481418,45.4413253],[9.9483384,45.4414182],[9.948388,45.4416113],[9.9487383,45.4418199],[9.948778,45.4419951],[9.9489909,45.4421104],[9.9498038,45.4430217],[9.9497606,45.4431166],[9.9499642,45.4432454],[9.9497876,45.4432964],[9.9499898,45.4433397],[9.9498364,45.443629],[9.9499562,45.4436235],[9.9500564,45.4437892],[9.9498182,45.4438767],[9.9497603,45.4444262],[9.9495854,45.4446752],[9.9496386,45.4451743],[9.9517016,45.4454272],[9.9522535,45.4483975],[9.9522239,45.4487262],[9.9517408,45.4487978],[9.9519472,45.4489986],[9.9519121,45.4490979],[9.9520314,45.4491599],[9.951982,45.4493583],[9.9521495,45.4492444],[9.9522337,45.4494012],[9.9524212,45.4493367],[9.9524554,45.4494669],[9.9518976,45.4498541],[9.9519244,45.4500204],[9.9517838,45.4500216],[9.9515961,45.4501717],[9.9515884,45.4502887],[9.9514222,45.4502901],[9.9513723,45.4503625],[9.9514876,45.4504696],[9.9515106,45.4506989],[9.9514356,45.4509921],[9.9510003,45.4511532],[9.9509478,45.4512617],[9.9510275,45.4515311],[9.9480717,45.4517267],[9.948051,45.4522039],[9.947865,45.452363],[9.9478224,45.4527774],[9.9467066,45.4525886],[9.9456738,45.4525836],[9.9457633,45.4528709],[9.9457267,45.4529747],[9.9443972,45.4537733],[9.9430857,45.4549813],[9.9433006,45.4569418],[9.944106,45.4589289],[9.9438642,45.4587103],[9.9418669,45.4582093],[9.9414075,45.457313],[9.9410758,45.4569782],[9.9405303,45.4566721],[9.9404654,45.4572847],[9.939711,45.458164],[9.9396841,45.4584703],[9.9397627,45.4587712],[9.9399498,45.4590622],[9.9403723,45.4592837],[9.9402265,45.4594559],[9.9402441,45.4595503],[9.9417536,45.4601409],[9.9410241,45.4600209],[9.940378,45.4602018],[9.9395001,45.4610551],[9.9388703,45.4621269],[9.9376275,45.4632533],[9.9363306,45.4633404],[9.9364259,45.4638797],[9.9344407,45.4641165],[9.9346742,45.4649877],[9.9316509,45.4654939],[9.9316782,45.4657952],[9.9277774,45.4662321],[9.9278818,45.468495],[9.9271367,45.468501],[9.9279766,45.4779633],[9.9276805,45.4779522],[9.9240205,45.4789855],[9.9246596,45.4819732],[9.9239261,45.4821096],[9.9237441,45.4822236],[9.9237584,45.482516],[9.9235506,45.4825222],[9.9244747,45.4877713],[9.9230949,45.487913],[9.923063,45.4880168],[9.9205443,45.4883522],[9.9206051,45.4897144],[9.916456,45.4894846],[9.9158311,45.4866393],[9.9123967,45.4869324],[9.9119075,45.484767],[9.9119491,45.4839791],[9.9105923,45.4841519],[9.9098307,45.4805666],[9.9080778,45.4805671],[9.908122,45.4802337],[9.9075475,45.4788251],[9.9072917,45.4763383],[9.9072196,45.4762354],[9.9056112,45.4762616],[9.9055488,45.4759606],[9.9044744,45.4759826],[9.904446,45.4758073],[9.9040478,45.475806],[9.9039972,45.4747442],[9.9026925,45.4747636],[9.9019804,45.4716368],[9.8995133,45.4731685],[9.8991178,45.4725325],[9.8994996,45.472309],[9.8990748,45.4712412],[9.8998307,45.4707042],[9.9015205,45.4702723],[9.9012341,45.4692619],[9.8973451,45.4702692],[9.8973085,45.4701795],[9.897417,45.4700661],[9.8976114,45.469313],[9.8950296,45.4695628],[9.8945456,45.4682884],[9.8935627,45.4681161],[9.8937452,45.4677276],[9.8942259,45.4670848],[9.8928526,45.467001],[9.8903961,45.4675827],[9.890686,45.4648757],[9.8911248,45.4635986],[9.8916923,45.462577],[9.8928158,45.4614341],[9.8929914,45.4608072],[9.8929176,45.4601867],[9.8919257,45.4587273],[9.8916747,45.4582252],[9.8914686,45.4575202],[9.8914346,45.4568904],[9.8915911,45.455962],[9.8915185,45.4556206],[9.8909952,45.4548776],[9.8904909,45.4544269],[9.8901662,45.4537049],[9.8898941,45.4533785],[9.8888784,45.4528373],[9.888775,45.4526626],[9.8889988,45.4521568],[9.8895606,45.4514908],[9.8873162,45.4501671],[9.8864752,45.4495436],[9.8852725,45.4489993],[9.8851499,45.4488248],[9.8851125,45.448375],[9.8851856,45.4478389],[9.885439,45.4474814],[9.8863405,45.4468713],[9.8874425,45.4466017],[9.8877431,45.4461043],[9.8878078,45.4457438],[9.8866066,45.4448755],[9.8856725,45.4439196],[9.8842948,45.4428052],[9.8841137,45.442568],[9.884128,45.4419514],[9.8843275,45.4414187],[9.8846141,45.441142],[9.8849207,45.4410271],[9.8853304,45.4410599],[9.8862855,45.4414216],[9.8872406,45.4411756],[9.8884287,45.4399917],[9.8898969,45.4390352],[9.8900711,45.4378187],[9.8897098,45.4370024],[9.8890169,45.4365352],[9.8882329,45.4361768],[9.8876902,45.4361135],[9.8872453,45.43618],[9.8860657,45.4367832],[9.8856156,45.4368182],[9.8851299,45.4367275],[9.8847979,45.43655],[9.884666,45.43629],[9.8846043,45.4360249],[9.8847859,45.435578],[9.8860201,45.4339707],[9.8862057,45.4332717],[9.8862873,45.4319524],[9.8866693,45.4315534],[9.888246,45.4306005],[9.8885473,45.4302471],[9.888596,45.4298912],[9.8883781,45.4295508],[9.8878693,45.4292038],[9.8863722,45.4288058],[9.8855389,45.4283487],[9.8852791,45.4280589]]]},"properties":{"type":"boundary","gemeente":"Roccafranca"}}]}