{"type":"FeatureCollection","metadata":{"gemeente":"Rocchetta Belbo","slug":"rocchetta-belbo","generated_at":"2026-09-26T14:27:52.873866Z","total_points":1,"providers":["PosteItaliane"],"bounds":[8.17507562,44.63669121,8.17507562,44.63669121]},"features":[{"type":"Feature","geometry":{"type":"Point","coordinates":[8.17507562,44.63669121]},"properties":{"type":"pakketpunt","locatieNaam":"Rocchetta Belbo","straatNaam":"Piazza Della Liberta'","straatNr":"5","vervoerder":"PosteItaliane","puntType":"postkantoor","bezettingsgraad":50,"latitude":44.63669121,"longitude":8.17507562,"canPickup":true,"canDropoff":true,"openingstijden":{"za":"08:20 - 12:45","zo":"gesloten","ma":"gesloten","di":"08:20 - 13:45","wo":"gesloten","do":"08:20 - 13:45","vr":"gesloten"}}},{"type":"Feature","geometry":{"type":"Polygon","coordinates":[[[8.1521957,44.6500694],[8.1524051,44.6493676],[8.1550986,44.6468408],[8.1559544,44.6456375],[8.1562777,44.6449648],[8.1571354,44.6445919],[8.1653911,44.6383467],[8.1661699,44.6370146],[8.1670058,44.6362967],[8.1678928,44.6325806],[8.1682154,44.6325325],[8.1687105,44.6318706],[8.1708634,44.6301719],[8.1720854,44.6294909],[8.1731684,44.6292779],[8.1752652,44.6284772],[8.176504,44.6275483],[8.1773074,44.6273362],[8.1793209,44.6259847],[8.1795817,44.625649],[8.1800427,44.6253361],[8.1803026,44.625235],[8.180786,44.6253005],[8.1822822,44.6259867],[8.1821596,44.6266878],[8.1822076,44.6268816],[8.1817974,44.627323],[8.1818351,44.6275963],[8.1822311,44.6282459],[8.182658,44.6285865],[8.1832875,44.628851],[8.1846229,44.6284882],[8.1849643,44.6281896],[8.1853535,44.628079],[8.1869652,44.6281776],[8.1875417,44.6285789],[8.1892723,44.6291466],[8.1896149,44.6291585],[8.1903203,44.6289482],[8.1907735,44.6289822],[8.1919111,44.6292153],[8.1927444,44.6295528],[8.1929673,44.6292314],[8.1935235,44.6291593],[8.1944899,44.6285538],[8.1944713,44.6290351],[8.1946079,44.6298958],[8.1955072,44.6303928],[8.1962699,44.6311364],[8.1970536,44.631673],[8.1952863,44.6327489],[8.1943072,44.6331581],[8.1933395,44.6337441],[8.1922648,44.6359898],[8.1858011,44.6391511],[8.1853706,44.6395141],[8.1851031,44.6399204],[8.184978,44.6403952],[8.1850136,44.6416109],[8.1843498,44.6439436],[8.1746973,44.6460594],[8.1714065,44.6474083],[8.1691139,44.6477705],[8.1684915,44.6486457],[8.1684785,44.6498092],[8.1681195,44.6509383],[8.1675322,44.6518383],[8.1670948,44.6517722],[8.1665589,44.6515754],[8.1655245,44.6510478],[8.1647781,44.6508587],[8.1633238,44.6507672],[8.160802,44.6493862],[8.1594756,44.6490022],[8.1593052,44.6492383],[8.1587351,44.6495713],[8.1584572,44.6500347],[8.1579676,44.6504651],[8.1572158,44.6516057],[8.1569355,44.6516031],[8.1566935,44.6514734],[8.1548173,44.6510458],[8.1525868,44.6502859],[8.1521957,44.6500694]]]},"properties":{"type":"boundary","gemeente":"Rocchetta Belbo"}}]}