{"type":"FeatureCollection","metadata":{"gemeente":"Roghudi","slug":"roghudi","generated_at":"2026-09-26T13:10:33.574859Z","total_points":6,"providers":["PosteItaliane","DPD","GLS","DHL","Amazon"],"bounds":[15.7661354,37.9258,15.767522,37.9266567]},"features":[{"type":"Feature","geometry":{"type":"Point","coordinates":[15.76752166,37.92583374]},"properties":{"type":"pakketpunt","locatieNaam":"Roghudi","straatNaam":"Via Roma Snc","straatNr":"","vervoerder":"PosteItaliane","puntType":"postkantoor","bezettingsgraad":50,"latitude":37.92583374,"longitude":15.76752166,"canPickup":true,"canDropoff":true,"openingstijden":{"za":"08:20 - 12:45","zo":"gesloten","ma":"08:20 - 13:45","di":"08:20 - 13:45","wo":"08:20 - 13:45","do":"08:20 - 13:45","vr":"08:20 - 13:45"}}},{"type":"Feature","geometry":{"type":"Point","coordinates":[15.7661354,37.9266567]},"properties":{"type":"pakketpunt","locatieNaam":"Tabacchi Tripodi","straatNaam":"VIA UNIONE","straatNr":"26","vervoerder":"DPD","puntType":"pickup_point","bezettingsgraad":50,"latitude":37.9266567,"longitude":15.7661354,"canPickup":true,"canDropoff":true,"openingstijden":{"ma":"08:30 - 12:30, 14:00 - 20:30","di":"08:30 - 12:30, 14:00 - 20:30","wo":"08:30 - 12:30, 14:00 - 20:30","do":"08:30 - 12:30, 14:00 - 20:30","vr":"08:30 - 12:30, 14:00 - 20:30","za":"08:30 - 12:30, 14:00 - 20:30","zo":"gesloten"}}},{"type":"Feature","geometry":{"type":"Point","coordinates":[15.7661354,37.9266567]},"properties":{"type":"pakketpunt","locatieNaam":"Tabaccheria","straatNaam":"Via Unione","straatNr":"26","vervoerder":"GLS","puntType":"parcel_shop","bezettingsgraad":50,"latitude":37.9266567,"longitude":15.7661354,"canPickup":true,"canDropoff":true,"openingstijden":"za: 08:30 - 14:00, 14:00 - 20:30; ma: 08:30 - 13:00, 14:00 - 20:30"}},{"type":"Feature","geometry":{"type":"Point","coordinates":[15.767522,37.925834]},"properties":{"type":"pakketpunt","locatieNaam":"Ufficio Postale ROGHUDI","straatNaam":"VIA ROMA SNC","straatNr":"","vervoerder":"DHL","puntType":"postOffice","bezettingsgraad":50,"latitude":37.925834,"longitude":15.767522,"canPickup":true,"canDropoff":true,"openingstijden":{"ma":"08:20 - 13:45","di":"08:20 - 13:45","wo":"08:20 - 13:45","do":"08:20 - 13:45","vr":"08:20 - 13:45","za":"08:20 - 12:45","zo":"gesloten"}}},{"type":"Feature","geometry":{"type":"Point","coordinates":[15.7661354,37.9266567]},"properties":{"type":"pakketpunt","locatieNaam":"Amazon Counter","straatNaam":"Tabacchi Tripodi (fermopoint)","straatNr":"","vervoerder":"Amazon","puntType":"helix","bezettingsgraad":50,"latitude":37.9266567,"longitude":15.7661354,"canPickup":true,"canDropoff":false,"openingstijden":null}},{"type":"Feature","geometry":{"type":"Point","coordinates":[15.7675,37.9258]},"properties":{"type":"pakketpunt","locatieNaam":"Ufficio Postale ROGHUDI","straatNaam":"VIA ROMA SNC","straatNr":"","vervoerder":"Amazon","puntType":"3p","bezettingsgraad":50,"latitude":37.9258,"longitude":15.7675,"canPickup":true,"canDropoff":false,"openingstijden":null}},{"type":"Feature","geometry":{"type":"MultiPolygon","coordinates":[[[[15.770866,37.9403317],[15.7725125,37.9401331],[15.7735629,37.9402702],[15.7742142,37.9406416],[15.7750258,37.9398707],[15.7753324,37.9397],[15.7756494,37.9395962],[15.7774099,37.9394493],[15.7776023,37.9392133],[15.7777043,37.9380872],[15.7784176,37.937722],[15.7796107,37.937509],[15.7798817,37.9372908],[15.7799055,37.9363177],[15.7797089,37.9360187],[15.7784947,37.9353872],[15.7779203,37.934948],[15.7777125,37.9346361],[15.7775952,37.934211],[15.7775061,37.933276],[15.7773423,37.9329165],[15.7752712,37.930706],[15.7742503,37.9299373],[15.7738595,37.9295325],[15.7733291,37.9280268],[15.7728858,37.9278126],[15.7706003,37.927243],[15.7704188,37.9265253],[15.7700622,37.9257987],[15.7696796,37.9253209],[15.7693472,37.9245264],[15.7689881,37.9241131],[15.769059,37.9235504],[15.7690179,37.9231422],[15.768869,37.9227534],[15.7678438,37.9224167],[15.7637127,37.9232087],[15.7627362,37.9236295],[15.7608261,37.92486],[15.7588707,37.9259535],[15.7590547,37.927414],[15.7593369,37.9281041],[15.7605781,37.9304213],[15.7609057,37.9312662],[15.7612647,37.9319113],[15.7615812,37.9329277],[15.7630662,37.9355773],[15.7641246,37.9366004],[15.7665785,37.9384651],[15.7673165,37.9394167],[15.7678348,37.9399086],[15.7680019,37.9407357],[15.7683917,37.9410056],[15.7687465,37.9410466],[15.7692087,37.9408369],[15.770866,37.9403317]]],[[[15.8896108,38.1621721],[15.8979215,38.1541358],[15.9015036,38.151102],[15.9050219,38.1443612],[15.907511,38.1401295],[15.9088308,38.1387024],[15.9093073,38.1383952],[15.9181272,38.1339554],[15.9224747,38.132281],[15.9228164,38.1320733],[15.9238644,38.1304482],[15.9241285,38.128099],[15.9225988,38.1233463],[15.9219177,38.1228405],[15.9211994,38.1224419],[15.9193648,38.122537],[15.9166265,38.1223932],[15.9162128,38.1223097],[15.9156942,38.1216377],[15.9155299,38.1211981],[15.9155471,38.120815],[15.9158669,38.1173029],[15.9160895,38.1166734],[15.9208874,38.1085488],[15.9228472,38.1054546],[15.9231216,38.1050341],[15.9244269,38.1037098],[15.924996,38.1033147],[15.9267072,38.1030649],[15.9274914,38.1030949],[15.9283269,38.1032614],[15.930109,38.1033537],[15.9307344,38.1031502],[15.9325542,38.1015315],[15.933826,38.1002201],[15.9340765,38.099684],[15.9381688,38.0882592],[15.9386477,38.0861379],[15.9368649,38.0850765],[15.9373997,38.0841395],[15.9395073,38.081257],[15.9407507,38.0798849],[15.9432775,38.0779442],[15.9454412,38.0753783],[15.9483245,38.0701838],[15.9511812,38.0645774],[15.9505526,38.0570667],[15.9505957,38.0564337],[15.9507665,38.0557928],[15.9517722,38.0537287],[15.9524187,38.0528626],[15.9530645,38.0523408],[15.9525284,38.0512183],[15.9522293,38.0501655],[15.9457084,38.0398188],[15.9452768,38.0324771],[15.9400594,38.0237405],[15.9354501,38.0124486],[15.935287,38.0121523],[15.9326708,38.0088391],[15.9318724,38.008783],[15.9239962,38.0092133],[15.9214131,38.0094336],[15.9045491,38.0117164],[15.9040966,38.0137764],[15.9044698,38.0228322],[15.9069482,38.0300186],[15.9067308,38.032431],[15.9068547,38.033327],[15.9102701,38.0391896],[15.9108734,38.0398851],[15.9157188,38.0421013],[15.9159541,38.0423595],[15.9162474,38.043185],[15.9161936,38.0468075],[15.9150843,38.0550825],[15.9149529,38.055464],[15.9146583,38.0557824],[15.9127605,38.0566612],[15.90895,38.0573364],[15.9083099,38.0606287],[15.9039239,38.0633355],[15.8998344,38.0648738],[15.899266,38.0652241],[15.8990929,38.0654737],[15.898203,38.0720572],[15.8982378,38.0724354],[15.9032229,38.0855107],[15.9058131,38.0875036],[15.9062595,38.0876797],[15.9067296,38.0877464],[15.9075798,38.0874982],[15.9077474,38.0870892],[15.9077291,38.0856405],[15.9083932,38.0855336],[15.9113706,38.0876834],[15.9145853,38.0908514],[15.9143096,38.0929798],[15.9138113,38.0955433],[15.9063367,38.1106307],[15.9033344,38.1222162],[15.9044372,38.125291],[15.9010086,38.1269869],[15.900724,38.1270937],[15.8999458,38.1271306],[15.8949421,38.1260673],[15.894071,38.1250828],[15.8939175,38.1248021],[15.8836312,38.1217414],[15.8826737,38.1215179],[15.8822554,38.1215386],[15.878775,38.1225661],[15.8784533,38.1227346],[15.8731973,38.1276184],[15.8729822,38.1278991],[15.8728996,38.1283026],[15.8730384,38.1285884],[15.8733638,38.128791],[15.8743831,38.1290468],[15.8757966,38.1307619],[15.8782767,38.1353398],[15.8785861,38.1380612],[15.8768857,38.1439014],[15.8824231,38.1522094],[15.884114,38.154348],[15.8891738,38.1585952],[15.8894458,38.1591401],[15.8895125,38.1594585],[15.8896108,38.1621721]]]]},"properties":{"type":"boundary","gemeente":"Roghudi"}}]}