{"type":"FeatureCollection","metadata":{"gemeente":"Rosciano","slug":"rosciano","generated_at":"2026-09-26T14:27:53.994278Z","total_points":9,"providers":["PosteItaliane","DPD","DHL","Amazon"],"bounds":[14.02156271,42.3258,14.067259,42.3549338]},"features":[{"type":"Feature","geometry":{"type":"Point","coordinates":[14.02156271,42.33700997]},"properties":{"type":"pakketpunt","locatieNaam":"Villa San Giovanni","straatNaam":"Via Della Vittoria","straatNr":"8","vervoerder":"PosteItaliane","puntType":"postkantoor","bezettingsgraad":50,"latitude":42.33700997,"longitude":14.02156271,"canPickup":true,"canDropoff":true,"openingstijden":{"za":"gesloten","zo":"gesloten","ma":"08:20 - 13:45","di":"gesloten","wo":"08:20 - 13:45","do":"gesloten","vr":"08:20 - 13:45"}}},{"type":"Feature","geometry":{"type":"Point","coordinates":[14.04793851,42.32582102]},"properties":{"type":"pakketpunt","locatieNaam":"Rosciano","straatNaam":"Via Sant'antonio","straatNr":"12","vervoerder":"PosteItaliane","puntType":"postkantoor","bezettingsgraad":50,"latitude":42.32582102,"longitude":14.04793851,"canPickup":true,"canDropoff":true,"openingstijden":{"za":"08:20 - 12:45","zo":"gesloten","ma":"08:20 - 13:45","di":"08:20 - 13:45","wo":"08:20 - 13:45","do":"08:20 - 13:45","vr":"08:20 - 13:45"}}},{"type":"Feature","geometry":{"type":"Point","coordinates":[14.06701966,42.33799904]},"properties":{"type":"pakketpunt","locatieNaam":"Villa Oliveti","straatNaam":"Via Colli","straatNr":"20","vervoerder":"PosteItaliane","puntType":"postkantoor","bezettingsgraad":50,"latitude":42.33799904,"longitude":14.06701966,"canPickup":true,"canDropoff":true,"openingstijden":{"ma":"gesloten","di":"gesloten","wo":"gesloten","do":"gesloten","vr":"gesloten","za":"gesloten","zo":"gesloten"}}},{"type":"Feature","geometry":{"type":"Point","coordinates":[14.06725878,42.33775505]},"properties":{"type":"pakketpunt","locatieNaam":"Tabaccheria N. 3","straatNaam":"Via Colli","straatNr":"7","vervoerder":"PosteItaliane","puntType":"servicepunt","bezettingsgraad":50,"latitude":42.33775505,"longitude":14.06725878,"canPickup":true,"canDropoff":true,"openingstijden":{"za":"06:00 - 13:00, 15:30 - 19:30","zo":"06:00 - 13:00","ma":"06:00 - 13:00","di":"06:00 - 13:00, 15:30 - 19:30","wo":"06:00 - 13:00, 15:30 - 19:30","do":"06:00 - 13:00, 15:30 - 19:30","vr":"06:00 - 13:00, 15:30 - 19:30"}}},{"type":"Feature","geometry":{"type":"Point","coordinates":[14.02897175,42.35484813]},"properties":{"type":"pakketpunt","locatieNaam":"Elisir-Rosciano","straatNaam":"VIA TADDEI","straatNr":"32A","vervoerder":"DPD","puntType":"pickup_point","bezettingsgraad":50,"latitude":42.35484813,"longitude":14.02897175,"canPickup":false,"canDropoff":true,"openingstijden":{"ma":"08:30 - 12:45, 15:45 - 19:45","di":"08:30 - 12:45, 15:45 - 19:45","wo":"15:45 - 19:45","do":"08:30 - 12:45, 15:45 - 19:45","vr":"08:30 - 12:45, 15:45 - 19:45","za":"08:30 - 12:45, 15:45 - 19:45","zo":"gesloten"}}},{"type":"Feature","geometry":{"type":"Point","coordinates":[14.047939,42.325821]},"properties":{"type":"pakketpunt","locatieNaam":"Ufficio Postale ROSCIANO","straatNaam":"VIA SANTANTONIO 12","straatNr":"","vervoerder":"DHL","puntType":"postOffice","bezettingsgraad":50,"latitude":42.325821,"longitude":14.047939,"canPickup":true,"canDropoff":true,"openingstijden":{"ma":"08:20 - 13:45","di":"08:20 - 13:45","wo":"08:20 - 13:45","do":"08:20 - 13:45","vr":"08:20 - 13:45","za":"08:20 - 12:45","zo":"gesloten"}}},{"type":"Feature","geometry":{"type":"Point","coordinates":[14.067259,42.337755]},"properties":{"type":"pakketpunt","locatieNaam":"TABACCHERIA N. 3","straatNaam":"VIA COLLI 7","straatNr":"","vervoerder":"DHL","puntType":"parcelShop","bezettingsgraad":50,"latitude":42.337755,"longitude":14.067259,"canPickup":true,"canDropoff":true,"openingstijden":{"ma":"06:00 - 13:00","di":"06:00 - 13:00, 15:30 - 19:30","wo":"06:00 - 13:00, 15:30 - 19:30","do":"06:00 - 13:00, 15:30 - 19:30","vr":"06:00 - 13:00, 15:30 - 19:30","za":"06:00 - 13:00, 15:30 - 19:30","zo":"06:00 - 13:00"}}},{"type":"Feature","geometry":{"type":"Point","coordinates":[14.0290478,42.3549338]},"properties":{"type":"pakketpunt","locatieNaam":"Amazon Counter (fermopoint)","straatNaam":"Elisir-Rosciano","straatNr":"","vervoerder":"Amazon","puntType":"helix","bezettingsgraad":50,"latitude":42.3549338,"longitude":14.0290478,"canPickup":true,"canDropoff":false,"openingstijden":null}},{"type":"Feature","geometry":{"type":"Point","coordinates":[14.0479,42.3258]},"properties":{"type":"pakketpunt","locatieNaam":"Ufficio Postale ROSCIANO","straatNaam":"VIA SANTANTONIO 12","straatNr":"","vervoerder":"Amazon","puntType":"3p","bezettingsgraad":50,"latitude":42.3258,"longitude":14.0479,"canPickup":true,"canDropoff":false,"openingstijden":null}},{"type":"Feature","geometry":{"type":"Polygon","coordinates":[[[14.0037802,42.3247039],[14.0029404,42.321836],[14.0028259,42.3213472],[14.0029486,42.3212205],[14.0154416,42.3113893],[14.0251851,42.3064989],[14.0253567,42.3042772],[14.0270519,42.3037376],[14.0278721,42.3020661],[14.0287279,42.3015551],[14.0305924,42.3001826],[14.0319458,42.2993117],[14.0360557,42.2972607],[14.0362562,42.2984898],[14.0366376,42.2997153],[14.0372853,42.3010012],[14.0427133,42.3094856],[14.0464248,42.3119281],[14.0684391,42.3248547],[14.0725492,42.3259148],[14.0733607,42.3259734],[14.0816875,42.3285621],[14.0815227,42.3287608],[14.0820723,42.3295294],[14.082483,42.3303753],[14.0823605,42.3304732],[14.0827559,42.3309241],[14.0814958,42.3316252],[14.0809069,42.3328449],[14.0805619,42.3331933],[14.0804453,42.3337027],[14.0804511,42.3341975],[14.0805503,42.3349944],[14.0806653,42.3352638],[14.0821966,42.3368163],[14.0830254,42.3374636],[14.0869314,42.3400672],[14.0878717,42.3405251],[14.088979,42.3411915],[14.090035,42.3420763],[14.0916401,42.3436163],[14.0930127,42.3451981],[14.0936182,42.3461479],[14.0942219,42.3472148],[14.0951031,42.3492552],[14.0947673,42.3498013],[14.0641017,42.3512849],[14.0633273,42.3511436],[14.0609811,42.351342],[14.0604192,42.3515334],[14.0595203,42.3524284],[14.0575236,42.3568245],[14.0575139,42.3696671],[14.0577674,42.3730094],[14.0562166,42.3736631],[14.0545869,42.3740908],[14.0543657,42.3740195],[14.0528165,42.3727781],[14.0512739,42.3711538],[14.0505715,42.3702215],[14.0428944,42.362314],[14.0273691,42.3587798],[14.0268718,42.3587746],[14.0258604,42.3589541],[14.0244258,42.3575272],[14.02419,42.3571775],[14.0239892,42.3566867],[14.0239932,42.3564614],[14.0244181,42.355664],[14.02549,42.3546582],[14.0275074,42.3529625],[14.0285383,42.35226],[14.0312953,42.3498161],[14.0321235,42.3488479],[14.0227494,42.3419633],[14.0201677,42.3408613],[14.0194013,42.3403233],[14.0188594,42.3399194],[14.0157984,42.3369208],[14.0153222,42.336388],[14.0151733,42.3357373],[14.0151463,42.3343791],[14.0149834,42.3339631],[14.0127184,42.3297637],[14.0058204,42.3254069],[14.0052663,42.3251611],[14.0037802,42.3247039]]]},"properties":{"type":"boundary","gemeente":"Rosciano"}}]}