{"type":"FeatureCollection","metadata":{"gemeente":"Roseto Valfortore","slug":"roseto-valfortore","generated_at":"2026-09-26T14:27:54.054462Z","total_points":2,"providers":["PosteItaliane","DHL"],"bounds":[15.09512498,41.371131,15.095125,41.37113119]},"features":[{"type":"Feature","geometry":{"type":"Point","coordinates":[15.09512498,41.37113119]},"properties":{"type":"pakketpunt","locatieNaam":"Roseto Valfortore","straatNaam":"Piazza Umberto I","straatNr":"29","vervoerder":"PosteItaliane","puntType":"postkantoor","bezettingsgraad":50,"latitude":41.37113119,"longitude":15.09512498,"canPickup":true,"canDropoff":true,"openingstijden":{"za":"08:20 - 12:45","zo":"gesloten","ma":"08:20 - 13:45","di":"08:20 - 13:45","wo":"08:20 - 13:45","do":"08:20 - 13:45","vr":"08:20 - 13:45"}}},{"type":"Feature","geometry":{"type":"Point","coordinates":[15.095125,41.371131]},"properties":{"type":"pakketpunt","locatieNaam":"Ufficio Postale ROSETO VALFORTORE","straatNaam":"PIAZZA UMBERTO I 29","straatNr":"","vervoerder":"DHL","puntType":"postOffice","bezettingsgraad":50,"latitude":41.371131,"longitude":15.095125,"canPickup":true,"canDropoff":true,"openingstijden":{"ma":"08:20 - 13:45","di":"08:20 - 13:45","wo":"08:20 - 13:45","do":"08:20 - 13:45","vr":"08:20 - 13:45","za":"08:20 - 12:45","zo":"gesloten"}}},{"type":"Feature","geometry":{"type":"Polygon","coordinates":[[[15.058471,41.3721354],[15.0588282,41.3717262],[15.0595197,41.3705555],[15.0601307,41.3685204],[15.0601854,41.3663212],[15.0603886,41.3657524],[15.0605654,41.3625116],[15.0608282,41.3614491],[15.0613163,41.3602756],[15.0611253,41.3585575],[15.0611943,41.3575547],[15.0621159,41.3571234],[15.0642431,41.3571955],[15.066822,41.3527715],[15.0675018,41.3521759],[15.067811,41.351705],[15.0679682,41.3510846],[15.0683002,41.3505809],[15.0675434,41.3475876],[15.0669453,41.3465526],[15.0668141,41.346078],[15.0666926,41.3450583],[15.0669065,41.3429677],[15.0669897,41.3426347],[15.0675396,41.341971],[15.0683614,41.3405998],[15.0690894,41.3397332],[15.0696264,41.3388587],[15.0697935,41.3378327],[15.0704356,41.3356879],[15.071904,41.3342735],[15.0717848,41.3340188],[15.0717856,41.3337352],[15.0719771,41.3326989],[15.0721912,41.332464],[15.0771777,41.3312217],[15.0783187,41.3307832],[15.080911,41.3296016],[15.0830604,41.328862],[15.0843749,41.3286167],[15.0862864,41.3284343],[15.0903131,41.328369],[15.0915196,41.328665],[15.0937908,41.3287828],[15.0950708,41.3287193],[15.0977143,41.3283656],[15.0999318,41.3277047],[15.1015787,41.3268655],[15.10312,41.3259193],[15.1094599,41.3210766],[15.1098648,41.320938],[15.1125969,41.3192892],[15.1135523,41.3193868],[15.1146995,41.3193662],[15.119299,41.3188237],[15.1207925,41.3187395],[15.1212443,41.3186479],[15.1222835,41.3180254],[15.1239185,41.3174385],[15.1256646,41.3172282],[15.1306275,41.317494],[15.1384595,41.3158796],[15.1365147,41.3290304],[15.1361046,41.3326077],[15.1502509,41.3361027],[15.1551502,41.3363483],[15.1603115,41.3362781],[15.1610181,41.3363707],[15.1609736,41.3376917],[15.1608672,41.338413],[15.1606776,41.3388462],[15.1582364,41.3428117],[15.1521504,41.3519908],[15.1519727,41.3523694],[15.151733,41.3625926],[15.1510296,41.3641245],[15.1486175,41.370712],[15.1416071,41.3912228],[15.1414281,41.3963494],[15.1416602,41.3993117],[15.142106,41.4006605],[15.1403459,41.3997259],[15.1334004,41.3936184],[15.1311342,41.3925142],[15.1302849,41.3921906],[15.1055435,41.3895057],[15.1038115,41.389859],[15.1012519,41.3906433],[15.0996017,41.3913117],[15.0983163,41.3905679],[15.0975934,41.3904054],[15.0963752,41.3903143],[15.0957749,41.3904481],[15.095011,41.3903988],[15.0942084,41.3901074],[15.0928797,41.3894634],[15.0912397,41.3889295],[15.0903904,41.388412],[15.0887878,41.3888608],[15.0875092,41.3889791],[15.085199,41.3883682],[15.0843851,41.3883169],[15.0815513,41.3877337],[15.080988,41.3878131],[15.0804499,41.3880306],[15.0793255,41.3881848],[15.0784415,41.3880021],[15.0781529,41.3878509],[15.0775545,41.387104],[15.0778781,41.3863218],[15.0778285,41.3855998],[15.0776717,41.3853291],[15.0772301,41.385267],[15.076707,41.3848799],[15.0764998,41.3845902],[15.0761279,41.3837727],[15.075752,41.3824468],[15.0754575,41.382062],[15.0749174,41.3816856],[15.0742619,41.3813242],[15.0737457,41.3811716],[15.0734102,41.3807753],[15.0731951,41.3803951],[15.0731955,41.3801431],[15.072258,41.378766],[15.0717839,41.3785329],[15.071147,41.3777222],[15.0707727,41.3774283],[15.0692305,41.3766462],[15.0677602,41.3762109],[15.0658949,41.3759415],[15.0640636,41.3750671],[15.0626142,41.3738982],[15.0619112,41.3734303],[15.0615219,41.3728454],[15.0610353,41.3725358],[15.0591343,41.3723359],[15.058471,41.3721354]]]},"properties":{"type":"boundary","gemeente":"Roseto Valfortore"}}]}