{"type":"FeatureCollection","metadata":{"gemeente":"Rossiglione","slug":"rossiglione","generated_at":"2026-09-26T13:10:34.455781Z","total_points":10,"providers":["PosteItaliane","DPD","DHL","Amazon"],"bounds":[8.6656,44.5586,8.672099,44.56625529]},"features":[{"type":"Feature","geometry":{"type":"Point","coordinates":[8.66560793,44.56625529]},"properties":{"type":"pakketpunt","locatieNaam":"Tabaccheria N. 2","straatNaam":"Piazza Due E Tre Gennaio","straatNr":"12","vervoerder":"PosteItaliane","puntType":"servicepunt","bezettingsgraad":50,"latitude":44.56625529,"longitude":8.66560793,"canPickup":true,"canDropoff":true,"openingstijden":{"za":"gesloten","zo":"gesloten","ma":"08:00 - 12:30, 15:00 - 19:30","di":"08:00 - 12:30, 15:00 - 19:30","wo":"08:00 - 12:30, 15:00 - 19:30","do":"gesloten","vr":"gesloten"}}},{"type":"Feature","geometry":{"type":"Point","coordinates":[8.67048721,44.56206577]},"properties":{"type":"pakketpunt","locatieNaam":"Rossiglione","straatNaam":"Piazza Matteotti","straatNr":"5","vervoerder":"PosteItaliane","puntType":"postkantoor","bezettingsgraad":50,"latitude":44.56206577,"longitude":8.67048721,"canPickup":true,"canDropoff":true,"openingstijden":{"za":"08:20 - 12:35","zo":"gesloten","ma":"08:20 - 13:35","di":"08:20 - 13:35","wo":"08:20 - 13:35","do":"08:20 - 13:35","vr":"08:20 - 13:35"}}},{"type":"Feature","geometry":{"type":"Point","coordinates":[8.67209866,44.55862392]},"properties":{"type":"pakketpunt","locatieNaam":"Tabaccheria N. 1","straatNaam":"Via Barigione E Pizzorni","straatNr":"1","vervoerder":"PosteItaliane","puntType":"servicepunt","bezettingsgraad":50,"latitude":44.55862392,"longitude":8.67209866,"canPickup":true,"canDropoff":true,"openingstijden":{"za":"08:00 - 12:30, 15:30 - 19:30","zo":"gesloten","ma":"08:00 - 12:30, 15:30 - 19:30","di":"08:00 - 12:30, 15:30 - 19:30","wo":"gesloten","do":"08:00 - 12:30, 15:30 - 19:30","vr":"08:00 - 12:30, 15:30 - 19:30"}}},{"type":"Feature","geometry":{"type":"Point","coordinates":[8.66561632,44.56623365]},"properties":{"type":"pakketpunt","locatieNaam":"Tabacchi e Giornali - Verdese","straatNaam":"PIAZZA 2/3 GENNAIO","straatNr":"12","vervoerder":"DPD","puntType":"pickup_point","bezettingsgraad":50,"latitude":44.56623365,"longitude":8.66561632,"canPickup":true,"canDropoff":true,"openingstijden":{"ma":"07:00 - 12:30, 15:30 - 19:30","di":"07:00 - 12:30, 15:30 - 19:30","wo":"07:00 - 12:30, 15:30 - 19:30","do":"07:00 - 12:30, 15:30 - 19:30","vr":"07:00 - 12:30, 15:30 - 19:30","za":"07:00 - 12:30, 15:30 - 19:30","zo":"gesloten"}}},{"type":"Feature","geometry":{"type":"Point","coordinates":[8.665608,44.566255]},"properties":{"type":"pakketpunt","locatieNaam":"TABACCHERIA N. 2","straatNaam":"PIAZZA DUE E TRE GENNAIO 12","straatNr":"","vervoerder":"DHL","puntType":"parcelShop","bezettingsgraad":50,"latitude":44.566255,"longitude":8.665608,"canPickup":true,"canDropoff":true,"openingstijden":{"ma":"08:00 - 12:30, 15:00 - 19:30","di":"08:00 - 12:30, 15:00 - 19:30","wo":"08:00 - 12:30, 15:00 - 19:30","do":"gesloten","vr":"gesloten","za":"gesloten","zo":"gesloten"}}},{"type":"Feature","geometry":{"type":"Point","coordinates":[8.670487,44.562066]},"properties":{"type":"pakketpunt","locatieNaam":"Ufficio Postale ROSSIGLIONE","straatNaam":"PIAZZA MATTEOTTI 5","straatNr":"","vervoerder":"DHL","puntType":"postOffice","bezettingsgraad":50,"latitude":44.562066,"longitude":8.670487,"canPickup":true,"canDropoff":true,"openingstijden":{"ma":"08:20 - 13:35","di":"08:20 - 13:35","wo":"08:20 - 13:35","do":"08:20 - 13:35","vr":"08:20 - 13:35","za":"08:20 - 12:35","zo":"gesloten"}}},{"type":"Feature","geometry":{"type":"Point","coordinates":[8.672099,44.558624]},"properties":{"type":"pakketpunt","locatieNaam":"TABACCHERIA N. 1","straatNaam":"VIA BARIGIONE E PIZZORNI 1","straatNr":"","vervoerder":"DHL","puntType":"parcelShop","bezettingsgraad":50,"latitude":44.558624,"longitude":8.672099,"canPickup":true,"canDropoff":true,"openingstijden":{"ma":"08:00 - 12:30, 15:30 - 19:30","di":"08:00 - 12:30, 15:30 - 19:30","wo":"gesloten","do":"08:00 - 12:30, 15:30 - 19:30","vr":"08:00 - 12:30, 15:30 - 19:30","za":"08:00 - 12:30, 15:30 - 19:30","zo":"gesloten"}}},{"type":"Feature","geometry":{"type":"Point","coordinates":[8.67209,44.5586]},"properties":{"type":"pakketpunt","locatieNaam":"PuntoPoste TABACCHERIA N. 1","straatNaam":"VIA BARIGIONE E PIZZORNI 1","straatNr":"","vervoerder":"Amazon","puntType":"3p","bezettingsgraad":50,"latitude":44.5586,"longitude":8.67209,"canPickup":true,"canDropoff":false,"openingstijden":null}},{"type":"Feature","geometry":{"type":"Point","coordinates":[8.67048,44.562]},"properties":{"type":"pakketpunt","locatieNaam":"Ufficio Postale ROSSIGLIONE","straatNaam":"PIAZZA MATTEOTTI 5","straatNr":"","vervoerder":"Amazon","puntType":"3p","bezettingsgraad":50,"latitude":44.562,"longitude":8.67048,"canPickup":true,"canDropoff":false,"openingstijden":null}},{"type":"Feature","geometry":{"type":"Point","coordinates":[8.6656,44.5662]},"properties":{"type":"pakketpunt","locatieNaam":"PuntoPoste TABACCHERIA N. 2","straatNaam":"PIAZZA DUE E TRE GENNAIO 12","straatNr":"","vervoerder":"Amazon","puntType":"3p","bezettingsgraad":50,"latitude":44.5662,"longitude":8.6656,"canPickup":true,"canDropoff":false,"openingstijden":null}},{"type":"Feature","geometry":{"type":"Polygon","coordinates":[[[8.6070945,44.5375424],[8.6074531,44.5366704],[8.6071949,44.5357513],[8.6075982,44.5356716],[8.6098487,44.5358144],[8.6113987,44.5355406],[8.6158372,44.5343042],[8.616881,44.5341997],[8.6174489,44.5342106],[8.6180128,44.5343476],[8.6184266,44.534583],[8.618764,44.5349532],[8.6191324,44.5363634],[8.6195406,44.5366832],[8.6202522,44.5364391],[8.6222421,44.5362477],[8.624684,44.5362287],[8.6254639,44.5360692],[8.6265249,44.5357216],[8.6272727,44.5346617],[8.6281189,44.5342054],[8.6294817,44.5336516],[8.6304896,44.5335018],[8.631612,44.5331454],[8.6329563,44.5322731],[8.6335956,44.5316753],[8.6340142,44.5311635],[8.634532,44.5308771],[8.6381761,44.5297544],[8.6433789,44.5286634],[8.6444126,44.5283786],[8.6456592,44.5282654],[8.6495296,44.5292316],[8.6520554,44.5296084],[8.6535035,44.5294778],[8.6553887,44.527782],[8.65766,44.5264835],[8.6581431,44.5259178],[8.6580752,44.5243511],[8.6579025,44.5237474],[8.6571286,44.5226828],[8.6565154,44.5220958],[8.6557796,44.5209682],[8.655899,44.5199333],[8.6553128,44.5193103],[8.655491,44.5189598],[8.6567147,44.5181532],[8.6570944,44.5177853],[8.657592,44.5166074],[8.6575757,44.5150949],[8.6572328,44.5134824],[8.6561558,44.5126329],[8.6562842,44.5122012],[8.6566403,44.5115361],[8.657084,44.5109792],[8.6567115,44.5101274],[8.6568912,44.5095247],[8.6572961,44.5091208],[8.6591194,44.5092838],[8.6597775,44.508345],[8.6600215,44.5074995],[8.6638086,44.5074252],[8.6650244,44.508212],[8.6662516,44.5092059],[8.66764,44.5106413],[8.6684786,44.5111299],[8.6686145,44.5115624],[8.667638,44.5131981],[8.6666618,44.5145006],[8.666812,44.5146361],[8.6682933,44.5152256],[8.669359,44.5158949],[8.6707512,44.516412],[8.672695,44.5175609],[8.6746301,44.5180436],[8.6752703,44.5183155],[8.6757829,44.5189021],[8.6758811,44.5193435],[8.6755541,44.5215933],[8.6757976,44.5230614],[8.6762564,44.5242927],[8.6762548,44.5268573],[8.6749887,44.5279408],[8.6749859,44.5284381],[8.6745495,44.5288409],[8.6752438,44.5290297],[8.6758063,44.5294353],[8.6763652,44.5304924],[8.6759706,44.5310202],[8.6762276,44.531767],[8.6762678,44.5324502],[8.6759575,44.5333822],[8.6751712,44.5341564],[8.6746895,44.5347762],[8.6748159,44.5355227],[8.6751591,44.5363317],[8.6755942,44.5367526],[8.6756765,44.5372345],[8.6764552,44.5378264],[8.6769259,44.5389159],[8.6775327,44.5392901],[8.6777898,44.5400369],[8.6788261,44.5410031],[8.6791606,44.5411132],[8.6792814,44.5417561],[8.6799331,44.5425592],[8.6805387,44.542607],[8.6818391,44.5430585],[8.6824059,44.5441483],[8.6810227,44.5455995],[8.6799163,44.5464921],[8.6796626,44.5471362],[8.6799856,44.547639],[8.6801307,44.5484272],[8.6801229,44.5498608],[8.6798277,44.5503123],[8.680116,44.550545],[8.6807654,44.5515011],[8.684163,44.5518166],[8.6859225,44.5521005],[8.6888051,44.5521984],[8.6906025,44.5527705],[8.6916073,44.5529352],[8.6926901,44.5529292],[8.693724,44.5526349],[8.6944547,44.5525468],[8.6952601,44.552621],[8.6977502,44.5531497],[8.6984552,44.5531606],[8.7000955,44.5524627],[8.7012453,44.5513584],[8.701788,44.5511078],[8.7029794,44.5513854],[8.7047196,44.5514665],[8.705677,44.5510368],[8.7069303,44.5499777],[8.7084077,44.5490903],[8.7096793,44.5487694],[8.7110018,44.5486467],[8.7129527,44.5487237],[8.7150535,44.549062],[8.7181314,44.550087],[8.7203461,44.5506416],[8.7228856,44.5510709],[8.7247986,44.5512195],[8.7262952,44.5515652],[8.7276292,44.5516764],[8.7296517,44.5526445],[8.7310583,44.553053],[8.7324433,44.5530382],[8.7353799,44.5523744],[8.7376111,44.5517583],[8.7381901,44.5517732],[8.7380749,44.55216],[8.7386213,44.5538537],[8.7397855,44.5553688],[8.7401977,44.556099],[8.74027,44.5568284],[8.740053,44.557503],[8.7392909,44.5589777],[8.7371894,44.5614936],[8.7358484,44.5628769],[8.7353917,44.5636141],[8.7351946,44.5654141],[8.7333813,44.5682367],[8.7327668,44.5704319],[8.7306234,44.571003],[8.7292231,44.5714949],[8.7280375,44.5720412],[8.7273672,44.5726518],[8.7274613,44.5739033],[8.7267928,44.5741088],[8.7261099,44.5746923],[8.7255009,44.5756451],[8.7245154,44.576507],[8.722844,44.5783935],[8.7219582,44.5792646],[8.720998,44.5798654],[8.7187645,44.5807422],[8.7179069,44.5809561],[8.7164957,44.5810877],[8.7140754,44.5814507],[8.7130928,44.5814663],[8.709014,44.5812219],[8.7057137,44.5812585],[8.7051095,44.5811759],[8.703839,44.5808305],[8.7029811,44.5804141],[8.7001208,44.5794884],[8.6992772,44.5794142],[8.6969859,44.5794891],[8.696128,44.5797569],[8.6948397,44.5804377],[8.6913556,44.5820038],[8.6905475,44.5824787],[8.6902088,44.5822167],[8.6900524,44.5819632],[8.68894,44.5815651],[8.6884376,44.5812846],[8.6883267,44.5808342],[8.6880899,44.5803564],[8.6864998,44.5785696],[8.685421,44.5777384],[8.683435,44.5769857],[8.6826977,44.5759123],[8.6814198,44.5748825],[8.6808253,44.57534],[8.6801431,44.5757252],[8.6796746,44.576219],[8.6789168,44.576595],[8.6781601,44.5767639],[8.6771632,44.5771122],[8.6769339,44.5775707],[8.6769439,44.5780748],[8.6764603,44.5791538],[8.6761308,44.5795129],[8.6755999,44.5798535],[8.6747799,44.5801033],[8.6732421,44.5802879],[8.6716263,44.5809495],[8.6708825,44.5810914],[8.6702512,44.5813596],[8.6689903,44.581617],[8.6679675,44.5821992],[8.6673608,44.5824135],[8.6667566,44.5824568],[8.6649609,44.5815333],[8.6625274,44.5798066],[8.6621516,44.5794364],[8.6616619,44.5792099],[8.6604834,44.5794692],[8.6591649,44.5798957],[8.65784,44.5801528],[8.6563798,44.5801484],[8.6553842,44.5802714],[8.652655,44.5817216],[8.6509752,44.5825087],[8.6485524,44.5833655],[8.6467703,44.5823067],[8.643285,44.5796311],[8.641993,44.5787808],[8.6415909,44.5786265],[8.6401896,44.5791443],[8.6373484,44.5804767],[8.6360876,44.5806887],[8.6347151,44.5806213],[8.6333059,44.5804007],[8.6324749,44.5804611],[8.6315531,44.5808542],[8.6289087,44.5827452],[8.6279232,44.5832371],[8.6266616,44.5835301],[8.6255548,44.5842107],[8.6248671,44.5853697],[8.6238614,44.5863807],[8.621154,44.5849254],[8.6201512,44.5842018],[8.6197788,44.583773],[8.61931,44.5830197],[8.6188758,44.581983],[8.6188416,44.5814337],[8.6192215,44.5811019],[8.6208253,44.580477],[8.6215708,44.5800924],[8.6222161,44.5796084],[8.6224085,44.5790779],[8.6223362,44.5784475],[8.6220001,44.5779512],[8.6209595,44.5770925],[8.6192775,44.5764117],[8.6181456,44.5761559],[8.6160971,44.5754738],[8.6148247,44.5755056],[8.612681,44.5761015],[8.6119233,44.576405],[8.6109015,44.5766356],[8.6096925,44.5766044],[8.6090639,44.5764402],[8.608625,44.5761417],[8.6084764,44.575763],[8.6084817,44.5749798],[8.6086634,44.5741792],[8.6093232,44.5734433],[8.610246,44.5729423],[8.6113935,44.5727392],[8.6122108,44.5727329],[8.6128641,44.5729782],[8.6149592,44.5742096],[8.6156884,44.5744192],[8.6167588,44.5744318],[8.6172151,44.5740012],[8.6171305,44.5734607],[8.6164726,44.5719911],[8.6165652,44.5713162],[8.6164809,44.5707218],[8.616182,44.5702166],[8.6151947,44.569061],[8.6149207,44.5685919],[8.6145825,44.5683207],[8.6138535,44.5681112],[8.6129338,44.5681621],[8.6120245,44.5685461],[8.6116935,44.5690761],[8.6113968,44.5701464],[8.6110037,44.5705502],[8.6105123,44.5707826],[8.6097564,44.570816],[8.6070529,44.5701946],[8.6057944,44.5700552],[8.6046499,44.5698262],[8.6037352,44.5693459],[8.6012114,44.5682388],[8.6008868,44.5678236],[8.6009784,44.5673287],[8.6014601,44.5668623],[8.6037854,44.565466],[8.6042668,44.5650355],[8.6044709,44.5646581],[8.6044357,44.5642799],[8.6041446,44.5638528],[8.6035727,44.5634037],[8.6015892,44.5625145],[8.6011394,44.5621888],[8.6001173,44.5606728],[8.5995954,44.5596537],[8.5983605,44.5579569],[8.5978161,44.5565596],[8.5978712,44.5558756],[8.5982513,44.5555168],[8.5987947,44.5552307],[8.5998206,44.5541539],[8.6007039,44.553869],[8.60233,44.5535776],[8.6030008,44.5530667],[8.6039223,44.5527098],[8.6061018,44.5523033],[8.6066744,44.5520948],[8.607315,44.5516232],[8.6076967,44.5510214],[8.6081081,44.5497624],[8.6084139,44.5492053],[8.6089454,44.548802],[8.6096641,44.5485524],[8.6104581,44.5484111],[8.6123388,44.5475622],[8.613453,44.5466027],[8.6137332,44.5461085],[8.6135365,44.5455137],[8.6129103,44.5450345],[8.6124848,44.5445289],[8.6123671,44.5432951],[8.612093,44.5428711],[8.6106496,44.542353],[8.608596,44.5407435],[8.6081332,44.5401838],[8.607898,44.5395978],[8.6076541,44.5384266],[8.6074069,44.5378586],[8.6070945,44.5375424]]]},"properties":{"type":"boundary","gemeente":"Rossiglione"}}]}