{"type":"FeatureCollection","metadata":{"gemeente":"Rottofreno","slug":"rottofreno","generated_at":"2026-09-26T13:10:34.548465Z","total_points":19,"providers":["PosteItaliane","DPD","InPost","DHL","Amazon"],"bounds":[9.536508,45.0521192,9.62555,45.05798803]},"features":[{"type":"Feature","geometry":{"type":"Point","coordinates":[9.53650811,45.05704437]},"properties":{"type":"pakketpunt","locatieNaam":"Tabaccheria N. 7","straatNaam":"Via 10 Emilia Ovest","straatNr":"86/a","vervoerder":"PosteItaliane","puntType":"servicepunt","bezettingsgraad":50,"latitude":45.05704437,"longitude":9.53650811,"canPickup":true,"canDropoff":true,"openingstijden":{"za":"06:30 - 15:00","zo":"gesloten","ma":"06:30 - 15:00","di":"06:30 - 15:00","wo":"06:30 - 15:00","do":"06:30 - 15:00","vr":"06:30 - 15:00"}}},{"type":"Feature","geometry":{"type":"Point","coordinates":[9.61095042,45.05268711]},"properties":{"type":"pakketpunt","locatieNaam":"San Nicolo' A Trebbia","straatNaam":"Via Venticinque Aprile","straatNr":"51","vervoerder":"PosteItaliane","puntType":"postkantoor","bezettingsgraad":50,"latitude":45.05268711,"longitude":9.61095042,"canPickup":true,"canDropoff":true,"openingstijden":{"za":"08:20 - 12:35","zo":"gesloten","ma":"08:20 - 13:35","di":"08:20 - 13:35","wo":"08:20 - 13:35","do":"08:20 - 13:35","vr":"08:20 - 13:35"}}},{"type":"Feature","geometry":{"type":"Point","coordinates":[9.55117165,45.05798803]},"properties":{"type":"pakketpunt","locatieNaam":"Rottofreno","straatNaam":"Via 10 Emilia Est","straatNr":"29/a","vervoerder":"PosteItaliane","puntType":"postkantoor","bezettingsgraad":50,"latitude":45.05798803,"longitude":9.55117165,"canPickup":true,"canDropoff":true,"openingstijden":{"za":"08:20 - 12:45","zo":"gesloten","ma":"08:20 - 13:45","di":"08:20 - 13:45","wo":"08:20 - 13:45","do":"08:20 - 13:45","vr":"08:20 - 13:45"}}},{"type":"Feature","geometry":{"type":"Point","coordinates":[9.58774569,45.05608939]},"properties":{"type":"pakketpunt","locatieNaam":"Stazione Di Servizio Coil","straatNaam":"Via Emilia Ovest Snc","straatNr":"1","vervoerder":"PosteItaliane","puntType":"automaat","bezettingsgraad":50,"latitude":45.05608939,"longitude":9.58774569,"canPickup":true,"canDropoff":true,"openingstijden":{"za":"00:01 - 23:59","zo":"00:01 - 23:59","ma":"00:01 - 23:59","di":"00:01 - 23:59","wo":"00:01 - 23:59","do":"00:01 - 23:59","vr":"00:01 - 23:59"}}},{"type":"Feature","geometry":{"type":"Point","coordinates":[9.6112556,45.0558949]},"properties":{"type":"pakketpunt","locatieNaam":"La Boutique Del Caffè","straatNaam":"VIA EMILIA EST","straatNr":"58b","vervoerder":"DPD","puntType":"pickup_point","bezettingsgraad":50,"latitude":45.0558949,"longitude":9.6112556,"canPickup":true,"canDropoff":true,"openingstijden":{"ma":"09:30 - 12:30, 14:30 - 18:30","di":"09:30 - 12:30, 14:30 - 18:30","wo":"09:30 - 12:30, 14:30 - 18:30","do":"09:30 - 12:30, 14:30 - 18:30","vr":"09:30 - 12:30, 14:30 - 18:30","za":"09:30 - 12:30, 14:30 - 18:30","zo":"gesloten"}}},{"type":"Feature","geometry":{"type":"Point","coordinates":[9.6167775,45.0521192]},"properties":{"type":"pakketpunt","locatieNaam":"Dirty Mind Codice Svapo","straatNaam":"VIA GRAMSCI","straatNr":"5 A","vervoerder":"DPD","puntType":"pickup_point","bezettingsgraad":50,"latitude":45.0521192,"longitude":9.6167775,"canPickup":true,"canDropoff":true,"openingstijden":{"ma":"gesloten","di":"09:30 - 12:00, 14:00 - 19:30","wo":"09:30 - 12:00, 14:00 - 19:30","do":"09:30 - 12:00, 14:00 - 19:30","vr":"09:30 - 12:00, 14:00 - 19:30","za":"09:30 - 12:00, 14:00 - 19:30","zo":"gesloten"}}},{"type":"Feature","geometry":{"type":"Point","coordinates":[9.607599,45.054361]},"properties":{"type":"pakketpunt","locatieNaam":"Il Girotondo","straatNaam":"VIA AGAZZANO","straatNr":"32B","vervoerder":"DPD","puntType":"pickup_point","bezettingsgraad":50,"latitude":45.054361,"longitude":9.607599,"canPickup":true,"canDropoff":true,"openingstijden":{"ma":"09:00 - 12:30, 17:00 - 19:00","di":"09:00 - 12:30, 17:00 - 19:00","wo":"09:00 - 12:30, 17:00 - 19:00","do":"09:00 - 12:30","vr":"09:00 - 12:30, 17:00 - 19:00","za":"09:00 - 12:30, 17:00 - 19:00","zo":"gesloten"}}},{"type":"Feature","geometry":{"type":"Point","coordinates":[9.61129,45.05602]},"properties":{"type":"pakketpunt","locatieNaam":"InPost Point","straatNaam":"Via Emilia Est","straatNr":"58","vervoerder":"InPost","puntType":"servicepunt","bezettingsgraad":50,"latitude":45.05602,"longitude":9.61129,"canPickup":true,"canDropoff":true,"openingstijden":"Lun-Mer: 09:00 - 12:30 - 15:00 - 19:00 Gio: 09:00 - 12:30 Ven: 09:00 - 12:30 - 15:00 - 19:00 Sab: 09:00 - 12:30"}},{"type":"Feature","geometry":{"type":"Point","coordinates":[9.62555,45.05582]},"properties":{"type":"pakketpunt","locatieNaam":"ENI","straatNaam":"Via Emilia Pavese Est","straatNr":"","vervoerder":"InPost","puntType":"automaat","bezettingsgraad":50,"latitude":45.05582,"longitude":9.62555,"canPickup":true,"canDropoff":true,"openingstijden":null}},{"type":"Feature","geometry":{"type":"Point","coordinates":[9.58744,45.0562]},"properties":{"type":"pakketpunt","locatieNaam":"InPost Locker 24/7","straatNaam":"Via Emilia Pavese","straatNr":"snc","vervoerder":"InPost","puntType":"automaat","bezettingsgraad":50,"latitude":45.0562,"longitude":9.58744,"canPickup":true,"canDropoff":true,"openingstijden":null}},{"type":"Feature","geometry":{"type":"Point","coordinates":[9.536508,45.057044]},"properties":{"type":"pakketpunt","locatieNaam":"TABACCHERIA n. 7","straatNaam":"VIA 10 EMILIA OVEST 86-A","straatNr":"","vervoerder":"DHL","puntType":"parcelShop","bezettingsgraad":50,"latitude":45.057044,"longitude":9.536508,"canPickup":true,"canDropoff":true,"openingstijden":{"ma":"06:30 - 15:00","di":"06:30 - 15:00","wo":"06:30 - 15:00","do":"06:30 - 15:00","vr":"06:30 - 15:00","za":"06:30 - 15:00","zo":"gesloten"}}},{"type":"Feature","geometry":{"type":"Point","coordinates":[9.551172,45.057988]},"properties":{"type":"pakketpunt","locatieNaam":"Ufficio Postale ROTTOFRENO","straatNaam":"VIA 10 EMILIA EST 29-A","straatNr":"","vervoerder":"DHL","puntType":"postOffice","bezettingsgraad":50,"latitude":45.057988,"longitude":9.551172,"canPickup":true,"canDropoff":true,"openingstijden":{"ma":"08:20 - 13:45","di":"08:20 - 13:45","wo":"08:20 - 13:45","do":"08:20 - 13:45","vr":"08:20 - 13:45","za":"08:20 - 12:45","zo":"gesloten"}}},{"type":"Feature","geometry":{"type":"Point","coordinates":[9.587746,45.056089]},"properties":{"type":"pakketpunt","locatieNaam":"STAZIONE DI SERVIZIO COIL","straatNaam":"VIA EMILIA OVEST SNC 1","straatNr":"","vervoerder":"DHL","puntType":"packStation","bezettingsgraad":50,"latitude":45.056089,"longitude":9.587746,"canPickup":true,"canDropoff":true,"openingstijden":{"ma":"00:01 - 23:59","di":"00:01 - 23:59","wo":"00:01 - 23:59","do":"00:01 - 23:59","vr":"00:01 - 23:59","za":"00:01 - 23:59","zo":"00:01 - 23:59"}}},{"type":"Feature","geometry":{"type":"Point","coordinates":[9.61095,45.052687]},"properties":{"type":"pakketpunt","locatieNaam":"Ufficio Postale SAN NICOLO' A TREBB","straatNaam":"VIA VENTICINQUE APRILE 51","straatNr":"","vervoerder":"DHL","puntType":"postOffice","bezettingsgraad":50,"latitude":45.052687,"longitude":9.61095,"canPickup":true,"canDropoff":true,"openingstijden":{"ma":"08:20 - 13:35","di":"08:20 - 13:35","wo":"08:20 - 13:35","do":"08:20 - 13:35","vr":"08:20 - 13:35","za":"08:20 - 12:35","zo":"gesloten"}}},{"type":"Feature","geometry":{"type":"Point","coordinates":[9.625238,45.055778]},"properties":{"type":"pakketpunt","locatieNaam":"Amazon Locker - udilio","straatNaam":"ENI Station pv.57606","straatNr":"","vervoerder":"Amazon","puntType":"locker","bezettingsgraad":50,"latitude":45.055778,"longitude":9.625238,"canPickup":true,"canDropoff":false,"openingstijden":null}},{"type":"Feature","geometry":{"type":"Point","coordinates":[9.6112883,45.0559854]},"properties":{"type":"pakketpunt","locatieNaam":"Amazon Counter (fermopoint)","straatNaam":"La Boutique Del Caffè","straatNr":"","vervoerder":"Amazon","puntType":"helix","bezettingsgraad":50,"latitude":45.0559854,"longitude":9.6112883,"canPickup":true,"canDropoff":false,"openingstijden":null}},{"type":"Feature","geometry":{"type":"Point","coordinates":[9.55117,45.0579]},"properties":{"type":"pakketpunt","locatieNaam":"Ufficio Postale ROTTOFRENO","straatNaam":"VIA 10 EMILIA EST 29-A","straatNr":"","vervoerder":"Amazon","puntType":"3p","bezettingsgraad":50,"latitude":45.0579,"longitude":9.55117,"canPickup":true,"canDropoff":false,"openingstijden":null}},{"type":"Feature","geometry":{"type":"Point","coordinates":[9.6077363,45.0542963]},"properties":{"type":"pakketpunt","locatieNaam":"Amazon Counter","straatNaam":"Il Girotondo (fermopoint)","straatNr":"","vervoerder":"Amazon","puntType":"helix","bezettingsgraad":50,"latitude":45.0542963,"longitude":9.6077363,"canPickup":true,"canDropoff":false,"openingstijden":null}},{"type":"Feature","geometry":{"type":"Point","coordinates":[9.61095,45.0526]},"properties":{"type":"pakketpunt","locatieNaam":"Ufficio Postale SAN NICOLO' A TREBBIA","straatNaam":"VIA VENTICINQUE APRILE 51","straatNr":"","vervoerder":"Amazon","puntType":"3p","bezettingsgraad":50,"latitude":45.0526,"longitude":9.61095,"canPickup":true,"canDropoff":false,"openingstijden":null}},{"type":"Feature","geometry":{"type":"Polygon","coordinates":[[[9.5298879,45.0397629],[9.5347479,45.038381],[9.5352902,45.0379914],[9.535767,45.0373861],[9.5353701,45.0370279],[9.5347322,45.0366978],[9.5334743,45.0365777],[9.5323854,45.0368078],[9.5302995,45.0361864],[9.5302699,45.033181],[9.5303716,45.032618],[9.5300275,45.0314368],[9.5307464,45.0306376],[9.5426761,45.0300397],[9.5509817,45.0358869],[9.5508453,45.0388671],[9.5510601,45.0413235],[9.5686559,45.0443068],[9.5689595,45.0441882],[9.5756161,45.0385019],[9.5780384,45.0358837],[9.5788951,45.0331114],[9.5797773,45.0332554],[9.5842431,45.0342409],[9.5867005,45.0349484],[9.5983025,45.039704],[9.6012757,45.0411377],[9.6031541,45.04228],[9.6039104,45.0429691],[9.6061448,45.0441455],[9.6119174,45.0437186],[9.6165467,45.0432436],[9.6228771,45.0462608],[9.6302337,45.0501631],[9.6335289,45.0541866],[9.6340733,45.0551827],[9.6344904,45.0561526],[9.6346003,45.0569081],[9.6325699,45.0564795],[9.6298838,45.0567932],[9.6293117,45.0571644],[9.6230453,45.0584488],[9.6213164,45.058879],[9.619829,45.0592957],[9.6191117,45.0597466],[9.617503,45.0600003],[9.6151077,45.0600855],[9.6102677,45.0607278],[9.6064468,45.0618872],[9.6024118,45.0626539],[9.5991866,45.0629141],[9.5969627,45.0628002],[9.5907799,45.063662],[9.5863891,45.0645746],[9.5844434,45.0651917],[9.5827621,45.0662691],[9.576906,45.0690742],[9.5758718,45.0697046],[9.5721184,45.0730131],[9.5712064,45.0735552],[9.5732792,45.0754484],[9.5736885,45.0760764],[9.5737399,45.076494],[9.5736392,45.0780481],[9.5738632,45.0791904],[9.5717868,45.0794618],[9.5706744,45.0792161],[9.569246,45.0791119],[9.5692055,45.0807064],[9.5691165,45.0810475],[9.5690486,45.0811646],[9.5683472,45.0814357],[9.5682762,45.0815385],[9.5686,45.0838892],[9.5702973,45.0896199],[9.5703626,45.0900039],[9.5701286,45.0908394],[9.5702031,45.0921776],[9.5715915,45.0995023],[9.5720242,45.1007772],[9.5725214,45.1012389],[9.5684487,45.1019048],[9.5660131,45.1021965],[9.5642161,45.1030097],[9.5618373,45.1048894],[9.5595566,45.1064754],[9.5585505,45.106316],[9.558274,45.1072911],[9.5570308,45.1081889],[9.5558912,45.1094226],[9.5555244,45.1114954],[9.5391563,45.1236919],[9.536777,45.1242927],[9.5361798,45.1218052],[9.5365792,45.1189228],[9.5368979,45.1178146],[9.5375054,45.1163338],[9.5390833,45.1129992],[9.5396271,45.1123308],[9.5416694,45.1093949],[9.5424041,45.1082248],[9.5433896,45.1070011],[9.5437479,45.1063743],[9.5439937,45.1057649],[9.5440043,45.1048961],[9.5455377,45.1012874],[9.5462346,45.0998557],[9.5474471,45.0980897],[9.5493607,45.0958858],[9.549942,45.0950293],[9.5501902,45.0945128],[9.5504835,45.0935553],[9.5505429,45.0919707],[9.5502988,45.0911781],[9.5496212,45.0895511],[9.548655,45.0884209],[9.5467021,45.0866618],[9.5432571,45.0839292],[9.5408947,45.0824099],[9.5396068,45.0818133],[9.5384882,45.0811498],[9.5370025,45.0804104],[9.5358574,45.08003],[9.5347366,45.0794958],[9.5325766,45.0789069],[9.5281575,45.0732477],[9.5278435,45.0708817],[9.5278505,45.0702606],[9.5291417,45.0617662],[9.5313874,45.0549146],[9.5325662,45.0533068],[9.5315098,45.051907],[9.5313285,45.0514434],[9.5275835,45.0458046],[9.5298879,45.0397629]]]},"properties":{"type":"boundary","gemeente":"Rottofreno"}}]}