{"type":"FeatureCollection","metadata":{"gemeente":"Ruda / Rude","slug":"ruda-rude","generated_at":"2026-09-26T14:27:54.536664Z","total_points":9,"providers":["PosteItaliane","InPost","DHL","Amazon"],"bounds":[13.3756,45.825585,13.401588,45.85006934]},"features":[{"type":"Feature","geometry":{"type":"Point","coordinates":[13.40158773,45.83751314]},"properties":{"type":"pakketpunt","locatieNaam":"Ruda","straatNaam":"Via Mosettig","straatNr":"2","vervoerder":"PosteItaliane","puntType":"postkantoor","bezettingsgraad":50,"latitude":45.83751314,"longitude":13.40158773,"canPickup":true,"canDropoff":true,"openingstijden":{"za":"08:20 - 12:45","zo":"gesloten","ma":"08:20 - 13:45","di":"08:20 - 13:45","wo":"08:20 - 13:45","do":"08:20 - 13:45","vr":"08:20 - 13:45"}}},{"type":"Feature","geometry":{"type":"Point","coordinates":[13.37564172,45.85006934]},"properties":{"type":"pakketpunt","locatieNaam":"Perteole","straatNaam":"Via Volontari Della Liberta'","straatNr":"20","vervoerder":"PosteItaliane","puntType":"postkantoor","bezettingsgraad":50,"latitude":45.85006934,"longitude":13.37564172,"canPickup":true,"canDropoff":true,"openingstijden":{"za":"08:20 - 12:45","zo":"gesloten","ma":"08:20 - 13:45","di":"08:20 - 13:45","wo":"08:20 - 13:45","do":"08:20 - 13:45","vr":"08:20 - 13:45"}}},{"type":"Feature","geometry":{"type":"Point","coordinates":[13.39681099,45.8255852]},"properties":{"type":"pakketpunt","locatieNaam":"Tabaccheria N. 11","straatNaam":"Via Della Mondina","straatNr":"2/b","vervoerder":"PosteItaliane","puntType":"servicepunt","bezettingsgraad":50,"latitude":45.8255852,"longitude":13.39681099,"canPickup":true,"canDropoff":true,"openingstijden":{"za":"07:00 - 12:30, 16:00 - 19:00","zo":"07:00 - 12:00","ma":"07:00 - 12:30, 16:00 - 19:00","di":"07:00 - 12:30, 16:00 - 19:00","wo":"07:00 - 12:30","do":"07:00 - 12:30, 16:00 - 19:00","vr":"07:00 - 12:30, 16:00 - 19:00"}}},{"type":"Feature","geometry":{"type":"Point","coordinates":[13.40121,45.82775]},"properties":{"type":"pakketpunt","locatieNaam":"InPost Locker 24/7","straatNaam":"SP 8","straatNr":"Km. 2+928","vervoerder":"InPost","puntType":"automaat","bezettingsgraad":50,"latitude":45.82775,"longitude":13.40121,"canPickup":true,"canDropoff":true,"openingstijden":null}},{"type":"Feature","geometry":{"type":"Point","coordinates":[13.396811,45.825585]},"properties":{"type":"pakketpunt","locatieNaam":"TABACCHERIA N. 11","straatNaam":"VIA DELLA MONDINA 2-B","straatNr":"","vervoerder":"DHL","puntType":"parcelShop","bezettingsgraad":50,"latitude":45.825585,"longitude":13.396811,"canPickup":true,"canDropoff":true,"openingstijden":{"ma":"07:00 - 12:30, 16:00 - 19:00","di":"07:00 - 12:30, 16:00 - 19:00","wo":"07:00 - 12:30","do":"07:00 - 12:30, 16:00 - 19:00","vr":"07:00 - 12:30, 16:00 - 19:00","za":"07:00 - 12:30, 16:00 - 19:00","zo":"07:00 - 12:00"}}},{"type":"Feature","geometry":{"type":"Point","coordinates":[13.401588,45.837513]},"properties":{"type":"pakketpunt","locatieNaam":"Ufficio Postale RUDA","straatNaam":"VIA MOSETTIG 2","straatNr":"","vervoerder":"DHL","puntType":"postOffice","bezettingsgraad":50,"latitude":45.837513,"longitude":13.401588,"canPickup":true,"canDropoff":true,"openingstijden":{"ma":"08:20 - 13:45","di":"08:20 - 13:45","wo":"08:20 - 13:45","do":"08:20 - 13:45","vr":"08:20 - 13:45","za":"08:20 - 12:45","zo":"gesloten"}}},{"type":"Feature","geometry":{"type":"Point","coordinates":[13.375642,45.850069]},"properties":{"type":"pakketpunt","locatieNaam":"Ufficio Postale PERTEOLE","straatNaam":"VIA VOLONTARI DELLA LIBERTA 20","straatNr":"","vervoerder":"DHL","puntType":"postOffice","bezettingsgraad":50,"latitude":45.850069,"longitude":13.375642,"canPickup":true,"canDropoff":true,"openingstijden":{"ma":"08:20 - 13:45","di":"08:20 - 13:45","wo":"08:20 - 13:45","do":"08:20 - 13:45","vr":"08:20 - 13:45","za":"08:20 - 12:45","zo":"gesloten"}}},{"type":"Feature","geometry":{"type":"Point","coordinates":[13.3756,45.85]},"properties":{"type":"pakketpunt","locatieNaam":"Ufficio Postale PERTEOLE","straatNaam":"VIA VOLONTARI DELLA LIBERTA 20","straatNr":"","vervoerder":"Amazon","puntType":"3p","bezettingsgraad":50,"latitude":45.85,"longitude":13.3756,"canPickup":true,"canDropoff":false,"openingstijden":null}},{"type":"Feature","geometry":{"type":"Point","coordinates":[13.4015,45.8375]},"properties":{"type":"pakketpunt","locatieNaam":"Ufficio Postale RUDA","straatNaam":"VIA MOSETTIG 2","straatNr":"","vervoerder":"Amazon","puntType":"3p","bezettingsgraad":50,"latitude":45.8375,"longitude":13.4015,"canPickup":true,"canDropoff":false,"openingstijden":null}},{"type":"Feature","geometry":{"type":"Polygon","coordinates":[[[13.3387771,45.8520225],[13.3386463,45.8517218],[13.3385683,45.8506609],[13.3388557,45.8503625],[13.3386487,45.8501143],[13.3384469,45.8494644],[13.3382189,45.8492274],[13.338607,45.8487671],[13.3386541,45.8486027],[13.3383136,45.8482774],[13.3378398,45.8481179],[13.3376108,45.8479014],[13.3375348,45.8477107],[13.3375465,45.8473873],[13.33785,45.8468828],[13.3384794,45.8465352],[13.3389961,45.8457416],[13.3398071,45.8453826],[13.3400885,45.8451794],[13.3400462,45.845018],[13.3396327,45.8444697],[13.3400172,45.8437047],[13.339991,45.8434214],[13.3403225,45.8424109],[13.3403793,45.8418961],[13.3405235,45.841729],[13.3408025,45.8417501],[13.3409922,45.841882],[13.3412983,45.8418152],[13.3414015,45.8416496],[13.3411587,45.8412633],[13.341212,45.8407795],[13.3420327,45.8403426],[13.3415569,45.8400654],[13.341476,45.839804],[13.3415597,45.8396591],[13.3420284,45.8395127],[13.342048,45.8392594],[13.3414985,45.8389247],[13.3408914,45.838366],[13.340229,45.8379063],[13.3400156,45.8376395],[13.3399694,45.8374204],[13.3401469,45.8372983],[13.3419801,45.8377385],[13.342559,45.8380267],[13.3429164,45.837985],[13.3430233,45.838071],[13.3430481,45.8383069],[13.3431774,45.8383975],[13.3434151,45.8384674],[13.3440421,45.8384111],[13.3441771,45.8385002],[13.344271,45.8386992],[13.3444428,45.8387792],[13.344647,45.8387914],[13.3451904,45.8385933],[13.3453943,45.8385969],[13.3455167,45.8387294],[13.3454528,45.8389599],[13.3455848,45.8393506],[13.3461754,45.8393997],[13.34639,45.8396009],[13.3468531,45.839465],[13.3471035,45.8398564],[13.3473275,45.8399961],[13.347496,45.8400007],[13.3476467,45.8397345],[13.3478649,45.8396755],[13.3490223,45.8401246],[13.3496583,45.8396568],[13.3505149,45.8393766],[13.3505298,45.838803],[13.3506602,45.8382463],[13.3508786,45.8380434],[13.3512589,45.8379477],[13.3513634,45.8377168],[13.3520604,45.8378926],[13.3524586,45.8378885],[13.3528207,45.8382582],[13.3534869,45.8382384],[13.3541699,45.8374566],[13.3542525,45.8372748],[13.3540663,45.8370931],[13.3541082,45.8369118],[13.3553638,45.8349834],[13.3555078,45.8343956],[13.3557093,45.8339866],[13.3559713,45.8339841],[13.3560243,45.8326075],[13.3567501,45.8311469],[13.3550641,45.8307292],[13.3544146,45.8295337],[13.3547223,45.8292298],[13.354675,45.8289111],[13.3551029,45.8290272],[13.3554793,45.8289953],[13.3555878,45.8287821],[13.3554464,45.8285542],[13.356325,45.8281342],[13.3565829,45.8280715],[13.357041,45.8281284],[13.3584612,45.8287538],[13.3586991,45.829042],[13.3590912,45.8289629],[13.3593595,45.8290082],[13.359441,45.829084],[13.3595838,45.8297256],[13.3599777,45.8299894],[13.3622701,45.8301828],[13.3625614,45.8303275],[13.3631201,45.8302436],[13.3638257,45.8303571],[13.3640268,45.8304724],[13.3640895,45.8307481],[13.3645619,45.8309933],[13.3647306,45.8312391],[13.3654474,45.831286],[13.3659548,45.8317537],[13.3660408,45.8322197],[13.3662245,45.8325748],[13.3660771,45.8337495],[13.3656942,45.8339065],[13.3658964,45.8343545],[13.3659196,45.8347315],[13.3662305,45.8347892],[13.366571,45.8350098],[13.3673093,45.8352706],[13.367638,45.8350415],[13.3679907,45.8350653],[13.3685272,45.8352388],[13.3694964,45.8359251],[13.370909,45.8367201],[13.371122,45.8369116],[13.3717134,45.83698],[13.3719522,45.8373906],[13.3722352,45.8374392],[13.3726528,45.8373735],[13.373406,45.836812],[13.3739717,45.8366627],[13.3755112,45.8366199],[13.3766618,45.8369069],[13.3766194,45.8370539],[13.3769371,45.8374491],[13.37809,45.8360482],[13.3780192,45.8359188],[13.3794347,45.8339135],[13.3788939,45.8331104],[13.3773035,45.8311919],[13.3769804,45.8305413],[13.3769861,45.8302175],[13.377386,45.8295155],[13.3774223,45.828671],[13.3779127,45.8282939],[13.3785872,45.8281137],[13.3789272,45.8275307],[13.3795636,45.8268833],[13.3803421,45.8250705],[13.3822805,45.8236513],[13.3823765,45.8235038],[13.3823789,45.8230718],[13.3822556,45.8221863],[13.3828232,45.8222145],[13.3835105,45.8225214],[13.3835836,45.8227623],[13.383363,45.823286],[13.3835732,45.8236163],[13.3839896,45.8239445],[13.3841305,45.8241848],[13.3849158,45.8242793],[13.3853113,45.8239399],[13.3857127,45.8242513],[13.3858255,45.8244663],[13.3858515,45.8250783],[13.3859585,45.8251489],[13.3870599,45.8253945],[13.3881027,45.8257593],[13.3895115,45.8258031],[13.3890967,45.82503],[13.3905296,45.8248236],[13.3915012,45.8248512],[13.3923879,45.8251478],[13.3926499,45.8246837],[13.3926767,45.824252],[13.3935694,45.8242955],[13.3937835,45.8239876],[13.3944923,45.8237896],[13.3943171,45.8231926],[13.393957,45.822878],[13.3939367,45.8227271],[13.3944583,45.8226331],[13.3946398,45.8224909],[13.3947229,45.8217987],[13.3953659,45.8211636],[13.3955344,45.8208842],[13.395681,45.8202617],[13.3956875,45.8196961],[13.396492,45.8194219],[13.39776,45.8191516],[13.3981202,45.8192581],[13.3989715,45.8197082],[13.4007882,45.81979],[13.4015411,45.8195952],[13.4020411,45.8193699],[13.4029863,45.8187259],[13.4032942,45.8183996],[13.4031678,45.817668],[13.3994533,45.8125889],[13.3994098,45.8124382],[13.3994898,45.8124242],[13.3995253,45.8113603],[13.4004385,45.8100032],[13.4005034,45.8087088],[13.4005903,45.808552],[13.402044,45.8091106],[13.4023647,45.8094864],[13.4030186,45.8098112],[13.4031822,45.8100892],[13.4043956,45.8097751],[13.4066237,45.8093776],[13.4078137,45.8093874],[13.4087372,45.8092996],[13.4089251,45.8097921],[13.4095977,45.8104389],[13.411758,45.8120238],[13.4099801,45.8143219],[13.4099776,45.8147134],[13.4103668,45.8154114],[13.4113136,45.8151902],[13.4127394,45.8156197],[13.4128153,45.8142753],[13.4135026,45.8135745],[13.4137838,45.8133671],[13.4161695,45.8125181],[13.416565,45.8124814],[13.4172507,45.8148255],[13.4213469,45.8139693],[13.425626,45.813449],[13.4257541,45.8149556],[13.425807,45.8179754],[13.4259061,45.8192282],[13.4258753,45.8210494],[13.4259871,45.8222357],[13.4258146,45.8244318],[13.4258897,45.8258071],[13.4257859,45.8287663],[13.4258826,45.8302857],[13.4258449,45.8322396],[13.4259092,45.8338142],[13.4281534,45.8336607],[13.4284022,45.8360045],[13.4287909,45.8369934],[13.4288722,45.8378483],[13.4292245,45.8391312],[13.4255558,45.8398266],[13.4253484,45.8399183],[13.4250358,45.8403284],[13.424793,45.8404075],[13.4245057,45.8403365],[13.4243107,45.840113],[13.4205399,45.8402601],[13.4200348,45.8401473],[13.4183978,45.8403154],[13.4170763,45.8428615],[13.4166082,45.8431032],[13.416059,45.8432441],[13.4157937,45.8432326],[13.4151513,45.8429891],[13.4150431,45.8430168],[13.4148876,45.8433351],[13.414691,45.8441649],[13.4148586,45.8446662],[13.414513,45.8448047],[13.4156758,45.8462204],[13.4164576,45.8468486],[13.4167228,45.8476889],[13.417253,45.8480211],[13.4166425,45.8486303],[13.4168029,45.8493174],[13.4163716,45.8488932],[13.4153819,45.8462638],[13.4104713,45.8417307],[13.4082618,45.8433923],[13.4076587,45.845308],[13.4074667,45.845447],[13.4070675,45.8465733],[13.4058578,45.8461215],[13.406002,45.8469047],[13.4059848,45.8472633],[13.4060874,45.8472674],[13.4060918,45.8479641],[13.4048175,45.84833],[13.4030681,45.8486913],[13.4021916,45.8491772],[13.4019296,45.8489218],[13.4018097,45.848908],[13.4014385,45.8492785],[13.400691,45.8496923],[13.4003116,45.8494033],[13.3984805,45.848882],[13.3982328,45.8487351],[13.3973976,45.8484807],[13.3960901,45.8478662],[13.3952762,45.8478281],[13.3949262,45.8480238],[13.3945268,45.8481275],[13.3944911,45.8479137],[13.3942783,45.8476969],[13.3928383,45.846929],[13.3919067,45.8469391],[13.3896542,45.8466139],[13.3897033,45.8477318],[13.3902871,45.8483683],[13.3902346,45.8483985],[13.390949,45.8492734],[13.391341,45.8494484],[13.3914198,45.8497974],[13.3916562,45.8502472],[13.3911624,45.852337],[13.3914391,45.8525255],[13.3913432,45.8531809],[13.3920676,45.8532123],[13.3920059,45.8538006],[13.3914826,45.8538008],[13.3914563,45.8548191],[13.3910853,45.8558655],[13.3909756,45.856023],[13.388941,45.8550701],[13.3882878,45.856198],[13.3872555,45.8560607],[13.3865723,45.8565268],[13.3857995,45.8562474],[13.3851645,45.856726],[13.3844057,45.8570585],[13.3844587,45.8560207],[13.3828716,45.8556817],[13.3825141,45.8557146],[13.3819549,45.856162],[13.3817789,45.8561957],[13.3780572,45.8551644],[13.3766804,45.8550188],[13.3744628,45.8550757],[13.3739601,45.8545879],[13.3692897,45.8545048],[13.3693022,45.8548804],[13.3667408,45.8532597],[13.3676397,45.8525621],[13.3674851,45.8524413],[13.367105,45.852395],[13.3668694,45.852478],[13.366322,45.8521431],[13.3658819,45.8527419],[13.3654463,45.8536499],[13.3654125,45.8539202],[13.3652485,45.8542543],[13.3652453,45.8543631],[13.3655523,45.8547462],[13.365531,45.8551058],[13.3653968,45.8554527],[13.3645284,45.8558116],[13.3641544,45.8558699],[13.3633977,45.8564666],[13.3637486,45.8568316],[13.3633636,45.8569841],[13.3631393,45.8566064],[13.361813,45.8553788],[13.360828,45.8552016],[13.3604395,45.855011],[13.3601079,45.8542506],[13.3596743,45.8541175],[13.3596671,45.8540042],[13.3598541,45.8537184],[13.3598443,45.8533348],[13.3599316,45.8530476],[13.3594569,45.8522871],[13.3592195,45.8517303],[13.3589233,45.8513697],[13.358517,45.8510489],[13.3580892,45.8508355],[13.3576407,45.8507963],[13.3565885,45.850876],[13.357258,45.8517823],[13.3576458,45.8518135],[13.3582806,45.8525565],[13.3585612,45.8531996],[13.3588706,45.8535764],[13.3588957,45.8539748],[13.3591104,45.8545366],[13.3578537,45.8552854],[13.3571308,45.8554112],[13.3574221,45.8560589],[13.3536949,45.8575767],[13.3520472,45.8584415],[13.3517101,45.858338],[13.3510541,45.8587921],[13.3505102,45.8590556],[13.3503546,45.8590647],[13.3498667,45.8587921],[13.3493124,45.8590762],[13.3490173,45.8588601],[13.3483844,45.8579531],[13.3474018,45.8572055],[13.3453331,45.8562949],[13.3448587,45.8557868],[13.3422822,45.8543181],[13.3418376,45.8540947],[13.3415652,45.8541469],[13.3405782,45.8539163],[13.3402935,45.8539348],[13.3400858,45.8538184],[13.3396262,45.8537324],[13.3395629,45.8536462],[13.339676,45.8533859],[13.3392683,45.8525167],[13.3387771,45.8520225]]]},"properties":{"type":"boundary","gemeente":"Ruda / Rude"}}]}