{"type":"FeatureCollection","metadata":{"gemeente":"Sagliano Micca","slug":"sagliano-micca","generated_at":"2026-09-26T14:27:54.811563Z","total_points":1,"providers":["PosteItaliane"],"bounds":[8.04568168,45.62320577,8.04568168,45.62320577]},"features":[{"type":"Feature","geometry":{"type":"Point","coordinates":[8.04568168,45.62320577]},"properties":{"type":"pakketpunt","locatieNaam":"Sagliano Micca","straatNaam":"Via Giulio Cappellaro","straatNr":"9","vervoerder":"PosteItaliane","puntType":"postkantoor","bezettingsgraad":50,"latitude":45.62320577,"longitude":8.04568168,"canPickup":true,"canDropoff":true,"openingstijden":{"za":"08:20 - 12:45","zo":"gesloten","ma":"gesloten","di":"08:20 - 13:45","wo":"gesloten","do":"08:20 - 13:45","vr":"gesloten"}}},{"type":"Feature","geometry":{"type":"MultiPolygon","coordinates":[[[[7.9052082,45.681962],[7.9051546,45.6833911],[7.9047946,45.6847287],[7.9048045,45.686196],[7.9056049,45.6886159],[7.9066936,45.6907415],[7.9064596,45.6915493],[7.906815,45.6924258],[7.907792,45.6936953],[7.9083241,45.6953925],[7.9094108,45.6976351],[7.9105328,45.6987259],[7.9114765,45.7004],[7.9118029,45.7007902],[7.9127852,45.7011415],[7.9141627,45.7009836],[7.9156628,45.7004668],[7.91723,45.7004637],[7.9184307,45.7008171],[7.9197245,45.7016664],[7.9202982,45.7018954],[7.9206421,45.701171],[7.9209094,45.700215],[7.9213877,45.6963627],[7.9217047,45.694426],[7.9212534,45.6936387],[7.9191044,45.6922232],[7.9189233,45.691938],[7.9210235,45.6899821],[7.9214273,45.6897474],[7.9229202,45.6879974],[7.9241331,45.6867577],[7.9247072,45.685971],[7.9254672,45.6852221],[7.9272716,45.6846495],[7.9281685,45.6844599],[7.9269635,45.6815998],[7.9273593,45.6807305],[7.9280645,45.6787929],[7.9286664,45.6785825],[7.9288786,45.6782245],[7.9296349,45.6779976],[7.9296333,45.6767374],[7.9294263,45.6754709],[7.9295247,45.6746887],[7.9297452,45.6738987],[7.930012,45.6733927],[7.9302721,45.6732421],[7.930342,45.6729412],[7.9302308,45.6726882],[7.9302547,45.6724679],[7.9303996,45.6722757],[7.9306472,45.672107],[7.931255,45.6718967],[7.9316432,45.6714188],[7.9318024,45.6710467],[7.9317135,45.6708884],[7.9317097,45.6706003],[7.9321012,45.6701629],[7.9321404,45.6697043],[7.9330336,45.6681374],[7.9333561,45.6671054],[7.9322131,45.6662396],[7.9301376,45.6648836],[7.9274572,45.6629637],[7.9272394,45.6623541],[7.926725,45.6595681],[7.9264708,45.6576935],[7.9259032,45.6551848],[7.9252383,45.6555712],[7.9238565,45.6566833],[7.922585,45.6580665],[7.9208547,45.6606064],[7.9209968,45.6618948],[7.9220024,45.6643435],[7.9221359,45.6654159],[7.9216159,45.6664191],[7.9200303,45.6674077],[7.9179042,45.6685082],[7.9165835,45.6690897],[7.9138378,45.6696667],[7.9126244,45.6700062],[7.9118602,45.6706845],[7.9119163,45.6717636],[7.9121351,45.6730618],[7.9121321,45.6738809],[7.9118546,45.6749493],[7.9115633,45.6767287],[7.9113524,45.6789949],[7.9111448,45.679767],[7.9103495,45.6803895],[7.9091559,45.6810171],[7.9062619,45.6819256],[7.9052082,45.681962]]],[[[8.0033123,45.6303611],[8.003751,45.6304909],[8.0057319,45.6323939],[8.0064294,45.6332415],[8.0069102,45.6341345],[8.0077207,45.6345669],[8.0085397,45.6352805],[8.0096163,45.6356184],[8.011457,45.6358279],[8.0128925,45.6358898],[8.0161195,45.6347385],[8.0168524,45.6346008],[8.0177017,45.6346396],[8.0184769,45.6348173],[8.0196223,45.6349172],[8.021304,45.634288],[8.0215326,45.634281],[8.0226279,45.6345199],[8.0238319,45.6351872],[8.0243308,45.635367],[8.0259954,45.6356783],[8.0300774,45.6370991],[8.0299018,45.6377232],[8.0295585,45.6382648],[8.0303007,45.6385232],[8.0308611,45.6391085],[8.0310308,45.6394114],[8.0303467,45.6395271],[8.0306708,45.6399169],[8.0305058,45.639974],[8.0297419,45.6407866],[8.0296833,45.6412587],[8.0297858,45.6415206],[8.0299659,45.6418641],[8.0304946,45.6424582],[8.0321219,45.6434801],[8.0329491,45.6444862],[8.0335712,45.644973],[8.0349797,45.6464566],[8.0355048,45.6448633],[8.0359514,45.644192],[8.0361022,45.6441213],[8.0369256,45.6440652],[8.0380842,45.644246],[8.0382087,45.6438645],[8.038342,45.6438071],[8.0387292,45.6438419],[8.0390737,45.6436063],[8.0394838,45.6435647],[8.0389563,45.6444694],[8.0386233,45.6447816],[8.0382235,45.6453903],[8.0380977,45.6462938],[8.0381693,45.6467265],[8.0380053,45.6467251],[8.0377834,45.6468987],[8.0377718,45.6470111],[8.037978,45.6472199],[8.0377464,45.647488],[8.0378033,45.647583],[8.0380272,45.6475804],[8.0382647,45.6476904],[8.0384373,45.6480113],[8.038423,45.6482813],[8.0386683,45.6485038],[8.0386759,45.6489989],[8.038523,45.6491192],[8.0381734,45.6492062],[8.0377381,45.6492161],[8.0369879,45.6498353],[8.0379603,45.6511576],[8.0356325,45.6504134],[8.0345829,45.6509041],[8.0327183,45.6493717],[8.0323151,45.6493548],[8.0322483,45.6495297],[8.0323918,45.649792],[8.0338442,45.6517192],[8.0331601,45.6524807],[8.0331533,45.6528722],[8.0336664,45.6533356],[8.0358321,45.654722],[8.0367925,45.6554592],[8.037793,45.6565252],[8.0387643,45.6573525],[8.0444964,45.6613024],[8.0457124,45.6624512],[8.0475726,45.6636234],[8.0483037,45.6633774],[8.049885,45.6633816],[8.0506698,45.6632981],[8.0507042,45.6632309],[8.0518215,45.6629206],[8.0518351,45.6616876],[8.0517982,45.6614488],[8.0516991,45.6614255],[8.0517344,45.6608542],[8.0516314,45.6603988],[8.0517106,45.6598639],[8.0515996,45.659431],[8.0516936,45.6591122],[8.0518118,45.6578126],[8.0519427,45.6574986],[8.0527551,45.6564163],[8.0528678,45.6560842],[8.0532971,45.6556242],[8.0532051,45.6551599],[8.0533039,45.6545576],[8.0537905,45.6539541],[8.0539991,45.6534293],[8.0552689,45.6523822],[8.0554689,45.6521273],[8.0556484,45.6513502],[8.0560119,45.6506017],[8.0560761,45.6502917],[8.0558988,45.6498627],[8.0553967,45.6491699],[8.0555359,45.648091],[8.0551103,45.6473359],[8.0550043,45.6469615],[8.054439,45.6461152],[8.0542236,45.6454789],[8.0536942,45.645002],[8.0526737,45.6445435],[8.0526308,45.6442821],[8.0512316,45.6435279],[8.050936,45.6432014],[8.0504625,45.6423604],[8.0503569,45.642013],[8.0501486,45.6403191],[8.0491294,45.6392215],[8.0491433,45.6386096],[8.0485191,45.6379653],[8.0475024,45.6361791],[8.0467973,45.6355342],[8.0466393,45.6351098],[8.0451824,45.6332795],[8.0449715,45.6327377],[8.0450099,45.6320809],[8.0452167,45.6315651],[8.0449182,45.6313916],[8.0446422,45.6314028],[8.0447662,45.6310888],[8.0446132,45.630867],[8.0446634,45.6307684],[8.0458635,45.6308504],[8.0461368,45.6311453],[8.0461525,45.6315887],[8.0471254,45.6319276],[8.0478417,45.631893],[8.0471878,45.6313926],[8.0467845,45.6306331],[8.0474197,45.6297248],[8.0476658,45.6290451],[8.0476778,45.6285254],[8.047572,45.6278809],[8.0471513,45.6266623],[8.0482037,45.6220401],[8.0487985,45.6207624],[8.04844,45.6207504],[8.0485308,45.6200266],[8.0486965,45.6195217],[8.0492548,45.6197581],[8.0493788,45.6197051],[8.0496441,45.6193293],[8.049841,45.6192274],[8.0499833,45.6189676],[8.0508341,45.6181196],[8.0518802,45.616806],[8.051055,45.6170706],[8.0505259,45.6167399],[8.0504059,45.6165589],[8.0507772,45.6163639],[8.0508643,45.6162386],[8.0508462,45.6155049],[8.0506637,45.6152244],[8.0502377,45.6149598],[8.0512689,45.6138748],[8.0482744,45.6130454],[8.0472124,45.6130588],[8.0477308,45.6141964],[8.0477948,45.6145119],[8.0476775,45.6148845],[8.0471963,45.615416],[8.0460422,45.616302],[8.0447166,45.6181496],[8.0443206,45.6184298],[8.0437538,45.6186543],[8.0439921,45.6185846],[8.0435696,45.6188691],[8.0433983,45.6191377],[8.0432971,45.6195464],[8.0433899,45.6200557],[8.043358,45.6205145],[8.0430468,45.6209934],[8.0415397,45.6222139],[8.0403335,45.6229463],[8.0393609,45.6238202],[8.039277,45.6240356],[8.0393126,45.6242294],[8.0397641,45.6251153],[8.0396825,45.6253351],[8.0395337,45.6254599],[8.0387147,45.6256465],[8.0385212,45.6265315],[8.0383078,45.6267052],[8.0378993,45.6268683],[8.0371151,45.6270552],[8.0361053,45.6264211],[8.0361411,45.6255978],[8.0362626,45.6254323],[8.0367717,45.6251261],[8.0370808,45.6245166],[8.0372945,45.6243069],[8.0368162,45.6241229],[8.0368717,45.6240153],[8.0372921,45.6239288],[8.0378793,45.6235378],[8.0382315,45.6230277],[8.0390059,45.6223546],[8.0391894,45.6219826],[8.0391568,45.6216853],[8.0396998,45.6213434],[8.0402295,45.6205332],[8.0404596,45.6198781],[8.0399121,45.6184649],[8.0399422,45.6167009],[8.0403761,45.6161735],[8.0422301,45.6133313],[8.0415009,45.6127266],[8.0404145,45.613145],[8.0400538,45.6121339],[8.0399427,45.6117144],[8.0399825,45.6116158],[8.0428061,45.6094162],[8.0443382,45.6083309],[8.0449314,45.6082324],[8.0473059,45.6090173],[8.047776,45.6085172],[8.0480659,45.6077995],[8.0481812,45.6066934],[8.0463294,45.6065204],[8.0463715,45.6075378],[8.0434091,45.6075401],[8.0429834,45.6078515],[8.0425217,45.6080637],[8.0423951,45.6082787],[8.0415447,45.607997],[8.0414872,45.6082395],[8.0412138,45.6082237],[8.0401374,45.6091373],[8.0399462,45.6093967],[8.0392001,45.6105876],[8.0387139,45.6112],[8.0387496,45.6114794],[8.0381459,45.6128919],[8.0368681,45.6141593],[8.0366087,45.6145622],[8.0363718,45.6152442],[8.0359556,45.6158843],[8.0354814,45.6163078],[8.0340516,45.6168763],[8.033174,45.6179355],[8.032603,45.6195328],[8.0320375,45.6200906],[8.0309036,45.6209675],[8.0290824,45.6217171],[8.0279296,45.6219729],[8.0262272,45.6219674],[8.0232851,45.6223518],[8.0228975,45.6223035],[8.0224567,45.6223897],[8.0222739,45.6223882],[8.0222759,45.6222711],[8.0218255,45.6220558],[8.0211086,45.6220181],[8.0203823,45.6222954],[8.0199781,45.622598],[8.0192951,45.6225516],[8.0186394,45.6232346],[8.0174853,45.6237602],[8.0165497,45.6246072],[8.0161189,45.6249006],[8.0157115,45.6249961],[8.0139772,45.6249541],[8.0139193,45.625256],[8.012495,45.6258857],[8.0112151,45.6262805],[8.0104203,45.6266543],[8.0086131,45.6272995],[8.0082105,45.6277227],[8.0067027,45.6282349],[8.0061724,45.6287523],[8.0042693,45.6300859],[8.0033123,45.6303611]]]]},"properties":{"type":"boundary","gemeente":"Sagliano Micca"}}]}