{"type":"FeatureCollection","metadata":{"gemeente":"Salice Salentino","slug":"salice-salentino","generated_at":"2026-09-26T13:10:35.405537Z","total_points":16,"providers":["PosteItaliane","DPD","InPost","GLS","DHL"],"bounds":[17.95683,40.37542,17.96887,40.3931]},"features":[{"type":"Feature","geometry":{"type":"Point","coordinates":[17.96468136,40.38554841]},"properties":{"type":"pakketpunt","locatieNaam":"Tabaccheria N. 2","straatNaam":"Via Regina Margherita","straatNr":"7","vervoerder":"PosteItaliane","puntType":"servicepunt","bezettingsgraad":50,"latitude":40.38554841,"longitude":17.96468136,"canPickup":true,"canDropoff":true,"openingstijden":{"za":"07:00 - 13:30, 15:30 - 21:00","zo":"07:00 - 13:30","ma":"07:00 - 13:30, 15:30 - 21:00","di":"07:00 - 13:30, 15:30 - 21:00","wo":"07:00 - 13:30, 15:30 - 21:00","do":"07:00 - 13:30, 15:30 - 21:00","vr":"07:00 - 13:30, 15:30 - 21:00"}}},{"type":"Feature","geometry":{"type":"Point","coordinates":[17.96090753,40.38663389]},"properties":{"type":"pakketpunt","locatieNaam":"Salice Salentino","straatNaam":"Via Dante Alighieri","straatNr":"7/b","vervoerder":"PosteItaliane","puntType":"postkantoor","bezettingsgraad":50,"latitude":40.38663389,"longitude":17.96090753,"canPickup":true,"canDropoff":true,"openingstijden":{"ma":"gesloten","di":"gesloten","wo":"gesloten","do":"gesloten","vr":"gesloten","za":"gesloten","zo":"gesloten"}}},{"type":"Feature","geometry":{"type":"Point","coordinates":[17.96876547,40.39299352]},"properties":{"type":"pakketpunt","locatieNaam":"Stazione Di Servizio Menga Petroli","straatNaam":"Via Per San Donaci Snc","straatNr":"1","vervoerder":"PosteItaliane","puntType":"automaat","bezettingsgraad":50,"latitude":40.39299352,"longitude":17.96876547,"canPickup":true,"canDropoff":true,"openingstijden":{"za":"00:01 - 23:59","zo":"00:01 - 23:59","ma":"00:01 - 23:59","di":"00:01 - 23:59","wo":"00:01 - 23:59","do":"00:01 - 23:59","vr":"00:01 - 23:59"}}},{"type":"Feature","geometry":{"type":"Point","coordinates":[17.95686272,40.39304459]},"properties":{"type":"pakketpunt","locatieNaam":"Tabaccheria N. 9","straatNaam":"Via Vescovo Eugenio Raffaele Faggiano Snc","straatNr":"1","vervoerder":"PosteItaliane","puntType":"servicepunt","bezettingsgraad":50,"latitude":40.39304459,"longitude":17.95686272,"canPickup":true,"canDropoff":true,"openingstijden":{"za":"06:00 - 21:00","zo":"06:00 - 20:00","ma":"06:00 - 21:00","di":"06:00 - 21:00","wo":"06:00 - 21:00","do":"06:00 - 21:00","vr":"00:00 - 21:00"}}},{"type":"Feature","geometry":{"type":"Point","coordinates":[17.96597607,40.38115609]},"properties":{"type":"pakketpunt","locatieNaam":"Energy Clima","straatNaam":"Via Senatore De Castris","straatNr":"102","vervoerder":"PosteItaliane","puntType":"servicepunt","bezettingsgraad":50,"latitude":40.38115609,"longitude":17.96597607,"canPickup":true,"canDropoff":true,"openingstijden":{"za":"gesloten","zo":"gesloten","ma":"10:00 - 12:30, 18:00 - 20:00","di":"10:00 - 12:30, 18:00 - 20:00","wo":"10:00 - 12:30, 18:00 - 20:00","do":"10:00 - 12:30, 18:00 - 20:00","vr":"10:00 - 12:30, 18:00 - 20:00"}}},{"type":"Feature","geometry":{"type":"Point","coordinates":[17.9610183822,40.382600447]},"properties":{"type":"pakketpunt","locatieNaam":"Mirò Informatica","straatNaam":"VIA FONTANA","straatNr":"98","vervoerder":"DPD","puntType":"pickup_point","bezettingsgraad":50,"latitude":40.382600447,"longitude":17.9610183822,"canPickup":true,"canDropoff":true,"openingstijden":{"ma":"09:00 - 13:00, 16:30 - 20:30","di":"09:00 - 13:00, 16:30 - 20:30","wo":"09:00 - 13:00, 16:30 - 20:30","do":"09:00 - 13:00, 16:30 - 20:30","vr":"09:00 - 13:00, 16:30 - 20:30","za":"09:00 - 13:00","zo":"gesloten"}}},{"type":"Feature","geometry":{"type":"Point","coordinates":[17.96684,40.37542]},"properties":{"type":"pakketpunt","locatieNaam":"InPost Locker 24/7","straatNaam":"Via Senatore De Castris","straatNr":"Snc","vervoerder":"InPost","puntType":"automaat","bezettingsgraad":50,"latitude":40.37542,"longitude":17.96684,"canPickup":true,"canDropoff":true,"openingstijden":null}},{"type":"Feature","geometry":{"type":"Point","coordinates":[17.96887,40.3931]},"properties":{"type":"pakketpunt","locatieNaam":"InPost Locker 24/7","straatNaam":"Via San Donaci Zona PIP","straatNr":"","vervoerder":"InPost","puntType":"automaat","bezettingsgraad":50,"latitude":40.3931,"longitude":17.96887,"canPickup":true,"canDropoff":true,"openingstijden":null}},{"type":"Feature","geometry":{"type":"Point","coordinates":[17.95683,40.39285]},"properties":{"type":"pakketpunt","locatieNaam":"InPost Locker 24/7","straatNaam":"Via Vescovo Faggiano","straatNr":"83","vervoerder":"InPost","puntType":"automaat","bezettingsgraad":50,"latitude":40.39285,"longitude":17.95683,"canPickup":true,"canDropoff":true,"openingstijden":null}},{"type":"Feature","geometry":{"type":"Point","coordinates":[17.9659788,40.3810395]},"properties":{"type":"pakketpunt","locatieNaam":"Energy Clima","straatNaam":"Via Senatore De Castris","straatNr":"102","vervoerder":"GLS","puntType":"parcel_shop","bezettingsgraad":50,"latitude":40.3810395,"longitude":17.9659788,"canPickup":true,"canDropoff":true,"openingstijden":"za: 09:30 - 12:30, 17:00 - 19:00; ma: 09:30 - 13:00, 16:30 - 19:30"}},{"type":"Feature","geometry":{"type":"Point","coordinates":[17.9600243,40.3858571]},"properties":{"type":"pakketpunt","locatieNaam":"Cartolandia","straatNaam":"Via Fontana","straatNr":"40","vervoerder":"GLS","puntType":"parcel_shop","bezettingsgraad":50,"latitude":40.3858571,"longitude":17.9600243,"canPickup":true,"canDropoff":true,"openingstijden":"za: 09:00 - 12:30; ma: 08:30 - 13:00, 16:30 - 20:00"}},{"type":"Feature","geometry":{"type":"Point","coordinates":[17.9661659,40.3893426]},"properties":{"type":"pakketpunt","locatieNaam":"kartosa","straatNaam":"Via Stazione","straatNr":"5","vervoerder":"GLS","puntType":"parcel_shop","bezettingsgraad":50,"latitude":40.3893426,"longitude":17.9661659,"canPickup":true,"canDropoff":true,"openingstijden":"za: 09:00 - 13:00; ma: 09:00 - 13:00, 17:00 - 20:30"}},{"type":"Feature","geometry":{"type":"Point","coordinates":[17.965976,40.381156]},"properties":{"type":"pakketpunt","locatieNaam":"ENERGY CLIMA","straatNaam":"VIA SENATORE DE CASTRIS 102","straatNr":"","vervoerder":"DHL","puntType":"parcelShop","bezettingsgraad":50,"latitude":40.381156,"longitude":17.965976,"canPickup":true,"canDropoff":true,"openingstijden":{"ma":"10:00 - 12:30, 18:00 - 20:00","di":"10:00 - 12:30, 18:00 - 20:00","wo":"10:00 - 12:30, 18:00 - 20:00","do":"10:00 - 12:30, 18:00 - 20:00","vr":"10:00 - 12:30, 18:00 - 20:00","za":"gesloten","zo":"gesloten"}}},{"type":"Feature","geometry":{"type":"Point","coordinates":[17.961045,40.382502]},"properties":{"type":"pakketpunt","locatieNaam":"MIRO' INFORMATICA","straatNaam":"Via Fontana 98","straatNr":"","vervoerder":"DHL","puntType":"parcelShop","bezettingsgraad":50,"latitude":40.382502,"longitude":17.961045,"canPickup":false,"canDropoff":true,"openingstijden":{"ma":"09:00 - 20:00","di":"09:00 - 20:00","wo":"09:00 - 20:00","do":"09:00 - 20:00","vr":"09:00 - 20:00","za":"09:00 - 13:00","zo":"gesloten"}}},{"type":"Feature","geometry":{"type":"Point","coordinates":[17.964681,40.385548]},"properties":{"type":"pakketpunt","locatieNaam":"TABACCHERIA N. 2","straatNaam":"VIA REGINA MARGHERITA 7","straatNr":"","vervoerder":"DHL","puntType":"parcelShop","bezettingsgraad":50,"latitude":40.385548,"longitude":17.964681,"canPickup":true,"canDropoff":true,"openingstijden":{"ma":"07:00 - 13:30, 15:30 - 21:00","di":"07:00 - 13:30, 15:30 - 21:00","wo":"07:00 - 13:30, 15:30 - 21:00","do":"07:00 - 13:30, 15:30 - 21:00","vr":"07:00 - 13:30, 15:30 - 21:00","za":"07:00 - 13:30, 15:30 - 21:00","zo":"07:00 - 13:30"}}},{"type":"Feature","geometry":{"type":"Point","coordinates":[17.968765,40.392994]},"properties":{"type":"pakketpunt","locatieNaam":"STAZIONE DI SERVIZIO MENGA","straatNaam":"VIA PER SAN DONACI SNC 1","straatNr":"","vervoerder":"DHL","puntType":"packStation","bezettingsgraad":50,"latitude":40.392994,"longitude":17.968765,"canPickup":true,"canDropoff":true,"openingstijden":{"ma":"00:01 - 23:59","di":"00:01 - 23:59","wo":"00:01 - 23:59","do":"00:01 - 23:59","vr":"00:01 - 23:59","za":"00:01 - 23:59","zo":"00:01 - 23:59"}}},{"type":"Feature","geometry":{"type":"Polygon","coordinates":[[[17.7983375,40.3795066],[17.8018042,40.3811002],[17.8044933,40.3818276],[17.8050367,40.3821476],[17.8051959,40.3827923],[17.8053885,40.3860842],[17.8053968,40.3879846],[17.806288,40.3898724],[17.8094643,40.3914706],[17.8113937,40.3919776],[17.8137313,40.3923846],[17.8148681,40.3928072],[17.8216681,40.3959785],[17.8221373,40.396494],[17.821386,40.3991563],[17.826039,40.3988317],[17.8274318,40.3993682],[17.8286619,40.3991738],[17.8298673,40.3987213],[17.8302614,40.3984706],[17.8310848,40.3976284],[17.8322156,40.3962079],[17.8325161,40.3959446],[17.836483,40.3951462],[17.8369551,40.3951007],[17.838506,40.3951703],[17.8386255,40.3958915],[17.8388987,40.3963897],[17.8402547,40.3967611],[17.8413488,40.3974389],[17.8447749,40.398371],[17.84521,40.3985773],[17.845691,40.3989384],[17.846402,40.3991882],[17.847318,40.3993041],[17.848948,40.3997825],[17.8497152,40.3997877],[17.850749,40.399995],[17.8515946,40.3999383],[17.8541076,40.4001494],[17.8552504,40.4003771],[17.8570056,40.4008626],[17.8614217,40.4012187],[17.8617425,40.4011151],[17.8626433,40.4013069],[17.8631638,40.4015524],[17.8642955,40.4015539],[17.8657222,40.4016891],[17.868573,40.4023393],[17.8711989,40.403218],[17.8726402,40.4038292],[17.8738995,40.404176],[17.8753074,40.4044269],[17.8772581,40.4045224],[17.878783,40.403913],[17.8806522,40.4029687],[17.8836718,40.4022948],[17.8864511,40.4014675],[17.8886417,40.4000075],[17.8901201,40.3995231],[17.8906752,40.3992643],[17.8919844,40.3991664],[17.8929709,40.398802],[17.8938183,40.3985911],[17.8965753,40.3982153],[17.8982895,40.3978677],[17.9015582,40.3975335],[17.9020359,40.3974183],[17.9039671,40.396654],[17.9074485,40.396234],[17.9104359,40.3956595],[17.9135178,40.3948153],[17.9176023,40.3928895],[17.9189925,40.3924207],[17.922367,40.3914753],[17.9242997,40.3912537],[17.9255936,40.3913423],[17.9290134,40.3911477],[17.9320287,40.3906776],[17.9343947,40.3905596],[17.9356939,40.3902965],[17.9383148,40.3892101],[17.9420268,40.3889663],[17.9420189,40.3902647],[17.9423066,40.3903427],[17.9424489,40.3904711],[17.9424621,40.3910291],[17.9426748,40.3917427],[17.9449244,40.3917508],[17.9449286,40.3923867],[17.9456109,40.3924932],[17.9471026,40.392493],[17.9480716,40.3924044],[17.9489801,40.3926092],[17.9496954,40.3926712],[17.9513119,40.3934237],[17.9521614,40.3941245],[17.9526495,40.3943092],[17.9534724,40.3950165],[17.953963,40.3951155],[17.9544382,40.3953371],[17.9545015,40.3954351],[17.9550592,40.3955589],[17.9554654,40.3953685],[17.9557818,40.3953497],[17.9563472,40.3956543],[17.9563986,40.3957854],[17.9567072,40.3959835],[17.9574878,40.3961805],[17.9587259,40.3954],[17.9595864,40.3953453],[17.9599488,40.3954805],[17.9606196,40.396142],[17.9611401,40.3963032],[17.9612952,40.3964246],[17.9613642,40.396859],[17.9615836,40.3969842],[17.9619162,40.3970084],[17.9623813,40.3972882],[17.962655,40.3973493],[17.9631041,40.3977521],[17.9637138,40.3979137],[17.9637252,40.3980933],[17.963817,40.3981537],[17.9640831,40.3981223],[17.964311,40.3982452],[17.9646447,40.3982876],[17.96842,40.3986318],[17.9688408,40.398815],[17.9705282,40.3988385],[17.9707942,40.3992578],[17.9711049,40.3995071],[17.9713135,40.399882],[17.9720915,40.4005133],[17.9724153,40.4010029],[17.9736804,40.4018142],[17.9779987,40.4057913],[17.9782873,40.4064269],[17.9801443,40.4065379],[17.9840894,40.4060526],[17.9853535,40.4059824],[17.9863587,40.4058017],[17.9872513,40.4055114],[17.9892328,40.4051248],[17.9964853,40.4040963],[17.997965,40.4033462],[17.9985228,40.4018456],[17.998703,40.4011294],[17.997468,40.3995973],[17.9955898,40.398498],[17.9924166,40.4013895],[17.9876343,40.4004614],[17.9837876,40.3963276],[17.9818661,40.3893608],[17.9821306,40.3839347],[17.9820139,40.3804006],[17.9797947,40.3725081],[17.9795713,40.3722644],[17.9778618,40.3712057],[17.9778275,40.3708926],[17.9801769,40.3636383],[17.9652881,40.361695],[17.9446935,40.3588451],[17.9431253,40.3584335],[17.942294,40.3580673],[17.9400262,40.3554635],[17.9308247,40.3517836],[17.913676,40.3519075],[17.9121539,40.3534446],[17.9096788,40.3570112],[17.9035918,40.3626987],[17.8695827,40.3825893],[17.8689893,40.3826708],[17.8682097,40.3825693],[17.8654927,40.3819657],[17.8582588,40.3800372],[17.8520833,40.3771544],[17.8527759,40.3757052],[17.8535303,40.3746057],[17.8478691,40.3702148],[17.8376554,40.3698445],[17.837023,40.3651986],[17.8363289,40.3628746],[17.8319186,40.3621369],[17.8269616,40.3605773],[17.8221092,40.3560257],[17.8163595,40.3571341],[17.813237,40.3562306],[17.8112804,40.3557792],[17.8069519,40.3550732],[17.7995516,40.3540093],[17.7997213,40.3545607],[17.8002522,40.3551284],[17.8002477,40.3552404],[17.7996237,40.3601672],[17.7988575,40.3642733],[17.7993646,40.3656149],[17.8004172,40.368957],[17.8003068,40.3693219],[17.8001101,40.3713177],[17.7998768,40.3726376],[17.800076,40.3726328],[17.7998768,40.3736498],[17.7983375,40.3795066]]]},"properties":{"type":"boundary","gemeente":"Salice Salentino"}}]}