{"type":"FeatureCollection","metadata":{"gemeente":"San Chirico Nuovo","slug":"san-chirico-nuovo","generated_at":"2026-09-26T13:10:36.106301Z","total_points":3,"providers":["PosteItaliane","Amazon"],"bounds":[16.0786,40.6769,16.07868089,40.67694381]},"features":[{"type":"Feature","geometry":{"type":"Point","coordinates":[16.07868089,40.67694381]},"properties":{"type":"pakketpunt","locatieNaam":"San Chirico Nuovo","straatNaam":"Via Michele Perriello Medaglia D'oro","straatNr":"36","vervoerder":"PosteItaliane","puntType":"postkantoor","bezettingsgraad":50,"latitude":40.67694381,"longitude":16.07868089,"canPickup":true,"canDropoff":true,"openingstijden":{"za":"08:20 - 12:45","zo":"gesloten","ma":"08:20 - 13:45","di":"08:20 - 13:45","wo":"08:20 - 13:45","do":"08:20 - 13:45","vr":"08:20 - 13:45"}}},{"type":"Feature","geometry":{"type":"Point","coordinates":[16.07861773,40.6769143]},"properties":{"type":"pakketpunt","locatieNaam":"Tabaccheria N. 1","straatNaam":"Via Michele Perriello Medaglia D'oro","straatNr":"37","vervoerder":"PosteItaliane","puntType":"servicepunt","bezettingsgraad":50,"latitude":40.6769143,"longitude":16.07861773,"canPickup":true,"canDropoff":true,"openingstijden":{"za":"08:45 - 13:00, 17:45 - 20:00","zo":"gesloten","ma":"08:45 - 13:00, 17:45 - 20:00","di":"08:45 - 13:00, 17:45 - 20:00","wo":"08:45 - 13:00, 17:45 - 20:00","do":"08:45 - 13:00, 17:45 - 20:00","vr":"08:45 - 13:00, 17:45 - 20:00"}}},{"type":"Feature","geometry":{"type":"Point","coordinates":[16.0786,40.6769]},"properties":{"type":"pakketpunt","locatieNaam":"Ufficio Postale SAN CHIRICO NUOVO","straatNaam":"VIA MICHELE PERRIELLO MEDAGLIA DORO 36","straatNr":"","vervoerder":"Amazon","puntType":"3p","bezettingsgraad":50,"latitude":40.6769,"longitude":16.0786,"canPickup":true,"canDropoff":false,"openingstijden":null}},{"type":"Feature","geometry":{"type":"Polygon","coordinates":[[[16.030195,40.6326478],[16.0313916,40.6431844],[16.0329473,40.6585485],[16.033017,40.6645995],[16.033178,40.664862],[16.0329124,40.6653706],[16.0329849,40.6654032],[16.0330331,40.6659728],[16.0336205,40.6659525],[16.033868,40.6658375],[16.0344668,40.6661463],[16.0360707,40.6664133],[16.0363282,40.6663004],[16.0371956,40.6664214],[16.0378095,40.6669555],[16.0386135,40.6670242],[16.0396126,40.6674138],[16.0398533,40.6676732],[16.0403167,40.6678613],[16.0407324,40.668252],[16.0415632,40.6687143],[16.0418791,40.6687016],[16.0422304,40.6688333],[16.0425603,40.6687835],[16.0429573,40.6689223],[16.0439081,40.6688946],[16.0443574,40.6690194],[16.0448328,40.6693816],[16.0450367,40.6698419],[16.0451969,40.6708097],[16.0445626,40.6711922],[16.0459144,40.6748743],[16.0461558,40.6744094],[16.0463788,40.6736222],[16.0472589,40.6739914],[16.0486429,40.6738266],[16.0490211,40.6736578],[16.0514545,40.6732702],[16.0528734,40.6736334],[16.0531986,40.6738007],[16.0534494,40.674265],[16.0532181,40.6747842],[16.0529298,40.6750767],[16.0530991,40.6752325],[16.053147,40.6755613],[16.052916,40.6756452],[16.0529217,40.6763043],[16.0526471,40.6767356],[16.0526572,40.6768027],[16.052965,40.6769113],[16.0526798,40.677096],[16.0526909,40.6772215],[16.0525442,40.6774587],[16.052518,40.6779047],[16.052394,40.6779482],[16.0522605,40.6781958],[16.0521865,40.6785353],[16.0522294,40.6787125],[16.0525408,40.6789299],[16.0536275,40.6793288],[16.0537455,40.6795241],[16.0535765,40.6797639],[16.0538648,40.6801127],[16.0540087,40.6802096],[16.0541304,40.6801826],[16.0542387,40.6803716],[16.0546678,40.6805198],[16.0548308,40.6807321],[16.0554028,40.680783],[16.0559077,40.6809426],[16.05745,40.681024],[16.05758,40.6810901],[16.0579931,40.6816571],[16.0581277,40.6830396],[16.0572997,40.6832095],[16.0563348,40.6832324],[16.055105,40.6836504],[16.054871,40.6838009],[16.0545337,40.6842728],[16.0544935,40.6854113],[16.0559848,40.6859793],[16.055969,40.6860866],[16.0549689,40.686566],[16.0553448,40.6867331],[16.0553169,40.6873816],[16.0542769,40.6871965],[16.0537968,40.6870234],[16.053379,40.6872159],[16.0534407,40.6872629],[16.0533827,40.6873679],[16.0535172,40.6877159],[16.053895,40.6878883],[16.054258,40.6879787],[16.0548043,40.6877228],[16.0551339,40.6879216],[16.0552224,40.6880953],[16.0552002,40.6885816],[16.0552851,40.6889149],[16.0552599,40.6893814],[16.0551164,40.6896356],[16.0551386,40.6897363],[16.0551989,40.6898248],[16.0561156,40.6901512],[16.0563801,40.6898542],[16.0572548,40.6903805],[16.0576102,40.6910521],[16.0572562,40.6920156],[16.0580689,40.6923797],[16.0580085,40.692521],[16.058773,40.6927849],[16.0592618,40.69228],[16.0601754,40.6932885],[16.0605506,40.6931286],[16.0607871,40.6931179],[16.0617214,40.6941464],[16.062465,40.6945237],[16.0632056,40.6947583],[16.0634323,40.694681],[16.0638956,40.6947913],[16.064708,40.6952214],[16.0663123,40.6958458],[16.0668484,40.6958568],[16.0673903,40.6960288],[16.0684564,40.6960067],[16.0690636,40.6962909],[16.0694512,40.6963313],[16.0700107,40.6965334],[16.0702277,40.6967464],[16.0703742,40.696783],[16.0706404,40.6971081],[16.0705961,40.6975573],[16.0707095,40.6977291],[16.0712097,40.6979187],[16.0711849,40.6981409],[16.0721344,40.6990773],[16.0726467,40.699239],[16.0730624,40.7005323],[16.0732448,40.7007092],[16.0740066,40.7011139],[16.0759485,40.7016161],[16.0765077,40.7019059],[16.0768537,40.7023248],[16.0773486,40.7024864],[16.0778046,40.7033557],[16.0780969,40.703434],[16.0785623,40.7039576],[16.0785006,40.7041019],[16.0786776,40.7043876],[16.0789056,40.7045493],[16.0788587,40.7048522],[16.0793368,40.7049249],[16.0792925,40.7051694],[16.0798658,40.7054053],[16.0801334,40.705264],[16.0801971,40.7049691],[16.0798725,40.7047577],[16.0797894,40.7037695],[16.0800683,40.703495],[16.0799906,40.7025962],[16.0795051,40.702155],[16.0794756,40.7020228],[16.0791812,40.701698],[16.0791993,40.7015246],[16.0790652,40.7012084],[16.0792503,40.7008566],[16.0786495,40.7003361],[16.0787621,40.699302],[16.0791269,40.6984622],[16.0793924,40.6982619],[16.0800885,40.6981612],[16.0825682,40.6969136],[16.0853872,40.6963951],[16.085422,40.6964622],[16.0856366,40.6964571],[16.0865177,40.6963666],[16.0884395,40.6955623],[16.089664,40.6945577],[16.089439,40.6943465],[16.0891389,40.6935414],[16.088925,40.6925678],[16.088689,40.6921453],[16.0887714,40.6920426],[16.0881606,40.6898334],[16.0883336,40.689569],[16.0883322,40.6894312],[16.0880104,40.6887407],[16.0888355,40.6874856],[16.0887077,40.686023],[16.0879447,40.6848403],[16.0873861,40.684437],[16.0871997,40.6837615],[16.087256,40.6834348],[16.0875896,40.6829519],[16.0875002,40.6828547],[16.0882363,40.6816703],[16.0972989,40.6878423],[16.1101896,40.6963392],[16.1106053,40.6962375],[16.1109459,40.6962822],[16.1126062,40.6958572],[16.1134779,40.6957657],[16.1140197,40.6955888],[16.1143175,40.6955745],[16.1153904,40.6952186],[16.1158637,40.6949776],[16.1166177,40.6950676],[16.1184065,40.6956406],[16.1191387,40.6956183],[16.1196417,40.6951414],[16.120276,40.6949441],[16.1214656,40.6947784],[16.1219631,40.6944886],[16.1220409,40.6942517],[16.1223561,40.6938739],[16.1229166,40.6935348],[16.1239104,40.693606],[16.1242557,40.6944194],[16.1244274,40.6945155],[16.1245333,40.6944896],[16.1246701,40.6942186],[16.124884,40.6941795],[16.1250835,40.6943394],[16.1259346,40.6932923],[16.125619,40.6931479],[16.1258134,40.692915],[16.124988,40.6925174],[16.1246192,40.6921656],[16.1250785,40.6916028],[16.1250396,40.6913404],[16.1247164,40.691073],[16.1234491,40.6907496],[16.1232157,40.6905869],[16.120508,40.687887],[16.119894,40.6874133],[16.1196946,40.687105],[16.1196792,40.6861216],[16.1194137,40.6855511],[16.1189047,40.6852232],[16.1179519,40.6852542],[16.1177165,40.6849572],[16.1171439,40.6845693],[16.1170869,40.6842095],[16.1156378,40.6836779],[16.1153964,40.6829711],[16.1149773,40.6826538],[16.1149438,40.6821239],[16.1147828,40.6819398],[16.1139363,40.6814288],[16.1130508,40.6811206],[16.1125563,40.6807705],[16.1119226,40.6806291],[16.111674,40.680337],[16.1092957,40.678402],[16.1085928,40.6781005],[16.1081494,40.6776092],[16.108088,40.6770158],[16.1075063,40.6767724],[16.1067106,40.6766972],[16.1063956,40.6764209],[16.1052714,40.675996],[16.1050617,40.675737],[16.1049965,40.67547],[16.1039465,40.6751242],[16.1034123,40.6745151],[16.1029697,40.6743232],[16.1028782,40.6741735],[16.1025765,40.674213],[16.1024467,40.6741256],[16.1025057,40.6736339],[16.1024046,40.6735728],[16.1018345,40.6734373],[16.1008236,40.6728323],[16.0997303,40.6732524],[16.0995398,40.6732336],[16.0988284,40.6728339],[16.098352,40.6727283],[16.0979252,40.6721203],[16.0976368,40.671967],[16.0972784,40.6715311],[16.0968804,40.6713137],[16.0961995,40.6711606],[16.0960765,40.6710511],[16.0956272,40.6713898],[16.09473,40.6707939],[16.0938489,40.6709252],[16.0929191,40.670753],[16.0920595,40.6704512],[16.0918178,40.6702322],[16.0915596,40.6698042],[16.0910108,40.6699476],[16.0904542,40.6694594],[16.0903439,40.6685988],[16.0898691,40.6687519],[16.0896807,40.6684422],[16.0894614,40.6683415],[16.0884295,40.6686253],[16.0881907,40.6684086],[16.0876054,40.6681197],[16.0870548,40.6683628],[16.0864654,40.6684162],[16.0863042,40.6681991],[16.0858629,40.6680066],[16.0855696,40.6680902],[16.0850734,40.667876],[16.0846174,40.6681104],[16.0840404,40.6680854],[16.0839912,40.6677854],[16.0838603,40.6676452],[16.0834908,40.6677467],[16.0832682,40.6677123],[16.0831851,40.6675292],[16.0829065,40.6672886],[16.082197,40.6672398],[16.0820378,40.6671439],[16.0818031,40.666781],[16.0813417,40.6664896],[16.0811721,40.6662152],[16.08115,40.6658752],[16.0809696,40.6656616],[16.0809629,40.6650298],[16.0807751,40.6646789],[16.0807087,40.6642999],[16.0801736,40.6638218],[16.0800362,40.6633071],[16.0798001,40.6630395],[16.0796727,40.6627241],[16.0796801,40.6624713],[16.0790002,40.6620766],[16.0786347,40.6619958],[16.0781492,40.6616717],[16.0769469,40.6616082],[16.0766505,40.6617735],[16.0758526,40.6614408],[16.0751358,40.660982],[16.073572,40.6601943],[16.0725017,40.6601],[16.0712311,40.6598456],[16.0700785,40.6603828],[16.0691729,40.6604283],[16.0672655,40.6608696],[16.0653028,40.6615639],[16.0639416,40.6615639],[16.0608805,40.660339],[16.0584903,40.6586406],[16.0565507,40.6566236],[16.0558453,40.655535],[16.0555516,40.6535276],[16.0555865,40.6503561],[16.0556428,40.649303],[16.0560612,40.6485968],[16.0557588,40.6482137],[16.0552717,40.6477933],[16.0553129,40.6474302],[16.0559117,40.6465022],[16.0557615,40.6461135],[16.0558742,40.6457065],[16.0556502,40.6451377],[16.0556998,40.6447744],[16.05584,40.6446024],[16.0557581,40.6443109],[16.0557984,40.6441344],[16.0553491,40.6437619],[16.0552378,40.6432663],[16.0553384,40.6430053],[16.0546715,40.6428405],[16.0543386,40.6429254],[16.0535286,40.6429483],[16.0530967,40.6427865],[16.0524463,40.6427448],[16.0518535,40.6424175],[16.0510482,40.6423632],[16.0500638,40.6420592],[16.0492028,40.641396],[16.0491351,40.6411929],[16.0491713,40.6409757],[16.0495696,40.6399418],[16.049571,40.6392737],[16.0493913,40.6384702],[16.0487033,40.6368729],[16.048594,40.6357947],[16.0486573,40.635367],[16.0484116,40.6351993],[16.0478812,40.6349184],[16.045602,40.6345933],[16.0436869,40.6340457],[16.0409135,40.6329221],[16.0361284,40.631829],[16.0349724,40.6318657],[16.0335642,40.6325008],[16.0322714,40.6329201],[16.0310939,40.6329063],[16.030195,40.6326478]]]},"properties":{"type":"boundary","gemeente":"San Chirico Nuovo"}}]}