{"type":"FeatureCollection","metadata":{"gemeente":"San Giorgio del Sannio","slug":"san-giorgio-del-sannio","generated_at":"2026-09-26T13:10:36.828850Z","total_points":47,"providers":["PosteItaliane","DPD","InPost","GLS","DHL","Amazon"],"bounds":[14.8514,41.0611597,14.8603108,41.0745]},"features":[{"type":"Feature","geometry":{"type":"Point","coordinates":[14.8531,41.06377]},"properties":{"type":"pakketpunt","locatieNaam":"Tabaccheria N. 7","straatNaam":"Viale Spinelli","straatNr":"56","vervoerder":"PosteItaliane","puntType":"servicepunt","bezettingsgraad":50,"latitude":41.06377,"longitude":14.8531,"canPickup":true,"canDropoff":true,"openingstijden":{"za":"08:00 - 13:30, 16:00 - 21:00","zo":"gesloten","ma":"08:00 - 13:30, 16:00 - 21:00","di":"08:00 - 13:30, 16:00 - 21:00","wo":"08:00 - 13:30, 16:00 - 21:00","do":"08:00 - 13:30, 16:00 - 21:00","vr":"08:00 - 13:30, 16:00 - 21:00"}}},{"type":"Feature","geometry":{"type":"Point","coordinates":[14.85563102,41.06608128]},"properties":{"type":"pakketpunt","locatieNaam":"San Giorgio Del Sannio","straatNaam":"Viale Aldo Moro","straatNr":"123","vervoerder":"PosteItaliane","puntType":"postkantoor","bezettingsgraad":50,"latitude":41.06608128,"longitude":14.85563102,"canPickup":true,"canDropoff":true,"openingstijden":{"za":"08:20 - 12:35","zo":"gesloten","ma":"08:20 - 19:05","di":"08:20 - 19:05","wo":"08:20 - 19:05","do":"08:20 - 19:05","vr":"08:20 - 19:05"}}},{"type":"Feature","geometry":{"type":"Point","coordinates":[14.85162935,41.06390551]},"properties":{"type":"pakketpunt","locatieNaam":"Gm Multiservice","straatNaam":"Via San Giacomo","straatNr":"22","vervoerder":"PosteItaliane","puntType":"servicepunt","bezettingsgraad":50,"latitude":41.06390551,"longitude":14.85162935,"canPickup":true,"canDropoff":true,"openingstijden":{"za":"08:30 - 13:00","zo":"gesloten","ma":"08:30 - 13:00, 16:00 - 19:30","di":"08:00 - 13:00, 15:30 - 19:00","wo":"08:30 - 13:00, 15:30 - 19:00","do":"08:30 - 13:00, 15:30 - 19:00","vr":"08:30 - 13:00, 15:30 - 19:00"}}},{"type":"Feature","geometry":{"type":"Point","coordinates":[14.85454269,41.07446379]},"properties":{"type":"pakketpunt","locatieNaam":"Stazione Di Servizio Ip","straatNaam":"Via Dei Sanniti Snc","straatNr":"1","vervoerder":"PosteItaliane","puntType":"automaat","bezettingsgraad":50,"latitude":41.07446379,"longitude":14.85454269,"canPickup":true,"canDropoff":true,"openingstijden":{"za":"00:01 - 23:59","zo":"00:01 - 23:59","ma":"00:01 - 23:59","di":"00:01 - 23:59","wo":"00:01 - 23:59","do":"00:01 - 23:59","vr":"00:01 - 23:59"}}},{"type":"Feature","geometry":{"type":"Point","coordinates":[14.85783431,41.06266039]},"properties":{"type":"pakketpunt","locatieNaam":"Tabaccheria N. 5","straatNaam":"Piazza De Gregorio","straatNr":"3","vervoerder":"PosteItaliane","puntType":"servicepunt","bezettingsgraad":50,"latitude":41.06266039,"longitude":14.85783431,"canPickup":true,"canDropoff":true,"openingstijden":{"za":"08:00 - 13:00, 15:00 - 19:00","zo":"gesloten","ma":"08:00 - 13:00, 15:00 - 19:00","di":"08:00 - 13:00, 15:00 - 19:00","wo":"08:00 - 13:00, 15:00 - 19:00","do":"08:00 - 13:00, 15:00 - 19:00","vr":"08:00 - 13:00, 15:00 - 19:00"}}},{"type":"Feature","geometry":{"type":"Point","coordinates":[14.85344516,41.06228012]},"properties":{"type":"pakketpunt","locatieNaam":"Tabaccheria N. 1","straatNaam":"Via Dei Bersaglieri","straatNr":"3","vervoerder":"PosteItaliane","puntType":"servicepunt","bezettingsgraad":50,"latitude":41.06228012,"longitude":14.85344516,"canPickup":true,"canDropoff":true,"openingstijden":{"za":"08:00 - 13:30, 15:30 - 20:30","zo":"gesloten","ma":"08:00 - 13:30, 15:30 - 20:30","di":"08:00 - 13:30, 15:30 - 20:30","wo":"08:00 - 13:30, 15:30 - 20:30","do":"08:00 - 13:30, 15:30 - 20:30","vr":"08:00 - 13:30, 15:30 - 20:30"}}},{"type":"Feature","geometry":{"type":"Point","coordinates":[14.85331365,41.07067735]},"properties":{"type":"pakketpunt","locatieNaam":"Tabaccheria N. 2","straatNaam":"Via Roma","straatNr":"132","vervoerder":"PosteItaliane","puntType":"servicepunt","bezettingsgraad":50,"latitude":41.07067735,"longitude":14.85331365,"canPickup":true,"canDropoff":true,"openingstijden":{"za":"08:00 - 13:30, 16:00 - 20:30","zo":"gesloten","ma":"08:00 - 13:30, 16:00 - 20:30","di":"08:00 - 13:30, 16:00 - 20:30","wo":"08:00 - 13:30, 16:00 - 20:30","do":"08:00 - 13:30, 16:00 - 20:30","vr":"08:00 - 13:30, 16:00 - 20:30"}}},{"type":"Feature","geometry":{"type":"Point","coordinates":[14.8514191,41.06621608]},"properties":{"type":"pakketpunt","locatieNaam":"Caffe Angel-helene","straatNaam":"Viale Spinelli","straatNr":"155","vervoerder":"PosteItaliane","puntType":"servicepunt","bezettingsgraad":50,"latitude":41.06621608,"longitude":14.8514191,"canPickup":true,"canDropoff":true,"openingstijden":{"za":"06:00 - 21:00","zo":"06:00 - 21:00","ma":"06:00 - 21:00","di":"06:00 - 21:00","wo":"06:00 - 21:00","do":"06:00 - 21:00","vr":"06:00 - 21:00"}}},{"type":"Feature","geometry":{"type":"Point","coordinates":[14.8517687,41.0639295]},"properties":{"type":"pakketpunt","locatieNaam":"Gm Multiservice","straatNaam":"VIA SAN GIACOMO","straatNr":"20/22","vervoerder":"DPD","puntType":"pickup_point","bezettingsgraad":50,"latitude":41.0639295,"longitude":14.8517687,"canPickup":true,"canDropoff":true,"openingstijden":{"ma":"08:30 - 13:00, 15:30 - 19:00","di":"08:30 - 13:00, 15:30 - 19:00","wo":"08:30 - 13:00, 15:30 - 19:00","do":"08:30 - 13:00, 15:30 - 19:00","vr":"08:30 - 13:00, 15:30 - 19:00","za":"08:30 - 13:00","zo":"gesloten"}}},{"type":"Feature","geometry":{"type":"Point","coordinates":[14.8555619,41.0665208]},"properties":{"type":"pakketpunt","locatieNaam":"Edicola Punto Spedizioni","straatNaam":"VIALE ALDO MORO","straatNr":"97","vervoerder":"DPD","puntType":"pickup_point","bezettingsgraad":50,"latitude":41.0665208,"longitude":14.8555619,"canPickup":true,"canDropoff":true,"openingstijden":{"ma":"06:00 - 13:00, 16:00 - 20:00","di":"06:00 - 13:00, 16:00 - 20:00","wo":"06:00 - 13:00, 16:00 - 20:00","do":"06:00 - 13:00, 16:00 - 20:00","vr":"06:00 - 13:00, 16:00 - 20:00","za":"06:00 - 13:00, 16:00 - 20:00","zo":"06:00 - 13:00, 16:00 - 20:00"}}},{"type":"Feature","geometry":{"type":"Point","coordinates":[14.85178,41.06406]},"properties":{"type":"pakketpunt","locatieNaam":"InPost Point","straatNaam":"Via San Giacomo","straatNr":"20","vervoerder":"InPost","puntType":"servicepunt","bezettingsgraad":50,"latitude":41.06406,"longitude":14.85178,"canPickup":true,"canDropoff":true,"openingstijden":"Lun-Ven: 08:30 - 19:00 Sab: 08:30 - 13:00"}},{"type":"Feature","geometry":{"type":"Point","coordinates":[14.85514,41.06358]},"properties":{"type":"pakketpunt","locatieNaam":"InPost Point","straatNaam":"Via Vecchia Cardilli, 49, San Giorgio del Sannio, Province of Benevento, Italy","straatNr":"49","vervoerder":"InPost","puntType":"servicepunt","bezettingsgraad":50,"latitude":41.06358,"longitude":14.85514,"canPickup":true,"canDropoff":true,"openingstijden":"Lun–Ven 10:00-13:30, 16:00-20:00; Sab 10:00-13:30"}},{"type":"Feature","geometry":{"type":"Point","coordinates":[14.85442,41.0745]},"properties":{"type":"pakketpunt","locatieNaam":"InPost Locker 24/7","straatNaam":"SS 7","straatNr":"Km 271 + 080","vervoerder":"InPost","puntType":"automaat","bezettingsgraad":50,"latitude":41.0745,"longitude":14.85442,"canPickup":true,"canDropoff":true,"openingstijden":null}},{"type":"Feature","geometry":{"type":"Point","coordinates":[14.8520928122,41.0658270182]},"properties":{"type":"pakketpunt","locatieNaam":"LINEA UFFICIO","straatNaam":"Via Spinelli ","straatNr":"134","vervoerder":"GLS","puntType":"parcel_shop","bezettingsgraad":50,"latitude":41.0658270182,"longitude":14.8520928122,"canPickup":true,"canDropoff":true,"openingstijden":"za: 08:00 - 13:00, 16:00 - 20:00; ma: 08:00 - 13:00, 16:00 - 20:00"}},{"type":"Feature","geometry":{"type":"Point","coordinates":[14.8520801,41.0611597]},"properties":{"type":"pakketpunt","locatieNaam":"Il quadrifoglio 2.0","straatNaam":"Piazza Immacolata","straatNr":"33","vervoerder":"GLS","puntType":"parcel_shop","bezettingsgraad":50,"latitude":41.0611597,"longitude":14.8520801,"canPickup":true,"canDropoff":true,"openingstijden":"za: 09:00 - 13:00, 16:30 - 20:00; ma: 08:30 - 13:00, 16:30 - 20:00"}},{"type":"Feature","geometry":{"type":"Point","coordinates":[14.8549705,41.0617178]},"properties":{"type":"pakketpunt","locatieNaam":"Visualsoft","straatNaam":"Via Enrico Nisco","straatNr":"6/A","vervoerder":"GLS","puntType":"parcel_shop","bezettingsgraad":50,"latitude":41.0617178,"longitude":14.8549705,"canPickup":true,"canDropoff":true,"openingstijden":"za: 10:00 - 12:00; ma: 09:00 - 12:00, 17:00 - 18:30"}},{"type":"Feature","geometry":{"type":"Point","coordinates":[14.8546228,41.0629938]},"properties":{"type":"pakketpunt","locatieNaam":"FRANCESCA TECHNOLOGY","straatNaam":"Via Tommaso Rossi","straatNr":"2/D","vervoerder":"GLS","puntType":"parcel_shop","bezettingsgraad":50,"latitude":41.0629938,"longitude":14.8546228,"canPickup":true,"canDropoff":true,"openingstijden":"za: 09:00 - 13:00; ma: 09:00 - 13:00, 16:30 - 19:00"}},{"type":"Feature","geometry":{"type":"Point","coordinates":[14.855161,41.0635555]},"properties":{"type":"pakketpunt","locatieNaam":"LA TUA POSTA","straatNaam":"Via Cardilli","straatNr":"49","vervoerder":"GLS","puntType":"parcel_shop","bezettingsgraad":50,"latitude":41.0635555,"longitude":14.855161,"canPickup":true,"canDropoff":true,"openingstijden":"za: 10:00 - 13:00; ma: 10:00 - 14:30, 15:30 - 20:00"}},{"type":"Feature","geometry":{"type":"Point","coordinates":[14.8532558,41.0636004]},"properties":{"type":"pakketpunt","locatieNaam":"LA CASA DEL PROFESSIONISTA DI CARIDEO VINCENZO","straatNaam":"Viale Spinelli","straatNr":"34","vervoerder":"GLS","puntType":"parcel_shop","bezettingsgraad":50,"latitude":41.0636004,"longitude":14.8532558,"canPickup":true,"canDropoff":true,"openingstijden":"za: 09:00 - 13:00, 16:00 - 19:00; ma: 09:00 - 13:00, 16:00 - 19:00"}},{"type":"Feature","geometry":{"type":"Point","coordinates":[14.8515378,41.0636566]},"properties":{"type":"pakketpunt","locatieNaam":"Il Quadrifoglio","straatNaam":"Via G. Bocchini","straatNr":"65","vervoerder":"GLS","puntType":"parcel_shop","bezettingsgraad":50,"latitude":41.0636566,"longitude":14.8515378,"canPickup":true,"canDropoff":true,"openingstijden":"za: 08:30 - 13:00; ma: 08:30 - 13:00, 16:30 - 20:00"}},{"type":"Feature","geometry":{"type":"Point","coordinates":[14.8517687,41.0639295]},"properties":{"type":"pakketpunt","locatieNaam":"GM MULTISERVICE","straatNaam":"Via San Giacomo","straatNr":"20/22","vervoerder":"GLS","puntType":"parcel_shop","bezettingsgraad":50,"latitude":41.0639295,"longitude":14.8517687,"canPickup":true,"canDropoff":true,"openingstijden":"za: 08:30 - 13:00; ma: 08:30 - 13:00, 15:00 - 19:00"}},{"type":"Feature","geometry":{"type":"Point","coordinates":[14.8603108,41.0639494]},"properties":{"type":"pakketpunt","locatieNaam":"LINK MOTORS FRANCHISING","straatNaam":"Via Suor Floriana Tirelli","straatNr":"42","vervoerder":"GLS","puntType":"parcel_shop","bezettingsgraad":50,"latitude":41.0639494,"longitude":14.8603108,"canPickup":true,"canDropoff":true,"openingstijden":"za: 09:00 - 13:00; ma: 09:00 - 13:00, 15:00 - 19:00"}},{"type":"Feature","geometry":{"type":"Point","coordinates":[14.8566035,41.0643588]},"properties":{"type":"pakketpunt","locatieNaam":"MICCO GIUSEPPE & FIGLI SCARL","straatNaam":"Viale Europa","straatNr":"SNC","vervoerder":"GLS","puntType":"parcel_shop","bezettingsgraad":50,"latitude":41.0643588,"longitude":14.8566035,"canPickup":true,"canDropoff":true,"openingstijden":"za: 08:00 - 13:00; zo: 08:00 - 13:00"}},{"type":"Feature","geometry":{"type":"Point","coordinates":[14.8555641,41.0665185]},"properties":{"type":"pakketpunt","locatieNaam":"Edicola Manganiello","straatNaam":"Viale Aldo Moro","straatNr":"97","vervoerder":"GLS","puntType":"parcel_shop","bezettingsgraad":50,"latitude":41.0665185,"longitude":14.8555641,"canPickup":true,"canDropoff":true,"openingstijden":"za: 07:00 - 13:00, 16:00 - 20:00; zo: 07:00 - 13:00"}},{"type":"Feature","geometry":{"type":"Point","coordinates":[14.8557025,41.0741323]},"properties":{"type":"pakketpunt","locatieNaam":"GT SPORT","straatNaam":"Via Cesine","straatNr":"SNC","vervoerder":"GLS","puntType":"parcel_shop","bezettingsgraad":50,"latitude":41.0741323,"longitude":14.8557025,"canPickup":true,"canDropoff":true,"openingstijden":"za: 09:30 - 20:00; zo: 09:30 - 13:00"}},{"type":"Feature","geometry":{"type":"Point","coordinates":[14.853445,41.06228]},"properties":{"type":"pakketpunt","locatieNaam":"TABACCHERIA N. 1","straatNaam":"VIA DEI BERSAGLIERI 3","straatNr":"","vervoerder":"DHL","puntType":"parcelShop","bezettingsgraad":50,"latitude":41.06228,"longitude":14.853445,"canPickup":true,"canDropoff":true,"openingstijden":{"ma":"08:00 - 13:30, 15:30 - 20:30","di":"08:00 - 13:30, 15:30 - 20:30","wo":"08:00 - 13:30, 15:30 - 20:30","do":"08:00 - 13:30, 15:30 - 20:30","vr":"08:00 - 13:30, 15:30 - 20:30","za":"08:00 - 13:30, 15:30 - 20:30","zo":"gesloten"}}},{"type":"Feature","geometry":{"type":"Point","coordinates":[14.854543,41.074464]},"properties":{"type":"pakketpunt","locatieNaam":"STAZIONE DI SERVIZIO IP","straatNaam":"VIA DEI SANNITI SNC 1","straatNr":"","vervoerder":"DHL","puntType":"packStation","bezettingsgraad":50,"latitude":41.074464,"longitude":14.854543,"canPickup":true,"canDropoff":true,"openingstijden":{"ma":"00:01 - 23:59","di":"00:01 - 23:59","wo":"00:01 - 23:59","do":"00:01 - 23:59","vr":"00:01 - 23:59","za":"00:01 - 23:59","zo":"00:01 - 23:59"}}},{"type":"Feature","geometry":{"type":"Point","coordinates":[14.853314,41.070677]},"properties":{"type":"pakketpunt","locatieNaam":"TABACCHERIA N. 2","straatNaam":"VIA ROMA 132","straatNr":"","vervoerder":"DHL","puntType":"parcelShop","bezettingsgraad":50,"latitude":41.070677,"longitude":14.853314,"canPickup":true,"canDropoff":true,"openingstijden":{"ma":"08:00 - 13:30, 16:00 - 20:30","di":"08:00 - 13:30, 16:00 - 20:30","wo":"08:00 - 13:30, 16:00 - 20:30","do":"08:00 - 13:30, 16:00 - 20:30","vr":"08:00 - 13:30, 16:00 - 20:30","za":"08:00 - 13:30, 16:00 - 20:30","zo":"gesloten"}}},{"type":"Feature","geometry":{"type":"Point","coordinates":[14.855658,41.066481]},"properties":{"type":"pakketpunt","locatieNaam":"EDICOLA MANGANIELLO","straatNaam":"Via Aldo Moro 97","straatNr":"","vervoerder":"DHL","puntType":"parcelShop","bezettingsgraad":50,"latitude":41.066481,"longitude":14.855658,"canPickup":false,"canDropoff":true,"openingstijden":{"ma":"06:30 - 20:15","di":"06:30 - 20:15","wo":"06:30 - 20:15","do":"06:30 - 20:15","vr":"06:30 - 20:15","za":"06:30 - 20:15","zo":"gesloten"}}},{"type":"Feature","geometry":{"type":"Point","coordinates":[14.855631,41.066081]},"properties":{"type":"pakketpunt","locatieNaam":"Ufficio Postale SAN GIORGIO DEL SAN","straatNaam":"VIALE ALDO MORO 123","straatNr":"","vervoerder":"DHL","puntType":"postOffice","bezettingsgraad":50,"latitude":41.066081,"longitude":14.855631,"canPickup":true,"canDropoff":true,"openingstijden":{"ma":"08:20 - 19:05","di":"08:20 - 19:05","wo":"08:20 - 19:05","do":"08:20 - 19:05","vr":"08:20 - 19:05","za":"08:20 - 12:35","zo":"gesloten"}}},{"type":"Feature","geometry":{"type":"Point","coordinates":[14.857834,41.06266]},"properties":{"type":"pakketpunt","locatieNaam":"TABACCHERIA N. 5","straatNaam":"PIAZZA DE GREGORIO 3","straatNr":"","vervoerder":"DHL","puntType":"parcelShop","bezettingsgraad":50,"latitude":41.06266,"longitude":14.857834,"canPickup":true,"canDropoff":true,"openingstijden":{"ma":"08:00 - 13:00, 15:00 - 19:00","di":"08:00 - 13:00, 15:00 - 19:00","wo":"08:00 - 13:00, 15:00 - 19:00","do":"08:00 - 13:00, 15:00 - 19:00","vr":"08:00 - 13:00, 15:00 - 19:00","za":"08:00 - 13:00, 15:00 - 19:00","zo":"gesloten"}}},{"type":"Feature","geometry":{"type":"Point","coordinates":[14.851419,41.066216]},"properties":{"type":"pakketpunt","locatieNaam":"CAFFE ANGEL-HELENE","straatNaam":"VIALE SPINELLI 155","straatNr":"","vervoerder":"DHL","puntType":"parcelShop","bezettingsgraad":50,"latitude":41.066216,"longitude":14.851419,"canPickup":true,"canDropoff":true,"openingstijden":{"ma":"06:00 - 21:00","di":"06:00 - 21:00","wo":"06:00 - 21:00","do":"06:00 - 21:00","vr":"06:00 - 21:00","za":"06:00 - 21:00","zo":"06:00 - 21:00"}}},{"type":"Feature","geometry":{"type":"Point","coordinates":[14.8531,41.06377]},"properties":{"type":"pakketpunt","locatieNaam":"TABACCHERIA N. 7","straatNaam":"VIALE SPINELLI 56","straatNr":"","vervoerder":"DHL","puntType":"parcelShop","bezettingsgraad":50,"latitude":41.06377,"longitude":14.8531,"canPickup":true,"canDropoff":true,"openingstijden":{"ma":"08:00 - 13:30, 16:00 - 21:00","di":"08:00 - 13:30, 16:00 - 21:00","wo":"08:00 - 13:30, 16:00 - 21:00","do":"08:00 - 13:30, 16:00 - 21:00","vr":"08:00 - 13:30, 16:00 - 21:00","za":"08:00 - 13:30, 16:00 - 21:00","zo":"gesloten"}}},{"type":"Feature","geometry":{"type":"Point","coordinates":[14.851836,41.063922]},"properties":{"type":"pakketpunt","locatieNaam":"GM MULTISERVICE","straatNaam":"Via San Giacomo, 20-22","straatNr":"","vervoerder":"DHL","puntType":"parcelShop","bezettingsgraad":50,"latitude":41.063922,"longitude":14.851836,"canPickup":false,"canDropoff":true,"openingstijden":{"ma":"08:30 - 19:00","di":"08:30 - 19:00","wo":"08:30 - 19:00","do":"08:30 - 19:00","vr":"08:30 - 19:00","za":"08:30 - 13:00","zo":"gesloten"}}},{"type":"Feature","geometry":{"type":"Point","coordinates":[14.851629,41.063906]},"properties":{"type":"pakketpunt","locatieNaam":"GM MULTISERVICE","straatNaam":"VIA SAN GIACOMO 22","straatNr":"","vervoerder":"DHL","puntType":"parcelShop","bezettingsgraad":50,"latitude":41.063906,"longitude":14.851629,"canPickup":true,"canDropoff":true,"openingstijden":{"ma":"08:30 - 13:00, 16:00 - 19:30","di":"08:00 - 13:00, 15:30 - 19:00","wo":"08:30 - 13:00, 15:30 - 19:00","do":"08:30 - 13:00, 15:30 - 19:00","vr":"08:30 - 13:00, 15:30 - 19:00","za":"08:30 - 13:00","zo":"gesloten"}}},{"type":"Feature","geometry":{"type":"Point","coordinates":[14.856315,41.0676567]},"properties":{"type":"pakketpunt","locatieNaam":"Amazon Locker - elvisio","straatNaam":"PRO7 - S.G. Del Sannio Via Falcone E Borsellino","straatNr":"","vervoerder":"Amazon","puntType":"locker","bezettingsgraad":50,"latitude":41.0676567,"longitude":14.856315,"canPickup":true,"canDropoff":false,"openingstijden":null}},{"type":"Feature","geometry":{"type":"Point","coordinates":[14.8578,41.0626]},"properties":{"type":"pakketpunt","locatieNaam":"PuntoPoste TABACCHERIA N. 5","straatNaam":"PIAZZA DE GREGORIO 3","straatNr":"","vervoerder":"Amazon","puntType":"3p","bezettingsgraad":50,"latitude":41.0626,"longitude":14.8578,"canPickup":true,"canDropoff":false,"openingstijden":null}},{"type":"Feature","geometry":{"type":"Point","coordinates":[14.8516433,41.0639419]},"properties":{"type":"pakketpunt","locatieNaam":"Amazon Counter (fermopoint)","straatNaam":"Gm Multiservice","straatNr":"","vervoerder":"Amazon","puntType":"helix","bezettingsgraad":50,"latitude":41.0639419,"longitude":14.8516433,"canPickup":true,"canDropoff":false,"openingstijden":null}},{"type":"Feature","geometry":{"type":"Point","coordinates":[14.855188,41.06362]},"properties":{"type":"pakketpunt","locatieNaam":"Amazon Counter - La tua posta","straatNaam":"Via Vecchia Cardilli 47","straatNr":"","vervoerder":"Amazon","puntType":"helix","bezettingsgraad":50,"latitude":41.06362,"longitude":14.855188,"canPickup":true,"canDropoff":false,"openingstijden":null}},{"type":"Feature","geometry":{"type":"Point","coordinates":[14.8548183,41.0631467]},"properties":{"type":"pakketpunt","locatieNaam":"Amazon Counter - Chic telefonia ","straatNaam":"Via Tommaso Rossi 14","straatNr":"","vervoerder":"Amazon","puntType":"helix","bezettingsgraad":50,"latitude":41.0631467,"longitude":14.8548183,"canPickup":true,"canDropoff":false,"openingstijden":null}},{"type":"Feature","geometry":{"type":"Point","coordinates":[14.855536,41.066569]},"properties":{"type":"pakketpunt","locatieNaam":"Amazon Counter - PRIMAEDICOLA","straatNaam":"MANGANIELLO SRL","straatNr":"","vervoerder":"Amazon","puntType":"helix","bezettingsgraad":50,"latitude":41.066569,"longitude":14.855536,"canPickup":true,"canDropoff":false,"openingstijden":null}},{"type":"Feature","geometry":{"type":"Point","coordinates":[14.8556,41.066]},"properties":{"type":"pakketpunt","locatieNaam":"Ufficio Postale SAN GIORGIO DEL SANNIO","straatNaam":"VIALE ALDO MORO 123","straatNr":"","vervoerder":"Amazon","puntType":"3p","bezettingsgraad":50,"latitude":41.066,"longitude":14.8556,"canPickup":true,"canDropoff":false,"openingstijden":null}},{"type":"Feature","geometry":{"type":"Point","coordinates":[14.85141,41.066067]},"properties":{"type":"pakketpunt","locatieNaam":"Amazon Counter (fermopoint)","straatNaam":"Angel Caffé","straatNr":"","vervoerder":"Amazon","puntType":"helix","bezettingsgraad":50,"latitude":41.066067,"longitude":14.85141,"canPickup":true,"canDropoff":false,"openingstijden":null}},{"type":"Feature","geometry":{"type":"Point","coordinates":[14.8534,41.0622]},"properties":{"type":"pakketpunt","locatieNaam":"PuntoPoste TABACCHERIA N. 1","straatNaam":"VIA DEI BERSAGLIERI 3","straatNr":"","vervoerder":"Amazon","puntType":"3p","bezettingsgraad":50,"latitude":41.0622,"longitude":14.8534,"canPickup":true,"canDropoff":false,"openingstijden":null}},{"type":"Feature","geometry":{"type":"Point","coordinates":[14.8531,41.0637]},"properties":{"type":"pakketpunt","locatieNaam":"PuntoPoste TABACCHERIA N. 7","straatNaam":"VIALE SPINELLI 56","straatNr":"","vervoerder":"Amazon","puntType":"3p","bezettingsgraad":50,"latitude":41.0637,"longitude":14.8531,"canPickup":true,"canDropoff":false,"openingstijden":null}},{"type":"Feature","geometry":{"type":"Point","coordinates":[14.8514,41.0662]},"properties":{"type":"pakketpunt","locatieNaam":"PuntoPoste CAFFE ANGEL-HELENE","straatNaam":"VIALE SPINELLI 155","straatNr":"","vervoerder":"Amazon","puntType":"3p","bezettingsgraad":50,"latitude":41.0662,"longitude":14.8514,"canPickup":true,"canDropoff":false,"openingstijden":null}},{"type":"Feature","geometry":{"type":"Point","coordinates":[14.8533,41.0706]},"properties":{"type":"pakketpunt","locatieNaam":"PuntoPoste TABACCHERIA N. 2","straatNaam":"VIA ROMA 132","straatNr":"","vervoerder":"Amazon","puntType":"3p","bezettingsgraad":50,"latitude":41.0706,"longitude":14.8533,"canPickup":true,"canDropoff":false,"openingstijden":null}},{"type":"Feature","geometry":{"type":"Polygon","coordinates":[[[14.8457538,41.0695749],[14.8450976,41.0698783],[14.843246,41.0727585],[14.8420524,41.0738095],[14.841635,41.0745418],[14.8415134,41.0754662],[14.8412501,41.0764518],[14.8404853,41.0772333],[14.8396269,41.0777901],[14.8396021,41.0784394],[14.8398613,41.0788718],[14.8401955,41.0790439],[14.8413738,41.0790334],[14.8420887,41.0791636],[14.8420972,41.0802884],[14.8422134,41.0812861],[14.8420941,41.0815578],[14.8417599,41.0818808],[14.8425189,41.0831339],[14.8430897,41.0834245],[14.8431365,41.0837326],[14.8430759,41.0840553],[14.8426937,41.0848669],[14.8425593,41.0859809],[14.8429748,41.0865314],[14.8437823,41.0868294],[14.844996,41.0880128],[14.8453276,41.0889321],[14.8466343,41.0897612],[14.8475361,41.0911961],[14.8483084,41.0920614],[14.8505601,41.0965961],[14.8516176,41.0973973],[14.8536281,41.0986271],[14.8543291,41.0993655],[14.8561718,41.1005227],[14.8567533,41.1013392],[14.8573345,41.1023853],[14.8594266,41.1045514],[14.8608405,41.105852],[14.8622083,41.1069344],[14.8634565,41.1077438],[14.865027,41.1086132],[14.8676815,41.1098414],[14.8685841,41.1105694],[14.8696181,41.1115607],[14.8712579,41.1137272],[14.8746331,41.1177943],[14.8752155,41.1183496],[14.8758226,41.1187326],[14.8760104,41.1198752],[14.8759849,41.1214608],[14.8765661,41.1221107],[14.8776963,41.1228675],[14.8786003,41.1236988],[14.8795644,41.1246351],[14.8802176,41.1254568],[14.8807386,41.1272034],[14.8811654,41.1281132],[14.8811534,41.128726],[14.880901,41.1295715],[14.8798015,41.1319413],[14.8799428,41.1323391],[14.8811208,41.1331204],[14.8806202,41.1332855],[14.8798817,41.1333009],[14.8797863,41.1338144],[14.879951,41.134382],[14.8804031,41.1346694],[14.880641,41.1350398],[14.8805921,41.1356904],[14.8807583,41.136141],[14.8806495,41.1367047],[14.8809695,41.1375344],[14.8808004,41.1384702],[14.8808124,41.1388702],[14.884172,41.1391976],[14.8856366,41.1397121],[14.8884931,41.1415145],[14.8898154,41.1421758],[14.8913525,41.14261],[14.8928162,41.1427734],[14.8966074,41.1423357],[14.8989968,41.1423367],[14.9043977,41.1439876],[14.9057918,41.1438573],[14.9068424,41.1433082],[14.9083433,41.1429924],[14.9101085,41.1424784],[14.912611,41.141733],[14.9138638,41.1412319],[14.9133655,41.1394032],[14.9128907,41.1382215],[14.9125099,41.1368953],[14.9120343,41.1357542],[14.910193,41.1327435],[14.909657,41.1315513],[14.9094923,41.1304166],[14.9102458,41.128258],[14.9101878,41.1271673],[14.9098199,41.1262051],[14.9093214,41.1253976],[14.9070503,41.12583],[14.905591,41.1262156],[14.9063317,41.1245168],[14.9070597,41.1235701],[14.9079319,41.1226791],[14.909292,41.1209618],[14.9096618,41.1202677],[14.9093777,41.1193102],[14.9091884,41.1182487],[14.9091057,41.1171143],[14.909215,41.116213],[14.9094796,41.1152677],[14.9095376,41.1144906],[14.9088608,41.1133102],[14.9086839,41.1128243],[14.9088628,41.1118699],[14.9085776,41.111403],[14.9067336,41.1098236],[14.9055672,41.1094515],[14.9048767,41.109127],[14.9039372,41.1077936],[14.9033917,41.1066244],[14.9030824,41.1062533],[14.9014641,41.1050717],[14.9010134,41.1048654],[14.9003579,41.104647],[14.8998222,41.1046205],[14.8983213,41.1047292],[14.8975471,41.1049535],[14.8969635,41.1049159],[14.8965231,41.104691],[14.8954628,41.104993],[14.893724,41.1049203],[14.8932598,41.1046965],[14.8927954,41.1042613],[14.8917004,41.1046416],[14.8907834,41.10427],[14.8901642,41.1042073],[14.8891292,41.1035313],[14.8889156,41.1031147],[14.8885227,41.1031618],[14.888165,41.1033287],[14.8879046,41.1030045],[14.8875348,41.1027534],[14.8871891,41.1026721],[14.8871921,41.1023659],[14.8875124,41.1021964],[14.8873576,41.1018893],[14.8866317,41.10149],[14.8864546,41.1007339],[14.8852762,41.1002992],[14.8846829,41.0998031],[14.8842423,41.099119],[14.8829813,41.098135],[14.8820677,41.0972006],[14.8813532,41.0967376],[14.8806647,41.0960168],[14.8797373,41.0946375],[14.8789649,41.0938174],[14.8784649,41.0934649],[14.8774801,41.0920076],[14.8766746,41.0903025],[14.8764369,41.08959],[14.8765693,41.0883095],[14.8760468,41.0879042],[14.8749053,41.0876791],[14.8743332,41.0874518],[14.8730153,41.0860925],[14.8721721,41.0845693],[14.8714133,41.0834334],[14.8704971,41.0825486],[14.8696296,41.0821519],[14.8690348,41.0816107],[14.8683233,41.0806704],[14.8680265,41.0800779],[14.8673842,41.0793456],[14.8667198,41.0783984],[14.8659844,41.0776978],[14.8643559,41.0764443],[14.8634628,41.0761253],[14.8628564,41.0757197],[14.8624199,41.0740092],[14.8620401,41.0731599],[14.8616275,41.0712591],[14.861189,41.0703678],[14.8609428,41.0688726],[14.8594126,41.0666913],[14.8590091,41.0659423],[14.8588309,41.0654022],[14.8600828,41.0645012],[14.860869,41.0642316],[14.8623319,41.0645575],[14.8641758,41.0651294],[14.8646779,41.0645907],[14.8651065,41.0639117],[14.8651193,41.0635645],[14.864108,41.0634091],[14.8630492,41.0630896],[14.861897,41.0625048],[14.8621043,41.0618932],[14.8619827,41.0615057],[14.8610539,41.0611346],[14.860638,41.0608632],[14.8601634,41.0607749],[14.8600438,41.060376],[14.8592462,41.0603221],[14.8580806,41.0600486],[14.8557607,41.0597213],[14.855108,41.059336],[14.8536463,41.0583708],[14.8527429,41.0575482],[14.8520066,41.0566991],[14.8512705,41.0560525],[14.8509384,41.0556103],[14.849921,41.0530201],[14.8487654,41.0533985],[14.8483035,41.0529585],[14.8479832,41.0524439],[14.8468967,41.0531607],[14.846421,41.0535945],[14.8457389,41.0549074],[14.8450846,41.0550352],[14.8442282,41.0548178],[14.8429081,41.054678],[14.8427766,41.0550132],[14.8428228,41.0555329],[14.8435935,41.0567629],[14.8436274,41.0574543],[14.8446246,41.0584478],[14.844981,41.0591048],[14.8478436,41.0611644],[14.84814,41.0616129],[14.8484242,41.0625526],[14.8487434,41.063117],[14.8487305,41.0635317],[14.8492015,41.0657851],[14.8490701,41.0664895],[14.8493409,41.0674703],[14.8487078,41.0682092],[14.8477899,41.0689806],[14.8466351,41.069395],[14.8457538,41.0695749]]]},"properties":{"type":"boundary","gemeente":"San Giorgio del Sannio"}}]}