{"type":"FeatureCollection","metadata":{"gemeente":"San Benedetto in Perillis","slug":"san-benedetto-in-perillis","generated_at":"2026-09-26T14:27:55.641163Z","total_points":1,"providers":["PosteItaliane"],"bounds":[13.7692007,42.18282883,13.7692007,42.18282883]},"features":[{"type":"Feature","geometry":{"type":"Point","coordinates":[13.7692007,42.18282883]},"properties":{"type":"pakketpunt","locatieNaam":"San Benedetto In Perillis","straatNaam":"Piazza Don Luigi Sturzo","straatNr":"1","vervoerder":"PosteItaliane","puntType":"postkantoor","bezettingsgraad":50,"latitude":42.18282883,"longitude":13.7692007,"canPickup":true,"canDropoff":true,"openingstijden":{"za":"gesloten","zo":"gesloten","ma":"08:20 - 13:45","di":"gesloten","wo":"gesloten","do":"gesloten","vr":"08:20 - 13:45"}}},{"type":"Feature","geometry":{"type":"Polygon","coordinates":[[[13.7453391,42.1936945],[13.7481291,42.1921833],[13.7498487,42.1909596],[13.7507594,42.1902285],[13.7517278,42.189018],[13.7535929,42.1846866],[13.7530192,42.1824461],[13.7516839,42.1808225],[13.7517095,42.1801462],[13.7532039,42.1749389],[13.7559675,42.1704396],[13.7652333,42.1633695],[13.7678449,42.1616312],[13.775457,42.1523288],[13.7757443,42.1518757],[13.7752662,42.1484204],[13.7749733,42.1472623],[13.7812291,42.1467175],[13.7841428,42.1506292],[13.7848786,42.1514312],[13.7858435,42.1522326],[13.7881,42.1537858],[13.7901252,42.1549075],[13.796014,42.1628131],[13.8003132,42.1691466],[13.8016648,42.1757701],[13.7970197,42.1838335],[13.8014394,42.1902564],[13.7962596,42.1926343],[13.7755054,42.2081501],[13.7733423,42.2110177],[13.7674637,42.2099348],[13.7599,42.208323],[13.7554923,42.2070072],[13.7588603,42.2026313],[13.7522256,42.1938949],[13.747833,42.1937126],[13.7453391,42.1936945]]]},"properties":{"type":"boundary","gemeente":"San Benedetto in Perillis"}}]}