{"type":"FeatureCollection","metadata":{"gemeente":"San Nicola dell'Alto","slug":"san-nicola-dell-alto","generated_at":"2026-09-26T14:27:57.905158Z","total_points":3,"providers":["PosteItaliane","DHL","Amazon"],"bounds":[16.9751,39.2896,16.975103,39.28965345]},"features":[{"type":"Feature","geometry":{"type":"Point","coordinates":[16.97510271,39.28965345]},"properties":{"type":"pakketpunt","locatieNaam":"San Nicola Dell'alto","straatNaam":"Corso Skanderberg","straatNr":"76","vervoerder":"PosteItaliane","puntType":"postkantoor","bezettingsgraad":50,"latitude":39.28965345,"longitude":16.97510271,"canPickup":true,"canDropoff":true,"openingstijden":{"za":"08:20 - 12:45","zo":"gesloten","ma":"08:20 - 13:45","di":"11:50 - 13:45","wo":"08:20 - 13:45","do":"08:20 - 13:45","vr":"08:20 - 13:45"}}},{"type":"Feature","geometry":{"type":"Point","coordinates":[16.975103,39.289653]},"properties":{"type":"pakketpunt","locatieNaam":"Ufficio Postale SAN NICOLA DELL'ALT","straatNaam":"CORSO SKANDERBERG 76","straatNr":"","vervoerder":"DHL","puntType":"postOffice","bezettingsgraad":50,"latitude":39.289653,"longitude":16.975103,"canPickup":true,"canDropoff":true,"openingstijden":{"ma":"08:20 - 13:45","di":"08:20 - 13:45","wo":"08:20 - 13:45","do":"08:20 - 13:45","vr":"08:20 - 13:45","za":"08:20 - 12:45","zo":"gesloten"}}},{"type":"Feature","geometry":{"type":"Point","coordinates":[16.9751,39.2896]},"properties":{"type":"pakketpunt","locatieNaam":"Ufficio Postale SAN NICOLA DELL'ALTO","straatNaam":"CORSO SKANDERBERG 76","straatNr":"","vervoerder":"Amazon","puntType":"3p","bezettingsgraad":50,"latitude":39.2896,"longitude":16.9751,"canPickup":true,"canDropoff":false,"openingstijden":null}},{"type":"Feature","geometry":{"type":"Polygon","coordinates":[[[16.9553555,39.2917436],[16.9570827,39.2884275],[16.9593937,39.2848015],[16.9615363,39.2847395],[16.962629,39.2847947],[16.9645304,39.2836071],[16.96603,39.2824741],[16.9696188,39.2789982],[16.9703025,39.277764],[16.9714382,39.2731755],[16.9714028,39.2719143],[16.9715863,39.271443],[16.9730448,39.2688873],[16.9773438,39.2647237],[16.9780824,39.2642141],[16.9822891,39.2617296],[16.9827257,39.261551],[16.9912247,39.2612881],[16.9942774,39.2622373],[16.9983314,39.270357],[17.0000709,39.2740814],[17.0007924,39.2761899],[17.0005209,39.2764335],[16.9915362,39.2813309],[16.9809539,39.2875385],[16.9714395,39.2940767],[16.9685846,39.2967283],[16.9602496,39.3025815],[16.9553555,39.2917436]]]},"properties":{"type":"boundary","gemeente":"San Nicola dell'Alto"}}]}