{"type":"FeatureCollection","metadata":{"gemeente":"San Nazzaro","slug":"san-nazzaro","generated_at":"2026-09-26T13:10:38.099044Z","total_points":1,"providers":["PosteItaliane"],"bounds":[14.85725455,41.05316283,14.85725455,41.05316283]},"features":[{"type":"Feature","geometry":{"type":"Point","coordinates":[14.85725455,41.05316283]},"properties":{"type":"pakketpunt","locatieNaam":"San Nazzaro","straatNaam":"Piazza Unita' D'italia","straatNr":"7","vervoerder":"PosteItaliane","puntType":"postkantoor","bezettingsgraad":50,"latitude":41.05316283,"longitude":14.85725455,"canPickup":true,"canDropoff":true,"openingstijden":{"za":"08:20 - 12:45","zo":"gesloten","ma":"gesloten","di":"08:20 - 13:45","wo":"gesloten","do":"08:20 - 13:45","vr":"gesloten"}}},{"type":"Feature","geometry":{"type":"Polygon","coordinates":[[[14.8477672,41.0476973],[14.8483615,41.047469],[14.8503056,41.0463483],[14.8514252,41.0458277],[14.85233,41.0455476],[14.8540067,41.0456422],[14.8547099,41.0454353],[14.8550944,41.0454549],[14.8549963,41.0450381],[14.8558174,41.0451043],[14.8572549,41.0456251],[14.8576952,41.0459807],[14.8582296,41.0461064],[14.859134,41.0460153],[14.8598239,41.0461511],[14.8602873,41.0465326],[14.8628671,41.0479042],[14.8635066,41.0485511],[14.8647989,41.0511856],[14.8656651,41.0522666],[14.8661856,41.0539863],[14.8665884,41.0548614],[14.8671576,41.055719],[14.8688915,41.0577007],[14.8697597,41.058444],[14.8706515,41.0588665],[14.8720056,41.0588512],[14.8717207,41.0591538],[14.8708524,41.0591893],[14.87009,41.0595793],[14.8692447,41.0598476],[14.8681857,41.0600547],[14.8672555,41.0604397],[14.8663275,41.0602127],[14.8655181,41.0601505],[14.8647216,41.0598312],[14.8641624,41.0599856],[14.8636274,41.0596079],[14.8629253,41.0596303],[14.8622829,41.0598206],[14.8614264,41.0599093],[14.8606978,41.0603156],[14.8600438,41.060376],[14.8592462,41.0603221],[14.8580806,41.0600486],[14.8557607,41.0597213],[14.8536463,41.0583708],[14.8527429,41.0575482],[14.8520066,41.0566991],[14.8512705,41.0560525],[14.8509384,41.0556103],[14.849921,41.0530201],[14.8496606,41.0519847],[14.8486529,41.0503888],[14.847813,41.0487482],[14.8477672,41.0476973]]]},"properties":{"type":"boundary","gemeente":"San Nazzaro"}}]}