{"type":"FeatureCollection","metadata":{"gemeente":"San Martino di Lupari","slug":"san-martino-di-lupari","generated_at":"2026-09-26T13:10:37.811741Z","total_points":41,"providers":["PosteItaliane","DPD","InPost","GLS","DHL","Amazon"],"bounds":[11.8463119,45.60465098,11.88647,45.66736703]},"features":[{"type":"Feature","geometry":{"type":"Point","coordinates":[11.84884047,45.65163185]},"properties":{"type":"pakketpunt","locatieNaam":"San Martino Di Lupari","straatNaam":"Via Cavour","straatNr":"30","vervoerder":"PosteItaliane","puntType":"postkantoor","bezettingsgraad":50,"latitude":45.65163185,"longitude":11.84884047,"canPickup":true,"canDropoff":true,"openingstijden":{"za":"08:20 - 12:35","zo":"gesloten","ma":"08:20 - 13:35","di":"08:20 - 13:35","wo":"08:20 - 13:35","do":"08:20 - 13:35","vr":"08:20 - 13:35"}}},{"type":"Feature","geometry":{"type":"Point","coordinates":[11.85692173,45.64863669]},"properties":{"type":"pakketpunt","locatieNaam":"Tabaccheria N. 2","straatNaam":"Via Cardinale Carlo Agostini","straatNr":"4","vervoerder":"PosteItaliane","puntType":"servicepunt","bezettingsgraad":50,"latitude":45.64863669,"longitude":11.85692173,"canPickup":true,"canDropoff":true,"openingstijden":{"za":"06:30 - 13:00, 15:00 - 20:00","zo":"gesloten","ma":"06:30 - 13:00, 15:00 - 20:00","di":"06:30 - 13:00, 15:00 - 20:00","wo":"06:30 - 13:00, 15:00 - 20:00","do":"06:30 - 13:00, 15:00 - 20:00","vr":"06:30 - 13:00, 15:00 - 20:00"}}},{"type":"Feature","geometry":{"type":"Point","coordinates":[11.85889342,45.65428619]},"properties":{"type":"pakketpunt","locatieNaam":"Tabaccheria N. 3","straatNaam":"Via Roma","straatNr":"153","vervoerder":"PosteItaliane","puntType":"servicepunt","bezettingsgraad":50,"latitude":45.65428619,"longitude":11.85889342,"canPickup":true,"canDropoff":true,"openingstijden":{"za":"07:00 - 13:30, 15:30 - 20:30","zo":"gesloten","ma":"07:00 - 13:30, 15:30 - 20:30","di":"07:00 - 13:30, 15:30 - 20:30","wo":"07:00 - 13:30, 15:30 - 20:30","do":"07:00 - 13:30, 15:30 - 20:30","vr":"07:00 - 13:30, 15:30 - 20:30"}}},{"type":"Feature","geometry":{"type":"Point","coordinates":[11.84642761,45.64644018]},"properties":{"type":"pakketpunt","locatieNaam":"Supermercato Conad","straatNaam":"Via Cardinale Carlo Agostini","straatNr":"158","vervoerder":"PosteItaliane","puntType":"automaat","bezettingsgraad":50,"latitude":45.64644018,"longitude":11.84642761,"canPickup":true,"canDropoff":true,"openingstijden":{"za":"00:01 - 23:59","zo":"00:01 - 23:59","ma":"00:01 - 23:59","di":"00:01 - 23:59","wo":"00:01 - 23:59","do":"00:01 - 23:59","vr":"00:01 - 23:59"}}},{"type":"Feature","geometry":{"type":"Point","coordinates":[11.85499065,45.66736703]},"properties":{"type":"pakketpunt","locatieNaam":"Tabaccheria N. 10","straatNaam":"Via Brenta","straatNr":"5","vervoerder":"PosteItaliane","puntType":"servicepunt","bezettingsgraad":50,"latitude":45.66736703,"longitude":11.85499065,"canPickup":true,"canDropoff":true,"openingstijden":{"za":"08:00 - 12:20, 15:00 - 20:00","zo":"gesloten","ma":"08:00 - 12:20, 15:00 - 20:00","di":"08:00 - 12:20, 15:00 - 20:00","wo":"08:00 - 12:20, 15:00 - 20:00","do":"08:00 - 12:20, 15:00 - 20:00","vr":"08:00 - 12:20, 15:00 - 20:00"}}},{"type":"Feature","geometry":{"type":"Point","coordinates":[11.84884047,45.65163185]},"properties":{"type":"pakketpunt","locatieNaam":"Ufficio Postale San Martino Di Lupari","straatNaam":"Via Cavour","straatNr":"30","vervoerder":"PosteItaliane","puntType":"automaat","bezettingsgraad":50,"latitude":45.65163185,"longitude":11.84884047,"canPickup":true,"canDropoff":true,"openingstijden":{"za":"00:01 - 23:59","zo":"00:01 - 23:59","ma":"00:01 - 23:59","di":"00:01 - 23:59","wo":"00:01 - 23:59","do":"00:01 - 23:59","vr":"00:01 - 23:59"}}},{"type":"Feature","geometry":{"type":"Point","coordinates":[11.8545731,45.6479151]},"properties":{"type":"pakketpunt","locatieNaam":"Tabaccheria N. 1","straatNaam":"Via Cardinale Carlo Agostini","straatNr":"75","vervoerder":"PosteItaliane","puntType":"servicepunt","bezettingsgraad":50,"latitude":45.6479151,"longitude":11.8545731,"canPickup":true,"canDropoff":true,"openingstijden":{"za":"08:00 - 12:30, 15:30 - 19:30","zo":"gesloten","ma":"08:00 - 12:30, 15:30 - 19:30","di":"08:00 - 12:30, 15:30 - 19:30","wo":"08:00 - 12:30, 15:30 - 19:30","do":"08:00 - 12:30, 15:30 - 19:30","vr":"08:00 - 12:30, 15:30 - 19:30"}}},{"type":"Feature","geometry":{"type":"Point","coordinates":[11.86380445,45.64921383]},"properties":{"type":"pakketpunt","locatieNaam":"Tabaccheria N. 9","straatNaam":"Via Rizzieri Serato","straatNr":"148","vervoerder":"PosteItaliane","puntType":"servicepunt","bezettingsgraad":50,"latitude":45.64921383,"longitude":11.86380445,"canPickup":true,"canDropoff":true,"openingstijden":{"za":"08:00 - 12:30, 15:30 - 19:30","zo":"gesloten","ma":"08:00 - 12:30, 15:30 - 19:30","di":"08:00 - 12:30, 15:30 - 19:30","wo":"08:00 - 12:30, 15:30 - 19:30","do":"08:00 - 12:30, 15:30 - 19:30","vr":"08:00 - 12:30, 15:30 - 19:30"}}},{"type":"Feature","geometry":{"type":"Point","coordinates":[11.8861189,45.60465098]},"properties":{"type":"pakketpunt","locatieNaam":"Carrozzeria - Piazza Snc","straatNaam":"Via Sandra","straatNr":"57","vervoerder":"PosteItaliane","puntType":"automaat","bezettingsgraad":50,"latitude":45.60465098,"longitude":11.8861189,"canPickup":true,"canDropoff":true,"openingstijden":{"za":"00:01 - 23:59","zo":"00:01 - 23:59","ma":"00:01 - 23:59","di":"00:01 - 23:59","wo":"00:01 - 23:59","do":"00:01 - 23:59","vr":"00:01 - 23:59"}}},{"type":"Feature","geometry":{"type":"Point","coordinates":[11.853615,45.6519383]},"properties":{"type":"pakketpunt","locatieNaam":"Mondadori Point-San Martino L.","straatNaam":"VIALE EUROPA","straatNr":"72","vervoerder":"DPD","puntType":"pickup_point","bezettingsgraad":50,"latitude":45.6519383,"longitude":11.853615,"canPickup":true,"canDropoff":true,"openingstijden":{"ma":"06:30 - 12:30","di":"06:30 - 12:30, 16:00 - 19:30","wo":"06:30 - 12:30, 16:00 - 19:30","do":"06:30 - 12:30, 16:00 - 19:30","vr":"06:30 - 12:30, 16:00 - 19:30","za":"06:30 - 12:30, 16:00 - 19:30","zo":"06:30 - 12:30"}}},{"type":"Feature","geometry":{"type":"Point","coordinates":[11.8638118,45.6491765]},"properties":{"type":"pakketpunt","locatieNaam":"Mondo Video","straatNaam":"VIA RIZZIERI SERATO","straatNr":"148","vervoerder":"DPD","puntType":"pickup_point","bezettingsgraad":50,"latitude":45.6491765,"longitude":11.8638118,"canPickup":true,"canDropoff":true,"openingstijden":{"ma":"08:00 - 12:30, 15:30 - 19:30","di":"08:00 - 12:30, 15:30 - 19:30","wo":"08:00 - 12:30, 15:30 - 19:30","do":"08:00 - 12:30, 15:30 - 19:30","vr":"08:00 - 12:30, 15:30 - 19:30","za":"08:00 - 12:30, 15:30 - 19:00","zo":"gesloten"}}},{"type":"Feature","geometry":{"type":"Point","coordinates":[11.8493001,45.6508749]},"properties":{"type":"pakketpunt","locatieNaam":"Nkd-San Martino di Lupari","straatNaam":"VIA CAVOUR","straatNr":"28 A2","vervoerder":"DPD","puntType":"pickup_point","bezettingsgraad":50,"latitude":45.6508749,"longitude":11.8493001,"canPickup":true,"canDropoff":true,"openingstijden":{"ma":"09:00 - 12:30, 15:30 - 19:30","di":"09:00 - 12:30, 15:30 - 19:30","wo":"09:00 - 12:30, 15:30 - 19:30","do":"09:00 - 12:30, 15:30 - 19:30","vr":"09:00 - 12:30, 15:30 - 19:30","za":"09:00 - 12:30, 15:30 - 19:30","zo":"gesloten"}}},{"type":"Feature","geometry":{"type":"Point","coordinates":[11.88647,45.60513]},"properties":{"type":"pakketpunt","locatieNaam":"InPost Locker 24/7","straatNaam":"Via Sandra","straatNr":"57","vervoerder":"InPost","puntType":"automaat","bezettingsgraad":50,"latitude":45.60513,"longitude":11.88647,"canPickup":true,"canDropoff":true,"openingstijden":null}},{"type":"Feature","geometry":{"type":"Point","coordinates":[11.84724,45.65273]},"properties":{"type":"pakketpunt","locatieNaam":"InPost Locker 24/7","straatNaam":"Via Rometta","straatNr":"5","vervoerder":"InPost","puntType":"automaat","bezettingsgraad":50,"latitude":45.65273,"longitude":11.84724,"canPickup":true,"canDropoff":true,"openingstijden":null}},{"type":"Feature","geometry":{"type":"Point","coordinates":[11.84656,45.64752]},"properties":{"type":"pakketpunt","locatieNaam":"InPost Locker 24/7","straatNaam":"Via C. Agostini","straatNr":"737","vervoerder":"InPost","puntType":"automaat","bezettingsgraad":50,"latitude":45.64752,"longitude":11.84656,"canPickup":true,"canDropoff":true,"openingstijden":null}},{"type":"Feature","geometry":{"type":"Point","coordinates":[11.86057,45.64231]},"properties":{"type":"pakketpunt","locatieNaam":"","straatNaam":"Via del Palù","straatNr":"7D","vervoerder":"InPost","puntType":"automaat","bezettingsgraad":50,"latitude":45.64231,"longitude":11.86057,"canPickup":true,"canDropoff":true,"openingstijden":null}},{"type":"Feature","geometry":{"type":"Point","coordinates":[11.8537,45.65075]},"properties":{"type":"pakketpunt","locatieNaam":"InPost Point","straatNaam":"Via Rizzieri Serato","straatNr":"148","vervoerder":"InPost","puntType":"servicepunt","bezettingsgraad":50,"latitude":45.65075,"longitude":11.8537,"canPickup":true,"canDropoff":true,"openingstijden":"Lun-Sab: 08:00 - 12:30 - 15:30 - 19:30"}},{"type":"Feature","geometry":{"type":"Point","coordinates":[11.856568,45.6485686]},"properties":{"type":"pakketpunt","locatieNaam":"PILOTTO DIEGO TABACCHERIA","straatNaam":"Via C.Agostini","straatNr":"6","vervoerder":"GLS","puntType":"parcel_shop","bezettingsgraad":50,"latitude":45.6485686,"longitude":11.856568,"canPickup":true,"canDropoff":true,"openingstijden":"za: 06:30 - 12:30, 15:30 - 19:30; ma: 06:30 - 13:00, 15:00 - 20:00"}},{"type":"Feature","geometry":{"type":"Point","coordinates":[11.8638118,45.6491765]},"properties":{"type":"pakketpunt","locatieNaam":"Tabaccheria","straatNaam":"Via Rizzieri Serato","straatNr":"148","vervoerder":"GLS","puntType":"parcel_shop","bezettingsgraad":50,"latitude":45.6491765,"longitude":11.8638118,"canPickup":true,"canDropoff":true,"openingstijden":"za: 08:00 - 12:30, 15:30 - 19:30; ma: 08:00 - 12:30, 15:30 - 19:30"}},{"type":"Feature","geometry":{"type":"Point","coordinates":[11.8533947,45.6525558]},"properties":{"type":"pakketpunt","locatieNaam":"NEGOZIO VODAFONE-ILIAD","straatNaam":"Viale Europa","straatNr":"90","vervoerder":"GLS","puntType":"parcel_shop","bezettingsgraad":50,"latitude":45.6525558,"longitude":11.8533947,"canPickup":true,"canDropoff":true,"openingstijden":"za: 09:30 - 12:30, 16:00 - 19:00; ma: 16:00 - 19:00"}},{"type":"Feature","geometry":{"type":"Point","coordinates":[11.886119,45.604651]},"properties":{"type":"pakketpunt","locatieNaam":"CARROZZERIA - PIAZZA SNC","straatNaam":"VIA SANDRA 57","straatNr":"","vervoerder":"DHL","puntType":"packStation","bezettingsgraad":50,"latitude":45.604651,"longitude":11.886119,"canPickup":true,"canDropoff":true,"openingstijden":{"ma":"00:01 - 23:59","di":"00:01 - 23:59","wo":"00:01 - 23:59","do":"00:01 - 23:59","vr":"00:01 - 23:59","za":"00:01 - 23:59","zo":"00:01 - 23:59"}}},{"type":"Feature","geometry":{"type":"Point","coordinates":[11.863804,45.649214]},"properties":{"type":"pakketpunt","locatieNaam":"TABACCHERIA N. 9","straatNaam":"VIA RIZZIERI SERATO 148","straatNr":"","vervoerder":"DHL","puntType":"parcelShop","bezettingsgraad":50,"latitude":45.649214,"longitude":11.863804,"canPickup":true,"canDropoff":true,"openingstijden":{"ma":"08:00 - 12:30, 15:30 - 19:30","di":"08:00 - 12:30, 15:30 - 19:30","wo":"08:00 - 12:30, 15:30 - 19:30","do":"08:00 - 12:30, 15:30 - 19:30","vr":"08:00 - 12:30, 15:30 - 19:30","za":"08:00 - 12:30, 15:30 - 19:30","zo":"gesloten"}}},{"type":"Feature","geometry":{"type":"Point","coordinates":[11.858893,45.654286]},"properties":{"type":"pakketpunt","locatieNaam":"TABACCHERIA N. 3","straatNaam":"VIA ROMA 153","straatNr":"","vervoerder":"DHL","puntType":"parcelShop","bezettingsgraad":50,"latitude":45.654286,"longitude":11.858893,"canPickup":true,"canDropoff":true,"openingstijden":{"ma":"07:00 - 13:30, 15:30 - 20:30","di":"07:00 - 13:30, 15:30 - 20:30","wo":"07:00 - 13:30, 15:30 - 20:30","do":"07:00 - 13:30, 15:30 - 20:30","vr":"07:00 - 13:30, 15:30 - 20:30","za":"07:00 - 13:30, 15:30 - 20:30","zo":"gesloten"}}},{"type":"Feature","geometry":{"type":"Point","coordinates":[11.856922,45.648637]},"properties":{"type":"pakketpunt","locatieNaam":"TABACCHERIA N. 2","straatNaam":"VIA CARDINALE CARLO AGOSTINI 4","straatNr":"","vervoerder":"DHL","puntType":"parcelShop","bezettingsgraad":50,"latitude":45.648637,"longitude":11.856922,"canPickup":true,"canDropoff":true,"openingstijden":{"ma":"06:30 - 13:00, 15:00 - 20:00","di":"06:30 - 13:00, 15:00 - 20:00","wo":"06:30 - 13:00, 15:00 - 20:00","do":"06:30 - 13:00, 15:00 - 20:00","vr":"06:30 - 13:00, 15:00 - 20:00","za":"06:30 - 13:00, 15:00 - 20:00","zo":"gesloten"}}},{"type":"Feature","geometry":{"type":"Point","coordinates":[11.854573,45.647915]},"properties":{"type":"pakketpunt","locatieNaam":"TABACCHERIA N. 1","straatNaam":"VIA CARDINALE CARLO AGOSTINI 75","straatNr":"","vervoerder":"DHL","puntType":"parcelShop","bezettingsgraad":50,"latitude":45.647915,"longitude":11.854573,"canPickup":true,"canDropoff":true,"openingstijden":{"ma":"08:00 - 12:30, 15:30 - 19:30","di":"08:00 - 12:30, 15:30 - 19:30","wo":"08:00 - 12:30, 15:30 - 19:30","do":"08:00 - 12:30, 15:30 - 19:30","vr":"08:00 - 12:30, 15:30 - 19:30","za":"08:00 - 12:30, 15:30 - 19:30","zo":"gesloten"}}},{"type":"Feature","geometry":{"type":"Point","coordinates":[11.853395,45.652556]},"properties":{"type":"pakketpunt","locatieNaam":"CENTRO TELEFONIA","straatNaam":"Viale Europa,  90","straatNr":"","vervoerder":"DHL","puntType":"parcelShop","bezettingsgraad":50,"latitude":45.652556,"longitude":11.853395,"canPickup":false,"canDropoff":true,"openingstijden":{"ma":"16:00 - 19:00","di":"09:30 - 19:00","wo":"09:30 - 19:00","do":"09:30 - 19:00","vr":"09:30 - 19:00","za":"09:30 - 19:00","zo":"gesloten"}}},{"type":"Feature","geometry":{"type":"Point","coordinates":[11.84884,45.651632]},"properties":{"type":"pakketpunt","locatieNaam":"Ufficio Postale SAN MARTINO DI LUPA","straatNaam":"VIA CAVOUR 30","straatNr":"","vervoerder":"DHL","puntType":"postOffice","bezettingsgraad":50,"latitude":45.651632,"longitude":11.84884,"canPickup":true,"canDropoff":true,"openingstijden":{"ma":"08:20 - 13:35","di":"08:20 - 13:35","wo":"08:20 - 13:35","do":"08:20 - 13:35","vr":"08:20 - 13:35","za":"08:20 - 12:35","zo":"gesloten"}}},{"type":"Feature","geometry":{"type":"Point","coordinates":[11.84884,45.651632]},"properties":{"type":"pakketpunt","locatieNaam":"UFFICIO POSTALE SAN MARTINO","straatNaam":"VIA CAVOUR 30","straatNr":"","vervoerder":"DHL","puntType":"packStation","bezettingsgraad":50,"latitude":45.651632,"longitude":11.84884,"canPickup":true,"canDropoff":true,"openingstijden":{"ma":"00:01 - 23:59","di":"00:01 - 23:59","wo":"00:01 - 23:59","do":"00:01 - 23:59","vr":"00:01 - 23:59","za":"00:01 - 23:59","zo":"00:01 - 23:59"}}},{"type":"Feature","geometry":{"type":"Point","coordinates":[11.854991,45.667367]},"properties":{"type":"pakketpunt","locatieNaam":"TABACCHERIA N. 10","straatNaam":"VIA BRENTA 5","straatNr":"","vervoerder":"DHL","puntType":"parcelShop","bezettingsgraad":50,"latitude":45.667367,"longitude":11.854991,"canPickup":true,"canDropoff":true,"openingstijden":{"ma":"08:00 - 12:20, 15:00 - 20:00","di":"08:00 - 12:20, 15:00 - 20:00","wo":"08:00 - 12:20, 15:00 - 20:00","do":"08:00 - 12:20, 15:00 - 20:00","vr":"08:00 - 12:20, 15:00 - 20:00","za":"08:00 - 12:20, 15:00 - 20:00","zo":"gesloten"}}},{"type":"Feature","geometry":{"type":"Point","coordinates":[11.846428,45.64644]},"properties":{"type":"pakketpunt","locatieNaam":"SUPERMERCATO CONAD","straatNaam":"VIA CARDINALE CARLO AGOSTINI 158","straatNr":"","vervoerder":"DHL","puntType":"packStation","bezettingsgraad":50,"latitude":45.64644,"longitude":11.846428,"canPickup":true,"canDropoff":true,"openingstijden":{"ma":"00:01 - 23:59","di":"00:01 - 23:59","wo":"00:01 - 23:59","do":"00:01 - 23:59","vr":"00:01 - 23:59","za":"00:01 - 23:59","zo":"00:01 - 23:59"}}},{"type":"Feature","geometry":{"type":"Point","coordinates":[11.867396,45.667003]},"properties":{"type":"pakketpunt","locatieNaam":"Amazon Locker - clino","straatNaam":"LEYI'S","straatNr":"","vervoerder":"Amazon","puntType":"locker","bezettingsgraad":50,"latitude":45.667003,"longitude":11.867396,"canPickup":true,"canDropoff":false,"openingstijden":null}},{"type":"Feature","geometry":{"type":"Point","coordinates":[11.8537437460327,45.6516008160158]},"properties":{"type":"pakketpunt","locatieNaam":"Amazon Counter (fermopoint)","straatNaam":"Mondadori Point-San Martino L.","straatNr":"","vervoerder":"Amazon","puntType":"helix","bezettingsgraad":50,"latitude":45.6516008160158,"longitude":11.8537437460327,"canPickup":true,"canDropoff":false,"openingstijden":null}},{"type":"Feature","geometry":{"type":"Point","coordinates":[11.8463119,45.6477513]},"properties":{"type":"pakketpunt","locatieNaam":"Amazon Locker - marcellino","straatNaam":"Conad San Martino di Lupari Agostini","straatNr":"","vervoerder":"Amazon","puntType":"locker","bezettingsgraad":50,"latitude":45.6477513,"longitude":11.8463119,"canPickup":true,"canDropoff":false,"openingstijden":null}},{"type":"Feature","geometry":{"type":"Point","coordinates":[11.852024,45.654135]},"properties":{"type":"pakketpunt","locatieNaam":"Amazon Counter - Bar all’incontro ","straatNaam":"Via G. Garibaldi, 90","straatNr":"","vervoerder":"Amazon","puntType":"helix","bezettingsgraad":50,"latitude":45.654135,"longitude":11.852024,"canPickup":true,"canDropoff":false,"openingstijden":null}},{"type":"Feature","geometry":{"type":"Point","coordinates":[11.8638,45.6492]},"properties":{"type":"pakketpunt","locatieNaam":"PuntoPoste TABACCHERIA N. 9","straatNaam":"VIA RIZZIERI SERATO 148","straatNr":"","vervoerder":"Amazon","puntType":"3p","bezettingsgraad":50,"latitude":45.6492,"longitude":11.8638,"canPickup":true,"canDropoff":false,"openingstijden":null}},{"type":"Feature","geometry":{"type":"Point","coordinates":[11.853337,45.652579]},"properties":{"type":"pakketpunt","locatieNaam":"Amazon Counter - CENTRO TELEFONIA","straatNaam":"VIALE EUROPA 90","straatNr":"","vervoerder":"Amazon","puntType":"helix","bezettingsgraad":50,"latitude":45.652579,"longitude":11.853337,"canPickup":true,"canDropoff":false,"openingstijden":null}},{"type":"Feature","geometry":{"type":"Point","coordinates":[11.85827,45.65338]},"properties":{"type":"pakketpunt","locatieNaam":"Amazon Counter - PETRIN EZIO","straatNaam":"VIA ROMA 153","straatNr":"","vervoerder":"Amazon","puntType":"helix","bezettingsgraad":50,"latitude":45.65338,"longitude":11.85827,"canPickup":true,"canDropoff":false,"openingstijden":null}},{"type":"Feature","geometry":{"type":"Point","coordinates":[11.8545,45.6479]},"properties":{"type":"pakketpunt","locatieNaam":"PuntoPoste TABACCHERIA N. 1","straatNaam":"VIA CARDINALE CARLO AGOSTINI 75","straatNr":"","vervoerder":"Amazon","puntType":"3p","bezettingsgraad":50,"latitude":45.6479,"longitude":11.8545,"canPickup":true,"canDropoff":false,"openingstijden":null}},{"type":"Feature","geometry":{"type":"Point","coordinates":[11.8569,45.6486]},"properties":{"type":"pakketpunt","locatieNaam":"PuntoPoste TABACCHERIA N. 2","straatNaam":"VIA CARDINALE CARLO AGOSTINI 4","straatNr":"","vervoerder":"Amazon","puntType":"3p","bezettingsgraad":50,"latitude":45.6486,"longitude":11.8569,"canPickup":true,"canDropoff":false,"openingstijden":null}},{"type":"Feature","geometry":{"type":"Point","coordinates":[11.8488,45.6516]},"properties":{"type":"pakketpunt","locatieNaam":"Ufficio Postale SAN MARTINO DI LUPARI","straatNaam":"VIA CAVOUR 30","straatNr":"","vervoerder":"Amazon","puntType":"3p","bezettingsgraad":50,"latitude":45.6516,"longitude":11.8488,"canPickup":true,"canDropoff":false,"openingstijden":null}},{"type":"Feature","geometry":{"type":"Point","coordinates":[11.8549,45.6673]},"properties":{"type":"pakketpunt","locatieNaam":"PuntoPoste TABACCHERIA N. 10","straatNaam":"VIA BRENTA 5","straatNr":"","vervoerder":"Amazon","puntType":"3p","bezettingsgraad":50,"latitude":45.6673,"longitude":11.8549,"canPickup":true,"canDropoff":false,"openingstijden":null}},{"type":"Feature","geometry":{"type":"Polygon","coordinates":[[[11.8224044,45.686821],[11.8223563,45.6866549],[11.8239541,45.6840891],[11.8250124,45.6843479],[11.8267103,45.679632],[11.8304523,45.6801862],[11.8308942,45.6786644],[11.8316235,45.6786504],[11.8323669,45.675726],[11.8335521,45.6758171],[11.8340009,45.6742392],[11.8363994,45.674646],[11.8370325,45.6728739],[11.8390267,45.6732581],[11.8405433,45.6703301],[11.8422613,45.6704839],[11.8434471,45.6674708],[11.8438052,45.6673921],[11.8441568,45.665951],[11.8453732,45.6661009],[11.8457939,45.6647144],[11.8468028,45.6646021],[11.847408,45.6626883],[11.8481286,45.6599732],[11.8483835,45.6600106],[11.8487742,45.6581244],[11.8481508,45.6581452],[11.8455403,45.657823],[11.8444105,45.6578173],[11.8402014,45.6572652],[11.8406303,45.6555555],[11.8384062,45.6552289],[11.8388383,45.6536005],[11.8402494,45.6538361],[11.8407492,45.6521943],[11.8389016,45.6519304],[11.8391925,45.6505879],[11.839434,45.6498762],[11.8401045,45.6504436],[11.8404048,45.6505456],[11.8408368,45.6491207],[11.8405689,45.6490015],[11.8408012,45.6476107],[11.8413146,45.6476872],[11.841702,45.6459015],[11.8415555,45.6458382],[11.8419241,45.6443098],[11.8415209,45.6442081],[11.8417951,45.6427045],[11.8420416,45.6406542],[11.8416413,45.6406083],[11.8418389,45.6391624],[11.8417843,45.6390297],[11.8418244,45.637934],[11.8424101,45.6378636],[11.8424288,45.6376062],[11.8400158,45.6320811],[11.8392732,45.6299884],[11.8387837,45.6289228],[11.8411136,45.6283153],[11.8448075,45.6277576],[11.84733,45.6270685],[11.848115,45.6262396],[11.848411,45.6254227],[11.8483947,45.6231707],[11.8486506,45.6228512],[11.8491328,45.622488],[11.8497205,45.6222748],[11.8498536,45.622111],[11.8497197,45.6201139],[11.8511277,45.6191455],[11.8514729,45.6190116],[11.8537652,45.6183777],[11.8557878,45.6181144],[11.8564064,45.6178699],[11.8570815,45.6172488],[11.8574431,45.6166451],[11.8578061,45.6162925],[11.8599515,45.6152614],[11.8603703,45.6151516],[11.8614627,45.6154525],[11.8617573,45.615468],[11.8625967,45.6152867],[11.8627007,45.6151924],[11.8651126,45.6144829],[11.869373,45.6167353],[11.869903,45.6164623],[11.8704608,45.6163032],[11.8708177,45.6160499],[11.8712143,45.615933],[11.8718259,45.6155511],[11.8718801,45.615336],[11.8722116,45.6152207],[11.8728468,45.6146626],[11.8732311,45.614943],[11.8734174,45.6149689],[11.8734158,45.6147246],[11.8737433,45.6147469],[11.873815,45.6146611],[11.8739768,45.6142065],[11.8739728,45.6139165],[11.8746672,45.6128148],[11.8748984,45.6126562],[11.8760467,45.6123447],[11.8767793,45.6122041],[11.8769334,45.6122384],[11.8769954,45.6121757],[11.8768289,45.6118975],[11.8771746,45.6118505],[11.8773433,45.6115332],[11.8776465,45.6115027],[11.8778383,45.6110015],[11.877725,45.610699],[11.8783478,45.610752],[11.8783925,45.6109875],[11.8786781,45.6110414],[11.8791226,45.6093122],[11.8792177,45.6092564],[11.8794498,45.6093269],[11.8795511,45.6091792],[11.8797039,45.6091907],[11.8797536,45.6090978],[11.8803413,45.6088921],[11.8817182,45.6079487],[11.8820825,45.6069187],[11.8822124,45.606756],[11.8828339,45.6063519],[11.8830995,45.605943],[11.8833779,45.6052078],[11.8840023,45.6047539],[11.884221,45.6037302],[11.8855458,45.6029293],[11.8859274,45.6033735],[11.886259,45.6032465],[11.8874003,45.6042592],[11.8878344,45.6043009],[11.8883195,45.6042359],[11.8885698,45.6050865],[11.8889702,45.6059334],[11.8905449,45.6102575],[11.8911692,45.6110722],[11.8905482,45.6114176],[11.8908904,45.6122263],[11.8924186,45.6119899],[11.8922441,45.6115196],[11.8923479,45.6113456],[11.8931969,45.6114164],[11.8938979,45.6115304],[11.8947095,45.6119713],[11.8958765,45.6119566],[11.8982078,45.613055],[11.8955705,45.61735],[11.8944235,45.6193803],[11.8944062,45.6195449],[11.8941121,45.6196284],[11.8938174,45.6203497],[11.8935878,45.6204198],[11.8934523,45.6208288],[11.8903671,45.6255919],[11.8899926,45.6258508],[11.8919405,45.6265553],[11.8908459,45.6277379],[11.8919677,45.6282224],[11.892422,45.6283287],[11.8917007,45.6290668],[11.8912214,45.6293238],[11.8906923,45.6294092],[11.8902059,45.6299318],[11.8900669,45.6303709],[11.8903994,45.6304964],[11.8892733,45.6323697],[11.8894913,45.6331006],[11.8923534,45.6325777],[11.8923606,45.6323183],[11.8932589,45.6314318],[11.8940818,45.6302735],[11.8942096,45.6299679],[11.8954542,45.6302764],[11.8953001,45.6313312],[11.8950382,45.6320276],[11.8942963,45.6325941],[11.89348,45.633058],[11.8931705,45.6335749],[11.892491,45.6358844],[11.8916572,45.6378656],[11.8914921,45.6384635],[11.8901065,45.6439832],[11.8902983,45.6446968],[11.8900897,45.6452184],[11.8892119,45.6465076],[11.8891403,45.6469277],[11.8889597,45.6472613],[11.8875368,45.6482633],[11.8869916,45.649197],[11.8865727,45.6506171],[11.8865296,45.6516093],[11.8862516,45.6534395],[11.8858965,45.6542473],[11.8880324,45.6543459],[11.8894329,45.6545122],[11.8894443,45.6548209],[11.8878164,45.655965],[11.8874047,45.656386],[11.8872804,45.657143],[11.8873484,45.6581161],[11.887307,45.6588468],[11.884544,45.658835],[11.8843137,45.6596135],[11.8840388,45.6600697],[11.8831211,45.662898],[11.8827694,45.6629804],[11.8817357,45.6628303],[11.8808785,45.6663243],[11.8733476,45.6664774],[11.8680715,45.6673149],[11.8681136,45.66756],[11.8677611,45.668842],[11.8673882,45.669419],[11.8669622,45.6697874],[11.8648363,45.6710909],[11.8609291,45.673288],[11.8509067,45.6786216],[11.8452986,45.6818034],[11.8418379,45.6835293],[11.8392061,45.6830762],[11.8395631,45.6814977],[11.8397297,45.681261],[11.8409854,45.6769041],[11.8393111,45.6782651],[11.8365497,45.6794705],[11.8311804,45.6819908],[11.8300408,45.6828345],[11.8291094,45.6837002],[11.8267616,45.684987],[11.8235795,45.6861562],[11.8224044,45.686821]]]},"properties":{"type":"boundary","gemeente":"San Martino di Lupari"}}]}