{"type":"FeatureCollection","metadata":{"gemeente":"San Giorgio su Legnano","slug":"san-giorgio-su-legnano","generated_at":"2026-09-26T13:10:36.967305Z","total_points":5,"providers":["PosteItaliane","DPD","DHL"],"bounds":[8.91025253,45.576073,8.9117057,45.576828]},"features":[{"type":"Feature","geometry":{"type":"Point","coordinates":[8.911312,45.57682779]},"properties":{"type":"pakketpunt","locatieNaam":"San Giorgio Su Legnano","straatNaam":"Via Mella","straatNr":"1","vervoerder":"PosteItaliane","puntType":"postkantoor","bezettingsgraad":50,"latitude":45.57682779,"longitude":8.911312,"canPickup":true,"canDropoff":true,"openingstijden":{"za":"08:20 - 12:35","zo":"gesloten","ma":"08:20 - 13:35","di":"08:20 - 13:35","wo":"08:20 - 13:35","do":"08:20 - 13:35","vr":"08:20 - 13:35"}}},{"type":"Feature","geometry":{"type":"Point","coordinates":[8.91025253,45.57607306]},"properties":{"type":"pakketpunt","locatieNaam":"Tabaccheria N. 3","straatNaam":"Via Roma","straatNr":"13","vervoerder":"PosteItaliane","puntType":"servicepunt","bezettingsgraad":50,"latitude":45.57607306,"longitude":8.91025253,"canPickup":true,"canDropoff":true,"openingstijden":{"za":"08:00 - 13:30, 15:30 - 19:00","zo":"gesloten","ma":"07:30 - 13:30, 15:30 - 19:00","di":"07:30 - 13:30, 15:30 - 19:00","wo":"07:30 - 13:30, 15:30 - 19:00","do":"07:30 - 13:30, 15:30 - 19:00","vr":"07:30 - 13:30, 15:30 - 19:00"}}},{"type":"Feature","geometry":{"type":"Point","coordinates":[8.9117057,45.5768230194]},"properties":{"type":"pakketpunt","locatieNaam":"Bar Time Out","straatNaam":"VIA ROMA","straatNr":"45","vervoerder":"DPD","puntType":"pickup_point","bezettingsgraad":50,"latitude":45.5768230194,"longitude":8.9117057,"canPickup":true,"canDropoff":true,"openingstijden":{"ma":"07:15 - 13:00","di":"07:15 - 15:00","wo":"07:15 - 15:00","do":"07:15 - 15:00, 17:00 - 20:00","vr":"07:15 - 15:00, 17:00 - 20:00","za":"07:15 - 13:00, 15:00 - 19:30","zo":"07:15 - 13:00"}}},{"type":"Feature","geometry":{"type":"Point","coordinates":[8.910253,45.576073]},"properties":{"type":"pakketpunt","locatieNaam":"TABACCHERIA n. 3","straatNaam":"VIA ROMA 13","straatNr":"","vervoerder":"DHL","puntType":"parcelShop","bezettingsgraad":50,"latitude":45.576073,"longitude":8.910253,"canPickup":true,"canDropoff":true,"openingstijden":{"ma":"07:30 - 13:30, 15:30 - 19:00","di":"07:30 - 13:30, 15:30 - 19:00","wo":"07:30 - 13:30, 15:30 - 19:00","do":"07:30 - 13:30, 15:30 - 19:00","vr":"07:30 - 13:30, 15:30 - 19:00","za":"08:00 - 13:30, 15:30 - 19:00","zo":"gesloten"}}},{"type":"Feature","geometry":{"type":"Point","coordinates":[8.911312,45.576828]},"properties":{"type":"pakketpunt","locatieNaam":"Ufficio Postale SAN GIORGIO SU LEGN","straatNaam":"VIA MELLA 1","straatNr":"","vervoerder":"DHL","puntType":"postOffice","bezettingsgraad":50,"latitude":45.576828,"longitude":8.911312,"canPickup":true,"canDropoff":true,"openingstijden":{"ma":"08:20 - 13:35","di":"gesloten","wo":"gesloten","do":"gesloten","vr":"08:20 - 13:35","za":"08:20 - 12:35","zo":"gesloten"}}},{"type":"Feature","geometry":{"type":"Polygon","coordinates":[[[8.8974388,45.568692],[8.8979125,45.5679071],[8.899316,45.5659776],[8.9002043,45.5645427],[8.9008191,45.5647187],[8.901505,45.5635987],[8.9021981,45.5638558],[8.9024663,45.5634465],[8.9009343,45.5629457],[8.8987409,45.5623857],[8.8982848,45.5621918],[8.8997315,45.5601633],[8.8991681,45.5599873],[8.8984533,45.5611478],[8.8975377,45.5608095],[8.8987037,45.5590418],[8.8995952,45.5593891],[8.902251,45.5601205],[8.9030319,45.558672],[8.9039893,45.5588753],[8.9039131,45.5593883],[8.9046125,45.5596904],[8.9059191,45.5579543],[8.9078923,45.55891],[8.9067672,45.5603582],[8.9054225,45.5599341],[8.9038873,45.5623631],[8.906287,45.5631076],[8.9053142,45.564394],[8.9060009,45.5646511],[8.9107481,45.5669501],[8.9123394,45.5676129],[8.9133636,45.5682257],[8.914649,45.5688207],[8.915895,45.5690287],[8.9174033,45.5694438],[8.9188288,45.5699643],[8.9191324,45.5699726],[8.9195558,45.5698302],[8.9199633,45.5698492],[8.9219925,45.5708331],[8.9205406,45.5723713],[8.9212995,45.5726509],[8.9197832,45.5739486],[8.9215565,45.5745277],[8.9193634,45.5778071],[8.918601,45.5792741],[8.9155755,45.5781872],[8.9138527,45.5805664],[8.9095821,45.5789519],[8.9099643,45.5784931],[8.9077971,45.5777797],[8.9040956,45.5761652],[8.906198,45.5736384],[8.9007008,45.5709608],[8.8982914,45.5692215],[8.8974388,45.568692]]]},"properties":{"type":"boundary","gemeente":"San Giorgio su Legnano"}}]}