{"type":"FeatureCollection","metadata":{"gemeente":"San Benedetto Ullano","slug":"san-benedetto-ullano","generated_at":"2026-09-26T13:10:35.892575Z","total_points":7,"providers":["PosteItaliane","GLS","DHL","Amazon"],"bounds":[16.1233,39.4252,16.1236271,39.4272622]},"features":[{"type":"Feature","geometry":{"type":"Point","coordinates":[16.12339934,39.42652935]},"properties":{"type":"pakketpunt","locatieNaam":"San Benedetto Ullano","straatNaam":"Corso Corsini","straatNr":"44","vervoerder":"PosteItaliane","puntType":"postkantoor","bezettingsgraad":50,"latitude":39.42652935,"longitude":16.12339934,"canPickup":true,"canDropoff":true,"openingstijden":{"za":"08:20 - 12:45","zo":"gesloten","ma":"08:20 - 13:45","di":"08:20 - 13:45","wo":"08:20 - 13:45","do":"08:20 - 13:45","vr":"08:20 - 13:45"}}},{"type":"Feature","geometry":{"type":"Point","coordinates":[16.1235514,39.42528576]},"properties":{"type":"pakketpunt","locatieNaam":"Tabaccheria N. 3","straatNaam":"Piazza Corsini","straatNr":"3","vervoerder":"PosteItaliane","puntType":"servicepunt","bezettingsgraad":50,"latitude":39.42528576,"longitude":16.1235514,"canPickup":true,"canDropoff":true,"openingstijden":{"za":"07:00 - 12:31, 15:30 - 19:00","zo":"gesloten","ma":"07:00 - 12:31, 15:30 - 19:00","di":"07:00 - 12:31, 15:30 - 19:00","wo":"07:00 - 12:30, 15:30 - 19:00","do":"07:00 - 12:30, 15:30 - 19:00","vr":"07:00 - 12:30, 15:30 - 19:00"}}},{"type":"Feature","geometry":{"type":"Point","coordinates":[16.1236271,39.4272622]},"properties":{"type":"pakketpunt","locatieNaam":"bar corsini","straatNaam":"Corso Bartolomeo Corsini","straatNr":"27","vervoerder":"GLS","puntType":"parcel_shop","bezettingsgraad":50,"latitude":39.4272622,"longitude":16.1236271,"canPickup":true,"canDropoff":true,"openingstijden":"za: 07:00 - 22:00; zo: 07:00 - 13:00, 16:00 - 22:00"}},{"type":"Feature","geometry":{"type":"Point","coordinates":[16.123551,39.425286]},"properties":{"type":"pakketpunt","locatieNaam":"TABACCHERIA N. 3","straatNaam":"PIAZZA CORSINI 3","straatNr":"","vervoerder":"DHL","puntType":"parcelShop","bezettingsgraad":50,"latitude":39.425286,"longitude":16.123551,"canPickup":true,"canDropoff":true,"openingstijden":{"ma":"07:00 - 12:31, 15:30 - 19:00","di":"07:00 - 12:31, 15:30 - 19:00","wo":"07:00 - 12:30, 15:30 - 19:00","do":"07:00 - 12:30, 15:30 - 19:00","vr":"07:00 - 12:30, 15:30 - 19:00","za":"07:00 - 12:31, 15:30 - 19:00","zo":"gesloten"}}},{"type":"Feature","geometry":{"type":"Point","coordinates":[16.123399,39.426529]},"properties":{"type":"pakketpunt","locatieNaam":"Ufficio Postale SAN BENEDETTO ULLAN","straatNaam":"CORSO CORSINI 44","straatNr":"","vervoerder":"DHL","puntType":"postOffice","bezettingsgraad":50,"latitude":39.426529,"longitude":16.123399,"canPickup":true,"canDropoff":true,"openingstijden":{"ma":"08:20 - 13:45","di":"08:20 - 13:45","wo":"08:20 - 13:45","do":"08:20 - 13:45","vr":"08:20 - 13:45","za":"08:20 - 12:45","zo":"gesloten"}}},{"type":"Feature","geometry":{"type":"Point","coordinates":[16.1235,39.4252]},"properties":{"type":"pakketpunt","locatieNaam":"PuntoPoste TABACCHERIA N. 3","straatNaam":"PIAZZA CORSINI 3","straatNr":"","vervoerder":"Amazon","puntType":"3p","bezettingsgraad":50,"latitude":39.4252,"longitude":16.1235,"canPickup":true,"canDropoff":false,"openingstijden":null}},{"type":"Feature","geometry":{"type":"Point","coordinates":[16.1233,39.4265]},"properties":{"type":"pakketpunt","locatieNaam":"Ufficio Postale SAN BENEDETTO ULLANO","straatNaam":"CORSO CORSINI 44","straatNr":"","vervoerder":"Amazon","puntType":"3p","bezettingsgraad":50,"latitude":39.4265,"longitude":16.1233,"canPickup":true,"canDropoff":false,"openingstijden":null}},{"type":"Feature","geometry":{"type":"Polygon","coordinates":[[[16.080783,39.4416482],[16.0827957,39.4364023],[16.0880572,39.4153506],[16.0881347,39.4111982],[16.0879081,39.4100829],[16.0857481,39.4026306],[16.0885013,39.4049137],[16.0909755,39.4064761],[16.0923153,39.4067494],[16.0959361,39.4072563],[16.0972385,39.4074328],[16.1015485,39.4067366],[16.1138792,39.4065192],[16.1143462,39.4067064],[16.122148,39.4114943],[16.1257172,39.4139288],[16.1341583,39.4158559],[16.153084,39.419573],[16.1549833,39.4207151],[16.1563486,39.4225291],[16.1564137,39.4228804],[16.156402,39.4249099],[16.1565068,39.4270717],[16.156668,39.4276376],[16.1578963,39.4302472],[16.1613762,39.4314264],[16.1637336,39.4323363],[16.1595349,39.4319799],[16.1570172,39.4320772],[16.1503802,39.4333242],[16.1500215,39.4335173],[16.1479977,39.4355003],[16.1469144,39.4367008],[16.1457714,39.4385213],[16.1453836,39.4389681],[16.1442299,39.4396106],[16.1349272,39.4434146],[16.1341606,39.4434214],[16.1307074,39.4425186],[16.1232828,39.4397865],[16.1203924,39.4384843],[16.1193541,39.4382738],[16.1176483,39.4383563],[16.1168036,39.4385072],[16.1125456,39.4397722],[16.1094509,39.4410105],[16.0997632,39.4434092],[16.0874631,39.4437494],[16.0863216,39.4436079],[16.080783,39.4416482]]]},"properties":{"type":"boundary","gemeente":"San Benedetto Ullano"}}]}