{"type":"FeatureCollection","metadata":{"gemeente":"San Nicolò di Comelico","slug":"san-nicolo-di-comelico","generated_at":"2026-09-26T14:27:57.937173Z","total_points":3,"providers":["PosteItaliane","Amazon"],"bounds":[12.52785504,46.5761201,12.5317832,46.5822885]},"features":[{"type":"Feature","geometry":{"type":"Point","coordinates":[12.53070535,46.57746724]},"properties":{"type":"pakketpunt","locatieNaam":"Tabaccheria N. 1","straatNaam":"Via Campitello","straatNr":"25/a","vervoerder":"PosteItaliane","puntType":"servicepunt","bezettingsgraad":50,"latitude":46.57746724,"longitude":12.53070535,"canPickup":true,"canDropoff":true,"openingstijden":{"za":"06:30 - 20:00","zo":"gesloten","ma":"gesloten","di":"gesloten","wo":"gesloten","do":"gesloten","vr":"gesloten"}}},{"type":"Feature","geometry":{"type":"Point","coordinates":[12.52785504,46.5822885]},"properties":{"type":"pakketpunt","locatieNaam":"San Nicolo' Di Comelico","straatNaam":"Via Capoluogo","straatNr":"7","vervoerder":"PosteItaliane","puntType":"postkantoor","bezettingsgraad":50,"latitude":46.5822885,"longitude":12.52785504,"canPickup":true,"canDropoff":true,"openingstijden":{"za":"08:20 - 12:45","zo":"gesloten","ma":"gesloten","di":"08:20 - 13:45","wo":"gesloten","do":"08:20 - 13:45","vr":"gesloten"}}},{"type":"Feature","geometry":{"type":"Point","coordinates":[12.5317832,46.5761201]},"properties":{"type":"pakketpunt","locatieNaam":"Amazon Counter (fermopoint)","straatNaam":"Bar Giglio","straatNr":"","vervoerder":"Amazon","puntType":"helix","bezettingsgraad":50,"latitude":46.5761201,"longitude":12.5317832,"canPickup":true,"canDropoff":false,"openingstijden":null}},{"type":"Feature","geometry":{"type":"Polygon","coordinates":[[[12.5143412,46.5751527],[12.5141989,46.5761221],[12.5148745,46.5767779],[12.514887,46.5772449],[12.5152916,46.5771586],[12.5155868,46.5780001],[12.5153655,46.578167],[12.5150264,46.5789535],[12.5146925,46.5791506],[12.5139246,46.5791743],[12.5138934,46.5801989],[12.5141383,46.5804678],[12.5139323,46.5809673],[12.5143091,46.5815983],[12.5142992,46.5822773],[12.5144366,46.5825571],[12.5144658,46.5828403],[12.5144285,46.5831031],[12.5139379,46.5837313],[12.5138371,46.5840184],[12.514179,46.5844415],[12.5143467,46.584855],[12.5145184,46.5849227],[12.5148226,46.5848194],[12.5153611,46.5856177],[12.5154509,46.5861682],[12.5155458,46.5862925],[12.5158021,46.5862322],[12.5161824,46.5854055],[12.5172587,46.5854471],[12.5173733,46.5855408],[12.5172971,46.5858722],[12.5188228,46.5858177],[12.5188239,46.5856681],[12.5192522,46.5854156],[12.5198873,46.5853439],[12.5199371,46.5847741],[12.520422,46.5845573],[12.5210953,46.5847384],[12.5214715,46.5851904],[12.5221757,46.5850883],[12.5223303,46.585986],[12.5228163,46.5873333],[12.5227847,46.5885362],[12.5229056,46.58889],[12.5232768,46.5894433],[12.5235121,46.5902003],[12.5233645,46.5906998],[12.5233,46.5919856],[12.5234297,46.5927076],[12.5242974,46.5937128],[12.5242466,46.5940463],[12.5239008,46.5947057],[12.5239568,46.5957292],[12.5234974,46.5967905],[12.5235399,46.5970948],[12.5236798,46.5973614],[12.5246959,46.5983429],[12.5248045,46.5985927],[12.5247357,46.5992004],[12.5243843,46.6001809],[12.5243089,46.6010602],[12.5250973,46.602204],[12.5251529,46.6025481],[12.5250602,46.6029049],[12.5255795,46.6042047],[12.5261174,46.6048674],[12.5268779,46.6052147],[12.5272688,46.6055877],[12.5275151,46.6060127],[12.5276172,46.6064763],[12.5280317,46.6065836],[12.5281358,46.6066785],[12.5282964,46.607832],[12.5286625,46.608325],[12.5286217,46.6088526],[12.5287018,46.6090012],[12.5296368,46.6094401],[12.5300863,46.6098156],[12.5301824,46.6101772],[12.5305438,46.6105041],[12.5310008,46.6111129],[12.5312924,46.6112783],[12.5318446,46.6114066],[12.5320287,46.6115195],[12.5322258,46.6117899],[12.5325525,46.6118891],[12.5326516,46.612105],[12.5321833,46.6125991],[12.5321823,46.6127696],[12.5322704,46.6129594],[12.5328751,46.6133968],[12.5332048,46.6137785],[12.5331178,46.6142462],[12.5326453,46.6143563],[12.532506,46.6144717],[12.5326081,46.6151718],[12.5328811,46.6155302],[12.5329492,46.6157768],[12.5328804,46.6161167],[12.5321507,46.6164479],[12.5318793,46.6171839],[12.531295,46.6173504],[12.530794,46.6177602],[12.5307059,46.6180078],[12.5307304,46.6186074],[12.5306663,46.618877],[12.5303499,46.6191493],[12.5302974,46.6199909],[12.5300111,46.6203389],[12.5300612,46.6205067],[12.5303805,46.6207994],[12.5304836,46.6212452],[12.5300491,46.6215601],[12.5297057,46.6222379],[12.5293683,46.6223756],[12.5292001,46.622545],[12.5291803,46.6230016],[12.5289769,46.6235003],[12.5288037,46.6237329],[12.5285709,46.6238403],[12.5280798,46.624639],[12.5280169,46.6248993],[12.5281269,46.6251919],[12.5280828,46.6252813],[12.5278396,46.6254338],[12.5274101,46.6254964],[12.5273815,46.6255869],[12.5278875,46.6270259],[12.5278575,46.6273881],[12.5277257,46.6276601],[12.5276536,46.6286796],[12.5273987,46.6294921],[12.5275035,46.6296827],[12.5277923,46.6298169],[12.5276734,46.6300736],[12.5273619,46.6304139],[12.52758,46.6307911],[12.527372,46.6312946],[12.5277049,46.6316928],[12.527869,46.6322161],[12.5278573,46.6325114],[12.5277145,46.632747],[12.5273141,46.6331005],[12.527255,46.6333067],[12.5273097,46.6335137],[12.5270808,46.6338253],[12.527287,46.6341186],[12.5268888,46.6362033],[12.5267421,46.6364655],[12.526739,46.6367672],[12.526928,46.6369689],[12.5269123,46.6376156],[12.5274871,46.6385188],[12.5276967,46.6387554],[12.5286496,46.6390543],[12.5289933,46.6393498],[12.5290496,46.6401746],[12.5292857,46.6405021],[12.5294232,46.6408767],[12.5291679,46.6413944],[12.5293047,46.6426983],[12.5308824,46.6431995],[12.5315015,46.6436085],[12.532787,46.6437592],[12.5332311,46.6441002],[12.5340712,46.6443685],[12.5371678,46.6442958],[12.5381877,46.6443651],[12.5386083,46.6442732],[12.5389165,46.6445473],[12.5389029,46.645434],[12.5397707,46.6482423],[12.5396336,46.6491805],[12.5400576,46.6508973],[12.5401967,46.6511194],[12.5403127,46.6524838],[12.5414947,46.6531219],[12.541881,46.6537164],[12.5427442,46.6557446],[12.5434649,46.6583176],[12.546535,46.6599477],[12.5471021,46.6593063],[12.5473439,46.6592258],[12.5477516,46.6592506],[12.5480529,46.6589834],[12.5485255,46.6588321],[12.5498851,46.6587349],[12.5508995,46.6588913],[12.5513597,46.6586541],[12.552115,46.6584929],[12.553596,46.6579894],[12.5547587,46.657874],[12.5550203,46.6577859],[12.5560323,46.6578313],[12.5566406,46.6576262],[12.5572992,46.6576657],[12.5589292,46.6574022],[12.5586347,46.6572565],[12.558809,46.6564469],[12.5587803,46.6558531],[12.5591726,46.6551453],[12.5596023,46.6546958],[12.5595201,46.6540654],[12.5596213,46.6538293],[12.559784,46.6537106],[12.55976,46.6533801],[12.5599014,46.6531553],[12.5605075,46.653068],[12.560981,46.6528185],[12.5613568,46.6524926],[12.5618639,46.6526501],[12.5619825,46.6524848],[12.5627227,46.6524274],[12.5629805,46.6523125],[12.5639231,46.6522643],[12.5644468,46.6519481],[12.5650054,46.6517929],[12.5658364,46.651781],[12.5673911,46.6515153],[12.5680504,46.6515934],[12.5690379,46.6513702],[12.569523,46.6509887],[12.5702066,46.6506054],[12.5707619,46.6501293],[12.5714827,46.6498459],[12.572353,46.6493263],[12.572584,46.6491213],[12.5726647,46.6484748],[12.5709338,46.6454134],[12.5711813,46.6451255],[12.5710306,46.6441157],[12.5712495,46.6438191],[12.5709003,46.6429894],[12.5702272,46.6423536],[12.5701437,46.6419399],[12.5688833,46.6409068],[12.568211,46.640068],[12.5677417,46.6384789],[12.5677042,46.63791],[12.5675191,46.6374424],[12.5662398,46.6369705],[12.5637098,46.6349723],[12.5631269,46.6329326],[12.5625819,46.6314679],[12.5621815,46.630495],[12.5617496,46.6298998],[12.561266,46.627662],[12.5602895,46.6258181],[12.5620701,46.6255984],[12.5619023,46.6251785],[12.5642543,46.6238397],[12.5653187,46.6233911],[12.5665749,46.6233036],[12.5684012,46.6233528],[12.5695222,46.6220619],[12.5700496,46.6211276],[12.5704492,46.6208059],[12.5716755,46.6204777],[12.5730986,46.6193049],[12.5739326,46.6183416],[12.5744726,46.6173876],[12.5746266,46.6169576],[12.5743569,46.6166955],[12.5744365,46.6151404],[12.5725815,46.6146572],[12.572795,46.6141721],[12.5727708,46.6139111],[12.5723863,46.6137153],[12.5720243,46.6132241],[12.5722813,46.6130808],[12.5716704,46.6129597],[12.5701915,46.6123295],[12.570169,46.6121997],[12.5692845,46.6115472],[12.5695505,46.6113264],[12.569074,46.6108],[12.5689978,46.6105995],[12.5674984,46.6090171],[12.5670978,46.6088943],[12.5669502,46.6079278],[12.5665888,46.6078714],[12.5654961,46.6064994],[12.5646395,46.6060526],[12.5630067,46.6036081],[12.5627183,46.6033804],[12.5620413,46.6023578],[12.5612955,46.6015693],[12.5616151,46.6002425],[12.5625294,46.5998613],[12.5612471,46.5994967],[12.5604583,46.5990754],[12.5594934,46.5970077],[12.5594592,46.5959693],[12.560524,46.5956318],[12.5624802,46.5912832],[12.5600849,46.588728],[12.5597375,46.5884017],[12.5587796,46.587776],[12.5577424,46.5875976],[12.5546475,46.5878367],[12.5536867,46.5876839],[12.5521779,46.5872532],[12.5512162,46.5872925],[12.5508359,46.5866713],[12.5503821,46.5866901],[12.5503928,46.5861278],[12.5490368,46.5857484],[12.5473718,46.5850664],[12.546945,46.5847976],[12.5466764,46.5845031],[12.546205,46.5844696],[12.5462478,46.5842068],[12.5459875,46.5841942],[12.5458228,46.583814],[12.5447889,46.5838735],[12.5442017,46.5837473],[12.5434112,46.5838681],[12.5426213,46.5836931],[12.5425376,46.5836338],[12.5424685,46.58334],[12.5425616,46.5830825],[12.5427776,46.5828763],[12.5440233,46.5823894],[12.5457314,46.5811872],[12.5462977,46.581149],[12.5460941,46.5809351],[12.5458257,46.5807989],[12.5450024,46.5805698],[12.542879,46.5804499],[12.5425179,46.5801171],[12.5401882,46.579742],[12.5396528,46.5794902],[12.5389322,46.5794574],[12.5386992,46.5792514],[12.5372445,46.5785205],[12.5370414,46.5783134],[12.5365295,46.578116],[12.536003,46.5776919],[12.5356524,46.5775169],[12.5351947,46.5769256],[12.534716,46.5767752],[12.5342991,46.5768087],[12.5326417,46.575876],[12.5323055,46.5757694],[12.531585,46.5751242],[12.5298074,46.5741813],[12.529367,46.5736995],[12.5281893,46.5735432],[12.5277207,46.5732411],[12.526462,46.5728949],[12.5259286,46.572361],[12.5255395,46.571747],[12.52456,46.5712544],[12.5243373,46.5703464],[12.5234493,46.5707309],[12.5228843,46.5710874],[12.5220789,46.571801],[12.5218513,46.5720804],[12.5215761,46.5727124],[12.5214187,46.5728566],[12.5210673,46.5729885],[12.5204021,46.573021],[12.5194961,46.5739425],[12.5193339,46.5738575],[12.5186446,46.5740777],[12.5190675,46.5743734],[12.5195077,46.574257],[12.5194304,46.5746892],[12.5189257,46.5750316],[12.5191131,46.5753468],[12.5169186,46.5758966],[12.5163504,46.5753935],[12.515297,46.5758012],[12.5143412,46.5751527]]]},"properties":{"type":"boundary","gemeente":"San Nicolò di Comelico"}}]}