{"type":"FeatureCollection","metadata":{"gemeente":"San Lorenzo del Vallo","slug":"san-lorenzo-del-vallo","generated_at":"2026-09-26T13:10:37.498814Z","total_points":5,"providers":["PosteItaliane","InPost","GLS","DHL","Amazon"],"bounds":[16.2962142,39.6668765,16.30523,39.66809]},"features":[{"type":"Feature","geometry":{"type":"Point","coordinates":[16.30077404,39.66777727]},"properties":{"type":"pakketpunt","locatieNaam":"San Lorenzo Del Vallo","straatNaam":"Via Dei Caduti","straatNr":"74","vervoerder":"PosteItaliane","puntType":"postkantoor","bezettingsgraad":50,"latitude":39.66777727,"longitude":16.30077404,"canPickup":true,"canDropoff":true,"openingstijden":{"za":"08:20 - 12:45","zo":"gesloten","ma":"08:20 - 13:45","di":"08:20 - 13:45","wo":"08:20 - 13:45","do":"08:20 - 13:45","vr":"08:20 - 13:45"}}},{"type":"Feature","geometry":{"type":"Point","coordinates":[16.30523,39.66809]},"properties":{"type":"pakketpunt","locatieNaam":"InPost Locker","straatNaam":"Via San Domenico","straatNr":"snc","vervoerder":"InPost","puntType":"automaat","bezettingsgraad":50,"latitude":39.66809,"longitude":16.30523,"canPickup":true,"canDropoff":true,"openingstijden":null}},{"type":"Feature","geometry":{"type":"Point","coordinates":[16.2962142,39.6668765]},"properties":{"type":"pakketpunt","locatieNaam":"Tabaccheria Ciliberti","straatNaam":"Viale Della Liberta'","straatNr":"124","vervoerder":"GLS","puntType":"parcel_shop","bezettingsgraad":50,"latitude":39.6668765,"longitude":16.2962142,"canPickup":true,"canDropoff":true,"openingstijden":"za: 06:00 - 13:00, 15:30 - 21:00; zo: 08:00 - 13:00, 16:00 - 21:00"}},{"type":"Feature","geometry":{"type":"Point","coordinates":[16.300774,39.667777]},"properties":{"type":"pakketpunt","locatieNaam":"Ufficio Postale SAN LORENZO DEL VAL","straatNaam":"VIA DEI CADUTI 74","straatNr":"","vervoerder":"DHL","puntType":"postOffice","bezettingsgraad":50,"latitude":39.667777,"longitude":16.300774,"canPickup":true,"canDropoff":true,"openingstijden":{"ma":"08:20 - 13:45","di":"08:20 - 13:45","wo":"08:20 - 13:45","do":"08:20 - 13:45","vr":"08:20 - 13:45","za":"08:20 - 12:45","zo":"gesloten"}}},{"type":"Feature","geometry":{"type":"Point","coordinates":[16.3007,39.6677]},"properties":{"type":"pakketpunt","locatieNaam":"Ufficio Postale SAN LORENZO DEL VALLO","straatNaam":"VIA DEI CADUTI 74","straatNr":"","vervoerder":"Amazon","puntType":"3p","bezettingsgraad":50,"latitude":39.6677,"longitude":16.3007,"canPickup":true,"canDropoff":false,"openingstijden":null}},{"type":"Feature","geometry":{"type":"Polygon","coordinates":[[[16.2492978,39.6638193],[16.2536434,39.6624894],[16.2533775,39.6606932],[16.2541361,39.6588012],[16.2546829,39.6587579],[16.2549876,39.6588467],[16.2595874,39.6611488],[16.2606048,39.6626323],[16.2604816,39.6635353],[16.2623612,39.6649286],[16.2635064,39.665095],[16.2644543,39.6653637],[16.2649022,39.6655965],[16.2669804,39.6670222],[16.2671612,39.6673437],[16.2672678,39.6686865],[16.2668212,39.6698077],[16.2668342,39.6705941],[16.2673135,39.6712342],[16.2681459,39.6720905],[16.2685488,39.6718267],[16.2688939,39.6709998],[16.2687956,39.6700119],[16.2689564,39.669273],[16.26997,39.6679272],[16.2731202,39.6661724],[16.2756718,39.6648827],[16.2821534,39.662297],[16.2865454,39.6598413],[16.2871805,39.6596524],[16.2872671,39.6594524],[16.2877651,39.659069],[16.2879816,39.6587412],[16.2894178,39.65833],[16.2905076,39.6583078],[16.2920376,39.6580022],[16.2927491,39.6579753],[16.2929218,39.6592674],[16.2938064,39.6600973],[16.2945442,39.6605047],[16.2952377,39.6608049],[16.2966451,39.6611651],[16.298615,39.6620626],[16.2989477,39.6621213],[16.3005431,39.6620788],[16.3008696,39.6623821],[16.3033118,39.6654819],[16.3049244,39.664353],[16.3060477,39.6642227],[16.3070917,39.6642195],[16.3085894,39.6639826],[16.3049545,39.6693233],[16.3033709,39.6705071],[16.3021197,39.6722462],[16.301289,39.6736909],[16.3005717,39.6743714],[16.2992873,39.6749175],[16.2973929,39.6752596],[16.2967122,39.6755015],[16.29615,39.6755623],[16.2960017,39.6755006],[16.294017,39.6759817],[16.2928496,39.6763811],[16.2924199,39.6764732],[16.2909224,39.6764997],[16.2886381,39.6775015],[16.2863691,39.6790544],[16.2854805,39.6799922],[16.2848862,39.6809917],[16.2839687,39.6820884],[16.2832011,39.6825433],[16.2829055,39.6829576],[16.282268,39.6833209],[16.2815382,39.6836721],[16.2804146,39.6840717],[16.2796611,39.6844709],[16.2788525,39.6857445],[16.2789319,39.6860103],[16.2808423,39.6868194],[16.2814219,39.6873567],[16.281812,39.6880448],[16.2819758,39.6881145],[16.2817343,39.6889029],[16.2817574,39.6891142],[16.2819582,39.6893159],[16.2822273,39.6894987],[16.2836669,39.6899935],[16.2840464,39.6902609],[16.2846344,39.6904132],[16.2851423,39.6903859],[16.2864628,39.6889246],[16.286914,39.6890973],[16.2881622,39.6890794],[16.2899699,39.6899037],[16.2907333,39.6905328],[16.2899362,39.6914287],[16.2891186,39.6920706],[16.2887181,39.6925755],[16.2879396,39.6931408],[16.2882482,39.6934911],[16.2885109,39.6941752],[16.282849,39.6992196],[16.2857373,39.7060334],[16.2836098,39.7095279],[16.2823427,39.7109843],[16.2810567,39.7120236],[16.2631679,39.7110677],[16.2510284,39.7107001],[16.2448982,39.7063805],[16.2442594,39.7058583],[16.2272081,39.6875427],[16.2262536,39.6863789],[16.2256064,39.6854117],[16.2322162,39.6741433],[16.2337698,39.6716528],[16.2340803,39.6714133],[16.2355912,39.6717862],[16.235991,39.6719771],[16.2367369,39.6726366],[16.240807,39.673965],[16.243196,39.6746384],[16.2471855,39.6754048],[16.2532091,39.675751],[16.2599074,39.6749021],[16.2602481,39.6743236],[16.2603919,39.6738782],[16.2603852,39.6734828],[16.2596801,39.6718852],[16.2581065,39.6687407],[16.2537107,39.6686885],[16.2517403,39.668753],[16.2509779,39.6683427],[16.2491203,39.6649551],[16.2492978,39.6638193]]]},"properties":{"type":"boundary","gemeente":"San Lorenzo del Vallo"}}]}