{"type":"FeatureCollection","metadata":{"gemeente":"San Mango d'Aquino","slug":"san-mango-d-aquino","generated_at":"2026-09-26T13:10:37.588730Z","total_points":3,"providers":["PosteItaliane","DHL","Amazon"],"bounds":[16.191,39.0583,16.19104832,39.05838148]},"features":[{"type":"Feature","geometry":{"type":"Point","coordinates":[16.19104832,39.05838148]},"properties":{"type":"pakketpunt","locatieNaam":"San Mango D'aquino","straatNaam":"Via Cavour","straatNr":"22","vervoerder":"PosteItaliane","puntType":"postkantoor","bezettingsgraad":50,"latitude":39.05838148,"longitude":16.19104832,"canPickup":true,"canDropoff":true,"openingstijden":{"za":"08:20 - 12:35","zo":"gesloten","ma":"08:20 - 13:35","di":"08:20 - 13:35","wo":"08:20 - 13:35","do":"08:20 - 13:35","vr":"08:20 - 13:35"}}},{"type":"Feature","geometry":{"type":"Point","coordinates":[16.191048,39.058381]},"properties":{"type":"pakketpunt","locatieNaam":"Ufficio Postale SAN MANGO D'AQUINO","straatNaam":"VIA CAVOUR 22","straatNr":"","vervoerder":"DHL","puntType":"postOffice","bezettingsgraad":50,"latitude":39.058381,"longitude":16.191048,"canPickup":true,"canDropoff":true,"openingstijden":{"ma":"08:20 - 13:35","di":"08:20 - 13:35","wo":"08:20 - 13:35","do":"08:20 - 13:35","vr":"08:20 - 13:35","za":"08:20 - 12:35","zo":"gesloten"}}},{"type":"Feature","geometry":{"type":"Point","coordinates":[16.191,39.0583]},"properties":{"type":"pakketpunt","locatieNaam":"Ufficio Postale SAN MANGO D'AQUINO","straatNaam":"VIA CAVOUR 22","straatNr":"","vervoerder":"Amazon","puntType":"3p","bezettingsgraad":50,"latitude":39.0583,"longitude":16.191,"canPickup":true,"canDropoff":false,"openingstijden":null}},{"type":"Feature","geometry":{"type":"Polygon","coordinates":[[[16.1461391,39.0533945],[16.1572794,39.0529783],[16.1596966,39.0552088],[16.1646618,39.0585099],[16.1664345,39.0594755],[16.1681764,39.0600516],[16.1722251,39.0601927],[16.1736112,39.060107],[16.1739765,39.060042],[16.17587,39.0518374],[16.181535,39.0517215],[16.2039273,39.0492409],[16.2066291,39.0472692],[16.2088102,39.0454462],[16.210042,39.0445778],[16.2161402,39.0430708],[16.214325,39.0495752],[16.2118102,39.0520522],[16.2097592,39.0551852],[16.2027353,39.0609372],[16.1982335,39.0616125],[16.1969978,39.0634605],[16.1960634,39.064526],[16.194464,39.0657601],[16.1929882,39.0715933],[16.1888073,39.0746943],[16.1875385,39.0739677],[16.1837462,39.0711843],[16.1829988,39.0707448],[16.1753819,39.0679819],[16.1687909,39.065713],[16.1567188,39.0618521],[16.1529197,39.0598777],[16.148879,39.0572973],[16.1479461,39.0560908],[16.1461391,39.0533945]]]},"properties":{"type":"boundary","gemeente":"San Mango d'Aquino"}}]}