{"type":"FeatureCollection","metadata":{"gemeente":"Sannazzaro de' Burgondi","slug":"sannazzaro-de-burgondi","generated_at":"2026-09-26T14:27:59.076656Z","total_points":9,"providers":["PosteItaliane","DPD","GLS","DHL","Amazon","FedEx"],"bounds":[8.9001509,45.10280729,8.911162873980206,45.1051262]},"features":[{"type":"Feature","geometry":{"type":"Point","coordinates":[8.90679131,45.10280729]},"properties":{"type":"pakketpunt","locatieNaam":"Sannazzaro De' Burgondi","straatNaam":"Piazza Del Popolo","straatNr":"8","vervoerder":"PosteItaliane","puntType":"postkantoor","bezettingsgraad":50,"latitude":45.10280729,"longitude":8.90679131,"canPickup":true,"canDropoff":true,"openingstijden":{"ma":"gesloten","di":"gesloten","wo":"gesloten","do":"gesloten","vr":"gesloten","za":"gesloten","zo":"gesloten"}}},{"type":"Feature","geometry":{"type":"Point","coordinates":[8.90929487,45.10429101]},"properties":{"type":"pakketpunt","locatieNaam":"Tabaccheria N. 2","straatNaam":"Piazza Cesare Battisti","straatNr":"15","vervoerder":"PosteItaliane","puntType":"servicepunt","bezettingsgraad":50,"latitude":45.10429101,"longitude":8.90929487,"canPickup":true,"canDropoff":true,"openingstijden":{"za":"06:00 - 13:00, 17:00 - 23:00","zo":"07:00 - 13:00, 17:00 - 23:00","ma":"gesloten","di":"06:00 - 13:00, 17:00 - 23:00","wo":"06:00 - 13:00, 17:00 - 23:00","do":"06:00 - 13:00, 17:00 - 23:00","vr":"06:00 - 13:00, 17:00 - 23:00"}}},{"type":"Feature","geometry":{"type":"Point","coordinates":[8.9093331,45.1041246]},"properties":{"type":"pakketpunt","locatieNaam":"Erboristeria Dott. Pietra","straatNaam":"VIA MAZZINI","straatNr":"1","vervoerder":"DPD","puntType":"pickup_point","bezettingsgraad":50,"latitude":45.1041246,"longitude":8.9093331,"canPickup":true,"canDropoff":true,"openingstijden":{"ma":"15:30 - 19:30","di":"09:00 - 12:30, 15:30 - 19:30","wo":"09:00 - 12:30, 15:30 - 19:30","do":"09:00 - 12:30, 15:30 - 19:30","vr":"09:00 - 12:30, 15:30 - 19:30","za":"09:00 - 12:30, 15:30 - 19:30","zo":"gesloten"}}},{"type":"Feature","geometry":{"type":"Point","coordinates":[8.9110771,45.1046431]},"properties":{"type":"pakketpunt","locatieNaam":"cartoleria del viale","straatNaam":"Viale Italia","straatNr":"13","vervoerder":"GLS","puntType":"parcel_shop","bezettingsgraad":50,"latitude":45.1046431,"longitude":8.9110771,"canPickup":true,"canDropoff":true,"openingstijden":"za: 05:30 - 12:00, 16:00 - 19:00; zo: 05:30 - 12:00"}},{"type":"Feature","geometry":{"type":"Point","coordinates":[8.909295,45.104291]},"properties":{"type":"pakketpunt","locatieNaam":"TABACCHERIA N. 2","straatNaam":"PIAZZA CESARE BATTISTI 15","straatNr":"","vervoerder":"DHL","puntType":"parcelShop","bezettingsgraad":50,"latitude":45.104291,"longitude":8.909295,"canPickup":true,"canDropoff":true,"openingstijden":{"ma":"gesloten","di":"06:00 - 13:00, 17:00 - 23:00","wo":"06:00 - 13:00, 17:00 - 23:00","do":"06:00 - 13:00, 17:00 - 23:00","vr":"06:00 - 13:00, 17:00 - 23:00","za":"06:00 - 13:00, 17:00 - 23:00","zo":"07:00 - 13:00, 17:00 - 23:00"}}},{"type":"Feature","geometry":{"type":"Point","coordinates":[8.909906,45.104388]},"properties":{"type":"pakketpunt","locatieNaam":"Amazon Counter - TABACCHI VIGLONGO","straatNaam":"PIAZZA C BATTISTI 15","straatNr":"","vervoerder":"Amazon","puntType":"helix","bezettingsgraad":50,"latitude":45.104388,"longitude":8.909906,"canPickup":true,"canDropoff":false,"openingstijden":null}},{"type":"Feature","geometry":{"type":"Point","coordinates":[8.90929,45.1042]},"properties":{"type":"pakketpunt","locatieNaam":"PuntoPoste TABACCHERIA N. 2","straatNaam":"PIAZZA CESARE BATTISTI 15","straatNr":"","vervoerder":"Amazon","puntType":"3p","bezettingsgraad":50,"latitude":45.1042,"longitude":8.90929,"canPickup":true,"canDropoff":false,"openingstijden":null}},{"type":"Feature","geometry":{"type":"Point","coordinates":[8.9001509,45.1051262]},"properties":{"type":"pakketpunt","locatieNaam":"Amazon Locker - ombelico","straatNaam":"Gulliver SANNAZZARO DE BURGONDI","straatNr":"","vervoerder":"Amazon","puntType":"locker","bezettingsgraad":50,"latitude":45.1051262,"longitude":8.9001509,"canPickup":true,"canDropoff":false,"openingstijden":null}},{"type":"Feature","geometry":{"type":"Point","coordinates":[8.911162873980206,45.10458593854543]},"properties":{"type":"pakketpunt","locatieNaam":"FedEx OnSite","straatNaam":"viale italia, 13","straatNr":"","vervoerder":"FedEx","puntType":"servicepunt","bezettingsgraad":50,"latitude":45.10458593854543,"longitude":8.911162873980206,"canPickup":true,"canDropoff":true,"openingstijden":{"ma":"05:30 - 12:00, 16:00 - 19:00","di":"05:30 - 12:00, 16:00 - 19:00","wo":"05:30 - 12:00, 16:00 - 19:00","do":"05:30 - 12:00, 16:00 - 19:00","vr":"05:30 - 12:00, 16:00 - 19:00","za":"05:30 - 12:00, 16:00 - 19:00","zo":"05:30 - 12:00"}}},{"type":"Feature","geometry":{"type":"Polygon","coordinates":[[[8.8822632,45.0742989],[8.8844586,45.0723567],[8.883913,45.0712715],[8.8849293,45.071259],[8.8853473,45.0710794],[8.8860351,45.070972],[8.8862343,45.0706032],[8.8864091,45.0705043],[8.887702,45.0703751],[8.8881845,45.0704656],[8.8881386,45.070652],[8.8878246,45.0710098],[8.8887051,45.0730901],[8.889833,45.0728572],[8.8899711,45.0729023],[8.8902189,45.0736767],[8.8908532,45.0741679],[8.8912298,45.0748884],[8.8913892,45.0754152],[8.8932925,45.078401],[8.8936159,45.0787299],[8.8946199,45.079406],[8.8944236,45.0799369],[8.8947444,45.0799237],[8.8951743,45.0802301],[8.8951867,45.0804102],[8.8949052,45.0806125],[8.8949018,45.0807385],[8.8953937,45.080991],[8.8955315,45.0811757],[8.8958108,45.0821616],[8.8967906,45.0813838],[8.8969542,45.081393],[8.8973857,45.0825276],[8.8980048,45.0836444],[8.8988625,45.0845273],[8.900236,45.0856718],[8.903616,45.0866514],[8.9044465,45.0867691],[8.9048946,45.0866749],[8.9057934,45.0867702],[8.9063134,45.0864511],[8.9099879,45.0860445],[8.911116,45.0858293],[8.9116929,45.0856182],[8.9120803,45.0856905],[8.9134786,45.085327],[8.9148987,45.0852336],[8.9150774,45.0836314],[8.9160018,45.0836681],[8.9164402,45.0835964],[8.9164816,45.0835379],[8.9162724,45.0832182],[8.9157523,45.0826687],[8.9154454,45.0818178],[8.9154925,45.0811112],[8.9156903,45.0805397],[8.9161122,45.0798199],[8.9167169,45.0790237],[8.9161914,45.0788433],[8.9154942,45.0788383],[8.9157228,45.0778482],[8.9161118,45.0768088],[8.9158854,45.0752874],[8.9165991,45.0736721],[8.9171101,45.0728488],[8.9172378,45.0723583],[8.9171301,45.0721737],[8.9171104,45.0715165],[8.9172688,45.0707245],[8.91787,45.0700588],[8.9181135,45.0696629],[8.9186923,45.0691052],[8.9195855,45.0685252],[8.9205704,45.0681748],[8.9221379,45.0680139],[8.9231944,45.0675915],[8.923404,45.0675871],[8.9240065,45.0670745],[8.925779,45.066693],[8.9270584,45.0669594],[8.9276142,45.0669373],[8.9289901,45.0662765],[8.9299209,45.0660025],[8.9314031,45.0653643],[8.9320479,45.0651667],[8.9353585,45.0693634],[8.9388406,45.0680781],[8.939602,45.0688302],[8.940381,45.0694022],[8.94182,45.0706857],[8.9420843,45.0715275],[8.9401554,45.0756898],[8.9380067,45.080077],[8.9372887,45.0802387],[8.9361802,45.0802245],[8.9350417,45.0799808],[8.9336906,45.0795705],[8.9322233,45.0794076],[8.9290911,45.0797027],[8.9271927,45.0800661],[8.9233049,45.0811753],[8.922709,45.0814404],[8.9221764,45.0818226],[8.9215132,45.0824883],[8.9212373,45.0832938],[8.9211683,45.0838203],[8.92138,45.0846171],[8.9219858,45.0853107],[8.9223825,45.0856305],[8.9233666,45.0861353],[8.9246813,45.0865187],[8.9236184,45.0878818],[8.9233573,45.0883632],[8.9230452,45.0900778],[8.9234862,45.0917029],[8.923922,45.0925359],[8.9246311,45.0933105],[8.9256105,45.0938557],[8.9273238,45.0944599],[8.9293362,45.0947313],[8.9319148,45.0945078],[8.9335708,45.0939237],[8.9341461,45.09369],[8.9349792,45.0931413],[8.9353656,45.0927635],[8.9363941,45.0921384],[8.9375994,45.0910409],[8.9387701,45.0895698],[8.9388423,45.0888812],[8.9386,45.0867341],[8.9487054,45.0829989],[8.9496642,45.0818606],[8.9491442,45.0807667],[8.9491765,45.0801591],[8.9489718,45.0799024],[8.9487766,45.0798033],[8.9486341,45.0793397],[8.9479131,45.0792313],[8.9469476,45.077453],[8.9479452,45.0771024],[8.951345,45.0719189],[8.9528333,45.0714964],[8.9536329,45.0723069],[8.9511087,45.0771398],[8.9529599,45.0797691],[8.949544,45.0830398],[8.9483172,45.0837324],[8.9485062,45.0873512],[8.9486873,45.0873422],[8.9490886,45.087932],[8.9503487,45.0892874],[8.9509963,45.0898007],[8.952014,45.0903863],[8.9522839,45.0906384],[8.9532701,45.0928623],[8.9539655,45.095311],[8.9540346,45.0962832],[8.9539773,45.0964813],[8.9526122,45.0989066],[8.9515403,45.1002114],[8.9508688,45.1014804],[8.9505169,45.1023579],[8.9486197,45.1025101],[8.9477927,45.101632],[8.9477548,45.1014025],[8.9457346,45.1023017],[8.9453278,45.1023735],[8.9446746,45.1026343],[8.9450823,45.1032106],[8.9442161,45.1034982],[8.943908,45.1033495],[8.9431596,45.1034572],[8.9420295,45.1038347],[8.9424625,45.104672],[8.9398565,45.1048147],[8.9383742,45.1047014],[8.9379196,45.1048992],[8.937989,45.1053808],[8.9382825,45.1057726],[8.938055,45.106029],[8.9372015,45.1063256],[8.9364101,45.1064196],[8.9431738,45.1084081],[8.9408152,45.1104143],[8.9389246,45.1116375],[8.9371447,45.1131623],[8.9365611,45.1135761],[8.9360126,45.1138098],[8.9324496,45.1166028],[8.9351398,45.1182831],[8.9344447,45.1188634],[8.9352801,45.1193094],[8.9345464,45.1202002],[8.9326316,45.119983],[8.9324056,45.1202124],[8.9320813,45.1203247],[8.931905,45.1202256],[8.9314185,45.1203558],[8.9313246,45.1204683],[8.9309495,45.1204501],[8.9308222,45.1205805],[8.9305234,45.1206479],[8.9301873,45.1212418],[8.929968,45.1211921],[8.9295069,45.1213314],[8.9293687,45.1212998],[8.9289043,45.1215515],[8.9281904,45.1220993],[8.9279734,45.1218603],[8.9274277,45.1202203],[8.9262934,45.12064],[8.9260184,45.1208466],[8.9249522,45.1207287],[8.9226694,45.1228124],[8.9196454,45.1218581],[8.9183666,45.1212218],[8.9177318,45.1212472],[8.9171648,45.1208045],[8.9159789,45.1206008],[8.913954,45.1207503],[8.9109706,45.1212913],[8.9091165,45.120638],[8.9081636,45.1204781],[8.9072855,45.1202078],[8.9103046,45.1172257],[8.9072705,45.1160687],[8.9045437,45.1203468],[8.9020488,45.1199177],[8.9006287,45.1195509],[8.9006359,45.1190224],[8.9005759,45.1189374],[8.8995149,45.1184119],[8.8995452,45.1181711],[8.8987542,45.1180851],[8.8980287,45.1177099],[8.8946874,45.1169399],[8.8917781,45.1165851],[8.8908613,45.1166624],[8.8907462,45.1166498],[8.8906536,45.1165015],[8.8903679,45.116519],[8.8901919,45.1166436],[8.88957,45.1164938],[8.8871381,45.1168919],[8.8869015,45.1170122],[8.886786,45.1171759],[8.8866188,45.1174704],[8.8866526,45.1176564],[8.8863878,45.1177033],[8.8862886,45.1179329],[8.8862061,45.1179532],[8.8852343,45.1175452],[8.8848665,45.1176256],[8.8846723,45.1175671],[8.884188,45.117619],[8.8841937,45.1179232],[8.8839805,45.1180445],[8.8827785,45.1183043],[8.882135,45.1182271],[8.8805225,45.118698],[8.8801406,45.1189362],[8.8798163,45.1189628],[8.8796909,45.1189087],[8.8795342,45.118598],[8.878949,45.1180213],[8.8788826,45.1178367],[8.8794495,45.1150422],[8.879008,45.1149067],[8.8789176,45.1148076],[8.8794062,45.1129718],[8.8778997,45.1129702],[8.8789406,45.1122017],[8.8804185,45.1113976],[8.8820007,45.1100985],[8.8819921,45.1096484],[8.8821058,45.1092299],[8.8820386,45.1086987],[8.8841944,45.1081158],[8.8841599,45.1078953],[8.8849186,45.107518],[8.8852974,45.1072303],[8.8842005,45.1058744],[8.8837167,45.1062475],[8.8829788,45.1065843],[8.8822047,45.1067005],[8.8813356,45.1066861],[8.8813067,45.1068346],[8.8810951,45.1069874],[8.8792565,45.1078137],[8.8789445,45.1080789],[8.8784012,45.1087624],[8.8780879,45.1089016],[8.8778877,45.1088969],[8.877694,45.1088292],[8.8775106,45.1083744],[8.8776996,45.107695],[8.8780844,45.1075694],[8.8781275,45.1074794],[8.8779105,45.1056653],[8.8773781,45.1056963],[8.8777836,45.1047875],[8.8751796,45.1039971],[8.8788724,45.0925734],[8.8787504,45.0893911],[8.8784723,45.0864428],[8.8784268,45.0839357],[8.8781361,45.0839399],[8.8781289,45.0828507],[8.8775666,45.0828771],[8.8773627,45.0824268],[8.8784497,45.0821084],[8.8791238,45.0817625],[8.8797951,45.0812862],[8.8807054,45.0811431],[8.8815653,45.0815851],[8.8827583,45.0807131],[8.8828175,45.0805197],[8.8824702,45.0802447],[8.8831593,45.0795478],[8.8840691,45.0788646],[8.884619,45.0787076],[8.8846749,45.0785097],[8.8846023,45.0783206],[8.8844357,45.0782034],[8.8858135,45.076985],[8.8845702,45.0769162],[8.8832566,45.0769824],[8.8829894,45.0756409],[8.8822632,45.0742989]]]},"properties":{"type":"boundary","gemeente":"Sannazzaro de' Burgondi"}}]}