{"type":"FeatureCollection","metadata":{"gemeente":"Sant'Olcese","slug":"sant-olcese","generated_at":"2026-09-26T14:27:59.842926Z","total_points":5,"providers":["PosteItaliane","DPD","DHL"],"bounds":[8.923098,44.47731052,8.968673,44.4836899]},"features":[{"type":"Feature","geometry":{"type":"Point","coordinates":[8.96844917,44.48341201]},"properties":{"type":"pakketpunt","locatieNaam":"Sant'olcese","straatNaam":"Piazza Guglielmo Marconi","straatNr":"19","vervoerder":"PosteItaliane","puntType":"postkantoor","bezettingsgraad":50,"latitude":44.48341201,"longitude":8.96844917,"canPickup":true,"canDropoff":true,"openingstijden":{"za":"08:20 - 12:35","zo":"gesloten","ma":"08:20 - 13:35","di":"08:20 - 13:35","wo":"08:20 - 13:35","do":"08:20 - 13:35","vr":"08:20 - 13:35"}}},{"type":"Feature","geometry":{"type":"Point","coordinates":[8.9230982,44.47731052]},"properties":{"type":"pakketpunt","locatieNaam":"Manesseno","straatNaam":"Via Giacomo Poire'","straatNr":"12","vervoerder":"PosteItaliane","puntType":"postkantoor","bezettingsgraad":50,"latitude":44.47731052,"longitude":8.9230982,"canPickup":true,"canDropoff":true,"openingstijden":{"za":"08:20 - 12:35","zo":"gesloten","ma":"08:20 - 13:35","di":"08:20 - 13:35","wo":"08:20 - 13:35","do":"08:20 - 13:35","vr":"08:20 - 13:35"}}},{"type":"Feature","geometry":{"type":"Point","coordinates":[8.968673,44.4836899]},"properties":{"type":"pakketpunt","locatieNaam":"Altamura Alimentari Tabacchi","straatNaam":"PIAZZA G. MARCONI","straatNr":"4","vervoerder":"DPD","puntType":"pickup_point","bezettingsgraad":50,"latitude":44.4836899,"longitude":8.968673,"canPickup":true,"canDropoff":true,"openingstijden":{"ma":"07:00 - 12:30, 15:30 - 19:00","di":"07:00 - 12:30, 15:30 - 19:00","wo":"07:00 - 12:30, 15:30 - 19:00","do":"07:00 - 12:30, 15:30 - 19:00","vr":"07:00 - 12:30, 15:30 - 19:00","za":"07:00 - 12:30, 15:30 - 19:00","zo":"gesloten"}}},{"type":"Feature","geometry":{"type":"Point","coordinates":[8.923098,44.477311]},"properties":{"type":"pakketpunt","locatieNaam":"Ufficio Postale MANESSENO","straatNaam":"VIA GIACOMO POIRE 12","straatNr":"","vervoerder":"DHL","puntType":"postOffice","bezettingsgraad":50,"latitude":44.477311,"longitude":8.923098,"canPickup":true,"canDropoff":true,"openingstijden":{"ma":"08:20 - 13:35","di":"08:20 - 13:35","wo":"08:20 - 13:35","do":"08:20 - 13:35","vr":"08:20 - 13:35","za":"08:20 - 12:35","zo":"gesloten"}}},{"type":"Feature","geometry":{"type":"Point","coordinates":[8.968449,44.483412]},"properties":{"type":"pakketpunt","locatieNaam":"Ufficio Postale SANT'OLCESE","straatNaam":"PIAZZA GUGLIELMO MARCONI 19","straatNr":"","vervoerder":"DHL","puntType":"postOffice","bezettingsgraad":50,"latitude":44.483412,"longitude":8.968449,"canPickup":true,"canDropoff":true,"openingstijden":{"ma":"08:20 - 13:35","di":"08:20 - 13:35","wo":"08:20 - 13:35","do":"08:20 - 13:35","vr":"08:20 - 13:35","za":"08:20 - 12:35","zo":"gesloten"}}},{"type":"Feature","geometry":{"type":"Polygon","coordinates":[[[8.9216589,44.4839351],[8.9218827,44.4851096],[8.9219079,44.4865192],[8.9220881,44.4871622],[8.9219765,44.4877132],[8.921719,44.4881235],[8.9217963,44.4886195],[8.9221053,44.489293],[8.9229981,44.4906535],[8.9231897,44.4910765],[8.9231964,44.49135],[8.9241946,44.4915775],[8.9243229,44.4920052],[8.9247489,44.4920359],[8.9248764,44.4919448],[8.9252613,44.4921285],[8.92573,44.4919758],[8.9262845,44.4923734],[8.9267109,44.4920991],[8.9271792,44.4922828],[8.9280757,44.4919773],[8.928588,44.4921306],[8.9291826,44.4931697],[8.9293538,44.4932913],[8.929567,44.4938418],[8.930205,44.4940863],[8.9309739,44.4939957],[8.932211,44.4941483],[8.9331483,44.4939654],[8.9333179,44.4954937],[8.9338281,44.4961962],[8.9339987,44.4968682],[8.9346382,44.497205],[8.9347658,44.497052],[8.9351066,44.4973572],[8.9354903,44.4973574],[8.9356614,44.4975409],[8.9360029,44.4972665],[8.9363016,44.4973275],[8.9363856,44.4981828],[8.9365993,44.4983056],[8.936514,44.4986409],[8.9371101,44.4984893],[8.937068,44.4981528],[8.9378795,44.4979394],[8.938391,44.4975121],[8.9388171,44.4974819],[8.9391594,44.4979401],[8.9392861,44.4985816],[8.9400113,44.4982151],[8.9407786,44.4981851],[8.9414187,44.4979717],[8.9421015,44.4976063],[8.9430667,44.4977373],[8.9434757,44.497598],[8.9441301,44.4972202],[8.9451122,44.4961763],[8.9463307,44.4961229],[8.9475885,44.4962135],[8.9488087,44.496025],[8.9497021,44.4956653],[8.9503814,44.4954855],[8.9510983,44.4955039],[8.9527084,44.4953695],[8.953573,44.4955859],[8.9558605,44.4956769],[8.9568166,44.4955287],[8.9578605,44.4955201],[8.9637954,44.4960127],[8.965217,44.495563],[8.9669968,44.495469],[8.9670657,44.4960126],[8.966812,44.4971165],[8.9669958,44.497282],[8.9669737,44.4974789],[8.9672722,44.4978413],[8.9674104,44.4981711],[8.9677781,44.4985178],[8.9673777,44.5003621],[8.9676637,44.5007898],[8.9689764,44.5011334],[8.9692985,44.501641],[8.9696805,44.5017683],[8.9698883,44.5012833],[8.9702106,44.5013464],[8.9712418,44.5020421],[8.9714777,44.5018734],[8.9716839,44.5014942],[8.9720661,44.5012411],[8.9724483,44.5011152],[8.9727438,44.5012199],[8.9728019,44.5015361],[8.972448,44.5017048],[8.9726837,44.5019795],[8.9731255,44.502127],[8.973803,44.5026122],[8.9743627,44.5028227],[8.9750685,44.5033079],[8.9755387,44.5033294],[8.9758923,44.5037931],[8.97654,44.5041939],[8.9781296,44.5045318],[8.9785463,44.504479],[8.979007,44.5046636],[8.979455,44.5051847],[8.9801908,44.505375],[8.9806029,44.5052063],[8.9814866,44.5053752],[8.9820748,44.5049961],[8.9824868,44.5049534],[8.9845782,44.5050381],[8.9849903,44.5048907],[8.9858441,44.5048492],[8.9868738,44.5060928],[8.9887295,44.5053976],[8.9889638,44.5055866],[8.9892594,44.5055867],[8.9904955,44.5052075],[8.9910553,44.505418],[8.9912895,44.50584],[8.9916732,44.5059672],[8.9922613,44.5059673],[8.9929092,44.5058401],[8.9937049,44.5055026],[8.9942648,44.505461],[8.9945887,44.5052922],[8.9950007,44.5055454],[8.9962367,44.5056512],[8.9968845,44.5058617],[8.9978862,44.5058403],[8.9983265,44.5063468],[8.9998723,44.5073899],[9.001128,44.5074653],[9.0011822,44.5073933],[9.0006287,44.506376],[9.0005532,44.5057098],[9.0005909,44.5051967],[9.0003016,44.5047826],[9.0002387,44.5043954],[9.0007922,44.5033691],[9.0003393,44.5020277],[9.0001755,44.4995585],[8.9996978,44.4986788],[8.9994085,44.4975579],[8.9996098,44.4970898],[9.0006412,44.4964326],[9.0026411,44.4958474],[9.0032684,44.4954783],[9.0039727,44.4943653],[9.0049662,44.4938847],[9.0063749,44.4934435],[9.0076325,44.4926782],[9.0080098,44.49203],[9.0075317,44.4912288],[9.0070915,44.4907967],[9.0069908,44.4904546],[9.0070662,44.4901305],[9.0066888,44.4889107],[9.0062989,44.4881545],[9.0054561,44.4869797],[9.004854,44.4858274],[9.0046849,44.4853283],[9.001977,44.4844985],[9.0014602,44.4842094],[8.9997584,44.4835326],[8.9977284,44.4830424],[8.9965808,44.4829704],[8.9959046,44.4828397],[8.9958199,44.4827497],[8.9953674,44.4826249],[8.9945024,44.4821248],[8.9940216,44.481568],[8.993926,44.4813418],[8.9933463,44.4811852],[8.9924092,44.4807067],[8.9914552,44.4804897],[8.9908657,44.4801034],[8.9896668,44.4796017],[8.9891807,44.4790233],[8.9879144,44.4790882],[8.987001,44.4786788],[8.9863799,44.4782612],[8.9861182,44.4779874],[8.98595,44.4779358],[8.9855257,44.4775094],[8.9847865,44.4771197],[8.9845106,44.4766852],[8.9840987,44.4762553],[8.9834822,44.476173],[8.9820064,44.47621],[8.9812069,44.4760694],[8.9805856,44.4759084],[8.9798597,44.4755152],[8.9788072,44.4751394],[8.9774918,44.4750582],[8.9766087,44.4745819],[8.9749691,44.474281],[8.9747134,44.4741424],[8.9733144,44.4739068],[8.9729235,44.4739213],[8.9719537,44.4736906],[8.9713592,44.4736319],[8.9708534,44.4736805],[8.9696342,44.4734851],[8.9692429,44.4733332],[8.9683848,44.4731798],[8.967787,44.4731945],[8.9671993,44.4733292],[8.9665414,44.4730197],[8.964896,44.4729337],[8.9642361,44.4725746],[8.9630794,44.4717099],[8.9620212,44.4705483],[8.9609862,44.4701132],[8.9604504,44.4691778],[8.9599652,44.468726],[8.9594577,44.4678646],[8.9592522,44.4677504],[8.9591272,44.4673453],[8.9591944,44.4671148],[8.9588235,44.4670058],[8.9582728,44.4662482],[8.9580301,44.4655594],[8.9582851,44.464595],[8.9586057,44.4640405],[8.958006,44.4634449],[8.9576809,44.4629741],[8.9579483,44.4629138],[8.9581746,44.4625442],[8.9585777,44.4621235],[8.9587033,44.4618909],[8.958746,44.4613632],[8.9591671,44.4612013],[8.9596032,44.4608739],[8.9599237,44.4605937],[8.9601913,44.4601034],[8.9599025,44.4598535],[8.959632,44.4594311],[8.9594632,44.4587571],[8.9598459,44.4576328],[8.9599305,44.4571154],[8.9601998,44.4566903],[8.9581477,44.4549392],[8.9580934,44.4548122],[8.9579215,44.4547523],[8.9573813,44.4548167],[8.9569919,44.4545352],[8.9563612,44.4542757],[8.9566918,44.4538381],[8.9574369,44.4535867],[8.958054,44.4535992],[8.9583861,44.453167],[8.9602182,44.4527681],[8.9605053,44.4527986],[8.959443,44.4513163],[8.9586926,44.4509414],[8.9572687,44.4513311],[8.9561259,44.4517606],[8.953976,44.4527713],[8.9537611,44.4529167],[8.9529666,44.4538737],[8.9523318,44.4538738],[8.9512409,44.4545733],[8.9507035,44.4546054],[8.9499564,44.4545001],[8.9491407,44.454275],[8.9484352,44.454286],[8.947219,44.4545683],[8.9457798,44.4546941],[8.9440358,44.4542605],[8.9436257,44.4540815],[8.9430899,44.454072],[8.9429271,44.4536623],[8.9418619,44.453755],[8.9415042,44.4533175],[8.9409115,44.4534305],[8.9407454,44.4532145],[8.9388943,44.4536387],[8.938594,44.4540481],[8.9381329,44.4544747],[8.9374596,44.455649],[8.936785,44.4561752],[8.9363239,44.4567579],[8.9364832,44.4573532],[8.9375625,44.4589286],[8.9376117,44.4591006],[8.9374972,44.4592053],[8.9374565,44.4597059],[8.9355635,44.4595409],[8.9346278,44.4599068],[8.9338269,44.4599884],[8.9329131,44.4603326],[8.9323469,44.4606316],[8.9318109,44.4612792],[8.9313798,44.4616243],[8.9312884,44.4620586],[8.9316051,44.4626059],[8.9312632,44.4630591],[8.9310869,44.4631761],[8.9302138,44.4630878],[8.9293679,44.4633178],[8.9287107,44.4633843],[8.9289387,44.4637051],[8.9290021,44.4640617],[8.9291137,44.4641087],[8.9293256,44.4644762],[8.9299952,44.4647107],[8.9301765,44.4649123],[8.9305755,44.4651304],[8.9305832,44.4652973],[8.9308073,44.4653946],[8.9310337,44.4656249],[8.9309582,44.4659704],[8.9316731,44.4662634],[8.9318762,44.466028],[8.9321699,44.4660135],[8.9335245,44.4660292],[8.9336564,44.4661127],[8.9342514,44.4662017],[8.934368,44.4663419],[8.9333961,44.4666236],[8.9328264,44.4672756],[8.9343173,44.4677413],[8.9344407,44.4682816],[8.934906,44.4682028],[8.9351796,44.4683395],[8.9351774,44.4687883],[8.93527,44.4690718],[8.9351186,44.4695658],[8.9351024,44.4700082],[8.9340776,44.4699761],[8.9336144,44.4700454],[8.9331391,44.4703425],[8.9329538,44.4705604],[8.9327276,44.4703015],[8.9326601,44.4700978],[8.9323129,44.4700304],[8.9321223,44.4703398],[8.9317497,44.4706277],[8.9308042,44.4710792],[8.9308844,44.4713327],[8.9308418,44.4714403],[8.9306513,44.4717017],[8.9302707,44.4718424],[8.9297811,44.4723516],[8.929608,44.4727135],[8.9295806,44.4731456],[8.9291006,44.4735292],[8.9286534,44.4732679],[8.928223,44.4733353],[8.9280527,44.4734623],[8.9279007,44.4732188],[8.9278771,44.4730133],[8.9286041,44.4725104],[8.9286045,44.4721709],[8.9282931,44.4721334],[8.9276897,44.4722208],[8.927158,44.4723857],[8.9271871,44.4730012],[8.9271067,44.4732577],[8.9266775,44.4736581],[8.9264849,44.4740326],[8.9259507,44.4741134],[8.9253377,44.4744786],[8.9250116,44.4747701],[8.9249422,44.4748506],[8.9249418,44.4751414],[8.9250513,44.4754802],[8.9243377,44.4755146],[8.9242217,44.4756687],[8.9241896,44.4758081],[8.9245291,44.4762788],[8.9245237,44.4767201],[8.9231161,44.4770026],[8.9215001,44.4772144],[8.9209164,44.4771777],[8.919692,44.4766102],[8.9177761,44.4761321],[8.9170046,44.4761252],[8.9166767,44.4762298],[8.9169297,44.4764823],[8.9177365,44.4778174],[8.9181957,44.4779372],[8.9186205,44.4783012],[8.918672,44.4786931],[8.9194016,44.4795321],[8.9206633,44.4812774],[8.9213853,44.4818639],[8.9216847,44.4831452],[8.9216589,44.4839351]]]},"properties":{"type":"boundary","gemeente":"Sant'Olcese"}}]}