{"type":"FeatureCollection","metadata":{"gemeente":"Sant'Angelo del Pesco","slug":"sant-angelo-del-pesco","generated_at":"2026-09-26T13:10:39.589625Z","total_points":1,"providers":["PosteItaliane"],"bounds":[14.25489253,41.88064755,14.25489253,41.88064755]},"features":[{"type":"Feature","geometry":{"type":"Point","coordinates":[14.25489253,41.88064755]},"properties":{"type":"pakketpunt","locatieNaam":"Sant'angelo Del Pesco","straatNaam":"Corso Umberto I","straatNr":"66","vervoerder":"PosteItaliane","puntType":"postkantoor","bezettingsgraad":50,"latitude":41.88064755,"longitude":14.25489253,"canPickup":true,"canDropoff":true,"openingstijden":{"za":"08:20 - 12:45","zo":"gesloten","ma":"gesloten","di":"gesloten","wo":"gesloten","do":"08:20 - 13:45","vr":"gesloten"}}},{"type":"Feature","geometry":{"type":"Polygon","coordinates":[[[14.231887,41.877485],[14.2322197,41.8766326],[14.2327441,41.8760066],[14.2334505,41.8756773],[14.2369351,41.8746872],[14.2378422,41.8736838],[14.2405374,41.872468],[14.2424946,41.8706592],[14.2428007,41.870214],[14.2440626,41.8693049],[14.2457572,41.8683078],[14.2470499,41.8677931],[14.2484293,41.8669979],[14.2486498,41.8658249],[14.2491617,41.8653102],[14.2497635,41.8649993],[14.2500897,41.8650099],[14.2506539,41.8654344],[14.2520297,41.8655111],[14.2528606,41.8652625],[14.2534046,41.8649718],[14.2541587,41.8642454],[14.2573828,41.8603285],[14.258264,41.8600968],[14.2603114,41.8601786],[14.262281,41.8585334],[14.2639655,41.8582439],[14.2652109,41.8571312],[14.26542,41.8574708],[14.2653388,41.8576413],[14.2656279,41.8579111],[14.2658847,41.8583033],[14.266287,41.8591448],[14.2668221,41.8594707],[14.2678756,41.8595309],[14.2684251,41.8593951],[14.2687193,41.8594074],[14.2690793,41.8591558],[14.2695281,41.8594755],[14.2697544,41.8592552],[14.2702877,41.8593189],[14.270426,41.859508],[14.2706827,41.8595704],[14.2707035,41.859513],[14.2708736,41.8595196],[14.2709957,41.8595984],[14.2710429,41.8598698],[14.2714491,41.8602856],[14.2716127,41.8602204],[14.2717218,41.860249],[14.2717742,41.8604054],[14.2720462,41.8603349],[14.2721818,41.8604411],[14.2727254,41.860507],[14.2732848,41.8608662],[14.2740148,41.8611927],[14.2755541,41.8614659],[14.2763872,41.8614777],[14.2768482,41.8616035],[14.2773647,41.8615454],[14.2779976,41.8617199],[14.280141,41.8618536],[14.2806506,41.8616822],[14.2821482,41.8614271],[14.2825967,41.8616599],[14.2826819,41.8620952],[14.2836219,41.862526],[14.2841835,41.8623704],[14.2857024,41.8612293],[14.2859984,41.8607297],[14.2861395,41.8606645],[14.2862883,41.8598307],[14.2864909,41.8597483],[14.286414,41.8595214],[14.2867063,41.8593087],[14.2867558,41.8589377],[14.2864118,41.8585558],[14.2865585,41.8584668],[14.2857401,41.8576679],[14.2854416,41.8567443],[14.2854652,41.8560959],[14.2857869,41.8563267],[14.2880613,41.8570438],[14.2893472,41.8571888],[14.2900706,41.8577817],[14.2907961,41.8581039],[14.2913615,41.8589516],[14.290259,41.8593368],[14.2911865,41.8623055],[14.291147,41.8629962],[14.2948872,41.869405],[14.2948208,41.8699392],[14.2944132,41.8707818],[14.292684,41.8724731],[14.2914493,41.8729623],[14.2843755,41.8740676],[14.2838214,41.8740302],[14.2785862,41.8723676],[14.2783578,41.8723736],[14.2780447,41.8724016],[14.2765766,41.8732839],[14.2764053,41.8735079],[14.2764141,41.8737145],[14.2786144,41.8784475],[14.2890738,41.8938316],[14.2908594,41.8948159],[14.2945762,41.8954948],[14.301123,41.8999137],[14.2963087,41.9012168],[14.2925074,41.9028329],[14.2879483,41.9072522],[14.2857511,41.9095637],[14.2850943,41.9117554],[14.2801822,41.9104911],[14.2713096,41.9019782],[14.2566811,41.8930404],[14.2530707,41.8895055],[14.2521841,41.8879848],[14.2472604,41.8836004],[14.2392516,41.8797779],[14.231887,41.877485]]]},"properties":{"type":"boundary","gemeente":"Sant'Angelo del Pesco"}}]}