{"type":"FeatureCollection","metadata":{"gemeente":"Sant'Angelo a Fasanella","slug":"sant-angelo-a-fasanella","generated_at":"2026-09-26T13:10:39.544848Z","total_points":4,"providers":["PosteItaliane","DHL","Amazon"],"bounds":[15.344,40.4565,15.34419,40.45757718]},"features":[{"type":"Feature","geometry":{"type":"Point","coordinates":[15.34408136,40.45757718]},"properties":{"type":"pakketpunt","locatieNaam":"Sant'angelo Fasanella","straatNaam":"Via San Francesco","straatNr":"1","vervoerder":"PosteItaliane","puntType":"postkantoor","bezettingsgraad":50,"latitude":40.45757718,"longitude":15.34408136,"canPickup":true,"canDropoff":true,"openingstijden":{"za":"gesloten","zo":"gesloten","ma":"08:20 - 13:45","di":"08:20 - 13:45","wo":"08:20 - 13:45","do":"08:20 - 13:45","vr":"08:20 - 13:45"}}},{"type":"Feature","geometry":{"type":"Point","coordinates":[15.344081,40.457577]},"properties":{"type":"pakketpunt","locatieNaam":"Ufficio Postale SANT'ANGELO FASANEL","straatNaam":"VIA SAN FRANCESCO 1","straatNr":"","vervoerder":"DHL","puntType":"postOffice","bezettingsgraad":50,"latitude":40.457577,"longitude":15.344081,"canPickup":true,"canDropoff":true,"openingstijden":{"ma":"08:20 - 13:45","di":"08:20 - 13:45","wo":"08:20 - 13:45","do":"08:20 - 13:45","vr":"08:20 - 13:45","za":"gesloten","zo":"gesloten"}}},{"type":"Feature","geometry":{"type":"Point","coordinates":[15.344,40.4575]},"properties":{"type":"pakketpunt","locatieNaam":"Ufficio Postale SANT'ANGELO FASANELLA","straatNaam":"VIA SAN FRANCESCO 1","straatNr":"","vervoerder":"Amazon","puntType":"3p","bezettingsgraad":50,"latitude":40.4575,"longitude":15.344,"canPickup":true,"canDropoff":false,"openingstijden":null}},{"type":"Feature","geometry":{"type":"Point","coordinates":[15.34419,40.4565]},"properties":{"type":"pakketpunt","locatieNaam":"Amazon Counter - FOOD & PUB","straatNaam":"CORSO APOLLO XI 34","straatNr":"","vervoerder":"Amazon","puntType":"helix","bezettingsgraad":50,"latitude":40.4565,"longitude":15.34419,"canPickup":true,"canDropoff":false,"openingstijden":null}},{"type":"Feature","geometry":{"type":"Polygon","coordinates":[[[15.2952142,40.4373578],[15.2957669,40.4366165],[15.2981674,40.4354592],[15.2989786,40.4348613],[15.3000125,40.4342827],[15.3006946,40.4335253],[15.3009393,40.4329944],[15.3015385,40.4327186],[15.302469,40.4327892],[15.3034244,40.4327414],[15.3048025,40.4321529],[15.3054746,40.4322151],[15.3056536,40.4326013],[15.3053741,40.4334672],[15.3042806,40.4341391],[15.3039632,40.4346245],[15.3042262,40.4351366],[15.3046633,40.4353782],[15.3050975,40.4353769],[15.305561,40.4355856],[15.3073974,40.4351655],[15.3080349,40.435369],[15.3089428,40.4351438],[15.3097919,40.4351152],[15.3104884,40.4353201],[15.3109862,40.4358778],[15.3110516,40.4375078],[15.3111964,40.4381479],[15.3115407,40.4388041],[15.312052,40.4393251],[15.3127355,40.4394226],[15.3142468,40.4399922],[15.3149514,40.4394046],[15.3151107,40.4383968],[15.3149772,40.4376031],[15.3145258,40.4368493],[15.3144152,40.4360093],[15.3151462,40.4355147],[15.3155315,40.4350166],[15.3150187,40.4337577],[15.3154047,40.4331965],[15.3159678,40.432702],[15.3167371,40.4327724],[15.3169148,40.4333476],[15.3169292,40.4339318],[15.317274,40.434381],[15.3176871,40.4345788],[15.3181827,40.4345876],[15.3192091,40.4344413],[15.3194945,40.4349791],[15.3194402,40.4359991],[15.3200272,40.4380685],[15.3196107,40.44013],[15.3198392,40.440626],[15.3205025,40.4414086],[15.3210941,40.4416866],[15.3220352,40.4411174],[15.3232361,40.4385359],[15.3245828,40.4369093],[15.3249353,40.4363139],[15.3251308,40.4356372],[15.3256021,40.4352243],[15.3270747,40.4347338],[15.3281969,40.4331331],[15.3278954,40.4315341],[15.3290186,40.4300773],[15.3294869,40.429219],[15.3296235,40.4281675],[15.3295182,40.4261572],[15.3295727,40.4250787],[15.3306491,40.4235254],[15.3311805,40.4232982],[15.3317203,40.4232775],[15.3325929,40.4229145],[15.3333199,40.4227485],[15.3328892,40.4235913],[15.3333305,40.4244085],[15.3344755,40.42471],[15.3352628,40.4241672],[15.3356115,40.423455],[15.3366038,40.4236434],[15.3385988,40.4242401],[15.3396389,40.4248579],[15.3402747,40.4246294],[15.3404837,40.4241993],[15.3411581,40.4243422],[15.3409428,40.4264061],[15.3404504,40.4267662],[15.3401468,40.4271835],[15.3402888,40.4274412],[15.341272,40.4276691],[15.3420235,40.4306875],[15.3425729,40.4308603],[15.3435171,40.4314972],[15.3441747,40.4317542],[15.3447461,40.4321287],[15.3463414,40.4329353],[15.3470646,40.4334013],[15.3474702,40.4338311],[15.3477606,40.4339731],[15.3482525,40.4335711],[15.3485879,40.4337493],[15.3504442,40.4353607],[15.3510444,40.4357317],[15.3515892,40.4357163],[15.3513025,40.4371767],[15.3509818,40.437975],[15.352288,40.4378568],[15.3523648,40.4380774],[15.3527484,40.4380221],[15.3528685,40.4390466],[15.3508648,40.4407034],[15.3510514,40.4415936],[15.351463,40.4414696],[15.3517907,40.4415026],[15.3522714,40.4420738],[15.3523046,40.4423462],[15.352445,40.4425669],[15.3529642,40.4425569],[15.3531894,40.4428735],[15.3542111,40.4427629],[15.3549486,40.4429507],[15.3567019,40.4441643],[15.3569645,40.444672],[15.35955,40.444583],[15.3605565,40.4443888],[15.3611814,40.4447338],[15.3613574,40.4453506],[15.3613571,40.4457707],[15.3624137,40.4469858],[15.3629251,40.4476949],[15.3644347,40.4484527],[15.3647995,40.449209],[15.3650084,40.4500571],[15.3657321,40.4504558],[15.3668094,40.4505193],[15.3680523,40.4508709],[15.3687687,40.4509391],[15.3696558,40.4508214],[15.3700083,40.4511939],[15.3697394,40.4517965],[15.3684709,40.4524455],[15.368103,40.4528554],[15.3684814,40.4532321],[15.36929,40.4533782],[15.3704949,40.4537348],[15.3720872,40.4536566],[15.3730292,40.4538959],[15.3736675,40.454247],[15.3739609,40.4547683],[15.3744569,40.455268],[15.3749846,40.4555113],[15.3760258,40.4566215],[15.3759824,40.4570577],[15.3761657,40.4573513],[15.3768681,40.4570807],[15.3775551,40.4566919],[15.3779562,40.4567716],[15.3782487,40.4571834],[15.3787372,40.4574347],[15.3795123,40.457065],[15.3801576,40.4564528],[15.3807009,40.4564083],[15.382912,40.4571063],[15.3854578,40.4581196],[15.3861761,40.4585873],[15.3864134,40.4594122],[15.3860331,40.4612513],[15.385982,40.4621465],[15.3860544,40.4628387],[15.3857994,40.4638204],[15.3821238,40.4662485],[15.3805075,40.4671634],[15.3814924,40.4680835],[15.3808727,40.4682928],[15.3804042,40.4687142],[15.3799747,40.4702635],[15.3795794,40.4711494],[15.3789589,40.4719983],[15.3782303,40.4724932],[15.3775027,40.4733166],[15.377059,40.4741287],[15.377065,40.4750599],[15.3766549,40.4755191],[15.3757378,40.4761864],[15.3749829,40.4769444],[15.3752599,40.4775113],[15.3762585,40.4782833],[15.3766744,40.4789128],[15.3778494,40.4802995],[15.3773405,40.4822628],[15.3773448,40.4829196],[15.3771029,40.483932],[15.3768251,40.4848699],[15.3763356,40.4860446],[15.376058,40.4870545],[15.375705,40.4892701],[15.3748956,40.490864],[15.3757231,40.4925016],[15.3761626,40.4931778],[15.3760776,40.493822],[15.3762504,40.4942014],[15.3768691,40.494666],[15.3774546,40.4953116],[15.3777606,40.4960161],[15.3783657,40.4966976],[15.3803691,40.4979892],[15.3814641,40.498456],[15.3831486,40.4999601],[15.3800859,40.5003181],[15.3793349,40.5006882],[15.3791333,40.5009244],[15.3766109,40.5015907],[15.3750457,40.5024515],[15.3722527,40.5030472],[15.3664236,40.5052823],[15.3654227,40.5057697],[15.3645515,40.5064209],[15.3633389,40.506938],[15.3626093,40.5073653],[15.3619515,40.5079507],[15.3606182,40.510063],[15.360007,40.5105963],[15.3592448,40.5111154],[15.358489,40.5114227],[15.3568084,40.5127891],[15.3553632,40.5142054],[15.3544825,40.5149291],[15.354038,40.5155972],[15.3512471,40.5144732],[15.3507881,40.5139225],[15.3503175,40.5128999],[15.3497536,40.5121593],[15.3489676,40.5101168],[15.3487013,40.5085969],[15.3483889,40.5077411],[15.347413,40.5061524],[15.342985,40.5008118],[15.3425073,40.4998751],[15.3426466,40.4994624],[15.3422655,40.4987589],[15.3398884,40.4955327],[15.3392104,40.494409],[15.3381178,40.4928896],[15.3374029,40.4916555],[15.3370338,40.4908208],[15.3364062,40.4905178],[15.3322831,40.4844759],[15.3318325,40.4840957],[15.3323495,40.4837433],[15.3330684,40.4835462],[15.3336687,40.4831622],[15.3339929,40.4822263],[15.3341651,40.4811008],[15.3334345,40.4788774],[15.3328908,40.4789163],[15.3325023,40.4787802],[15.3316289,40.4787292],[15.3306147,40.478848],[15.3298337,40.4784634],[15.3293583,40.4777965],[15.3293558,40.4771846],[15.3295066,40.4767443],[15.3293017,40.4760401],[15.3295728,40.4757597],[15.3314303,40.4765845],[15.3324662,40.4763836],[15.3334542,40.4758927],[15.3337347,40.4752517],[15.3335072,40.4746432],[15.3336878,40.4729817],[15.3335904,40.4724965],[15.3328081,40.471527],[15.3325236,40.4710252],[15.3321644,40.4703024],[15.332139,40.4697908],[15.3337673,40.4694987],[15.3340232,40.4692911],[15.334102,40.4684407],[15.3316775,40.4672871],[15.3310739,40.4646742],[15.3302471,40.4641301],[15.33075,40.4633239],[15.3310548,40.4625961],[15.3313448,40.4615947],[15.3310915,40.46065],[15.3302526,40.4602822],[15.327683,40.4606484],[15.3273862,40.4602642],[15.3273358,40.4598935],[15.3271791,40.4596771],[15.3264472,40.4589433],[15.3262671,40.4582826],[15.3257711,40.4579814],[15.3249906,40.4577633],[15.324589,40.4575423],[15.3246457,40.4570802],[15.3250655,40.4561886],[15.3251923,40.4555021],[15.3257089,40.4548257],[15.3257773,40.4545204],[15.3249466,40.453378],[15.3242393,40.4532099],[15.3227155,40.4526275],[15.3222895,40.4523584],[15.3214678,40.4509815],[15.3207467,40.4506431],[15.3198628,40.4505386],[15.3190946,40.4502072],[15.3185708,40.4492414],[15.3164791,40.4486092],[15.3159932,40.4480148],[15.3150667,40.4465401],[15.3125011,40.4443101],[15.3115132,40.444077],[15.3106685,40.4442226],[15.3101688,40.4436823],[15.30923,40.4428724],[15.3080602,40.4424221],[15.3075639,40.4423425],[15.3055553,40.4424937],[15.3037286,40.4427602],[15.3028203,40.4424724],[15.3016613,40.4416943],[15.3001051,40.4415635],[15.2993973,40.4413952],[15.2974235,40.4403511],[15.2967225,40.4395254],[15.2963056,40.4385087],[15.2957956,40.4377175],[15.2952142,40.4373578]]]},"properties":{"type":"boundary","gemeente":"Sant'Angelo a Fasanella"}}]}