{"type":"FeatureCollection","metadata":{"gemeente":"Sant'Agata del Bianco","slug":"sant-agata-del-bianco","generated_at":"2026-09-26T14:27:59.170556Z","total_points":4,"providers":["PosteItaliane","DHL","Amazon"],"bounds":[16.0832,38.0908,16.08352915,38.09121046]},"features":[{"type":"Feature","geometry":{"type":"Point","coordinates":[16.08352915,38.09121046]},"properties":{"type":"pakketpunt","locatieNaam":"Sant'agata Del Bianco","straatNaam":"Via Del Popolo","straatNr":"8","vervoerder":"PosteItaliane","puntType":"postkantoor","bezettingsgraad":50,"latitude":38.09121046,"longitude":16.08352915,"canPickup":true,"canDropoff":true,"openingstijden":{"za":"08:20 - 12:45","zo":"gesloten","ma":"gesloten","di":"08:20 - 13:45","wo":"gesloten","do":"08:20 - 13:45","vr":"gesloten"}}},{"type":"Feature","geometry":{"type":"Point","coordinates":[16.08324552,38.09089515]},"properties":{"type":"pakketpunt","locatieNaam":"Tabaccheria N. 1","straatNaam":"Piazza Del Popolo Snc","straatNr":"1","vervoerder":"PosteItaliane","puntType":"servicepunt","bezettingsgraad":50,"latitude":38.09089515,"longitude":16.08324552,"canPickup":true,"canDropoff":true,"openingstijden":{"za":"07:00 - 21:00","zo":"07:00 - 21:00","ma":"07:00 - 21:00","di":"07:00 - 21:00","wo":"07:00 - 21:00","do":"07:00 - 21:00","vr":"07:00 - 21:00"}}},{"type":"Feature","geometry":{"type":"Point","coordinates":[16.083246,38.090895]},"properties":{"type":"pakketpunt","locatieNaam":"TABACCHERIA N. 1","straatNaam":"PIAZZA DEL POPOLO SNC 1","straatNr":"","vervoerder":"DHL","puntType":"parcelShop","bezettingsgraad":50,"latitude":38.090895,"longitude":16.083246,"canPickup":true,"canDropoff":true,"openingstijden":{"ma":"07:00 - 21:00","di":"07:00 - 21:00","wo":"07:00 - 21:00","do":"07:00 - 21:00","vr":"07:00 - 21:00","za":"07:00 - 21:00","zo":"07:00 - 21:00"}}},{"type":"Feature","geometry":{"type":"Point","coordinates":[16.0832,38.0908]},"properties":{"type":"pakketpunt","locatieNaam":"PuntoPoste TABACCHERIA N. 1","straatNaam":"PIAZZA DEL POPOLO SNC 1","straatNr":"","vervoerder":"Amazon","puntType":"3p","bezettingsgraad":50,"latitude":38.0908,"longitude":16.0832,"canPickup":true,"canDropoff":false,"openingstijden":null}},{"type":"Feature","geometry":{"type":"Polygon","coordinates":[[[16.0015443,38.0703315],[16.002322,38.0655753],[16.0081383,38.0583356],[16.0194873,38.051515],[16.0241527,38.0509605],[16.0329753,38.0518472],[16.0335698,38.0519509],[16.0388465,38.0536127],[16.0493867,38.0550515],[16.0614392,38.0467721],[16.0622083,38.0463568],[16.0625612,38.0462275],[16.0631398,38.0461521],[16.066502,38.0461289],[16.0857437,38.0533176],[16.0862928,38.0535542],[16.0908593,38.056444],[16.0895271,38.0588233],[16.088148,38.0634049],[16.0877789,38.065348],[16.087764,38.0675124],[16.0877922,38.0678616],[16.0885528,38.0699835],[16.0893723,38.0729475],[16.0915605,38.0812621],[16.0916418,38.0828315],[16.0914364,38.0836176],[16.0912362,38.0840616],[16.0888574,38.0863964],[16.0876786,38.087436],[16.0853691,38.0906445],[16.084116,38.0999351],[16.0837824,38.1013227],[16.0788171,38.1016864],[16.0725373,38.1050218],[16.0724615,38.1053412],[16.0722833,38.1056174],[16.0711624,38.1069447],[16.070645,38.1074213],[16.0699991,38.1077617],[16.0691228,38.1080306],[16.0665939,38.108296],[16.0602223,38.1083706],[16.0561484,38.1075685],[16.0552883,38.1072246],[16.0546134,38.1064557],[16.052212,38.1057144],[16.0511485,38.1058281],[16.0508809,38.1059746],[16.0484945,38.1082327],[16.0394277,38.1035746],[16.0385528,38.1013198],[16.0375281,38.0943058],[16.0376715,38.0939194],[16.0387124,38.0931595],[16.0392774,38.092968],[16.041429,38.0925416],[16.0570662,38.0905642],[16.067568,38.0890167],[16.0759625,38.079],[16.0796559,38.0725871],[16.0799591,38.0716647],[16.0806434,38.0677009],[16.0805231,38.0673259],[16.0800845,38.0668801],[16.0792311,38.0662931],[16.0785556,38.0659561],[16.0730471,38.0642833],[16.0633593,38.0621026],[16.0629027,38.0620132],[16.0620151,38.0620128],[16.045418,38.0628655],[16.0150782,38.0648063],[16.0076687,38.066465],[16.0015443,38.0703315]]]},"properties":{"type":"boundary","gemeente":"Sant'Agata del Bianco"}}]}