{"type":"FeatureCollection","metadata":{"gemeente":"Sant'Agata di Esaro","slug":"sant-agata-di-esaro","generated_at":"2026-09-26T14:27:59.179740Z","total_points":4,"providers":["PosteItaliane","DHL","Amazon"],"bounds":[15.983,39.6188,15.98308,39.62098]},"features":[{"type":"Feature","geometry":{"type":"Point","coordinates":[15.98303191,39.61880903]},"properties":{"type":"pakketpunt","locatieNaam":"Sant'agata Di Esaro","straatNaam":"Piazza Carducci","straatNr":"6","vervoerder":"PosteItaliane","puntType":"postkantoor","bezettingsgraad":50,"latitude":39.61880903,"longitude":15.98303191,"canPickup":true,"canDropoff":true,"openingstijden":{"za":"08:20 - 12:45","zo":"gesloten","ma":"08:20 - 13:45","di":"08:20 - 13:45","wo":"08:20 - 13:45","do":"08:20 - 13:45","vr":"08:20 - 13:45"}}},{"type":"Feature","geometry":{"type":"Point","coordinates":[15.983032,39.618809]},"properties":{"type":"pakketpunt","locatieNaam":"Ufficio Postale SANT'AGATA DI ESARO","straatNaam":"PIAZZA CARDUCCI 6","straatNr":"","vervoerder":"DHL","puntType":"postOffice","bezettingsgraad":50,"latitude":39.618809,"longitude":15.983032,"canPickup":true,"canDropoff":true,"openingstijden":{"ma":"08:20 - 13:45","di":"08:20 - 13:45","wo":"08:20 - 13:45","do":"08:20 - 13:45","vr":"08:20 - 13:45","za":"08:20 - 12:45","zo":"gesloten"}}},{"type":"Feature","geometry":{"type":"Point","coordinates":[15.98308,39.62098]},"properties":{"type":"pakketpunt","locatieNaam":"Amazon Counter - MS Group S.a.s. di Santella & C.","straatNaam":"CONTRADA SAN FRANCESCO SNC","straatNr":"","vervoerder":"Amazon","puntType":"helix","bezettingsgraad":50,"latitude":39.62098,"longitude":15.98308,"canPickup":true,"canDropoff":false,"openingstijden":null}},{"type":"Feature","geometry":{"type":"Point","coordinates":[15.983,39.6188]},"properties":{"type":"pakketpunt","locatieNaam":"Ufficio Postale SANT'AGATA DI ESARO","straatNaam":"PIAZZA CARDUCCI 6","straatNr":"","vervoerder":"Amazon","puntType":"3p","bezettingsgraad":50,"latitude":39.6188,"longitude":15.983,"canPickup":true,"canDropoff":false,"openingstijden":null}},{"type":"Feature","geometry":{"type":"Polygon","coordinates":[[[15.9205788,39.6432564],[15.921915,39.6394873],[15.9259422,39.6340497],[15.9321364,39.633575],[15.9359221,39.6325111],[15.9371378,39.6320152],[15.9402211,39.6298821],[15.9485493,39.6229034],[15.955494,39.6076798],[15.9555914,39.6073186],[15.9563607,39.5987739],[15.959503,39.5918544],[15.9658202,39.5821703],[15.9661538,39.5818173],[15.9668245,39.5815205],[15.9676956,39.581351],[15.9684526,39.5814358],[15.9692603,39.5817201],[15.9704389,39.5819055],[15.9765603,39.5816398],[15.9830295,39.5805564],[15.9931585,39.577146],[15.994037,39.576706],[15.9943882,39.5768289],[15.995326,39.5774151],[15.9963268,39.5781375],[15.9976984,39.5795571],[15.99984,39.5866661],[16.0032241,39.5993952],[16.0028307,39.6004358],[16.0027694,39.6017981],[16.0033245,39.6032311],[16.0079728,39.6127613],[16.0082514,39.6129289],[16.0237519,39.6172472],[16.0260906,39.6216578],[16.0308667,39.6264645],[16.0409087,39.6348238],[16.0423687,39.635081],[16.0437595,39.6347085],[16.0427788,39.6360324],[16.0400421,39.6384531],[16.0396252,39.6386449],[16.0350067,39.6391736],[16.034606,39.63891],[16.0342609,39.6383777],[16.0332243,39.6361824],[16.0310654,39.6335785],[16.0303569,39.6329198],[16.0297001,39.6326538],[16.0261788,39.6316398],[16.0240354,39.6316306],[16.0027225,39.6371437],[16.0015357,39.6374765],[16.0006678,39.637898],[15.9965199,39.6402322],[15.994604,39.6414818],[15.9938342,39.6423562],[15.9934936,39.6430156],[15.9920157,39.6449001],[15.9897987,39.6470722],[15.9806995,39.6547393],[15.9751099,39.6567774],[15.9737959,39.6569782],[15.9688954,39.6566484],[15.9670962,39.6563385],[15.9627954,39.655419],[15.9598654,39.6550916],[15.9487987,39.6592172],[15.9411088,39.662797],[15.9402869,39.6623515],[15.9347482,39.6604525],[15.9315126,39.6599808],[15.9278159,39.659874],[15.9231777,39.6600574],[15.9211939,39.6605901],[15.9200792,39.6565673],[15.9200986,39.6563519],[15.9213884,39.6517122],[15.9228381,39.6483085],[15.9228086,39.6479413],[15.921887,39.6444063],[15.9211554,39.6436673],[15.9205788,39.6432564]]]},"properties":{"type":"boundary","gemeente":"Sant'Agata di Esaro"}}]}