{"type":"FeatureCollection","metadata":{"gemeente":"Santu Giuanni Suèrgiu/San Giovanni Suergiu","slug":"santu-giuanni-suergiu-san-giovanni-suergiu","generated_at":"2026-09-26T13:10:40.912611Z","total_points":12,"providers":["PosteItaliane","DPD","InPost","GLS","DHL","Amazon"],"bounds":[8.494107,39.10282,8.52608,39.12647]},"features":[{"type":"Feature","geometry":{"type":"Point","coordinates":[8.52420348,39.10931708]},"properties":{"type":"pakketpunt","locatieNaam":"San Giovanni Suergiu","straatNaam":"Via Giuseppe Di Vittorio","straatNr":"5","vervoerder":"PosteItaliane","puntType":"postkantoor","bezettingsgraad":50,"latitude":39.10931708,"longitude":8.52420348,"canPickup":true,"canDropoff":true,"openingstijden":{"za":"08:20 - 12:35","zo":"gesloten","ma":"08:20 - 13:35","di":"08:20 - 13:35","wo":"08:20 - 13:35","do":"08:20 - 13:35","vr":"08:20 - 13:35"}}},{"type":"Feature","geometry":{"type":"Point","coordinates":[8.52233532,39.11043262]},"properties":{"type":"pakketpunt","locatieNaam":"Tabaccheria N. 2","straatNaam":"Via Vittorio Emanuele","straatNr":"28","vervoerder":"PosteItaliane","puntType":"servicepunt","bezettingsgraad":50,"latitude":39.11043262,"longitude":8.52233532,"canPickup":true,"canDropoff":true,"openingstijden":{"za":"08:00 - 13:00, 16:30 - 20:00","zo":"gesloten","ma":"08:00 - 13:00, 16:30 - 20:00","di":"08:00 - 13:00, 16:30 - 20:00","wo":"08:00 - 13:00, 16:30 - 20:00","do":"08:00 - 13:00, 16:30 - 20:00","vr":"08:00 - 13:00, 16:30 - 20:00"}}},{"type":"Feature","geometry":{"type":"Point","coordinates":[8.52219218,39.11035755]},"properties":{"type":"pakketpunt","locatieNaam":"Sardegna Spedizioni","straatNaam":"P.ZZA IV NOVEMBRE BOX","straatNr":"2","vervoerder":"DPD","puntType":"pickup_point","bezettingsgraad":50,"latitude":39.11035755,"longitude":8.52219218,"canPickup":true,"canDropoff":true,"openingstijden":{"ma":"09:00 - 13:00, 16:30 - 19:30","di":"09:00 - 13:00, 16:30 - 19:30","wo":"09:00 - 13:00, 16:30 - 19:30","do":"09:00 - 13:00, 16:30 - 19:30","vr":"09:00 - 12:30","za":"09:00 - 13:00","zo":"gesloten"}}},{"type":"Feature","geometry":{"type":"Point","coordinates":[8.52608,39.10809]},"properties":{"type":"pakketpunt","locatieNaam":"InPost Locker 24/7","straatNaam":"Via Porto Botte","straatNr":"snc","vervoerder":"InPost","puntType":"automaat","bezettingsgraad":50,"latitude":39.10809,"longitude":8.52608,"canPickup":true,"canDropoff":true,"openingstijden":null}},{"type":"Feature","geometry":{"type":"Point","coordinates":[8.51172,39.12647]},"properties":{"type":"pakketpunt","locatieNaam":"InPost Locker 24/7","straatNaam":"SS 126","straatNr":"KM 10+408","vervoerder":"InPost","puntType":"automaat","bezettingsgraad":50,"latitude":39.12647,"longitude":8.51172,"canPickup":true,"canDropoff":true,"openingstijden":null}},{"type":"Feature","geometry":{"type":"Point","coordinates":[8.52220111,39.11035683]},"properties":{"type":"pakketpunt","locatieNaam":"Sardegna Spedizioni","straatNaam":"Via Civico Mercato Box","straatNr":"2","vervoerder":"GLS","puntType":"parcel_shop","bezettingsgraad":50,"latitude":39.11035683,"longitude":8.52220111,"canPickup":true,"canDropoff":true,"openingstijden":"za: 09:30 - 12:00; ma: 09:30 - 13:00, 17:00 - 19:30"}},{"type":"Feature","geometry":{"type":"Point","coordinates":[8.522335,39.110433]},"properties":{"type":"pakketpunt","locatieNaam":"TABACCHERIA N. 2","straatNaam":"VIA VITTORIO EMANUELE 28","straatNr":"","vervoerder":"DHL","puntType":"parcelShop","bezettingsgraad":50,"latitude":39.110433,"longitude":8.522335,"canPickup":true,"canDropoff":true,"openingstijden":{"ma":"08:00 - 13:00, 16:30 - 20:00","di":"08:00 - 13:00, 16:30 - 20:00","wo":"08:00 - 13:00, 16:30 - 20:00","do":"08:00 - 13:00, 16:30 - 20:00","vr":"08:00 - 13:00, 16:30 - 20:00","za":"08:00 - 13:00, 16:30 - 20:00","zo":"gesloten"}}},{"type":"Feature","geometry":{"type":"Point","coordinates":[8.524203,39.109317]},"properties":{"type":"pakketpunt","locatieNaam":"Ufficio Postale SAN GIOVANNI SUERGI","straatNaam":"VIA GIUSEPPE DI VITTORIO 5","straatNr":"","vervoerder":"DHL","puntType":"postOffice","bezettingsgraad":50,"latitude":39.109317,"longitude":8.524203,"canPickup":true,"canDropoff":true,"openingstijden":{"ma":"08:20 - 13:35","di":"08:20 - 13:35","wo":"08:20 - 13:35","do":"08:20 - 13:35","vr":"08:20 - 13:35","za":"08:20 - 12:35","zo":"gesloten"}}},{"type":"Feature","geometry":{"type":"Point","coordinates":[8.52233,39.1104]},"properties":{"type":"pakketpunt","locatieNaam":"PuntoPoste TABACCHERIA N. 2","straatNaam":"VIA VITTORIO EMANUELE 28","straatNr":"","vervoerder":"Amazon","puntType":"3p","bezettingsgraad":50,"latitude":39.1104,"longitude":8.52233,"canPickup":true,"canDropoff":false,"openingstijden":null}},{"type":"Feature","geometry":{"type":"Point","coordinates":[8.52220190318652,39.1103523477998]},"properties":{"type":"pakketpunt","locatieNaam":"Amazon Counter (fermopoint)","straatNaam":"Sardegna Spedizioni","straatNr":"","vervoerder":"Amazon","puntType":"helix","bezettingsgraad":50,"latitude":39.1103523477998,"longitude":8.52220190318652,"canPickup":true,"canDropoff":false,"openingstijden":null}},{"type":"Feature","geometry":{"type":"Point","coordinates":[8.5242,39.1093]},"properties":{"type":"pakketpunt","locatieNaam":"Ufficio Postale SAN GIOVANNI SUERGIU","straatNaam":"VIA GIUSEPPE DI VITTORIO 5","straatNr":"","vervoerder":"Amazon","puntType":"3p","bezettingsgraad":50,"latitude":39.1093,"longitude":8.5242,"canPickup":true,"canDropoff":false,"openingstijden":null}},{"type":"Feature","geometry":{"type":"Point","coordinates":[8.494107,39.10282]},"properties":{"type":"pakketpunt","locatieNaam":"Amazon Counter - ROBY BAR","straatNaam":"LOCALITA' IS IMPERAS 8","straatNr":"","vervoerder":"Amazon","puntType":"helix","bezettingsgraad":50,"latitude":39.10282,"longitude":8.494107,"canPickup":true,"canDropoff":false,"openingstijden":null}},{"type":"Feature","geometry":{"type":"Polygon","coordinates":[[[8.4340877,39.1589168],[8.434187,39.1586222],[8.4340664,39.1585034],[8.4342911,39.1584493],[8.4345992,39.1579202],[8.4347215,39.1578262],[8.4350368,39.1578356],[8.4354647,39.1576868],[8.4356687,39.1575143],[8.4358157,39.1570442],[8.435808,39.1567355],[8.436204,39.1566034],[8.4362152,39.1564683],[8.4363589,39.1564138],[8.4367242,39.1564944],[8.4368767,39.1564242],[8.4370092,39.1563223],[8.4371645,39.1558951],[8.4380814,39.1555672],[8.4381355,39.1551293],[8.4380107,39.1542738],[8.4376709,39.1535287],[8.4368285,39.1523138],[8.4369504,39.1522671],[8.4369972,39.1521085],[8.4373181,39.152047],[8.4379766,39.1509193],[8.4380215,39.1503653],[8.437671,39.1496912],[8.4377969,39.149328],[8.4374161,39.1486458],[8.4375327,39.1479818],[8.4378207,39.1476036],[8.437835,39.1470811],[8.4376679,39.1462648],[8.4372569,39.1455588],[8.4365436,39.1446779],[8.4356776,39.1437163],[8.4354253,39.1436194],[8.4353891,39.1427102],[8.4354475,39.1424683],[8.4376122,39.142178],[8.4384478,39.1413181],[8.438914,39.1405319],[8.4391445,39.139918],[8.4388957,39.1393751],[8.4388419,39.1390448],[8.4387015,39.1388751],[8.4388584,39.138066],[8.4385352,39.1374202],[8.4368385,39.1354442],[8.4359868,39.1337877],[8.4358037,39.1331707],[8.4355811,39.1327923],[8.4341533,39.1314011],[8.433081,39.130212],[8.433205,39.1300809],[8.4333745,39.1300524],[8.4339142,39.1294693],[8.4345953,39.1291133],[8.4359223,39.1288224],[8.4363017,39.1283996],[8.4364081,39.1281072],[8.4366825,39.1279768],[8.4368057,39.1277645],[8.4369137,39.1272739],[8.4367202,39.1266906],[8.4361253,39.125852],[8.436042,39.1255959],[8.4354274,39.1248777],[8.4352899,39.1245256],[8.4353119,39.1241303],[8.4356638,39.1235272],[8.4356833,39.1234315],[8.4355393,39.1232698],[8.4356669,39.1231318],[8.4357016,39.122657],[8.4358967,39.1223573],[8.4368093,39.1214376],[8.4371938,39.1204201],[8.4377937,39.1199128],[8.4378655,39.1198223],[8.4378232,39.1197453],[8.4384032,39.1194383],[8.4386829,39.1190492],[8.4391301,39.1188406],[8.4392112,39.1183531],[8.4396379,39.1179956],[8.4396638,39.1177305],[8.440084,39.1175983],[8.4401206,39.1174986],[8.4400966,39.1171533],[8.4398656,39.116771],[8.4377687,39.1143078],[8.4375302,39.1135813],[8.437088,39.1128516],[8.436832,39.1121379],[8.4368321,39.1118898],[8.4369961,39.1116732],[8.4374304,39.1119397],[8.4376227,39.1124903],[8.4382268,39.1134348],[8.4387958,39.1140672],[8.4401404,39.1151697],[8.4413943,39.1158492],[8.4421514,39.1164758],[8.4427155,39.1164492],[8.4430154,39.1165531],[8.4431371,39.1167046],[8.4437382,39.1167582],[8.4441686,39.1170092],[8.4455009,39.1172903],[8.4463192,39.1173021],[8.4476738,39.1171475],[8.4479479,39.1170496],[8.4483132,39.1171099],[8.4487375,39.1170308],[8.4498638,39.1172198],[8.4505128,39.1172454],[8.4522579,39.1176455],[8.4525551,39.1176284],[8.4525696,39.1175366],[8.4526551,39.1175156],[8.4530854,39.1177666],[8.454163,39.1180938],[8.4549543,39.1180502],[8.455009,39.1182622],[8.4562248,39.1190518],[8.4569468,39.1193706],[8.4571233,39.1195471],[8.4580044,39.1198553],[8.4586113,39.1204743],[8.4584876,39.1207666],[8.4585244,39.1208692],[8.4590771,39.1210115],[8.4593321,39.1209541],[8.459719,39.1206551],[8.4601054,39.120613],[8.4602745,39.1206284],[8.4604989,39.1207759],[8.4607969,39.1211433],[8.4610702,39.1211446],[8.4612026,39.1210281],[8.4612614,39.1207208],[8.4614398,39.1206406],[8.4613713,39.119765],[8.4616538,39.1196999],[8.4618527,39.1207269],[8.4619468,39.1207127],[8.4622222,39.1204426],[8.462621,39.1204898],[8.4631489,39.1202392],[8.4635327,39.119764],[8.4640266,39.1194032],[8.4644691,39.1193107],[8.4645326,39.1195194],[8.4649641,39.1191746],[8.465091,39.1191823],[8.4652605,39.1190609],[8.4654558,39.1192454],[8.4659941,39.1189945],[8.4661936,39.1186226],[8.4667024,39.1186395],[8.4668723,39.1185446],[8.4668071,39.1183753],[8.4670152,39.1181938],[8.4671417,39.1177179],[8.4672734,39.1177039],[8.4674337,39.1175289],[8.4675193,39.1174921],[8.4676769,39.1176911],[8.4678646,39.1177212],[8.4686089,39.1175849],[8.4684343,39.1171449],[8.4684355,39.1169838],[8.4686828,39.1165884],[8.4685547,39.1161339],[8.4685946,39.1158187],[8.4687503,39.1156989],[8.4699802,39.1153745],[8.4700816,39.1151598],[8.4700947,39.1147622],[8.4697232,39.1141692],[8.4697132,39.1139709],[8.4698254,39.1138509],[8.470314,39.1136628],[8.47036,39.1133172],[8.4706283,39.1130165],[8.470686,39.1126462],[8.4716877,39.1121022],[8.472087,39.1120612],[8.4726831,39.1122013],[8.4729711,39.1121688],[8.4732616,39.1119798],[8.4734296,39.1117564],[8.4734726,39.1104489],[8.4736295,39.1101466],[8.4736314,39.1098875],[8.4737755,39.1097587],[8.4737881,39.1096213],[8.4732094,39.1085047],[8.4727691,39.1080364],[8.4727976,39.1069259],[8.4732272,39.1065021],[8.4735102,39.1057802],[8.4730431,39.1046337],[8.4734021,39.1043718],[8.4751421,39.1038727],[8.4755438,39.1033102],[8.475793,39.1032336],[8.4758826,39.1030403],[8.4760729,39.1029105],[8.4762168,39.1022297],[8.4763958,39.1020683],[8.4764374,39.1019141],[8.4768065,39.1016489],[8.4768592,39.1011692],[8.4770893,39.1009382],[8.4770216,39.1007127],[8.4771538,39.1002345],[8.4772017,39.0992244],[8.4773419,39.0990392],[8.4774547,39.098445],[8.4777069,39.0979617],[8.4777009,39.0973974],[8.4779838,39.096671],[8.4779084,39.0963147],[8.4774055,39.0957133],[8.4776253,39.095498],[8.4775488,39.0952881],[8.477807,39.0951654],[8.4778977,39.0950194],[8.4780883,39.0946485],[8.4780399,39.0945559],[8.4778005,39.0946709],[8.477558,39.0951181],[8.4774539,39.0950959],[8.4774513,39.0953201],[8.4772274,39.0953646],[8.4771561,39.0952622],[8.4772092,39.0951222],[8.4775807,39.0948862],[8.4775945,39.0946911],[8.4779609,39.0944857],[8.4781337,39.0939875],[8.4781461,39.0936699],[8.4780773,39.0935919],[8.4781272,39.0934919],[8.4784352,39.0934854],[8.4789627,39.0932872],[8.479101,39.0933498],[8.4792792,39.0933033],[8.4807079,39.0920335],[8.480938,39.0917946],[8.4809391,39.0916549],[8.4811867,39.0915952],[8.4818907,39.0907885],[8.4827162,39.0901614],[8.4833875,39.0898794],[8.4837768,39.0896186],[8.4855247,39.0881553],[8.4854274,39.0876289],[8.4848358,39.0867004],[8.4846855,39.0862886],[8.4833326,39.0843272],[8.483136,39.0841427],[8.481855,39.083611],[8.4805845,39.0832438],[8.4812899,39.0834159],[8.4824287,39.0834277],[8.4825817,39.0834531],[8.4827897,39.0836681],[8.4832535,39.0836848],[8.4838018,39.0843968],[8.4843864,39.0854853],[8.4869311,39.0889455],[8.487115,39.0890995],[8.4874398,39.0891504],[8.4877065,39.0890379],[8.4877714,39.0887577],[8.4884815,39.0876029],[8.488472,39.0873235],[8.4887274,39.0871804],[8.4895952,39.0870941],[8.4902272,39.0876375],[8.4907992,39.0868741],[8.4925483,39.0864402],[8.4928269,39.0862792],[8.4929104,39.0859281],[8.493224,39.0857313],[8.4936742,39.0858323],[8.4941605,39.0857353],[8.4944511,39.0855203],[8.4945184,39.085809],[8.4952245,39.0856859],[8.4960594,39.0853561],[8.497774,39.0848769],[8.4993461,39.0849197],[8.5000756,39.0847606],[8.5012,39.0843509],[8.5019542,39.0839802],[8.5027849,39.0842324],[8.5033719,39.0846035],[8.5035873,39.0852172],[8.5039438,39.085489],[8.5043795,39.0860135],[8.5055201,39.086595],[8.506003,39.0869846],[8.5073088,39.0870892],[8.5103952,39.0855343],[8.5123577,39.084308],[8.5125789,39.0840836],[8.5130235,39.0833106],[8.5138218,39.0832418],[8.5140546,39.0830175],[8.5141603,39.0827656],[8.5146232,39.0827135],[8.5157315,39.0829434],[8.5168948,39.083597],[8.5174105,39.0842659],[8.5177694,39.0842043],[8.5180252,39.0839846],[8.5183057,39.0835397],[8.5182902,39.0824313],[8.5182243,39.0819174],[8.5176077,39.0807795],[8.517247,39.0794263],[8.5173414,39.0791384],[8.5177854,39.0784553],[8.5180936,39.0773302],[8.5175851,39.0773101],[8.517367,39.0770749],[8.5172881,39.0767862],[8.5175094,39.0765348],[8.5178106,39.076455],[8.5179063,39.0759778],[8.5171212,39.0758214],[8.5169514,39.075298],[8.5171036,39.0750193],[8.5168038,39.0749099],[8.5162989,39.0743582],[8.5162096,39.0738892],[8.5154859,39.0732194],[8.5138463,39.0712481],[8.5132937,39.0709214],[8.5130411,39.0706681],[8.5129965,39.0704246],[8.5119392,39.0695281],[8.5110211,39.06856],[8.5097787,39.0676898],[8.5096074,39.0673917],[8.5093074,39.0673183],[8.5082245,39.0667821],[8.5071108,39.0657051],[8.5066036,39.0654957],[8.5074621,39.0650487],[8.5081736,39.0657907],[8.5085771,39.0659365],[8.5094047,39.0666159],[8.5102814,39.0668809],[8.5106749,39.0668104],[8.5113364,39.0664257],[8.5112808,39.0661011],[8.5118504,39.0656439],[8.5125213,39.0655746],[8.5138025,39.0658413],[8.5142416,39.0658521],[8.5172274,39.0653329],[8.517819,39.065029],[8.5178336,39.0645694],[8.5167454,39.0631322],[8.5163881,39.0629775],[8.5151643,39.0627652],[8.5148632,39.062854],[8.5141584,39.0628151],[8.5134644,39.0628842],[8.5122641,39.0626359],[8.5116758,39.0622505],[8.5117433,39.0621044],[8.5127849,39.0619003],[8.5128494,39.0619727],[8.5144099,39.0615433],[8.5145388,39.0614988],[8.5147269,39.0612371],[8.5153526,39.0614391],[8.516563,39.0614756],[8.5178054,39.0617162],[8.5185611,39.0617013],[8.519179,39.0615585],[8.5196803,39.0613522],[8.5201825,39.0610141],[8.5206948,39.0608889],[8.5211017,39.0609638],[8.5224193,39.0605423],[8.5242697,39.060373],[8.5249686,39.0602126],[8.5252033,39.0598959],[8.5255647,39.0596529],[8.526324,39.0593113],[8.5272083,39.0590784],[8.5276985,39.0590173],[8.528,39.0590816],[8.5282098,39.0590284],[8.5297916,39.0590573],[8.5314406,39.0594176],[8.5333024,39.0592708],[8.5338263,39.0591276],[8.5343611,39.0590846],[8.5350376,39.0588159],[8.5358862,39.0582887],[8.536302,39.0581158],[8.5365733,39.0577238],[8.5364766,39.0577042],[8.5363455,39.0574266],[8.5359395,39.0569925],[8.5355863,39.0564335],[8.5354173,39.0559924],[8.535462,39.0557842],[8.5353183,39.0554502],[8.5355098,39.0553158],[8.5358367,39.055263],[8.5357987,39.0550984],[8.5352943,39.0551359],[8.5353268,39.0550222],[8.5357738,39.0549384],[8.5357818,39.0548168],[8.5362178,39.0544209],[8.5355996,39.0544038],[8.5351395,39.0545112],[8.5349584,39.0548034],[8.5345825,39.0548571],[8.5343648,39.055006],[8.5343182,39.0552885],[8.5339671,39.0552928],[8.5337887,39.0551828],[8.5338294,39.0549239],[8.5340741,39.0544045],[8.5341286,39.0540116],[8.5344817,39.05371],[8.5345917,39.0534514],[8.5344578,39.053381],[8.5344519,39.0531816],[8.5365276,39.0518934],[8.536837,39.0514148],[8.5375052,39.0508351],[8.5384811,39.0502735],[8.5385822,39.0503815],[8.5390203,39.0502114],[8.5418166,39.0480282],[8.5424296,39.0477265],[8.54279,39.0473945],[8.5429054,39.0471855],[8.5436167,39.0466543],[8.5442382,39.0463628],[8.5456182,39.0460573],[8.5468838,39.0455745],[8.5476265,39.0450693],[8.5478709,39.044809],[8.5485814,39.044369],[8.5494691,39.0442475],[8.5498647,39.0442794],[8.5519571,39.0452899],[8.5531565,39.0461258],[8.5528082,39.0464457],[8.5526238,39.0464155],[8.5512551,39.0455091],[8.5501105,39.0456039],[8.5498667,39.0457741],[8.5498304,39.0460353],[8.5498981,39.0462969],[8.5495614,39.0465479],[8.5499074,39.0466484],[8.5499174,39.0469007],[8.5496036,39.0471788],[8.5489438,39.0473475],[8.5479976,39.0471366],[8.5477298,39.0474509],[8.547762,39.0478385],[8.547621,39.0482075],[8.547296,39.0484225],[8.5472915,39.0491343],[8.5474621,39.0495675],[8.5488031,39.0513029],[8.5492582,39.052431],[8.5491866,39.0527822],[8.5487464,39.0529427],[8.5485601,39.0531672],[8.5489181,39.0532137],[8.5493115,39.0531341],[8.5506449,39.0524544],[8.5509446,39.0525727],[8.5569167,39.0585609],[8.5639843,39.0632643],[8.5657235,39.064262],[8.5695546,39.0672138],[8.5702086,39.0680182],[8.5737246,39.0734558],[8.5768646,39.0761255],[8.5774614,39.0768576],[8.5779907,39.077283],[8.5787056,39.077601],[8.5795138,39.0777842],[8.5791271,39.0786478],[8.5791022,39.0789451],[8.5795668,39.0805327],[8.5808528,39.0839886],[8.5824913,39.0923838],[8.5828029,39.0924931],[8.5831273,39.0923861],[8.5871604,39.0908415],[8.5904624,39.0896998],[8.5875098,39.0923837],[8.5869067,39.0926969],[8.5865731,39.0923984],[8.5861224,39.0923607],[8.5855788,39.0923678],[8.5842125,39.0926873],[8.5823875,39.0943118],[8.5820739,39.094536],[8.5814833,39.094687],[8.5805814,39.0946748],[8.5801015,39.0936999],[8.5795823,39.0935088],[8.5770487,39.0932203],[8.5757004,39.092936],[8.5746821,39.0930585],[8.5739212,39.0926772],[8.5727023,39.0915374],[8.5715741,39.0907222],[8.5697752,39.0899046],[8.5685505,39.0897469],[8.5676245,39.0898966],[8.5671161,39.0898407],[8.5668034,39.0899296],[8.5645524,39.0911918],[8.5637994,39.0914143],[8.5611379,39.0917377],[8.5604999,39.0920597],[8.5592688,39.0929291],[8.5583495,39.0938538],[8.5580711,39.0940059],[8.5549588,39.0942734],[8.5549545,39.0949582],[8.5530705,39.0966451],[8.5524906,39.0969132],[8.5526883,39.098563],[8.5525472,39.0989319],[8.5526787,39.1000858],[8.5525925,39.1009235],[8.5524145,39.1016347],[8.552389,39.1020131],[8.5525599,39.1024193],[8.5524054,39.1030675],[8.5527073,39.1047176],[8.5527579,39.1058532],[8.5531118,39.1065845],[8.5523927,39.1069061],[8.5521018,39.1071843],[8.551611,39.1079844],[8.5502938,39.1095923],[8.5476121,39.1111409],[8.5465668,39.1118307],[8.5461479,39.1122075],[8.5453295,39.113574],[8.5448534,39.1138695],[8.5440415,39.1142087],[8.5426174,39.1144194],[8.5409839,39.1148095],[8.5396184,39.1149032],[8.5382842,39.1155197],[8.5374726,39.1158048],[8.5363721,39.1160618],[8.5369538,39.1173166],[8.5375551,39.1191212],[8.5399533,39.1292141],[8.5413677,39.1341216],[8.5418105,39.1354209],[8.549874,39.139219],[8.538133,39.1404436],[8.5366621,39.140654],[8.5301764,39.1345727],[8.5169088,39.1340679],[8.5155214,39.1339179],[8.508533,39.1305997],[8.5077629,39.1315336],[8.5071824,39.1318195],[8.5044513,39.131907],[8.5037788,39.1321204],[8.5018594,39.133599],[8.5018569,39.1339504],[8.5014251,39.1344712],[8.5013883,39.1347775],[8.5017543,39.1353737],[8.5019362,39.1358341],[8.5016413,39.1366348],[8.5018434,39.1375007],[8.5015035,39.138121],[8.5014771,39.1385895],[8.5010794,39.1391915],[8.4996568,39.1407353],[8.498056,39.1429271],[8.4972594,39.1442933],[8.4967941,39.1446428],[8.4964626,39.1456956],[8.496424,39.1462361],[8.4968289,39.1495088],[8.4969015,39.1506806],[8.4967907,39.1516172],[8.4965445,39.1520577],[8.4963064,39.1529848],[8.4963358,39.1537328],[8.4961812,39.1543179],[8.4964775,39.1547562],[8.4940692,39.1551107],[8.4904705,39.1550139],[8.4896234,39.1553256],[8.4876186,39.1556773],[8.4871891,39.1558556],[8.4868283,39.1561333],[8.4860288,39.156256],[8.485124,39.1565313],[8.4835562,39.1572633],[8.4822106,39.1576808],[8.4803939,39.1576277],[8.4798725,39.1576974],[8.4743454,39.1601056],[8.4737435,39.1601029],[8.4707417,39.1591071],[8.462955,39.1602609],[8.4583791,39.1607894],[8.4535407,39.1623167],[8.4520445,39.1630846],[8.4504066,39.1634734],[8.445823,39.1649295],[8.4454537,39.1647925],[8.4450893,39.1640249],[8.4431653,39.1628803],[8.4424523,39.1623002],[8.4403742,39.1616234],[8.439119,39.1608064],[8.4382421,39.1604598],[8.4375137,39.1603662],[8.4371645,39.1601617],[8.43679,39.1596778],[8.4356609,39.1590326],[8.4348292,39.1588303],[8.4340877,39.1589168]]]},"properties":{"type":"boundary","gemeente":"Santu Giuanni Suèrgiu/San Giovanni Suergiu"}}]}