{"type":"FeatureCollection","metadata":{"gemeente":"Santa Croce del Sannio","slug":"santa-croce-del-sannio","generated_at":"2026-09-26T14:28:00.036448Z","total_points":3,"providers":["PosteItaliane","DHL","Amazon"],"bounds":[14.732,41.3872,14.732058,41.38721424]},"features":[{"type":"Feature","geometry":{"type":"Point","coordinates":[14.73205791,41.38721424]},"properties":{"type":"pakketpunt","locatieNaam":"Santa Croce Del Sannio","straatNaam":"Largo Municipio","straatNr":"7","vervoerder":"PosteItaliane","puntType":"postkantoor","bezettingsgraad":50,"latitude":41.38721424,"longitude":14.73205791,"canPickup":true,"canDropoff":true,"openingstijden":{"za":"08:20 - 12:45","zo":"gesloten","ma":"08:20 - 13:45","di":"08:20 - 13:45","wo":"08:20 - 13:45","do":"08:20 - 13:45","vr":"08:20 - 13:45"}}},{"type":"Feature","geometry":{"type":"Point","coordinates":[14.732058,41.387214]},"properties":{"type":"pakketpunt","locatieNaam":"Ufficio Postale SANTA CROCE DEL SAN","straatNaam":"LARGO MUNICIPIO 7","straatNr":"","vervoerder":"DHL","puntType":"postOffice","bezettingsgraad":50,"latitude":41.387214,"longitude":14.732058,"canPickup":true,"canDropoff":true,"openingstijden":{"ma":"08:20 - 13:45","di":"08:20 - 13:45","wo":"08:20 - 13:45","do":"08:20 - 13:45","vr":"08:20 - 13:45","za":"08:20 - 12:45","zo":"gesloten"}}},{"type":"Feature","geometry":{"type":"Point","coordinates":[14.732,41.3872]},"properties":{"type":"pakketpunt","locatieNaam":"Ufficio Postale SANTA CROCE DEL SANNIO","straatNaam":"LARGO MUNICIPIO 7","straatNr":"","vervoerder":"Amazon","puntType":"3p","bezettingsgraad":50,"latitude":41.3872,"longitude":14.732,"canPickup":true,"canDropoff":false,"openingstijden":null}},{"type":"Feature","geometry":{"type":"Polygon","coordinates":[[[14.71444,41.4011185],[14.714169,41.4005372],[14.713693,41.4000433],[14.7122139,41.3988747],[14.7117873,41.3979732],[14.7108396,41.3969047],[14.7109908,41.3967571],[14.712281,41.396133],[14.7116678,41.3954902],[14.7115279,41.3948173],[14.7116114,41.3943952],[14.7115292,41.3940477],[14.7109586,41.3933785],[14.7108047,41.3923105],[14.7106195,41.3917031],[14.7092742,41.3903027],[14.7091936,41.3901013],[14.709575,41.389645],[14.7093934,41.3881563],[14.709645,41.3875387],[14.7096983,41.3865638],[14.7102734,41.3861526],[14.7108703,41.3858494],[14.710626,41.3850638],[14.7101248,41.3846476],[14.7090497,41.3843141],[14.7085151,41.3837709],[14.7087443,41.382835],[14.7093725,41.381872],[14.7095902,41.3809536],[14.7095395,41.3791178],[14.7098541,41.3782517],[14.7108193,41.3762278],[14.7118414,41.3748446],[14.7123109,41.3743216],[14.7132452,41.3737755],[14.7135597,41.3730621],[14.7136238,41.3723883],[14.7139362,41.3719316],[14.7142264,41.3710845],[14.7149445,41.3708597],[14.7153507,41.371105],[14.716831,41.3715128],[14.7171276,41.3723892],[14.7179793,41.3742282],[14.7183112,41.3751838],[14.7189447,41.3749047],[14.7192961,41.373888],[14.7198743,41.3728104],[14.7209326,41.3715604],[14.7243755,41.3692641],[14.726099,41.368863],[14.7280819,41.3687955],[14.7299347,41.3691756],[14.7313562,41.3697032],[14.7323216,41.3705146],[14.7347002,41.3707918],[14.7363971,41.3704864],[14.7383001,41.3703597],[14.739865,41.3704974],[14.7409163,41.3709759],[14.7428582,41.3725845],[14.7445662,41.3733272],[14.7463321,41.3743279],[14.7476699,41.374684],[14.7487715,41.3743362],[14.7506838,41.3745914],[14.751986,41.3751787],[14.7532022,41.3760764],[14.7563164,41.3776575],[14.7601907,41.3802567],[14.7598175,41.3817261],[14.7584918,41.3844887],[14.7579105,41.3864533],[14.7578327,41.3883341],[14.7583267,41.3905316],[14.7582988,41.3913713],[14.757961,41.3921625],[14.7574443,41.3927735],[14.7573341,41.3936235],[14.7575931,41.3945304],[14.7581033,41.395567],[14.7595711,41.3969381],[14.76157,41.3995292],[14.7634152,41.4021461],[14.7640579,41.403293],[14.7646738,41.4047518],[14.7655309,41.406032],[14.7664696,41.4077357],[14.7672431,41.4088985],[14.7677533,41.4100071],[14.7678422,41.412019],[14.7680302,41.4130088],[14.7684704,41.4135312],[14.7692582,41.4142478],[14.7685017,41.4152985],[14.7677924,41.4160724],[14.766509,41.4167445],[14.7647004,41.4173681],[14.762584,41.4169373],[14.7604694,41.4160534],[14.7585207,41.4153726],[14.7577923,41.4148105],[14.7571256,41.4139708],[14.7556033,41.4114277],[14.7551629,41.4109142],[14.7538744,41.4100022],[14.7513424,41.4088824],[14.7500521,41.4085691],[14.749166,41.4084785],[14.745565,41.4085329],[14.7427906,41.4081858],[14.741427,41.407939],[14.7385683,41.4078976],[14.7366924,41.4073073],[14.7350668,41.406898],[14.7324037,41.4058924],[14.731352,41.4055849],[14.7288548,41.404553],[14.7281626,41.4041599],[14.7257859,41.4032389],[14.7245202,41.4028925],[14.7227141,41.4026811],[14.7215059,41.4023633],[14.7197267,41.4017004],[14.7192491,41.4014362],[14.718114,41.4011462],[14.7172786,41.4008278],[14.7165736,41.4007639],[14.7158311,41.4008099],[14.71444,41.4011185]]]},"properties":{"type":"boundary","gemeente":"Santa Croce del Sannio"}}]}