{"type":"FeatureCollection","metadata":{"gemeente":"Sant'Anastasia","slug":"sant-anastasia","generated_at":"2026-09-26T13:10:39.482011Z","total_points":44,"providers":["PosteItaliane","DPD","InPost","GLS","DHL","Amazon"],"bounds":[14.382544,40.866336,14.40810031,40.890883]},"features":[{"type":"Feature","geometry":{"type":"Point","coordinates":[14.38842474,40.86961991]},"properties":{"type":"pakketpunt","locatieNaam":"Madonna Dell'arco","straatNaam":"Via Madonna Dell'arco","straatNr":"122","vervoerder":"PosteItaliane","puntType":"postkantoor","bezettingsgraad":50,"latitude":40.86961991,"longitude":14.38842474,"canPickup":true,"canDropoff":true,"openingstijden":{"za":"08:20 - 12:35","zo":"gesloten","ma":"08:20 - 13:35","di":"08:20 - 13:35","wo":"08:20 - 13:35","do":"08:20 - 13:35","vr":"08:20 - 13:35"}}},{"type":"Feature","geometry":{"type":"Point","coordinates":[14.39719946,40.86652267]},"properties":{"type":"pakketpunt","locatieNaam":"Sant'anastasia","straatNaam":"Via Giovanni Primicerio","straatNr":"68","vervoerder":"PosteItaliane","puntType":"postkantoor","bezettingsgraad":50,"latitude":40.86652267,"longitude":14.39719946,"canPickup":true,"canDropoff":true,"openingstijden":{"za":"08:20 - 12:35","zo":"gesloten","ma":"08:20 - 19:05","di":"08:20 - 19:05","wo":"08:20 - 19:05","do":"08:20 - 19:05","vr":"08:20 - 19:05"}}},{"type":"Feature","geometry":{"type":"Point","coordinates":[14.40072162,40.8686002]},"properties":{"type":"pakketpunt","locatieNaam":"Tabaccheria N. 2","straatNaam":"Via Mario De Rosa","straatNr":"24","vervoerder":"PosteItaliane","puntType":"servicepunt","bezettingsgraad":50,"latitude":40.8686002,"longitude":14.40072162,"canPickup":true,"canDropoff":true,"openingstijden":{"za":"08:00 - 13:00, 16:00 - 20:00","zo":"gesloten","ma":"08:00 - 13:00, 16:00 - 20:00","di":"08:00 - 13:00, 16:00 - 20:00","wo":"08:00 - 13:00, 16:00 - 20:00","do":"08:00 - 13:00, 16:00 - 20:00","vr":"08:00 - 13:00, 16:00 - 20:00"}}},{"type":"Feature","geometry":{"type":"Point","coordinates":[14.40239807,40.86633643]},"properties":{"type":"pakketpunt","locatieNaam":"Tabaccheria N. 1","straatNaam":"Via Giuseppe Garibaldi","straatNr":"1","vervoerder":"PosteItaliane","puntType":"servicepunt","bezettingsgraad":50,"latitude":40.86633643,"longitude":14.40239807,"canPickup":true,"canDropoff":true,"openingstijden":{"za":"07:00 - 13:30, 16:00 - 20:30","zo":"08:00 - 13:30","ma":"07:00 - 13:30, 16:00 - 20:30","di":"07:00 - 13:30, 16:00 - 20:30","wo":"07:00 - 13:30, 16:00 - 20:30","do":"07:00 - 13:30, 16:00 - 20:30","vr":"07:00 - 13:30, 16:00 - 20:30"}}},{"type":"Feature","geometry":{"type":"Point","coordinates":[14.40202234,40.86911208]},"properties":{"type":"pakketpunt","locatieNaam":"Tabaccheria N. 10","straatNaam":"Via Antonio D'auria","straatNr":"60","vervoerder":"PosteItaliane","puntType":"servicepunt","bezettingsgraad":50,"latitude":40.86911208,"longitude":14.40202234,"canPickup":true,"canDropoff":true,"openingstijden":{"za":"08:00 - 13:00, 16:00 - 20:30","zo":"gesloten","ma":"08:00 - 13:00, 16:00 - 20:30","di":"08:00 - 13:00, 16:00 - 20:30","wo":"08:00 - 13:00, 16:00 - 20:30","do":"08:00 - 13:00, 16:00 - 20:30","vr":"08:00 - 13:00, 16:00 - 20:30"}}},{"type":"Feature","geometry":{"type":"Point","coordinates":[14.40100815,40.86768981]},"properties":{"type":"pakketpunt","locatieNaam":"Diffusion Service","straatNaam":"Via Mario De Rosa","straatNr":"55","vervoerder":"PosteItaliane","puntType":"servicepunt","bezettingsgraad":50,"latitude":40.86768981,"longitude":14.40100815,"canPickup":true,"canDropoff":true,"openingstijden":{"za":"09:00 - 12:30","zo":"gesloten","ma":"09:00 - 13:00, 15:30 - 19:00","di":"09:00 - 13:00, 15:30 - 19:00","wo":"09:00 - 13:00, 15:30 - 19:00","do":"09:00 - 13:00, 15:30 - 19:00","vr":"09:00 - 13:00, 15:30 - 19:00"}}},{"type":"Feature","geometry":{"type":"Point","coordinates":[14.38333371,40.86839126]},"properties":{"type":"pakketpunt","locatieNaam":"Tabaccheria N. 7","straatNaam":"Via Madonna Dell'arco","straatNr":"507","vervoerder":"PosteItaliane","puntType":"servicepunt","bezettingsgraad":50,"latitude":40.86839126,"longitude":14.38333371,"canPickup":true,"canDropoff":true,"openingstijden":{"za":"07:30 - 20:30","zo":"07:30 - 13:00","ma":"07:30 - 20:30","di":"07:30 - 20:30","wo":"07:30 - 20:30","do":"07:30 - 20:30","vr":"07:30 - 20:30"}}},{"type":"Feature","geometry":{"type":"Point","coordinates":[14.39120082,40.87193617]},"properties":{"type":"pakketpunt","locatieNaam":"Emporio Enologico Vesuviano","straatNaam":"Via Fusco","straatNr":"29","vervoerder":"PosteItaliane","puntType":"servicepunt","bezettingsgraad":50,"latitude":40.87193617,"longitude":14.39120082,"canPickup":true,"canDropoff":true,"openingstijden":{"za":"09:00 - 13:30","zo":"gesloten","ma":"09:00 - 13:00, 15:00 - 17:30","di":"09:00 - 13:00, 15:00 - 17:30","wo":"09:00 - 13:00, 15:00 - 17:30","do":"09:00 - 13:00, 15:00 - 17:30","vr":"09:00 - 13:00, 15:00 - 17:30"}}},{"type":"Feature","geometry":{"type":"Point","coordinates":[14.40810031,40.86662428]},"properties":{"type":"pakketpunt","locatieNaam":"Tabaccheria N. 11","straatNaam":"Via Capodivilla","straatNr":"175","vervoerder":"PosteItaliane","puntType":"servicepunt","bezettingsgraad":50,"latitude":40.86662428,"longitude":14.40810031,"canPickup":true,"canDropoff":true,"openingstijden":{"za":"08:00 - 20:30","zo":"gesloten","ma":"08:00 - 20:30","di":"08:00 - 20:30","wo":"08:00 - 20:30","do":"08:00 - 20:30","vr":"08:00 - 20:30"}}},{"type":"Feature","geometry":{"type":"Point","coordinates":[14.38289804,40.88277889]},"properties":{"type":"pakketpunt","locatieNaam":"Tabaccheria N. 8","straatNaam":"Via Romani","straatNr":"117","vervoerder":"PosteItaliane","puntType":"servicepunt","bezettingsgraad":50,"latitude":40.88277889,"longitude":14.38289804,"canPickup":true,"canDropoff":true,"openingstijden":{"za":"06:00 - 13:00, 16:00 - 21:00","zo":"06:00 - 13:00","ma":"06:00 - 13:00, 16:00 - 21:00","di":"06:00 - 13:00, 16:00 - 21:00","wo":"06:00 - 13:00, 16:00 - 21:00","do":"06:00 - 13:00, 16:00 - 21:00","vr":"06:00 - 13:00, 16:00 - 21:00"}}},{"type":"Feature","geometry":{"type":"Point","coordinates":[14.39828683,40.87274918]},"properties":{"type":"pakketpunt","locatieNaam":"Tabaccheria N. 14","straatNaam":"Via Emilio Merone","straatNr":"8","vervoerder":"PosteItaliane","puntType":"servicepunt","bezettingsgraad":50,"latitude":40.87274918,"longitude":14.39828683,"canPickup":true,"canDropoff":true,"openingstijden":{"za":"07:30 - 13:00, 16:00 - 20:00","zo":"gesloten","ma":"07:30 - 13:00, 16:00 - 20:00","di":"07:30 - 13:00, 16:00 - 20:00","wo":"07:30 - 13:00, 16:00 - 20:00","do":"07:30 - 13:00, 16:00 - 20:00","vr":"07:30 - 13:00, 16:00 - 20:00"}}},{"type":"Feature","geometry":{"type":"Point","coordinates":[14.39601911,40.88643395]},"properties":{"type":"pakketpunt","locatieNaam":"Tabaccheria N. 9","straatNaam":"Via Pomigliano","straatNr":"114","vervoerder":"PosteItaliane","puntType":"servicepunt","bezettingsgraad":50,"latitude":40.88643395,"longitude":14.39601911,"canPickup":true,"canDropoff":true,"openingstijden":{"za":"07:15 - 13:30, 15:30 - 20:00","zo":"gesloten","ma":"07:15 - 13:30, 15:30 - 20:00","di":"07:15 - 13:30, 15:30 - 20:00","wo":"07:15 - 13:30, 15:30 - 20:00","do":"07:15 - 13:30, 15:30 - 20:00","vr":"07:15 - 13:30, 15:30 - 20:00"}}},{"type":"Feature","geometry":{"type":"Point","coordinates":[14.40227434,40.86961006]},"properties":{"type":"pakketpunt","locatieNaam":"Globo Express-S.Anastasia","straatNaam":"VIA ROMA","straatNr":"63","vervoerder":"DPD","puntType":"pickup_point","bezettingsgraad":50,"latitude":40.86961006,"longitude":14.40227434,"canPickup":true,"canDropoff":true,"openingstijden":{"ma":"09:30 - 18:30","di":"09:30 - 18:30","wo":"09:30 - 18:30","do":"09:30 - 18:30","vr":"09:30 - 18:30","za":"gesloten","zo":"gesloten"}}},{"type":"Feature","geometry":{"type":"Point","coordinates":[14.3951655,40.8895979]},"properties":{"type":"pakketpunt","locatieNaam":"Sweet Bar","straatNaam":"VIA POMIGLIANO","straatNr":"120","vervoerder":"DPD","puntType":"pickup_point","bezettingsgraad":50,"latitude":40.8895979,"longitude":14.3951655,"canPickup":true,"canDropoff":true,"openingstijden":{"ma":"06:00 - 22:00","di":"06:00 - 22:00","wo":"06:00 - 22:00","do":"06:00 - 22:00","vr":"06:00 - 22:00","za":"06:00 - 22:00","zo":"07:00 - 14:00"}}},{"type":"Feature","geometry":{"type":"Point","coordinates":[14.3833728,40.868296]},"properties":{"type":"pakketpunt","locatieNaam":"Tabaccheria Maione","straatNaam":"VIA M. DELL'ARCO","straatNr":"507","vervoerder":"DPD","puntType":"pickup_point","bezettingsgraad":50,"latitude":40.868296,"longitude":14.3833728,"canPickup":true,"canDropoff":true,"openingstijden":{"ma":"07:00 - 20:00","di":"07:00 - 20:00","wo":"07:00 - 20:00","do":"07:00 - 20:00","vr":"07:00 - 20:00","za":"07:00 - 20:00","zo":"07:00 - 13:00"}}},{"type":"Feature","geometry":{"type":"Point","coordinates":[14.39685978,40.86955252]},"properties":{"type":"pakketpunt","locatieNaam":"Edicola Gifuni","straatNaam":"VIA PRIMICERIO","straatNr":"14","vervoerder":"DPD","puntType":"pickup_point","bezettingsgraad":50,"latitude":40.86955252,"longitude":14.39685978,"canPickup":true,"canDropoff":true,"openingstijden":{"ma":"07:00 - 13:00, 16:00 - 20:00","di":"07:00 - 13:00, 16:00 - 20:00","wo":"07:00 - 13:00, 16:00 - 20:00","do":"07:00 - 13:00, 16:00 - 20:00","vr":"07:00 - 13:00, 16:00 - 20:00","za":"07:00 - 13:00","zo":"08:00 - 13:00"}}},{"type":"Feature","geometry":{"type":"Point","coordinates":[14.4010597,40.8676553]},"properties":{"type":"pakketpunt","locatieNaam":"Diffusion Service","straatNaam":"VIA MARIO DE ROSA","straatNr":"55","vervoerder":"DPD","puntType":"pickup_point","bezettingsgraad":50,"latitude":40.8676553,"longitude":14.4010597,"canPickup":true,"canDropoff":true,"openingstijden":{"ma":"09:00 - 13:00, 16:00 - 19:00","di":"09:00 - 13:00, 16:00 - 19:00","wo":"09:00 - 13:00, 16:00 - 19:00","do":"09:00 - 13:00, 16:00 - 19:00","vr":"09:00 - 13:00, 16:00 - 19:00","za":"09:00 - 12:30","zo":"gesloten"}}},{"type":"Feature","geometry":{"type":"Point","coordinates":[14.40219,40.86977]},"properties":{"type":"pakketpunt","locatieNaam":"Ciro Express (Globo Express)","straatNaam":"Via Roma","straatNr":"63","vervoerder":"InPost","puntType":"automaat","bezettingsgraad":50,"latitude":40.86977,"longitude":14.40219,"canPickup":true,"canDropoff":true,"openingstijden":null}},{"type":"Feature","geometry":{"type":"Point","coordinates":[14.40106,40.86766]},"properties":{"type":"pakketpunt","locatieNaam":"InPost Locker","straatNaam":"Via Mario de Rosa","straatNr":"55","vervoerder":"InPost","puntType":"automaat","bezettingsgraad":50,"latitude":40.86766,"longitude":14.40106,"canPickup":true,"canDropoff":true,"openingstijden":null}},{"type":"Feature","geometry":{"type":"Point","coordinates":[14.4022318,40.8663915]},"properties":{"type":"pakketpunt","locatieNaam":"TABACCHERIA ESPOSITO PASQUALE","straatNaam":"Via Giuseppe Garibaldi","straatNr":"1","vervoerder":"GLS","puntType":"parcel_shop","bezettingsgraad":50,"latitude":40.8663915,"longitude":14.4022318,"canPickup":true,"canDropoff":true,"openingstijden":"za: 08:30 - 13:00, 16:00 - 20:00; ma: 08:30 - 13:00, 16:00 - 20:00"}},{"type":"Feature","geometry":{"type":"Point","coordinates":[14.4010597,40.8676553]},"properties":{"type":"pakketpunt","locatieNaam":"Diffusion service","straatNaam":"Via Mario De Rosa","straatNr":"55","vervoerder":"GLS","puntType":"parcel_shop","bezettingsgraad":50,"latitude":40.8676553,"longitude":14.4010597,"canPickup":true,"canDropoff":true,"openingstijden":"ma: 09:00 - 13:00, 15:30 - 19:00; di: 09:00 - 13:00, 15:30 - 18:30"}},{"type":"Feature","geometry":{"type":"Point","coordinates":[14.3833728,40.868296]},"properties":{"type":"pakketpunt","locatieNaam":"tabacchi N7","straatNaam":"Via Madonna Dell'Arco","straatNr":"507","vervoerder":"GLS","puntType":"parcel_shop","bezettingsgraad":50,"latitude":40.868296,"longitude":14.3833728,"canPickup":true,"canDropoff":true,"openingstijden":"za: 07:30 - 20:00; zo: 07:30 - 13:00"}},{"type":"Feature","geometry":{"type":"Point","coordinates":[14.4021624,40.8687835]},"properties":{"type":"pakketpunt","locatieNaam":"Autoscuola BOVE srl","straatNaam":"P.Zza Iv Novembre","straatNr":"8","vervoerder":"GLS","puntType":"parcel_shop","bezettingsgraad":50,"latitude":40.8687835,"longitude":14.4021624,"canPickup":true,"canDropoff":true,"openingstijden":"ma: 09:00 - 13:30, 16:00 - 22:00; di: 09:00 - 13:30, 16:00 - 22:00"}},{"type":"Feature","geometry":{"type":"Point","coordinates":[14.3969558,40.8693572]},"properties":{"type":"pakketpunt","locatieNaam":"EDICOLA GIFUNI","straatNaam":"Via Primicerio","straatNr":"14","vervoerder":"GLS","puntType":"parcel_shop","bezettingsgraad":50,"latitude":40.8693572,"longitude":14.3969558,"canPickup":true,"canDropoff":true,"openingstijden":"za: 07:00 - 13:00, 16:00 - 20:00; zo: 07:00 - 13:00"}},{"type":"Feature","geometry":{"type":"Point","coordinates":[14.402273,40.869606]},"properties":{"type":"pakketpunt","locatieNaam":"GLOBO EXPRESS S. ANASTASIA","straatNaam":"Via Roma","straatNr":"63","vervoerder":"GLS","puntType":"parcel_shop","bezettingsgraad":50,"latitude":40.869606,"longitude":14.402273,"canPickup":true,"canDropoff":true,"openingstijden":"ma: 09:30 - 18:30; di: 09:30 - 18:30"}},{"type":"Feature","geometry":{"type":"Point","coordinates":[14.4013805,40.869632]},"properties":{"type":"pakketpunt","locatieNaam":"snai vincendo","straatNaam":"Piazza Carlo Cattaneo","straatNr":"20/21","vervoerder":"GLS","puntType":"parcel_shop","bezettingsgraad":50,"latitude":40.869632,"longitude":14.4013805,"canPickup":true,"canDropoff":true,"openingstijden":"za: 08:30 - 21:30; zo: 08:30 - 21:30"}},{"type":"Feature","geometry":{"type":"Point","coordinates":[14.3905803,40.8720926]},"properties":{"type":"pakketpunt","locatieNaam":"Emporio Enologico vesuviano","straatNaam":"Via Fusco","straatNr":"29","vervoerder":"GLS","puntType":"parcel_shop","bezettingsgraad":50,"latitude":40.8720926,"longitude":14.3905803,"canPickup":true,"canDropoff":true,"openingstijden":"za: 09:00 - 13:30, 15:00 - 17:30; zo: 09:00 - 13:00"}},{"type":"Feature","geometry":{"type":"Point","coordinates":[14.383347,40.868351]},"properties":{"type":"pakketpunt","locatieNaam":"TABACCHERIA MAIONE","straatNaam":"Via Madonna Dell arco, 507","straatNr":"","vervoerder":"DHL","puntType":"parcelShop","bezettingsgraad":50,"latitude":40.868351,"longitude":14.383347,"canPickup":false,"canDropoff":true,"openingstijden":{"ma":"07:00 - 20:00","di":"07:00 - 20:00","wo":"07:00 - 20:00","do":"07:00 - 20:00","vr":"07:00 - 20:00","za":"07:30 - 20:00","zo":"gesloten"}}},{"type":"Feature","geometry":{"type":"Point","coordinates":[14.383334,40.868391]},"properties":{"type":"pakketpunt","locatieNaam":"TABACCHERIA N. 7","straatNaam":"VIA MADONNA DELLARCO 507","straatNr":"","vervoerder":"DHL","puntType":"parcelShop","bezettingsgraad":50,"latitude":40.868391,"longitude":14.383334,"canPickup":true,"canDropoff":true,"openingstijden":{"ma":"07:30 - 20:30","di":"07:30 - 20:30","wo":"07:30 - 20:30","do":"07:30 - 20:30","vr":"07:30 - 20:30","za":"07:30 - 20:30","zo":"07:30 - 13:00"}}},{"type":"Feature","geometry":{"type":"Point","coordinates":[14.388694,40.869385]},"properties":{"type":"pakketpunt","locatieNaam":"KONNESSO SRL","straatNaam":"Via Rossi, 328","straatNr":"","vervoerder":"DHL","puntType":"parcelShop","bezettingsgraad":50,"latitude":40.869385,"longitude":14.388694,"canPickup":false,"canDropoff":true,"openingstijden":{"ma":"09:30 - 20:00","di":"09:30 - 20:00","wo":"09:30 - 20:00","do":"09:30 - 20:00","vr":"09:30 - 20:00","za":"09:30 - 20:00","zo":"gesloten"}}},{"type":"Feature","geometry":{"type":"Point","coordinates":[14.388425,40.86962]},"properties":{"type":"pakketpunt","locatieNaam":"Ufficio Postale MADONNA DELL'ARCO","straatNaam":"VIA MADONNA DELLARCO 122","straatNr":"","vervoerder":"DHL","puntType":"postOffice","bezettingsgraad":50,"latitude":40.86962,"longitude":14.388425,"canPickup":true,"canDropoff":true,"openingstijden":{"ma":"08:20 - 13:35","di":"08:20 - 13:35","wo":"08:20 - 13:35","do":"08:20 - 13:35","vr":"08:20 - 13:35","za":"08:20 - 12:35","zo":"gesloten"}}},{"type":"Feature","geometry":{"type":"Point","coordinates":[14.391201,40.871936]},"properties":{"type":"pakketpunt","locatieNaam":"EMPORIO ENOLOGICO VESUVIANO","straatNaam":"VIA FUSCO 29","straatNr":"","vervoerder":"DHL","puntType":"parcelShop","bezettingsgraad":50,"latitude":40.871936,"longitude":14.391201,"canPickup":true,"canDropoff":true,"openingstijden":{"ma":"09:00 - 13:00, 15:00 - 17:30","di":"09:00 - 13:00, 15:00 - 17:30","wo":"09:00 - 13:00, 15:00 - 17:30","do":"09:00 - 13:00, 15:00 - 17:30","vr":"09:00 - 13:00, 15:00 - 17:30","za":"09:00 - 13:30","zo":"gesloten"}}},{"type":"Feature","geometry":{"type":"Point","coordinates":[14.397199,40.866523]},"properties":{"type":"pakketpunt","locatieNaam":"Ufficio Postale SANT'ANASTASIA","straatNaam":"VIA PRIMICERIO 68","straatNr":"","vervoerder":"DHL","puntType":"postOffice","bezettingsgraad":50,"latitude":40.866523,"longitude":14.397199,"canPickup":true,"canDropoff":true,"openingstijden":{"ma":"08:20 - 19:05","di":"08:20 - 19:05","wo":"08:20 - 19:05","do":"08:20 - 19:05","vr":"08:20 - 19:05","za":"08:20 - 12:35","zo":"gesloten"}}},{"type":"Feature","geometry":{"type":"Point","coordinates":[14.401008,40.86769]},"properties":{"type":"pakketpunt","locatieNaam":"DIFFUSION SERVICE","straatNaam":"VIA MARIO DE ROSA 55","straatNr":"","vervoerder":"DHL","puntType":"parcelShop","bezettingsgraad":50,"latitude":40.86769,"longitude":14.401008,"canPickup":true,"canDropoff":true,"openingstijden":{"ma":"09:00 - 13:00, 15:30 - 19:00","di":"09:00 - 13:00, 15:30 - 19:00","wo":"09:00 - 13:00, 15:30 - 19:00","do":"09:00 - 13:00, 15:30 - 19:00","vr":"09:00 - 13:00, 15:30 - 19:00","za":"09:00 - 12:30","zo":"gesloten"}}},{"type":"Feature","geometry":{"type":"Point","coordinates":[14.400722,40.8686]},"properties":{"type":"pakketpunt","locatieNaam":"TABACCHERIA N. 2","straatNaam":"VIA MARIO DE ROSA 24","straatNr":"","vervoerder":"DHL","puntType":"parcelShop","bezettingsgraad":50,"latitude":40.8686,"longitude":14.400722,"canPickup":true,"canDropoff":true,"openingstijden":{"ma":"08:00 - 13:00, 16:00 - 20:00","di":"08:00 - 13:00, 16:00 - 20:00","wo":"08:00 - 13:00, 16:00 - 20:00","do":"08:00 - 13:00, 16:00 - 20:00","vr":"08:00 - 13:00, 16:00 - 20:00","za":"08:00 - 13:00, 16:00 - 20:00","zo":"gesloten"}}},{"type":"Feature","geometry":{"type":"Point","coordinates":[14.398287,40.872749]},"properties":{"type":"pakketpunt","locatieNaam":"TABACCHERIA N. 14","straatNaam":"VIA EMILIO MERONE 8","straatNr":"","vervoerder":"DHL","puntType":"parcelShop","bezettingsgraad":50,"latitude":40.872749,"longitude":14.398287,"canPickup":true,"canDropoff":true,"openingstijden":{"ma":"07:30 - 13:00, 16:00 - 20:00","di":"07:30 - 13:00, 16:00 - 20:00","wo":"07:30 - 13:00, 16:00 - 20:00","do":"07:30 - 13:00, 16:00 - 20:00","vr":"07:30 - 13:00, 16:00 - 20:00","za":"07:30 - 13:00, 16:00 - 20:00","zo":"gesloten"}}},{"type":"Feature","geometry":{"type":"Point","coordinates":[14.402398,40.866336]},"properties":{"type":"pakketpunt","locatieNaam":"TABACCHERIA N. 1","straatNaam":"VIA GIUSEPPE GARIBALDI 1","straatNr":"","vervoerder":"DHL","puntType":"parcelShop","bezettingsgraad":50,"latitude":40.866336,"longitude":14.402398,"canPickup":true,"canDropoff":true,"openingstijden":{"ma":"07:00 - 13:30, 16:00 - 20:30","di":"07:00 - 13:30, 16:00 - 20:30","wo":"07:00 - 13:30, 16:00 - 20:30","do":"07:00 - 13:30, 16:00 - 20:30","vr":"07:00 - 13:30, 16:00 - 20:30","za":"07:00 - 13:30, 16:00 - 20:30","zo":"08:00 - 13:30"}}},{"type":"Feature","geometry":{"type":"Point","coordinates":[14.402022,40.869112]},"properties":{"type":"pakketpunt","locatieNaam":"TABACCHERIA N. 10","straatNaam":"VIA ANTONIO DAURIA 60","straatNr":"","vervoerder":"DHL","puntType":"parcelShop","bezettingsgraad":50,"latitude":40.869112,"longitude":14.402022,"canPickup":true,"canDropoff":true,"openingstijden":{"ma":"08:00 - 13:00, 16:00 - 20:30","di":"08:00 - 13:00, 16:00 - 20:30","wo":"08:00 - 13:00, 16:00 - 20:30","do":"08:00 - 13:00, 16:00 - 20:30","vr":"08:00 - 13:00, 16:00 - 20:30","za":"08:00 - 13:00, 16:00 - 20:30","zo":"gesloten"}}},{"type":"Feature","geometry":{"type":"Point","coordinates":[14.4081,40.866624]},"properties":{"type":"pakketpunt","locatieNaam":"TABACCHERIA N. 11","straatNaam":"VIA CAPODIVILLA 175","straatNr":"","vervoerder":"DHL","puntType":"parcelShop","bezettingsgraad":50,"latitude":40.866624,"longitude":14.4081,"canPickup":true,"canDropoff":true,"openingstijden":{"ma":"08:00 - 20:30","di":"08:00 - 20:30","wo":"08:00 - 20:30","do":"08:00 - 20:30","vr":"08:00 - 20:30","za":"08:00 - 20:30","zo":"gesloten"}}},{"type":"Feature","geometry":{"type":"Point","coordinates":[14.382898,40.882779]},"properties":{"type":"pakketpunt","locatieNaam":"TABACCHERIA N. 8","straatNaam":"VIA ROMANI 117","straatNr":"","vervoerder":"DHL","puntType":"parcelShop","bezettingsgraad":50,"latitude":40.882779,"longitude":14.382898,"canPickup":true,"canDropoff":true,"openingstijden":{"ma":"06:00 - 13:00, 16:00 - 21:00","di":"06:00 - 13:00, 16:00 - 21:00","wo":"06:00 - 13:00, 16:00 - 21:00","do":"06:00 - 13:00, 16:00 - 21:00","vr":"06:00 - 13:00, 16:00 - 21:00","za":"06:00 - 13:00, 16:00 - 21:00","zo":"06:00 - 13:00"}}},{"type":"Feature","geometry":{"type":"Point","coordinates":[14.396019,40.886434]},"properties":{"type":"pakketpunt","locatieNaam":"TABACCHERIA N. 9","straatNaam":"VIA POMIGLIANO 114","straatNr":"","vervoerder":"DHL","puntType":"parcelShop","bezettingsgraad":50,"latitude":40.886434,"longitude":14.396019,"canPickup":true,"canDropoff":true,"openingstijden":{"ma":"07:15 - 13:30, 15:30 - 20:00","di":"07:15 - 13:30, 15:30 - 20:00","wo":"07:15 - 13:30, 15:30 - 20:00","do":"07:15 - 13:30, 15:30 - 20:00","vr":"07:15 - 13:30, 15:30 - 20:00","za":"07:15 - 13:30, 15:30 - 20:00","zo":"gesloten"}}},{"type":"Feature","geometry":{"type":"Point","coordinates":[14.382544,40.868295]},"properties":{"type":"pakketpunt","locatieNaam":"Amazon Locker - humus","straatNaam":"TUTTIGIORNI - S.ANASTASIA","straatNr":"","vervoerder":"Amazon","puntType":"locker","bezettingsgraad":50,"latitude":40.868295,"longitude":14.382544,"canPickup":true,"canDropoff":false,"openingstijden":null}},{"type":"Feature","geometry":{"type":"Point","coordinates":[14.395049,40.889623]},"properties":{"type":"pakketpunt","locatieNaam":"Amazon Locker - teodorina1","straatNaam":"Fermopoint/Sweet Bar","straatNr":"","vervoerder":"Amazon","puntType":"locker","bezettingsgraad":50,"latitude":40.889623,"longitude":14.395049,"canPickup":true,"canDropoff":false,"openingstijden":null}},{"type":"Feature","geometry":{"type":"Point","coordinates":[14.405782,40.890883]},"properties":{"type":"pakketpunt","locatieNaam":"Amazon Locker - agesilao","straatNaam":"SI.D.I. Piccolo - Location IPER","straatNr":"","vervoerder":"Amazon","puntType":"locker","bezettingsgraad":50,"latitude":40.890883,"longitude":14.405782,"canPickup":true,"canDropoff":false,"openingstijden":null}},{"type":"Feature","geometry":{"type":"Polygon","coordinates":[[[14.3650341,40.8859124],[14.3651492,40.8855723],[14.3655046,40.8850424],[14.3654552,40.8846766],[14.3656626,40.8846393],[14.3653269,40.88399],[14.3666992,40.8835794],[14.368338,40.8822881],[14.3692167,40.8811237],[14.3703718,40.8800862],[14.3708281,40.8795598],[14.3716426,40.8786118],[14.3720303,40.8780089],[14.3729474,40.8775527],[14.374185,40.8776523],[14.3753965,40.8773203],[14.3753988,40.8764348],[14.3737075,40.8759306],[14.3738945,40.8757892],[14.375041,40.8753404],[14.3753256,40.8751191],[14.3757565,40.8742706],[14.3762362,40.8739386],[14.3767481,40.8732862],[14.3770489,40.8723762],[14.3778582,40.8711231],[14.3785493,40.8695852],[14.3799364,40.8700668],[14.3817634,40.8678567],[14.3828412,40.8681885],[14.3871946,40.8643209],[14.3948044,40.8599941],[14.3967456,40.8526876],[14.3976897,40.8506313],[14.3982773,40.8497665],[14.3991735,40.8492068],[14.4023546,40.847626],[14.4056877,40.8463756],[14.4087097,40.8453648],[14.4100434,40.8447574],[14.4169095,40.8382721],[14.4172566,40.8378506],[14.4177048,40.8368438],[14.4179104,40.8350156],[14.4177838,40.8344994],[14.429043,40.8368268],[14.4244384,40.8463885],[14.4172676,40.8688943],[14.4166775,40.8693851],[14.416184,40.8706751],[14.4164468,40.8707116],[14.4163342,40.8709672],[14.4160445,40.8713241],[14.4155939,40.8716568],[14.4150779,40.8726643],[14.4151013,40.8729352],[14.416433,40.8741425],[14.4173831,40.8756265],[14.4188239,40.8762507],[14.4211629,40.8767941],[14.4178871,40.88048],[14.4162998,40.8817668],[14.415709,40.8820601],[14.4158236,40.8821602],[14.4157883,40.8823951],[14.4147969,40.8855101],[14.4148851,40.8861643],[14.4146582,40.8873177],[14.4143033,40.888226],[14.4142765,40.8895283],[14.4140305,40.8901645],[14.4134673,40.8909622],[14.4132023,40.8914847],[14.4129897,40.8922216],[14.4129458,40.8927868],[14.4130029,40.893217],[14.4117829,40.8935927],[14.4094897,40.8946476],[14.4077828,40.8959235],[14.4075709,40.8962968],[14.4075137,40.8966596],[14.4072589,40.8967297],[14.4058563,40.8966887],[14.4055718,40.8972442],[14.4035565,40.896945],[14.4036671,40.8966524],[14.4017598,40.8961246],[14.4019329,40.8957323],[14.398826,40.8956929],[14.3987853,40.896458],[14.3964033,40.8965368],[14.3963528,40.8962499],[14.3937656,40.8955438],[14.3927713,40.8962824],[14.3919407,40.8958657],[14.391959,40.8964133],[14.3901025,40.8965406],[14.3901144,40.8961935],[14.3904464,40.895524],[14.389046,40.8952924],[14.3889037,40.8956331],[14.3875836,40.8954593],[14.3871798,40.8968871],[14.3870128,40.8978366],[14.3878404,40.8994671],[14.3870745,40.8999354],[14.3863657,40.8987508],[14.3852098,40.8989633],[14.3831841,40.899047],[14.3834687,40.8976631],[14.3855609,40.8978496],[14.3852084,40.8953449],[14.384979,40.8953031],[14.384979,40.8948278],[14.3852233,40.8940679],[14.3839336,40.8938414],[14.3825983,40.8963574],[14.381725,40.8962198],[14.3818182,40.895566],[14.3824761,40.8937541],[14.3823588,40.8935325],[14.3825738,40.8928137],[14.3809454,40.8925232],[14.3805909,40.8937785],[14.3787932,40.8981407],[14.3796712,40.8990861],[14.3803455,40.9003871],[14.3765398,40.9004186],[14.3741779,40.8972424],[14.3737648,40.8968694],[14.3732606,40.8966382],[14.3717478,40.8957015],[14.371088,40.8954136],[14.369432,40.8941596],[14.3687551,40.8945316],[14.3684216,40.8945704],[14.3674238,40.8940513],[14.3654371,40.8933112],[14.3658053,40.8906738],[14.3668801,40.8906213],[14.3682119,40.8901261],[14.3688666,40.8899859],[14.3694118,40.8870962],[14.3652488,40.8874158],[14.3652338,40.8858979],[14.3650341,40.8859124]]]},"properties":{"type":"boundary","gemeente":"Sant'Anastasia"}}]}