{"type":"FeatureCollection","metadata":{"gemeente":"Santu Idu/San Vito","slug":"santu-idu-san-vito","generated_at":"2026-09-26T13:10:40.923470Z","total_points":9,"providers":["PosteItaliane","DPD","InPost","DHL","Amazon"],"bounds":[9.54212798,39.4389,9.54277,39.44109404]},"features":[{"type":"Feature","geometry":{"type":"Point","coordinates":[9.54234848,39.43892213]},"properties":{"type":"pakketpunt","locatieNaam":"San Vito","straatNaam":"Via Nazionale","straatNr":"57/a","vervoerder":"PosteItaliane","puntType":"postkantoor","bezettingsgraad":50,"latitude":39.43892213,"longitude":9.54234848,"canPickup":true,"canDropoff":true,"openingstijden":{"za":"08:20 - 12:45","zo":"gesloten","ma":"08:20 - 13:45","di":"08:20 - 13:45","wo":"08:20 - 13:45","do":"08:20 - 13:45","vr":"08:20 - 13:45"}}},{"type":"Feature","geometry":{"type":"Point","coordinates":[9.54276958,39.44109404]},"properties":{"type":"pakketpunt","locatieNaam":"Tabaccheria N. 1","straatNaam":"Via Nazionale","straatNr":"72","vervoerder":"PosteItaliane","puntType":"servicepunt","bezettingsgraad":50,"latitude":39.44109404,"longitude":9.54276958,"canPickup":true,"canDropoff":true,"openingstijden":{"za":"08:30 - 13:00, 16:30 - 20:30","zo":"gesloten","ma":"08:30 - 13:00, 16:30 - 20:30","di":"08:30 - 13:00, 16:30 - 20:30","wo":"08:30 - 13:00, 16:30 - 20:30","do":"08:30 - 13:00, 16:30 - 20:30","vr":"08:30 - 13:00, 16:30 - 20:30"}}},{"type":"Feature","geometry":{"type":"Point","coordinates":[9.54212798,39.4399709]},"properties":{"type":"pakketpunt","locatieNaam":"Cartolibreria Meloni Silvia","straatNaam":"VIA NAZIONALE","straatNr":"83","vervoerder":"DPD","puntType":"pickup_point","bezettingsgraad":50,"latitude":39.4399709,"longitude":9.54212798,"canPickup":true,"canDropoff":true,"openingstijden":{"ma":"06:30 - 13:00, 17:00 - 19:00","di":"06:30 - 13:00, 16:30 - 19:00","wo":"06:30 - 13:00","do":"06:30 - 13:00, 16:30 - 19:00","vr":"06:30 - 13:00, 16:30 - 19:00","za":"06:30 - 13:00, 16:30 - 19:00","zo":"gesloten"}}},{"type":"Feature","geometry":{"type":"Point","coordinates":[9.54214,39.43999]},"properties":{"type":"pakketpunt","locatieNaam":"InPost Point","straatNaam":"Via Nazionale","straatNr":"83","vervoerder":"InPost","puntType":"servicepunt","bezettingsgraad":50,"latitude":39.43999,"longitude":9.54214,"canPickup":true,"canDropoff":true,"openingstijden":"Lun-Mar: 06:30 - 13:00 - 17:00 - 19:00 Mer: 06:30 - 13:00 Gio-Sab: 06:30 - 13:00 - 17:00 - 19:00 Dom: 07:00 - 12:00"}},{"type":"Feature","geometry":{"type":"Point","coordinates":[9.542348,39.438922]},"properties":{"type":"pakketpunt","locatieNaam":"Ufficio Postale SAN VITO","straatNaam":"VIA NAZIONALE 57-A","straatNr":"","vervoerder":"DHL","puntType":"postOffice","bezettingsgraad":50,"latitude":39.438922,"longitude":9.542348,"canPickup":true,"canDropoff":true,"openingstijden":{"ma":"08:20 - 13:45","di":"08:20 - 13:45","wo":"08:20 - 13:45","do":"08:20 - 13:45","vr":"08:20 - 13:45","za":"08:20 - 12:45","zo":"gesloten"}}},{"type":"Feature","geometry":{"type":"Point","coordinates":[9.54277,39.441094]},"properties":{"type":"pakketpunt","locatieNaam":"TABACCHERIA N. 1","straatNaam":"VIA NAZIONALE 72","straatNr":"","vervoerder":"DHL","puntType":"parcelShop","bezettingsgraad":50,"latitude":39.441094,"longitude":9.54277,"canPickup":true,"canDropoff":true,"openingstijden":{"ma":"08:30 - 13:00, 16:30 - 20:30","di":"08:30 - 13:00, 16:30 - 20:30","wo":"08:30 - 13:00, 16:30 - 20:30","do":"08:30 - 13:00, 16:30 - 20:30","vr":"08:30 - 13:00, 16:30 - 20:30","za":"08:30 - 13:00, 16:30 - 20:30","zo":"gesloten"}}},{"type":"Feature","geometry":{"type":"Point","coordinates":[9.54228,39.44008]},"properties":{"type":"pakketpunt","locatieNaam":"Amazon Counter - CARTOLIBRERIA SILVIA MELONI","straatNaam":"VIA NAZIONALE 83","straatNr":"","vervoerder":"Amazon","puntType":"helix","bezettingsgraad":50,"latitude":39.44008,"longitude":9.54228,"canPickup":true,"canDropoff":false,"openingstijden":null}},{"type":"Feature","geometry":{"type":"Point","coordinates":[9.54234,39.4389]},"properties":{"type":"pakketpunt","locatieNaam":"Ufficio Postale SAN VITO","straatNaam":"VIA NAZIONALE 57-A","straatNr":"","vervoerder":"Amazon","puntType":"3p","bezettingsgraad":50,"latitude":39.4389,"longitude":9.54234,"canPickup":true,"canDropoff":false,"openingstijden":null}},{"type":"Feature","geometry":{"type":"Point","coordinates":[9.54276,39.441]},"properties":{"type":"pakketpunt","locatieNaam":"PuntoPoste TABACCHERIA N. 1","straatNaam":"VIA NAZIONALE 72","straatNr":"","vervoerder":"Amazon","puntType":"3p","bezettingsgraad":50,"latitude":39.441,"longitude":9.54276,"canPickup":true,"canDropoff":false,"openingstijden":null}},{"type":"Feature","geometry":{"type":"Polygon","coordinates":[[[9.4096608,39.4241903],[9.4243584,39.4300846],[9.4260367,39.4309254],[9.4406925,39.4389623],[9.4409623,39.4393577],[9.4412129,39.440402],[9.4410529,39.4408261],[9.4407755,39.4410704],[9.4400413,39.442578],[9.4390107,39.4450147],[9.4389664,39.4453753],[9.4390151,39.4457265],[9.4398576,39.4484806],[9.4434122,39.4482058],[9.4456846,39.4509993],[9.4461152,39.4510788],[9.447171,39.4507864],[9.4481817,39.4507284],[9.4499268,39.451001],[9.4520575,39.4515785],[9.4530697,39.4517367],[9.4535111,39.4516989],[9.4538704,39.4515534],[9.4562284,39.4513369],[9.4577043,39.4513221],[9.4584691,39.4509677],[9.458887,39.4508939],[9.4594682,39.4509007],[9.4603294,39.4510775],[9.4610503,39.4511287],[9.4622926,39.4509255],[9.4632569,39.4508766],[9.4648843,39.4509152],[9.4656523,39.4510473],[9.4680851,39.4516052],[9.4698228,39.4524902],[9.4700687,39.4527595],[9.4705277,39.4536046],[9.4708434,39.4538917],[9.4715897,39.4542491],[9.472777,39.4545146],[9.4732523,39.4543234],[9.4736702,39.4542587],[9.4741945,39.4544367],[9.4748375,39.4549928],[9.4753326,39.4560089],[9.4755767,39.4577109],[9.476473,39.4596085],[9.4769432,39.4603814],[9.4775997,39.4611897],[9.4783611,39.4620426],[9.4792265,39.4628049],[9.4806355,39.4648535],[9.4804163,39.4650886],[9.4793056,39.4658681],[9.4788213,39.4664378],[9.4785349,39.4670517],[9.4781133,39.4683059],[9.4771067,39.4690038],[9.476889,39.4694732],[9.4764427,39.4773322],[9.4763297,39.4778012],[9.4736207,39.4846783],[9.4731956,39.4854279],[9.4719149,39.4869198],[9.4698577,39.4887933],[9.4695586,39.4892721],[9.4699894,39.4928024],[9.4703539,39.4968556],[9.4707503,39.4987192],[9.4713729,39.4996447],[9.4723582,39.5006589],[9.4755371,39.5065388],[9.4756683,39.5070158],[9.4765524,39.5121301],[9.4775018,39.5165774],[9.4787267,39.5238527],[9.4788455,39.5242036],[9.481846,39.5250441],[9.4868241,39.5271439],[9.4899023,39.5280771],[9.5013327,39.530335],[9.5045815,39.5306724],[9.5056688,39.5297846],[9.5061993,39.5291426],[9.5075002,39.5272267],[9.5083558,39.5264841],[9.5091977,39.5254623],[9.5097778,39.5252435],[9.5122536,39.5249172],[9.5134587,39.5242451],[9.5142786,39.5234125],[9.5144504,39.5230424],[9.5146313,39.5207529],[9.5145407,39.5195189],[9.5146731,39.5185362],[9.5140953,39.5174935],[9.5140818,39.5172413],[9.5142081,39.5170065],[9.5148454,39.5166613],[9.5152052,39.5165515],[9.5162415,39.5166821],[9.5184837,39.5162757],[9.5192399,39.5162723],[9.5200486,39.5170886],[9.521043,39.517832],[9.521267,39.5182185],[9.5216286,39.518352],[9.523672,39.5178022],[9.5246252,39.5177078],[9.5251956,39.5177503],[9.5265373,39.5182578],[9.5277252,39.5184326],[9.5291742,39.519273],[9.5295823,39.5193973],[9.5301058,39.5193949],[9.5306284,39.5192754],[9.531069,39.5190841],[9.5314622,39.518767],[9.5321075,39.5179621],[9.5324742,39.5172306],[9.5329584,39.5166607],[9.5334903,39.5162348],[9.5337667,39.5158641],[9.534133,39.5150875],[9.5353906,39.5137302],[9.5360734,39.5132765],[9.5363734,39.5129598],[9.537213,39.5117034],[9.5376982,39.5112777],[9.5384158,39.5108058],[9.5413017,39.5094409],[9.5418474,39.5093212],[9.5428239,39.5092446],[9.5437897,39.5092761],[9.5443822,39.5091922],[9.5463091,39.5086696],[9.5472084,39.5091429],[9.547899,39.5096803],[9.5480752,39.5099047],[9.5479188,39.5107254],[9.5479328,39.5110317],[9.5480309,39.511671],[9.5483492,39.5122011],[9.5517363,39.5154018],[9.5522269,39.5156607],[9.5533078,39.5155385],[9.5534523,39.5161505],[9.5535938,39.5163841],[9.5542009,39.5166695],[9.554644,39.5167935],[9.5550629,39.5168006],[9.5554598,39.5169789],[9.5548695,39.5173601],[9.5546856,39.5176403],[9.5544523,39.51902],[9.5548012,39.520469],[9.5550353,39.5206481],[9.5550994,39.5213957],[9.5552176,39.5216294],[9.5552559,39.5220527],[9.5552143,39.5226656],[9.555321,39.5229264],[9.5557175,39.5230326],[9.5556878,39.5236905],[9.5554831,39.5242862],[9.555362,39.5251427],[9.5557695,39.5266365],[9.5560852,39.5268422],[9.5597272,39.5283115],[9.5607784,39.52882],[9.5615167,39.5294742],[9.5616933,39.5297256],[9.5617782,39.5301577],[9.5609146,39.5312882],[9.5596402,39.5319791],[9.5591432,39.532387],[9.5589953,39.5328112],[9.5589376,39.5343162],[9.5586741,39.5348401],[9.558271,39.5353556],[9.5566759,39.5366968],[9.5541639,39.5383577],[9.5535541,39.5392256],[9.5535277,39.5403069],[9.553705,39.5406485],[9.5542906,39.5411142],[9.5540972,39.5416738],[9.5536229,39.5420275],[9.5550381,39.5443814],[9.556826,39.5467426],[9.5575939,39.5467209],[9.558616,39.5464637],[9.5594879,39.5463424],[9.5603147,39.5463924],[9.560826,39.5462999],[9.561079,39.5459202],[9.5615179,39.5455126],[9.5648734,39.5445323],[9.5696715,39.5420851],[9.5704429,39.5410631],[9.5721674,39.5399103],[9.5730227,39.5392033],[9.5734865,39.5390028],[9.5744645,39.539061],[9.5758511,39.5392704],[9.5767706,39.5392929],[9.5773542,39.5395062],[9.579228,39.539533],[9.5794107,39.5391176],[9.5794012,39.5379643],[9.5797323,39.5372058],[9.580124,39.5367353],[9.5813785,39.5364587],[9.5819354,39.5362577],[9.584287,39.5349934],[9.5865433,39.5334683],[9.5871308,39.5327716],[9.5876474,39.53194],[9.5884019,39.5303414],[9.5891156,39.5294277],[9.5891664,39.5285534],[9.5890013,39.528293],[9.5887493,39.5273932],[9.5896984,39.5273107],[9.5911293,39.5267774],[9.5920478,39.5267007],[9.5933709,39.5263065],[9.5941011,39.5259784],[9.5943789,39.5258148],[9.5952436,39.5248913],[9.5960289,39.5242025],[9.5967806,39.523676],[9.5972683,39.5235654],[9.597757,39.5235719],[9.5986213,39.5239549],[9.5991568,39.5239972],[9.6003295,39.5237118],[9.6012574,39.5233827],[9.6023266,39.523251],[9.6042383,39.5236735],[9.6051212,39.5235248],[9.6058391,39.5231246],[9.6063939,39.5227072],[9.60632,39.5222301],[9.6056374,39.5213326],[9.6051873,39.5204159],[9.6045591,39.517734],[9.6041442,39.5168442],[9.6021683,39.5143495],[9.6015466,39.5137491],[9.6010199,39.5133824],[9.600237,39.5129719],[9.5981663,39.511604],[9.5967761,39.5109084],[9.5945815,39.5100095],[9.5912808,39.5089722],[9.5851914,39.5068855],[9.5796758,39.5052192],[9.5770673,39.5039707],[9.5720431,39.5006572],[9.5645695,39.4955082],[9.5638334,39.4950883],[9.563668,39.4947738],[9.5639576,39.4946282],[9.5644107,39.4945719],[9.5646882,39.4943724],[9.5646625,39.4940751],[9.5642743,39.4935274],[9.564629,39.4928048],[9.565057,39.4910818],[9.5650416,39.4906223],[9.5648618,39.4899564],[9.5648938,39.4895958],[9.5651206,39.4888829],[9.5658575,39.4879873],[9.5659713,39.4876714],[9.5658292,39.4873567],[9.5655363,39.4870878],[9.5644742,39.4866064],[9.5644203,39.4856876],[9.564172,39.4851842],[9.5639022,39.4848972],[9.5627235,39.4843623],[9.5617328,39.4840787],[9.5614286,39.4838369],[9.5614899,39.4827914],[9.5617873,39.4807356],[9.5621152,39.4795807],[9.5652316,39.4753036],[9.5661995,39.4742267],[9.5675457,39.4724991],[9.5667576,39.4713676],[9.5657673,39.4696695],[9.5637235,39.4656337],[9.5620852,39.4628394],[9.5618238,39.4621468],[9.5618682,39.4618763],[9.5617947,39.4614081],[9.5616418,39.4611926],[9.5609416,39.4608446],[9.5603779,39.4601355],[9.5603502,39.459577],[9.5601955,39.4591272],[9.5587324,39.4578547],[9.5585314,39.4574322],[9.5585753,39.4571076],[9.558419,39.4564596],[9.5585093,39.4561258],[9.5589985,39.4547989],[9.5593577,39.454662],[9.5595066,39.454382],[9.5593996,39.4540851],[9.5590149,39.4539428],[9.5591752,39.4536357],[9.5590566,39.4533479],[9.5588691,39.4531506],[9.5580912,39.4517938],[9.5576345,39.4513725],[9.5567813,39.4507728],[9.5564052,39.450252],[9.5562502,39.4497572],[9.5562237,39.4493428],[9.5563117,39.4487207],[9.5562494,39.4481984],[9.5561314,39.4479647],[9.555138,39.4472756],[9.5545858,39.4465124],[9.5542579,39.4461986],[9.5537092,39.4458948],[9.5532295,39.4454826],[9.5530385,39.4448438],[9.5535153,39.4434178],[9.555055,39.4412119],[9.5558221,39.4397666],[9.5570444,39.4371117],[9.5579543,39.4361071],[9.5585387,39.4350681],[9.5597515,39.4341702],[9.5601081,39.433709],[9.5598606,39.4332777],[9.5603,39.4330143],[9.5602013,39.4322939],[9.5604137,39.4312477],[9.5601913,39.4310505],[9.5602471,39.4307619],[9.5609736,39.4300736],[9.5611336,39.4297394],[9.5610735,39.4294964],[9.5608739,39.4292361],[9.5607897,39.4288671],[9.5606787,39.4280747],[9.5608385,39.4277135],[9.5613691,39.4272334],[9.5631726,39.4261163],[9.562753,39.4259562],[9.562253,39.4259045],[9.5618366,39.4261318],[9.5615104,39.4260163],[9.5604207,39.4263189],[9.5599896,39.4261678],[9.5596509,39.4259531],[9.558643,39.4248587],[9.5583041,39.424608],[9.5573713,39.424189],[9.5559288,39.4239526],[9.5556141,39.423819],[9.5553108,39.4236582],[9.5548186,39.423129],[9.5519259,39.421674],[9.5508395,39.4209133],[9.5505213,39.4203291],[9.5502356,39.4194564],[9.549229,39.418506],[9.5490743,39.4180292],[9.5490834,39.4177138],[9.5493203,39.4168116],[9.548762,39.4152464],[9.5478507,39.4130882],[9.5473097,39.4122347],[9.5463602,39.4111309],[9.5460421,39.4105557],[9.5459934,39.4102766],[9.5463036,39.4098427],[9.5471333,39.4089918],[9.5470837,39.4085865],[9.5455001,39.4065936],[9.5446469,39.4044171],[9.5441757,39.4035723],[9.5436497,39.4031422],[9.5426487,39.4028586],[9.542275,39.402599],[9.5421917,39.4023381],[9.5418991,39.4020511],[9.5418464,39.4012404],[9.5416199,39.4004846],[9.5418391,39.4003033],[9.5421646,39.4003379],[9.5427636,39.3982086],[9.5431886,39.3976029],[9.5442182,39.3970845],[9.5462063,39.3958767],[9.5476175,39.3951583],[9.548368,39.3946051],[9.5496049,39.3938784],[9.5503582,39.3936856],[9.5512981,39.3935821],[9.55633,39.3940357],[9.5581746,39.3938016],[9.55932,39.3932644],[9.5597007,39.3929472],[9.5602724,39.3918272],[9.5615373,39.3888296],[9.5616829,39.3881621],[9.5618297,39.386188],[9.5620123,39.3857997],[9.5628162,39.3846785],[9.5629754,39.3842633],[9.5629565,39.3819116],[9.562779,39.381498],[9.5644711,39.3767952],[9.5649164,39.375856],[9.5679134,39.3732013],[9.5680387,39.3729033],[9.5686285,39.3697557],[9.5686251,39.3693413],[9.5680689,39.3680374],[9.5678347,39.3677773],[9.5676924,39.3674085],[9.5694283,39.3638949],[9.5695276,39.3632547],[9.5695024,39.3615878],[9.569576,39.3606414],[9.5696667,39.3603706],[9.565598,39.3597],[9.5652237,39.3592569],[9.5648501,39.3589884],[9.5636511,39.3585617],[9.5591787,39.356637],[9.5595704,39.3562747],[9.5597406,39.3557873],[9.5593589,39.3544916],[9.5590549,39.3542137],[9.5588392,39.3533588],[9.5582007,39.3518751],[9.5581289,39.3516051],[9.558216,39.3508928],[9.5580264,39.3503891],[9.5574369,39.3492386],[9.5564774,39.348252],[9.5560287,39.347272],[9.5558736,39.3452814],[9.5554706,39.3442111],[9.5555364,39.3437242],[9.5554627,39.3432109],[9.5551784,39.3424824],[9.5545942,39.3419716],[9.5543708,39.3416032],[9.5542875,39.3413423],[9.5542703,39.3406395],[9.5541398,39.3402707],[9.5538253,39.340119],[9.5534431,39.340211],[9.5531578,39.3408251],[9.5524913,39.3416572],[9.5522518,39.34219],[9.5509826,39.3431151],[9.550674,39.3437202],[9.5501899,39.3443217],[9.549967,39.3438317],[9.5492578,39.3436548],[9.5489336,39.3437555],[9.5487859,39.3441527],[9.548533,39.3444692],[9.5475801,39.3443025],[9.5463737,39.3443532],[9.5458394,39.3442927],[9.5421602,39.342724],[9.5400398,39.3416436],[9.5392632,39.3417553],[9.5389248,39.3415136],[9.5388531,39.3412346],[9.5384807,39.3411011],[9.537762,39.3412036],[9.5374478,39.3410789],[9.5371678,39.3408819],[9.5369097,39.3405137],[9.5367199,39.3399829],[9.5366475,39.3396138],[9.5367014,39.3390819],[9.5369629,39.3383689],[9.5365601,39.3372895],[9.5362306,39.3366873],[9.5359274,39.3364904],[9.5344266,39.3359747],[9.5334945,39.3354654],[9.5316476,39.3352035],[9.5314368,39.3349432],[9.5314926,39.3346546],[9.5314207,39.3343576],[9.5311294,39.3339939],[9.5307769,39.3339956],[9.5298827,39.3335085],[9.5301123,39.3331831],[9.530179,39.3327954],[9.5299149,39.3316252],[9.5302402,39.3301459],[9.5313677,39.3304201],[9.5314566,39.3298971],[9.5316752,39.3296528],[9.5330745,39.3290517],[9.5331978,39.3284835],[9.5332237,39.327312],[9.5331396,39.3269249],[9.5326133,39.3263686],[9.53196,39.3258941],[9.5316891,39.3253637],[9.5314489,39.3242835],[9.5305503,39.3235757],[9.5302059,39.322523],[9.5305803,39.321404],[9.5305762,39.3208634],[9.5304574,39.3205035],[9.529827,39.3199747],[9.5295686,39.3195524],[9.5293797,39.3191208],[9.5293373,39.3181027],[9.5292071,39.3177609],[9.5285628,39.3169259],[9.5274577,39.3149756],[9.5272471,39.3147332],[9.5269674,39.3145543],[9.5259807,39.3144596],[9.5221919,39.3150443],[9.5184877,39.3160881],[9.5145965,39.3169614],[9.512325,39.3172598],[9.5099046,39.3178201],[9.5083207,39.3185568],[9.5039571,39.3150707],[9.5034077,39.3144873],[9.5027311,39.3139496],[9.5024492,39.3134552],[9.5021115,39.3132675],[9.5000102,39.3130242],[9.4995568,39.312882],[9.4991621,39.3128386],[9.4984782,39.3129046],[9.4982416,39.3122569],[9.4971338,39.3114236],[9.4971531,39.3108739],[9.4977057,39.3086459],[9.4976333,39.3082497],[9.4973053,39.3078006],[9.4968971,39.3074779],[9.4962919,39.3071922],[9.4943305,39.3070113],[9.4940511,39.3068683],[9.4936315,39.3065727],[9.4927557,39.3057204],[9.4926028,39.3054237],[9.4921937,39.3049749],[9.4914949,39.3045544],[9.4910266,39.3039346],[9.4908794,39.3027818],[9.4911156,39.3017266],[9.4910902,39.3014113],[9.490215,39.3006491],[9.4864256,39.2977275],[9.4858878,39.297099],[9.4855698,39.2963885],[9.4856265,39.296199],[9.4806472,39.2936606],[9.4719819,39.2889249],[9.4700894,39.2861842],[9.4595441,39.2702817],[9.4548997,39.2662226],[9.4520639,39.2634898],[9.4500026,39.2617587],[9.4493267,39.2632301],[9.4472157,39.2666623],[9.4463424,39.2678822],[9.4452469,39.2687784],[9.4446329,39.2695424],[9.4443969,39.2700615],[9.4440352,39.2714953],[9.44354,39.273858],[9.4435652,39.2741643],[9.4448924,39.2768895],[9.4451423,39.2778977],[9.4452885,39.2790235],[9.4460679,39.2812642],[9.4459201,39.2817153],[9.4452897,39.2828711],[9.4448694,39.2842424],[9.4448038,39.2848824],[9.4450071,39.2858548],[9.4449749,39.2862604],[9.4440552,39.2893456],[9.4437287,39.2908967],[9.4436581,39.292573],[9.4432604,39.293872],[9.4426846,39.294514],[9.4411715,39.2954749],[9.438375,39.2970623],[9.4372521,39.2973819],[9.4313017,39.3009724],[9.4306347,39.3018939],[9.4302536,39.3021566],[9.4298026,39.3023656],[9.4289916,39.3025127],[9.4286794,39.3026671],[9.4278272,39.3036524],[9.4276783,39.3039593],[9.4277647,39.304815],[9.427703,39.3061128],[9.4279781,39.3070734],[9.4276864,39.3100034],[9.4294719,39.311569],[9.4306865,39.3122381],[9.4326818,39.314159],[9.4348388,39.3159351],[9.4361558,39.3169303],[9.4382061,39.3183193],[9.438916,39.318686],[9.4395323,39.318918],[9.4407285,39.3191297],[9.446033,39.3196231],[9.4483698,39.3204161],[9.4496946,39.3207714],[9.4554227,39.3229748],[9.4569141,39.3284925],[9.4577512,39.3323188],[9.4583503,39.3334338],[9.4589113,39.3340623],[9.4593471,39.3350518],[9.4601204,39.3361931],[9.4646378,39.3455102],[9.4648256,39.3458428],[9.4654338,39.3465522],[9.4655889,39.3471824],[9.4657298,39.3474431],[9.4661856,39.3479189],[9.466549,39.348458],[9.4683452,39.3515505],[9.468582,39.3522524],[9.4692149,39.354899],[9.470552,39.3594221],[9.4696675,39.3593824],[9.4692559,39.3592533],[9.4685641,39.3588005],[9.4680764,39.3582285],[9.4673184,39.3577069],[9.4669001,39.3575539],[9.4665084,39.3575926],[9.4660895,39.3579121],[9.4660498,39.3584628],[9.4662389,39.3594253],[9.4658943,39.3606453],[9.4655488,39.3612433],[9.4651967,39.3615162],[9.4647385,39.361677],[9.463789,39.3618527],[9.462341,39.3614847],[9.4613447,39.3610081],[9.4607351,39.3604096],[9.4605878,39.3601087],[9.4598232,39.3594183],[9.4594043,39.3592995],[9.4586971,39.359305],[9.4578365,39.3596118],[9.4573862,39.359983],[9.456903,39.3606427],[9.4562229,39.3613752],[9.4557442,39.3622847],[9.4550068,39.3632763],[9.4545689,39.3640627],[9.4540156,39.3648296],[9.4530414,39.3665958],[9.4525554,39.3673118],[9.4525235,39.367649],[9.452049,39.3679933],[9.4509958,39.3680184],[9.4502562,39.3685349],[9.4497321,39.3691369],[9.4485432,39.3707813],[9.4485735,39.3724821],[9.4486499,39.3727871],[9.4488247,39.3730425],[9.4494152,39.3735846],[9.4502228,39.3741734],[9.4512359,39.3746583],[9.4520607,39.3749525],[9.4520609,39.3752228],[9.4524953,39.3755095],[9.4526478,39.3757522],[9.4527315,39.3761303],[9.4527106,39.3764998],[9.4524848,39.3774918],[9.4515059,39.3787211],[9.4513346,39.3791633],[9.4512679,39.3796321],[9.4515062,39.3805773],[9.4520597,39.381323],[9.4520604,39.3816699],[9.4527343,39.3819601],[9.453141,39.3820036],[9.4535023,39.3822185],[9.4537945,39.3825237],[9.4538687,39.3832172],[9.4537091,39.3836774],[9.4533386,39.383832],[9.4528158,39.383798],[9.45206,39.3836207],[9.4509919,39.3836519],[9.4506657,39.383482],[9.4503153,39.3831499],[9.4499316,39.3830793],[9.4496106,39.3837203],[9.4490984,39.3853172],[9.4488347,39.3858408],[9.4487036,39.3871388],[9.448811,39.3875799],[9.4491628,39.3881192],[9.4491996,39.3884254],[9.4490036,39.3886425],[9.4480776,39.3891056],[9.4471638,39.3896768],[9.4467729,39.390291],[9.4464615,39.3906256],[9.4462507,39.390338],[9.4457851,39.3901596],[9.4453451,39.3903595],[9.4451955,39.3905854],[9.4451511,39.3909099],[9.4451726,39.3924506],[9.445025,39.3929828],[9.4445498,39.3931378],[9.4436399,39.3924925],[9.4429776,39.392423],[9.442584,39.3926227],[9.4419963,39.3933368],[9.4416519,39.3939688],[9.4415764,39.3948972],[9.4413008,39.3953938],[9.4412677,39.3956643],[9.4415405,39.3965643],[9.4414858,39.3970961],[9.4410097,39.397107],[9.4404625,39.3968928],[9.4397736,39.3963007],[9.4387384,39.3960433],[9.4383539,39.3958465],[9.4377242,39.3954254],[9.4372197,39.3946073],[9.4365894,39.3940871],[9.4357526,39.3939821],[9.4351143,39.3940565],[9.4347442,39.3943012],[9.4347931,39.3946885],[9.434737,39.3950131],[9.4337641,39.3954222],[9.4329889,39.3958936],[9.4319673,39.3959605],[9.4312803,39.3956657],[9.4308155,39.3956134],[9.4304791,39.3956777],[9.4302364,39.3958678],[9.4301219,39.3961295],[9.4300561,39.3967695],[9.4298375,39.3971037],[9.4291899,39.3975566],[9.4287611,39.3976934],[9.4283549,39.3977399],[9.4279944,39.3976602],[9.426594,39.396548],[9.4258477,39.3960551],[9.4254864,39.3958402],[9.4250443,39.3957157],[9.4245454,39.3957806],[9.4223791,39.3966805],[9.4221829,39.3968795],[9.4220242,39.3975198],[9.4223278,39.397807],[9.4227232,39.3978957],[9.4234429,39.397839],[9.4238033,39.3978918],[9.4240488,39.3981612],[9.4239249,39.3988014],[9.4239847,39.3990895],[9.4244773,39.3998716],[9.4243975,39.4001332],[9.4240618,39.4003057],[9.4236555,39.4003342],[9.4232249,39.4001916],[9.4227022,39.4001845],[9.4223222,39.4007175],[9.4221052,39.401331],[9.4221653,39.4016732],[9.4215758,39.4021348],[9.4212844,39.4019647],[9.4208164,39.4013987],[9.4202799,39.4010132],[9.419588,39.4018447],[9.4190206,39.402126],[9.4184632,39.4021371],[9.4178585,39.4020221],[9.4155314,39.4013006],[9.4151246,39.401257],[9.4145683,39.4014572],[9.4144071,39.401692],[9.4143866,39.4021517],[9.4146799,39.4026462],[9.4152876,39.4032748],[9.4153949,39.4037519],[9.4153865,39.4042926],[9.4151815,39.4049782],[9.4147336,39.407782],[9.4143159,39.4098289],[9.4139644,39.4112809],[9.4136103,39.4123004],[9.412922,39.4137535],[9.4118041,39.4152712],[9.4105767,39.4179247],[9.410248,39.4193135],[9.409985,39.4200353],[9.4096608,39.4241903]]]},"properties":{"type":"boundary","gemeente":"Santu Idu/San Vito"}}]}