{"type":"FeatureCollection","metadata":{"gemeente":"Sappada / Plodn / Sapade","slug":"sappada-plodn-sapade","generated_at":"2026-09-26T13:10:41.001760Z","total_points":9,"providers":["PosteItaliane","DHL","Amazon"],"bounds":[12.6806,46.5655,12.69530303,46.56773809]},"features":[{"type":"Feature","geometry":{"type":"Point","coordinates":[12.69530303,46.56773809]},"properties":{"type":"pakketpunt","locatieNaam":"Tabaccheria N. 5","straatNaam":"Borgata Hoffe","straatNr":"39","vervoerder":"PosteItaliane","puntType":"servicepunt","bezettingsgraad":50,"latitude":46.56773809,"longitude":12.69530303,"canPickup":true,"canDropoff":true,"openingstijden":{"za":"08:00 - 12:30, 15:30 - 19:30","zo":"gesloten","ma":"08:00 - 12:30, 15:30 - 19:30","di":"08:00 - 12:30, 15:30 - 19:30","wo":"08:00 - 12:30, 15:30 - 19:30","do":"08:00 - 12:30, 15:30 - 19:30","vr":"08:00 - 12:30, 15:30 - 19:30"}}},{"type":"Feature","geometry":{"type":"Point","coordinates":[12.68302443,46.56590662]},"properties":{"type":"pakketpunt","locatieNaam":"Sappada","straatNaam":"Borgata Bach","straatNr":"5","vervoerder":"PosteItaliane","puntType":"postkantoor","bezettingsgraad":50,"latitude":46.56590662,"longitude":12.68302443,"canPickup":true,"canDropoff":true,"openingstijden":{"za":"08:20 - 12:45","zo":"gesloten","ma":"08:20 - 13:45","di":"08:20 - 13:45","wo":"08:20 - 13:45","do":"08:20 - 13:45","vr":"08:20 - 13:45"}}},{"type":"Feature","geometry":{"type":"Point","coordinates":[12.68068018,46.56556178]},"properties":{"type":"pakketpunt","locatieNaam":"Tabaccheria N. 1","straatNaam":"Borgata Palu'","straatNr":"82","vervoerder":"PosteItaliane","puntType":"servicepunt","bezettingsgraad":50,"latitude":46.56556178,"longitude":12.68068018,"canPickup":true,"canDropoff":true,"openingstijden":{"za":"08:00 - 12:30, 15:30 - 19:30","zo":"gesloten","ma":"08:00 - 12:30, 15:30 - 19:30","di":"08:00 - 12:30, 15:30 - 19:30","wo":"08:00 - 12:30, 15:30 - 19:30","do":"08:00 - 12:30, 15:30 - 19:30","vr":"08:00 - 12:30, 15:30 - 19:30"}}},{"type":"Feature","geometry":{"type":"Point","coordinates":[12.68068,46.565562]},"properties":{"type":"pakketpunt","locatieNaam":"TABACCHERIA N. 1","straatNaam":"BORGATA PALU 82","straatNr":"","vervoerder":"DHL","puntType":"parcelShop","bezettingsgraad":50,"latitude":46.565562,"longitude":12.68068,"canPickup":true,"canDropoff":true,"openingstijden":{"ma":"08:00 - 12:30, 15:30 - 19:30","di":"08:00 - 12:30, 15:30 - 19:30","wo":"08:00 - 12:30, 15:30 - 19:30","do":"08:00 - 12:30, 15:30 - 19:30","vr":"08:00 - 12:30, 15:30 - 19:30","za":"08:00 - 12:30, 15:30 - 19:30","zo":"gesloten"}}},{"type":"Feature","geometry":{"type":"Point","coordinates":[12.683024,46.565907]},"properties":{"type":"pakketpunt","locatieNaam":"Ufficio Postale SAPPADA","straatNaam":"BORGATA BACH 5","straatNr":"","vervoerder":"DHL","puntType":"postOffice","bezettingsgraad":50,"latitude":46.565907,"longitude":12.683024,"canPickup":true,"canDropoff":true,"openingstijden":{"ma":"08:20 - 13:45","di":"08:20 - 13:45","wo":"08:20 - 13:45","do":"08:20 - 13:45","vr":"08:20 - 13:45","za":"08:20 - 12:45","zo":"gesloten"}}},{"type":"Feature","geometry":{"type":"Point","coordinates":[12.695303,46.567738]},"properties":{"type":"pakketpunt","locatieNaam":"TABACCHERIA N. 5","straatNaam":"BORGATA HOFFE 39","straatNr":"","vervoerder":"DHL","puntType":"parcelShop","bezettingsgraad":50,"latitude":46.567738,"longitude":12.695303,"canPickup":true,"canDropoff":true,"openingstijden":{"ma":"08:00 - 12:30, 15:30 - 19:30","di":"08:00 - 12:30, 15:30 - 19:30","wo":"08:00 - 12:30, 15:30 - 19:30","do":"08:00 - 12:30, 15:30 - 19:30","vr":"08:00 - 12:30, 15:30 - 19:30","za":"08:00 - 12:30, 15:30 - 19:30","zo":"gesloten"}}},{"type":"Feature","geometry":{"type":"Point","coordinates":[12.683,46.5659]},"properties":{"type":"pakketpunt","locatieNaam":"Ufficio Postale SAPPADA","straatNaam":"BORGATA BACH 5","straatNr":"","vervoerder":"Amazon","puntType":"3p","bezettingsgraad":50,"latitude":46.5659,"longitude":12.683,"canPickup":true,"canDropoff":false,"openingstijden":null}},{"type":"Feature","geometry":{"type":"Point","coordinates":[12.6806,46.5655]},"properties":{"type":"pakketpunt","locatieNaam":"PuntoPoste TABACCHERIA N. 1","straatNaam":"BORGATA PALU' 82","straatNr":"","vervoerder":"Amazon","puntType":"3p","bezettingsgraad":50,"latitude":46.5655,"longitude":12.6806,"canPickup":true,"canDropoff":false,"openingstijden":null}},{"type":"Feature","geometry":{"type":"Point","coordinates":[12.6953,46.5677]},"properties":{"type":"pakketpunt","locatieNaam":"PuntoPoste TABACCHERIA N. 5","straatNaam":"BORGATA HOFFE 39","straatNr":"","vervoerder":"Amazon","puntType":"3p","bezettingsgraad":50,"latitude":46.5677,"longitude":12.6953,"canPickup":true,"canDropoff":false,"openingstijden":null}},{"type":"Feature","geometry":{"type":"Polygon","coordinates":[[[12.6215415,46.5268173],[12.6218062,46.5264054],[12.6222888,46.5248249],[12.6229969,46.5230978],[12.6238718,46.5219453],[12.6252807,46.5203538],[12.6257797,46.5199947],[12.6278674,46.5202959],[12.6286832,46.5200225],[12.6285727,46.5190018],[12.6289307,46.5173376],[12.6296536,46.5155327],[12.6304006,46.5129194],[12.6304711,46.5121108],[12.6364791,46.5143147],[12.638115,46.5150685],[12.6467575,46.5181625],[12.6504475,46.5193004],[12.6509238,46.5190186],[12.6519477,46.5190972],[12.6586553,46.5217402],[12.6649851,46.5240872],[12.6694718,46.5258814],[12.6751969,46.5259187],[12.6822128,46.5295746],[12.6822983,46.5296483],[12.6827952,46.5328047],[12.6905774,46.5381064],[12.6985233,46.5411716],[12.6986346,46.5407599],[12.6990769,46.540542],[12.6992154,46.5403504],[12.6993719,46.5403499],[12.700822,46.5410954],[12.7169117,46.545194],[12.7173784,46.5447641],[12.717747,46.5445591],[12.7192217,46.5442285],[12.7202912,46.5437314],[12.7223741,46.5430782],[12.7233092,46.5425496],[12.7238309,46.5421748],[12.7258917,46.5390515],[12.7288821,46.5403997],[12.7308759,46.5407524],[12.7315357,46.5414459],[12.733145,46.5420142],[12.7356097,46.5420846],[12.7358696,46.5423597],[12.7364681,46.5426452],[12.7378722,46.5435081],[12.7395517,46.5436457],[12.7402063,46.5432086],[12.7416681,46.5426831],[12.7422433,46.5425253],[12.744916,46.54211],[12.7467298,46.542531],[12.7485031,46.5431743],[12.7496431,46.5441226],[12.7476909,46.5450266],[12.7462321,46.5458582],[12.7460464,46.5460598],[12.7460721,46.5461935],[12.7457296,46.5465287],[12.7451378,46.5467078],[12.7450433,46.5468464],[12.7450642,46.5469728],[12.74491,46.5471677],[12.7439328,46.5469541],[12.7438006,46.5472467],[12.743491,46.5474169],[12.7435477,46.5475585],[12.7432392,46.547952],[12.7432364,46.5481463],[12.7428622,46.5482361],[12.7427592,46.5484537],[12.7424856,46.5486355],[12.7424296,46.548728],[12.7425924,46.5489544],[12.7425344,46.5492264],[12.7422149,46.5493821],[12.7419944,46.5496657],[12.7416117,46.5498345],[12.7415083,46.5500629],[12.7415487,46.5502221],[12.7413982,46.5503271],[12.7414684,46.5505229],[12.741364,46.5506504],[12.741316,46.5509267],[12.741073,46.5512494],[12.7409526,46.5516358],[12.740381,46.5518298],[12.7400774,46.5521045],[12.7397564,46.5521702],[12.7391886,46.5525226],[12.7383271,46.5526603],[12.7376797,46.5526691],[12.7371683,46.5529218],[12.7361528,46.5537513],[12.7359874,46.553838],[12.73558,46.5538479],[12.7352769,46.5539823],[12.7352288,46.5541362],[12.7353102,46.5544366],[12.7352987,46.5548395],[12.7348985,46.5551772],[12.7344938,46.5552448],[12.7343033,46.5554354],[12.7344312,46.5557475],[12.7343911,46.5558331],[12.7337475,46.5560004],[12.7337091,46.5562948],[12.733114,46.5566754],[12.7326585,46.5568356],[12.7325611,46.557046],[12.7324976,46.5575668],[12.732915,46.5579458],[12.7328977,46.5583595],[12.7330606,46.5588343],[12.7331759,46.5589481],[12.7332071,46.5592008],[12.7327749,46.5599302],[12.7329195,46.5608438],[12.7331224,46.5609846],[12.7331235,46.5613338],[12.7329033,46.5613583],[12.7327277,46.5623159],[12.7325598,46.5624638],[12.732581,46.5627054],[12.7331502,46.5633251],[12.7335214,46.5635592],[12.7342342,46.5643653],[12.7343391,46.564605],[12.7347415,46.5647174],[12.7353609,46.5653848],[12.7356116,46.565505],[12.7354893,46.5658121],[12.7357513,46.5660369],[12.7357574,46.5661414],[12.7356194,46.5663223],[12.7357401,46.5664327],[12.7355943,46.5668006],[12.7347141,46.5672547],[12.733347,46.5686244],[12.7318584,46.5709024],[12.7353866,46.5720415],[12.7399403,46.574259],[12.7410381,46.5749755],[12.7418158,46.5759844],[12.7419956,46.5764307],[12.7419282,46.5773006],[12.7413663,46.5792658],[12.7413666,46.580389],[12.7407434,46.5814422],[12.7404583,46.5825237],[12.7401233,46.5829203],[12.7396978,46.5832359],[12.7394316,46.5837346],[12.7389668,46.5852446],[12.7382928,46.5865128],[12.7381209,46.5876325],[12.7382019,46.5892001],[12.7386584,46.5902747],[12.7394647,46.5917305],[12.7417555,46.5951633],[12.742079,46.5959256],[12.7411194,46.5962702],[12.7405184,46.596658],[12.7395724,46.5966753],[12.7383898,46.5972351],[12.7380155,46.5978216],[12.7381148,46.5986984],[12.7379194,46.5996541],[12.7370641,46.6007287],[12.7368041,46.6012535],[12.7363364,46.6015466],[12.7360738,46.6018323],[12.7358023,46.6028348],[12.7358182,46.6032556],[12.7354607,46.6041125],[12.7354039,46.6044743],[12.7349726,46.6048866],[12.7344187,46.604993],[12.7341088,46.6051623],[12.7334072,46.6061829],[12.7332691,46.607],[12.7323389,46.6070295],[12.7321632,46.6071166],[12.7319642,46.6072839],[12.7316484,46.6080982],[12.7311259,46.6084588],[12.7307959,46.6088554],[12.7293415,46.6097596],[12.728887,46.6103352],[12.7287422,46.6110005],[12.7286788,46.6122174],[12.7284074,46.6132113],[12.7282902,46.6141133],[12.7282773,46.6152218],[12.7284719,46.615865],[12.7284226,46.6167452],[12.7281721,46.6178375],[12.7272066,46.6201366],[12.7272381,46.6204828],[12.7276449,46.6210496],[12.7295689,46.6221159],[12.7305313,46.6228924],[12.7319349,46.6243141],[12.7321181,46.6246316],[12.7319792,46.6249543],[12.7314629,46.6255056],[12.7303846,46.6259018],[12.7289303,46.6268925],[12.728412,46.6275906],[12.7275601,46.6305659],[12.7275904,46.6308967],[12.7255472,46.6314717],[12.7254304,46.6312965],[12.7250644,46.6310342],[12.7248268,46.6304424],[12.7245614,46.6302402],[12.7239676,46.6302596],[12.7232738,46.6301032],[12.7220333,46.6301046],[12.7206316,46.6298961],[12.718727,46.6288929],[12.7173445,46.6283491],[12.7165053,46.6277239],[12.7160583,46.6274988],[12.7145712,46.6270824],[12.7140673,46.6265791],[12.7114734,46.6257855],[12.7106678,46.6252836],[12.7091651,46.6240823],[12.7048282,46.619304],[12.7050282,46.6181227],[12.7059219,46.6163615],[12.7059521,46.6151479],[12.706382,46.6142045],[12.7065662,46.6134651],[12.7069798,46.6124038],[12.7072884,46.6102981],[12.7074593,46.607833],[12.7074814,46.6071124],[12.7073733,46.6056469],[12.7076478,46.6046426],[12.7078595,46.6043097],[12.7082579,46.6030969],[12.7087084,46.6022554],[12.7085782,46.602128],[12.7079636,46.6020282],[12.7048539,46.6025121],[12.7032652,46.6023841],[12.7026211,46.6021058],[12.7016135,46.6023533],[12.7007382,46.6023756],[12.698249,46.6018999],[12.6975404,46.6019467],[12.6972536,46.6016868],[12.6966017,46.6015464],[12.6963912,46.6017686],[12.6954036,46.6016689],[12.6949441,46.6012949],[12.69461,46.6013595],[12.6936687,46.6009233],[12.6919854,46.6007983],[12.6910435,46.6006015],[12.6899882,46.6005219],[12.6885172,46.6005933],[12.6877813,46.6004257],[12.6864905,46.599627],[12.6861125,46.5992191],[12.6855197,46.5987775],[12.6849049,46.597759],[12.6844915,46.5974],[12.6840071,46.5967532],[12.6839272,46.5962107],[12.6831829,46.5955036],[12.682814,46.5947995],[12.682225,46.5941917],[12.6806171,46.593781],[12.6785044,46.5925029],[12.677757,46.5919468],[12.6773821,46.5915405],[12.6770533,46.591378],[12.6770115,46.5895599],[12.6771244,46.5888656],[12.6766592,46.5880884],[12.676613,46.5876934],[12.6758772,46.5871765],[12.6758458,46.5869788],[12.6756451,46.5866975],[12.6748234,46.5865615],[12.6736109,46.5861587],[12.672086,46.5853668],[12.6714529,46.5848612],[12.6706209,46.5845784],[12.6695007,46.583962],[12.6681381,46.5828778],[12.6668158,46.5805477],[12.6666401,46.580386],[12.6656693,46.579883],[12.6651796,46.5794553],[12.6643591,46.5790249],[12.6644307,46.5799663],[12.6645577,46.5803266],[12.664428,46.5812053],[12.6644517,46.5816762],[12.6646071,46.582548],[12.6647285,46.5826773],[12.6645082,46.5826344],[12.6637093,46.5812893],[12.6612,46.5790991],[12.660827,46.5786254],[12.6590769,46.5763295],[12.6585822,46.5755108],[12.6583844,46.5743715],[12.6577197,46.5733229],[12.657107,46.5727204],[12.6565076,46.5723147],[12.6561583,46.571552],[12.6557447,46.5712921],[12.6555571,46.5709567],[12.6554098,46.5708931],[12.6546261,46.5706906],[12.6541565,46.5710698],[12.652835,46.5713776],[12.6514138,46.5710133],[12.6508525,46.5710085],[12.6500977,46.5712375],[12.6488384,46.5718164],[12.6486266,46.5721039],[12.6483732,46.5729162],[12.6478361,46.5732748],[12.6471587,46.5735089],[12.6469698,46.5736439],[12.6470308,46.5740744],[12.6461758,46.5752702],[12.6458719,46.5761524],[12.645793,46.5762612],[12.645365,46.5764417],[12.6439581,46.5764638],[12.6423848,46.5749889],[12.641738,46.5745316],[12.641032,46.5741747],[12.6394764,46.5736173],[12.6381307,46.5734023],[12.6373591,46.5733813],[12.6371044,46.5726989],[12.6365576,46.5722687],[12.6363846,46.5714927],[12.6355115,46.5706101],[12.6354704,46.5699968],[12.6344927,46.5688671],[12.6343343,46.5684928],[12.6334282,46.5671179],[12.6329735,46.5659109],[12.6314436,46.563257],[12.6295616,46.5624141],[12.6289865,46.5620379],[12.6274712,46.5586393],[12.6263837,46.5564895],[12.6257224,46.554802],[12.6249912,46.5532102],[12.6231124,46.5502476],[12.6226761,46.5496268],[12.6221042,46.5490734],[12.6219256,46.5487614],[12.6197407,46.5438928],[12.6195526,46.5426239],[12.6188721,46.5403417],[12.6196868,46.5390694],[12.6197844,46.5387015],[12.619741,46.5378007],[12.6201481,46.534831],[12.6211745,46.5303945],[12.6215415,46.5268173]]]},"properties":{"type":"boundary","gemeente":"Sappada / Plodn / Sapade"}}]}