{"type":"FeatureCollection","metadata":{"gemeente":"Schenna - Scena","slug":"schenna-scena","generated_at":"2026-09-26T13:10:41.845525Z","total_points":1,"providers":["PosteItaliane"],"bounds":[11.18765301,46.69166041,11.18765301,46.69166041]},"features":[{"type":"Feature","geometry":{"type":"Point","coordinates":[11.18765301,46.69166041]},"properties":{"type":"pakketpunt","locatieNaam":"Scena","straatNaam":"Via Castello","straatNr":"6","vervoerder":"PosteItaliane","puntType":"postkantoor","bezettingsgraad":50,"latitude":46.69166041,"longitude":11.18765301,"canPickup":true,"canDropoff":true,"openingstijden":{"za":"08:20 - 12:45","zo":"gesloten","ma":"gesloten","di":"08:20 - 13:45","wo":"gesloten","do":"08:20 - 13:45","vr":"gesloten"}}},{"type":"Feature","geometry":{"type":"Polygon","coordinates":[[[11.1771217,46.6867292],[11.1782889,46.6868735],[11.1796208,46.6867806],[11.1799311,46.6866937],[11.1810153,46.686925],[11.1808536,46.6867661],[11.1807541,46.686507],[11.180839,46.6863434],[11.1810252,46.6862994],[11.1814584,46.6855486],[11.1816084,46.6846458],[11.1810644,46.6842872],[11.1818372,46.6836695],[11.1819519,46.6834333],[11.1823439,46.6833448],[11.1823238,46.6830887],[11.1820913,46.6829177],[11.1821703,46.6828487],[11.1819565,46.6824118],[11.1819401,46.6818406],[11.1821112,46.6813424],[11.1824575,46.6808498],[11.1827875,46.6806005],[11.1830119,46.6805512],[11.183012,46.6804522],[11.1833384,46.6803785],[11.1833416,46.6804999],[11.183641,46.6805257],[11.183784,46.6803835],[11.1841097,46.6802738],[11.1841243,46.6801295],[11.1838843,46.6798101],[11.1838168,46.6792714],[11.1836423,46.6789372],[11.1835501,46.678435],[11.1842706,46.6781423],[11.184746,46.6777327],[11.1848062,46.6775426],[11.1844298,46.6768613],[11.184756,46.6763376],[11.1852019,46.6759871],[11.1850212,46.6758825],[11.1850606,46.6758053],[11.1860105,46.6753686],[11.1856514,46.6750988],[11.1857336,46.6749869],[11.1853837,46.6746786],[11.1850479,46.6744376],[11.1844649,46.6742462],[11.1852951,46.6724619],[11.1857166,46.6716484],[11.1860235,46.671557],[11.1872419,46.6716192],[11.1885687,46.6712168],[11.1890988,46.6714667],[11.1895742,46.6720696],[11.1898512,46.6719698],[11.190231,46.6722685],[11.1924451,46.6721586],[11.1928793,46.6722268],[11.1939161,46.6725849],[11.1944344,46.6724894],[11.19558,46.6729534],[11.1957045,46.6728385],[11.1969073,46.6729189],[11.197906,46.6728817],[11.1984044,46.6729217],[11.1986884,46.6730917],[11.1988465,46.6731021],[11.1993684,46.6729346],[11.199735,46.6730086],[11.1999188,46.6729465],[11.1998951,46.672866],[11.2007528,46.6725975],[11.2011908,46.6723146],[11.2018415,46.6717171],[11.2038603,46.6717907],[11.2045841,46.6714842],[11.2052,46.6710764],[11.2052293,46.6709543],[11.2075585,46.6708239],[11.2085462,46.6708993],[11.2090678,46.6711457],[11.2090787,46.671312],[11.2097919,46.6713297],[11.2109913,46.671707],[11.2123934,46.6715629],[11.2134383,46.6717587],[11.2146595,46.6712086],[11.2151169,46.6711052],[11.2165478,46.6710865],[11.2170318,46.6711941],[11.2174516,46.671168],[11.2179605,46.6715046],[11.2189063,46.6718507],[11.2197587,46.6720142],[11.2208054,46.6723314],[11.2213155,46.6726769],[11.2222437,46.6728344],[11.223143,46.6726054],[11.2236981,46.6727296],[11.2246616,46.6731699],[11.2260684,46.6733345],[11.2269476,46.6729814],[11.2269848,46.6727737],[11.2267441,46.6725624],[11.2266788,46.6723657],[11.2268274,46.6722053],[11.2270482,46.6721695],[11.228328,46.6724505],[11.2290822,46.6727283],[11.2294377,46.6727484],[11.2299428,46.672572],[11.2303353,46.6729379],[11.2310568,46.6729553],[11.2315969,46.6730933],[11.2339696,46.672669],[11.2342506,46.6734194],[11.2348354,46.6740065],[11.2353283,46.6743478],[11.2359054,46.6749665],[11.2356518,46.6753765],[11.2360443,46.6756973],[11.236321,46.6761059],[11.2370821,46.676865],[11.2376399,46.6770745],[11.2388564,46.6766502],[11.2397148,46.6760665],[11.240062,46.6764726],[11.2425777,46.6782398],[11.2436069,46.678845],[11.2439772,46.6792186],[11.244342,46.6798164],[11.2446306,46.6800031],[11.245883,46.680515],[11.2464983,46.6806756],[11.2473148,46.6806294],[11.2482186,46.6811383],[11.2505323,46.6819707],[11.2515393,46.6825065],[11.2532881,46.6821358],[11.2544081,46.6822605],[11.255442,46.6821361],[11.2562501,46.6824257],[11.2569772,46.6825167],[11.2582298,46.6824358],[11.2602163,46.6821902],[11.2604039,46.6822259],[11.2608138,46.6820639],[11.261109,46.6817326],[11.2614112,46.6815897],[11.2619852,46.6815834],[11.2627908,46.6820013],[11.2632623,46.6827427],[11.2635767,46.682918],[11.2642841,46.6831336],[11.2645788,46.6833898],[11.2649325,46.683875],[11.2656399,46.6843603],[11.2658757,46.6846838],[11.2660329,46.6850208],[11.2659543,46.6860048],[11.2655809,46.6868944],[11.2652469,46.6871101],[11.2646771,46.6872718],[11.2645395,46.6875009],[11.264795,46.6880266],[11.2645592,46.6885388],[11.264009,46.689024],[11.2634392,46.6892666],[11.2612974,46.6893071],[11.2589199,46.6897114],[11.2586055,46.6899271],[11.2582911,46.6902775],[11.2583304,46.6913018],[11.2582125,46.6918679],[11.2584876,46.692097],[11.2593522,46.6922587],[11.2606097,46.6924474],[11.2629676,46.6926361],[11.2636946,46.6922587],[11.264795,46.6921374],[11.2649915,46.6923396],[11.2654237,46.6921374],[11.2659739,46.6920296],[11.2671529,46.6920296],[11.2675262,46.6921509],[11.2678602,46.6925957],[11.2677227,46.6929461],[11.2679192,46.6941051],[11.2683121,46.6951429],[11.2691178,46.6958032],[11.2694125,46.6964905],[11.2705914,46.6979729],[11.2720848,46.699078],[11.2732048,46.6995496],[11.2742363,46.700099],[11.274423,46.7007624],[11.2755741,46.7017954],[11.2751597,46.7027505],[11.2751572,46.7031295],[11.2752899,46.7037746],[11.2766702,46.7052585],[11.2776428,46.7059777],[11.2781635,46.7067053],[11.2788856,46.7086724],[11.2788954,46.7090749],[11.2784755,46.7097217],[11.2776576,46.7102572],[11.2763067,46.7124078],[11.2751351,46.7132633],[11.2752162,46.7139083],[11.2763632,46.7150147],[11.2775077,46.7158533],[11.2782298,46.7165993],[11.2793547,46.7174935],[11.2800032,46.7186823],[11.2801997,46.7198576],[11.2812435,46.7214808],[11.2814965,46.7223665],[11.2808186,46.7230754],[11.2803667,46.7234087],[11.2800375,46.7240688],[11.2788335,46.7247001],[11.2772026,46.725185],[11.2758664,46.7257103],[11.2751001,46.7264309],[11.2737498,46.7298086],[11.2731888,46.7308002],[11.2736439,46.7313966],[11.2740086,46.7317371],[11.2749013,46.7329929],[11.2757644,46.7339321],[11.2756932,46.7347903],[11.2760788,46.7364044],[11.2764053,46.7371959],[11.2775012,46.7380874],[11.2788176,46.7396514],[11.2792935,46.7399644],[11.2807105,46.7411938],[11.2809389,46.7420653],[11.2808455,46.7438298],[11.2810739,46.7449112],[11.2812711,46.7452669],[11.2818837,46.7458752],[11.2830309,46.7474687],[11.2836071,46.7493397],[11.283893,46.7500058],[11.2854493,46.7503127],[11.2864808,46.7507126],[11.2832139,46.7507528],[11.2816319,46.7513246],[11.2795396,46.7527481],[11.2796571,46.7541011],[11.2791358,46.7545588],[11.2774547,46.754926],[11.2732775,46.7560928],[11.272837,46.7566159],[11.2715522,46.7568221],[11.2704217,46.7565002],[11.2692838,46.7560627],[11.2670153,46.7557156],[11.2652754,46.7558162],[11.2634915,46.7560576],[11.262471,46.7559772],[11.2625591,46.755449],[11.2635062,46.7547499],[11.2636823,46.7542671],[11.2636016,46.7540307],[11.2630069,46.7532762],[11.2615974,46.7518024],[11.2601512,46.7507662],[11.2594831,46.7505198],[11.2579855,46.7497552],[11.2554747,46.7491063],[11.2539918,46.7476576],[11.2534852,46.7473004],[11.2525162,46.7472853],[11.2498519,46.7481328],[11.2480661,46.7485169],[11.2468514,46.7489864],[11.2461454,46.7494417],[11.2454394,46.7501531],[11.2451591,46.7505657],[11.2447853,46.7507364],[11.2444635,46.7512984],[11.2438925,46.7518532],[11.2438821,46.7510139],[11.2437471,46.7505301],[11.2442351,46.7503452],[11.2441936,46.749769],[11.2433318,46.7471439],[11.2426985,46.7470016],[11.2391478,46.7471368],[11.2377877,46.7468736],[11.2337283,46.7465677],[11.2300634,46.7472151],[11.2297208,46.7471653],[11.2293574,46.7469732],[11.2290783,46.7467502],[11.2279143,46.7447322],[11.2276132,46.744035],[11.2270629,46.7432808],[11.2261285,46.7425551],[11.2248619,46.7409757],[11.2244051,46.7399013],[11.2246127,46.7388838],[11.2248307,46.7386419],[11.2248723,46.7381652],[11.2247062,46.7379446],[11.2244777,46.7378237],[11.2226505,46.7381439],[11.2199823,46.738215],[11.2194839,46.7386135],[11.2191621,46.7392396],[11.2189544,46.7393677],[11.2180304,46.7396309],[11.2165354,46.7396025],[11.215331,46.7398657],[11.2142409,46.7399511],[11.2137945,46.739695],[11.2135245,46.7388981],[11.2124136,46.737781],[11.2122475,46.7370339],[11.2129431,46.7363365],[11.2142201,46.7361017],[11.2147704,46.735746],[11.215248,46.7355467],[11.216255,46.735746],[11.2172102,46.7361373],[11.2185287,46.7362654],[11.2188921,46.7360875],[11.2187052,46.7355538],[11.2186118,46.7349704],[11.219297,46.7346501],[11.219432,46.734273],[11.2192763,46.733903],[11.2193697,46.7329352],[11.2191413,46.7322521],[11.2171583,46.7310779],[11.2154556,46.7310139],[11.2144901,46.7307862],[11.2135245,46.7306794],[11.2125174,46.7291067],[11.2118426,46.7284093],[11.2117284,46.727904],[11.2130469,46.7274414],[11.2133065,46.7272635],[11.2134415,46.7267226],[11.213348,46.7261106],[11.2138671,46.7251285],[11.2138256,46.7249007],[11.2134518,46.724616],[11.2102541,46.7241178],[11.2086364,46.7235595],[11.2081081,46.7232267],[11.2082216,46.7223097],[11.2070929,46.7216807],[11.2065974,46.7215505],[11.201407,46.7208102],[11.2001554,46.720415],[11.1992156,46.720433],[11.1987526,46.7203519],[11.197711,46.7206015],[11.1972897,46.7207805],[11.1955845,46.7203183],[11.1947059,46.7202137],[11.1940066,46.7200111],[11.1928918,46.7201315],[11.1926873,46.7189385],[11.1928843,46.7174632],[11.1933376,46.7165816],[11.1942372,46.7155339],[11.1951619,46.7138332],[11.1948058,46.7126161],[11.1944066,46.7119668],[11.1939687,46.7115747],[11.1917553,46.7103257],[11.1915645,46.7100369],[11.1913442,46.7093841],[11.1909909,46.7087969],[11.1900984,46.70822],[11.1891906,46.707387],[11.1888625,46.7069568],[11.1888559,46.7066329],[11.1873061,46.7049661],[11.1869334,46.7041993],[11.1867347,46.7033481],[11.1867825,46.7023663],[11.1869915,46.7012868],[11.1869819,46.7010485],[11.1868078,46.7007053],[11.1841332,46.6976381],[11.1822261,46.6946416],[11.1812232,46.6937518],[11.1800516,46.6930767],[11.1785412,46.6913775],[11.1778868,46.690328],[11.1776424,46.6897792],[11.1773199,46.6884264],[11.1771217,46.6867292]]]},"properties":{"type":"boundary","gemeente":"Schenna - Scena"}}]}