{"type":"FeatureCollection","metadata":{"gemeente":"Scilla","slug":"scilla","generated_at":"2026-09-26T13:10:41.994634Z","total_points":7,"providers":["PosteItaliane","DPD","GLS","DHL","Amazon"],"bounds":[15.7169673,38.2508261,15.72005,38.25241722]},"features":[{"type":"Feature","geometry":{"type":"Point","coordinates":[15.72004955,38.25241722]},"properties":{"type":"pakketpunt","locatieNaam":"Scilla","straatNaam":"Via Parco","straatNr":"1","vervoerder":"PosteItaliane","puntType":"postkantoor","bezettingsgraad":50,"latitude":38.25241722,"longitude":15.72004955,"canPickup":true,"canDropoff":true,"openingstijden":{"za":"08:20 - 12:35","zo":"gesloten","ma":"08:20 - 13:35","di":"08:20 - 13:35","wo":"08:20 - 13:35","do":"08:20 - 13:35","vr":"08:20 - 13:35"}}},{"type":"Feature","geometry":{"type":"Point","coordinates":[15.7188595969,38.2509765625]},"properties":{"type":"pakketpunt","locatieNaam":"Supermercato Effesette","straatNaam":"VIA MATTEOTTI","straatNr":"31","vervoerder":"DPD","puntType":"pickup_point","bezettingsgraad":50,"latitude":38.2509765625,"longitude":15.7188595969,"canPickup":true,"canDropoff":true,"openingstijden":{"ma":"08:00 - 13:00, 16:00 - 20:00","di":"08:00 - 13:00, 16:00 - 20:00","wo":"08:00 - 13:00, 16:00 - 20:00","do":"08:00 - 13:00, 16:00 - 20:00","vr":"08:00 - 13:00, 16:00 - 20:00","za":"08:00 - 13:00, 16:00 - 20:00","zo":"gesloten"}}},{"type":"Feature","geometry":{"type":"Point","coordinates":[15.7189234,38.2508261]},"properties":{"type":"pakketpunt","locatieNaam":"EFFESETTE - SCILLA dei Fratelli Arbitrio","straatNaam":"Via Matteotti","straatNr":"31","vervoerder":"GLS","puntType":"parcel_shop","bezettingsgraad":50,"latitude":38.2508261,"longitude":15.7189234,"canPickup":true,"canDropoff":true,"openingstijden":"za: 08:00 - 12:00, 17:00 - 19:30; ma: 08:00 - 12:00, 17:00 - 19:30"}},{"type":"Feature","geometry":{"type":"Point","coordinates":[15.72005,38.252417]},"properties":{"type":"pakketpunt","locatieNaam":"Ufficio Postale SCILLA","straatNaam":"VIA PARCO 1","straatNr":"","vervoerder":"DHL","puntType":"postOffice","bezettingsgraad":50,"latitude":38.252417,"longitude":15.72005,"canPickup":true,"canDropoff":true,"openingstijden":{"ma":"08:20 - 13:35","di":"08:20 - 13:35","wo":"08:20 - 13:35","do":"08:20 - 13:35","vr":"08:20 - 13:35","za":"08:20 - 12:35","zo":"gesloten"}}},{"type":"Feature","geometry":{"type":"Point","coordinates":[15.7169673,38.2523536]},"properties":{"type":"pakketpunt","locatieNaam":"Amazon Counter - ALIMENTARI PICONE FORTUNATO","straatNaam":"VIA ROMA 12","straatNr":"","vervoerder":"Amazon","puntType":"helix","bezettingsgraad":50,"latitude":38.2523536,"longitude":15.7169673,"canPickup":true,"canDropoff":false,"openingstijden":null}},{"type":"Feature","geometry":{"type":"Point","coordinates":[15.718918035582,38.250968279175]},"properties":{"type":"pakketpunt","locatieNaam":"Amazon Counter (fermopoint)","straatNaam":"Supermercato Effesette","straatNr":"","vervoerder":"Amazon","puntType":"helix","bezettingsgraad":50,"latitude":38.250968279175,"longitude":15.718918035582,"canPickup":true,"canDropoff":false,"openingstijden":null}},{"type":"Feature","geometry":{"type":"Point","coordinates":[15.72,38.2524]},"properties":{"type":"pakketpunt","locatieNaam":"Ufficio Postale SCILLA","straatNaam":"VIA PARCO 1","straatNr":"","vervoerder":"Amazon","puntType":"3p","bezettingsgraad":50,"latitude":38.2524,"longitude":15.72,"canPickup":true,"canDropoff":false,"openingstijden":null}},{"type":"Feature","geometry":{"type":"Polygon","coordinates":[[[15.6870255,38.2481418],[15.6896468,38.2457034],[15.6925062,38.2437355],[15.7120785,38.2341322],[15.7184169,38.2328366],[15.7194898,38.2266973],[15.7216958,38.2278792],[15.7251515,38.2295698],[15.7306005,38.2318744],[15.7327899,38.2325895],[15.7332247,38.23265],[15.7457414,38.2320224],[15.7558132,38.2304057],[15.762352,38.2284888],[15.7775242,38.2328507],[15.7799885,38.2325187],[15.7844595,38.2307566],[15.7881822,38.2284349],[15.7893802,38.2272631],[15.7908627,38.2260387],[15.7939728,38.2241079],[15.7944386,38.2239053],[15.8010421,38.2217531],[15.8042282,38.2216756],[15.8134642,38.2150505],[15.8185139,38.2079404],[15.8208492,38.2043132],[15.8329086,38.1963027],[15.8448847,38.1891912],[15.8470832,38.188779],[15.8515629,38.1860962],[15.8522234,38.1821077],[15.8522088,38.1816497],[15.8521127,38.1812954],[15.8516612,38.1806606],[15.8495343,38.1785585],[15.8596884,38.1711925],[15.866874,38.1609457],[15.8717582,38.15791],[15.8771297,38.1594385],[15.8766303,38.1644702],[15.8733706,38.1638747],[15.8729618,38.1639662],[15.8725522,38.1643952],[15.8701582,38.1674825],[15.8563322,38.1876114],[15.8440671,38.2044985],[15.8438089,38.2057237],[15.8438712,38.2062644],[15.8447816,38.2068814],[15.8454527,38.2076518],[15.8456737,38.2079403],[15.8457925,38.2083247],[15.845797,38.2087203],[15.8457572,38.2091905],[15.8434506,38.213217],[15.8294728,38.2305495],[15.8280416,38.2317668],[15.8260827,38.232862],[15.8240932,38.2337835],[15.8227492,38.2341994],[15.8165481,38.2354162],[15.8158156,38.2354814],[15.815746,38.2434347],[15.8128129,38.2520139],[15.8101857,38.2594056],[15.8089279,38.2601987],[15.8064157,38.2594499],[15.8041841,38.2581943],[15.8012828,38.2564109],[15.7977084,38.2544146],[15.7908834,38.2521393],[15.7902545,38.2520949],[15.7842108,38.2533548],[15.7816701,38.2540827],[15.7811815,38.254471],[15.7799637,38.2558329],[15.7758095,38.2649815],[15.7713832,38.2683462],[15.7685299,38.266965],[15.7648407,38.2646905],[15.7638092,38.2639156],[15.763556,38.2638161],[15.7633431,38.263886],[15.7627691,38.2635158],[15.7611331,38.263189],[15.7609178,38.2629947],[15.7603371,38.2627108],[15.7592395,38.2624027],[15.758666,38.2621022],[15.7582542,38.2619991],[15.7582415,38.2618504],[15.7580477,38.2616158],[15.7573712,38.2615536],[15.7573304,38.2611811],[15.7571423,38.2610147],[15.7567101,38.2608199],[15.7562077,38.2607628],[15.756256,38.2605227],[15.7559913,38.2601797],[15.755787,38.2600581],[15.7547566,38.2599761],[15.7547703,38.2596255],[15.7544958,38.2593384],[15.753413,38.2590684],[15.7529649,38.2587651],[15.7525027,38.258638],[15.7522231,38.2582572],[15.7501316,38.2572374],[15.7496074,38.2570978],[15.7491797,38.2571062],[15.7477953,38.2568548],[15.7462188,38.2560882],[15.7449304,38.2556986],[15.7447063,38.2555101],[15.7428257,38.2552399],[15.7423856,38.2551079],[15.7417854,38.2550765],[15.7413212,38.2548377],[15.740425,38.2546743],[15.7392326,38.2542721],[15.7384403,38.2538008],[15.7364397,38.253009],[15.7350393,38.2528519],[15.7340469,38.2528519],[15.7332787,38.252701],[15.7320223,38.2526131],[15.7313021,38.2527325],[15.7297576,38.2525565],[15.7292854,38.2526948],[15.7288933,38.2529147],[15.7272848,38.2539956],[15.7267315,38.2539616],[15.7248841,38.2534352],[15.7231026,38.2537703],[15.7231378,38.2538557],[15.7228234,38.2540258],[15.7223028,38.2539815],[15.7223043,38.2538163],[15.7219305,38.2537849],[15.7218319,38.2538887],[15.7212748,38.2539214],[15.7206667,38.2537922],[15.7205495,38.2538055],[15.7205629,38.253857],[15.7197571,38.2538733],[15.7184798,38.2540553],[15.7178106,38.2542601],[15.7170343,38.2546827],[15.7169846,38.2546284],[15.7162383,38.2552239],[15.7159547,38.2556424],[15.7156546,38.2558483],[15.7154551,38.2562119],[15.7148223,38.2569559],[15.7155413,38.2573449],[15.7160824,38.2570321],[15.7163617,38.2570958],[15.7164159,38.2572103],[15.7158668,38.2575983],[15.7155589,38.2577029],[15.7149011,38.2573738],[15.7143921,38.2572805],[15.7145027,38.2571671],[15.7143977,38.2569749],[15.7141947,38.2570481],[15.7139637,38.2567589],[15.7139686,38.2565595],[15.7140655,38.2565306],[15.7138966,38.2562704],[15.7138325,38.2557049],[15.7141736,38.2549459],[15.7137536,38.2544399],[15.7089178,38.2515944],[15.7076344,38.2509854],[15.707054,38.2509232],[15.7064462,38.2513185],[15.7050858,38.251507],[15.7050147,38.251683],[15.7044536,38.2517584],[15.7043015,38.2520915],[15.7037333,38.2525062],[15.7035013,38.2524497],[15.7030051,38.2525628],[15.7028611,38.2527513],[15.7022609,38.253009],[15.7018287,38.252921],[15.7017167,38.2527765],[15.7013406,38.2525879],[15.7008044,38.2524999],[15.7006924,38.2523931],[15.6999641,38.252324],[15.6998041,38.2521794],[15.6985077,38.2520789],[15.6983236,38.252192],[15.6981796,38.2518652],[15.6980035,38.2517395],[15.6978275,38.2517458],[15.6977074,38.2515573],[15.6974994,38.251507],[15.6973873,38.2512494],[15.6968832,38.2510608],[15.6960669,38.2511802],[15.6955307,38.2510671],[15.6952907,38.25113],[15.6949626,38.2510168],[15.6949145,38.2511362],[15.6947785,38.2511488],[15.6946745,38.2510357],[15.6939782,38.2510294],[15.6938022,38.2508534],[15.6935861,38.2508283],[15.6928979,38.2510231],[15.6923137,38.250822],[15.6920176,38.2508723],[15.6920096,38.250734],[15.6909453,38.2503318],[15.6905852,38.2502627],[15.6903211,38.2503758],[15.6902891,38.2503004],[15.6903691,38.2502061],[15.689977,38.2499296],[15.6895208,38.2493326],[15.6892327,38.2491629],[15.6892247,38.2489681],[15.6883532,38.2485672],[15.6870255,38.2481418]]]},"properties":{"type":"boundary","gemeente":"Scilla"}}]}