{"type":"FeatureCollection","metadata":{"gemeente":"Sedriano","slug":"sedriano","generated_at":"2026-09-26T13:10:42.220591Z","total_points":20,"providers":["PosteItaliane","DPD","InPost","GLS","DHL","Amazon"],"bounds":[8.96266686,45.4836,8.9775459,45.4922]},"features":[{"type":"Feature","geometry":{"type":"Point","coordinates":[8.96266686,45.48905391]},"properties":{"type":"pakketpunt","locatieNaam":"Tabaccheria N. 7","straatNaam":"Via Vittorio Veneto","straatNr":"4","vervoerder":"PosteItaliane","puntType":"servicepunt","bezettingsgraad":50,"latitude":45.48905391,"longitude":8.96266686,"canPickup":true,"canDropoff":true,"openingstijden":{"za":"07:00 - 20:00","zo":"08:30 - 12:30","ma":"07:00 - 20:00","di":"07:00 - 20:00","wo":"07:00 - 20:00","do":"07:00 - 20:00","vr":"07:00 - 20:00"}}},{"type":"Feature","geometry":{"type":"Point","coordinates":[8.96937911,45.48987963]},"properties":{"type":"pakketpunt","locatieNaam":"Sedriano","straatNaam":"Via De Amicis","straatNr":"39","vervoerder":"PosteItaliane","puntType":"postkantoor","bezettingsgraad":50,"latitude":45.48987963,"longitude":8.96937911,"canPickup":true,"canDropoff":true,"openingstijden":{"za":"08:20 - 12:35","zo":"gesloten","ma":"08:20 - 13:35","di":"08:20 - 13:35","wo":"08:20 - 13:35","do":"08:20 - 13:35","vr":"08:20 - 13:35"}}},{"type":"Feature","geometry":{"type":"Point","coordinates":[8.97685596,45.4849299]},"properties":{"type":"pakketpunt","locatieNaam":"Gallerie Bennet","straatNaam":"Piazza Gandhi","straatNr":"6","vervoerder":"PosteItaliane","puntType":"automaat","bezettingsgraad":50,"latitude":45.4849299,"longitude":8.97685596,"canPickup":true,"canDropoff":true,"openingstijden":{"za":"08:30 - 20:30","zo":"09:00 - 20:00","ma":"09:00 - 20:30","di":"09:00 - 20:30","wo":"09:00 - 20:30","do":"09:00 - 20:30","vr":"09:00 - 20:30"}}},{"type":"Feature","geometry":{"type":"Point","coordinates":[8.96937911,45.48987963]},"properties":{"type":"pakketpunt","locatieNaam":"Up Sedriano","straatNaam":"Via De Amicis","straatNr":"39","vervoerder":"PosteItaliane","puntType":"automaat","bezettingsgraad":50,"latitude":45.48987963,"longitude":8.96937911,"canPickup":true,"canDropoff":true,"openingstijden":{"za":"00:01 - 23:59","zo":"00:01 - 23:59","ma":"00:01 - 23:59","di":"00:01 - 23:59","wo":"00:01 - 23:59","do":"00:01 - 23:59","vr":"00:01 - 23:59"}}},{"type":"Feature","geometry":{"type":"Point","coordinates":[8.973684589,45.4921529284]},"properties":{"type":"pakketpunt","locatieNaam":"Cartoleria - Edicola","straatNaam":"VIA XXV APRILE","straatNr":"17","vervoerder":"DPD","puntType":"pickup_point","bezettingsgraad":50,"latitude":45.4921529284,"longitude":8.973684589,"canPickup":true,"canDropoff":true,"openingstijden":{"ma":"06:00 - 12:30, 15:30 - 19:00","di":"06:00 - 12:30, 15:30 - 19:00","wo":"06:00 - 12:30, 15:30 - 19:00","do":"06:00 - 12:30, 15:30 - 19:00","vr":"06:00 - 12:30, 15:30 - 19:00","za":"06:00 - 12:30, 15:30 - 19:00","zo":"07:00 - 12:30"}}},{"type":"Feature","geometry":{"type":"Point","coordinates":[8.9668117,45.4896464]},"properties":{"type":"pakketpunt","locatieNaam":"La Nuova Posta - Sedriano","straatNaam":"VIA PESSINA","straatNr":"15","vervoerder":"DPD","puntType":"pickup_point","bezettingsgraad":50,"latitude":45.4896464,"longitude":8.9668117,"canPickup":true,"canDropoff":true,"openingstijden":{"ma":"07:30 - 13:30, 15:00 - 18:30","di":"07:30 - 13:30, 15:00 - 18:30","wo":"07:30 - 13:30, 15:00 - 18:30","do":"10:30 - 13:30, 15:00 - 18:30","vr":"07:30 - 13:30, 15:00 - 18:30","za":"07:30 - 12:00","zo":"gesloten"}}},{"type":"Feature","geometry":{"type":"Point","coordinates":[8.96681,45.48991]},"properties":{"type":"pakketpunt","locatieNaam":"InPost Point","straatNaam":"Via Pessina","straatNr":"15","vervoerder":"InPost","puntType":"servicepunt","bezettingsgraad":50,"latitude":45.48991,"longitude":8.96681,"canPickup":true,"canDropoff":true,"openingstijden":"Lun-Ven: 07:30 - 13:30 - 15:00 - 18:30 Sab: 07:30 - 12:00"}},{"type":"Feature","geometry":{"type":"Point","coordinates":[8.97379,45.4922]},"properties":{"type":"pakketpunt","locatieNaam":"InPost Point","straatNaam":"Via XXV Aprile","straatNr":"17","vervoerder":"InPost","puntType":"servicepunt","bezettingsgraad":50,"latitude":45.4922,"longitude":8.97379,"canPickup":true,"canDropoff":true,"openingstijden":"Lun-Sab: 06:00 - 12:00 - 15:30 - 19:00 Dom: 07:00 - 12:00"}},{"type":"Feature","geometry":{"type":"Point","coordinates":[8.97717,45.4836]},"properties":{"type":"pakketpunt","locatieNaam":"Bennet Sedriano","straatNaam":"Piazza Gandhi","straatNr":"6","vervoerder":"InPost","puntType":"automaat","bezettingsgraad":50,"latitude":45.4836,"longitude":8.97717,"canPickup":true,"canDropoff":true,"openingstijden":null}},{"type":"Feature","geometry":{"type":"Point","coordinates":[8.9667605,45.4896871]},"properties":{"type":"pakketpunt","locatieNaam":"LA NUOVA POSTA","straatNaam":"Via Edoardo Pessina","straatNr":"15","vervoerder":"GLS","puntType":"parcel_shop","bezettingsgraad":50,"latitude":45.4896871,"longitude":8.9667605,"canPickup":true,"canDropoff":true,"openingstijden":"za: 07:30 - 12:00; ma: 07:30 - 13:30, 15:00 - 18:30"}},{"type":"Feature","geometry":{"type":"Point","coordinates":[8.9737925,45.4921994]},"properties":{"type":"pakketpunt","locatieNaam":"LA CARTOLIBRERIA DI PISTONE","straatNaam":"Via Xxv Aprile","straatNr":"17","vervoerder":"GLS","puntType":"parcel_shop","bezettingsgraad":50,"latitude":45.4921994,"longitude":8.9737925,"canPickup":true,"canDropoff":true,"openingstijden":"za: 06:00 - 12:30, 15:30 - 19:30; zo: 07:00 - 12:30"}},{"type":"Feature","geometry":{"type":"Point","coordinates":[8.962667,45.489054]},"properties":{"type":"pakketpunt","locatieNaam":"TABACCHERIA N. 7","straatNaam":"VIA VITTORIO VENETO 4","straatNr":"","vervoerder":"DHL","puntType":"parcelShop","bezettingsgraad":50,"latitude":45.489054,"longitude":8.962667,"canPickup":true,"canDropoff":true,"openingstijden":{"ma":"07:00 - 20:00","di":"07:00 - 20:00","wo":"07:00 - 20:00","do":"07:00 - 20:00","vr":"07:00 - 20:00","za":"07:00 - 20:00","zo":"08:30 - 12:30"}}},{"type":"Feature","geometry":{"type":"Point","coordinates":[8.969228,45.487469]},"properties":{"type":"pakketpunt","locatieNaam":"LA TECNIGRAFICA","straatNaam":"Via Leopoldo Fagnani 9","straatNr":"","vervoerder":"DHL","puntType":"parcelShop","bezettingsgraad":50,"latitude":45.487469,"longitude":8.969228,"canPickup":false,"canDropoff":true,"openingstijden":{"ma":"06:30 - 19:30","di":"06:30 - 19:30","wo":"06:30 - 19:30","do":"06:30 - 19:30","vr":"06:30 - 19:30","za":"06:30 - 19:30","zo":"gesloten"}}},{"type":"Feature","geometry":{"type":"Point","coordinates":[8.976856,45.48493]},"properties":{"type":"pakketpunt","locatieNaam":"GALLERIE BENNET","straatNaam":"PIAZZA GANDHI 6","straatNr":"","vervoerder":"DHL","puntType":"packStation","bezettingsgraad":50,"latitude":45.48493,"longitude":8.976856,"canPickup":true,"canDropoff":true,"openingstijden":{"ma":"09:00 - 20:30","di":"09:00 - 20:30","wo":"09:00 - 20:30","do":"09:00 - 20:30","vr":"09:00 - 20:30","za":"08:30 - 20:30","zo":"09:00 - 20:00"}}},{"type":"Feature","geometry":{"type":"Point","coordinates":[8.969379,45.48988]},"properties":{"type":"pakketpunt","locatieNaam":"UP SEDRIANO","straatNaam":"VIA DE AMICIS 39","straatNr":"","vervoerder":"DHL","puntType":"packStation","bezettingsgraad":50,"latitude":45.48988,"longitude":8.969379,"canPickup":true,"canDropoff":true,"openingstijden":{"ma":"00:01 - 23:59","di":"00:01 - 23:59","wo":"00:01 - 23:59","do":"00:01 - 23:59","vr":"00:01 - 23:59","za":"00:01 - 23:59","zo":"00:01 - 23:59"}}},{"type":"Feature","geometry":{"type":"Point","coordinates":[8.969379,45.48988]},"properties":{"type":"pakketpunt","locatieNaam":"Ufficio Postale SEDRIANO","straatNaam":"VIA DE AMICIS 39","straatNr":"","vervoerder":"DHL","puntType":"postOffice","bezettingsgraad":50,"latitude":45.48988,"longitude":8.969379,"canPickup":true,"canDropoff":true,"openingstijden":{"ma":"08:20 - 13:35","di":"08:20 - 13:35","wo":"08:20 - 13:35","do":"08:20 - 13:35","vr":"08:20 - 13:35","za":"08:20 - 12:35","zo":"gesloten"}}},{"type":"Feature","geometry":{"type":"Point","coordinates":[8.977185,45.48379]},"properties":{"type":"pakketpunt","locatieNaam":"Amazon Locker - amorino","straatNaam":"Gallerie Bennet Sedriano","straatNr":"","vervoerder":"Amazon","puntType":"locker","bezettingsgraad":50,"latitude":45.48379,"longitude":8.977185,"canPickup":true,"canDropoff":false,"openingstijden":null}},{"type":"Feature","geometry":{"type":"Point","coordinates":[8.9707785,45.4888792]},"properties":{"type":"pakketpunt","locatieNaam":"Amazon Locker - lola","straatNaam":"Luogo di Cura-Ghizzoni Sedriano","straatNr":"","vervoerder":"Amazon","puntType":"locker","bezettingsgraad":50,"latitude":45.4888792,"longitude":8.9707785,"canPickup":true,"canDropoff":false,"openingstijden":null}},{"type":"Feature","geometry":{"type":"Point","coordinates":[8.977185,45.48379]},"properties":{"type":"pakketpunt","locatieNaam":"Amazon Counter","straatNaam":"101Caffè Sedriano","straatNr":"","vervoerder":"Amazon","puntType":"helix","bezettingsgraad":50,"latitude":45.48379,"longitude":8.977185,"canPickup":true,"canDropoff":false,"openingstijden":null}},{"type":"Feature","geometry":{"type":"Point","coordinates":[8.9775459,45.4843059]},"properties":{"type":"pakketpunt","locatieNaam":"Giunti al Punto","straatNaam":"Centro Commerciale sedriano Shopping","straatNr":"","vervoerder":"Amazon","puntType":"helix","bezettingsgraad":50,"latitude":45.4843059,"longitude":8.9775459,"canPickup":true,"canDropoff":false,"openingstijden":null}},{"type":"Feature","geometry":{"type":"Polygon","coordinates":[[[8.9581032,45.4989604],[8.9590375,45.4989742],[8.9594408,45.4988349],[8.9597754,45.4985289],[8.9597805,45.4981059],[8.9596465,45.4975568],[8.9594941,45.4959095],[8.9604204,45.4958423],[8.9603323,45.4937136],[8.9604576,45.492741],[8.9603763,45.4904748],[8.9618274,45.490405],[8.9614218,45.488239],[8.9611914,45.4882758],[8.961182,45.4870273],[8.9629684,45.4871012],[8.9630054,45.486418],[8.961837,45.4858337],[8.9620387,45.4854568],[8.9620954,45.485163],[8.9619127,45.4851464],[8.9619132,45.4842904],[8.962094,45.4842902],[8.9620988,45.4839868],[8.9638961,45.483935],[8.963766,45.4800961],[8.9638445,45.4799611],[8.9644843,45.4798803],[8.9644197,45.4783051],[8.9641367,45.4756137],[8.9636379,45.475312],[8.9627808,45.4750957],[8.9629337,45.4737141],[8.9637224,45.4720398],[8.96364,45.4719231],[8.9637395,45.4714326],[8.9641543,45.4704066],[8.9651816,45.4693673],[8.9660294,45.468895],[8.9674725,45.4675902],[8.9682483,45.4670009],[8.9684101,45.4665194],[8.9684409,45.4656328],[8.9686733,45.4646787],[8.9686702,45.4645572],[8.9685056,45.4643951],[8.9684913,45.4641431],[8.9688039,45.462757],[8.9690422,45.4626131],[8.9697009,45.4626087],[8.9728331,45.462767],[8.9722743,45.4643646],[8.9720564,45.4653501],[8.9718787,45.4655976],[8.9714583,45.465377],[8.9712374,45.4659485],[8.972083,45.4664618],[8.9724112,45.4655977],[8.9745422,45.4630104],[8.9746605,45.4629204],[8.9755832,45.4627271],[8.9759064,45.4622321],[8.9771647,45.4620613],[8.9772271,45.4620928],[8.9771022,45.4626059],[8.9771321,45.463812],[8.9770327,45.4642981],[8.9769032,45.4645096],[8.9803983,45.4649377],[8.9806986,45.4659549],[8.9810421,45.4667066],[8.9815442,45.4666526],[8.981602,45.4659956],[8.9817731,45.4657436],[8.9835687,45.4660499],[8.9834612,45.467418],[8.9830484,45.4683496],[8.9825506,45.4698257],[8.9824161,45.4704827],[8.9820465,45.4710992],[8.9810404,45.4717787],[8.9786124,45.4731914],[8.9786284,45.4732634],[8.9795127,45.4734031],[8.979367,45.4739296],[8.9781548,45.4738124],[8.977515,45.4741633],[8.9774093,45.4744424],[8.9754391,45.474433],[8.9752184,45.4745094],[8.9741061,45.4763229],[8.9739764,45.4766469],[8.9742274,45.4769575],[8.9749134,45.4771107],[8.9795864,45.4774446],[8.9786759,45.4789431],[8.9801024,45.4791369],[8.98103,45.4793891],[8.9808651,45.4797266],[8.9802091,45.4804916],[8.9791626,45.4820441],[8.9789385,45.4824581],[8.9788328,45.4828721],[8.9823001,45.4838043],[8.9828922,45.4829988],[8.9842197,45.4832555],[8.9842966,45.4826119],[8.985677,45.4823105],[8.9858497,45.4823151],[8.9858497,45.4824411],[8.9884152,45.4827699],[8.9882632,45.4829589],[8.9880311,45.4836655],[8.9876405,45.4853891],[8.9872054,45.4856726],[8.9884514,45.4856907],[8.9883697,45.4861588],[8.9888656,45.4862353],[8.9884415,45.4874054],[8.9899994,45.4877116],[8.9914854,45.4881663],[8.9907894,45.4894039],[8.9916867,45.4896379],[8.9920083,45.4893094],[8.9935215,45.4898091],[8.9928047,45.4909432],[8.9916146,45.4907586],[8.9908769,45.4921627],[8.9903762,45.4920411],[8.9902882,45.4920861],[8.9899522,45.4928197],[8.9889184,45.4946198],[8.98888,45.4947908],[8.9909676,45.4954076],[8.9904235,45.4964381],[8.9922009,45.4968028],[8.991396,45.4980044],[8.9913191,45.4983554],[8.9913751,45.498738],[8.9908085,45.4998811],[8.9892401,45.5024192],[8.9870394,45.5057089],[8.9868602,45.5058979],[8.9858297,45.5056953],[8.982673,45.5048668],[8.9825722,45.5047723],[8.9810459,45.504277],[8.9766155,45.5038216],[8.9749995,45.5035738],[8.9761491,45.5017063],[8.9742262,45.5010533],[8.9745879,45.5004191],[8.9705629,45.4990687],[8.9711267,45.4998037],[8.9714342,45.5004623],[8.972134,45.5009197],[8.9723221,45.5013904],[8.9723524,45.5016109],[8.9721122,45.5019889],[8.9716543,45.5025244],[8.9713102,45.5027898],[8.9708318,45.5028482],[8.9668767,45.5025321],[8.9653646,45.5025677],[8.962865,45.503143],[8.9631858,45.5044528],[8.961427,45.5049383],[8.9597851,45.5052482],[8.9592971,45.5052346],[8.9591437,45.5048655],[8.9590611,45.5040688],[8.9587929,45.5031596],[8.9583371,45.5007247],[8.9581032,45.4989604]]]},"properties":{"type":"boundary","gemeente":"Sedriano"}}]}