{"type":"FeatureCollection","metadata":{"gemeente":"Sepino","slug":"sepino","generated_at":"2026-09-26T13:10:42.921673Z","total_points":3,"providers":["PosteItaliane","DHL","Amazon"],"bounds":[14.6187,41.4083,14.61871904,41.4083223]},"features":[{"type":"Feature","geometry":{"type":"Point","coordinates":[14.61871904,41.4083223]},"properties":{"type":"pakketpunt","locatieNaam":"Sepino","straatNaam":"Corso Angelo Catone","straatNr":"59/a","vervoerder":"PosteItaliane","puntType":"postkantoor","bezettingsgraad":50,"latitude":41.4083223,"longitude":14.61871904,"canPickup":true,"canDropoff":true,"openingstijden":{"za":"08:30 - 12:45","zo":"gesloten","ma":"08:30 - 13:45","di":"08:30 - 13:45","wo":"08:30 - 13:45","do":"08:20 - 13:45","vr":"08:20 - 13:45"}}},{"type":"Feature","geometry":{"type":"Point","coordinates":[14.618719,41.408322]},"properties":{"type":"pakketpunt","locatieNaam":"Ufficio Postale SEPINO","straatNaam":"CORSO ANGELO CATONE 59-A","straatNr":"","vervoerder":"DHL","puntType":"postOffice","bezettingsgraad":50,"latitude":41.408322,"longitude":14.618719,"canPickup":true,"canDropoff":true,"openingstijden":{"ma":"08:30 - 13:45","di":"08:30 - 13:45","wo":"08:30 - 13:45","do":"08:30 - 13:45","vr":"08:30 - 13:45","za":"08:30 - 12:45","zo":"gesloten"}}},{"type":"Feature","geometry":{"type":"Point","coordinates":[14.6187,41.4083]},"properties":{"type":"pakketpunt","locatieNaam":"Ufficio Postale SEPINO","straatNaam":"CORSO ANGELO CATONE 59-A","straatNr":"","vervoerder":"Amazon","puntType":"3p","bezettingsgraad":50,"latitude":41.4083,"longitude":14.6187,"canPickup":true,"canDropoff":false,"openingstijden":null}},{"type":"Feature","geometry":{"type":"Polygon","coordinates":[[[14.5661559,41.3914562],[14.5671738,41.392072],[14.5676719,41.3919099],[14.5688469,41.3913042],[14.5702745,41.3911813],[14.571217,41.3908298],[14.5723748,41.3902198],[14.5733752,41.3898435],[14.5752047,41.3900424],[14.5756287,41.3899816],[14.5758927,41.3892794],[14.5768267,41.3889371],[14.5776807,41.3875077],[14.5779962,41.3871905],[14.5784196,41.3869151],[14.5787294,41.3864461],[14.5795151,41.385587],[14.5797378,41.385201],[14.5805628,41.3843452],[14.5806761,41.3839632],[14.5808806,41.38376],[14.5808217,41.3831154],[14.5816966,41.3828762],[14.5826275,41.3821834],[14.5829241,41.3817281],[14.5831636,41.381516],[14.5835628,41.3815236],[14.5839977,41.3816808],[14.5847296,41.3815793],[14.5852455,41.3813036],[14.5859181,41.38057],[14.5863084,41.3803822],[14.5865854,41.3800971],[14.5867023,41.3797776],[14.5866538,41.3793705],[14.5880418,41.3775957],[14.588809,41.3763328],[14.5893944,41.3757021],[14.5891192,41.3749315],[14.5848629,41.3726191],[14.5857727,41.3713296],[14.5911962,41.3700828],[14.5936516,41.3682208],[14.5964106,41.367996],[14.5976952,41.3674545],[14.6029484,41.3640631],[14.6038352,41.3652063],[14.6064913,41.3675001],[14.6075336,41.36811],[14.6077372,41.3684261],[14.6079323,41.3685731],[14.6085466,41.3685739],[14.6091342,41.3684704],[14.6099266,41.3686692],[14.6115753,41.368352],[14.6121934,41.3683328],[14.612971,41.3681835],[14.6146067,41.3681728],[14.6160601,41.3699196],[14.6175359,41.3711392],[14.6182136,41.3716101],[14.6188708,41.37192],[14.6194299,41.3723832],[14.6203847,41.3729621],[14.6211569,41.3736219],[14.6247544,41.3758761],[14.6270643,41.3778108],[14.6287916,41.3789323],[14.6291249,41.3793661],[14.6292703,41.3803908],[14.6298889,41.3817727],[14.6299327,41.3823781],[14.6301675,41.3831543],[14.6303799,41.383567],[14.6313534,41.3849055],[14.6319729,41.3854467],[14.6327571,41.3862859],[14.6332087,41.3869119],[14.6337794,41.387433],[14.6346597,41.3880604],[14.6353403,41.388405],[14.6364012,41.3890911],[14.6365431,41.3893452],[14.6372574,41.3900482],[14.6379845,41.3905031],[14.6393075,41.3912077],[14.6406805,41.3916353],[14.6417671,41.3922075],[14.6426123,41.3928591],[14.6434069,41.3940218],[14.6437766,41.3941837],[14.6444956,41.3942428],[14.6456621,41.394946],[14.648242,41.3960208],[14.6486711,41.3963462],[14.6497803,41.3968362],[14.6505902,41.397377],[14.6518462,41.3975356],[14.6525146,41.3977592],[14.6537587,41.3975584],[14.654417,41.3975619],[14.6551841,41.3972451],[14.6558071,41.3971963],[14.6570301,41.3967219],[14.6577878,41.3957393],[14.6585437,41.3954275],[14.6587963,41.3952485],[14.6592659,41.3945997],[14.6596297,41.393659],[14.6603381,41.393282],[14.6608528,41.393153],[14.6614958,41.3935219],[14.6621165,41.3940044],[14.66288,41.3941197],[14.6632496,41.394421],[14.6638035,41.395969],[14.6641956,41.3964853],[14.6654008,41.3971459],[14.6655792,41.3973802],[14.6657683,41.3979469],[14.6658339,41.3990374],[14.6657612,41.3994731],[14.6656148,41.3997774],[14.6654346,41.4001194],[14.6651813,41.4003255],[14.662666,41.4009583],[14.6621021,41.4012877],[14.6616108,41.4017216],[14.6614644,41.4019538],[14.661114,41.4027093],[14.6606195,41.4033728],[14.6606178,41.403589],[14.660832,41.404105],[14.6612473,41.4045751],[14.6615206,41.4050793],[14.6614444,41.4057357],[14.6614905,41.405999],[14.6629614,41.4063449],[14.6634032,41.4065437],[14.663593,41.4067323],[14.6636397,41.4069506],[14.6652688,41.4065776],[14.6688837,41.4064259],[14.6714433,41.4066414],[14.6729469,41.4070397],[14.6752314,41.4073993],[14.6756846,41.4075524],[14.6763907,41.4075984],[14.6770478,41.407836],[14.6777281,41.4081984],[14.6793885,41.4086158],[14.679973,41.4090144],[14.6805096,41.4092669],[14.6808557,41.4093578],[14.6814428,41.4092342],[14.68186,41.4096681],[14.6824219,41.4100139],[14.6831627,41.4101482],[14.6866821,41.4119226],[14.6879288,41.4115953],[14.6885759,41.4113246],[14.6891394,41.4112741],[14.6907089,41.4107372],[14.6911277,41.4106669],[14.6923609,41.4105877],[14.6949443,41.4108375],[14.6965584,41.4111039],[14.6974795,41.4111076],[14.6985071,41.4112276],[14.6996233,41.4108436],[14.6979098,41.413918],[14.6966724,41.4149517],[14.6965754,41.4152941],[14.6966113,41.4177498],[14.6967305,41.4179329],[14.6973054,41.4178323],[14.6980487,41.4175478],[14.6986587,41.417549],[14.6997091,41.4180549],[14.7005916,41.4188707],[14.6991939,41.4312501],[14.6977108,41.433385],[14.6968374,41.4332799],[14.6959414,41.4328833],[14.6943995,41.4327258],[14.6926883,41.4326847],[14.6924248,41.4326123],[14.6918523,41.4322221],[14.6911129,41.4315297],[14.6902903,41.4309133],[14.6898842,41.430749],[14.6891533,41.4308032],[14.6886016,41.4307181],[14.6876359,41.4302754],[14.6871098,41.4301754],[14.6865338,41.4301545],[14.6855882,41.4303859],[14.6847154,41.4303212],[14.6842361,41.4304485],[14.6818768,41.4306194],[14.6805933,41.4310566],[14.6797926,41.4312358],[14.6792537,41.4312625],[14.6781418,41.4307549],[14.6778564,41.430706],[14.6775556,41.4307884],[14.6771974,41.4307611],[14.676623,41.430587],[14.6760737,41.4302902],[14.6753688,41.4300595],[14.6742134,41.429293],[14.6727752,41.4292606],[14.672407,41.4291528],[14.6722617,41.4289619],[14.6715238,41.4285933],[14.6713191,41.4283379],[14.67035,41.4283003],[14.67017,41.4284983],[14.6697381,41.4285871],[14.6686261,41.4283856],[14.6671474,41.427716],[14.6667198,41.427134],[14.6664559,41.4269535],[14.6663607,41.4270617],[14.6663227,41.4274147],[14.666597,41.4275766],[14.6665831,41.4278294],[14.6664386,41.4281606],[14.6664611,41.428281],[14.6666055,41.4283594],[14.6664017,41.4285945],[14.6654998,41.4290532],[14.6650796,41.4296186],[14.6639043,41.4300277],[14.6638898,41.4303075],[14.6642119,41.4306066],[14.6641637,41.4307395],[14.6635986,41.4309115],[14.6637289,41.4313777],[14.66332,41.4315239],[14.6629116,41.4320527],[14.6628868,41.4321799],[14.6631353,41.4325952],[14.6631222,41.4329245],[14.6633123,41.4332526],[14.663288,41.4334204],[14.6626643,41.4337437],[14.6621022,41.4337445],[14.6619559,41.4338507],[14.6611876,41.4346764],[14.6612221,41.4348322],[14.6606422,41.4354865],[14.6605224,41.4357939],[14.6601644,41.4357351],[14.6599845,41.435798],[14.6598007,41.4361941],[14.6592609,41.4367609],[14.6590575,41.4367259],[14.6586742,41.4364793],[14.6574401,41.4369723],[14.656946,41.4374108],[14.6568371,41.4376367],[14.6569204,41.4380782],[14.6568587,41.4381937],[14.6562603,41.4383628],[14.6560889,41.4386953],[14.6559459,41.4387699],[14.6540075,41.4384559],[14.6530136,41.4387885],[14.6524125,41.4392007],[14.6521579,41.4398839],[14.651652,41.4401879],[14.6515451,41.4405397],[14.6511622,41.4404011],[14.6508386,41.4403945],[14.6504782,41.4405833],[14.6500477,41.440654],[14.6498432,41.4408126],[14.6495039,41.4412794],[14.6492892,41.4413891],[14.6487703,41.4421978],[14.64848,41.4425047],[14.6478805,41.4425927],[14.647712,41.4429251],[14.6474379,41.4430061],[14.6473259,41.4432997],[14.6472774,41.4438422],[14.6471307,41.4440475],[14.6461588,41.444703],[14.6454382,41.4449455],[14.6448627,41.4452754],[14.644622,41.4453277],[14.644253,41.4452469],[14.643978,41.4449048],[14.6438105,41.4449041],[14.6432345,41.445126],[14.6427905,41.4451793],[14.6422061,41.4449245],[14.6417998,41.4451021],[14.6412001,41.4451541],[14.6402087,41.4450003],[14.6391153,41.4452566],[14.638553,41.4456353],[14.6369366,41.4452422],[14.636447,41.4453563],[14.6361844,41.4453287],[14.6353304,41.4455867],[14.6352345,41.445929],[14.6351005,41.4460391],[14.6342749,41.4461067],[14.6339622,41.4463291],[14.6335901,41.4464194],[14.6326571,41.4463527],[14.6319018,41.4464033],[14.6310493,41.4469898],[14.6306183,41.4471235],[14.6302232,41.4471204],[14.629731,41.4473426],[14.6284162,41.4471506],[14.6281984,41.4473638],[14.6279355,41.4474712],[14.6277067,41.4474195],[14.6274822,41.4472459],[14.6271687,41.4473558],[14.6268573,41.4473171],[14.626942,41.4471554],[14.6268474,41.4470655],[14.626296,41.4470881],[14.6257347,41.4469266],[14.6255833,41.4464569],[14.6253924,41.4463943],[14.6253432,41.4462751],[14.6254286,41.4460864],[14.6254049,41.4459165],[14.6252622,41.4457885],[14.6250226,41.4457507],[14.6240025,41.4461294],[14.6232971,41.4461685],[14.6227089,41.4466294],[14.6216038,41.4472012],[14.6209329,41.4474321],[14.6195417,41.4474283],[14.6186552,41.4475888],[14.6179772,41.4470819],[14.617199,41.4469715],[14.6158077,41.4472782],[14.6144566,41.4473578],[14.6122863,41.4476486],[14.6117121,41.4477532],[14.610861,41.4480469],[14.6090632,41.4479413],[14.608155,41.4480578],[14.6077333,41.4481279],[14.6074113,41.4482787],[14.6065683,41.4489771],[14.6051192,41.4489264],[14.6047359,41.4490261],[14.6038233,41.4495073],[14.602625,41.4498675],[14.6017026,41.44989],[14.6007192,41.449794],[14.5993942,41.4492061],[14.5979012,41.4489594],[14.5973965,41.449038],[14.5970994,41.4492321],[14.5971401,41.4476007],[14.5968848,41.4471623],[14.5966911,41.4463175],[14.5966103,41.4454745],[14.5962654,41.4452099],[14.5943643,41.4443802],[14.5925595,41.443833],[14.5918813,41.4434711],[14.5898895,41.4427613],[14.5875756,41.4421613],[14.5870778,41.4417023],[14.5858459,41.4409825],[14.5845621,41.4398884],[14.5833108,41.4382888],[14.5821878,41.4364968],[14.5803749,41.435258],[14.5780182,41.4344301],[14.5768615,41.4333155],[14.5765487,41.4328825],[14.575693,41.4311068],[14.5753338,41.4308985],[14.5745914,41.4306754],[14.574054,41.4298755],[14.5737251,41.4296951],[14.5732518,41.4290696],[14.5730673,41.4285042],[14.5714149,41.4251722],[14.5705005,41.4237768],[14.5702438,41.4235181],[14.5698106,41.4233136],[14.5690486,41.4231512],[14.5687518,41.4228746],[14.5687759,41.4221107],[14.5685352,41.4214671],[14.5681983,41.4211543],[14.5675807,41.4208716],[14.5671395,41.4203062],[14.5657956,41.4188955],[14.565555,41.4183903],[14.5653184,41.4171736],[14.564801,41.4167661],[14.5646245,41.4160442],[14.5648812,41.4157796],[14.5658598,41.4153585],[14.5665176,41.4146246],[14.5673678,41.4130364],[14.5678491,41.4115926],[14.568539,41.4102571],[14.5687395,41.4083981],[14.5687235,41.4072791],[14.568908,41.4066474],[14.5690925,41.4064007],[14.5700149,41.4060698],[14.5702636,41.405793],[14.5702235,41.4052335],[14.5684748,41.4043069],[14.5679133,41.4037173],[14.5657074,41.3999628],[14.5652422,41.3990181],[14.5649694,41.3981938],[14.5649697,41.3973591],[14.5651351,41.3965756],[14.5657465,41.3950292],[14.5661559,41.3914562]]]},"properties":{"type":"boundary","gemeente":"Sepino"}}]}