{"type":"FeatureCollection","metadata":{"gemeente":"Serracapriola","slug":"serracapriola","generated_at":"2026-09-26T13:10:43.169050Z","total_points":14,"providers":["PosteItaliane","DPD","GLS","DHL","Amazon"],"bounds":[15.15915464,41.804101,15.1603027631947,41.8092799804582]},"features":[{"type":"Feature","geometry":{"type":"Point","coordinates":[15.1592533,41.80410124]},"properties":{"type":"pakketpunt","locatieNaam":"Serracapriola","straatNaam":"Piazza Umberto I","straatNr":"21","vervoerder":"PosteItaliane","puntType":"postkantoor","bezettingsgraad":50,"latitude":41.80410124,"longitude":15.1592533,"canPickup":true,"canDropoff":true,"openingstijden":{"za":"08:20 - 12:35","zo":"gesloten","ma":"08:20 - 13:35","di":"08:20 - 13:35","wo":"08:20 - 13:35","do":"08:20 - 13:35","vr":"08:20 - 13:35"}}},{"type":"Feature","geometry":{"type":"Point","coordinates":[15.15915464,41.80647394]},"properties":{"type":"pakketpunt","locatieNaam":"Tabaccheria N. 2","straatNaam":"Corso Giuseppe Garibaldi","straatNr":"66","vervoerder":"PosteItaliane","puntType":"servicepunt","bezettingsgraad":50,"latitude":41.80647394,"longitude":15.15915464,"canPickup":true,"canDropoff":true,"openingstijden":{"za":"07:30 - 13:30, 15:30 - 21:00","zo":"09:00 - 13:00, 17:00 - 21:00","ma":"07:30 - 13:30, 15:30 - 21:00","di":"07:30 - 13:30, 15:30 - 21:00","wo":"07:30 - 13:30, 15:30 - 21:00","do":"07:30 - 13:30, 15:30 - 21:00","vr":"07:30 - 13:30, 15:30 - 21:00"}}},{"type":"Feature","geometry":{"type":"Point","coordinates":[15.15966494,41.80779893]},"properties":{"type":"pakketpunt","locatieNaam":"Tabaccheria N. 1","straatNaam":"Corso Giuseppe Garibaldi","straatNr":"83","vervoerder":"PosteItaliane","puntType":"servicepunt","bezettingsgraad":50,"latitude":41.80779893,"longitude":15.15966494,"canPickup":true,"canDropoff":true,"openingstijden":{"za":"07:30 - 13:00, 16:00 - 20:30","zo":"gesloten","ma":"07:30 - 13:00, 16:00 - 20:30","di":"07:30 - 13:00, 16:00 - 20:30","wo":"07:30 - 13:00, 16:00 - 20:30","do":"07:30 - 13:00, 16:00 - 20:30","vr":"07:30 - 13:00, 16:00 - 20:30"}}},{"type":"Feature","geometry":{"type":"Point","coordinates":[15.1593002,41.805146]},"properties":{"type":"pakketpunt","locatieNaam":"Sabina Ferrero","straatNaam":"VIA S. ANGELO","straatNr":"4","vervoerder":"DPD","puntType":"pickup_point","bezettingsgraad":50,"latitude":41.805146,"longitude":15.1593002,"canPickup":true,"canDropoff":true,"openingstijden":{"ma":"10:00 - 13:00, 16:00 - 19:00","di":"10:00 - 13:00, 16:00 - 19:00","wo":"10:00 - 13:00, 16:00 - 19:00","do":"10:00 - 13:00, 16:00 - 19:00","vr":"10:00 - 13:00, 16:00 - 19:00","za":"10:00 - 13:00","zo":"gesloten"}}},{"type":"Feature","geometry":{"type":"Point","coordinates":[15.16030276,41.80927998]},"properties":{"type":"pakketpunt","locatieNaam":"Tabaccheria del Corso-Serracapriola","straatNaam":"CORSO GARIBALDI","straatNr":"151","vervoerder":"DPD","puntType":"pickup_point","bezettingsgraad":50,"latitude":41.80927998,"longitude":15.16030276,"canPickup":true,"canDropoff":true,"openingstijden":{"ma":"05:30 - 13:30, 15:30 - 20:30","di":"05:30 - 13:30, 15:30 - 20:30","wo":"05:30 - 13:30, 15:30 - 20:30","do":"05:30 - 13:30, 15:30 - 20:30","vr":"05:30 - 13:30, 15:30 - 20:30","za":"05:30 - 13:30, 15:30 - 20:30","zo":"gesloten"}}},{"type":"Feature","geometry":{"type":"Point","coordinates":[15.1593002,41.805146]},"properties":{"type":"pakketpunt","locatieNaam":"SABINA FERRERO","straatNaam":"Via Sant'Angelo","straatNr":"4","vervoerder":"GLS","puntType":"parcel_shop","bezettingsgraad":50,"latitude":41.805146,"longitude":15.1593002,"canPickup":true,"canDropoff":true,"openingstijden":"ma: 09:30 - 12:00, 17:00 - 19:30; di: 09:30 - 12:00, 17:00 - 19:30"}},{"type":"Feature","geometry":{"type":"Point","coordinates":[15.1602653,41.8090027]},"properties":{"type":"pakketpunt","locatieNaam":"TABACCHERIA DEL CORSO N3","straatNaam":"Corso Garibaldi","straatNr":"143","vervoerder":"GLS","puntType":"parcel_shop","bezettingsgraad":50,"latitude":41.8090027,"longitude":15.1602653,"canPickup":true,"canDropoff":true,"openingstijden":"za: 05:30 - 13:30, 15:30 - 20:30; ma: 05:30 - 13:30, 15:30 - 20:30"}},{"type":"Feature","geometry":{"type":"Point","coordinates":[15.159253,41.804101]},"properties":{"type":"pakketpunt","locatieNaam":"Ufficio Postale SERRACAPRIOLA","straatNaam":"PIAZZA UMBERTO I 21","straatNr":"","vervoerder":"DHL","puntType":"postOffice","bezettingsgraad":50,"latitude":41.804101,"longitude":15.159253,"canPickup":true,"canDropoff":true,"openingstijden":{"ma":"08:20 - 13:35","di":"08:20 - 13:35","wo":"08:20 - 13:35","do":"08:20 - 13:35","vr":"08:20 - 13:35","za":"08:20 - 12:35","zo":"gesloten"}}},{"type":"Feature","geometry":{"type":"Point","coordinates":[15.159155,41.806474]},"properties":{"type":"pakketpunt","locatieNaam":"TABACCHERIA N. 2","straatNaam":"CORSO GIUSEPPE GARIBALDI 66","straatNr":"","vervoerder":"DHL","puntType":"parcelShop","bezettingsgraad":50,"latitude":41.806474,"longitude":15.159155,"canPickup":true,"canDropoff":true,"openingstijden":{"ma":"07:30 - 13:30, 15:30 - 21:00","di":"07:30 - 13:30, 15:30 - 21:00","wo":"07:30 - 13:30, 15:30 - 21:00","do":"07:30 - 13:30, 15:30 - 21:00","vr":"07:30 - 13:30, 15:30 - 21:00","za":"07:30 - 13:30, 15:30 - 21:00","zo":"09:00 - 13:00, 17:00 - 21:00"}}},{"type":"Feature","geometry":{"type":"Point","coordinates":[15.159665,41.807799]},"properties":{"type":"pakketpunt","locatieNaam":"TABACCHERIA N. 1","straatNaam":"CORSO GIUSEPPE GARIBALDI 83","straatNr":"","vervoerder":"DHL","puntType":"parcelShop","bezettingsgraad":50,"latitude":41.807799,"longitude":15.159665,"canPickup":true,"canDropoff":true,"openingstijden":{"ma":"07:30 - 13:00, 16:00 - 20:30","di":"07:30 - 13:00, 16:00 - 20:30","wo":"07:30 - 13:00, 16:00 - 20:30","do":"07:30 - 13:00, 16:00 - 20:30","vr":"07:30 - 13:00, 16:00 - 20:30","za":"07:30 - 13:00, 16:00 - 20:30","zo":"gesloten"}}},{"type":"Feature","geometry":{"type":"Point","coordinates":[15.15997,41.808963]},"properties":{"type":"pakketpunt","locatieNaam":"TABACCHERIA DEL CORSO","straatNaam":"Corso Garibaldi 143","straatNr":"","vervoerder":"DHL","puntType":"parcelShop","bezettingsgraad":50,"latitude":41.808963,"longitude":15.15997,"canPickup":false,"canDropoff":true,"openingstijden":{"ma":"05:30 - 20:30","di":"05:30 - 20:30","wo":"05:30 - 20:30","do":"05:30 - 20:30","vr":"05:30 - 20:30","za":"05:30 - 20:30","zo":"gesloten"}}},{"type":"Feature","geometry":{"type":"Point","coordinates":[15.1593002,41.805146]},"properties":{"type":"pakketpunt","locatieNaam":"Amazon Counter","straatNaam":"Sabina Ferrero (fermopoint)","straatNr":"","vervoerder":"Amazon","puntType":"helix","bezettingsgraad":50,"latitude":41.805146,"longitude":15.1593002,"canPickup":true,"canDropoff":false,"openingstijden":null}},{"type":"Feature","geometry":{"type":"Point","coordinates":[15.1603027631947,41.8092799804582]},"properties":{"type":"pakketpunt","locatieNaam":"Amazon Counter (fermopoint)","straatNaam":"Tabaccheria del Corso-Serracapriola","straatNr":"","vervoerder":"Amazon","puntType":"helix","bezettingsgraad":50,"latitude":41.8092799804582,"longitude":15.1603027631947,"canPickup":true,"canDropoff":false,"openingstijden":null}},{"type":"Feature","geometry":{"type":"Point","coordinates":[15.1596,41.8077]},"properties":{"type":"pakketpunt","locatieNaam":"PuntoPoste TABACCHERIA N. 1","straatNaam":"CORSO GIUSEPPE GARIBALDI 83","straatNr":"","vervoerder":"Amazon","puntType":"3p","bezettingsgraad":50,"latitude":41.8077,"longitude":15.1596,"canPickup":true,"canDropoff":false,"openingstijden":null}},{"type":"Feature","geometry":{"type":"Polygon","coordinates":[[[15.1045509,41.8311385],[15.1041049,41.8304467],[15.1042384,41.829922],[15.1048987,41.8297158],[15.1052344,41.8294188],[15.1050647,41.8288383],[15.1051246,41.8286146],[15.1059452,41.8285438],[15.1064849,41.828398],[15.1065577,41.8281196],[15.106473,41.8277685],[15.105871,41.82704],[15.1058954,41.8267597],[15.1060973,41.8264789],[15.1066528,41.8259947],[15.1072276,41.825712],[15.1073011,41.8255055],[15.1068898,41.8246949],[15.1070579,41.8242808],[15.107864,41.8240893],[15.1079957,41.8237672],[15.107622,41.8234451],[15.1076221,41.8231616],[15.1077401,41.8228222],[15.108054,41.8224229],[15.1087655,41.8224074],[15.1090178,41.8223085],[15.1090024,41.8221158],[15.108595,41.8216604],[15.1087981,41.8212986],[15.1093771,41.8209031],[15.1109519,41.820729],[15.111291,41.8208459],[15.1115552,41.8213134],[15.1118596,41.8216031],[15.1120743,41.8213936],[15.1119156,41.820835],[15.1119537,41.8206665],[15.1123492,41.8200513],[15.1126733,41.8197279],[15.11272,41.8191764],[15.112888,41.8188253],[15.1132382,41.8186806],[15.1133806,41.818376],[15.1138488,41.8179864],[15.1142472,41.8178436],[15.1149801,41.8173904],[15.1155055,41.8158681],[15.1161686,41.8150946],[15.1164431,41.8145353],[15.1163366,41.8140504],[15.1163606,41.8137341],[15.1165273,41.8132751],[15.1162366,41.8131287],[15.1159971,41.8128894],[15.1158022,41.8125803],[15.115839,41.8123668],[15.1157654,41.8120692],[15.1145859,41.8116552],[15.1147868,41.8111764],[15.1145844,41.8091898],[15.1146791,41.8086852],[15.1152554,41.8073492],[15.1160838,41.8060088],[15.1166241,41.8053679],[15.1168549,41.8000359],[15.1159937,41.7905319],[15.1124288,41.7872142],[15.1120222,41.7873049],[15.1108509,41.7872164],[15.1080816,41.7861569],[15.1027807,41.7832398],[15.098202,41.7710309],[15.0978987,41.7697374],[15.0978614,41.7688078],[15.0981117,41.7671877],[15.0982315,41.7669068],[15.1074679,41.7575753],[15.1109025,41.7547547],[15.117142,41.7502441],[15.1231527,41.7574709],[15.1364121,41.7475033],[15.1407106,41.7445454],[15.1414561,41.7441094],[15.1455769,41.7423041],[15.1534843,41.739917],[15.1597069,41.7374401],[15.1684359,41.7327351],[15.1781498,41.7272967],[15.1791684,41.726603],[15.18705,41.732536],[15.1886268,41.7338729],[15.1890876,41.734361],[15.1898733,41.7363482],[15.1908289,41.7380337],[15.190866,41.7384187],[15.1906532,41.7396544],[15.1878533,41.7406924],[15.1874574,41.7406688],[15.1869738,41.7401548],[15.1907705,41.7507236],[15.1914948,41.7523136],[15.1923396,41.7531589],[15.1941486,41.7544202],[15.1945105,41.7545806],[15.195124,41.7546869],[15.196893,41.7548477],[15.2050229,41.7662883],[15.2068942,41.7718979],[15.2161908,41.7777613],[15.2166109,41.777536],[15.2169231,41.7774695],[15.21744,41.7774685],[15.2180429,41.7776562],[15.2185495,41.7781057],[15.2227768,41.7826734],[15.2252424,41.7856266],[15.225483,41.7892183],[15.2264149,41.7942756],[15.2274551,41.7990389],[15.2279033,41.7995275],[15.2312121,41.8025202],[15.2343748,41.8052687],[15.2371207,41.8087283],[15.2410933,41.8150823],[15.2470379,41.8268684],[15.2471953,41.8274404],[15.2472353,41.8282978],[15.2469328,41.830893],[15.2457283,41.8355516],[15.2378414,41.8378832],[15.233067,41.839498],[15.2319632,41.8410478],[15.2331539,41.8439262],[15.2333842,41.8443052],[15.2340238,41.8444998],[15.2455317,41.85844],[15.2575471,41.877378],[15.257827,41.8778758],[15.2579264,41.8787299],[15.2571928,41.8817763],[15.2572404,41.8822777],[15.2581576,41.8850313],[15.2611586,41.8915547],[15.2699847,41.906215],[15.2774627,41.9042341],[15.2777743,41.903704],[15.2785442,41.9031712],[15.2794234,41.9028619],[15.2833486,41.9018048],[15.284578,41.9018317],[15.2860132,41.9019915],[15.2919855,41.9082246],[15.2930958,41.9109806],[15.2959764,41.9137743],[15.3102764,41.9134722],[15.3183322,41.9136575],[15.3209503,41.9139943],[15.3229787,41.9143232],[15.3239452,41.9147963],[15.3241387,41.9150467],[15.3241903,41.9153543],[15.3242748,41.9176277],[15.320426,41.9178064],[15.307541,41.918836],[15.3038362,41.9188316],[15.3027515,41.9189803],[15.3017525,41.9192776],[15.2995355,41.9192068],[15.29631,41.9194263],[15.2951301,41.9197095],[15.2945497,41.9204033],[15.2940835,41.9204316],[15.294166,41.920806],[15.2941125,41.9208494],[15.2940201,41.920835],[15.293593,41.9199438],[15.2927005,41.9200563],[15.2925583,41.9201397],[15.2914912,41.9198578],[15.2864589,41.9200016],[15.2851271,41.9199004],[15.2832508,41.9200884],[15.2698825,41.919713],[15.2683926,41.9197758],[15.266858,41.9196724],[15.2585493,41.9195504],[15.2584273,41.9197984],[15.2582368,41.9199581],[15.2578582,41.9199693],[15.2554929,41.9195769],[15.2550718,41.9193613],[15.2549779,41.919458],[15.2524694,41.9194548],[15.2488788,41.9192199],[15.2454092,41.9192513],[15.241728,41.9191175],[15.2366425,41.9191766],[15.2333457,41.9189859],[15.22669,41.918997],[15.2232804,41.9170511],[15.2213009,41.9163622],[15.2199008,41.9159613],[15.2177774,41.9157032],[15.2169937,41.9157233],[15.2137821,41.9149798],[15.2132751,41.9146923],[15.2130469,41.9143446],[15.2128393,41.9134963],[15.2121162,41.9029416],[15.213295,41.8985346],[15.2133613,41.8964923],[15.2130874,41.894482],[15.2112867,41.8889272],[15.1996691,41.8582213],[15.1985661,41.856953],[15.1737013,41.8303316],[15.1689104,41.8263236],[15.1684277,41.8259717],[15.1673449,41.826336],[15.1671284,41.8267122],[15.1671422,41.8271435],[15.1674094,41.8276692],[15.1676038,41.8285858],[15.1676689,41.830612],[15.1663241,41.8361705],[15.1625857,41.8397968],[15.1512013,41.8431187],[15.147998,41.8435204],[15.1331472,41.8437366],[15.1328806,41.8434721],[15.1324711,41.84263],[15.1318632,41.8408714],[15.1316317,41.8392951],[15.1300586,41.835689],[15.1097127,41.8323937],[15.1083042,41.8322798],[15.1045509,41.8311385]]]},"properties":{"type":"boundary","gemeente":"Serracapriola"}}]}