{"type":"FeatureCollection","metadata":{"gemeente":"Serrapetrona","slug":"serrapetrona","generated_at":"2026-09-26T13:10:43.246311Z","total_points":1,"providers":["PosteItaliane"],"bounds":[13.18886114,43.17582645,13.18886114,43.17582645]},"features":[{"type":"Feature","geometry":{"type":"Point","coordinates":[13.18886114,43.17582645]},"properties":{"type":"pakketpunt","locatieNaam":"Serrapetrona","straatNaam":"Largo Dante Alighieri","straatNr":"6","vervoerder":"PosteItaliane","puntType":"postkantoor","bezettingsgraad":50,"latitude":43.17582645,"longitude":13.18886114,"canPickup":true,"canDropoff":true,"openingstijden":{"za":"08:20 - 12:45","zo":"gesloten","ma":"gesloten","di":"08:20 - 13:45","wo":"gesloten","do":"08:20 - 13:45","vr":"gesloten"}}},{"type":"Feature","geometry":{"type":"Polygon","coordinates":[[[13.123063,43.1826387],[13.1252938,43.1824682],[13.1257053,43.1823227],[13.1260814,43.1820616],[13.1269226,43.1810813],[13.1275624,43.1798968],[13.1281942,43.1790051],[13.1294879,43.1776664],[13.130182,43.176741],[13.1309022,43.1764764],[13.1316186,43.1760183],[13.1325395,43.1764486],[13.1328239,43.1764699],[13.133244,43.1763601],[13.1344446,43.1757405],[13.1361114,43.1747393],[13.1367752,43.173959],[13.1380139,43.1736755],[13.1383625,43.1735098],[13.139619,43.172627],[13.1402351,43.1718709],[13.1403713,43.1710196],[13.1407733,43.1702803],[13.1418028,43.1692256],[13.1423975,43.1682902],[13.1423238,43.1679283],[13.142037,43.1675515],[13.1414093,43.1671826],[13.1406957,43.1664072],[13.1399177,43.1660888],[13.1397976,43.1659491],[13.1397701,43.165725],[13.139939,43.1654038],[13.1399755,43.1650333],[13.1397647,43.1646448],[13.1401507,43.1644418],[13.1418706,43.1637312],[13.1421022,43.1637453],[13.1430537,43.1640844],[13.143362,43.1636411],[13.1445454,43.1639538],[13.1447058,43.1635068],[13.1457709,43.1637067],[13.1458868,43.1631488],[13.1470885,43.1632312],[13.1474052,43.1629136],[13.1483039,43.162926],[13.1482719,43.1631342],[13.1487645,43.1631434],[13.1490345,43.1623638],[13.1499677,43.1624784],[13.1516909,43.1623618],[13.1542748,43.1619257],[13.1554408,43.1615727],[13.1556598,43.1621274],[13.1556442,43.1629833],[13.1567764,43.1626315],[13.1577769,43.162514],[13.1579218,43.1629274],[13.1582835,43.1628647],[13.1585219,43.1634773],[13.1590041,43.1633787],[13.1591183,43.1620735],[13.1605576,43.1624848],[13.1609463,43.162187],[13.1614707,43.162393],[13.1622864,43.1617736],[13.1624867,43.1617348],[13.1629254,43.1622635],[13.1636814,43.1624835],[13.1654448,43.1631845],[13.1661586,43.1630999],[13.1665981,43.1628723],[13.1667255,43.1626651],[13.1665983,43.162017],[13.166746,43.1612058],[13.1675931,43.1612289],[13.1677934,43.1611901],[13.1679922,43.1610388],[13.1679849,43.160886],[13.1677662,43.1607904],[13.1674672,43.1605088],[13.1677042,43.1595188],[13.1678214,43.1593434],[13.1677782,43.1591604],[13.1669697,43.1582581],[13.1656131,43.1571192],[13.1649579,43.1576112],[13.1642749,43.1565647],[13.1639877,43.1559585],[13.1639916,43.1554722],[13.1643784,43.1539725],[13.1650319,43.1526883],[13.1653517,43.1518753],[13.1656323,43.1515274],[13.1672422,43.1502938],[13.1673364,43.1500968],[13.1672344,43.1498169],[13.1669802,43.1496056],[13.1673379,43.1491244],[13.1673349,43.1488994],[13.1671454,43.1486452],[13.1667833,43.1483838],[13.1657243,43.1479993],[13.1657813,43.1469844],[13.1635592,43.1456339],[13.1612849,43.1439656],[13.163315,43.1430814],[13.163557,43.142798],[13.1637294,43.1423955],[13.1640064,43.1421739],[13.1655542,43.1417933],[13.167517,43.1407809],[13.168336,43.1404854],[13.1687681,43.1404201],[13.1694536,43.1405121],[13.1722286,43.1403252],[13.1745431,43.1405963],[13.1758949,43.1405424],[13.1762754,43.140668],[13.1770201,43.1412215],[13.1774014,43.1416307],[13.1777509,43.1422482],[13.1783472,43.1428791],[13.1787927,43.1427862],[13.1791085,43.1429097],[13.1797573,43.1425979],[13.1790804,43.1414612],[13.1787091,43.14066],[13.1789615,43.1403942],[13.1800521,43.1401607],[13.1811904,43.1403577],[13.1823475,43.1406934],[13.1827099,43.1408692],[13.1825076,43.1411467],[13.184579,43.1417731],[13.1853283,43.1421688],[13.1864116,43.1425928],[13.1865459,43.1422187],[13.1900248,43.1439188],[13.1905282,43.143099],[13.1927745,43.1436288],[13.1934644,43.1439636],[13.1939305,43.1440816],[13.1950579,43.1442067],[13.1964956,43.1441944],[13.1969288,43.144147],[13.1976346,43.143905],[13.1980763,43.1435331],[13.1987897,43.1431333],[13.1996086,43.1429276],[13.1999133,43.1429344],[13.2001712,43.1430194],[13.2003497,43.143247],[13.2005442,43.1436629],[13.2006293,43.1441415],[13.2008548,43.1444708],[13.2028468,43.144429],[13.2032875,43.1445344],[13.2037447,43.1448822],[13.204155,43.1458889],[13.2043184,43.1460517],[13.2045927,43.1460844],[13.2053448,43.1460252],[13.205693,43.1459043],[13.2077793,43.144414],[13.2093913,43.1434948],[13.2100004,43.1432337],[13.2103968,43.1431426],[13.2108521,43.1431483],[13.2111303,43.1433046],[13.2112092,43.1435583],[13.2110519,43.1448021],[13.2111049,43.1454393],[13.2115221,43.1463648],[13.2116548,43.1468641],[13.2119619,43.1473074],[13.2131734,43.1478929],[13.2135533,43.1479645],[13.2151779,43.1474949],[13.2155453,43.1475623],[13.2163562,43.1480006],[13.2176055,43.1481975],[13.217908,43.1483484],[13.218555,43.1488602],[13.2194522,43.1493447],[13.2198264,43.149646],[13.2204325,43.1503214],[13.2217297,43.1509892],[13.2220195,43.152383],[13.2203297,43.1522204],[13.2196496,43.1522995],[13.2187736,43.152836],[13.217829,43.1531815],[13.2173793,43.1534367],[13.218339,43.1537569],[13.2185664,43.1540681],[13.2186058,43.1543278],[13.2169494,43.1550507],[13.2167322,43.1553783],[13.2167946,43.1557046],[13.217527,43.1563393],[13.2166132,43.1569538],[13.2171998,43.1578819],[13.2172739,43.1582888],[13.217229,43.1585741],[13.2167487,43.1590105],[13.2157051,43.1601969],[13.2155342,43.1605724],[13.2154888,43.1625907],[13.2147179,43.162447],[13.2135506,43.1645394],[13.2133617,43.1646544],[13.2130182,43.1646671],[13.2125522,43.1645538],[13.2104975,43.1637382],[13.2100431,43.1641511],[13.2096157,43.1649096],[13.2096161,43.1652742],[13.2097797,43.1655518],[13.2102731,43.1659298],[13.2122203,43.1666547],[13.2124973,43.1668831],[13.2126398,43.1671209],[13.2128084,43.168051],[13.2127158,43.1687162],[13.2142259,43.168809],[13.2148032,43.1704488],[13.2159567,43.1718828],[13.2163035,43.1721851],[13.2167549,43.172353],[13.2175016,43.1720328],[13.2190874,43.1728655],[13.2210229,43.174086],[13.2226831,43.1744793],[13.2237273,43.1745487],[13.2249512,43.174814],[13.2269945,43.1760349],[13.2273171,43.1762975],[13.2265572,43.1766498],[13.2256755,43.17693],[13.2252421,43.1770225],[13.2243433,43.1770558],[13.2248384,43.1774111],[13.2258905,43.1784841],[13.2270099,43.1792844],[13.2292113,43.1806975],[13.2300156,43.1809423],[13.2306694,43.1813232],[13.2309744,43.1817756],[13.2312281,43.1831751],[13.2327461,43.1830649],[13.2351324,43.1831475],[13.2372839,43.1836124],[13.2392393,43.1844896],[13.2398485,43.1846696],[13.2402946,43.1842051],[13.2407778,43.1840093],[13.24341,43.1844878],[13.2447344,43.1846456],[13.2448974,43.1850447],[13.2461189,43.1848732],[13.247351,43.1848544],[13.247498,43.1856863],[13.2463714,43.1859397],[13.2454958,43.1859993],[13.2441523,43.1856981],[13.2438544,43.1857497],[13.2438865,43.1859016],[13.2440554,43.1860303],[13.2448248,43.1862583],[13.2452925,43.1866146],[13.2455521,43.1869876],[13.2457098,43.1875309],[13.2460353,43.1877889],[13.2452844,43.1882264],[13.2459848,43.1887451],[13.2469175,43.1892416],[13.2457415,43.189848],[13.2455638,43.1900347],[13.2446606,43.1915583],[13.2442166,43.1915883],[13.2439312,43.1929269],[13.2436323,43.1934962],[13.2446721,43.1936736],[13.2444032,43.1944534],[13.2450276,43.1946282],[13.2448478,43.1949185],[13.2439531,43.195636],[13.243113,43.1957212],[13.2424496,43.1956919],[13.2421879,43.1957331],[13.241914,43.1959098],[13.2413377,43.1958502],[13.2410035,43.1955115],[13.2398448,43.1955725],[13.2395046,43.1953691],[13.2392491,43.1948339],[13.2389766,43.1944974],[13.2386992,43.1942691],[13.238298,43.1941174],[13.2361199,43.1937166],[13.2344724,43.1940477],[13.2343071,43.1937928],[13.2343771,43.1934706],[13.2345462,43.1932032],[13.2342132,43.1927474],[13.2338503,43.1925718],[13.233347,43.1925454],[13.2326408,43.1926977],[13.2324059,43.19317],[13.2322029,43.1933486],[13.2316844,43.1933678],[13.231258,43.1932531],[13.230753,43.1932898],[13.230101,43.1936921],[13.229866,43.1937188],[13.2294255,43.1936226],[13.2289208,43.1932631],[13.2284672,43.1931539],[13.2275663,43.1932052],[13.2268365,43.1934168],[13.2263918,43.1934378],[13.2260382,43.1933068],[13.2247787,43.1925746],[13.2243625,43.1921174],[13.2236971,43.1919248],[13.223371,43.1919695],[13.2231749,43.1923819],[13.2226426,43.1924241],[13.221369,43.1918004],[13.219424,43.1913861],[13.2184336,43.1915668],[13.2178825,43.1915151],[13.2168589,43.1915709],[13.2158805,43.1913459],[13.2147271,43.191303],[13.2133742,43.1908217],[13.2115758,43.1908385],[13.2110468,43.190885],[13.2104501,43.1910646],[13.2090907,43.1908446],[13.2069707,43.1908822],[13.2060331,43.1910698],[13.2056815,43.19043],[13.2048255,43.1906866],[13.2041519,43.1905089],[13.2037945,43.1905445],[13.203536,43.1909457],[13.2034376,43.1913499],[13.2021105,43.1911962],[13.2018602,43.1906877],[13.2012151,43.1904324],[13.2007093,43.1900098],[13.1993406,43.189655],[13.1989229,43.1900665],[13.1984669,43.1901013],[13.198024,43.1896539],[13.197572,43.189612],[13.1973207,43.1897608],[13.1972506,43.1899929],[13.1974647,43.1907368],[13.1974074,43.1909775],[13.1964657,43.1911967],[13.1961319,43.191218],[13.1951721,43.1904114],[13.1940997,43.1904733],[13.1941965,43.1908974],[13.1941728,43.1917626],[13.193993,43.1919673],[13.1930877,43.1913703],[13.1921027,43.1914064],[13.1921191,43.1908837],[13.1913461,43.1904214],[13.1910116,43.1904787],[13.1901249,43.1908713],[13.1895575,43.1905365],[13.189092,43.190432],[13.1856713,43.1903864],[13.1856817,43.1900439],[13.1852432,43.1899294],[13.1839634,43.1899268],[13.1838808,43.1902044],[13.1835083,43.18993],[13.1831159,43.190264],[13.1822745,43.1900157],[13.1818397,43.189775],[13.1817185,43.190072],[13.1801591,43.1899851],[13.1785442,43.1900307],[13.1782953,43.1901703],[13.1759013,43.1903839],[13.1733305,43.190802],[13.1719539,43.1911404],[13.1718164,43.1920548],[13.1714266,43.1931494],[13.1708026,43.1938339],[13.1700442,43.1948475],[13.1680172,43.1939941],[13.1665607,43.1960955],[13.1660989,43.1959098],[13.1663374,43.1954374],[13.1657041,43.1951274],[13.1651225,43.1956663],[13.1640196,43.1955084],[13.1636912,43.1957905],[13.162895,43.1960716],[13.1611267,43.1963521],[13.1602211,43.1966057],[13.1593895,43.1972257],[13.1589027,43.1974415],[13.1583693,43.19765],[13.1568538,43.1980293],[13.1569324,43.1986882],[13.1566677,43.2001338],[13.1554425,43.2036986],[13.1557244,43.204089],[13.1561353,43.2043847],[13.152443,43.2051087],[13.1514228,43.2050828],[13.1509018,43.2048406],[13.1498203,43.2039121],[13.1490479,43.2034585],[13.1485953,43.2034074],[13.148548,43.2040708],[13.1465568,43.2032023],[13.1461709,43.2029102],[13.1449113,43.2023032],[13.144194,43.2023878],[13.1438122,43.2023386],[13.1421923,43.2018617],[13.1415042,43.2017876],[13.1408364,43.2018298],[13.1396843,43.2021282],[13.1384886,43.2021895],[13.1380917,43.2022804],[13.1376142,43.2025903],[13.1374937,43.2029008],[13.1369652,43.2029109],[13.1367625,43.2030984],[13.1366353,43.203265],[13.1365605,43.204024],[13.1361957,43.204726],[13.1355832,43.2048134],[13.1352571,43.2044043],[13.1347206,43.2034784],[13.1345056,43.2032566],[13.1335137,43.2026488],[13.131232,43.2016194],[13.1303472,43.2011383],[13.1295018,43.2006016],[13.1288808,43.2000164],[13.1287178,43.1996531],[13.1286504,43.1991109],[13.1287999,43.197863],[13.1283666,43.1966858],[13.1281435,43.1951138],[13.1276718,43.194415],[13.1255089,43.1923594],[13.1247336,43.1914916],[13.12445,43.1911192],[13.1242571,43.190676],[13.1239618,43.1893992],[13.1240094,43.1886457],[13.1238809,43.187606],[13.12328,43.1859486],[13.1226903,43.1835435],[13.1227446,43.1829338],[13.1228617,43.182754],[13.123063,43.1826387]]]},"properties":{"type":"boundary","gemeente":"Serrapetrona"}}]}