{"type":"FeatureCollection","metadata":{"gemeente":"Settimo Vittone","slug":"settimo-vittone","generated_at":"2026-09-26T13:10:43.803209Z","total_points":9,"providers":["PosteItaliane","DPD","InPost","GLS","DHL","Amazon"],"bounds":[7.831348,45.54665,7.83323,45.5487005568]},"features":[{"type":"Feature","geometry":{"type":"Point","coordinates":[7.83295297,45.54742631]},"properties":{"type":"pakketpunt","locatieNaam":"Settimo Vittone","straatNaam":"Piazza Vittorio Emanuele","straatNr":"4","vervoerder":"PosteItaliane","puntType":"postkantoor","bezettingsgraad":50,"latitude":45.54742631,"longitude":7.83295297,"canPickup":true,"canDropoff":true,"openingstijden":{"za":"08:20 - 12:45","zo":"gesloten","ma":"08:20 - 13:45","di":"08:20 - 13:45","wo":"08:20 - 13:45","do":"08:20 - 13:45","vr":"08:20 - 13:45"}}},{"type":"Feature","geometry":{"type":"Point","coordinates":[7.8313643202,45.5487005568]},"properties":{"type":"pakketpunt","locatieNaam":"Piupermeno","straatNaam":"PIAZZA STATUTO","straatNr":"1","vervoerder":"DPD","puntType":"pickup_point","bezettingsgraad":50,"latitude":45.5487005568,"longitude":7.8313643202,"canPickup":true,"canDropoff":true,"openingstijden":{"ma":"07:30 - 13:00, 16:00 - 20:00","di":"07:30 - 13:00, 16:00 - 20:00","wo":"07:30 - 13:00, 16:00 - 20:00","do":"07:30 - 13:00, 16:00 - 20:00","vr":"07:30 - 13:00, 16:00 - 20:00","za":"07:30 - 13:00, 16:00 - 20:00","zo":"07:30 - 13:00"}}},{"type":"Feature","geometry":{"type":"Point","coordinates":[7.83159,45.54863]},"properties":{"type":"pakketpunt","locatieNaam":"InPost Point","straatNaam":"Via Guglielmo Marconi","straatNr":"1","vervoerder":"InPost","puntType":"servicepunt","bezettingsgraad":50,"latitude":45.54863,"longitude":7.83159,"canPickup":true,"canDropoff":true,"openingstijden":"Lun-Mar: 07:30 - 12:30 - 15:30 - 19:30 Mer: 07:30 - 12:30 Gio-Sab: 07:30 - 12:30 - 15:30 - 19:30"}},{"type":"Feature","geometry":{"type":"Point","coordinates":[7.8315875,45.5486057]},"properties":{"type":"pakketpunt","locatieNaam":"Tabaccheria La Censa","straatNaam":"Via Marconi","straatNr":"1","vervoerder":"GLS","puntType":"parcel_shop","bezettingsgraad":50,"latitude":45.5486057,"longitude":7.8315875,"canPickup":true,"canDropoff":true,"openingstijden":"za: 07:30 - 12:30; ma: 07:30 - 12:30, 15:30 - 19:30"}},{"type":"Feature","geometry":{"type":"Point","coordinates":[7.832953,45.547426]},"properties":{"type":"pakketpunt","locatieNaam":"Ufficio Postale SETTIMO VITTONE","straatNaam":"PIAZZA VITTORIO EMANUELE 4","straatNr":"","vervoerder":"DHL","puntType":"postOffice","bezettingsgraad":50,"latitude":45.547426,"longitude":7.832953,"canPickup":true,"canDropoff":true,"openingstijden":{"ma":"08:20 - 13:45","di":"08:20 - 13:45","wo":"gesloten","do":"08:20 - 13:45","vr":"08:20 - 13:45","za":"08:20 - 12:45","zo":"gesloten"}}},{"type":"Feature","geometry":{"type":"Point","coordinates":[7.83323,45.54665]},"properties":{"type":"pakketpunt","locatieNaam":"Amazon Counter - Holding house","straatNaam":"Strada Statale 26 della Valle d'Aosta 26","straatNr":"","vervoerder":"Amazon","puntType":"helix","bezettingsgraad":50,"latitude":45.54665,"longitude":7.83323,"canPickup":true,"canDropoff":false,"openingstijden":null}},{"type":"Feature","geometry":{"type":"Point","coordinates":[7.831348,45.548631]},"properties":{"type":"pakketpunt","locatieNaam":"Amazon Counter - Piupermeno","straatNaam":"Piazza Statuto 1","straatNr":"","vervoerder":"Amazon","puntType":"helix","bezettingsgraad":50,"latitude":45.548631,"longitude":7.831348,"canPickup":true,"canDropoff":false,"openingstijden":null}},{"type":"Feature","geometry":{"type":"Point","coordinates":[7.831491,45.548621]},"properties":{"type":"pakketpunt","locatieNaam":"Amazon Counter - TABACCHERIA LA CENSA","straatNaam":"VIA MARCONI 1","straatNr":"","vervoerder":"Amazon","puntType":"helix","bezettingsgraad":50,"latitude":45.548621,"longitude":7.831491,"canPickup":true,"canDropoff":false,"openingstijden":null}},{"type":"Feature","geometry":{"type":"Point","coordinates":[7.83295,45.5474]},"properties":{"type":"pakketpunt","locatieNaam":"Ufficio Postale SETTIMO VITTONE","straatNaam":"PIAZZA VITTORIO EMANUELE 4","straatNr":"","vervoerder":"Amazon","puntType":"3p","bezettingsgraad":50,"latitude":45.5474,"longitude":7.83295,"canPickup":true,"canDropoff":false,"openingstijden":null}},{"type":"Feature","geometry":{"type":"Polygon","coordinates":[[[7.8122942,45.5650509],[7.8124303,45.5649263],[7.8123416,45.5648534],[7.8137272,45.5638597],[7.8154211,45.5632112],[7.8184895,45.5623586],[7.8201468,45.5610458],[7.8264573,45.5567994],[7.826618,45.5565265],[7.8269399,45.5555667],[7.8267533,45.5547772],[7.8260019,45.5540809],[7.8235248,45.5525432],[7.8234716,45.5517551],[7.8235906,45.5510002],[7.8239628,45.550527],[7.8256122,45.5490318],[7.8269344,45.5473982],[7.8273961,45.5470294],[7.8279489,45.5463375],[7.828749,45.5457876],[7.8316789,45.544085],[7.8326452,45.5437393],[7.834697,45.5426216],[7.8360678,45.541992],[7.8361596,45.5414979],[7.8361128,45.5411689],[7.835896,45.5407931],[7.8353977,45.540419],[7.833421,45.5383196],[7.8329849,45.5376131],[7.832755,45.5361525],[7.8345391,45.5329439],[7.8374391,45.533743],[7.8381468,45.531464],[7.8382577,45.5313616],[7.8387678,45.5286192],[7.8463944,45.5306205],[7.8457041,45.5315001],[7.8445203,45.5334503],[7.8435906,45.5346786],[7.8461773,45.5351323],[7.8466097,45.5350826],[7.8472698,45.5365475],[7.8475006,45.5368288],[7.8481747,45.5372542],[7.8487761,45.5375168],[7.8484737,45.5379008],[7.8480238,45.5382338],[7.8471844,45.5390624],[7.8469773,45.5395779],[7.8470208,45.5396998],[7.8475872,45.5400926],[7.84854,45.5406333],[7.8484776,45.5409252],[7.8480947,45.5411733],[7.8482676,45.5413101],[7.8474996,45.5418334],[7.8477541,45.542034],[7.8473536,45.542417],[7.8476485,45.542618],[7.8479443,45.542423],[7.8484395,45.5427745],[7.8487865,45.543048],[7.8489637,45.5435674],[7.8506093,45.5433319],[7.8512999,45.5434244],[7.8514851,45.5439618],[7.8521915,45.5440499],[7.8526271,45.5450894],[7.8524167,45.5453348],[7.8523962,45.5455146],[7.8527617,45.5457703],[7.8532935,45.5458432],[7.8539201,45.5469476],[7.8558764,45.5479483],[7.8560018,45.5481791],[7.85696,45.5490618],[7.8582857,45.5490706],[7.8586073,45.5492808],[7.8599705,45.5505455],[7.8594847,45.5507162],[7.8598785,45.5512332],[7.859996,45.5515629],[7.8607475,45.5511474],[7.8605692,45.5509341],[7.8635637,45.5511754],[7.8671734,45.5516478],[7.871138,45.5516376],[7.8729135,45.550899],[7.874631,45.5504389],[7.8760166,45.5507586],[7.8765908,45.5510748],[7.8771072,45.5515614],[7.8779183,45.55305],[7.8783561,45.5536214],[7.8800169,45.5552939],[7.880651,45.5563262],[7.8815492,45.5586033],[7.8811433,45.5596434],[7.8815581,45.5604126],[7.8822084,45.5612785],[7.8824947,45.5618844],[7.8825343,45.5624743],[7.8813029,45.564213],[7.8812389,45.5651755],[7.8813234,45.5677191],[7.8821918,45.5687402],[7.882505,45.5693013],[7.882555,45.5698509],[7.882466,45.5717537],[7.88287,45.5720997],[7.8835891,45.5722507],[7.8847728,45.5724423],[7.8856688,45.5724196],[7.8866107,45.5754216],[7.8874316,45.5767527],[7.887954,45.5781035],[7.8884167,45.578729],[7.889739,45.5797005],[7.8924255,45.5811892],[7.8939699,45.5822168],[7.8931055,45.5830343],[7.893039,45.5859072],[7.8940759,45.5872629],[7.8951951,45.5893124],[7.895786,45.5900306],[7.894307,45.5909195],[7.8934874,45.5915236],[7.8915843,45.5931163],[7.8909958,45.5937047],[7.8905068,45.594447],[7.8904386,45.5953014],[7.8906467,45.5964556],[7.8905848,45.596995],[7.8891617,45.5976383],[7.8874998,45.5980362],[7.8853016,45.5983208],[7.8837421,45.5987286],[7.8816743,45.5995454],[7.880513,45.5999121],[7.8791745,45.60016],[7.8774036,45.6002326],[7.8760743,45.6000215],[7.8738573,45.5993156],[7.8704148,45.5989846],[7.8662687,45.5979354],[7.8652242,45.597592],[7.8647149,45.597309],[7.8645664,45.5967529],[7.864581,45.5943003],[7.8644841,45.5937818],[7.8638479,45.5931454],[7.8637209,45.5923925],[7.8630084,45.5918229],[7.8630093,45.5900317],[7.8626676,45.5889212],[7.8623745,45.5884772],[7.8618612,45.5880445],[7.8617581,45.588093],[7.8615125,45.5885091],[7.8608767,45.5882327],[7.8602811,45.5884248],[7.8598441,45.5884385],[7.8590008,45.588286],[7.8585586,45.5880611],[7.8583156,45.5877391],[7.8579609,45.5878616],[7.8576959,45.5877734],[7.8574037,45.587406],[7.8570633,45.5872045],[7.8561343,45.5859981],[7.85541,45.5855273],[7.8546898,45.5852275],[7.8536035,45.5846316],[7.8528547,45.583652],[7.8521356,45.5831632],[7.8515119,45.5830264],[7.8512912,45.5828532],[7.8516374,45.5826271],[7.8517234,45.5824615],[7.8515791,45.582307],[7.851778,45.582237],[7.8521112,45.5819253],[7.8518532,45.5818507],[7.8521951,45.5817191],[7.8521078,45.5814842],[7.8517142,45.5813183],[7.8508433,45.581674],[7.8505671,45.5818828],[7.8503459,45.5817095],[7.8504948,45.581144],[7.8476327,45.5806201],[7.8450597,45.5797525],[7.8441022,45.5790947],[7.8424732,45.5783312],[7.8419268,45.5783346],[7.8414834,45.5786497],[7.8411798,45.5787231],[7.8403347,45.578683],[7.8401581,45.5781772],[7.8399784,45.5779368],[7.8381307,45.5771169],[7.8369393,45.5764298],[7.836566,45.5762774],[7.835932,45.5761585],[7.834915,45.575617],[7.8332517,45.5750735],[7.8312557,45.5739415],[7.8304021,45.5736762],[7.8298224,45.5735893],[7.8291117,45.57333],[7.8285094,45.5729592],[7.8276453,45.5727749],[7.8273661,45.5726235],[7.8269602,45.5725968],[7.8258557,45.5730282],[7.8245632,45.5734002],[7.8239299,45.5734657],[7.8226572,45.5728631],[7.8220935,45.5724882],[7.8212342,45.5714262],[7.8208563,45.5711343],[7.81964,45.5710542],[7.8183835,45.5705462],[7.8172481,45.5704714],[7.8166531,45.5702762],[7.81655,45.5699961],[7.8167478,45.5696066],[7.8167929,45.5692246],[7.816726,45.5688818],[7.8170398,45.568282],[7.8170182,45.5677282],[7.8168714,45.5676997],[7.813754,45.5657637],[7.8122942,45.5650509]]]},"properties":{"type":"boundary","gemeente":"Settimo Vittone"}}]}