{"type":"FeatureCollection","metadata":{"gemeente":"Siena","slug":"siena","generated_at":"2026-09-26T14:28:03.768678Z","total_points":151,"providers":["PosteItaliane","DPD","InPost","GLS","DHL","Amazon","FedEx"],"bounds":[11.300651,43.2561,11.3964024,43.34794]},"features":[{"type":"Feature","geometry":{"type":"Point","coordinates":[11.32840375,43.31390453]},"properties":{"type":"pakketpunt","locatieNaam":"Tabaccheria N. 26","straatNaam":"Piano Dei Mantellini","straatNr":"57","vervoerder":"PosteItaliane","puntType":"servicepunt","bezettingsgraad":50,"latitude":43.31390453,"longitude":11.32840375,"canPickup":true,"canDropoff":true,"openingstijden":{"za":"08:00 - 14:00","zo":"08:00 - 13:00","ma":"08:00 - 14:00, 16:30 - 19:30","di":"08:00 - 14:00, 16:30 - 19:30","wo":"08:00 - 14:00, 16:30 - 19:30","do":"08:00 - 14:00, 16:30 - 19:30","vr":"08:00 - 14:00, 16:30 - 19:30"}}},{"type":"Feature","geometry":{"type":"Point","coordinates":[11.33359548,43.31732437]},"properties":{"type":"pakketpunt","locatieNaam":"Tabaccheria N. 14","straatNaam":"Via Di Salicotto","straatNr":"47","vervoerder":"PosteItaliane","puntType":"servicepunt","bezettingsgraad":50,"latitude":43.31732437,"longitude":11.33359548,"canPickup":true,"canDropoff":true,"openingstijden":{"za":"08:00 - 13:00, 16:00 - 19:30","zo":"09:00 - 13:00","ma":"08:00 - 13:00, 16:00 - 19:30","di":"08:00 - 13:00, 16:00 - 19:30","wo":"08:00 - 13:00, 16:00 - 19:30","do":"08:00 - 13:00, 16:00 - 19:30","vr":"08:00 - 13:00, 16:00 - 19:30"}}},{"type":"Feature","geometry":{"type":"Point","coordinates":[11.30569366,43.3408079]},"properties":{"type":"pakketpunt","locatieNaam":"Tabaccheria N. 46","straatNaam":"Via Fiorentina","straatNr":"111","vervoerder":"PosteItaliane","puntType":"servicepunt","bezettingsgraad":50,"latitude":43.3408079,"longitude":11.30569366,"canPickup":true,"canDropoff":true,"openingstijden":{"za":"07:00 - 20:00","zo":"07:00 - 13:00","ma":"07:00 - 20:00","di":"07:00 - 20:00","wo":"07:00 - 20:00","do":"07:00 - 20:00","vr":"07:00 - 20:00"}}},{"type":"Feature","geometry":{"type":"Point","coordinates":[11.32908489,43.32152468]},"properties":{"type":"pakketpunt","locatieNaam":"Siena Centro","straatNaam":"Piazza Giacomo Matteotti","straatNr":"37","vervoerder":"PosteItaliane","puntType":"postkantoor","bezettingsgraad":50,"latitude":43.32152468,"longitude":11.32908489,"canPickup":true,"canDropoff":true,"openingstijden":{"za":"08:20 - 12:35","zo":"gesloten","ma":"08:20 - 19:05","di":"08:20 - 19:05","wo":"08:20 - 19:05","do":"08:20 - 19:05","vr":"08:20 - 19:05"}}},{"type":"Feature","geometry":{"type":"Point","coordinates":[11.33028312,43.3166907]},"properties":{"type":"pakketpunt","locatieNaam":"Siena 3","straatNaam":"Via Di Citta'","straatNr":"142","vervoerder":"PosteItaliane","puntType":"postkantoor","bezettingsgraad":50,"latitude":43.3166907,"longitude":11.33028312,"canPickup":true,"canDropoff":true,"openingstijden":{"za":"08:20 - 12:35","zo":"gesloten","ma":"08:20 - 13:35","di":"08:20 - 13:35","wo":"08:20 - 13:35","do":"08:20 - 13:35","vr":"08:20 - 13:35"}}},{"type":"Feature","geometry":{"type":"Point","coordinates":[11.32421722,43.32801452]},"properties":{"type":"pakketpunt","locatieNaam":"Siena 1","straatNaam":"Viale Vittorio Emanuele Ii","straatNr":"35","vervoerder":"PosteItaliane","puntType":"postkantoor","bezettingsgraad":50,"latitude":43.32801452,"longitude":11.32421722,"canPickup":true,"canDropoff":true,"openingstijden":{"za":"08:20 - 12:35","zo":"gesloten","ma":"08:20 - 13:35","di":"08:20 - 13:35","wo":"08:20 - 13:35","do":"08:20 - 13:35","vr":"08:20 - 13:35"}}},{"type":"Feature","geometry":{"type":"Point","coordinates":[11.30251192,43.29175826]},"properties":{"type":"pakketpunt","locatieNaam":"Costalpino","straatNaam":"Via Dario Neri","straatNr":"2","vervoerder":"PosteItaliane","puntType":"postkantoor","bezettingsgraad":50,"latitude":43.29175826,"longitude":11.30251192,"canPickup":true,"canDropoff":true,"openingstijden":{"za":"08:20 - 12:45","zo":"gesloten","ma":"08:20 - 13:45","di":"08:20 - 13:45","wo":"08:20 - 13:45","do":"08:20 - 13:45","vr":"08:20 - 13:45"}}},{"type":"Feature","geometry":{"type":"Point","coordinates":[11.33687267,43.3175177]},"properties":{"type":"pakketpunt","locatieNaam":"Siena 2","straatNaam":"Via Dei Pispini","straatNr":"3","vervoerder":"PosteItaliane","puntType":"postkantoor","bezettingsgraad":50,"latitude":43.3175177,"longitude":11.33687267,"canPickup":true,"canDropoff":true,"openingstijden":{"za":"08:20 - 12:35","zo":"gesloten","ma":"08:20 - 13:35","di":"08:20 - 13:35","wo":"08:20 - 13:35","do":"08:20 - 13:35","vr":"08:20 - 13:35"}}},{"type":"Feature","geometry":{"type":"Point","coordinates":[11.30065107,43.33628701]},"properties":{"type":"pakketpunt","locatieNaam":"Siena 5","straatNaam":"Via Savina Petrilli","straatNr":"2","vervoerder":"PosteItaliane","puntType":"postkantoor","bezettingsgraad":50,"latitude":43.33628701,"longitude":11.30065107,"canPickup":true,"canDropoff":true,"openingstijden":{"za":"08:20 - 12:35","zo":"gesloten","ma":"08:20 - 13:35","di":"08:20 - 13:35","wo":"08:20 - 13:35","do":"08:20 - 13:35","vr":"08:20 - 13:35"}}},{"type":"Feature","geometry":{"type":"Point","coordinates":[11.33211336,43.32583886]},"properties":{"type":"pakketpunt","locatieNaam":"Siena 4","straatNaam":"Viale Giuseppe Mazzini","straatNr":"4/a","vervoerder":"PosteItaliane","puntType":"postkantoor","bezettingsgraad":50,"latitude":43.32583886,"longitude":11.33211336,"canPickup":true,"canDropoff":true,"openingstijden":{"za":"08:20 - 12:35","zo":"gesloten","ma":"08:20 - 13:35","di":"08:20 - 13:35","wo":"08:20 - 13:35","do":"08:20 - 13:35","vr":"08:20 - 13:35"}}},{"type":"Feature","geometry":{"type":"Point","coordinates":[11.39278622,43.29384818]},"properties":{"type":"pakketpunt","locatieNaam":"Taverne D'arbia","straatNaam":"Via Degli Aldobrandeschi Aldobrandino","straatNr":"10","vervoerder":"PosteItaliane","puntType":"postkantoor","bezettingsgraad":50,"latitude":43.29384818,"longitude":11.39278622,"canPickup":true,"canDropoff":true,"openingstijden":{"za":"08:20 - 12:35","zo":"gesloten","ma":"08:20 - 13:35","di":"08:20 - 13:35","wo":"08:20 - 13:35","do":"08:20 - 13:35","vr":"08:20 - 13:35"}}},{"type":"Feature","geometry":{"type":"Point","coordinates":[11.30301149,43.33587794]},"properties":{"type":"pakketpunt","locatieNaam":"Tabaccheria N. 82","straatNaam":"Via Giovanni Colombini","straatNr":"28","vervoerder":"PosteItaliane","puntType":"servicepunt","bezettingsgraad":50,"latitude":43.33587794,"longitude":11.30301149,"canPickup":true,"canDropoff":true,"openingstijden":{"za":"07:30 - 13:00, 15:30 - 20:00","zo":"gesloten","ma":"07:30 - 13:00, 15:30 - 20:00","di":"07:30 - 13:00, 15:30 - 20:00","wo":"07:30 - 13:00, 15:30 - 20:00","do":"07:30 - 13:00, 15:30 - 20:00","vr":"07:30 - 13:00, 15:30 - 20:00"}}},{"type":"Feature","geometry":{"type":"Point","coordinates":[11.32570999,43.3273319]},"properties":{"type":"pakketpunt","locatieNaam":"Tabaccheria N. 19","straatNaam":"Via Camollia","straatNr":"208","vervoerder":"PosteItaliane","puntType":"servicepunt","bezettingsgraad":50,"latitude":43.3273319,"longitude":11.32570999,"canPickup":true,"canDropoff":true,"openingstijden":{"za":"07:30 - 20:00","zo":"09:00 - 20:00","ma":"07:30 - 20:00","di":"07:30 - 20:00","wo":"07:30 - 20:00","do":"07:30 - 20:00","vr":"07:30 - 20:00"}}},{"type":"Feature","geometry":{"type":"Point","coordinates":[11.31453566,43.32922904]},"properties":{"type":"pakketpunt","locatieNaam":"Tabaccheria N. 70","straatNaam":"Via Mentana","straatNr":"164","vervoerder":"PosteItaliane","puntType":"servicepunt","bezettingsgraad":50,"latitude":43.32922904,"longitude":11.31453566,"canPickup":true,"canDropoff":true,"openingstijden":{"za":"07:00 - 13:00, 15:30 - 20:00","zo":"07:00 - 13:00","ma":"07:00 - 13:00, 15:30 - 20:00","di":"07:00 - 13:00, 15:30 - 20:00","wo":"07:00 - 13:00, 15:30 - 20:00","do":"07:00 - 13:00, 15:30 - 20:00","vr":"07:00 - 13:00, 15:30 - 20:00"}}},{"type":"Feature","geometry":{"type":"Point","coordinates":[11.33979427,43.31778603]},"properties":{"type":"pakketpunt","locatieNaam":"Tabaccheria N. 10","straatNaam":"Via Dei Pispini","straatNr":"102","vervoerder":"PosteItaliane","puntType":"servicepunt","bezettingsgraad":50,"latitude":43.31778603,"longitude":11.33979427,"canPickup":true,"canDropoff":true,"openingstijden":{"za":"08:00 - 20:00","zo":"08:00 - 20:00","ma":"08:00 - 20:00","di":"08:00 - 20:00","wo":"08:00 - 20:00","do":"08:00 - 20:00","vr":"08:00 - 20:00"}}},{"type":"Feature","geometry":{"type":"Point","coordinates":[11.32400733,43.3253728]},"properties":{"type":"pakketpunt","locatieNaam":"Tabaccheria N. 77","straatNaam":"Via Bettino Ricasoli","straatNr":"81","vervoerder":"PosteItaliane","puntType":"servicepunt","bezettingsgraad":50,"latitude":43.3253728,"longitude":11.32400733,"canPickup":true,"canDropoff":true,"openingstijden":{"za":"07:00 - 13:30, 16:00 - 20:00","zo":"07:00 - 12:30","ma":"07:00 - 13:30, 16:00 - 20:00","di":"07:00 - 13:30, 16:00 - 20:00","wo":"07:00 - 13:30, 16:00 - 20:00","do":"07:00 - 13:30, 16:00 - 20:00","vr":"07:00 - 13:30, 16:00 - 20:00"}}},{"type":"Feature","geometry":{"type":"Point","coordinates":[11.32216264,43.32858133]},"properties":{"type":"pakketpunt","locatieNaam":"Tabaccheria N. 31","straatNaam":"Viale Vittorio Emanuele Ii","straatNr":"57","vervoerder":"PosteItaliane","puntType":"servicepunt","bezettingsgraad":50,"latitude":43.32858133,"longitude":11.32216264,"canPickup":true,"canDropoff":true,"openingstijden":{"za":"08:00 - 13:00, 16:00 - 18:00","zo":"gesloten","ma":"08:00 - 18:00","di":"08:00 - 18:00","wo":"08:00 - 18:00","do":"08:00 - 18:00","vr":"08:00 - 18:00"}}},{"type":"Feature","geometry":{"type":"Point","coordinates":[11.32220941,43.331088]},"properties":{"type":"pakketpunt","locatieNaam":"Centro Commerciale Porta Siena","straatNaam":"Piazza Carlo Rosselli","straatNr":"25","vervoerder":"PosteItaliane","puntType":"automaat","bezettingsgraad":50,"latitude":43.331088,"longitude":11.32220941,"canPickup":true,"canDropoff":true,"openingstijden":{"za":"08:30 - 13:00","zo":"gesloten","ma":"08:30 - 13:00","di":"08:30 - 13:00","wo":"08:30 - 13:00","do":"08:30 - 13:00","vr":"08:30 - 13:00"}}},{"type":"Feature","geometry":{"type":"Point","coordinates":[11.32918074,43.3155182]},"properties":{"type":"pakketpunt","locatieNaam":"Tabaccheria N. 15","straatNaam":"Via Di Stalloreggi","straatNr":"40","vervoerder":"PosteItaliane","puntType":"servicepunt","bezettingsgraad":50,"latitude":43.3155182,"longitude":11.32918074,"canPickup":true,"canDropoff":true,"openingstijden":{"za":"08:30 - 13:30, 15:30 - 19:00","zo":"gesloten","ma":"08:00 - 13:30, 15:30 - 19:00","di":"08:00 - 13:30, 15:30 - 19:00","wo":"08:00 - 13:30, 15:30 - 19:00","do":"08:00 - 13:30, 15:30 - 19:00","vr":"08:00 - 13:30, 15:30 - 19:00"}}},{"type":"Feature","geometry":{"type":"Point","coordinates":[11.32560885,43.34270119]},"properties":{"type":"pakketpunt","locatieNaam":"Stazione Di Servizio Eni","straatNaam":"Viale Mario Bracci","straatNr":"6","vervoerder":"PosteItaliane","puntType":"automaat","bezettingsgraad":50,"latitude":43.34270119,"longitude":11.32560885,"canPickup":true,"canDropoff":true,"openingstijden":{"za":"00:01 - 23:59","zo":"00:01 - 23:59","ma":"00:01 - 23:59","di":"00:01 - 23:59","wo":"00:01 - 23:59","do":"00:01 - 23:59","vr":"00:01 - 23:59"}}},{"type":"Feature","geometry":{"type":"Point","coordinates":[11.35214592,43.31727788]},"properties":{"type":"pakketpunt","locatieNaam":"Carrefour Market Siena","straatNaam":"Piazza Maestri Del Lavoro","straatNr":"30","vervoerder":"PosteItaliane","puntType":"automaat","bezettingsgraad":50,"latitude":43.31727788,"longitude":11.35214592,"canPickup":true,"canDropoff":true,"openingstijden":{"za":"00:01 - 23:59","zo":"00:01 - 23:59","ma":"00:01 - 23:59","di":"00:01 - 23:59","wo":"00:01 - 23:59","do":"00:01 - 23:59","vr":"00:01 - 23:59"}}},{"type":"Feature","geometry":{"type":"Point","coordinates":[11.32801848,43.33820173]},"properties":{"type":"pakketpunt","locatieNaam":"Tabaccheria N. 78","straatNaam":"Via Nazareno Orlandi","straatNr":"6","vervoerder":"PosteItaliane","puntType":"servicepunt","bezettingsgraad":50,"latitude":43.33820173,"longitude":11.32801848,"canPickup":true,"canDropoff":true,"openingstijden":{"za":"06:00 - 13:00, 15:30 - 20:00","zo":"gesloten","ma":"06:00 - 13:00, 15:30 - 20:00","di":"06:00 - 13:00, 15:30 - 20:00","wo":"06:00 - 13:00, 15:30 - 20:00","do":"06:00 - 13:00, 15:30 - 20:00","vr":"06:00 - 13:00, 15:30 - 20:00"}}},{"type":"Feature","geometry":{"type":"Point","coordinates":[11.3289824,43.32047595]},"properties":{"type":"pakketpunt","locatieNaam":"Tabacchi Sisvapa","straatNaam":"Via Della Sapienza","straatNr":"36","vervoerder":"PosteItaliane","puntType":"automaat","bezettingsgraad":50,"latitude":43.32047595,"longitude":11.3289824,"canPickup":true,"canDropoff":true,"openingstijden":{"za":"10:00 - 13:00","zo":"gesloten","ma":"10:00 - 20:00","di":"10:00 - 20:00","wo":"10:00 - 20:00","do":"10:00 - 20:00","vr":"10:00 - 20:00"}}},{"type":"Feature","geometry":{"type":"Point","coordinates":[11.3322177,43.32452899]},"properties":{"type":"pakketpunt","locatieNaam":"Tabaccheria N. 23","straatNaam":"Via Giuseppe Garibaldi","straatNr":"86","vervoerder":"PosteItaliane","puntType":"servicepunt","bezettingsgraad":50,"latitude":43.32452899,"longitude":11.3322177,"canPickup":true,"canDropoff":true,"openingstijden":{"za":"08:00 - 13:00, 15:30 - 19:30","zo":"08:30 - 12:30","ma":"07:30 - 13:30, 15:30 - 19:30","di":"07:30 - 13:30, 15:30 - 19:30","wo":"07:30 - 13:30, 15:30 - 19:30","do":"07:30 - 13:30, 15:30 - 19:30","vr":"07:30 - 13:30, 15:30 - 19:30"}}},{"type":"Feature","geometry":{"type":"Point","coordinates":[11.34287422,43.31717573]},"properties":{"type":"pakketpunt","locatieNaam":"Tabaccheria N. 55","straatNaam":"Via Aretina","straatNr":"6","vervoerder":"PosteItaliane","puntType":"servicepunt","bezettingsgraad":50,"latitude":43.31717573,"longitude":11.34287422,"canPickup":true,"canDropoff":true,"openingstijden":{"za":"07:00 - 19:30","zo":"07:00 - 13:00","ma":"07:00 - 19:30","di":"07:00 - 19:30","wo":"07:00 - 19:30","do":"07:00 - 19:30","vr":"07:00 - 19:30"}}},{"type":"Feature","geometry":{"type":"Point","coordinates":[11.32899906,43.32122125]},"properties":{"type":"pakketpunt","locatieNaam":"Tabaccheria N. 6","straatNaam":"Piazza Giacomo Matteotti","straatNr":"15","vervoerder":"PosteItaliane","puntType":"servicepunt","bezettingsgraad":50,"latitude":43.32122125,"longitude":11.32899906,"canPickup":true,"canDropoff":true,"openingstijden":{"za":"07:30 - 13:00, 14:00 - 19:30","zo":"gesloten","ma":"07:30 - 13:00, 14:00 - 19:30","di":"07:30 - 13:00, 14:00 - 19:30","wo":"07:30 - 13:00, 14:00 - 19:30","do":"07:30 - 13:00, 14:00 - 19:30","vr":"07:30 - 13:00, 14:00 - 19:30"}}},{"type":"Feature","geometry":{"type":"Point","coordinates":[11.33162551,43.31986788]},"properties":{"type":"pakketpunt","locatieNaam":"Tabaccheria N. 7","straatNaam":"Via Di Calzoleria","straatNr":"36","vervoerder":"PosteItaliane","puntType":"servicepunt","bezettingsgraad":50,"latitude":43.31986788,"longitude":11.33162551,"canPickup":true,"canDropoff":true,"openingstijden":{"za":"08:30 - 13:00, 15:00 - 19:30","zo":"gesloten","ma":"08:00 - 14:00, 15:00 - 19:30","di":"08:00 - 14:00, 15:00 - 19:30","wo":"08:00 - 14:00, 15:00 - 19:30","do":"08:00 - 14:00, 15:00 - 19:30","vr":"08:00 - 14:00, 15:00 - 19:30"}}},{"type":"Feature","geometry":{"type":"Point","coordinates":[11.33068813,43.31795135]},"properties":{"type":"pakketpunt","locatieNaam":"Tabaccheria N. 30","straatNaam":"Via Di Citta'","straatNr":"78","vervoerder":"PosteItaliane","puntType":"servicepunt","bezettingsgraad":50,"latitude":43.31795135,"longitude":11.33068813,"canPickup":true,"canDropoff":true,"openingstijden":{"za":"09:30 - 19:00","zo":"gesloten","ma":"09:30 - 19:00","di":"09:30 - 19:00","wo":"09:30 - 19:00","do":"09:30 - 19:00","vr":"09:30 - 19:00"}}},{"type":"Feature","geometry":{"type":"Point","coordinates":[11.33244549,43.32360831]},"properties":{"type":"pakketpunt","locatieNaam":"Tabaccheria N. 29","straatNaam":"Via Di Vallerozzi","straatNr":"91","vervoerder":"PosteItaliane","puntType":"servicepunt","bezettingsgraad":50,"latitude":43.32360831,"longitude":11.33244549,"canPickup":true,"canDropoff":true,"openingstijden":{"za":"07:00 - 13:00","zo":"gesloten","ma":"07:00 - 19:45","di":"07:00 - 19:45","wo":"07:00 - 19:45","do":"07:00 - 19:45","vr":"07:00 - 19:45"}}},{"type":"Feature","geometry":{"type":"Point","coordinates":[11.33621553,43.3174533]},"properties":{"type":"pakketpunt","locatieNaam":"Tabaccheria N. 9","straatNaam":"Via Di Pantaneto","straatNr":"112","vervoerder":"PosteItaliane","puntType":"servicepunt","bezettingsgraad":50,"latitude":43.3174533,"longitude":11.33621553,"canPickup":true,"canDropoff":true,"openingstijden":{"za":"07:00 - 20:00","zo":"07:00 - 20:00","ma":"07:00 - 20:00","di":"07:00 - 20:00","wo":"07:00 - 20:00","do":"07:00 - 20:00","vr":"07:00 - 20:00"}}},{"type":"Feature","geometry":{"type":"Point","coordinates":[11.33482096,43.32584839]},"properties":{"type":"pakketpunt","locatieNaam":"Tabaccheria N. 5","straatNaam":"Via Lippo Memmi","straatNr":"23/a","vervoerder":"PosteItaliane","puntType":"servicepunt","bezettingsgraad":50,"latitude":43.32584839,"longitude":11.33482096,"canPickup":true,"canDropoff":true,"openingstijden":{"za":"08:00 - 13:00, 15:30 - 20:00","zo":"gesloten","ma":"07:00 - 13:00, 14:30 - 19:30","di":"07:00 - 13:00, 14:30 - 19:30","wo":"07:00 - 13:00, 14:30 - 19:30","do":"07:00 - 13:00, 14:30 - 19:30","vr":"07:00 - 13:00, 14:30 - 19:30"}}},{"type":"Feature","geometry":{"type":"Point","coordinates":[11.31128253,43.34392983]},"properties":{"type":"pakketpunt","locatieNaam":"Tabaccheria N. 62","straatNaam":"Viale Delle Regioni","straatNr":"68","vervoerder":"PosteItaliane","puntType":"servicepunt","bezettingsgraad":50,"latitude":43.34392983,"longitude":11.31128253,"canPickup":true,"canDropoff":true,"openingstijden":{"za":"06:30 - 20:00","zo":"gesloten","ma":"06:30 - 20:00","di":"06:30 - 20:00","wo":"06:30 - 20:00","do":"06:30 - 20:00","vr":"06:30 - 20:00"}}},{"type":"Feature","geometry":{"type":"Point","coordinates":[11.31145697,43.34388701]},"properties":{"type":"pakketpunt","locatieNaam":"Kipoint Viale Delle Regioni","straatNaam":"Viale Delle Regioni","straatNr":"62","vervoerder":"PosteItaliane","puntType":"servicepunt","bezettingsgraad":50,"latitude":43.34388701,"longitude":11.31145697,"canPickup":true,"canDropoff":true,"openingstijden":{"za":"gesloten","zo":"gesloten","ma":"08:45 - 13:00, 15:30 - 17:30","di":"08:45 - 13:00, 15:30 - 17:30","wo":"08:45 - 13:00, 15:30 - 17:30","do":"08:45 - 13:00, 15:30 - 17:30","vr":"08:45 - 13:00, 15:30 - 17:30"}}},{"type":"Feature","geometry":{"type":"Point","coordinates":[11.38197157,43.25617929]},"properties":{"type":"pakketpunt","locatieNaam":"Tabaccheria N. 84","straatNaam":"Strada Cassia Sud","straatNr":"378","vervoerder":"PosteItaliane","puntType":"servicepunt","bezettingsgraad":50,"latitude":43.25617929,"longitude":11.38197157,"canPickup":true,"canDropoff":true,"openingstijden":{"za":"06:30 - 23:00","zo":"06:30 - 23:00","ma":"06:30 - 23:00","di":"06:30 - 23:00","wo":"06:30 - 23:00","do":"06:30 - 23:00","vr":"06:30 - 23:00"}}},{"type":"Feature","geometry":{"type":"Point","coordinates":[11.32784168,43.3245046]},"properties":{"type":"pakketpunt","locatieNaam":"Edicola Viste E Riviste","straatNaam":"Via Camollia","straatNr":"40","vervoerder":"PosteItaliane","puntType":"servicepunt","bezettingsgraad":50,"latitude":43.3245046,"longitude":11.32784168,"canPickup":true,"canDropoff":true,"openingstijden":{"za":"08:00 - 12:00","zo":"gesloten","ma":"07:00 - 13:00, 15:00 - 17:00","di":"07:00 - 13:00, 15:00 - 17:00","wo":"07:00 - 13:00, 15:00 - 17:00","do":"07:00 - 13:00, 15:00 - 17:00","vr":"07:00 - 13:00, 15:00 - 17:00"}}},{"type":"Feature","geometry":{"type":"Point","coordinates":[11.33735,43.3170098]},"properties":{"type":"pakketpunt","locatieNaam":"Edicola Fabbri","straatNaam":"VIA PANTANETO","straatNr":"154","vervoerder":"DPD","puntType":"pickup_point","bezettingsgraad":50,"latitude":43.3170098,"longitude":11.33735,"canPickup":true,"canDropoff":true,"openingstijden":{"ma":"06:30 - 20:00","di":"06:30 - 20:00","wo":"06:30 - 20:00","do":"06:30 - 20:00","vr":"06:30 - 20:00","za":"06:30 - 20:00","zo":"07:00 - 12:30"}}},{"type":"Feature","geometry":{"type":"Point","coordinates":[11.3278229613,43.32458989]},"properties":{"type":"pakketpunt","locatieNaam":"Edicola Viste e Riviste","straatNaam":"VIA CAMOLLIA","straatNr":"40","vervoerder":"DPD","puntType":"pickup_point","bezettingsgraad":50,"latitude":43.32458989,"longitude":11.3278229613,"canPickup":true,"canDropoff":true,"openingstijden":{"ma":"07:00 - 13:00, 15:00 - 17:00","di":"07:00 - 13:00, 15:00 - 17:00","wo":"07:00 - 13:00, 15:00 - 17:00","do":"07:00 - 13:00, 15:00 - 17:00","vr":"07:00 - 13:00, 15:00 - 17:00","za":"07:00 - 12:00","zo":"gesloten"}}},{"type":"Feature","geometry":{"type":"Point","coordinates":[11.3275743055,43.3251094755]},"properties":{"type":"pakketpunt","locatieNaam":"Nuvole di China","straatNaam":"VIA DI CAMOLLIA","straatNr":"70","vervoerder":"DPD","puntType":"pickup_point","bezettingsgraad":50,"latitude":43.3251094755,"longitude":11.3275743055,"canPickup":true,"canDropoff":true,"openingstijden":{"ma":"10:00 - 13:00, 16:00 - 19:30","di":"10:00 - 13:00, 16:00 - 19:30","wo":"10:00 - 13:00, 16:00 - 19:30","do":"10:00 - 13:00, 16:00 - 19:30","vr":"10:00 - 13:00, 16:00 - 19:30","za":"10:00 - 13:00, 16:00 - 19:30","zo":"gesloten"}}},{"type":"Feature","geometry":{"type":"Point","coordinates":[11.3170952,43.3100345]},"properties":{"type":"pakketpunt","locatieNaam":"Smartel S.r.l.","straatNaam":"STRADA DI PESCAIA","straatNr":"105/107","vervoerder":"DPD","puntType":"pickup_point","bezettingsgraad":50,"latitude":43.3100345,"longitude":11.3170952,"canPickup":true,"canDropoff":true,"openingstijden":{"ma":"10:00 - 13:00, 15:30 - 19:30","di":"10:00 - 13:00, 15:30 - 19:30","wo":"10:00 - 13:00, 15:30 - 19:30","do":"10:00 - 13:00, 15:30 - 19:30","vr":"10:00 - 13:00, 15:30 - 19:30","za":"gesloten","zo":"gesloten"}}},{"type":"Feature","geometry":{"type":"Point","coordinates":[11.33205974,43.32443004]},"properties":{"type":"pakketpunt","locatieNaam":"Ebbì Di Bogi Elisa","straatNaam":"VIA GARIBALDI","straatNr":"86","vervoerder":"DPD","puntType":"pickup_point","bezettingsgraad":50,"latitude":43.32443004,"longitude":11.33205974,"canPickup":true,"canDropoff":true,"openingstijden":{"ma":"07:30 - 13:30, 15:30 - 19:30","di":"07:30 - 13:30, 15:30 - 19:30","wo":"07:30 - 13:30, 15:30 - 19:30","do":"07:30 - 13:30, 15:30 - 19:30","vr":"07:30 - 13:30, 15:30 - 19:30","za":"08:00 - 13:00, 15:30 - 19:30","zo":"08:30 - 12:30"}}},{"type":"Feature","geometry":{"type":"Point","coordinates":[11.3280159,43.3382671]},"properties":{"type":"pakketpunt","locatieNaam":"Parafarmacia Scacciapensieri","straatNaam":"VIA DONIZETTI","straatNr":"4","vervoerder":"DPD","puntType":"pickup_point","bezettingsgraad":50,"latitude":43.3382671,"longitude":11.3280159,"canPickup":true,"canDropoff":true,"openingstijden":{"ma":"09:00 - 13:00, 16:30 - 19:30","di":"09:00 - 13:00, 16:30 - 19:30","wo":"09:00 - 13:00, 16:30 - 19:30","do":"09:00 - 13:00, 16:30 - 19:30","vr":"09:00 - 13:00, 16:30 - 19:30","za":"gesloten","zo":"gesloten"}}},{"type":"Feature","geometry":{"type":"Point","coordinates":[11.32418444,43.32548351]},"properties":{"type":"pakketpunt","locatieNaam":"Tabaccheria Ricasoli","straatNaam":"VIA B. RICASOLI","straatNr":"81","vervoerder":"DPD","puntType":"pickup_point","bezettingsgraad":50,"latitude":43.32548351,"longitude":11.32418444,"canPickup":true,"canDropoff":true,"openingstijden":{"ma":"07:00 - 13:30, 16:00 - 20:00","di":"07:00 - 13:30, 16:00 - 20:00","wo":"07:00 - 13:30, 16:00 - 20:00","do":"07:00 - 13:30, 16:00 - 20:00","vr":"07:00 - 13:30, 16:00 - 20:00","za":"07:00 - 13:30, 16:00 - 20:00","zo":"07:00 - 13:00"}}},{"type":"Feature","geometry":{"type":"Point","coordinates":[11.3243585,43.3323288]},"properties":{"type":"pakketpunt","locatieNaam":"Lorenzoni Caffè","straatNaam":"VIA L. DE BOSIS","straatNr":"54-56-58","vervoerder":"DPD","puntType":"pickup_point","bezettingsgraad":50,"latitude":43.3323288,"longitude":11.3243585,"canPickup":true,"canDropoff":true,"openingstijden":{"ma":"08:00 - 13:00","di":"08:00 - 13:00","wo":"08:00 - 13:00","do":"08:00 - 13:00","vr":"08:00 - 13:00","za":"09:00 - 13:00","zo":"gesloten"}}},{"type":"Feature","geometry":{"type":"Point","coordinates":[11.31866171,43.3304329]},"properties":{"type":"pakketpunt","locatieNaam":"Megastore Sigaretta Elettronica","straatNaam":"VIALE CAVOUR","straatNr":"82-84","vervoerder":"DPD","puntType":"pickup_point","bezettingsgraad":50,"latitude":43.3304329,"longitude":11.31866171,"canPickup":true,"canDropoff":true,"openingstijden":{"ma":"10:00 - 14:00, 16:00 - 20:00","di":"10:00 - 14:00, 16:00 - 20:00","wo":"10:00 - 14:00, 16:00 - 20:00","do":"10:00 - 14:00, 16:00 - 20:00","vr":"10:00 - 14:00, 16:00 - 20:00","za":"10:00 - 13:00, 16:00 - 20:00","zo":"gesloten"}}},{"type":"Feature","geometry":{"type":"Point","coordinates":[11.31383701,43.3169015]},"properties":{"type":"pakketpunt","locatieNaam":"Tabaccheria Fumo & Altro","straatNaam":"STRADA DEI CAPPUCCINI","straatNr":"130","vervoerder":"DPD","puntType":"pickup_point","bezettingsgraad":50,"latitude":43.3169015,"longitude":11.31383701,"canPickup":true,"canDropoff":true,"openingstijden":{"ma":"07:30 - 13:00, 15:30 - 20:00","di":"07:30 - 13:00, 15:30 - 20:00","wo":"07:30 - 13:00, 15:30 - 20:00","do":"07:30 - 13:00, 15:30 - 20:00","vr":"07:30 - 13:00, 15:30 - 20:00","za":"07:30 - 13:00, 15:30 - 20:00","zo":"08:00 - 13:00"}}},{"type":"Feature","geometry":{"type":"Point","coordinates":[11.3290293,43.3205197]},"properties":{"type":"pakketpunt","locatieNaam":"Si Svapa","straatNaam":"VIA DELLA SAPIENZA","straatNr":"36-38","vervoerder":"DPD","puntType":"pickup_point","bezettingsgraad":50,"latitude":43.3205197,"longitude":11.3290293,"canPickup":true,"canDropoff":true,"openingstijden":{"ma":"10:00 - 20:00","di":"10:00 - 20:00","wo":"10:00 - 20:00","do":"10:00 - 20:00","vr":"10:00 - 20:00","za":"10:00 - 13:00, 16:00 - 20:00","zo":"gesloten"}}},{"type":"Feature","geometry":{"type":"Point","coordinates":[11.3231881,43.3304582]},"properties":{"type":"pakketpunt","locatieNaam":"BRT LOCKER - Galleria PortaSiena P.","straatNaam":"PIAZZALE ROSSELLI","straatNr":"25","vervoerder":"DPD","puntType":"dpd_box","bezettingsgraad":50,"latitude":43.3304582,"longitude":11.3231881,"canPickup":true,"canDropoff":true,"openingstijden":{"ma":"09:00 - 20:00","di":"09:00 - 20:00","wo":"09:00 - 20:00","do":"09:00 - 20:00","vr":"09:00 - 20:00","za":"09:00 - 20:00","zo":"09:00 - 15:00"}}},{"type":"Feature","geometry":{"type":"Point","coordinates":[11.3306837,43.3162349]},"properties":{"type":"pakketpunt","locatieNaam":"Caramello Copisteria","straatNaam":"VIA CASATO DI SOPRA","straatNr":"1","vervoerder":"DPD","puntType":"pickup_point","bezettingsgraad":50,"latitude":43.3162349,"longitude":11.3306837,"canPickup":true,"canDropoff":true,"openingstijden":{"ma":"10:00 - 18:00","di":"10:00 - 18:00","wo":"10:00 - 18:00","do":"10:00 - 18:00","vr":"10:00 - 18:00","za":"gesloten","zo":"gesloten"}}},{"type":"Feature","geometry":{"type":"Point","coordinates":[11.322518,43.303231]},"properties":{"type":"pakketpunt","locatieNaam":"BRT LOCKER - Lavanderia il Fontino","straatNaam":"STRADA MASSETANA ROMANA","straatNr":"54","vervoerder":"DPD","puntType":"dpd_box","bezettingsgraad":50,"latitude":43.303231,"longitude":11.322518,"canPickup":true,"canDropoff":true,"openingstijden":{"ma":"00:00 - 23:45","di":"00:00 - 23:45","wo":"00:00 - 23:45","do":"00:00 - 23:45","vr":"00:00 - 23:45","za":"00:00 - 23:45","zo":"00:00 - 23:45"}}},{"type":"Feature","geometry":{"type":"Point","coordinates":[11.3030491,43.3357879]},"properties":{"type":"pakketpunt","locatieNaam":"Tabaccheria Angiolini","straatNaam":"VIA G. COLOMBINI","straatNr":"28","vervoerder":"DPD","puntType":"pickup_point","bezettingsgraad":50,"latitude":43.3357879,"longitude":11.3030491,"canPickup":true,"canDropoff":true,"openingstijden":{"ma":"07:45 - 13:00, 15:30 - 19:30","di":"07:45 - 13:00, 15:30 - 19:30","wo":"07:45 - 13:00, 15:30 - 19:30","do":"07:45 - 13:00, 15:30 - 19:30","vr":"07:45 - 13:00, 15:30 - 19:30","za":"gesloten","zo":"gesloten"}}},{"type":"Feature","geometry":{"type":"Point","coordinates":[11.31141756,43.34395892]},"properties":{"type":"pakketpunt","locatieNaam":"KiPoint Siena","straatNaam":"V.LE DELLE REGIONI","straatNr":"60-64","vervoerder":"DPD","puntType":"pickup_point","bezettingsgraad":50,"latitude":43.34395892,"longitude":11.31141756,"canPickup":true,"canDropoff":true,"openingstijden":{"ma":"08:45 - 13:00, 15:30 - 17:30","di":"08:45 - 13:00, 15:30 - 17:30","wo":"08:45 - 13:00, 15:30 - 17:30","do":"08:45 - 13:00, 15:30 - 17:30","vr":"08:45 - 13:00, 15:30 - 17:30","za":"gesloten","zo":"gesloten"}}},{"type":"Feature","geometry":{"type":"Point","coordinates":[11.34308,43.29276]},"properties":{"type":"pakketpunt","locatieNaam":"InPost Locker 24/7","straatNaam":"Via Cassia","straatNr":"112","vervoerder":"InPost","puntType":"automaat","bezettingsgraad":50,"latitude":43.29276,"longitude":11.34308,"canPickup":true,"canDropoff":true,"openingstijden":null}},{"type":"Feature","geometry":{"type":"Point","coordinates":[11.34837,43.32236]},"properties":{"type":"pakketpunt","locatieNaam":"InPost Locker 24/7","straatNaam":"Via Toselli","straatNr":"1","vervoerder":"InPost","puntType":"automaat","bezettingsgraad":50,"latitude":43.32236,"longitude":11.34837,"canPickup":true,"canDropoff":true,"openingstijden":null}},{"type":"Feature","geometry":{"type":"Point","coordinates":[11.32311,43.33058]},"properties":{"type":"pakketpunt","locatieNaam":"InPost Locker","straatNaam":"Piazzale Rosselli","straatNr":"25","vervoerder":"InPost","puntType":"automaat","bezettingsgraad":50,"latitude":43.33058,"longitude":11.32311,"canPickup":true,"canDropoff":true,"openingstijden":null}},{"type":"Feature","geometry":{"type":"Point","coordinates":[11.35935,43.31203]},"properties":{"type":"pakketpunt","locatieNaam":"InPost Locker 24/7","straatNaam":"Ex Ss. 73 Levante","straatNr":"snc","vervoerder":"InPost","puntType":"automaat","bezettingsgraad":50,"latitude":43.31203,"longitude":11.35935,"canPickup":true,"canDropoff":true,"openingstijden":null}},{"type":"Feature","geometry":{"type":"Point","coordinates":[11.32432,43.30266]},"properties":{"type":"pakketpunt","locatieNaam":"InPost Locker 24/7","straatNaam":"Via Massetana Romana","straatNr":"51","vervoerder":"InPost","puntType":"automaat","bezettingsgraad":50,"latitude":43.30266,"longitude":11.32432,"canPickup":true,"canDropoff":true,"openingstijden":null}},{"type":"Feature","geometry":{"type":"Point","coordinates":[11.32606,43.33491]},"properties":{"type":"pakketpunt","locatieNaam":"InPost Locker 24/7","straatNaam":"Viale Bracci","straatNr":"Snc","vervoerder":"InPost","puntType":"automaat","bezettingsgraad":50,"latitude":43.33491,"longitude":11.32606,"canPickup":true,"canDropoff":true,"openingstijden":null}},{"type":"Feature","geometry":{"type":"Point","coordinates":[11.32618,43.34794]},"properties":{"type":"pakketpunt","locatieNaam":"InPost Point","straatNaam":"Piazza Palmiro Togliatti","straatNr":"6","vervoerder":"InPost","puntType":"servicepunt","bezettingsgraad":50,"latitude":43.34794,"longitude":11.32618,"canPickup":true,"canDropoff":true,"openingstijden":"Lun-Ven: 08:30 - 13:00 - 15:00 - 18:00"}},{"type":"Feature","geometry":{"type":"Point","coordinates":[11.33203,43.32474]},"properties":{"type":"pakketpunt","locatieNaam":"InPost Point","straatNaam":"Via Giuseppe Garibaldi","straatNr":"86","vervoerder":"InPost","puntType":"servicepunt","bezettingsgraad":50,"latitude":43.32474,"longitude":11.33203,"canPickup":true,"canDropoff":true,"openingstijden":"Lun-Sab: 07:30 - 13:00 - 15:00 - 19:30 Dom: 08:30 - 13:00"}},{"type":"Feature","geometry":{"type":"Point","coordinates":[11.31133,43.34398]},"properties":{"type":"pakketpunt","locatieNaam":"InPost Point","straatNaam":"Viale delle Regioni","straatNr":"68","vervoerder":"InPost","puntType":"servicepunt","bezettingsgraad":50,"latitude":43.34398,"longitude":11.31133,"canPickup":true,"canDropoff":true,"openingstijden":"Lun-Sab: 06:30 - 20:00"}},{"type":"Feature","geometry":{"type":"Point","coordinates":[11.31855,43.33038]},"properties":{"type":"pakketpunt","locatieNaam":"InPost Point","straatNaam":"Viale Camillo Benso di Cavour","straatNr":"82/84","vervoerder":"InPost","puntType":"servicepunt","bezettingsgraad":50,"latitude":43.33038,"longitude":11.31855,"canPickup":true,"canDropoff":true,"openingstijden":"Lun-Ven: 10:00-20:00 Sab: 10:00 -13:00 16:00-20:00"}},{"type":"Feature","geometry":{"type":"Point","coordinates":[11.33167,43.31981]},"properties":{"type":"pakketpunt","locatieNaam":"InPost Point","straatNaam":"Via di Calzoleria","straatNr":"36","vervoerder":"InPost","puntType":"servicepunt","bezettingsgraad":50,"latitude":43.31981,"longitude":11.33167,"canPickup":true,"canDropoff":true,"openingstijden":"Lun-Sab:  08:00 - 14:00 - 15:00 - 19:30"}},{"type":"Feature","geometry":{"type":"Point","coordinates":[11.3241,43.32563]},"properties":{"type":"pakketpunt","locatieNaam":"InPost Point","straatNaam":"Via Bettino Ricasoli","straatNr":"81","vervoerder":"InPost","puntType":"servicepunt","bezettingsgraad":50,"latitude":43.32563,"longitude":11.3241,"canPickup":true,"canDropoff":true,"openingstijden":"Lun-Dom: 07:00 - 13:30 - 16:00 - 20:00"}},{"type":"Feature","geometry":{"type":"Point","coordinates":[11.30298,43.33598]},"properties":{"type":"pakketpunt","locatieNaam":"InPost Point","straatNaam":"Via Giovanni Colombini","straatNr":"28","vervoerder":"InPost","puntType":"servicepunt","bezettingsgraad":50,"latitude":43.33598,"longitude":11.30298,"canPickup":true,"canDropoff":true,"openingstijden":"Lun-Sab: 08:00 - 13:00 - 15:30 - 19:30"}},{"type":"Feature","geometry":{"type":"Point","coordinates":[11.3369984,43.3170307]},"properties":{"type":"pakketpunt","locatieNaam":"Edicola","straatNaam":"Via Pantaneto","straatNr":"154","vervoerder":"GLS","puntType":"parcel_shop","bezettingsgraad":50,"latitude":43.3170307,"longitude":11.3369984,"canPickup":true,"canDropoff":true,"openingstijden":"za: 06:00 - 20:00; zo: 06:00 - 13:00"}},{"type":"Feature","geometry":{"type":"Point","coordinates":[11.33596,43.3174298]},"properties":{"type":"pakketpunt","locatieNaam":"Tabaccheria San Giorgio","straatNaam":"Via Di Pantaneto","straatNr":"112","vervoerder":"GLS","puntType":"parcel_shop","bezettingsgraad":50,"latitude":43.3174298,"longitude":11.33596,"canPickup":true,"canDropoff":true,"openingstijden":"za: 08:00 - 13:30, 15:30 - 20:00; ma: 07:30 - 20:00"}},{"type":"Feature","geometry":{"type":"Point","coordinates":[11.3305782,43.3227632]},"properties":{"type":"pakketpunt","locatieNaam":"CO Parking","straatNaam":"Via Pian D'Ovile","straatNr":"16","vervoerder":"GLS","puntType":"parcel_shop","bezettingsgraad":50,"latitude":43.3227632,"longitude":11.3305782,"canPickup":true,"canDropoff":true,"openingstijden":"ma: 08:00 - 20:00; di: 08:00 - 20:00"}},{"type":"Feature","geometry":{"type":"Point","coordinates":[11.3255361,43.3234169]},"properties":{"type":"pakketpunt","locatieNaam":"Mirza Nasir","straatNaam":"Via Dei Montanini","straatNr":"107","vervoerder":"GLS","puntType":"parcel_shop","bezettingsgraad":50,"latitude":43.3234169,"longitude":11.3255361,"canPickup":true,"canDropoff":true,"openingstijden":"za: 09:00 - 21:00; zo: 10:00 - 14:00"}},{"type":"Feature","geometry":{"type":"Point","coordinates":[11.3320707,43.3243933]},"properties":{"type":"pakketpunt","locatieNaam":"Ebbi'","straatNaam":"Via Giuseppe Garibaldi","straatNr":"86","vervoerder":"GLS","puntType":"parcel_shop","bezettingsgraad":50,"latitude":43.3243933,"longitude":11.3320707,"canPickup":true,"canDropoff":true,"openingstijden":"za: 08:00 - 13:00, 15:30 - 19:30; zo: 08:30 - 13:00"}},{"type":"Feature","geometry":{"type":"Point","coordinates":[11.3278248,43.3245365]},"properties":{"type":"pakketpunt","locatieNaam":"EDICOLA VISTE E RIVISTE","straatNaam":"Via Camollia","straatNr":"40","vervoerder":"GLS","puntType":"parcel_shop","bezettingsgraad":50,"latitude":43.3245365,"longitude":11.3278248,"canPickup":true,"canDropoff":true,"openingstijden":"za: 07:00 - 12:00; ma: 07:00 - 17:00"}},{"type":"Feature","geometry":{"type":"Point","coordinates":[11.3275705,43.3250918]},"properties":{"type":"pakketpunt","locatieNaam":"nuvole di china","straatNaam":"Via Camollia","straatNr":"70","vervoerder":"GLS","puntType":"parcel_shop","bezettingsgraad":50,"latitude":43.3250918,"longitude":11.3275705,"canPickup":true,"canDropoff":true,"openingstijden":"za: 10:00 - 13:00, 16:00 - 19:00; ma: 10:00 - 13:00, 16:00 - 19:00"}},{"type":"Feature","geometry":{"type":"Point","coordinates":[11.3243585,43.3323288]},"properties":{"type":"pakketpunt","locatieNaam":"CAFFE LORENZONI","straatNaam":"Via L De Bosis","straatNr":"54,56,58","vervoerder":"GLS","puntType":"parcel_shop","bezettingsgraad":50,"latitude":43.3323288,"longitude":11.3243585,"canPickup":true,"canDropoff":true,"openingstijden":"za: 09:00 - 13:00; ma: 08:00 - 18:00"}},{"type":"Feature","geometry":{"type":"Point","coordinates":[11.3030491,43.3357879]},"properties":{"type":"pakketpunt","locatieNaam":"TABACCHERIA","straatNaam":"Via G Colombini","straatNr":"28","vervoerder":"GLS","puntType":"parcel_shop","bezettingsgraad":50,"latitude":43.3357879,"longitude":11.3030491,"canPickup":true,"canDropoff":true,"openingstijden":"za: 07:30 - 13:00, 15:30 - 20:00; ma: 07:30 - 13:00, 15:30 - 20:00"}},{"type":"Feature","geometry":{"type":"Point","coordinates":[11.3114744,43.3439146]},"properties":{"type":"pakketpunt","locatieNaam":"Kipoint","straatNaam":"Viale Delle Regioni","straatNr":"62","vervoerder":"GLS","puntType":"parcel_shop","bezettingsgraad":50,"latitude":43.3439146,"longitude":11.3114744,"canPickup":true,"canDropoff":true,"openingstijden":"ma: 09:00 - 13:00, 15:30 - 17:30; di: 09:00 - 13:00, 15:30 - 17:30"}},{"type":"Feature","geometry":{"type":"Point","coordinates":[11.302512,43.291758]},"properties":{"type":"pakketpunt","locatieNaam":"Ufficio Postale COSTALPINO","straatNaam":"VIA DARIO NERI 2","straatNr":"","vervoerder":"DHL","puntType":"postOffice","bezettingsgraad":50,"latitude":43.291758,"longitude":11.302512,"canPickup":true,"canDropoff":true,"openingstijden":{"ma":"08:20 - 13:45","di":"08:20 - 13:45","wo":"08:20 - 13:45","do":"08:20 - 13:45","vr":"08:20 - 13:45","za":"08:20 - 12:45","zo":"gesloten"}}},{"type":"Feature","geometry":{"type":"Point","coordinates":[11.300651,43.336287]},"properties":{"type":"pakketpunt","locatieNaam":"Ufficio Postale SIENA 5","straatNaam":"VIA SAVINA PETRILLI 2","straatNr":"","vervoerder":"DHL","puntType":"postOffice","bezettingsgraad":50,"latitude":43.336287,"longitude":11.300651,"canPickup":true,"canDropoff":true,"openingstijden":{"ma":"08:20 - 13:35","di":"08:20 - 13:35","wo":"08:20 - 13:35","do":"08:20 - 13:35","vr":"08:20 - 13:35","za":"08:20 - 12:35","zo":"gesloten"}}},{"type":"Feature","geometry":{"type":"Point","coordinates":[11.303011,43.335878]},"properties":{"type":"pakketpunt","locatieNaam":"TABACCHERIA N. 82","straatNaam":"VIA GIOVANNI COLOMBINI 28","straatNr":"","vervoerder":"DHL","puntType":"parcelShop","bezettingsgraad":50,"latitude":43.335878,"longitude":11.303011,"canPickup":true,"canDropoff":true,"openingstijden":{"ma":"07:30 - 13:00, 15:30 - 20:00","di":"07:30 - 13:00, 15:30 - 20:00","wo":"07:30 - 13:00, 15:30 - 20:00","do":"07:30 - 13:00, 15:30 - 20:00","vr":"07:30 - 13:00, 15:30 - 20:00","za":"07:30 - 13:00, 15:30 - 20:00","zo":"gesloten"}}},{"type":"Feature","geometry":{"type":"Point","coordinates":[11.328404,43.313905]},"properties":{"type":"pakketpunt","locatieNaam":"TABACCHERIA N. 26","straatNaam":"PIANO DEI MANTELLINI 57","straatNr":"","vervoerder":"DHL","puntType":"parcelShop","bezettingsgraad":50,"latitude":43.313905,"longitude":11.328404,"canPickup":true,"canDropoff":true,"openingstijden":{"ma":"08:00 - 14:00, 16:30 - 19:30","di":"08:00 - 14:00, 16:30 - 19:30","wo":"08:00 - 14:00, 16:30 - 19:30","do":"08:00 - 14:00, 16:30 - 19:30","vr":"08:00 - 14:00, 16:30 - 19:30","za":"08:00 - 14:00","zo":"08:00 - 13:00"}}},{"type":"Feature","geometry":{"type":"Point","coordinates":[11.314536,43.329229]},"properties":{"type":"pakketpunt","locatieNaam":"TABACCHERIA N. 70","straatNaam":"VIA MENTANA 164","straatNr":"","vervoerder":"DHL","puntType":"parcelShop","bezettingsgraad":50,"latitude":43.329229,"longitude":11.314536,"canPickup":true,"canDropoff":true,"openingstijden":{"ma":"07:00 - 13:00, 15:30 - 20:00","di":"07:00 - 13:00, 15:30 - 20:00","wo":"07:00 - 13:00, 15:30 - 20:00","do":"07:00 - 13:00, 15:30 - 20:00","vr":"07:00 - 13:00, 15:30 - 20:00","za":"07:00 - 13:00, 15:30 - 20:00","zo":"07:00 - 13:00"}}},{"type":"Feature","geometry":{"type":"Point","coordinates":[11.329181,43.315518]},"properties":{"type":"pakketpunt","locatieNaam":"TABACCHERIA N. 15","straatNaam":"VIA DI STALLOREGGI 40","straatNr":"","vervoerder":"DHL","puntType":"parcelShop","bezettingsgraad":50,"latitude":43.315518,"longitude":11.329181,"canPickup":true,"canDropoff":true,"openingstijden":{"ma":"08:00 - 13:30, 15:30 - 19:00","di":"08:00 - 13:30, 15:30 - 19:00","wo":"08:00 - 13:30, 15:30 - 19:00","do":"08:00 - 13:30, 15:30 - 19:00","vr":"08:00 - 13:30, 15:30 - 19:00","za":"08:30 - 13:30, 15:30 - 19:00","zo":"gesloten"}}},{"type":"Feature","geometry":{"type":"Point","coordinates":[11.330283,43.316691]},"properties":{"type":"pakketpunt","locatieNaam":"Ufficio Postale SIENA 3","straatNaam":"VIA DI CITTA 142","straatNr":"","vervoerder":"DHL","puntType":"postOffice","bezettingsgraad":50,"latitude":43.316691,"longitude":11.330283,"canPickup":true,"canDropoff":true,"openingstijden":{"ma":"08:20 - 13:35","di":"08:20 - 13:35","wo":"08:20 - 13:35","do":"08:20 - 13:35","vr":"08:20 - 13:35","za":"08:20 - 12:35","zo":"gesloten"}}},{"type":"Feature","geometry":{"type":"Point","coordinates":[11.381972,43.256179]},"properties":{"type":"pakketpunt","locatieNaam":"TABACCHERIA N. 84","straatNaam":"STRADA CASSIA SUD 378","straatNr":"","vervoerder":"DHL","puntType":"parcelShop","bezettingsgraad":50,"latitude":43.256179,"longitude":11.381972,"canPickup":true,"canDropoff":true,"openingstijden":{"ma":"06:30 - 23:00","di":"06:30 - 23:00","wo":"06:30 - 23:00","do":"06:30 - 23:00","vr":"06:30 - 23:00","za":"06:30 - 23:00","zo":"06:30 - 23:00"}}},{"type":"Feature","geometry":{"type":"Point","coordinates":[11.352146,43.317278]},"properties":{"type":"pakketpunt","locatieNaam":"CARREFOUR MARKET SIENA","straatNaam":"PIAZZA MAESTRI DEL LAVORO 30","straatNr":"","vervoerder":"DHL","puntType":"packStation","bezettingsgraad":50,"latitude":43.317278,"longitude":11.352146,"canPickup":true,"canDropoff":true,"openingstijden":{"ma":"00:01 - 23:59","di":"00:01 - 23:59","wo":"00:01 - 23:59","do":"00:01 - 23:59","vr":"00:01 - 23:59","za":"00:01 - 23:59","zo":"00:01 - 23:59"}}},{"type":"Feature","geometry":{"type":"Point","coordinates":[11.342874,43.317176]},"properties":{"type":"pakketpunt","locatieNaam":"TABACCHERIA N. 55","straatNaam":"VIA ARETINA 6","straatNr":"","vervoerder":"DHL","puntType":"parcelShop","bezettingsgraad":50,"latitude":43.317176,"longitude":11.342874,"canPickup":true,"canDropoff":true,"openingstijden":{"ma":"07:00 - 19:30","di":"07:00 - 19:30","wo":"07:00 - 19:30","do":"07:00 - 19:30","vr":"07:00 - 19:30","za":"07:00 - 19:30","zo":"07:00 - 13:00"}}},{"type":"Feature","geometry":{"type":"Point","coordinates":[11.339794,43.317786]},"properties":{"type":"pakketpunt","locatieNaam":"TABACCHERIA N. 10","straatNaam":"VIA DEI PISPINI 102","straatNr":"","vervoerder":"DHL","puntType":"parcelShop","bezettingsgraad":50,"latitude":43.317786,"longitude":11.339794,"canPickup":true,"canDropoff":true,"openingstijden":{"ma":"08:00 - 20:00","di":"08:00 - 20:00","wo":"08:00 - 20:00","do":"08:00 - 20:00","vr":"08:00 - 20:00","za":"08:00 - 20:00","zo":"08:00 - 20:00"}}},{"type":"Feature","geometry":{"type":"Point","coordinates":[11.336998,43.317031]},"properties":{"type":"pakketpunt","locatieNaam":"CARTOLERIA EDICOLA E. FABBRI","straatNaam":"Via Pantaneto 154","straatNr":"","vervoerder":"DHL","puntType":"parcelShop","bezettingsgraad":50,"latitude":43.317031,"longitude":11.336998,"canPickup":false,"canDropoff":true,"openingstijden":{"ma":"07:00 - 20:00","di":"07:00 - 20:00","wo":"07:00 - 20:00","do":"07:00 - 20:00","vr":"07:00 - 20:00","za":"07:00 - 20:00","zo":"gesloten"}}},{"type":"Feature","geometry":{"type":"Point","coordinates":[11.336873,43.317518]},"properties":{"type":"pakketpunt","locatieNaam":"Ufficio Postale SIENA 2","straatNaam":"VIA DEI PISPINI 3","straatNr":"","vervoerder":"DHL","puntType":"postOffice","bezettingsgraad":50,"latitude":43.317518,"longitude":11.336873,"canPickup":true,"canDropoff":true,"openingstijden":{"ma":"08:20 - 13:35","di":"08:20 - 13:35","wo":"08:20 - 13:35","do":"08:20 - 13:35","vr":"08:20 - 13:35","za":"08:20 - 12:35","zo":"gesloten"}}},{"type":"Feature","geometry":{"type":"Point","coordinates":[11.336216,43.317453]},"properties":{"type":"pakketpunt","locatieNaam":"TABACCHERIA N. 9","straatNaam":"VIA DI PANTANETO 112","straatNr":"","vervoerder":"DHL","puntType":"parcelShop","bezettingsgraad":50,"latitude":43.317453,"longitude":11.336216,"canPickup":true,"canDropoff":true,"openingstijden":{"ma":"07:00 - 20:00","di":"07:00 - 20:00","wo":"07:00 - 20:00","do":"07:00 - 20:00","vr":"07:00 - 20:00","za":"07:00 - 20:00","zo":"07:00 - 20:00"}}},{"type":"Feature","geometry":{"type":"Point","coordinates":[11.333595,43.317324]},"properties":{"type":"pakketpunt","locatieNaam":"TABACCHERIA N. 14","straatNaam":"VIA DI SALICOTTO 47","straatNr":"","vervoerder":"DHL","puntType":"parcelShop","bezettingsgraad":50,"latitude":43.317324,"longitude":11.333595,"canPickup":true,"canDropoff":true,"openingstijden":{"ma":"08:00 - 13:00, 16:00 - 19:30","di":"08:00 - 13:00, 16:00 - 19:30","wo":"08:00 - 13:00, 16:00 - 19:30","do":"08:00 - 13:00, 16:00 - 19:30","vr":"08:00 - 13:00, 16:00 - 19:30","za":"08:00 - 13:00, 16:00 - 19:30","zo":"09:00 - 13:00"}}},{"type":"Feature","geometry":{"type":"Point","coordinates":[11.330688,43.317951]},"properties":{"type":"pakketpunt","locatieNaam":"TABACCHERIA N. 30","straatNaam":"VIA DI CITTA 78","straatNr":"","vervoerder":"DHL","puntType":"parcelShop","bezettingsgraad":50,"latitude":43.317951,"longitude":11.330688,"canPickup":true,"canDropoff":true,"openingstijden":{"ma":"09:30 - 19:00","di":"09:30 - 19:00","wo":"09:30 - 19:00","do":"09:30 - 19:00","vr":"09:30 - 19:00","za":"09:30 - 19:00","zo":"gesloten"}}},{"type":"Feature","geometry":{"type":"Point","coordinates":[11.331626,43.319868]},"properties":{"type":"pakketpunt","locatieNaam":"TABACCHERIA N. 7","straatNaam":"VIA DI CALZOLERIA 36","straatNr":"","vervoerder":"DHL","puntType":"parcelShop","bezettingsgraad":50,"latitude":43.319868,"longitude":11.331626,"canPickup":true,"canDropoff":true,"openingstijden":{"ma":"08:00 - 14:00, 15:00 - 19:30","di":"08:00 - 14:00, 15:00 - 19:30","wo":"08:00 - 14:00, 15:00 - 19:30","do":"08:00 - 14:00, 15:00 - 19:30","vr":"08:00 - 14:00, 15:00 - 19:30","za":"08:30 - 13:00, 15:00 - 19:30","zo":"gesloten"}}},{"type":"Feature","geometry":{"type":"Point","coordinates":[11.328982,43.320476]},"properties":{"type":"pakketpunt","locatieNaam":"TABACCHI SISVAPA","straatNaam":"VIA DELLA SAPIENZA 36","straatNr":"","vervoerder":"DHL","puntType":"packStation","bezettingsgraad":50,"latitude":43.320476,"longitude":11.328982,"canPickup":true,"canDropoff":true,"openingstijden":{"ma":"10:00 - 20:00","di":"10:00 - 20:00","wo":"10:00 - 20:00","do":"10:00 - 20:00","vr":"10:00 - 20:00","za":"10:00 - 13:00, 16:00 - 20:00","zo":"gesloten"}}},{"type":"Feature","geometry":{"type":"Point","coordinates":[11.328999,43.321221]},"properties":{"type":"pakketpunt","locatieNaam":"TABACCHERIA N. 6","straatNaam":"PIAZZA GIACOMO MATTEOTTI 15","straatNr":"","vervoerder":"DHL","puntType":"parcelShop","bezettingsgraad":50,"latitude":43.321221,"longitude":11.328999,"canPickup":true,"canDropoff":true,"openingstijden":{"ma":"07:30 - 13:00, 14:00 - 19:30","di":"07:30 - 13:00, 14:00 - 19:30","wo":"07:30 - 13:00, 14:00 - 19:30","do":"07:30 - 13:00, 14:00 - 19:30","vr":"07:30 - 13:00, 14:00 - 19:30","za":"07:30 - 13:00, 14:00 - 19:30","zo":"gesloten"}}},{"type":"Feature","geometry":{"type":"Point","coordinates":[11.329085,43.321525]},"properties":{"type":"pakketpunt","locatieNaam":"Ufficio Postale SIENA CENTRO","straatNaam":"PIAZZA GIACOMO MATTEOTTI 37","straatNr":"","vervoerder":"DHL","puntType":"postOffice","bezettingsgraad":50,"latitude":43.321525,"longitude":11.329085,"canPickup":true,"canDropoff":true,"openingstijden":{"ma":"08:20 - 19:05","di":"08:20 - 19:05","wo":"08:20 - 19:05","do":"08:20 - 19:05","vr":"08:20 - 19:05","za":"08:20 - 12:35","zo":"gesloten"}}},{"type":"Feature","geometry":{"type":"Point","coordinates":[11.332445,43.323608]},"properties":{"type":"pakketpunt","locatieNaam":"TABACCHERIA N. 29","straatNaam":"VIA DI VALLEROZZI 91","straatNr":"","vervoerder":"DHL","puntType":"parcelShop","bezettingsgraad":50,"latitude":43.323608,"longitude":11.332445,"canPickup":true,"canDropoff":true,"openingstijden":{"ma":"07:00 - 19:45","di":"07:00 - 19:45","wo":"07:00 - 19:45","do":"07:00 - 19:45","vr":"07:00 - 19:45","za":"07:00 - 13:00","zo":"gesloten"}}},{"type":"Feature","geometry":{"type":"Point","coordinates":[11.332218,43.324529]},"properties":{"type":"pakketpunt","locatieNaam":"TABACCHERIA N. 23","straatNaam":"VIA GIUSEPPE GARIBALDI 86","straatNr":"","vervoerder":"DHL","puntType":"parcelShop","bezettingsgraad":50,"latitude":43.324529,"longitude":11.332218,"canPickup":true,"canDropoff":true,"openingstijden":{"ma":"07:30 - 13:30, 15:30 - 19:30","di":"07:30 - 13:30, 15:30 - 19:30","wo":"07:30 - 13:30, 15:30 - 19:30","do":"07:30 - 13:30, 15:30 - 19:30","vr":"07:30 - 13:30, 15:30 - 19:30","za":"08:00 - 13:00, 15:30 - 19:30","zo":"08:30 - 12:30"}}},{"type":"Feature","geometry":{"type":"Point","coordinates":[11.332,43.3245]},"properties":{"type":"pakketpunt","locatieNaam":"EBBI'","straatNaam":"Via Garibaldi 86","straatNr":"","vervoerder":"DHL","puntType":"parcelShop","bezettingsgraad":50,"latitude":43.3245,"longitude":11.332,"canPickup":false,"canDropoff":true,"openingstijden":{"ma":"07:30 - 19:30","di":"07:30 - 19:30","wo":"07:30 - 19:30","do":"07:30 - 19:30","vr":"07:30 - 19:30","za":"08:00 - 19:30","zo":"gesloten"}}},{"type":"Feature","geometry":{"type":"Point","coordinates":[11.334821,43.325848]},"properties":{"type":"pakketpunt","locatieNaam":"TABACCHERIA N. 5","straatNaam":"VIA LIPPO MEMMI 23-A","straatNr":"","vervoerder":"DHL","puntType":"parcelShop","bezettingsgraad":50,"latitude":43.325848,"longitude":11.334821,"canPickup":true,"canDropoff":true,"openingstijden":{"ma":"07:00 - 13:00, 14:30 - 19:30","di":"07:00 - 13:00, 14:30 - 19:30","wo":"07:00 - 13:00, 14:30 - 19:30","do":"07:00 - 13:00, 14:30 - 19:30","vr":"07:00 - 13:00, 14:30 - 19:30","za":"08:00 - 13:00, 15:30 - 20:00","zo":"gesloten"}}},{"type":"Feature","geometry":{"type":"Point","coordinates":[11.332113,43.325839]},"properties":{"type":"pakketpunt","locatieNaam":"Ufficio Postale SIENA 4","straatNaam":"VIALE GIUSEPPE MAZZINI 4-A","straatNr":"","vervoerder":"DHL","puntType":"postOffice","bezettingsgraad":50,"latitude":43.325839,"longitude":11.332113,"canPickup":true,"canDropoff":true,"openingstijden":{"ma":"08:20 - 13:35","di":"08:20 - 13:35","wo":"08:20 - 13:35","do":"08:20 - 13:35","vr":"08:20 - 13:35","za":"08:20 - 12:35","zo":"gesloten"}}},{"type":"Feature","geometry":{"type":"Point","coordinates":[11.327842,43.324505]},"properties":{"type":"pakketpunt","locatieNaam":"EDICOLA VISTE E RIVISTE","straatNaam":"VIA CAMOLLIA 40","straatNr":"","vervoerder":"DHL","puntType":"parcelShop","bezettingsgraad":50,"latitude":43.324505,"longitude":11.327842,"canPickup":true,"canDropoff":true,"openingstijden":{"ma":"07:00 - 13:00, 15:00 - 17:00","di":"07:00 - 13:00, 15:00 - 17:00","wo":"07:00 - 13:00, 15:00 - 17:00","do":"07:00 - 13:00, 15:00 - 17:00","vr":"07:00 - 13:00, 15:00 - 17:00","za":"08:00 - 12:00","zo":"gesloten"}}},{"type":"Feature","geometry":{"type":"Point","coordinates":[11.327968,43.324807]},"properties":{"type":"pakketpunt","locatieNaam":"OUI SERVICES","straatNaam":"Via Campansi 4","straatNr":"","vervoerder":"DHL","puntType":"parcelShop","bezettingsgraad":50,"latitude":43.324807,"longitude":11.327968,"canPickup":false,"canDropoff":true,"openingstijden":{"ma":"09:00 - 20:00","di":"09:00 - 20:00","wo":"09:00 - 20:00","do":"09:00 - 20:00","vr":"09:00 - 20:00","za":"09:00 - 20:00","zo":"gesloten"}}},{"type":"Feature","geometry":{"type":"Point","coordinates":[11.324007,43.325373]},"properties":{"type":"pakketpunt","locatieNaam":"TABACCHERIA N. 77","straatNaam":"VIA BETTINO RICASOLI 81","straatNr":"","vervoerder":"DHL","puntType":"parcelShop","bezettingsgraad":50,"latitude":43.325373,"longitude":11.324007,"canPickup":true,"canDropoff":true,"openingstijden":{"ma":"07:00 - 13:30, 16:00 - 20:00","di":"07:00 - 13:30, 16:00 - 20:00","wo":"07:00 - 13:30, 16:00 - 20:00","do":"07:00 - 13:30, 16:00 - 20:00","vr":"07:00 - 13:30, 16:00 - 20:00","za":"07:00 - 13:30, 16:00 - 20:00","zo":"07:00 - 12:30"}}},{"type":"Feature","geometry":{"type":"Point","coordinates":[11.32571,43.327332]},"properties":{"type":"pakketpunt","locatieNaam":"TABACCHERIA N. 19","straatNaam":"VIA CAMOLLIA 208","straatNr":"","vervoerder":"DHL","puntType":"parcelShop","bezettingsgraad":50,"latitude":43.327332,"longitude":11.32571,"canPickup":true,"canDropoff":true,"openingstijden":{"ma":"07:30 - 20:00","di":"07:30 - 20:00","wo":"07:30 - 20:00","do":"07:30 - 20:00","vr":"07:30 - 20:00","za":"07:30 - 20:00","zo":"09:00 - 20:00"}}},{"type":"Feature","geometry":{"type":"Point","coordinates":[11.324217,43.328015]},"properties":{"type":"pakketpunt","locatieNaam":"Ufficio Postale SIENA 1","straatNaam":"VIALE VITTORIO EMANUELE II 35","straatNr":"","vervoerder":"DHL","puntType":"postOffice","bezettingsgraad":50,"latitude":43.328015,"longitude":11.324217,"canPickup":true,"canDropoff":true,"openingstijden":{"ma":"08:20 - 13:35","di":"08:20 - 13:35","wo":"08:20 - 13:35","do":"08:20 - 13:35","vr":"08:20 - 13:35","za":"08:20 - 12:35","zo":"gesloten"}}},{"type":"Feature","geometry":{"type":"Point","coordinates":[11.322163,43.328581]},"properties":{"type":"pakketpunt","locatieNaam":"TABACCHERIA N. 31","straatNaam":"VIALE VITTORIO EMANUELE II 57","straatNr":"","vervoerder":"DHL","puntType":"parcelShop","bezettingsgraad":50,"latitude":43.328581,"longitude":11.322163,"canPickup":true,"canDropoff":true,"openingstijden":{"ma":"08:00 - 18:00","di":"08:00 - 18:00","wo":"08:00 - 18:00","do":"08:00 - 18:00","vr":"08:00 - 18:00","za":"08:00 - 13:00, 16:00 - 18:00","zo":"gesloten"}}},{"type":"Feature","geometry":{"type":"Point","coordinates":[11.32209,43.32856]},"properties":{"type":"pakketpunt","locatieNaam":"ANGOLO DELL'ANTIPORTO","straatNaam":"Viale Vittorio Emanuele II, 57","straatNr":"","vervoerder":"DHL","puntType":"parcelShop","bezettingsgraad":50,"latitude":43.32856,"longitude":11.32209,"canPickup":false,"canDropoff":true,"openingstijden":{"ma":"09:00 - 20:00","di":"09:00 - 20:00","wo":"09:00 - 20:00","do":"09:00 - 20:00","vr":"09:00 - 20:00","za":"09:00 - 20:00","zo":"gesloten"}}},{"type":"Feature","geometry":{"type":"Point","coordinates":[11.322209,43.331088]},"properties":{"type":"pakketpunt","locatieNaam":"CENTRO COMMERCIALE PORTA SI","straatNaam":"PIAZZA CARLO ROSSELLI 25","straatNr":"","vervoerder":"DHL","puntType":"packStation","bezettingsgraad":50,"latitude":43.331088,"longitude":11.322209,"canPickup":true,"canDropoff":true,"openingstijden":{"ma":"08:30 - 13:00, 16:00 - 19:00","di":"08:30 - 13:00, 16:00 - 19:00","wo":"08:30 - 13:00, 16:00 - 19:00","do":"08:30 - 13:00, 16:00 - 19:00","vr":"08:30 - 13:00, 16:00 - 19:00","za":"08:30 - 13:00","zo":"gesloten"}}},{"type":"Feature","geometry":{"type":"Point","coordinates":[11.328018,43.338202]},"properties":{"type":"pakketpunt","locatieNaam":"TABACCHERIA N. 78","straatNaam":"VIA NAZARENO ORLANDI 6","straatNr":"","vervoerder":"DHL","puntType":"parcelShop","bezettingsgraad":50,"latitude":43.338202,"longitude":11.328018,"canPickup":true,"canDropoff":true,"openingstijden":{"ma":"06:00 - 13:00, 15:30 - 20:00","di":"06:00 - 13:00, 15:30 - 20:00","wo":"06:00 - 13:00, 15:30 - 20:00","do":"06:00 - 13:00, 15:30 - 20:00","vr":"06:00 - 13:00, 15:30 - 20:00","za":"06:00 - 13:00, 15:30 - 20:00","zo":"gesloten"}}},{"type":"Feature","geometry":{"type":"Point","coordinates":[11.325609,43.342701]},"properties":{"type":"pakketpunt","locatieNaam":"STAZIONE DI SERVIZIO ENI","straatNaam":"VIALE MARIO BRACCI 6","straatNr":"","vervoerder":"DHL","puntType":"packStation","bezettingsgraad":50,"latitude":43.342701,"longitude":11.325609,"canPickup":true,"canDropoff":true,"openingstijden":{"ma":"00:01 - 23:59","di":"00:01 - 23:59","wo":"00:01 - 23:59","do":"00:01 - 23:59","vr":"00:01 - 23:59","za":"00:01 - 23:59","zo":"00:01 - 23:59"}}},{"type":"Feature","geometry":{"type":"Point","coordinates":[11.305694,43.340808]},"properties":{"type":"pakketpunt","locatieNaam":"TABACCHERIA N. 46","straatNaam":"VIA FIORENTINA 111","straatNr":"","vervoerder":"DHL","puntType":"parcelShop","bezettingsgraad":50,"latitude":43.340808,"longitude":11.305694,"canPickup":true,"canDropoff":true,"openingstijden":{"ma":"07:00 - 20:00","di":"07:00 - 20:00","wo":"07:00 - 20:00","do":"07:00 - 20:00","vr":"07:00 - 20:00","za":"07:00 - 20:00","zo":"07:00 - 13:00"}}},{"type":"Feature","geometry":{"type":"Point","coordinates":[11.311457,43.343887]},"properties":{"type":"pakketpunt","locatieNaam":"Kipoint Viale delle Regioni","straatNaam":"VIALE DELLE REGIONI 62","straatNr":"","vervoerder":"DHL","puntType":"parcelShop","bezettingsgraad":50,"latitude":43.343887,"longitude":11.311457,"canPickup":true,"canDropoff":true,"openingstijden":{"ma":"08:45 - 13:00, 15:30 - 17:30","di":"08:45 - 13:00, 15:30 - 17:30","wo":"08:45 - 13:00, 15:30 - 17:30","do":"08:45 - 13:00, 15:30 - 17:30","vr":"08:45 - 13:00, 15:30 - 17:30","za":"gesloten","zo":"gesloten"}}},{"type":"Feature","geometry":{"type":"Point","coordinates":[11.311283,43.34393]},"properties":{"type":"pakketpunt","locatieNaam":"TABACCHERIA N. 62","straatNaam":"VIALE DELLE REGIONI 68","straatNr":"","vervoerder":"DHL","puntType":"parcelShop","bezettingsgraad":50,"latitude":43.34393,"longitude":11.311283,"canPickup":true,"canDropoff":true,"openingstijden":{"ma":"06:30 - 20:00","di":"06:30 - 20:00","wo":"06:30 - 20:00","do":"06:30 - 20:00","vr":"06:30 - 20:00","za":"06:30 - 20:00","zo":"gesloten"}}},{"type":"Feature","geometry":{"type":"Point","coordinates":[11.3819,43.2561]},"properties":{"type":"pakketpunt","locatieNaam":"PuntoPoste TABACCHERIA N. 84","straatNaam":"STRADA CASSIA SUD 378","straatNr":"","vervoerder":"Amazon","puntType":"3p","bezettingsgraad":50,"latitude":43.2561,"longitude":11.3819,"canPickup":true,"canDropoff":false,"openingstijden":null}},{"type":"Feature","geometry":{"type":"Point","coordinates":[11.305107,43.343211]},"properties":{"type":"pakketpunt","locatieNaam":"Amazon Locker - livilla.","straatNaam":"CONAD - SIENA LOC. FONTEBECCI","straatNr":"","vervoerder":"Amazon","puntType":"locker","bezettingsgraad":50,"latitude":43.343211,"longitude":11.305107,"canPickup":true,"canDropoff":false,"openingstijden":null}},{"type":"Feature","geometry":{"type":"Point","coordinates":[11.32888,43.32085]},"properties":{"type":"pakketpunt","locatieNaam":"Amazon Locker - paterniano","straatNaam":"PENNY - Siena","straatNr":"","vervoerder":"Amazon","puntType":"locker","bezettingsgraad":50,"latitude":43.32085,"longitude":11.32888,"canPickup":true,"canDropoff":false,"openingstijden":null}},{"type":"Feature","geometry":{"type":"Point","coordinates":[11.323349,43.302752]},"properties":{"type":"pakketpunt","locatieNaam":"Amazon Locker - paolina","straatNaam":"PENNY MARKET - Siena 3","straatNr":"","vervoerder":"Amazon","puntType":"locker","bezettingsgraad":50,"latitude":43.302752,"longitude":11.323349,"canPickup":true,"canDropoff":false,"openingstijden":null}},{"type":"Feature","geometry":{"type":"Point","coordinates":[11.324603,43.301544]},"properties":{"type":"pakketpunt","locatieNaam":"Amazon Locker - loreta.","straatNaam":"CONAD - SIENA VIA MASSETANA","straatNr":"","vervoerder":"Amazon","puntType":"locker","bezettingsgraad":50,"latitude":43.301544,"longitude":11.324603,"canPickup":true,"canDropoff":false,"openingstijden":null}},{"type":"Feature","geometry":{"type":"Point","coordinates":[11.3046387,43.334655]},"properties":{"type":"pakketpunt","locatieNaam":"Amazon Locker - ARIO","straatNaam":"Stazione Tamoil - PV 4809","straatNr":"","vervoerder":"Amazon","puntType":"locker","bezettingsgraad":50,"latitude":43.334655,"longitude":11.3046387,"canPickup":true,"canDropoff":false,"openingstijden":null}},{"type":"Feature","geometry":{"type":"Point","coordinates":[11.317664,43.329783]},"properties":{"type":"pakketpunt","locatieNaam":"Amazon Locker - teano","straatNaam":"Conad city (Via G. Mameli 62/64)","straatNr":"","vervoerder":"Amazon","puntType":"locker","bezettingsgraad":50,"latitude":43.329783,"longitude":11.317664,"canPickup":true,"canDropoff":false,"openingstijden":null}},{"type":"Feature","geometry":{"type":"Point","coordinates":[11.322753,43.303269]},"properties":{"type":"pakketpunt","locatieNaam":"Amazon Locker - FRULLATORE","straatNaam":"Fermopoint/Lavanderia il Fontino","straatNr":"","vervoerder":"Amazon","puntType":"locker","bezettingsgraad":50,"latitude":43.303269,"longitude":11.322753,"canPickup":true,"canDropoff":false,"openingstijden":null}},{"type":"Feature","geometry":{"type":"Point","coordinates":[11.316967,43.310022]},"properties":{"type":"pakketpunt","locatieNaam":"Amazon Counter","straatNaam":"Smartel S.r.l. (fermopoint)","straatNr":"","vervoerder":"Amazon","puntType":"helix","bezettingsgraad":50,"latitude":43.310022,"longitude":11.316967,"canPickup":true,"canDropoff":false,"openingstijden":null}},{"type":"Feature","geometry":{"type":"Point","coordinates":[11.3592126,43.3121171]},"properties":{"type":"pakketpunt","locatieNaam":"Amazon Locker - nan�","straatNaam":"Stazione Tamoil - PV 3508","straatNr":"","vervoerder":"Amazon","puntType":"locker","bezettingsgraad":50,"latitude":43.3121171,"longitude":11.3592126,"canPickup":true,"canDropoff":false,"openingstijden":null}},{"type":"Feature","geometry":{"type":"Point","coordinates":[11.348109,43.322506]},"properties":{"type":"pakketpunt","locatieNaam":"Amazon Locker - rainaldo","straatNaam":"Eni Station pv.5486","straatNr":"","vervoerder":"Amazon","puntType":"locker","bezettingsgraad":50,"latitude":43.322506,"longitude":11.348109,"canPickup":true,"canDropoff":false,"openingstijden":null}},{"type":"Feature","geometry":{"type":"Point","coordinates":[11.32783,43.32413]},"properties":{"type":"pakketpunt","locatieNaam":"Amazon Counter - KEMO EXPRESS RIPARZIONE ","straatNaam":"VIA CAMOLLIA, 33","straatNr":"","vervoerder":"Amazon","puntType":"helix","bezettingsgraad":50,"latitude":43.32413,"longitude":11.32783,"canPickup":true,"canDropoff":false,"openingstijden":null}},{"type":"Feature","geometry":{"type":"Point","coordinates":[11.323268,43.330689]},"properties":{"type":"pakketpunt","locatieNaam":"Amazon Locker - mito","straatNaam":"PAM Siena","straatNr":"","vervoerder":"Amazon","puntType":"locker","bezettingsgraad":50,"latitude":43.330689,"longitude":11.323268,"canPickup":true,"canDropoff":false,"openingstijden":null}},{"type":"Feature","geometry":{"type":"Point","coordinates":[11.324004,43.325384]},"properties":{"type":"pakketpunt","locatieNaam":"Amazon Counter","straatNaam":"Tabaccheria Ricasoli (fermopoint)","straatNr":"","vervoerder":"Amazon","puntType":"helix","bezettingsgraad":50,"latitude":43.325384,"longitude":11.324004,"canPickup":true,"canDropoff":false,"openingstijden":null}},{"type":"Feature","geometry":{"type":"Point","coordinates":[11.3020454,43.3403502]},"properties":{"type":"pakketpunt","locatieNaam":"Amazon Counter - PRIMAEDICOLA","straatNaam":"IL FICCANASO DI BARBETTI FEDER","straatNr":"","vervoerder":"Amazon","puntType":"helix","bezettingsgraad":50,"latitude":43.3403502,"longitude":11.3020454,"canPickup":true,"canDropoff":false,"openingstijden":null}},{"type":"Feature","geometry":{"type":"Point","coordinates":[11.3025,43.2917]},"properties":{"type":"pakketpunt","locatieNaam":"Ufficio Postale COSTALPINO","straatNaam":"VIA DARIO NERI 2","straatNr":"","vervoerder":"Amazon","puntType":"3p","bezettingsgraad":50,"latitude":43.2917,"longitude":11.3025,"canPickup":true,"canDropoff":false,"openingstijden":null}},{"type":"Feature","geometry":{"type":"Point","coordinates":[11.3964024,43.2943784]},"properties":{"type":"pakketpunt","locatieNaam":"Amazon Locker - cataldo","straatNaam":"Eni Station pv. 5461","straatNr":"","vervoerder":"Amazon","puntType":"locker","bezettingsgraad":50,"latitude":43.2943784,"longitude":11.3964024,"canPickup":true,"canDropoff":false,"openingstijden":null}},{"type":"Feature","geometry":{"type":"Point","coordinates":[11.30302,43.335808]},"properties":{"type":"pakketpunt","locatieNaam":"Amazon Counter - PRIMAEDICOLA","straatNaam":"TABACCHERIA ANGIOLINI CLAUDIO","straatNr":"","vervoerder":"Amazon","puntType":"helix","bezettingsgraad":50,"latitude":43.335808,"longitude":11.30302,"canPickup":true,"canDropoff":false,"openingstijden":null}},{"type":"Feature","geometry":{"type":"Point","coordinates":[11.3428,43.3171]},"properties":{"type":"pakketpunt","locatieNaam":"PuntoPoste TABACCHERIA N. 55","straatNaam":"VIA ARETINA 6","straatNr":"","vervoerder":"Amazon","puntType":"3p","bezettingsgraad":50,"latitude":43.3171,"longitude":11.3428,"canPickup":true,"canDropoff":false,"openingstijden":null}},{"type":"Feature","geometry":{"type":"Point","coordinates":[11.3927,43.2938]},"properties":{"type":"pakketpunt","locatieNaam":"Ufficio Postale TAVERNE D'ARBIA","straatNaam":"VIA ALDOBRANDINO DEGLI ALDOBRANDESCHI 10","straatNr":"","vervoerder":"Amazon","puntType":"3p","bezettingsgraad":50,"latitude":43.2938,"longitude":11.3927,"canPickup":true,"canDropoff":false,"openingstijden":null}},{"type":"Feature","geometry":{"type":"Point","coordinates":[11.331969,43.324621]},"properties":{"type":"pakketpunt","locatieNaam":"Amazon Counter (fermopoint)","straatNaam":"Ebbì di Bogi Elisa","straatNr":"","vervoerder":"Amazon","puntType":"helix","bezettingsgraad":50,"latitude":43.324621,"longitude":11.331969,"canPickup":true,"canDropoff":false,"openingstijden":null}},{"type":"Feature","geometry":{"type":"Point","coordinates":[11.33057,43.31504]},"properties":{"type":"pakketpunt","locatieNaam":"Amazon Counter - TABACCHERIACARLINO","straatNaam":"Via San Pietro , 47","straatNr":"","vervoerder":"Amazon","puntType":"helix","bezettingsgraad":50,"latitude":43.31504,"longitude":11.33057,"canPickup":true,"canDropoff":false,"openingstijden":null}},{"type":"Feature","geometry":{"type":"Point","coordinates":[11.3316,43.3198]},"properties":{"type":"pakketpunt","locatieNaam":"PuntoPoste TABACCHERIA N. 7","straatNaam":"VIA DI CALZOLERIA 36","straatNr":"","vervoerder":"Amazon","puntType":"3p","bezettingsgraad":50,"latitude":43.3198,"longitude":11.3316,"canPickup":true,"canDropoff":false,"openingstijden":null}},{"type":"Feature","geometry":{"type":"Point","coordinates":[11.3290293,43.3205197]},"properties":{"type":"pakketpunt","locatieNaam":"Amazon Counter (fermopoint)","straatNaam":"Si Svapa","straatNr":"","vervoerder":"Amazon","puntType":"helix","bezettingsgraad":50,"latitude":43.3205197,"longitude":11.3290293,"canPickup":true,"canDropoff":false,"openingstijden":null}},{"type":"Feature","geometry":{"type":"Point","coordinates":[11.3278229613422,43.32458989001]},"properties":{"type":"pakketpunt","locatieNaam":"Amazon Counter (fermopoint)","straatNaam":"Edicola Viste e Riviste","straatNr":"","vervoerder":"Amazon","puntType":"helix","bezettingsgraad":50,"latitude":43.32458989001,"longitude":11.3278229613422,"canPickup":true,"canDropoff":false,"openingstijden":null}},{"type":"Feature","geometry":{"type":"Point","coordinates":[11.3186617079346,43.3304329043097]},"properties":{"type":"pakketpunt","locatieNaam":"Amazon Counter (fermopoint)","straatNaam":"Megastore Sigaretta Elettronica","straatNr":"","vervoerder":"Amazon","puntType":"helix","bezettingsgraad":50,"latitude":43.3304329043097,"longitude":11.3186617079346,"canPickup":true,"canDropoff":false,"openingstijden":null}},{"type":"Feature","geometry":{"type":"Point","coordinates":[11.3114175570431,43.3439589161049]},"properties":{"type":"pakketpunt","locatieNaam":"Amazon Counter","straatNaam":"KiPoint Siena (fermopoint)","straatNr":"","vervoerder":"Amazon","puntType":"helix","bezettingsgraad":50,"latitude":43.3439589161049,"longitude":11.3114175570431,"canPickup":true,"canDropoff":false,"openingstijden":null}},{"type":"Feature","geometry":{"type":"Point","coordinates":[11.3056,43.3408]},"properties":{"type":"pakketpunt","locatieNaam":"PuntoPoste TABACCHERIA N. 46","straatNaam":"VIA FIORENTINA 111","straatNr":"","vervoerder":"Amazon","puntType":"3p","bezettingsgraad":50,"latitude":43.3408,"longitude":11.3056,"canPickup":true,"canDropoff":false,"openingstijden":null}},{"type":"Feature","geometry":{"type":"Point","coordinates":[11.328,43.3382]},"properties":{"type":"pakketpunt","locatieNaam":"PuntoPoste TABACCHERIA N. 78","straatNaam":"VIA NAZARENO ORLANDI 6","straatNr":"","vervoerder":"Amazon","puntType":"3p","bezettingsgraad":50,"latitude":43.3382,"longitude":11.328,"canPickup":true,"canDropoff":false,"openingstijden":null}},{"type":"Feature","geometry":{"type":"Point","coordinates":[11.329112,43.337875]},"properties":{"type":"pakketpunt","locatieNaam":"Amazon Counter","straatNaam":"Parafarmacia Scacciapensieri (fermopoint)","straatNr":"","vervoerder":"Amazon","puntType":"helix","bezettingsgraad":50,"latitude":43.337875,"longitude":11.329112,"canPickup":true,"canDropoff":false,"openingstijden":null}},{"type":"Feature","geometry":{"type":"Point","coordinates":[11.336987646015375,43.31706754105536]},"properties":{"type":"pakketpunt","locatieNaam":"FedEx OnSite","straatNaam":"VIA DI PANTANETO 154","straatNr":"","vervoerder":"FedEx","puntType":"servicepunt","bezettingsgraad":50,"latitude":43.31706754105536,"longitude":11.336987646015375,"canPickup":true,"canDropoff":true,"openingstijden":{"ma":"06:00 - 20:00","di":"06:00 - 20:00","wo":"06:00 - 20:00","do":"06:00 - 20:00","vr":"06:00 - 20:00","za":"06:00 - 20:00","zo":"06:00 - 13:00"}}},{"type":"Feature","geometry":{"type":"Point","coordinates":[11.336010855197864,43.31741475997996]},"properties":{"type":"pakketpunt","locatieNaam":"FedEx OnSite","straatNaam":"via di pantaneto, 112","straatNr":"","vervoerder":"FedEx","puntType":"servicepunt","bezettingsgraad":50,"latitude":43.31741475997996,"longitude":11.336010855197864,"canPickup":true,"canDropoff":true,"openingstijden":{"ma":"07:30 - 20:00","di":"07:30 - 20:00","wo":"07:30 - 20:00","do":"07:30 - 20:00","vr":"07:30 - 20:00","za":"08:00 - 13:30, 15:30 - 20:00","zo":"gesloten"}}},{"type":"Feature","geometry":{"type":"Point","coordinates":[11.325536,43.323417]},"properties":{"type":"pakketpunt","locatieNaam":"FedEx OnSite","straatNaam":"via dei Montanini, 107","straatNr":"","vervoerder":"FedEx","puntType":"servicepunt","bezettingsgraad":50,"latitude":43.323417,"longitude":11.325536,"canPickup":true,"canDropoff":true,"openingstijden":{"ma":"09:00 - 21:00","di":"09:00 - 21:00","wo":"09:00 - 21:00","do":"09:00 - 21:00","vr":"09:00 - 21:00","za":"09:00 - 21:00","zo":"10:00 - 14:00"}}},{"type":"Feature","geometry":{"type":"Point","coordinates":[11.330578,43.322763]},"properties":{"type":"pakketpunt","locatieNaam":"FedEx OnSite","straatNaam":"Via Pian D'Ovile, 16","straatNr":"","vervoerder":"FedEx","puntType":"servicepunt","bezettingsgraad":50,"latitude":43.322763,"longitude":11.330578,"canPickup":true,"canDropoff":true,"openingstijden":{"ma":"08:00 - 20:00","di":"08:00 - 20:00","wo":"08:00 - 20:00","do":"08:00 - 20:00","vr":"08:00 - 20:00","za":"gesloten","zo":"gesloten"}}},{"type":"Feature","geometry":{"type":"Point","coordinates":[11.327631788721444,43.32509385690759]},"properties":{"type":"pakketpunt","locatieNaam":"FedEx OnSite","straatNaam":"Via Camollia, 70","straatNr":"","vervoerder":"FedEx","puntType":"servicepunt","bezettingsgraad":50,"latitude":43.32509385690759,"longitude":11.327631788721444,"canPickup":true,"canDropoff":true,"openingstijden":{"ma":"10:00 - 13:00, 16:00 - 19:00","di":"10:00 - 13:00, 16:00 - 19:00","wo":"10:00 - 13:00, 16:00 - 19:00","do":"10:00 - 13:00, 16:00 - 19:00","vr":"10:00 - 13:00, 16:00 - 19:00","za":"10:00 - 13:00, 16:00 - 19:00","zo":"gesloten"}}},{"type":"Feature","geometry":{"type":"Point","coordinates":[11.332071,43.324393]},"properties":{"type":"pakketpunt","locatieNaam":"FedEx OnSite","straatNaam":"Via Giuseppe Garibaldi, 86","straatNr":"","vervoerder":"FedEx","puntType":"servicepunt","bezettingsgraad":50,"latitude":43.324393,"longitude":11.332071,"canPickup":true,"canDropoff":true,"openingstijden":{"ma":"07:30 - 13:30, 15:30 - 19:30","di":"07:30 - 13:30, 15:30 - 19:30","wo":"07:30 - 13:30, 15:30 - 19:30","do":"07:30 - 13:30, 15:30 - 19:30","vr":"07:30 - 13:30, 15:30 - 19:30","za":"08:00 - 13:00, 15:30 - 19:30","zo":"08:30 - 13:00"}}},{"type":"Feature","geometry":{"type":"Point","coordinates":[11.303049,43.335788]},"properties":{"type":"pakketpunt","locatieNaam":"FedEx OnSite","straatNaam":"VIA G COLOMBINI, 28","straatNr":"","vervoerder":"FedEx","puntType":"servicepunt","bezettingsgraad":50,"latitude":43.335788,"longitude":11.303049,"canPickup":true,"canDropoff":true,"openingstijden":{"ma":"07:30 - 13:00, 15:30 - 20:00","di":"07:30 - 13:00, 15:30 - 20:00","wo":"07:30 - 13:00, 15:30 - 20:00","do":"07:30 - 13:00","vr":"07:30 - 13:00, 15:30 - 20:00","za":"07:30 - 13:00, 15:30 - 20:00","zo":"gesloten"}}},{"type":"Feature","geometry":{"type":"Point","coordinates":[11.324370657788027,43.33236849747702]},"properties":{"type":"pakketpunt","locatieNaam":"FedEx OnSite","straatNaam":"VIA L DE BOSIS, 54,56,58","straatNr":"","vervoerder":"FedEx","puntType":"servicepunt","bezettingsgraad":50,"latitude":43.33236849747702,"longitude":11.324370657788027,"canPickup":true,"canDropoff":true,"openingstijden":{"ma":"08:00 - 18:00","di":"08:00 - 18:00","wo":"08:00 - 18:00","do":"08:00 - 18:00","vr":"08:00 - 18:00","za":"09:00 - 13:00","zo":"gesloten"}}},{"type":"Feature","geometry":{"type":"Point","coordinates":[11.311474,43.343915]},"properties":{"type":"pakketpunt","locatieNaam":"FedEx OnSite","straatNaam":"Viale delle Regioni, 62","straatNr":"","vervoerder":"FedEx","puntType":"servicepunt","bezettingsgraad":50,"latitude":43.343915,"longitude":11.311474,"canPickup":true,"canDropoff":true,"openingstijden":{"ma":"09:00 - 13:00, 15:30 - 17:30","di":"09:00 - 13:00, 15:30 - 17:30","wo":"09:00 - 13:00, 15:30 - 17:30","do":"09:00 - 13:00, 15:30 - 17:30","vr":"09:00 - 13:00, 15:30 - 17:30","za":"gesloten","zo":"gesloten"}}},{"type":"Feature","geometry":{"type":"Polygon","coordinates":[[[11.2311435,43.3208536],[11.2318065,43.3205603],[11.2330602,43.3195166],[11.2331531,43.3193368],[11.2332141,43.3187887],[11.2329942,43.3183815],[11.2330511,43.3181104],[11.2329199,43.3180269],[11.2324763,43.3180105],[11.2320813,43.3177284],[11.2314899,43.3163496],[11.2307872,43.3156143],[11.2306322,43.3153049],[11.2301372,43.3149918],[11.2302839,43.3146404],[11.2302526,43.3144982],[11.2303731,43.3143278],[11.2306488,43.3143131],[11.2305863,43.3141643],[11.2307738,43.3139853],[11.2311002,43.3138556],[11.2308013,43.3135357],[11.2309365,43.3133195],[11.2308377,43.3124876],[11.2307426,43.312244],[11.2308954,43.3112459],[11.2306809,43.3111846],[11.2303113,43.3105591],[11.2302623,43.3098684],[11.2300025,43.3092099],[11.230477,43.308765],[11.2313817,43.3081696],[11.2321328,43.3075449],[11.2324749,43.3073744],[11.2331206,43.3064955],[11.2335003,43.3061997],[11.2336687,43.3059239],[11.2336786,43.3054339],[11.2340461,43.30442],[11.2344425,43.3035651],[11.2346713,43.3033259],[11.2349542,43.3031797],[11.2349948,43.302726],[11.2351704,43.3023332],[11.2365384,43.3012726],[11.2372106,43.3009364],[11.2378236,43.3005342],[11.2380433,43.300302],[11.239039,43.3000158],[11.24052,43.2998079],[11.2411541,43.2998541],[11.2424223,43.2995208],[11.2435198,43.2996112],[11.2443836,43.2990569],[11.2445323,43.2988232],[11.2451892,43.2983634],[11.2452439,43.298081],[11.2457528,43.2975556],[11.2458728,43.297296],[11.2456754,43.2963856],[11.2457253,43.2962362],[11.2456446,43.2961966],[11.2457803,43.2960143],[11.2457695,43.2958503],[11.2455263,43.2958874],[11.2465594,43.2947753],[11.2465753,43.294203],[11.248328,43.2928014],[11.2486369,43.2926676],[11.2499132,43.2924911],[11.2520273,43.2920406],[11.2527699,43.292133],[11.2534672,43.2919856],[11.2543794,43.2920733],[11.2553319,43.2917823],[11.2562246,43.2916127],[11.2586077,43.2913817],[11.2600128,43.2910667],[11.2616962,43.2908126],[11.2624544,43.2907757],[11.2631948,43.290928],[11.2640457,43.2909381],[11.2663295,43.2904279],[11.2672561,43.290758],[11.2700592,43.2902979],[11.272063,43.2897335],[11.2717187,43.2894068],[11.2711567,43.2891375],[11.2699844,43.2882217],[11.2689638,43.2873481],[11.2681534,43.2865047],[11.2669206,43.2854987],[11.2745308,43.2834149],[11.2828693,43.2815874],[11.2867038,43.2813934],[11.2883086,43.2814716],[11.2910058,43.281024],[11.2926778,43.2806625],[11.2955087,43.2800115],[11.2973178,43.2794379],[11.2960834,43.2787302],[11.2957959,43.27849],[11.2955267,43.2782001],[11.2950125,43.2772978],[11.2946073,43.2760173],[11.2947872,43.2743017],[11.2946708,43.2733586],[11.294001,43.2721919],[11.293666,43.271446],[11.2934238,43.2711958],[11.2925305,43.2709556],[11.2917983,43.2706185],[11.2911076,43.2694389],[11.2907694,43.2686432],[11.2899792,43.2678749],[11.289106,43.2663329],[11.2879014,43.2636358],[11.2869431,43.262121],[11.2868434,43.2614058],[11.2868211,43.2596556],[11.2868823,43.2594945],[11.2873256,43.2590573],[11.2875306,43.2589845],[11.2879348,43.2589935],[11.2896146,43.2593894],[11.2902145,43.2596175],[11.2906837,43.2602427],[11.2910731,43.2604796],[11.2921898,43.2608012],[11.2929844,43.2612519],[11.294279,43.2615052],[11.2948432,43.2618206],[11.2950681,43.2620745],[11.2954159,43.2622972],[11.2961282,43.2626361],[11.2967858,43.2633998],[11.2970641,43.2634295],[11.2975921,43.2633002],[11.2982436,43.263592],[11.2988521,43.2621244],[11.298868,43.2602249],[11.2996262,43.2591281],[11.299664,43.2587961],[11.2998171,43.2585248],[11.3000104,43.2571934],[11.3001026,43.2570385],[11.3007013,43.2565842],[11.3008298,43.2563676],[11.3015178,43.2545437],[11.3016114,43.2538535],[11.3026434,43.2518675],[11.3030279,43.2507157],[11.3043822,43.2498952],[11.304482,43.2500125],[11.3060018,43.250437],[11.3079064,43.251281],[11.3088366,43.251811],[11.3109361,43.252687],[11.3111352,43.2528492],[11.3116991,43.253666],[11.3124571,43.2541487],[11.3140444,43.2546742],[11.3151328,43.254809],[11.3159092,43.2551768],[11.3175116,43.2552312],[11.3179875,43.2555479],[11.3185987,43.2561415],[11.3188131,43.2562174],[11.3191361,43.2561607],[11.3196678,43.2562035],[11.3220456,43.2566104],[11.3229391,43.2564278],[11.3243421,43.2559492],[11.3245971,43.2557712],[11.3248617,43.2553941],[11.3256961,43.2547461],[11.3262393,43.2545696],[11.3275529,43.2543242],[11.3283053,43.2539387],[11.3288279,43.2534481],[11.3298942,43.2536158],[11.3304114,43.2535007],[11.3311161,43.2535172],[11.3319315,43.2532927],[11.3313484,43.2536603],[11.3310936,43.2539795],[11.3305839,43.2542581],[11.3285784,43.2551027],[11.3274678,43.2558979],[11.3266598,43.2563603],[11.3265432,43.2565101],[11.3265414,43.256753],[11.3267976,43.257145],[11.3292978,43.2601037],[11.3294433,43.2609093],[11.3298601,43.261878],[11.3298366,43.2622691],[11.3291742,43.2641482],[11.3286045,43.2651256],[11.3281753,43.2655773],[11.3284123,43.2668594],[11.3286284,43.2670692],[11.3308139,43.2683954],[11.3329935,43.2689963],[11.3331368,43.2685318],[11.3330978,43.2678209],[11.3352402,43.2684912],[11.3355634,43.2684914],[11.338206,43.2707335],[11.3394195,43.271968],[11.3401087,43.2724721],[11.3406776,43.2730428],[11.3434128,43.2744597],[11.3443911,43.2741191],[11.3451859,43.2735002],[11.3459108,43.2732109],[11.3461846,43.2729446],[11.3465253,43.2728945],[11.3474372,43.2721593],[11.3481546,43.2721464],[11.3485131,43.2719982],[11.3488144,43.2719857],[11.3490678,43.2715716],[11.3493667,43.2712656],[11.349434,43.2710051],[11.3495686,43.2708705],[11.3500711,43.27072],[11.3504701,43.2703867],[11.3505425,43.2702473],[11.3503518,43.2699425],[11.3503892,43.2698215],[11.3508655,43.2696637],[11.3513043,43.2693831],[11.3515017,43.2691384],[11.3520475,43.2692836],[11.3523254,43.2692069],[11.353174,43.2684394],[11.3541108,43.2677485],[11.3544353,43.2677068],[11.3550559,43.2679164],[11.3554229,43.2678456],[11.3553127,43.2671936],[11.3556181,43.2669327],[11.3564402,43.2666983],[11.3568371,43.2664686],[11.3574814,43.2662416],[11.3585118,43.2664676],[11.3588309,43.2664434],[11.3593921,43.2660979],[11.361038,43.2646094],[11.3623777,43.2642356],[11.3629642,43.2639328],[11.363496,43.2639186],[11.3637826,43.2637953],[11.3640357,43.2638967],[11.364271,43.263807],[11.3643334,43.2636872],[11.3642054,43.2631273],[11.3636821,43.2622731],[11.3639536,43.2619415],[11.3646927,43.2613768],[11.3650173,43.2609633],[11.3655313,43.2609034],[11.3665237,43.2610188],[11.367002,43.2607176],[11.3677827,43.2606702],[11.3682272,43.2605374],[11.3684693,43.2603539],[11.3683961,43.2601344],[11.3685783,43.2600256],[11.3692804,43.2601312],[11.3697362,43.2599977],[11.3705733,43.2599775],[11.3716454,43.2597051],[11.3731304,43.2594993],[11.3757094,43.2576796],[11.3776775,43.257138],[11.377786,43.2569331],[11.3777758,43.2563062],[11.37794,43.2561135],[11.3782223,43.2560626],[11.3782811,43.2559773],[11.3782041,43.2557845],[11.3782999,43.2556137],[11.3781946,43.2553148],[11.378524,43.2550012],[11.379098,43.2547669],[11.3789942,43.2544076],[11.3791996,43.2539982],[11.3794237,43.2538284],[11.379775,43.2537354],[11.3802214,43.253821],[11.3808689,43.2535407],[11.3824262,43.2532897],[11.386335,43.251902],[11.386777,43.2518084],[11.3879065,43.2517595],[11.3884257,43.2518641],[11.3890694,43.2521932],[11.3893514,43.2522095],[11.390542,43.2528816],[11.3912729,43.2531125],[11.3919216,43.2529997],[11.3921289,43.2526918],[11.3926722,43.2524815],[11.3929779,43.2524494],[11.3931902,43.2525868],[11.3934762,43.2531874],[11.3937748,43.2533692],[11.3940297,43.2537408],[11.3949942,43.254199],[11.3954465,43.2546674],[11.3960119,43.2548826],[11.3968417,43.2550358],[11.3977859,43.254762],[11.3972373,43.2553389],[11.3967778,43.2561823],[11.3963586,43.2575631],[11.3964068,43.2585915],[11.3963322,43.2587424],[11.3960122,43.2589312],[11.3952211,43.2589769],[11.3946728,43.2587001],[11.3942597,43.2582],[11.3936839,43.2570454],[11.3930017,43.256518],[11.3920546,43.2560556],[11.3912794,43.2559055],[11.3907941,43.2558965],[11.3893195,43.256098],[11.3874115,43.256837],[11.3866526,43.2573489],[11.3861743,43.2579257],[11.3856227,43.2584009],[11.3845529,43.2590367],[11.3832342,43.2602733],[11.3827983,43.261434],[11.3827736,43.261942],[11.3828675,43.2629454],[11.38329,43.2637967],[11.3833449,43.2641494],[11.3832424,43.2647302],[11.3828002,43.2658487],[11.3825456,43.2667962],[11.3823866,43.2685254],[11.3820951,43.2690367],[11.3819247,43.269576],[11.3818792,43.2704095],[11.3816367,43.270719],[11.3802041,43.27198],[11.3798458,43.2724922],[11.3791149,43.27526],[11.3790023,43.2764067],[11.3788662,43.2768373],[11.3789093,43.2770958],[11.3792973,43.2773067],[11.3804792,43.2776264],[11.3816082,43.2780962],[11.3821165,43.2781864],[11.3832186,43.2781842],[11.3838423,43.2784193],[11.3843703,43.2787382],[11.3850953,43.279654],[11.3865309,43.2803942],[11.3876631,43.280688],[11.3885467,43.2807452],[11.3893696,43.2807619],[11.3913082,43.2804983],[11.3916775,43.2808457],[11.3917646,43.2810896],[11.3916641,43.2815795],[11.3917648,43.2820218],[11.3921669,43.2827621],[11.3927494,43.2832676],[11.3946208,43.2841815],[11.3950394,43.2844701],[11.394991,43.2847672],[11.3947355,43.2850865],[11.3942831,43.2853858],[11.392261,43.2861238],[11.3918053,43.2864137],[11.3915844,43.2867567],[11.3915542,43.2871504],[11.3915991,43.2876928],[11.391805,43.2879877],[11.3934629,43.2891444],[11.3946969,43.2901687],[11.3989326,43.2915773],[11.3997641,43.2930107],[11.4001384,43.2940653],[11.4022429,43.2953852],[11.4043031,43.2965214],[11.4054175,43.297583],[11.4056411,43.2979384],[11.4056761,43.298514],[11.4061226,43.2992069],[11.4068905,43.3002352],[11.4074235,43.3006202],[11.4079067,43.300682],[11.4103675,43.3005581],[11.4116441,43.3005893],[11.4132219,43.3001017],[11.4137635,43.3000813],[11.4141405,43.3002624],[11.4143733,43.3005366],[11.4143774,43.3009507],[11.4141461,43.3016489],[11.4140301,43.3027656],[11.4140458,43.3047214],[11.414257,43.3053832],[11.4155122,43.3068784],[11.4158199,43.3077993],[11.4163284,43.3100531],[11.4162581,43.3104553],[11.4157702,43.3112129],[11.4158955,43.3118856],[11.4165347,43.3124573],[11.4173796,43.3144834],[11.4177215,43.3159528],[11.4179759,43.3164607],[11.4192855,43.3171443],[11.4195698,43.3174714],[11.4200118,43.3183534],[11.4207446,43.3194184],[11.423188,43.3213205],[11.423702,43.3218409],[11.4241457,43.323074],[11.4242141,43.323552],[11.4240901,43.3241557],[11.4238496,43.32462],[11.4234357,43.3266186],[11.4225397,43.3282764],[11.4221886,43.3293733],[11.4221501,43.3308868],[11.4216908,43.3323642],[11.4216812,43.3327425],[11.4221867,43.3336682],[11.423269,43.33514],[11.4239952,43.3357188],[11.4248212,43.3366377],[11.4253239,43.3368702],[11.4265821,43.3377979],[11.4282102,43.3384116],[11.4284453,43.3387398],[11.4285563,43.3393583],[11.426221,43.3401916],[11.425293,43.3410487],[11.4247849,43.34223],[11.4235935,43.343912],[11.4227895,43.3457208],[11.4216307,43.3479153],[11.4206559,43.3506879],[11.4197342,43.3509611],[11.4184575,43.3512697],[11.4167019,43.3512263],[11.4168647,43.3505351],[11.4165349,43.3503277],[11.4143918,43.3497659],[11.4142812,43.3499549],[11.4137916,43.3496659],[11.4132914,43.3494963],[11.4122336,43.3486453],[11.4092272,43.3481234],[11.4080142,43.3480329],[11.4062334,43.3482315],[11.405797,43.3484298],[11.4049132,43.3484704],[11.4044512,43.3484041],[11.4039851,43.3490982],[11.4036822,43.3492396],[11.4025773,43.3493799],[11.4020652,43.3495347],[11.4018686,43.3497887],[11.4019973,43.3500809],[11.4018626,43.3503403],[11.4014822,43.3503933],[11.4010422,43.3501865],[11.4007726,43.3498432],[11.4010956,43.3484116],[11.4004264,43.347905],[11.3997714,43.3476831],[11.3991629,43.3484767],[11.3986378,43.3499128],[11.3981402,43.3504365],[11.3966193,43.3506665],[11.3949279,43.3506389],[11.3941202,43.3504938],[11.3932322,43.3501882],[11.3919495,43.3492606],[11.3911813,43.3488625],[11.3903574,43.3489338],[11.3888718,43.349433],[11.3883455,43.3498612],[11.3881764,43.3502088],[11.3876088,43.3502608],[11.3872322,43.3504127],[11.3868096,43.3510682],[11.3864686,43.3507618],[11.3853424,43.3487864],[11.3845749,43.3484063],[11.383787,43.3481346],[11.3820055,43.3476945],[11.3813179,43.3477809],[11.3810693,43.3480471],[11.3810939,43.3483618],[11.38155,43.3489826],[11.3816167,43.3494225],[11.3810629,43.3494609],[11.3779042,43.3478789],[11.3772544,43.3476673],[11.3765591,43.3475557],[11.3757687,43.3475362],[11.3737529,43.3480462],[11.3715923,43.3483252],[11.3708512,43.3486197],[11.3684206,43.3479858],[11.3667018,43.3478863],[11.3657618,43.3481061],[11.3638478,43.3487377],[11.3620513,43.34918],[11.361421,43.3494722],[11.3600797,43.3495629],[11.3595301,43.3497093],[11.3590277,43.3501159],[11.3585251,43.3508376],[11.3582622,43.3510591],[11.3569884,43.3513015],[11.3554499,43.3514484],[11.3543328,43.3521846],[11.3538504,43.3523687],[11.3523501,43.3526035],[11.3510656,43.3538117],[11.3502184,43.3542771],[11.3496893,43.354315],[11.3490477,43.3546343],[11.3484699,43.3546912],[11.3477536,43.354497],[11.347005,43.3544602],[11.3459264,43.3553623],[11.3453346,43.355747],[11.3448887,43.3558992],[11.3445452,43.3562523],[11.3445788,43.3567607],[11.3443073,43.3571984],[11.3439333,43.3576836],[11.3432908,43.3581305],[11.3422659,43.358738],[11.3414089,43.359104],[11.3400284,43.3595707],[11.3392152,43.3596054],[11.3387208,43.3597915],[11.3380023,43.3604493],[11.3378743,43.3607115],[11.3370025,43.3611761],[11.3359312,43.361978],[11.3351057,43.3624836],[11.3348662,43.3627363],[11.3345248,43.3636144],[11.3341678,43.3641204],[11.3336638,43.3644182],[11.3334857,43.364705],[11.3333717,43.3653721],[11.3330313,43.3660649],[11.3327902,43.3663312],[11.3322503,43.3660727],[11.3306503,43.3657311],[11.3304355,43.3655634],[11.3303636,43.3640966],[11.3295844,43.3635141],[11.3288224,43.3631943],[11.3287945,43.3628168],[11.3291282,43.3623981],[11.3288707,43.3622505],[11.3283353,43.3625783],[11.3276575,43.3632805],[11.327109,43.3636686],[11.3258894,43.3632681],[11.3249343,43.3627591],[11.3241792,43.3622724],[11.3228921,43.3611925],[11.3216947,43.3608268],[11.3211531,43.3607999],[11.3210518,43.3606339],[11.3210317,43.3602876],[11.320819,43.3598305],[11.3204976,43.3595838],[11.3201849,43.3595064],[11.3200524,43.3596277],[11.3202235,43.3600042],[11.320118,43.3601333],[11.3199065,43.3601006],[11.3195682,43.3598826],[11.3191648,43.3599128],[11.3184353,43.3597714],[11.3175153,43.3594071],[11.3160381,43.3592877],[11.3147324,43.3584397],[11.3146279,43.3563358],[11.3131572,43.3536694],[11.3128035,43.352221],[11.3128252,43.3517437],[11.3126127,43.351153],[11.3121549,43.3490339],[11.311799,43.3487125],[11.3101628,43.347924],[11.308741,43.3470626],[11.3059952,43.3434173],[11.3058053,43.3433289],[11.3053587,43.3435872],[11.3050003,43.3436836],[11.3008575,43.344464],[11.2986543,43.3446345],[11.2975849,43.3449472],[11.2945369,43.3454988],[11.2937589,43.345444],[11.2930315,43.3452948],[11.2881886,43.3439469],[11.2875084,43.3438861],[11.2865898,43.3440274],[11.2845244,43.3441448],[11.2826522,43.3436531],[11.281892,43.3436525],[11.2814422,43.3438153],[11.2812093,43.3440014],[11.2805998,43.3448515],[11.2799568,43.3455392],[11.2798128,43.3462964],[11.2791168,43.3470163],[11.2775931,43.3480117],[11.2764503,43.3486528],[11.2734427,43.3495193],[11.2720576,43.3501119],[11.2718112,43.3502858],[11.2718769,43.3507717],[11.2717541,43.3510286],[11.2708511,43.3518571],[11.2705239,43.3519147],[11.2701572,43.3518642],[11.2700972,43.352021],[11.2697972,43.3521085],[11.2683961,43.3519626],[11.2651015,43.352848],[11.2650565,43.3527765],[11.2652818,43.3526818],[11.2652408,43.3510449],[11.265808,43.3491319],[11.2657993,43.3480024],[11.2661218,43.347642],[11.2671228,43.34689],[11.2675025,43.3464508],[11.2679854,43.3462836],[11.2685462,43.3463768],[11.2686765,43.3462829],[11.2687486,43.345123],[11.2684711,43.3447866],[11.2672922,43.344535],[11.2661131,43.3439188],[11.2652966,43.3425938],[11.2641886,43.3410533],[11.2637646,43.3407032],[11.2617406,43.3395625],[11.2614542,43.3392925],[11.2612936,43.338999],[11.2608519,43.3374253],[11.2612949,43.3354517],[11.2612996,43.3349583],[11.2611641,43.3347087],[11.2606487,43.334294],[11.2598117,43.3341718],[11.2596054,43.3340071],[11.2593359,43.3334171],[11.2592599,43.3330616],[11.2593453,43.3328818],[11.2608522,43.3317142],[11.2610597,43.3312996],[11.2618917,43.3311981],[11.2620302,43.3310625],[11.262038,43.3308786],[11.261662,43.3302222],[11.2610788,43.3304062],[11.2609236,43.3294181],[11.2610546,43.3289589],[11.2607405,43.327901],[11.2607956,43.3275204],[11.2602438,43.3260682],[11.2597772,43.325671],[11.2592537,43.324801],[11.26019,43.3242944],[11.259973,43.3241379],[11.2598,43.3241339],[11.2589622,43.3243358],[11.2583962,43.3239797],[11.2575363,43.3236729],[11.2571223,43.3233951],[11.2566482,43.3227815],[11.2563636,43.3225906],[11.2549264,43.3220498],[11.2542377,43.3218963],[11.2534716,43.321349],[11.2514972,43.3202414],[11.2500391,43.3191414],[11.2484803,43.3192454],[11.2484529,43.3193755],[11.2478518,43.3193287],[11.2476818,43.3194243],[11.2471724,43.3194517],[11.2467196,43.319388],[11.2460767,43.3191264],[11.2455267,43.3190694],[11.2435615,43.3194757],[11.2431422,43.3194371],[11.2416081,43.3189379],[11.2412004,43.3186782],[11.240753,43.3171093],[11.2410222,43.3167569],[11.2407844,43.3166673],[11.2405332,43.3171875],[11.2401317,43.3187595],[11.2400684,43.319307],[11.2403162,43.3199782],[11.2403211,43.3203642],[11.239845,43.3208696],[11.2391567,43.3210172],[11.238733,43.3214261],[11.2387815,43.3219363],[11.2394003,43.3227101],[11.2394347,43.3229969],[11.2389283,43.3242022],[11.2375706,43.3243182],[11.2372497,43.324483],[11.237174,43.3246489],[11.2365727,43.3243885],[11.2359386,43.3238655],[11.2358266,43.3236841],[11.2353206,43.3219095],[11.2344945,43.3213139],[11.2340441,43.3207862],[11.2335618,43.3205281],[11.2334289,43.3205066],[11.2313089,43.3211243],[11.2313255,43.3209985],[11.2311435,43.3208536]]]},"properties":{"type":"boundary","gemeente":"Siena"}}]}