{"type":"FeatureCollection","metadata":{"gemeente":"Somaglia","slug":"somaglia","generated_at":"2026-09-26T14:28:04.419647Z","total_points":12,"providers":["PosteItaliane","DPD","InPost","GLS","DHL","Amazon","FedEx"],"bounds":[9.633405,45.14817352,9.65994,45.16751]},"features":[{"type":"Feature","geometry":{"type":"Point","coordinates":[9.63668624,45.14817352]},"properties":{"type":"pakketpunt","locatieNaam":"Somaglia","straatNaam":"Via Raimondi","straatNr":"2","vervoerder":"PosteItaliane","puntType":"postkantoor","bezettingsgraad":50,"latitude":45.14817352,"longitude":9.63668624,"canPickup":true,"canDropoff":true,"openingstijden":{"ma":"gesloten","di":"gesloten","wo":"gesloten","do":"gesloten","vr":"gesloten","za":"gesloten","zo":"gesloten"}}},{"type":"Feature","geometry":{"type":"Point","coordinates":[9.64204263,45.1500997]},"properties":{"type":"pakketpunt","locatieNaam":"Stazione Di Servizio Tamoil","straatNaam":"Strada Provinciale 126 Snc","straatNr":"1","vervoerder":"PosteItaliane","puntType":"automaat","bezettingsgraad":50,"latitude":45.1500997,"longitude":9.64204263,"canPickup":true,"canDropoff":true,"openingstijden":{"za":"00:01 - 23:59","zo":"00:01 - 23:59","ma":"00:01 - 23:59","di":"00:01 - 23:59","wo":"00:01 - 23:59","do":"00:01 - 23:59","vr":"00:01 - 23:59"}}},{"type":"Feature","geometry":{"type":"Point","coordinates":[9.633448,45.14901983]},"properties":{"type":"pakketpunt","locatieNaam":"Tabaccheria N. 1","straatNaam":"Via Risorgimento","straatNr":"15","vervoerder":"PosteItaliane","puntType":"servicepunt","bezettingsgraad":50,"latitude":45.14901983,"longitude":9.633448,"canPickup":true,"canDropoff":true,"openingstijden":{"za":"07:00 - 23:59","zo":"08:00 - 23:59","ma":"07:00 - 23:59","di":"07:00 - 23:59","wo":"gesloten","do":"07:00 - 23:59","vr":"07:00 - 23:59"}}},{"type":"Feature","geometry":{"type":"Point","coordinates":[9.63346401,45.14896865]},"properties":{"type":"pakketpunt","locatieNaam":"Al Semaforo","straatNaam":"VIA RISORGIMENTO","straatNr":"15","vervoerder":"DPD","puntType":"pickup_point","bezettingsgraad":50,"latitude":45.14896865,"longitude":9.63346401,"canPickup":true,"canDropoff":true,"openingstijden":{"ma":"07:00 - 23:00","di":"07:00 - 23:00","wo":"gesloten","do":"07:00 - 23:00","vr":"07:00 - 23:00","za":"07:00 - 23:00","zo":"08:00 - 23:00"}}},{"type":"Feature","geometry":{"type":"Point","coordinates":[9.65994,45.16751]},"properties":{"type":"pakketpunt","locatieNaam":"InPost Locker 24/7","straatNaam":"Ss. 9","straatNr":"Km. 276+370","vervoerder":"InPost","puntType":"automaat","bezettingsgraad":50,"latitude":45.16751,"longitude":9.65994,"canPickup":true,"canDropoff":true,"openingstijden":null}},{"type":"Feature","geometry":{"type":"Point","coordinates":[9.64206,45.15022]},"properties":{"type":"pakketpunt","locatieNaam":"InPost Locker 24/7","straatNaam":"SP 126","straatNr":"Km. 6+436","vervoerder":"InPost","puntType":"automaat","bezettingsgraad":50,"latitude":45.15022,"longitude":9.64206,"canPickup":true,"canDropoff":true,"openingstijden":null}},{"type":"Feature","geometry":{"type":"Point","coordinates":[9.63341,45.14893]},"properties":{"type":"pakketpunt","locatieNaam":"InPost Locker 24/7","straatNaam":"Via Risorgimento","straatNr":"15","vervoerder":"InPost","puntType":"automaat","bezettingsgraad":50,"latitude":45.14893,"longitude":9.63341,"canPickup":true,"canDropoff":true,"openingstijden":null}},{"type":"Feature","geometry":{"type":"Point","coordinates":[9.633405,45.1489346]},"properties":{"type":"pakketpunt","locatieNaam":"Bar trattoria pizzeria tabaccheria al semaforo","straatNaam":"Via Risorgimento","straatNr":"15","vervoerder":"GLS","puntType":"parcel_shop","bezettingsgraad":50,"latitude":45.1489346,"longitude":9.633405,"canPickup":true,"canDropoff":true,"openingstijden":"za: 07:00 - 23:30; zo: 08:00 - 23:30"}},{"type":"Feature","geometry":{"type":"Point","coordinates":[9.633448,45.14902]},"properties":{"type":"pakketpunt","locatieNaam":"TABACCHERIA N. 1","straatNaam":"VIA RISORGIMENTO 15","straatNr":"","vervoerder":"DHL","puntType":"parcelShop","bezettingsgraad":50,"latitude":45.14902,"longitude":9.633448,"canPickup":true,"canDropoff":true,"openingstijden":{"ma":"gesloten","di":"gesloten","wo":"gesloten","do":"07:00 - 23:59","vr":"07:00 - 23:59","za":"07:00 - 23:59","zo":"08:00 - 23:59"}}},{"type":"Feature","geometry":{"type":"Point","coordinates":[9.642043,45.1501]},"properties":{"type":"pakketpunt","locatieNaam":"STAZIONE DI SERVIZIO TAMOIL","straatNaam":"STRADA PROVINCIALE 126 SNC 1","straatNr":"","vervoerder":"DHL","puntType":"packStation","bezettingsgraad":50,"latitude":45.1501,"longitude":9.642043,"canPickup":true,"canDropoff":true,"openingstijden":{"ma":"00:01 - 23:59","di":"00:01 - 23:59","wo":"00:01 - 23:59","do":"00:01 - 23:59","vr":"00:01 - 23:59","za":"00:01 - 23:59","zo":"00:01 - 23:59"}}},{"type":"Feature","geometry":{"type":"Point","coordinates":[9.641767,45.150365]},"properties":{"type":"pakketpunt","locatieNaam":"Amazon Locker - minolfa","straatNaam":"Stazione Tamoil - PV 7226","straatNr":"","vervoerder":"Amazon","puntType":"locker","bezettingsgraad":50,"latitude":45.150365,"longitude":9.641767,"canPickup":true,"canDropoff":false,"openingstijden":null}},{"type":"Feature","geometry":{"type":"Point","coordinates":[9.633405,45.148935]},"properties":{"type":"pakketpunt","locatieNaam":"FedEx OnSite","straatNaam":"Via Risorgimento , 15","straatNr":"","vervoerder":"FedEx","puntType":"servicepunt","bezettingsgraad":50,"latitude":45.148935,"longitude":9.633405,"canPickup":true,"canDropoff":true,"openingstijden":{"ma":"07:00 - 23:30","di":"07:00 - 23:30","wo":"gesloten","do":"07:00 - 23:30","vr":"07:00 - 23:30","za":"07:00 - 23:30","zo":"08:00 - 23:30"}}},{"type":"Feature","geometry":{"type":"Polygon","coordinates":[[[9.5943111,45.1861484],[9.5945784,45.186156],[9.5986438,45.1871955],[9.6019723,45.1879197],[9.602091,45.1871097],[9.6026704,45.1861431],[9.6030755,45.1852552],[9.6041819,45.1836251],[9.604663,45.183148],[9.6048492,45.1829904],[9.6053006,45.1828245],[9.606114,45.1830506],[9.6070494,45.1827684],[9.6097472,45.1808151],[9.6097474,45.1812173],[9.6116505,45.187892],[9.6127352,45.1876705],[9.6126716,45.1872971],[9.6127014,45.1864285],[9.6135327,45.185369],[9.6146947,45.1842027],[9.6152447,45.1834166],[9.6157005,45.1835686],[9.6186312,45.1838527],[9.6194044,45.1811282],[9.6183019,45.1809819],[9.6185458,45.1801479],[9.6191433,45.1802347],[9.6194185,45.1796391],[9.6230219,45.1802181],[9.6231407,45.1800194],[9.6233381,45.1791632],[9.6231674,45.1789706],[9.6235811,45.1779601],[9.6237366,45.1779278],[9.6249894,45.178281],[9.6253182,45.1777976],[9.625831,45.1755309],[9.6255729,45.1755008],[9.6258296,45.1743922],[9.6260343,45.1743461],[9.6275985,45.174531],[9.6280422,45.1736554],[9.6281817,45.1736097],[9.6286968,45.1722881],[9.6290223,45.1718002],[9.6267599,45.1713311],[9.6266844,45.171552],[9.6253743,45.1713207],[9.6248259,45.1716477],[9.6235308,45.1701696],[9.6234465,45.16986],[9.6241891,45.1700141],[9.6244701,45.1697632],[9.6233372,45.1694865],[9.6228181,45.1687062],[9.6229995,45.1684958],[9.6234386,45.16764],[9.6248162,45.1661677],[9.624976,45.1661744],[9.6255673,45.1656495],[9.6258444,45.1656613],[9.6270021,45.1660621],[9.6281865,45.1657348],[9.6286768,45.165748],[9.6298939,45.1661748],[9.6307736,45.1666599],[9.6324397,45.1670443],[9.6327085,45.1671814],[9.6333162,45.1672673],[9.6344304,45.1679056],[9.6350251,45.1688841],[9.6350983,45.1688769],[9.6355512,45.1693684],[9.6371805,45.1684552],[9.6374436,45.168171],[9.6379211,45.1679001],[9.6399309,45.1670643],[9.6416757,45.1667931],[9.643102,45.166168],[9.6439107,45.1662952],[9.6441193,45.1662468],[9.6454046,45.1640904],[9.6458993,45.1630106],[9.646306,45.1630451],[9.6463627,45.16299],[9.6480662,45.1634869],[9.6496015,45.164585],[9.6532563,45.1654618],[9.6536767,45.1646158],[9.653768,45.1646039],[9.6566097,45.1656543],[9.6571427,45.1659483],[9.6571251,45.1660789],[9.6574158,45.1664598],[9.6577224,45.166566],[9.6583068,45.1664861],[9.6585231,45.1660708],[9.6587482,45.166137],[9.6591488,45.1665353],[9.6590909,45.1667517],[9.658654,45.1672133],[9.6581372,45.1674998],[9.6583169,45.1677688],[9.6587747,45.1681577],[9.6595952,45.1686662],[9.6605259,45.1659157],[9.6609768,45.1648709],[9.6589232,45.1642756],[9.6588472,45.1640503],[9.6586372,45.1639467],[9.6587287,45.1635238],[9.658599,45.1631793],[9.6579769,45.1623032],[9.6580723,45.1619769],[9.6582384,45.1617078],[9.6585747,45.1614029],[9.6599032,45.1616446],[9.6614894,45.1595592],[9.661764,45.1592858],[9.6621299,45.1590936],[9.6626633,45.158361],[9.662932,45.1581761],[9.6631834,45.1582902],[9.6637226,45.1583346],[9.6639975,45.158499],[9.6642085,45.1584636],[9.6641994,45.1581723],[9.663685,45.157748],[9.6636627,45.1576142],[9.6640335,45.1572899],[9.6643655,45.1573706],[9.6646315,45.1572968],[9.6649239,45.156985],[9.6648414,45.1568701],[9.6645044,45.1567678],[9.6644705,45.1566228],[9.6649896,45.1561073],[9.6649675,45.1555219],[9.665246,45.1552691],[9.6657373,45.1545042],[9.6660389,45.1537895],[9.6660042,45.1532906],[9.66683,45.1531891],[9.6670836,45.1530749],[9.6670506,45.1529315],[9.6662472,45.1528859],[9.6666021,45.1524173],[9.6672949,45.1520378],[9.6670918,45.1516291],[9.6671233,45.1515584],[9.6676401,45.1512511],[9.6677484,45.1509437],[9.6681689,45.150785],[9.6683594,45.1504547],[9.6691198,45.150333],[9.6702945,45.1500128],[9.6700667,45.1494745],[9.6708264,45.1490692],[9.6706188,45.148938],[9.6705409,45.1487678],[9.6702542,45.1486182],[9.6699657,45.1488741],[9.6695788,45.1490463],[9.6694827,45.1490122],[9.6698935,45.1485277],[9.6698219,45.1477871],[9.6703048,45.1480438],[9.6709569,45.1476892],[9.6700619,45.1471876],[9.6703414,45.1467519],[9.6703043,45.1463003],[9.6703806,45.1461366],[9.6705136,45.1460678],[9.6713581,45.1458146],[9.6714334,45.1457331],[9.671393,45.1455353],[9.6709985,45.1449841],[9.671056,45.1448667],[9.6712637,45.1448074],[9.6718113,45.1449438],[9.6719433,45.1448795],[9.6719734,45.1443072],[9.6724578,45.1434788],[9.6731251,45.1420303],[9.6731621,45.141824],[9.6730346,45.1414245],[9.6704374,45.1415371],[9.670629,45.1407963],[9.6708123,45.1407947],[9.6708355,45.1402683],[9.6707868,45.1390205],[9.6706017,45.1383791],[9.6703957,45.1381055],[9.6703665,45.1362565],[9.67039,45.1351871],[9.6705439,45.1346388],[9.670793,45.1324051],[9.6705342,45.1316502],[9.6704958,45.1312329],[9.6697769,45.1286501],[9.6697639,45.1283691],[9.6700373,45.1283737],[9.670603,45.1289559],[9.6707612,45.1288336],[9.6706718,45.1284457],[9.670756,45.1284056],[9.6713995,45.1285803],[9.6717796,45.128774],[9.6720066,45.1290006],[9.6724346,45.1288266],[9.6726794,45.1288195],[9.6729785,45.1292072],[9.6731522,45.1292758],[9.6736444,45.1290154],[9.6747732,45.1291466],[9.6755775,45.1288435],[9.6757716,45.1288814],[9.6758657,45.1290157],[9.6758938,45.129135],[9.6756239,45.1293258],[9.6757587,45.1294062],[9.6773463,45.1289644],[9.6775358,45.129019],[9.6773462,45.1292601],[9.6773379,45.1293955],[9.6774059,45.1294409],[9.6778144,45.1292548],[9.6782501,45.1287758],[9.6788184,45.1285625],[9.6788968,45.128442],[9.6786457,45.1283129],[9.6783967,45.1283639],[9.6782361,45.1282254],[9.6782494,45.1281353],[9.678478,45.1279809],[9.6785018,45.1278412],[9.6783286,45.1273111],[9.6782201,45.1272758],[9.6776513,45.1276977],[9.6775062,45.1276581],[9.6774946,45.1274826],[9.6782312,45.1267401],[9.6787146,45.1264852],[9.6794977,45.126305],[9.6800775,45.1262791],[9.6802119,45.1264853],[9.6803765,45.1265608],[9.6809028,45.1264452],[9.6809887,45.1260893],[9.6815356,45.1259213],[9.6815133,45.1256051],[9.681747,45.1254096],[9.681825,45.1252554],[9.6817902,45.1249384],[9.6819599,45.1248322],[9.6823444,45.1248314],[9.6825652,45.1249672],[9.6829301,45.1250295],[9.6829853,45.1244749],[9.6831647,45.1244126],[9.6836405,45.1246297],[9.6840525,45.1245482],[9.6837818,45.1241963],[9.6838827,45.124002],[9.6838943,45.1236159],[9.6837451,45.123472],[9.6834612,45.1234579],[9.6832371,45.1233102],[9.6832786,45.1230798],[9.6836416,45.1226827],[9.6839917,45.1226154],[9.6845889,45.122789],[9.6845846,45.1229028],[9.684223,45.1231174],[9.6848367,45.1231861],[9.6848457,45.1233427],[9.6844847,45.1234359],[9.68437,45.1235828],[9.6844376,45.1236195],[9.6846276,45.1236457],[9.6849377,45.1235038],[9.6852696,45.1230233],[9.6857727,45.1231589],[9.6858378,45.1233691],[9.6859813,45.1233987],[9.6860248,45.1230075],[9.6861938,45.1226472],[9.6862782,45.1222125],[9.6868175,45.1185588],[9.6870352,45.1182542],[9.6871021,45.1178567],[9.6869713,45.1173034],[9.6867663,45.1170391],[9.6867991,45.1169826],[9.6866685,45.116841],[9.6858436,45.1172061],[9.6842306,45.1172995],[9.6810042,45.1168778],[9.6810206,45.1165745],[9.6809154,45.1162083],[9.6801483,45.1152183],[9.6779702,45.1166839],[9.6639951,45.1152116],[9.6629911,45.1151611],[9.6621678,45.1152644],[9.6617127,45.1154288],[9.6609933,45.1159324],[9.6570326,45.1210736],[9.6553558,45.1223491],[9.6479881,45.1275222],[9.6475636,45.1274176],[9.6468338,45.1275755],[9.6438105,45.127667],[9.6420959,45.1276268],[9.6410606,45.1275705],[9.6406243,45.1274072],[9.6401186,45.1274234],[9.6394874,45.1272801],[9.6392488,45.1275763],[9.6363575,45.1266784],[9.6337989,45.1289226],[9.6353786,45.1301436],[9.6351341,45.1315912],[9.6349808,45.131761],[9.6335045,45.1321551],[9.6335466,45.1325104],[9.6333614,45.1329056],[9.6332839,45.1329136],[9.6332519,45.1332516],[9.6328387,45.1337802],[9.6328605,45.1341494],[9.6327433,45.1347266],[9.6322478,45.135513],[9.632338,45.1361026],[9.6320197,45.1372236],[9.6321064,45.1372623],[9.6320046,45.1379496],[9.6300313,45.1382803],[9.6299308,45.1383968],[9.6299517,45.1386329],[9.6297653,45.1391211],[9.6278158,45.1385279],[9.6247156,45.137434],[9.6242869,45.1373042],[9.6237241,45.137285],[9.6234154,45.1373566],[9.6231211,45.1375823],[9.6230121,45.1388391],[9.6228751,45.1393161],[9.6225295,45.1398557],[9.6252109,45.1406391],[9.6235568,45.1419476],[9.6252034,45.1423455],[9.6250027,45.1428306],[9.6239844,45.1442004],[9.6244141,45.144459],[9.6243669,45.1448243],[9.6245029,45.1449082],[9.6247129,45.1448466],[9.6250993,45.1449742],[9.6255641,45.1452951],[9.6256517,45.1454377],[9.6256213,45.1456135],[9.6254612,45.1457287],[9.6255168,45.1458517],[9.6266663,45.1461811],[9.6269155,45.1464427],[9.6275686,45.1464682],[9.6289726,45.1462214],[9.6296669,45.1464792],[9.6321717,45.1467701],[9.6313098,45.1490524],[9.6278138,45.1488902],[9.6258426,45.1540661],[9.6249616,45.1558868],[9.6226136,45.1554904],[9.6215372,45.1579653],[9.623385,45.1584715],[9.6234839,45.1586478],[9.6238881,45.1587352],[9.6237207,45.1592843],[9.6236771,45.1597821],[9.6224789,45.1594546],[9.6217222,45.1604814],[9.6188519,45.1596885],[9.6185484,45.1597796],[9.6183475,45.159884],[9.6184444,45.1600437],[9.618374,45.1602353],[9.6179902,45.1605998],[9.6177076,45.1610202],[9.6169494,45.1616707],[9.6164108,45.1624171],[9.6164568,45.16268],[9.6163691,45.1628224],[9.616,45.1627937],[9.6154529,45.1631807],[9.6150577,45.163232],[9.6146047,45.1634347],[9.6142087,45.163264],[9.613937,45.163474],[9.6136929,45.1634716],[9.6134511,45.1635743],[9.6132162,45.1635215],[9.6120977,45.1636452],[9.6118264,45.1639045],[9.6113634,45.1639935],[9.6111671,45.1642492],[9.6107836,45.1643598],[9.6107158,45.1646542],[9.6104109,45.1647961],[9.6103628,45.1650333],[9.6098403,45.1653604],[9.6093718,45.1654811],[9.6092028,45.1658749],[9.6088564,45.1660993],[9.6086694,45.1664579],[9.6081567,45.1666466],[9.6079987,45.1671342],[9.6072873,45.1677626],[9.6071842,45.1680683],[9.6070498,45.1681459],[9.6069521,45.1683654],[9.6066953,45.1685132],[9.6064709,45.168968],[9.6062552,45.1690212],[9.605995,45.1692913],[9.6059895,45.1695238],[9.6057461,45.1698403],[9.6055506,45.1699557],[9.6055071,45.1700751],[9.6055926,45.1701726],[9.6052782,45.1703741],[9.6052138,45.1706931],[9.6050459,45.1708419],[9.6054037,45.1714158],[9.6057036,45.1715582],[9.6056347,45.1717346],[9.6060767,45.1717957],[9.6063081,45.1720692],[9.6063965,45.1723841],[9.6063564,45.1725878],[9.6069088,45.1728311],[9.6065561,45.1731257],[9.6062997,45.1737622],[9.6063367,45.1739395],[9.6062627,45.174112],[9.6057142,45.1741398],[9.605014,45.1740157],[9.6041857,45.1742008],[9.603962,45.1743781],[9.603838,45.1746816],[9.6035075,45.1750542],[9.6034037,45.1757277],[9.6025703,45.1761083],[9.6021603,45.1761444],[9.6013826,45.1763929],[9.5992189,45.1765332],[9.5972658,45.1770346],[9.5967082,45.177022],[9.5965005,45.1772661],[9.5961393,45.1780159],[9.5957765,45.1783796],[9.5957812,45.179072],[9.5960206,45.1797635],[9.596217,45.1799487],[9.5961474,45.1803019],[9.5953789,45.1820227],[9.5945668,45.1828946],[9.5941036,45.1835466],[9.5938966,45.1840028],[9.593828,45.1845011],[9.594002,45.1852693],[9.5942908,45.1857669],[9.5943111,45.1861484]]]},"properties":{"type":"boundary","gemeente":"Somaglia"}}]}