{"type":"FeatureCollection","metadata":{"gemeente":"Specchia","slug":"specchia","generated_at":"2026-09-26T14:28:05.048541Z","total_points":15,"providers":["PosteItaliane","InPost","GLS","DHL","Amazon","FedEx"],"bounds":[18.294094,39.93735,18.30519,39.943624]},"features":[{"type":"Feature","geometry":{"type":"Point","coordinates":[18.30142725,39.93861687]},"properties":{"type":"pakketpunt","locatieNaam":"Tabaccheria N. 3","straatNaam":"Via Lucrezia Amendolara","straatNr":"53","vervoerder":"PosteItaliane","puntType":"servicepunt","bezettingsgraad":50,"latitude":39.93861687,"longitude":18.30142725,"canPickup":true,"canDropoff":true,"openingstijden":{"za":"08:00 - 13:00, 15:30 - 20:00","zo":"gesloten","ma":"08:00 - 13:00, 15:30 - 20:00","di":"08:00 - 13:00, 15:30 - 20:00","wo":"08:00 - 13:00, 15:30 - 20:00","do":"08:00 - 13:00, 15:30 - 20:00","vr":"08:00 - 13:00, 15:30 - 20:00"}}},{"type":"Feature","geometry":{"type":"Point","coordinates":[18.29703046,39.9406964]},"properties":{"type":"pakketpunt","locatieNaam":"Specchia","straatNaam":"Via San Giovanni Bosco","straatNr":"2","vervoerder":"PosteItaliane","puntType":"postkantoor","bezettingsgraad":50,"latitude":39.9406964,"longitude":18.29703046,"canPickup":true,"canDropoff":true,"openingstijden":{"za":"08:20 - 12:35","zo":"gesloten","ma":"08:20 - 13:35","di":"08:20 - 13:35","wo":"08:20 - 13:35","do":"08:20 - 13:35","vr":"08:20 - 13:35"}}},{"type":"Feature","geometry":{"type":"Point","coordinates":[18.2999811,39.94172488]},"properties":{"type":"pakketpunt","locatieNaam":"Tabaccheria N. 1","straatNaam":"Piazza Del Popolo","straatNr":"28","vervoerder":"PosteItaliane","puntType":"servicepunt","bezettingsgraad":50,"latitude":39.94172488,"longitude":18.2999811,"canPickup":true,"canDropoff":true,"openingstijden":{"za":"07:00 - 13:00, 15:30 - 20:30","zo":"gesloten","ma":"07:00 - 13:00, 15:30 - 20:30","di":"07:00 - 13:00, 15:30 - 20:30","wo":"07:00 - 13:00, 15:30 - 20:30","do":"07:00 - 13:00, 15:30 - 20:30","vr":"07:00 - 13:00, 15:30 - 20:30"}}},{"type":"Feature","geometry":{"type":"Point","coordinates":[18.29856808,39.93745854]},"properties":{"type":"pakketpunt","locatieNaam":"Tabaccheria N. 2","straatNaam":"Via Alcide De Gasperi","straatNr":"10","vervoerder":"PosteItaliane","puntType":"servicepunt","bezettingsgraad":50,"latitude":39.93745854,"longitude":18.29856808,"canPickup":true,"canDropoff":true,"openingstijden":{"za":"07:45 - 12:45, 16:30 - 20:00","zo":"gesloten","ma":"07:45 - 12:45, 16:30 - 20:00","di":"07:45 - 12:45, 16:30 - 20:00","wo":"07:45 - 12:45, 16:30 - 20:00","do":"07:45 - 12:45, 16:30 - 20:00","vr":"07:45 - 12:45, 16:30 - 20:00"}}},{"type":"Feature","geometry":{"type":"Point","coordinates":[18.30519,39.93735]},"properties":{"type":"pakketpunt","locatieNaam":"InPost Locker 24/7","straatNaam":"Via Per Tricase","straatNr":"snc","vervoerder":"InPost","puntType":"automaat","bezettingsgraad":50,"latitude":39.93735,"longitude":18.30519,"canPickup":true,"canDropoff":true,"openingstijden":null}},{"type":"Feature","geometry":{"type":"Point","coordinates":[18.2975095,39.9375838]},"properties":{"type":"pakketpunt","locatieNaam":"EDICOLA CARTOLERIA","straatNaam":"Via Salvatore Moro","straatNr":"10","vervoerder":"GLS","puntType":"parcel_shop","bezettingsgraad":50,"latitude":39.9375838,"longitude":18.2975095,"canPickup":true,"canDropoff":true,"openingstijden":"za: 07:30 - 13:00, 16:30 - 20:30; zo: 08:00 - 13:00"}},{"type":"Feature","geometry":{"type":"Point","coordinates":[18.2971542,39.9377015]},"properties":{"type":"pakketpunt","locatieNaam":"Office 4.0","straatNaam":"Via Roma","straatNr":"73","vervoerder":"GLS","puntType":"parcel_shop","bezettingsgraad":50,"latitude":39.9377015,"longitude":18.2971542,"canPickup":true,"canDropoff":true,"openingstijden":"za: 09:00 - 12:30; ma: 09:00 - 12:30, 17:00 - 19:30"}},{"type":"Feature","geometry":{"type":"Point","coordinates":[18.301427,39.938617]},"properties":{"type":"pakketpunt","locatieNaam":"TABACCHERIA N. 3","straatNaam":"VIA LUCREZIA AMENDOLARA 53","straatNr":"","vervoerder":"DHL","puntType":"parcelShop","bezettingsgraad":50,"latitude":39.938617,"longitude":18.301427,"canPickup":true,"canDropoff":true,"openingstijden":{"ma":"08:00 - 13:00, 15:30 - 20:00","di":"08:00 - 13:00, 15:30 - 20:00","wo":"08:00 - 13:00, 15:30 - 20:00","do":"08:00 - 13:00, 15:30 - 20:00","vr":"08:00 - 13:00, 15:30 - 20:00","za":"08:00 - 13:00, 15:30 - 20:00","zo":"gesloten"}}},{"type":"Feature","geometry":{"type":"Point","coordinates":[18.298568,39.937459]},"properties":{"type":"pakketpunt","locatieNaam":"TABACCHERIA N. 2","straatNaam":"VIA ALCIDE DE GASPERI 10","straatNr":"","vervoerder":"DHL","puntType":"parcelShop","bezettingsgraad":50,"latitude":39.937459,"longitude":18.298568,"canPickup":true,"canDropoff":true,"openingstijden":{"ma":"07:45 - 12:45, 16:30 - 20:00","di":"07:45 - 12:45, 16:30 - 20:00","wo":"07:45 - 12:45, 16:30 - 20:00","do":"07:45 - 12:45, 16:30 - 20:00","vr":"07:45 - 12:45, 16:30 - 20:00","za":"07:45 - 12:45, 16:30 - 20:00","zo":"gesloten"}}},{"type":"Feature","geometry":{"type":"Point","coordinates":[18.299981,39.941725]},"properties":{"type":"pakketpunt","locatieNaam":"TABACCHERIA N. 1","straatNaam":"PIAZZA DEL POPOLO 28","straatNr":"","vervoerder":"DHL","puntType":"parcelShop","bezettingsgraad":50,"latitude":39.941725,"longitude":18.299981,"canPickup":true,"canDropoff":true,"openingstijden":{"ma":"07:00 - 13:00, 15:30 - 20:30","di":"07:00 - 13:00, 15:30 - 20:30","wo":"07:00 - 13:00, 15:30 - 20:30","do":"07:00 - 13:00, 15:30 - 20:30","vr":"07:00 - 13:00, 15:30 - 20:30","za":"07:00 - 13:00, 15:30 - 20:30","zo":"gesloten"}}},{"type":"Feature","geometry":{"type":"Point","coordinates":[18.29703,39.940696]},"properties":{"type":"pakketpunt","locatieNaam":"Ufficio Postale SPECCHIA","straatNaam":"VIA SAN GIOVANNI BOSCO 2","straatNr":"","vervoerder":"DHL","puntType":"postOffice","bezettingsgraad":50,"latitude":39.940696,"longitude":18.29703,"canPickup":true,"canDropoff":true,"openingstijden":{"ma":"08:20 - 13:35","di":"08:20 - 13:35","wo":"08:20 - 13:35","do":"08:20 - 13:35","vr":"08:20 - 13:35","za":"08:20 - 12:35","zo":"gesloten"}}},{"type":"Feature","geometry":{"type":"Point","coordinates":[18.299579,39.941543]},"properties":{"type":"pakketpunt","locatieNaam":"Amazon Counter - TABACCHERIA DEL CENTRO","straatNaam":"PIAZZA DEL POPOLO 28","straatNr":"","vervoerder":"Amazon","puntType":"helix","bezettingsgraad":50,"latitude":39.941543,"longitude":18.299579,"canPickup":true,"canDropoff":false,"openingstijden":null}},{"type":"Feature","geometry":{"type":"Point","coordinates":[18.294094,39.943624]},"properties":{"type":"pakketpunt","locatieNaam":"Amazon Counter - Gianfranco Chezzi RGM","straatNaam":"Corso Italia, 253","straatNr":"","vervoerder":"Amazon","puntType":"helix","bezettingsgraad":50,"latitude":39.943624,"longitude":18.294094,"canPickup":true,"canDropoff":false,"openingstijden":null}},{"type":"Feature","geometry":{"type":"Point","coordinates":[18.29751,39.937584]},"properties":{"type":"pakketpunt","locatieNaam":"FedEx OnSite","straatNaam":"VIA SALVATORE MORO, 10","straatNr":"","vervoerder":"FedEx","puntType":"servicepunt","bezettingsgraad":50,"latitude":39.937584,"longitude":18.29751,"canPickup":true,"canDropoff":true,"openingstijden":{"ma":"07:30 - 13:00, 17:00 - 20:30","di":"07:30 - 13:00, 16:30 - 20:30","wo":"07:30 - 13:00, 17:00 - 20:30","do":"07:30 - 13:00, 16:30 - 20:30","vr":"07:30 - 13:00, 17:00 - 20:30","za":"07:30 - 13:00, 16:30 - 20:30","zo":"08:00 - 13:00"}}},{"type":"Feature","geometry":{"type":"Point","coordinates":[18.297131423186617,39.937666951964765]},"properties":{"type":"pakketpunt","locatieNaam":"FedEx OnSite","straatNaam":"Via Roma, 73","straatNr":"","vervoerder":"FedEx","puntType":"servicepunt","bezettingsgraad":50,"latitude":39.937666951964765,"longitude":18.297131423186617,"canPickup":true,"canDropoff":true,"openingstijden":{"ma":"09:00 - 12:30, 17:00 - 19:30","di":"09:00 - 12:30, 17:00 - 19:30","wo":"09:00 - 12:30, 17:00 - 19:30","do":"09:00 - 12:30, 17:00 - 19:30","vr":"09:00 - 12:30, 17:00 - 19:30","za":"09:00 - 12:30","zo":"gesloten"}}},{"type":"Feature","geometry":{"type":"Polygon","coordinates":[[[18.2574094,39.9305728],[18.257481,39.9290403],[18.2576899,39.9284564],[18.2588665,39.9286996],[18.2609978,39.929535],[18.2632527,39.9301469],[18.2651598,39.9308606],[18.2657544,39.9313633],[18.2659685,39.9318605],[18.2676742,39.9323549],[18.2675729,39.9318123],[18.2679664,39.9318184],[18.268226,39.9314081],[18.269855,39.9314925],[18.2688449,39.9300171],[18.2692586,39.9293486],[18.2691721,39.928365],[18.2698724,39.9283107],[18.2696993,39.9278702],[18.2700691,39.9278219],[18.2700849,39.9274176],[18.2705885,39.9274176],[18.2705897,39.9268945],[18.2708258,39.9262789],[18.2708494,39.9256815],[18.2707156,39.9256694],[18.2708179,39.9247039],[18.2734856,39.9253194],[18.2737846,39.9253194],[18.2738319,39.9248849],[18.2736115,39.9238831],[18.2743198,39.9238348],[18.2741021,39.9231583],[18.2740671,39.9225416],[18.2747734,39.9226549],[18.2749178,39.9220364],[18.2747762,39.9220364],[18.2750988,39.9209561],[18.274965,39.9209018],[18.2753835,39.919884],[18.2762152,39.9200761],[18.2770554,39.9201102],[18.2771222,39.9198243],[18.2781794,39.9197347],[18.2795936,39.9197357],[18.2793904,39.9191612],[18.2797782,39.919117],[18.2796524,39.9188799],[18.2797206,39.9187995],[18.2790393,39.9176781],[18.279186,39.9176419],[18.2790602,39.9173565],[18.2794533,39.9171877],[18.280166,39.9171274],[18.2802027,39.9172118],[18.2810202,39.917043],[18.2809836,39.9169104],[18.2825475,39.9165435],[18.2824295,39.9157502],[18.2821085,39.9151959],[18.2838673,39.9149999],[18.2863724,39.9144542],[18.2863798,39.9143462],[18.2887885,39.9143689],[18.2898948,39.9145417],[18.2931749,39.9148276],[18.2930822,39.9152282],[18.2936529,39.9152509],[18.295024,39.9164219],[18.2952834,39.9163196],[18.2953427,39.916007],[18.2981516,39.9163423],[18.2988557,39.9163537],[18.2990187,39.9158364],[18.2996857,39.916007],[18.2993967,39.9169222],[18.3002416,39.9169563],[18.3011588,39.9167611],[18.301709,39.9170188],[18.3027244,39.9169676],[18.3028207,39.9171552],[18.3034359,39.9170643],[18.3045402,39.9178942],[18.3049923,39.9174849],[18.3054962,39.9164702],[18.3060966,39.9157682],[18.3067944,39.9151138],[18.3102988,39.9165186],[18.3105033,39.9162048],[18.312156,39.9167278],[18.3131492,39.9150111],[18.3147144,39.9155918],[18.3147018,39.9157501],[18.315354,39.9159263],[18.3198157,39.9176486],[18.3217209,39.918199],[18.3200273,39.9212561],[18.3200099,39.9215168],[18.3202323,39.9217839],[18.3200248,39.9220056],[18.3201804,39.9223239],[18.3198839,39.9226933],[18.318876,39.9221761],[18.3182164,39.9229662],[18.3191947,39.9236312],[18.3197061,39.9233015],[18.3200025,39.923472],[18.3203212,39.9230855],[18.320714,39.9232901],[18.3201238,39.9244256],[18.3210024,39.9244737],[18.3207687,39.9251095],[18.3202234,39.9249047],[18.319155,39.9263939],[18.3192886,39.9265433],[18.3191662,39.9266201],[18.3189492,39.9264537],[18.3183593,39.9268548],[18.3184094,39.9269273],[18.3145811,39.9294065],[18.3143752,39.9293596],[18.3138466,39.9294577],[18.3133743,39.9294029],[18.3125986,39.9307667],[18.3119688,39.9306877],[18.311644,39.931257],[18.3111945,39.9311715],[18.3108551,39.9316797],[18.3103446,39.9314913],[18.3085465,39.9333076],[18.3094907,39.9339821],[18.3101165,39.9338201],[18.3108472,39.9339839],[18.31191,39.9343935],[18.3127055,39.9348286],[18.312945,39.9347903],[18.3135404,39.9350548],[18.3139187,39.9353833],[18.314192,39.93528],[18.3146978,39.9355967],[18.3143639,39.9360233],[18.314976,39.9365438],[18.3145475,39.9368468],[18.3142916,39.9371838],[18.3142415,39.9376019],[18.3140356,39.9378963],[18.3145308,39.9381907],[18.3147256,39.9381694],[18.3150706,39.9386173],[18.315476,39.9389425],[18.3155783,39.938852],[18.3173803,39.9401492],[18.3169583,39.9404506],[18.3176641,39.9409043],[18.3189147,39.9422552],[18.3203002,39.9439746],[18.3209061,39.9439023],[18.3220708,39.9440229],[18.3226291,39.9442692],[18.3225516,39.9458992],[18.3236626,39.9462263],[18.3251935,39.9465111],[18.3267075,39.9470492],[18.3260781,39.9480831],[18.3264274,39.9482009],[18.3263095,39.9483791],[18.3292008,39.9497428],[18.3302934,39.950553],[18.3296658,39.9507494],[18.3287767,39.9512515],[18.3283439,39.9517413],[18.3272136,39.9509953],[18.3264117,39.9507321],[18.3230952,39.9491277],[18.3231381,39.9495956],[18.3224948,39.9510919],[18.3212554,39.9504863],[18.3210297,39.9506411],[18.3210432,39.9507754],[18.3207983,39.9506603],[18.320156,39.9511143],[18.319661,39.9506945],[18.3193642,39.950951],[18.3190411,39.9510686],[18.3189671,39.9511822],[18.3190953,39.9513193],[18.3179537,39.952215],[18.3161368,39.9533577],[18.3158924,39.9534321],[18.3148812,39.9540401],[18.3132821,39.9529791],[18.3122402,39.9518125],[18.3115083,39.9524592],[18.3103254,39.9519755],[18.3083201,39.951528],[18.3083551,39.9529246],[18.3065881,39.9523672],[18.3054793,39.9543827],[18.304155,39.9555851],[18.3039455,39.9552063],[18.3039032,39.9552375],[18.3025881,39.9566394],[18.3023908,39.9569983],[18.3020988,39.9572904],[18.3013172,39.9585728],[18.3003177,39.9582355],[18.2994766,39.9595463],[18.2982157,39.959103],[18.2980705,39.9592412],[18.297812,39.9591714],[18.2973675,39.9600832],[18.2959469,39.9596333],[18.2950568,39.9594658],[18.2951187,39.9599218],[18.2946605,39.9610982],[18.294406,39.9615379],[18.2941342,39.9615823],[18.2939968,39.9620359],[18.2948158,39.96219],[18.2950132,39.96233],[18.2949494,39.9646193],[18.2948964,39.9647139],[18.2945769,39.9648379],[18.2944747,39.9650038],[18.2947321,39.9657136],[18.2947987,39.9663316],[18.2947501,39.9668205],[18.2934837,39.9667647],[18.2935404,39.9662951],[18.2936549,39.966284],[18.2937569,39.9659253],[18.292412,39.9656554],[18.2924648,39.9659287],[18.2923787,39.9661643],[18.292466,39.9661785],[18.2923761,39.9664114],[18.2924573,39.966448],[18.2925046,39.9666809],[18.2931037,39.9667612],[18.2929246,39.9674252],[18.292768,39.9676632],[18.2938022,39.9680655],[18.293313,39.9692787],[18.292834,39.9700589],[18.2924813,39.9704193],[18.2935148,39.9714405],[18.2938301,39.9721269],[18.2945015,39.9728418],[18.294924,39.9731686],[18.29458,39.9743787],[18.2941331,39.9752361],[18.2911941,39.9750961],[18.2889288,39.9746261],[18.2886897,39.9749368],[18.288251,39.9752828],[18.2877488,39.9760403],[18.2872089,39.9758932],[18.2867424,39.9776376],[18.286324,39.977715],[18.2863175,39.9767787],[18.2865267,39.9762648],[18.2863943,39.9755069],[18.2856511,39.9754254],[18.2857611,39.9751594],[18.2842461,39.9748001],[18.2829021,39.9742533],[18.2825634,39.9741836],[18.2824541,39.9742776],[18.28099,39.9735293],[18.281727,39.972636],[18.2823067,39.9713561],[18.2803487,39.9706135],[18.2763339,39.9688186],[18.2765297,39.968578],[18.2755742,39.9682039],[18.274772,39.9677796],[18.2749495,39.9674734],[18.2742121,39.96726],[18.2760538,39.9648226],[18.2708844,39.9624668],[18.2650329,39.9619983],[18.2633422,39.9628066],[18.2617588,39.9632452],[18.2611282,39.9636245],[18.260612,39.9636191],[18.260037,39.9633174],[18.2600843,39.9611897],[18.2600106,39.9609937],[18.2594076,39.9603756],[18.2592398,39.9600471],[18.259172,39.9588789],[18.2588217,39.9580233],[18.2587783,39.9570473],[18.2584196,39.9566277],[18.2580277,39.9557137],[18.2577681,39.9553557],[18.2575234,39.9542623],[18.257602,39.95349],[18.2574489,39.9529525],[18.2573866,39.9522949],[18.2575289,39.9506369],[18.2579079,39.9497569],[18.2587081,39.9486918],[18.2593323,39.946976],[18.2596463,39.9465935],[18.2603216,39.9461245],[18.2613717,39.944047],[18.2609817,39.9434472],[18.2601677,39.9426932],[18.2596113,39.9425654],[18.258764,39.942723],[18.2573615,39.9425149],[18.2574841,39.9419512],[18.2572692,39.941359],[18.2573014,39.9409605],[18.258426,39.940252],[18.2589299,39.9396902],[18.2591945,39.939027],[18.2581292,39.9387461],[18.2582346,39.9382603],[18.2573807,39.9380273],[18.2569249,39.9379938],[18.2568334,39.9363536],[18.2570974,39.9359182],[18.25718,39.9359442],[18.2573462,39.9358049],[18.2576644,39.9350624],[18.2575469,39.9347754],[18.2569609,39.9345206],[18.2568117,39.9339395],[18.2567683,39.9332809],[18.2568479,39.9326208],[18.2570809,39.932286],[18.2572007,39.9312951],[18.2574094,39.9305728]]]},"properties":{"type":"boundary","gemeente":"Specchia"}}]}