{"type":"FeatureCollection","metadata":{"gemeente":"Sperlonga","slug":"sperlonga","generated_at":"2026-09-26T13:10:45.398481Z","total_points":11,"providers":["PosteItaliane","DPD","DHL","Amazon"],"bounds":[13.42658,41.2572,13.436176,41.26547]},"features":[{"type":"Feature","geometry":{"type":"Point","coordinates":[13.43617562,41.25761233]},"properties":{"type":"pakketpunt","locatieNaam":"Sperlonga","straatNaam":"Piazza Europa","straatNr":"1","vervoerder":"PosteItaliane","puntType":"postkantoor","bezettingsgraad":50,"latitude":41.25761233,"longitude":13.43617562,"canPickup":true,"canDropoff":true,"openingstijden":{"za":"08:20 - 12:35","zo":"gesloten","ma":"08:20 - 13:35","di":"08:20 - 13:35","wo":"08:20 - 13:35","do":"08:20 - 13:35","vr":"08:20 - 13:35"}}},{"type":"Feature","geometry":{"type":"Point","coordinates":[13.4340885,41.25728081]},"properties":{"type":"pakketpunt","locatieNaam":"Tabaccheria N. 2","straatNaam":"Via Cristoforo Colombo","straatNr":"3","vervoerder":"PosteItaliane","puntType":"servicepunt","bezettingsgraad":50,"latitude":41.25728081,"longitude":13.4340885,"canPickup":true,"canDropoff":true,"openingstijden":{"za":"08:00 - 13:00, 16:00 - 20:00","zo":"08:00 - 13:00","ma":"gesloten","di":"08:00 - 13:00, 16:00 - 20:00","wo":"08:00 - 13:00, 16:00 - 20:00","do":"08:00 - 13:00, 16:00 - 20:00","vr":"08:00 - 13:00, 16:00 - 20:00"}}},{"type":"Feature","geometry":{"type":"Point","coordinates":[13.43180023,41.25823902]},"properties":{"type":"pakketpunt","locatieNaam":"Tabaccheria N. 4","straatNaam":"Via Cristoforo Colombo","straatNr":"222","vervoerder":"PosteItaliane","puntType":"servicepunt","bezettingsgraad":50,"latitude":41.25823902,"longitude":13.43180023,"canPickup":true,"canDropoff":true,"openingstijden":{"za":"08:00 - 13:00, 16:00 - 19:30","zo":"09:00 - 13:00, 16:00 - 19:00","ma":"08:00 - 13:00, 16:00 - 19:30","di":"08:00 - 13:00, 16:00 - 19:30","wo":"08:00 - 13:00, 16:00 - 19:30","do":"08:00 - 13:00, 16:00 - 19:30","vr":"08:00 - 13:00, 16:00 - 19:30"}}},{"type":"Feature","geometry":{"type":"Point","coordinates":[13.4317695,41.2583164]},"properties":{"type":"pakketpunt","locatieNaam":"Tabaccheria Cartoleria Smoke and Co","straatNaam":"VIA CRISTOFORO COLOMBO","straatNr":"222","vervoerder":"DPD","puntType":"pickup_point","bezettingsgraad":50,"latitude":41.2583164,"longitude":13.4317695,"canPickup":true,"canDropoff":true,"openingstijden":{"ma":"08:00 - 13:15, 16:00 - 23:00","di":"08:00 - 13:15, 16:00 - 23:00","wo":"08:00 - 13:15, 16:00 - 23:00","do":"08:00 - 13:15, 16:00 - 23:00","vr":"08:00 - 13:15, 16:00 - 23:00","za":"08:00 - 13:15, 16:00 - 23:00","zo":"08:00 - 13:15, 16:00 - 23:00"}}},{"type":"Feature","geometry":{"type":"Point","coordinates":[13.4318,41.258239]},"properties":{"type":"pakketpunt","locatieNaam":"TABACCHERIA N. 4","straatNaam":"VIA CRISTOFORO COLOMBO 222","straatNr":"","vervoerder":"DHL","puntType":"parcelShop","bezettingsgraad":50,"latitude":41.258239,"longitude":13.4318,"canPickup":true,"canDropoff":true,"openingstijden":{"ma":"08:00 - 13:00, 16:00 - 19:30","di":"08:00 - 13:00, 16:00 - 19:30","wo":"08:00 - 13:00, 16:00 - 19:30","do":"08:00 - 13:00, 16:00 - 19:30","vr":"08:00 - 13:00, 16:00 - 19:30","za":"08:00 - 13:00, 16:00 - 19:30","zo":"09:00 - 13:00, 16:00 - 19:00"}}},{"type":"Feature","geometry":{"type":"Point","coordinates":[13.434089,41.257281]},"properties":{"type":"pakketpunt","locatieNaam":"TABACCHERIA N. 2","straatNaam":"VIA CRISTOFORO COLOMBO 3","straatNr":"","vervoerder":"DHL","puntType":"parcelShop","bezettingsgraad":50,"latitude":41.257281,"longitude":13.434089,"canPickup":true,"canDropoff":true,"openingstijden":{"ma":"gesloten","di":"08:00 - 13:00, 16:00 - 20:00","wo":"08:00 - 13:00, 16:00 - 20:00","do":"08:00 - 13:00, 16:00 - 20:00","vr":"08:00 - 13:00, 16:00 - 20:00","za":"08:00 - 13:00, 16:00 - 20:00","zo":"08:00 - 13:00"}}},{"type":"Feature","geometry":{"type":"Point","coordinates":[13.436176,41.257612]},"properties":{"type":"pakketpunt","locatieNaam":"Ufficio Postale SPERLONGA","straatNaam":"PIAZZA EUROPA 1","straatNr":"","vervoerder":"DHL","puntType":"postOffice","bezettingsgraad":50,"latitude":41.257612,"longitude":13.436176,"canPickup":true,"canDropoff":true,"openingstijden":{"ma":"08:20 - 13:35","di":"08:20 - 13:35","wo":"08:20 - 13:35","do":"08:20 - 13:35","vr":"08:20 - 13:35","za":"08:20 - 12:35","zo":"gesloten"}}},{"type":"Feature","geometry":{"type":"Point","coordinates":[13.4317695,41.2583164]},"properties":{"type":"pakketpunt","locatieNaam":"Amazon Counter","straatNaam":"Tabaccheria Smoke and Colors (fermopoint)","straatNr":"","vervoerder":"Amazon","puntType":"helix","bezettingsgraad":50,"latitude":41.2583164,"longitude":13.4317695,"canPickup":true,"canDropoff":false,"openingstijden":null}},{"type":"Feature","geometry":{"type":"Point","coordinates":[13.4361,41.2576]},"properties":{"type":"pakketpunt","locatieNaam":"Ufficio Postale SPERLONGA","straatNaam":"PIAZZA EUROPA 1","straatNr":"","vervoerder":"Amazon","puntType":"3p","bezettingsgraad":50,"latitude":41.2576,"longitude":13.4361,"canPickup":true,"canDropoff":false,"openingstijden":null}},{"type":"Feature","geometry":{"type":"Point","coordinates":[13.42658,41.26547]},"properties":{"type":"pakketpunt","locatieNaam":"Amazon Counter - PRIMAEDICOLA","straatNaam":"SFP DI PETRONIO S.F.& C.","straatNr":"","vervoerder":"Amazon","puntType":"helix","bezettingsgraad":50,"latitude":41.26547,"longitude":13.42658,"canPickup":true,"canDropoff":false,"openingstijden":null}},{"type":"Feature","geometry":{"type":"Point","coordinates":[13.434,41.2572]},"properties":{"type":"pakketpunt","locatieNaam":"PuntoPoste TABACCHERIA N. 2","straatNaam":"VIA CRISTOFORO COLOMBO 3","straatNr":"","vervoerder":"Amazon","puntType":"3p","bezettingsgraad":50,"latitude":41.2572,"longitude":13.434,"canPickup":true,"canDropoff":false,"openingstijden":null}},{"type":"Feature","geometry":{"type":"Polygon","coordinates":[[[13.3960451,41.2736503],[13.4022232,41.2712084],[13.403449,41.2705284],[13.4030676,41.2698109],[13.4030955,41.2697459],[13.4032209,41.2697355],[13.4037226,41.2707451],[13.4040124,41.2707514],[13.4040598,41.2706739],[13.4037393,41.2699114],[13.4037895,41.2698528],[13.4039678,41.2699198],[13.4041072,41.2703325],[13.4045113,41.2703429],[13.4067388,41.2696723],[13.4075557,41.2692998],[13.4087397,41.2689553],[13.4090671,41.2687011],[13.4104311,41.268332],[13.4109386,41.2680244],[13.4184545,41.2646037],[13.4239433,41.2618324],[13.4278186,41.259746],[13.4279933,41.2595738],[13.4288605,41.2591912],[13.4328118,41.2567591],[13.4337194,41.2560187],[13.4336557,41.2559259],[13.433717,41.2558616],[13.4337059,41.255569],[13.4335412,41.2553667],[13.4335194,41.2551122],[13.4337744,41.2547141],[13.4336462,41.2544986],[13.4334037,41.2543682],[13.433353,41.2541725],[13.4334289,41.2541113],[13.4337205,41.2541468],[13.4338007,41.2542332],[13.4338245,41.2541465],[13.4344447,41.2539469],[13.435635,41.2533078],[13.4358407,41.2530716],[13.4360597,41.2531367],[13.4360401,41.2534514],[13.4357396,41.2534928],[13.4344364,41.2542128],[13.4346074,41.2547706],[13.4348659,41.2549714],[13.4350879,41.2550544],[13.4354505,41.2547837],[13.4348222,41.2541328],[13.4354022,41.2537858],[13.4354738,41.2538666],[13.4348987,41.2541294],[13.4355511,41.2547853],[13.4363166,41.2543258],[13.4363148,41.2541154],[13.4360265,41.2538126],[13.4357397,41.2537676],[13.4357965,41.2536693],[13.4359527,41.2536366],[13.4362008,41.2537775],[13.4364909,41.2541201],[13.4364669,41.2543831],[13.4361392,41.2545942],[13.4364215,41.2547958],[13.4370853,41.2549935],[13.43859,41.2550005],[13.4402248,41.254571],[13.4422625,41.2538922],[13.4461736,41.2521602],[13.4473341,41.2514755],[13.4489874,41.2506494],[13.4490138,41.2505849],[13.4489208,41.250581],[13.4490866,41.2505292],[13.4489769,41.2503379],[13.4487261,41.2503144],[13.4497268,41.2495609],[13.4498355,41.2495735],[13.4498256,41.2496467],[13.4494723,41.2498652],[13.4498419,41.2500439],[13.4500886,41.2496608],[13.4500439,41.2494886],[13.4501047,41.2493009],[13.4502407,41.2492141],[13.4502188,41.2490539],[13.4506288,41.2490189],[13.4505901,41.2489405],[13.4509578,41.2487787],[13.4513124,41.2489572],[13.4513993,41.2488313],[13.4516894,41.2487418],[13.4519671,41.2489017],[13.4523129,41.2489469],[13.4594034,41.2449862],[13.460543,41.2440661],[13.4606298,41.2437963],[13.4605648,41.2434546],[13.4604312,41.2435078],[13.4602073,41.2431176],[13.4603131,41.2429208],[13.4604098,41.2429139],[13.4605109,41.2431168],[13.460702,41.2430468],[13.4607946,41.2429205],[13.4606667,41.2423458],[13.4609061,41.2423091],[13.4608472,41.2421051],[13.461233,41.2416446],[13.4612052,41.2415276],[13.461385,41.2415628],[13.4614965,41.2413456],[13.4611489,41.2406716],[13.4613716,41.2402824],[13.4618876,41.2402054],[13.4618274,41.2400387],[13.4620375,41.2399534],[13.4614946,41.2396269],[13.4614875,41.239454],[13.4617833,41.2396317],[13.46191,41.2396296],[13.4623649,41.239995],[13.4627089,41.2403883],[13.4627053,41.2404914],[13.4629787,41.2406041],[13.4632363,41.2406326],[13.4632193,41.240547],[13.4636297,41.2404612],[13.4637832,41.2402149],[13.4639363,41.2402846],[13.4639566,41.2404562],[13.4640796,41.2404852],[13.4641943,41.2402966],[13.4644732,41.2403443],[13.4645077,41.240192],[13.4646223,41.2401643],[13.4649815,41.2402553],[13.4649898,41.2401495],[13.4651153,41.2401169],[13.4657257,41.2404385],[13.46631,41.2404331],[13.4670158,41.2402781],[13.4675686,41.2399874],[13.4679884,41.2396425],[13.4682239,41.2389908],[13.4683935,41.2388135],[13.4692238,41.2385269],[13.4697582,41.2388639],[13.4698722,41.2388148],[13.4699095,41.2386734],[13.470134,41.2386693],[13.4702705,41.2384637],[13.4707024,41.2383127],[13.4706923,41.2382045],[13.4703703,41.2378447],[13.4701977,41.2372928],[13.4702497,41.2369778],[13.4703483,41.2369343],[13.4702756,41.2367225],[13.4703273,41.2367109],[13.4706238,41.2369989],[13.4707317,41.2370016],[13.470646,41.2370579],[13.4713306,41.2375533],[13.4714167,41.2376945],[13.4716246,41.2377791],[13.4718667,41.2380363],[13.4718131,41.2382444],[13.4725108,41.2384025],[13.4727352,41.2385751],[13.4727889,41.2384363],[13.4731529,41.2385119],[13.4733091,41.2383673],[13.4739663,41.2385913],[13.4741178,41.2387541],[13.4741185,41.2386474],[13.4746079,41.2389177],[13.4747728,41.2391638],[13.4747625,41.2393016],[13.4746807,41.2393281],[13.4747015,41.2395271],[13.4750955,41.2396751],[13.4753174,41.2419094],[13.475249,41.242817],[13.474823,41.243752],[13.4740395,41.2445614],[13.4718209,41.2455482],[13.4705937,41.2470006],[13.4701567,41.2478414],[13.4700906,41.2485869],[13.4702428,41.2497245],[13.4701503,41.2501378],[13.4699877,41.2504322],[13.4694507,41.2509664],[13.4691732,41.25163],[13.4691612,41.2520986],[13.4698913,41.2550686],[13.4705179,41.2569171],[13.4709141,41.2577931],[13.4706884,41.2582881],[13.4700855,41.2585232],[13.469597,41.2589924],[13.4695439,41.2597868],[13.4699667,41.260081],[13.4704178,41.260167],[13.4706344,41.2605638],[13.4705818,41.2613222],[13.4704034,41.2622925],[13.4700035,41.2635552],[13.4695168,41.2655145],[13.4693772,41.2663753],[13.4688977,41.2669658],[13.4670938,41.2685441],[13.4661376,41.2696032],[13.4656425,41.2703698],[13.4652765,41.2717077],[13.4653981,41.2726574],[13.466064,41.2742928],[13.4656544,41.274957],[13.4643224,41.2762513],[13.4635962,41.2766938],[13.4626985,41.2768097],[13.4616249,41.277234],[13.460769,41.2781046],[13.4597831,41.2788858],[13.4573705,41.2804291],[13.4556051,41.281398],[13.4539499,41.2827272],[13.4531482,41.2836947],[13.4527308,41.284994],[13.4526575,41.2856812],[13.4529636,41.2871505],[13.4534271,41.2880194],[13.4521407,41.287502],[13.4489345,41.2868204],[13.4497068,41.2852327],[13.4497746,41.2840686],[13.4496092,41.2833051],[13.4492463,41.2831571],[13.4463345,41.2840802],[13.4450862,41.2843851],[13.4398531,41.2824715],[13.4379531,41.2815184],[13.4326533,41.2854463],[13.430247,41.2867096],[13.4244496,41.287919],[13.4226577,41.2884517],[13.4196707,41.2890439],[13.4173549,41.2890024],[13.4156912,41.2886836],[13.4144029,41.2885666],[13.4133234,41.2887566],[13.4114939,41.2893536],[13.4103804,41.2894819],[13.4091565,41.2892227],[13.4079352,41.2885943],[13.4049534,41.2818699],[13.4038583,41.2807639],[13.4007807,41.2781445],[13.3975053,41.2757082],[13.3960451,41.2736503]]]},"properties":{"type":"boundary","gemeente":"Sperlonga"}}]}