{"type":"FeatureCollection","metadata":{"gemeente":"Spinazzola","slug":"spinazzola","generated_at":"2026-09-26T14:28:05.203881Z","total_points":21,"providers":["PosteItaliane","DPD","GLS","DHL","Amazon","FedEx"],"bounds":[16.08536,40.965141,16.095393,40.97148]},"features":[{"type":"Feature","geometry":{"type":"Point","coordinates":[16.08736932,40.96919278]},"properties":{"type":"pakketpunt","locatieNaam":"Tabaccheria N. 7","straatNaam":"Corso Vittorio Emanuele","straatNr":"3/a","vervoerder":"PosteItaliane","puntType":"servicepunt","bezettingsgraad":50,"latitude":40.96919278,"longitude":16.08736932,"canPickup":true,"canDropoff":true,"openingstijden":{"za":"06:30 - 13:00, 17:00 - 20:30","zo":"gesloten","ma":"06:30 - 13:00, 17:00 - 20:30","di":"06:30 - 13:00, 17:00 - 20:30","wo":"06:30 - 13:00, 17:00 - 20:30","do":"06:30 - 13:00, 17:00 - 20:30","vr":"06:30 - 13:00, 17:00 - 20:30"}}},{"type":"Feature","geometry":{"type":"Point","coordinates":[16.0900859,40.9691242]},"properties":{"type":"pakketpunt","locatieNaam":"Spinazzola","straatNaam":"Via Vito Saraceno","straatNr":"17","vervoerder":"PosteItaliane","puntType":"postkantoor","bezettingsgraad":50,"latitude":40.9691242,"longitude":16.0900859,"canPickup":true,"canDropoff":true,"openingstijden":{"za":"08:20 - 12:35","zo":"gesloten","ma":"08:20 - 13:35","di":"08:20 - 13:35","wo":"08:20 - 13:35","do":"08:20 - 13:35","vr":"08:20 - 13:35"}}},{"type":"Feature","geometry":{"type":"Point","coordinates":[16.08894547,40.96878592]},"properties":{"type":"pakketpunt","locatieNaam":"Tabaccheria N. 4","straatNaam":"Corso Umberto I","straatNr":"14","vervoerder":"PosteItaliane","puntType":"servicepunt","bezettingsgraad":50,"latitude":40.96878592,"longitude":16.08894547,"canPickup":true,"canDropoff":true,"openingstijden":{"za":"07:00 - 13:30, 16:00 - 21:00","zo":"10:00 - 13:00","ma":"07:00 - 13:00, 16:00 - 21:00","di":"07:00 - 13:30, 16:00 - 21:00","wo":"07:00 - 13:30, 16:00 - 21:00","do":"07:00 - 13:30, 16:00 - 21:00","vr":"07:00 - 13:30, 16:00 - 21:00"}}},{"type":"Feature","geometry":{"type":"Point","coordinates":[16.08633916,40.9704938]},"properties":{"type":"pakketpunt","locatieNaam":"Tabaccheria N. 1","straatNaam":"Corso Vittorio Emanuele","straatNr":"82","vervoerder":"PosteItaliane","puntType":"servicepunt","bezettingsgraad":50,"latitude":40.9704938,"longitude":16.08633916,"canPickup":true,"canDropoff":true,"openingstijden":{"za":"07:00 - 13:00, 16:00 - 20:30","zo":"gesloten","ma":"07:00 - 13:00, 16:00 - 20:30","di":"07:00 - 13:00, 16:00 - 20:30","wo":"07:00 - 13:00, 16:00 - 20:30","do":"07:00 - 13:00, 16:00 - 20:30","vr":"07:00 - 13:00, 16:00 - 20:30"}}},{"type":"Feature","geometry":{"type":"Point","coordinates":[16.09539272,40.96514107]},"properties":{"type":"pakketpunt","locatieNaam":"Tabaccheria N. 5","straatNaam":"Corso Umberto I","straatNr":"230","vervoerder":"PosteItaliane","puntType":"servicepunt","bezettingsgraad":50,"latitude":40.96514107,"longitude":16.09539272,"canPickup":true,"canDropoff":true,"openingstijden":{"za":"07:00 - 13:00, 16:00 - 21:00","zo":"gesloten","ma":"07:00 - 13:00, 16:00 - 21:00","di":"07:00 - 13:00, 16:00 - 21:00","wo":"07:00 - 13:00, 16:00 - 21:00","do":"07:00 - 13:00, 16:00 - 21:00","vr":"07:00 - 13:00, 16:00 - 21:00"}}},{"type":"Feature","geometry":{"type":"Point","coordinates":[16.090535,40.9680729]},"properties":{"type":"pakketpunt","locatieNaam":"Arcobaleno di Patruno N. e C. Sas","straatNaam":"CORSO UMBERTO I","straatNr":"97","vervoerder":"DPD","puntType":"pickup_point","bezettingsgraad":50,"latitude":40.9680729,"longitude":16.090535,"canPickup":true,"canDropoff":true,"openingstijden":{"ma":"07:30 - 13:00, 17:00 - 21:00","di":"07:30 - 13:00, 17:00 - 21:00","wo":"07:30 - 13:00, 17:00 - 21:00","do":"07:30 - 13:00","vr":"07:30 - 13:00, 17:00 - 21:00","za":"07:30 - 13:00, 17:00 - 21:00","zo":"07:30 - 13:00"}}},{"type":"Feature","geometry":{"type":"Point","coordinates":[16.0930306,40.966815]},"properties":{"type":"pakketpunt","locatieNaam":"CAB-Spinazzola","straatNaam":"CORSO UMBERTO I","straatNr":"152","vervoerder":"DPD","puntType":"pickup_point","bezettingsgraad":50,"latitude":40.966815,"longitude":16.0930306,"canPickup":true,"canDropoff":true,"openingstijden":{"ma":"09:00 - 13:00, 16:00 - 20:00","di":"09:00 - 13:00, 16:00 - 20:00","wo":"09:00 - 13:00, 16:00 - 20:00","do":"09:00 - 13:00, 16:00 - 20:00","vr":"09:00 - 13:00, 16:00 - 20:00","za":"09:30 - 12:30","zo":"gesloten"}}},{"type":"Feature","geometry":{"type":"Point","coordinates":[16.0905041,40.9680409]},"properties":{"type":"pakketpunt","locatieNaam":"EDICOLA CARTOLIBRERIA GIOCATTOLI","straatNaam":"Corso Umberto I","straatNr":"97","vervoerder":"GLS","puntType":"parcel_shop","bezettingsgraad":50,"latitude":40.9680409,"longitude":16.0905041,"canPickup":true,"canDropoff":true,"openingstijden":"za: 08:00 - 13:00, 17:00 - 20:30; zo: 08:00 - 13:00"}},{"type":"Feature","geometry":{"type":"Point","coordinates":[16.095393,40.965141]},"properties":{"type":"pakketpunt","locatieNaam":"TABACCHERIA N. 5","straatNaam":"CORSO UMBERTO I 230","straatNr":"","vervoerder":"DHL","puntType":"parcelShop","bezettingsgraad":50,"latitude":40.965141,"longitude":16.095393,"canPickup":true,"canDropoff":true,"openingstijden":{"ma":"07:00 - 13:00, 16:00 - 21:00","di":"07:00 - 13:00, 16:00 - 21:00","wo":"07:00 - 13:00, 16:00 - 21:00","do":"07:00 - 13:00, 16:00 - 21:00","vr":"07:00 - 13:00, 16:00 - 21:00","za":"07:00 - 13:00, 16:00 - 21:00","zo":"gesloten"}}},{"type":"Feature","geometry":{"type":"Point","coordinates":[16.088945,40.968786]},"properties":{"type":"pakketpunt","locatieNaam":"TABACCHERIA N. 4","straatNaam":"CORSO UMBERTO I 14","straatNr":"","vervoerder":"DHL","puntType":"parcelShop","bezettingsgraad":50,"latitude":40.968786,"longitude":16.088945,"canPickup":true,"canDropoff":true,"openingstijden":{"ma":"07:00 - 13:00, 16:00 - 21:00","di":"07:00 - 13:30, 16:00 - 21:00","wo":"07:00 - 13:30, 16:00 - 21:00","do":"07:00 - 13:30, 16:00 - 21:00","vr":"07:00 - 13:30, 16:00 - 21:00","za":"07:00 - 13:30, 16:00 - 21:00","zo":"10:00 - 13:00"}}},{"type":"Feature","geometry":{"type":"Point","coordinates":[16.087369,40.969193]},"properties":{"type":"pakketpunt","locatieNaam":"TABACCHERIA N. 7","straatNaam":"CORSO VITTORIO EMANUELE 3-A","straatNr":"","vervoerder":"DHL","puntType":"parcelShop","bezettingsgraad":50,"latitude":40.969193,"longitude":16.087369,"canPickup":true,"canDropoff":true,"openingstijden":{"ma":"06:30 - 13:00, 17:00 - 20:30","di":"06:30 - 13:00, 17:00 - 20:30","wo":"06:30 - 13:00, 17:00 - 20:30","do":"06:30 - 13:00, 17:00 - 20:30","vr":"06:30 - 13:00, 17:00 - 20:30","za":"06:30 - 13:00, 17:00 - 20:30","zo":"gesloten"}}},{"type":"Feature","geometry":{"type":"Point","coordinates":[16.090086,40.969124]},"properties":{"type":"pakketpunt","locatieNaam":"Ufficio Postale SPINAZZOLA","straatNaam":"VIA VITO SARACENO 17","straatNr":"","vervoerder":"DHL","puntType":"postOffice","bezettingsgraad":50,"latitude":40.969124,"longitude":16.090086,"canPickup":true,"canDropoff":true,"openingstijden":{"ma":"08:20 - 13:35","di":"08:20 - 13:35","wo":"08:20 - 13:35","do":"08:20 - 13:35","vr":"08:20 - 13:35","za":"08:20 - 12:35","zo":"gesloten"}}},{"type":"Feature","geometry":{"type":"Point","coordinates":[16.086339,40.970494]},"properties":{"type":"pakketpunt","locatieNaam":"TABACCHERIA N. 1","straatNaam":"CORSO VITTORIO EMANUELE 82","straatNr":"","vervoerder":"DHL","puntType":"parcelShop","bezettingsgraad":50,"latitude":40.970494,"longitude":16.086339,"canPickup":true,"canDropoff":true,"openingstijden":{"ma":"07:00 - 13:00, 16:00 - 20:30","di":"07:00 - 13:00, 16:00 - 20:30","wo":"07:00 - 13:00, 16:00 - 20:30","do":"07:00 - 13:00, 16:00 - 20:30","vr":"07:00 - 13:00, 16:00 - 20:30","za":"07:00 - 13:00, 16:00 - 20:30","zo":"gesloten"}}},{"type":"Feature","geometry":{"type":"Point","coordinates":[16.0930306,40.966815]},"properties":{"type":"pakketpunt","locatieNaam":"Amazon Counter","straatNaam":"CAB-Spinazzola (fermopoint)","straatNr":"","vervoerder":"Amazon","puntType":"helix","bezettingsgraad":50,"latitude":40.966815,"longitude":16.0930306,"canPickup":true,"canDropoff":false,"openingstijden":null}},{"type":"Feature","geometry":{"type":"Point","coordinates":[16.0863,40.9704]},"properties":{"type":"pakketpunt","locatieNaam":"PuntoPoste TABACCHERIA N. 1","straatNaam":"CORSO VITTORIO EMANUELE 82","straatNr":"","vervoerder":"Amazon","puntType":"3p","bezettingsgraad":50,"latitude":40.9704,"longitude":16.0863,"canPickup":true,"canDropoff":false,"openingstijden":null}},{"type":"Feature","geometry":{"type":"Point","coordinates":[16.09,40.9691]},"properties":{"type":"pakketpunt","locatieNaam":"Ufficio Postale SPINAZZOLA","straatNaam":"VIA VITO SARACENO 17","straatNr":"","vervoerder":"Amazon","puntType":"3p","bezettingsgraad":50,"latitude":40.9691,"longitude":16.09,"canPickup":true,"canDropoff":false,"openingstijden":null}},{"type":"Feature","geometry":{"type":"Point","coordinates":[16.09063,40.96804]},"properties":{"type":"pakketpunt","locatieNaam":"Amazon Counter - PRIMAEDICOLA","straatNaam":"ARCOBALENO","straatNr":"","vervoerder":"Amazon","puntType":"helix","bezettingsgraad":50,"latitude":40.96804,"longitude":16.09063,"canPickup":true,"canDropoff":false,"openingstijden":null}},{"type":"Feature","geometry":{"type":"Point","coordinates":[16.08536,40.97148]},"properties":{"type":"pakketpunt","locatieNaam":"Amazon Counter - PRIMAEDICOLA","straatNaam":"LA NUOVA EDICOLA DI","straatNr":"","vervoerder":"Amazon","puntType":"helix","bezettingsgraad":50,"latitude":40.97148,"longitude":16.08536,"canPickup":true,"canDropoff":false,"openingstijden":null}},{"type":"Feature","geometry":{"type":"Point","coordinates":[16.0889,40.9687]},"properties":{"type":"pakketpunt","locatieNaam":"PuntoPoste TABACCHERIA N. 4","straatNaam":"CORSO UMBERTO I 14","straatNr":"","vervoerder":"Amazon","puntType":"3p","bezettingsgraad":50,"latitude":40.9687,"longitude":16.0889,"canPickup":true,"canDropoff":false,"openingstijden":null}},{"type":"Feature","geometry":{"type":"Point","coordinates":[16.0873,40.9691]},"properties":{"type":"pakketpunt","locatieNaam":"PuntoPoste TABACCHERIA N. 7","straatNaam":"CORSO VITTORIO EMANUELE 3/A","straatNr":"","vervoerder":"Amazon","puntType":"3p","bezettingsgraad":50,"latitude":40.9691,"longitude":16.0873,"canPickup":true,"canDropoff":false,"openingstijden":null}},{"type":"Feature","geometry":{"type":"Point","coordinates":[16.090493407779608,40.96800273682881]},"properties":{"type":"pakketpunt","locatieNaam":"FedEx OnSite","straatNaam":"CORSO UMBERTO I  , 97","straatNr":"","vervoerder":"FedEx","puntType":"servicepunt","bezettingsgraad":50,"latitude":40.96800273682881,"longitude":16.090493407779608,"canPickup":true,"canDropoff":true,"openingstijden":{"ma":"08:00 - 13:00, 17:00 - 20:30","di":"08:00 - 13:00, 17:00 - 20:30","wo":"08:00 - 13:00, 17:00 - 20:30","do":"08:00 - 13:00","vr":"08:00 - 13:00, 17:00 - 20:30","za":"08:00 - 13:00, 17:00 - 20:30","zo":"08:00 - 13:00"}}},{"type":"Feature","geometry":{"type":"Polygon","coordinates":[[[15.9718115,40.9721317],[15.9721587,40.9715166],[15.9737922,40.9693656],[15.9744917,40.9682972],[15.9746974,40.9677447],[15.9753909,40.9649309],[15.9756501,40.9629984],[15.9756914,40.9617405],[15.9759738,40.9609809],[15.9766285,40.9584529],[15.9772262,40.9579801],[15.9784778,40.9573641],[15.9794396,40.9567431],[15.9820399,40.9549561],[15.9829519,40.9544956],[15.985996,40.9538963],[15.9904445,40.952703],[15.9922266,40.951816],[15.9929705,40.9515907],[15.9968581,40.9510072],[15.9986122,40.9505357],[16.0009734,40.9503332],[16.0041255,40.9498393],[16.0049412,40.949641],[16.0058869,40.9492413],[16.0076237,40.9487978],[16.0124142,40.9472272],[16.0154217,40.9465754],[16.0159283,40.9463734],[16.0173281,40.9446591],[16.0185874,40.9446405],[16.0197484,40.944484],[16.0208611,40.9442134],[16.0219765,40.9441767],[16.0259256,40.9435929],[16.0302563,40.9417258],[16.0312025,40.9415284],[16.0338625,40.9407309],[16.0379823,40.9397268],[16.0395857,40.9397049],[16.0418504,40.9386661],[16.0437342,40.9384154],[16.0444332,40.9382105],[16.0451275,40.9378709],[16.0454535,40.937347],[16.0460952,40.9366822],[16.0474006,40.9358776],[16.048176,40.9355555],[16.0494611,40.9353731],[16.0503642,40.9348856],[16.0514656,40.9338596],[16.0532897,40.933392],[16.0541953,40.9329764],[16.0569595,40.9312316],[16.0573786,40.9307334],[16.0576273,40.9298137],[16.0579385,40.9293671],[16.0589791,40.9288982],[16.0619987,40.9285099],[16.0633656,40.9284707],[16.0653078,40.9281666],[16.0655618,40.9276786],[16.0660427,40.9272665],[16.0680256,40.9266989],[16.0693862,40.9261651],[16.0703557,40.9259119],[16.0720342,40.9260469],[16.0726864,40.9259887],[16.0744326,40.9254761],[16.0753814,40.9253141],[16.0772071,40.925377],[16.0791981,40.9247277],[16.0801938,40.9246573],[16.0836115,40.9237534],[16.0865877,40.9227507],[16.0893959,40.9216414],[16.0910019,40.9211237],[16.0920098,40.9209534],[16.092774,40.9206407],[16.0936378,40.9202679],[16.094104,40.9198251],[16.0948947,40.9187729],[16.0953029,40.9183697],[16.0958805,40.9180595],[16.0977001,40.9173575],[16.1000628,40.9167209],[16.1009228,40.9163077],[16.1021781,40.9139444],[16.1024574,40.9130947],[16.1030234,40.9126503],[16.1038598,40.9122655],[16.1047997,40.9116584],[16.1054904,40.9104368],[16.1062668,40.9086205],[16.1070703,40.9076754],[16.1074273,40.9069424],[16.1078114,40.9064687],[16.1084802,40.9059053],[16.1102235,40.9050774],[16.1131699,40.903878],[16.1148275,40.9028888],[16.1162894,40.9021818],[16.1167312,40.9017899],[16.1178955,40.9010383],[16.1186346,40.900448],[16.1200315,40.8988496],[16.1209658,40.8979458],[16.1210693,40.8977189],[16.1214525,40.8978886],[16.1214789,40.8980579],[16.1212979,40.8992389],[16.1225743,40.9010404],[16.1231873,40.9015557],[16.12374,40.9018904],[16.1248124,40.9020532],[16.1253416,40.9018404],[16.1263133,40.9024099],[16.1273114,40.9024064],[16.1277127,40.902251],[16.12812,40.9025361],[16.1282804,40.9028681],[16.1285818,40.9031059],[16.1285155,40.9035014],[16.1303021,40.9044297],[16.1312774,40.9052239],[16.1324684,40.9054829],[16.1336046,40.9060376],[16.1343152,40.9065558],[16.134975,40.9075856],[16.1347909,40.9088388],[16.1348871,40.9101961],[16.1346497,40.9108048],[16.1347751,40.9112244],[16.1347955,40.91179],[16.1346536,40.9124603],[16.134923,40.9129429],[16.1348899,40.9137683],[16.1354006,40.9144879],[16.1356718,40.9150695],[16.1361677,40.9155965],[16.1363352,40.916378],[16.1365803,40.9168351],[16.1372716,40.9176875],[16.1380672,40.9183534],[16.139411,40.9191246],[16.1418545,40.9203628],[16.1445372,40.9223508],[16.146525,40.9239457],[16.1480647,40.9237778],[16.1503915,40.9229984],[16.1539226,40.9225758],[16.1555636,40.9226939],[16.1560697,40.9231212],[16.156778,40.923554],[16.1584615,40.9240158],[16.1588969,40.9239481],[16.1597644,40.9244609],[16.1609415,40.926664],[16.1619302,40.928177],[16.1629706,40.92858],[16.1670902,40.9277377],[16.1697462,40.9275313],[16.1712623,40.9273105],[16.1724338,40.9270438],[16.173833,40.9262724],[16.1755592,40.9251746],[16.1784984,40.9241179],[16.1793441,40.9236241],[16.1806313,40.923215],[16.1821207,40.9228384],[16.1835858,40.9223552],[16.1849335,40.9220593],[16.1910091,40.9204143],[16.1927562,40.9198729],[16.1933373,40.9197959],[16.1941733,40.9195141],[16.1956044,40.919295],[16.1975729,40.9195572],[16.1984966,40.9194543],[16.1994558,40.9192276],[16.2012086,40.9184067],[16.2018436,40.9180294],[16.2024642,40.9175315],[16.2027795,40.9179572],[16.2029265,40.9183259],[16.2032924,40.9187438],[16.2042249,40.9203859],[16.2047595,40.9211532],[16.2050556,40.9217195],[16.2052979,40.9226626],[16.210184,40.930112],[16.2108763,40.9309099],[16.2116855,40.9316643],[16.2147422,40.9338476],[16.2157443,40.9346844],[16.2187548,40.9376084],[16.2196898,40.9386428],[16.2214197,40.9409769],[16.2229835,40.9426871],[16.2235495,40.9431959],[16.2237261,40.9436976],[16.2237844,40.9442294],[16.2250634,40.9447472],[16.2256029,40.9455275],[16.226303,40.9461493],[16.2272417,40.946891],[16.2292273,40.9481696],[16.2318894,40.9507462],[16.2325095,40.9515304],[16.2330993,40.9519296],[16.2345872,40.9528076],[16.2412623,40.9564175],[16.2429321,40.9574098],[16.2441178,40.9579918],[16.2455249,40.9588342],[16.2466934,40.9596647],[16.2484199,40.9605229],[16.2488301,40.9608254],[16.2493448,40.9609189],[16.2501042,40.9608618],[16.2510698,40.9610887],[16.2521806,40.9626607],[16.2527606,40.9631863],[16.2531184,40.9638746],[16.2532226,40.9643629],[16.2529619,40.9650948],[16.2526171,40.9656834],[16.2526339,40.9664562],[16.2543432,40.9681792],[16.2544077,40.9691155],[16.2545478,40.969714],[16.2550194,40.9701431],[16.2548913,40.9707315],[16.2552053,40.9710491],[16.2560522,40.9711935],[16.2565269,40.9718383],[16.2559429,40.9724107],[16.256222,40.9727349],[16.2568428,40.9740319],[16.2575021,40.9743861],[16.2579134,40.9747784],[16.2581218,40.9751882],[16.2579487,40.9754488],[16.2571527,40.9760368],[16.2569233,40.9782379],[16.2593307,40.98559],[16.2609466,40.9897979],[16.2621271,40.9932864],[16.2637189,40.9975407],[16.2646156,40.9996119],[16.2651441,41.0011711],[16.2656906,41.0023287],[16.2658123,41.0031354],[16.2662188,41.0043963],[16.2664246,41.0053461],[16.2660189,41.0058127],[16.2648416,41.0065532],[16.2627236,41.0076502],[16.2618824,41.0084504],[16.2610126,41.0090453],[16.2598484,41.0095555],[16.2584742,41.0098584],[16.2574284,41.0105815],[16.2560151,41.0119307],[16.2550078,41.0133532],[16.254228,41.0142799],[16.2540374,41.0147869],[16.253659,41.0150717],[16.2520812,41.0157654],[16.2495728,41.0165855],[16.2469184,41.0176981],[16.2428766,41.0190243],[16.241679,41.0192619],[16.2397863,41.0192015],[16.2353126,41.0184671],[16.2339813,41.0185961],[16.2328599,41.0189323],[16.231828,41.0191099],[16.2305474,41.0192132],[16.229421,41.0194777],[16.2282332,41.0195886],[16.2238484,41.0197435],[16.2210764,41.020467],[16.219947,41.0209745],[16.2182624,41.0218095],[16.2165118,41.0231525],[16.2147837,41.024296],[16.2125566,41.0253315],[16.211762,41.0255615],[16.2109515,41.0246451],[16.2104086,41.0236759],[16.2101193,41.0228258],[16.2099127,41.0218355],[16.2095994,41.0210903],[16.2085715,41.0193823],[16.2081563,41.018846],[16.2076887,41.0179395],[16.2071674,41.0160827],[16.2061837,41.0149657],[16.2032692,41.0135741],[16.202313,41.0127884],[16.2017851,41.0125516],[16.1997536,41.0113564],[16.1979096,41.0106263],[16.1971032,41.0102045],[16.1964844,41.0100859],[16.1942209,41.0104889],[16.1930751,41.009598],[16.1919483,41.0090703],[16.1915735,41.0087653],[16.1910466,41.0085914],[16.1901705,41.0087813],[16.1896244,41.0094635],[16.1887553,41.0107777],[16.1874037,41.0149612],[16.1855331,41.0187993],[16.1830002,41.0181257],[16.1820895,41.0177823],[16.1817742,41.0173431],[16.1815462,41.016696],[16.1802343,41.015127],[16.1795556,41.0143776],[16.1787215,41.01362],[16.1778793,41.0131148],[16.1752777,41.0126523],[16.1739016,41.0121805],[16.1713488,41.0115933],[16.1702239,41.0112182],[16.1667233,41.0102988],[16.1654403,41.0097536],[16.1643609,41.0091686],[16.1635052,41.0085922],[16.1613696,41.0074703],[16.160581,41.0072091],[16.1586035,41.0062573],[16.156414,41.0055391],[16.1502535,41.0027109],[16.1493622,41.0021321],[16.1485285,41.0014282],[16.1475027,41.0007048],[16.1463104,41.0002257],[16.1459275,40.9974105],[16.1457651,40.9969257],[16.145307,40.9965628],[16.1444066,40.9961735],[16.1382108,40.9939363],[16.1372623,40.9935139],[16.1344457,40.9928388],[16.1331717,40.9926166],[16.1322384,40.9923057],[16.1313256,40.9917731],[16.1294699,40.9916905],[16.1290283,40.9915875],[16.1285094,40.9917862],[16.1280572,40.9918323],[16.1274096,40.9922685],[16.1261741,40.9922643],[16.1245307,40.991318],[16.1236178,40.9908933],[16.1229634,40.990799],[16.1204334,40.9909606],[16.119284,40.991176],[16.1185614,40.9912208],[16.1179346,40.9908053],[16.1169314,40.9905886],[16.1162253,40.9902095],[16.11654,40.9899065],[16.1171452,40.9897925],[16.1173611,40.9892076],[16.1157838,40.9887611],[16.1161256,40.987885],[16.115904,40.9873184],[16.1153179,40.9871973],[16.114527,40.9868009],[16.1143124,40.9861888],[16.113787,40.9859425],[16.1133609,40.9859824],[16.1125128,40.985882],[16.11212,40.9857084],[16.1115603,40.9856936],[16.1102059,40.9851657],[16.1095755,40.9851283],[16.1084641,40.9847877],[16.1085185,40.9843299],[16.1089152,40.9840444],[16.1090889,40.9836737],[16.1090463,40.9833614],[16.1085794,40.9831608],[16.1086441,40.9827429],[16.1082995,40.9825483],[16.1078984,40.9828476],[16.1074442,40.9826553],[16.1072115,40.9823413],[16.106383,40.9823116],[16.1058411,40.9827096],[16.1040396,40.9831542],[16.103463,40.9834779],[16.1024475,40.9854035],[16.1010848,40.9863112],[16.0992728,40.9881196],[16.0978071,40.9893397],[16.0960782,40.9897166],[16.0933606,40.9900107],[16.0922717,40.990348],[16.0904983,40.9917175],[16.0896599,40.9920933],[16.0845889,40.993806],[16.0836437,40.9942378],[16.0809678,40.9962748],[16.0804736,40.9965662],[16.0779731,40.996977],[16.0772056,40.9976273],[16.076487,40.9978201],[16.075657,40.9979164],[16.0720943,40.9988335],[16.0701919,40.9996167],[16.0672696,41.0012996],[16.0666522,41.0014411],[16.0635921,41.002561],[16.0627928,41.0030827],[16.0614399,41.003454],[16.0608767,41.0052074],[16.0606103,41.0057412],[16.0583264,41.0070966],[16.0579066,41.0076129],[16.0573666,41.0080331],[16.0558224,41.008893],[16.0548684,41.0095231],[16.0546221,41.0098577],[16.0533451,41.0102737],[16.0520486,41.0109519],[16.0512094,41.0112689],[16.0505927,41.0113339],[16.0499794,41.011736],[16.0493276,41.0125275],[16.04846,41.0126348],[16.0477517,41.0137312],[16.046964,41.014252],[16.0469696,41.0146926],[16.0463499,41.0152571],[16.0457356,41.0156503],[16.0460603,41.0166292],[16.0456548,41.0172256],[16.0455445,41.0178038],[16.0461304,41.0180602],[16.0463757,41.0184096],[16.0446318,41.0188227],[16.0430526,41.0204135],[16.0426225,41.0210294],[16.0422881,41.0216798],[16.0424611,41.0220741],[16.043248,41.0222103],[16.0434948,41.0227396],[16.043056,41.022942],[16.0422909,41.0227325],[16.0418478,41.0224223],[16.0414413,41.0223437],[16.0414026,41.022814],[16.041612,41.0233276],[16.0416881,41.0243713],[16.0416454,41.0255258],[16.0412977,41.0260241],[16.0407869,41.0261364],[16.0406074,41.0266244],[16.0402141,41.026752],[16.0402075,41.0269954],[16.041008,41.0273692],[16.04052,41.028083],[16.0404675,41.0283607],[16.0394931,41.0276691],[16.0387512,41.0275032],[16.0373084,41.0272903],[16.0361348,41.0275108],[16.0338533,41.0276013],[16.0330541,41.0275108],[16.0306148,41.026702],[16.0298838,41.0262339],[16.0284461,41.0247337],[16.0279344,41.0240812],[16.0278294,41.0234667],[16.0278467,41.0229887],[16.0275567,41.0197669],[16.0273895,41.0189042],[16.0275187,41.0180279],[16.0273203,41.0175542],[16.0267295,41.0170009],[16.0265201,41.0165413],[16.0273823,41.0153816],[16.0274201,41.0147899],[16.0272687,41.0141513],[16.0275202,41.012759],[16.0275874,41.0115806],[16.0280414,41.0102974],[16.0289878,41.0092585],[16.0308414,41.0075881],[16.0314487,41.0069345],[16.0315646,41.0065809],[16.0309462,41.0043781],[16.0316031,41.0007698],[16.0315847,41.000285],[16.0317989,40.9997049],[16.0319845,40.9983842],[16.0302756,40.9975711],[16.0295896,40.9968123],[16.0288228,40.9957839],[16.0283782,40.9950328],[16.0280891,40.9943621],[16.027712,40.9928599],[16.0270382,40.9912139],[16.0261775,40.9903262],[16.0254389,40.9892826],[16.0237493,40.9875818],[16.0232843,40.9869174],[16.0227377,40.9864964],[16.0220015,40.9857451],[16.0212012,40.9851237],[16.0206572,40.98486],[16.019118,40.9838789],[16.0176073,40.9831794],[16.0167397,40.9825936],[16.0158687,40.9823319],[16.0151202,40.9819592],[16.0130917,40.9799775],[16.0111804,40.9779392],[16.0108656,40.9774635],[16.0103669,40.9763826],[16.0103248,40.9759307],[16.0100319,40.9749362],[16.0094575,40.973806],[16.0086614,40.9725723],[16.0085606,40.972259],[16.0083528,40.9720917],[16.0079965,40.9719785],[16.0074202,40.9720092],[16.0028545,40.9702093],[15.9933524,40.9699836],[15.988579,40.9702295],[15.9872046,40.9704797],[15.9848056,40.9704728],[15.9837287,40.969967],[15.9831012,40.9700187],[15.9827279,40.9701584],[15.9809926,40.970147],[15.9798382,40.9705142],[15.9757541,40.9708796],[15.9749458,40.9710322],[15.9718115,40.9721317]]]},"properties":{"type":"boundary","gemeente":"Spinazzola"}}]}