{"type":"FeatureCollection","metadata":{"gemeente":"Stigliano","slug":"stigliano","generated_at":"2026-09-26T13:10:46.019273Z","total_points":11,"providers":["PosteItaliane","DPD","DHL","Amazon"],"bounds":[16.227358,40.4019,16.232018,40.403532]},"features":[{"type":"Feature","geometry":{"type":"Point","coordinates":[16.23201776,40.40196734]},"properties":{"type":"pakketpunt","locatieNaam":"Stigliano","straatNaam":"Via Principe Di Napoli","straatNr":"106","vervoerder":"PosteItaliane","puntType":"postkantoor","bezettingsgraad":50,"latitude":40.40196734,"longitude":16.23201776,"canPickup":true,"canDropoff":true,"openingstijden":{"za":"08:20 - 12:35","zo":"gesloten","ma":"08:20 - 13:35","di":"gesloten","wo":"gesloten","do":"gesloten","vr":"08:20 - 13:35"}}},{"type":"Feature","geometry":{"type":"Point","coordinates":[16.22742098,40.4028072]},"properties":{"type":"pakketpunt","locatieNaam":"Tabaccheria N. 12","straatNaam":"Via Cialdini","straatNr":"81","vervoerder":"PosteItaliane","puntType":"servicepunt","bezettingsgraad":50,"latitude":40.4028072,"longitude":16.22742098,"canPickup":true,"canDropoff":true,"openingstijden":{"za":"07:00 - 13:30, 15:00 - 20:30","zo":"07:00 - 13:30","ma":"07:00 - 13:30, 15:00 - 20:30","di":"07:00 - 13:30, 15:00 - 20:30","wo":"07:00 - 13:30, 15:00 - 20:30","do":"07:00 - 13:30, 15:00 - 20:30","vr":"07:00 - 13:30, 15:00 - 20:30"}}},{"type":"Feature","geometry":{"type":"Point","coordinates":[16.2289941,40.40334951]},"properties":{"type":"pakketpunt","locatieNaam":"Tabaccheria N. 1","straatNaam":"Corso Umberto","straatNr":"14","vervoerder":"PosteItaliane","puntType":"servicepunt","bezettingsgraad":50,"latitude":40.40334951,"longitude":16.2289941,"canPickup":true,"canDropoff":true,"openingstijden":{"za":"07:00 - 14:00, 16:00 - 22:00","zo":"07:00 - 14:00, 16:00 - 22:00","ma":"07:00 - 14:00, 16:00 - 22:00","di":"07:00 - 14:00, 16:00 - 22:00","wo":"gesloten","do":"07:00 - 14:00, 16:00 - 22:00","vr":"07:00 - 14:00, 16:00 - 22:00"}}},{"type":"Feature","geometry":{"type":"Point","coordinates":[16.2285199,40.40323766]},"properties":{"type":"pakketpunt","locatieNaam":"Enel X Pay-CityPoste","straatNaam":"VIA CIALDINI","straatNr":"23","vervoerder":"DPD","puntType":"pickup_point","bezettingsgraad":50,"latitude":40.40323766,"longitude":16.2285199,"canPickup":true,"canDropoff":true,"openingstijden":{"ma":"09:00 - 13:00, 16:00 - 20:00","di":"09:00 - 13:00, 16:00 - 20:00","wo":"09:00 - 13:00, 16:00 - 20:00","do":"09:00 - 13:00, 16:00 - 20:00","vr":"09:00 - 13:00, 16:00 - 20:00","za":"09:00 - 13:00, 16:00 - 20:00","zo":"gesloten"}}},{"type":"Feature","geometry":{"type":"Point","coordinates":[16.232018,40.401967]},"properties":{"type":"pakketpunt","locatieNaam":"Ufficio Postale STIGLIANO","straatNaam":"VIA PRINCIPE DI NAPOLI 106","straatNr":"","vervoerder":"DHL","puntType":"postOffice","bezettingsgraad":50,"latitude":40.401967,"longitude":16.232018,"canPickup":true,"canDropoff":true,"openingstijden":{"ma":"08:20 - 13:35","di":"08:20 - 13:35","wo":"08:20 - 13:35","do":"08:20 - 13:35","vr":"08:20 - 13:35","za":"08:20 - 12:35","zo":"gesloten"}}},{"type":"Feature","geometry":{"type":"Point","coordinates":[16.228994,40.40335]},"properties":{"type":"pakketpunt","locatieNaam":"TABACCHERIA n. 1","straatNaam":"CORSO UMBERTO 14","straatNr":"","vervoerder":"DHL","puntType":"parcelShop","bezettingsgraad":50,"latitude":40.40335,"longitude":16.228994,"canPickup":true,"canDropoff":true,"openingstijden":{"ma":"07:00 - 14:00, 16:00 - 22:00","di":"07:00 - 14:00, 16:00 - 22:00","wo":"gesloten","do":"07:00 - 14:00, 16:00 - 22:00","vr":"07:00 - 14:00, 16:00 - 22:00","za":"07:00 - 14:00, 16:00 - 22:00","zo":"07:00 - 14:00, 16:00 - 22:00"}}},{"type":"Feature","geometry":{"type":"Point","coordinates":[16.227421,40.402807]},"properties":{"type":"pakketpunt","locatieNaam":"TABACCHERIA N. 12","straatNaam":"VIA CIALDINI 81","straatNr":"","vervoerder":"DHL","puntType":"parcelShop","bezettingsgraad":50,"latitude":40.402807,"longitude":16.227421,"canPickup":true,"canDropoff":true,"openingstijden":{"ma":"07:00 - 13:30, 15:00 - 20:30","di":"07:00 - 13:30, 15:00 - 20:30","wo":"07:00 - 13:30, 15:00 - 20:30","do":"07:00 - 13:30, 15:00 - 20:30","vr":"07:00 - 13:30, 15:00 - 20:30","za":"07:00 - 13:30, 15:00 - 20:30","zo":"07:00 - 13:30"}}},{"type":"Feature","geometry":{"type":"Point","coordinates":[16.227358,40.402817]},"properties":{"type":"pakketpunt","locatieNaam":"Amazon Counter - TABACCHI VIGGIANO GIULIANA","straatNaam":"VIA CIALDINI 83","straatNr":"","vervoerder":"Amazon","puntType":"helix","bezettingsgraad":50,"latitude":40.402817,"longitude":16.227358,"canPickup":true,"canDropoff":false,"openingstijden":null}},{"type":"Feature","geometry":{"type":"Point","coordinates":[16.228678,40.403532]},"properties":{"type":"pakketpunt","locatieNaam":"Amazon Counter - BAR PASTICCERIA SARUBBI","straatNaam":"CORSO UMBERTO 10","straatNr":"","vervoerder":"Amazon","puntType":"helix","bezettingsgraad":50,"latitude":40.403532,"longitude":16.228678,"canPickup":true,"canDropoff":false,"openingstijden":null}},{"type":"Feature","geometry":{"type":"Point","coordinates":[16.2274,40.4028]},"properties":{"type":"pakketpunt","locatieNaam":"PuntoPoste TABACCHERIA N. 12","straatNaam":"VIA CIALDINI 81","straatNr":"","vervoerder":"Amazon","puntType":"3p","bezettingsgraad":50,"latitude":40.4028,"longitude":16.2274,"canPickup":true,"canDropoff":false,"openingstijden":null}},{"type":"Feature","geometry":{"type":"Point","coordinates":[16.232,40.4019]},"properties":{"type":"pakketpunt","locatieNaam":"Ufficio Postale STIGLIANO","straatNaam":"VIA PRINCIPE DI NAPOLI 106","straatNr":"","vervoerder":"Amazon","puntType":"3p","bezettingsgraad":50,"latitude":40.4019,"longitude":16.232,"canPickup":true,"canDropoff":false,"openingstijden":null}},{"type":"Feature","geometry":{"type":"Polygon","coordinates":[[[16.17623,40.4325895],[16.1794788,40.4065498],[16.1796096,40.3970985],[16.1793926,40.3967881],[16.1784313,40.3943018],[16.1778532,40.3923449],[16.1776749,40.3901921],[16.1776586,40.3898871],[16.1783822,40.3875161],[16.179766,40.3858461],[16.1855788,40.3795177],[16.1975653,40.3639177],[16.1983399,40.3631045],[16.2003013,40.3613307],[16.2029911,40.3590838],[16.2049609,40.3578313],[16.2068269,40.3569271],[16.2090173,40.3555257],[16.2101303,40.3545247],[16.2112574,40.35301],[16.212815,40.3499566],[16.2134906,40.3482632],[16.2142583,40.3457138],[16.2142974,40.3453649],[16.2140459,40.3450343],[16.220572,40.3400271],[16.2227161,40.3387634],[16.2238109,40.3382268],[16.2255198,40.3376066],[16.2271622,40.337229],[16.2288861,40.3369138],[16.2308104,40.3367575],[16.239666,40.3373472],[16.2467945,40.3397011],[16.2639062,40.3436875],[16.2657827,40.3439559],[16.2690696,40.3440271],[16.273458,40.3432864],[16.2754155,40.3427802],[16.2814078,40.3403317],[16.290916,40.3370213],[16.294969,40.3359322],[16.2979974,40.3355833],[16.3039243,40.335486],[16.3058965,40.3355176],[16.3084355,40.3359052],[16.31022,40.3359944],[16.312403,40.335914],[16.3226798,40.3350039],[16.3301031,40.3314406],[16.3310917,40.3307478],[16.3344975,40.3274896],[16.3391847,40.321644],[16.3410621,40.3195493],[16.3448575,40.3157217],[16.346224,40.3145908],[16.3490921,40.3126532],[16.3530086,40.310779],[16.3764505,40.3114091],[16.3790309,40.3125369],[16.3806645,40.3131473],[16.407029,40.3183535],[16.4129162,40.3190359],[16.4146793,40.3190437],[16.4283616,40.3176931],[16.4288783,40.3174799],[16.4360494,40.3121133],[16.4413152,40.3079941],[16.4511721,40.3012023],[16.4689174,40.2914866],[16.4718593,40.2905084],[16.472681,40.2903831],[16.473395,40.2903546],[16.4749542,40.2904873],[16.4775067,40.2905641],[16.4822739,40.2906097],[16.4921176,40.2905178],[16.4930232,40.2904724],[16.4955602,40.2897923],[16.4972007,40.289617],[16.4926109,40.2954733],[16.481935,40.297247],[16.4823942,40.2998814],[16.4857846,40.3023171],[16.4865716,40.3052743],[16.4859557,40.3058641],[16.4860482,40.3071384],[16.4857487,40.3080243],[16.4858079,40.3088092],[16.4853371,40.3097938],[16.4843833,40.3101626],[16.4839114,40.3111174],[16.4827685,40.3118814],[16.4805395,40.3123377],[16.4788645,40.3139758],[16.4773048,40.3145923],[16.4761788,40.315886],[16.4749968,40.316882],[16.4717782,40.3184077],[16.4698899,40.3188923],[16.4686024,40.3199046],[16.4666444,40.3209333],[16.466006,40.3215959],[16.4621544,40.3224425],[16.4588499,40.3236858],[16.4576322,40.324377],[16.4575517,40.3246265],[16.4557496,40.3253468],[16.4550021,40.3254196],[16.4543545,40.3257634],[16.4523291,40.326104],[16.4516616,40.3258861],[16.4505887,40.3260497],[16.4505565,40.3259802],[16.4500737,40.325927],[16.4489579,40.3265282],[16.4476812,40.3266836],[16.446721,40.3263646],[16.4459324,40.3264055],[16.4446717,40.3267572],[16.4428854,40.326978],[16.4413887,40.3274811],[16.4387038,40.3292559],[16.4374888,40.3303131],[16.4357212,40.3311044],[16.4340046,40.3317198],[16.4334547,40.3318425],[16.4314538,40.3335416],[16.4311427,40.3339648],[16.4300591,40.334155],[16.4300644,40.3345046],[16.4302146,40.3350341],[16.429866,40.3355995],[16.4295307,40.3358826],[16.4294153,40.3364694],[16.4288467,40.337506],[16.4286777,40.3382216],[16.4279106,40.338933],[16.4272669,40.3393798],[16.4270523,40.3396425],[16.4264368,40.3399563],[16.4257219,40.3401985],[16.4252526,40.3405614],[16.4245659,40.3412023],[16.4244077,40.3415642],[16.4233428,40.3416787],[16.4222954,40.3422409],[16.4218663,40.3420814],[16.4215793,40.3420988],[16.4213338,40.3421959],[16.4210589,40.3425404],[16.4208806,40.3424995],[16.4205842,40.3422368],[16.4204366,40.3422705],[16.420041,40.3425547],[16.4189923,40.3426446],[16.4181635,40.3430556],[16.4178778,40.3431128],[16.4169686,40.343076],[16.416408,40.3428685],[16.4163302,40.3427121],[16.4161062,40.342615],[16.4155644,40.3426089],[16.415319,40.342431],[16.4150468,40.3424228],[16.414281,40.3428297],[16.4141925,40.3432232],[16.4137231,40.343351],[16.4127615,40.343306],[16.4124222,40.3431956],[16.4113802,40.3433356],[16.4109269,40.3434695],[16.4097266,40.3429288],[16.4091995,40.3431537],[16.4081722,40.3434],[16.4070833,40.3434143],[16.4070377,40.3435738],[16.4068151,40.3435012],[16.4066461,40.3435758],[16.4065321,40.3434982],[16.4063711,40.3436607],[16.4061257,40.3436883],[16.4057301,40.3439091],[16.4054042,40.3439305],[16.4047806,40.3436065],[16.4047256,40.3433632],[16.4041208,40.3428194],[16.4034918,40.3428092],[16.4033148,40.3425496],[16.40295,40.3424821],[16.4026684,40.3422736],[16.4014345,40.3418463],[16.401287,40.3418586],[16.4002088,40.3411533],[16.3982856,40.340542],[16.3911429,40.3413332],[16.3826483,40.3420917],[16.3809398,40.3420814],[16.3803658,40.3430321],[16.3803416,40.3433244],[16.3801217,40.3435881],[16.3801593,40.3446593],[16.3801029,40.3449292],[16.3801834,40.3455016],[16.3799661,40.345843],[16.3793197,40.3464501],[16.3781503,40.3470858],[16.3775602,40.3478933],[16.3776326,40.3484391],[16.3775334,40.3488847],[16.3771149,40.3494857],[16.3762835,40.3514317],[16.3766938,40.3516013],[16.3768896,40.3517894],[16.3768548,40.3522616],[16.3775039,40.3540562],[16.3772598,40.3551784],[16.3773295,40.355438],[16.3772491,40.3556832],[16.3774797,40.3559346],[16.3778928,40.356182],[16.3782442,40.356278],[16.3793278,40.3569341],[16.3799661,40.3571549],[16.3803712,40.3572019],[16.3818356,40.3578539],[16.3809317,40.3590802],[16.3806394,40.3600244],[16.3803577,40.3606376],[16.3796711,40.3613979],[16.3793036,40.3621418],[16.378963,40.3625363],[16.3777292,40.3632556],[16.3764203,40.3637134],[16.3754708,40.3641794],[16.3740358,40.3653116],[16.3733974,40.3655793],[16.3724962,40.3682176],[16.3725284,40.3683177],[16.3723406,40.3684424],[16.3721958,40.3688021],[16.3726062,40.3696931],[16.3726491,40.3702019],[16.3722306,40.3705268],[16.3714904,40.3713585],[16.3708627,40.3717999],[16.370042,40.3725437],[16.3695538,40.3731567],[16.368784,40.373829],[16.3686231,40.374489],[16.3685828,40.375807],[16.3687223,40.3766019],[16.3692051,40.3771944],[16.3705301,40.3779688],[16.3711739,40.378451],[16.3713321,40.3787371],[16.3721126,40.3795421],[16.367695,40.3831238],[16.3676763,40.3835937],[16.3679606,40.3844212],[16.3679686,40.38465],[16.3684729,40.3857451],[16.3687277,40.3871629],[16.3697121,40.3889423],[16.3695592,40.3895511],[16.3704067,40.3904561],[16.3707474,40.3916778],[16.3704711,40.3939617],[16.3704792,40.3948544],[16.3695806,40.3993136],[16.3696343,40.3999631],[16.3695753,40.4007801],[16.3695109,40.4008823],[16.3698113,40.4019607],[16.3693285,40.4021997],[16.369307,40.4023121],[16.3693392,40.4031822],[16.3701627,40.4059885],[16.3700017,40.4064338],[16.3694411,40.4068116],[16.3694009,40.4075387],[16.3695417,40.4085058],[16.3688323,40.4091154],[16.3688725,40.4093891],[16.3686123,40.4097056],[16.368607,40.4100998],[16.3691139,40.4116683],[16.3690375,40.4120583],[16.3689476,40.4120318],[16.3688363,40.4121329],[16.3688819,40.4122095],[16.3691676,40.4122207],[16.3690603,40.412383],[16.369358,40.4125219],[16.3693728,40.4126261],[16.3692762,40.4127159],[16.3693473,40.4128671],[16.3692011,40.4128671],[16.3692641,40.4130805],[16.3693754,40.4130478],[16.3696329,40.4131642],[16.3699481,40.4134164],[16.3699159,40.4140423],[16.3694452,40.4143977],[16.3694559,40.4146315],[16.3696007,40.4147642],[16.3696504,40.4149674],[16.3697121,40.4149695],[16.3697174,40.4148715],[16.3699414,40.4149899],[16.3697429,40.4151655],[16.3698918,40.4152881],[16.3697,40.4154177],[16.3698851,40.4154984],[16.3702753,40.4152605],[16.3705033,40.4154667],[16.3705167,40.4162509],[16.3706401,40.4166838],[16.3705811,40.4170821],[16.3717666,40.4164755],[16.3720804,40.4164858],[16.3708667,40.4190501],[16.3516703,40.4228429],[16.3477039,40.4231955],[16.3453872,40.4221694],[16.3377226,40.4233066],[16.3345906,40.4251079],[16.3348736,40.4286126],[16.3337751,40.4279895],[16.3328378,40.4279021],[16.3251085,40.4286564],[16.3180099,40.4315493],[16.3155016,40.4326941],[16.3097686,40.4350291],[16.287951,40.4414797],[16.2747929,40.4478425],[16.2744529,40.447917],[16.2660454,40.4472523],[16.2584331,40.4464387],[16.2463841,40.445569],[16.2358463,40.4472681],[16.2308345,40.4484824],[16.2273553,40.4497358],[16.2261466,40.4500637],[16.2212462,40.4510419],[16.2181193,40.4514812],[16.2123663,40.4490934],[16.2050984,40.4429402],[16.2030483,40.4395011],[16.2018732,40.4385543],[16.1907659,40.4324778],[16.1888173,40.4329055],[16.1789184,40.4334743],[16.1780826,40.4333286],[16.17623,40.4325895]]]},"properties":{"type":"boundary","gemeente":"Stigliano"}}]}