{"type":"FeatureCollection","metadata":{"gemeente":"Stornara","slug":"stornara","generated_at":"2026-09-26T14:28:05.705137Z","total_points":16,"providers":["PosteItaliane","DPD","InPost","GLS","DHL","Amazon"],"bounds":[15.76665,41.285904,15.77042,41.29341]},"features":[{"type":"Feature","geometry":{"type":"Point","coordinates":[15.76831347,41.28815518]},"properties":{"type":"pakketpunt","locatieNaam":"Stornara","straatNaam":"Via Santa Maria Della Stella","straatNr":"25","vervoerder":"PosteItaliane","puntType":"postkantoor","bezettingsgraad":50,"latitude":41.28815518,"longitude":15.76831347,"canPickup":true,"canDropoff":true,"openingstijden":{"za":"08:20 - 12:35","zo":"gesloten","ma":"08:20 - 13:35","di":"08:20 - 13:35","wo":"08:20 - 13:35","do":"08:20 - 13:35","vr":"08:20 - 13:35"}}},{"type":"Feature","geometry":{"type":"Point","coordinates":[15.77019,41.28795]},"properties":{"type":"pakketpunt","locatieNaam":"Tabaccheria N. 1","straatNaam":"Via Vittorio Emanuele","straatNr":"31","vervoerder":"PosteItaliane","puntType":"servicepunt","bezettingsgraad":50,"latitude":41.28795,"longitude":15.77019,"canPickup":true,"canDropoff":true,"openingstijden":{"za":"07:00 - 13:30, 16:00 - 21:00","zo":"gesloten","ma":"07:00 - 13:30, 16:00 - 21:00","di":"07:00 - 13:30, 16:00 - 21:00","wo":"07:00 - 13:30, 16:00 - 21:00","do":"07:00 - 13:30, 16:00 - 21:00","vr":"07:00 - 13:30, 16:00 - 21:00"}}},{"type":"Feature","geometry":{"type":"Point","coordinates":[15.766784,41.29321378]},"properties":{"type":"pakketpunt","locatieNaam":"Ferramenta - Errea","straatNaam":"Via Mennola","straatNr":"13","vervoerder":"PosteItaliane","puntType":"automaat","bezettingsgraad":50,"latitude":41.29321378,"longitude":15.766784,"canPickup":true,"canDropoff":true,"openingstijden":{"za":"08:00 - 20:00","zo":"gesloten","ma":"08:00 - 20:00","di":"08:00 - 20:00","wo":"08:00 - 20:00","do":"08:00 - 20:00","vr":"08:00 - 20:00"}}},{"type":"Feature","geometry":{"type":"Point","coordinates":[15.76817058,41.2859042]},"properties":{"type":"pakketpunt","locatieNaam":"Tabaccheria N. 3","straatNaam":"Via Iolanda","straatNr":"40","vervoerder":"PosteItaliane","puntType":"servicepunt","bezettingsgraad":50,"latitude":41.2859042,"longitude":15.76817058,"canPickup":true,"canDropoff":true,"openingstijden":{"za":"07:00 - 13:00, 17:00 - 21:00","zo":"gesloten","ma":"08:00 - 13:30, 17:00 - 20:30","di":"08:00 - 13:30, 17:00 - 21:00","wo":"07:00 - 13:00, 17:00 - 21:00","do":"07:00 - 13:00, 17:00 - 21:00","vr":"07:00 - 13:00, 17:00 - 21:00"}}},{"type":"Feature","geometry":{"type":"Point","coordinates":[15.7700533,41.2880055]},"properties":{"type":"pakketpunt","locatieNaam":"Tabaccheria Riv. 1 Stornara","straatNaam":"VIA V. EMANUELE","straatNr":"31","vervoerder":"DPD","puntType":"pickup_point","bezettingsgraad":50,"latitude":41.2880055,"longitude":15.7700533,"canPickup":true,"canDropoff":true,"openingstijden":{"ma":"07:00 - 13:30, 16:30 - 21:00","di":"07:00 - 13:30, 16:30 - 21:00","wo":"07:00 - 13:30, 16:30 - 21:00","do":"07:00 - 13:30, 16:30 - 21:00","vr":"07:00 - 13:30, 16:30 - 21:00","za":"07:00 - 13:30, 16:30 - 21:00","zo":"gesloten"}}},{"type":"Feature","geometry":{"type":"Point","coordinates":[15.76665,41.29341]},"properties":{"type":"pakketpunt","locatieNaam":"InPost Locker 24/7","straatNaam":"Via Mennola","straatNr":"13","vervoerder":"InPost","puntType":"automaat","bezettingsgraad":50,"latitude":41.29341,"longitude":15.76665,"canPickup":true,"canDropoff":true,"openingstijden":null}},{"type":"Feature","geometry":{"type":"Point","coordinates":[15.7700702051,41.2880059654]},"properties":{"type":"pakketpunt","locatieNaam":"Tabaccheria N1 S&D di Azzollino Deborah","straatNaam":"Via Vittorio Emanuele","straatNr":"31","vervoerder":"GLS","puntType":"parcel_shop","bezettingsgraad":50,"latitude":41.2880059654,"longitude":15.7700702051,"canPickup":true,"canDropoff":true,"openingstijden":"za: 09:00 - 13:00, 17:00 - 20:00; ma: 09:00 - 13:00, 17:00 - 20:00"}},{"type":"Feature","geometry":{"type":"Point","coordinates":[15.768171,41.285904]},"properties":{"type":"pakketpunt","locatieNaam":"TABACCHERIA N. 3","straatNaam":"VIA IOLANDA 40","straatNr":"","vervoerder":"DHL","puntType":"parcelShop","bezettingsgraad":50,"latitude":41.285904,"longitude":15.768171,"canPickup":true,"canDropoff":true,"openingstijden":{"ma":"08:00 - 13:30, 17:00 - 20:30","di":"08:00 - 13:30, 17:00 - 21:00","wo":"07:00 - 13:00, 17:00 - 21:00","do":"07:00 - 13:00, 17:00 - 21:00","vr":"07:00 - 13:00, 17:00 - 21:00","za":"07:00 - 13:00, 17:00 - 21:00","zo":"gesloten"}}},{"type":"Feature","geometry":{"type":"Point","coordinates":[15.77019,41.28795]},"properties":{"type":"pakketpunt","locatieNaam":"TABACCHERIA N. 1","straatNaam":"VIA VITTORIO EMANUELE 31","straatNr":"","vervoerder":"DHL","puntType":"parcelShop","bezettingsgraad":50,"latitude":41.28795,"longitude":15.77019,"canPickup":true,"canDropoff":true,"openingstijden":{"ma":"07:00 - 13:30, 16:00 - 21:00","di":"07:00 - 13:30, 16:00 - 21:00","wo":"07:00 - 13:30, 16:00 - 21:00","do":"07:00 - 13:30, 16:00 - 21:00","vr":"07:00 - 13:30, 16:00 - 21:00","za":"07:00 - 13:30, 16:00 - 21:00","zo":"gesloten"}}},{"type":"Feature","geometry":{"type":"Point","coordinates":[15.77042,41.28852]},"properties":{"type":"pakketpunt","locatieNaam":"TABACCHERIA n1 DI AZZOLINO DEBORAH","straatNaam":"Via Vittorio Emanuele 31","straatNr":"","vervoerder":"DHL","puntType":"parcelShop","bezettingsgraad":50,"latitude":41.28852,"longitude":15.77042,"canPickup":false,"canDropoff":true,"openingstijden":{"ma":"07:00 - 21:00","di":"07:00 - 21:00","wo":"07:00 - 21:00","do":"07:00 - 21:00","vr":"07:00 - 21:00","za":"07:00 - 21:00","zo":"gesloten"}}},{"type":"Feature","geometry":{"type":"Point","coordinates":[15.768313,41.288155]},"properties":{"type":"pakketpunt","locatieNaam":"Ufficio Postale STORNARA","straatNaam":"VIA SANTA MARIA DELLA STELLA 25","straatNr":"","vervoerder":"DHL","puntType":"postOffice","bezettingsgraad":50,"latitude":41.288155,"longitude":15.768313,"canPickup":true,"canDropoff":true,"openingstijden":{"ma":"08:20 - 13:35","di":"08:20 - 13:35","wo":"08:20 - 13:35","do":"08:20 - 13:35","vr":"08:20 - 13:35","za":"08:20 - 12:35","zo":"gesloten"}}},{"type":"Feature","geometry":{"type":"Point","coordinates":[15.766784,41.293214]},"properties":{"type":"pakketpunt","locatieNaam":"FERRAMENTA - ERREA","straatNaam":"VIA MENNOLA 13","straatNr":"","vervoerder":"DHL","puntType":"packStation","bezettingsgraad":50,"latitude":41.293214,"longitude":15.766784,"canPickup":true,"canDropoff":true,"openingstijden":{"ma":"08:00 - 20:00","di":"08:00 - 20:00","wo":"08:00 - 20:00","do":"08:00 - 20:00","vr":"08:00 - 20:00","za":"08:00 - 20:00","zo":"gesloten"}}},{"type":"Feature","geometry":{"type":"Point","coordinates":[15.7699895,41.2879607]},"properties":{"type":"pakketpunt","locatieNaam":"Amazon Counter - RIVENDITA TABACCHI N.1 S & D","straatNaam":"VIA VITTORIO EMANUELE 31","straatNr":"","vervoerder":"Amazon","puntType":"helix","bezettingsgraad":50,"latitude":41.2879607,"longitude":15.7699895,"canPickup":true,"canDropoff":false,"openingstijden":null}},{"type":"Feature","geometry":{"type":"Point","coordinates":[15.7700533,41.2880055]},"properties":{"type":"pakketpunt","locatieNaam":"Amazon Counter","straatNaam":"Tabaccheria Riv. 1 Stornara (fermopoint)","straatNr":"","vervoerder":"Amazon","puntType":"helix","bezettingsgraad":50,"latitude":41.2880055,"longitude":15.7700533,"canPickup":true,"canDropoff":false,"openingstijden":null}},{"type":"Feature","geometry":{"type":"Point","coordinates":[15.7683,41.2881]},"properties":{"type":"pakketpunt","locatieNaam":"Ufficio Postale STORNARA","straatNaam":"VIA SANTA MARIA DELLA STELLA 25","straatNr":"","vervoerder":"Amazon","puntType":"3p","bezettingsgraad":50,"latitude":41.2881,"longitude":15.7683,"canPickup":true,"canDropoff":false,"openingstijden":null}},{"type":"Feature","geometry":{"type":"Point","coordinates":[15.7701,41.2879]},"properties":{"type":"pakketpunt","locatieNaam":"PuntoPoste TABACCHERIA N. 1","straatNaam":"VIA VITTORIO EMANUELE 31","straatNr":"","vervoerder":"Amazon","puntType":"3p","bezettingsgraad":50,"latitude":41.2879,"longitude":15.7701,"canPickup":true,"canDropoff":false,"openingstijden":null}},{"type":"Feature","geometry":{"type":"MultiPolygon","coordinates":[[[[15.7324629,41.2961744],[15.7328641,41.2966503],[15.7331248,41.2977419],[15.7343135,41.3099969],[15.7348283,41.3099397],[15.7425843,41.307207],[15.7436108,41.3133784],[15.7453042,41.3193849],[15.7526941,41.3180767],[15.753176,41.3181832],[15.7547738,41.3191015],[15.7558368,41.3200557],[15.7592496,41.3247007],[15.7600655,41.3260744],[15.7628309,41.3265499],[15.7645517,41.3245002],[15.762754,41.3198946],[15.7587709,41.3111757],[15.7651122,41.3092942],[15.7688752,41.313279],[15.7706335,41.3174722],[15.7760819,41.3245699],[15.7795198,41.3239169],[15.8013779,41.311831],[15.8202401,41.3004358],[15.8210196,41.2998709],[15.8134843,41.283506],[15.8212986,41.2799408],[15.8211042,41.2749038],[15.8210145,41.2744456],[15.8198133,41.2730682],[15.8151026,41.2693258],[15.8139686,41.2686328],[15.8122785,41.2681393],[15.7918972,41.262672],[15.7876884,41.2635105],[15.7839627,41.2640686],[15.7832938,41.2643602],[15.7831181,41.2645776],[15.7809407,41.2749973],[15.7759704,41.2758403],[15.7531094,41.2740805],[15.7487635,41.2731936],[15.7409333,41.2849174],[15.7414485,41.2946156],[15.7373039,41.2954713],[15.7324629,41.2961744]]],[[[15.7684424,41.3231095],[15.7700857,41.3245824],[15.7717334,41.3236889],[15.7704368,41.3221956],[15.7684424,41.3231095]]],[[[15.7697908,41.3284211],[15.7682337,41.3266681],[15.7664169,41.3277154],[15.7687494,41.3289676],[15.7697908,41.3284211]]]]},"properties":{"type":"boundary","gemeente":"Stornara"}}]}