{"type":"FeatureCollection","metadata":{"gemeente":"Susa","slug":"susa","generated_at":"2026-09-26T13:10:46.494079Z","total_points":21,"providers":["PosteItaliane","DPD","InPost","GLS","DHL","Amazon"],"bounds":[7.04503,45.1343677,7.06592,45.138314]},"features":[{"type":"Feature","geometry":{"type":"Point","coordinates":[7.04828153,45.13814391]},"properties":{"type":"pakketpunt","locatieNaam":"Susa","straatNaam":"Via Giuseppe Mazzini","straatNr":"40","vervoerder":"PosteItaliane","puntType":"postkantoor","bezettingsgraad":50,"latitude":45.13814391,"longitude":7.04828153,"canPickup":true,"canDropoff":true,"openingstijden":{"za":"08:20 - 12:35","zo":"gesloten","ma":"08:20 - 19:05","di":"08:20 - 13:35","wo":"08:20 - 19:05","do":"08:20 - 13:35","vr":"08:20 - 19:05"}}},{"type":"Feature","geometry":{"type":"Point","coordinates":[7.04610965,45.13551944]},"properties":{"type":"pakketpunt","locatieNaam":"Tabaccheria N. 1","straatNaam":"Via Palazzo Di Citta'","straatNr":"26","vervoerder":"PosteItaliane","puntType":"servicepunt","bezettingsgraad":50,"latitude":45.13551944,"longitude":7.04610965,"canPickup":true,"canDropoff":true,"openingstijden":{"za":"08:00 - 12:30, 14:30 - 19:30","zo":"08:00 - 12:30, 14:30 - 19:30","ma":"08:00 - 12:30, 14:30 - 19:30","di":"08:00 - 12:30, 14:30 - 19:30","wo":"08:00 - 12:30, 14:30 - 19:30","do":"08:00 - 12:30, 14:30 - 19:30","vr":"08:00 - 12:30, 14:30 - 19:30"}}},{"type":"Feature","geometry":{"type":"Point","coordinates":[7.04810401,45.1370571]},"properties":{"type":"pakketpunt","locatieNaam":"Tabaccheria N. 4","straatNaam":"Via Giuseppe Mazzini","straatNr":"8","vervoerder":"PosteItaliane","puntType":"servicepunt","bezettingsgraad":50,"latitude":45.1370571,"longitude":7.04810401,"canPickup":true,"canDropoff":true,"openingstijden":{"za":"08:00 - 12:30, 14:30 - 19:30","zo":"09:30 - 12:30, 14:30 - 18:00","ma":"08:00 - 12:30, 14:30 - 19:30","di":"08:00 - 12:30, 14:30 - 19:30","wo":"08:00 - 12:30, 14:30 - 19:30","do":"08:00 - 12:30, 14:30 - 19:30","vr":"08:00 - 12:30, 14:30 - 19:30"}}},{"type":"Feature","geometry":{"type":"Point","coordinates":[7.0474744,45.1343677]},"properties":{"type":"pakketpunt","locatieNaam":"Ferramenta MD","straatNaam":"VIA MONTEGRAPPA","straatNr":"9","vervoerder":"DPD","puntType":"pickup_point","bezettingsgraad":50,"latitude":45.1343677,"longitude":7.0474744,"canPickup":true,"canDropoff":true,"openingstijden":{"ma":"08:00 - 12:00, 15:00 - 19:00","di":"08:00 - 12:00, 15:00 - 19:00","wo":"08:00 - 12:00, 15:00 - 19:00","do":"08:00 - 12:00, 15:00 - 19:00","vr":"08:00 - 12:00, 15:00 - 19:00","za":"08:00 - 12:00","zo":"gesloten"}}},{"type":"Feature","geometry":{"type":"Point","coordinates":[7.05003,45.13827]},"properties":{"type":"pakketpunt","locatieNaam":"InPost Point","straatNaam":"Via Roma","straatNr":"76","vervoerder":"InPost","puntType":"servicepunt","bezettingsgraad":50,"latitude":45.13827,"longitude":7.05003,"canPickup":true,"canDropoff":true,"openingstijden":"Mar-Sab: 10:00 - 12:30 - 15:30 - 19:00"}},{"type":"Feature","geometry":{"type":"Point","coordinates":[7.04503,45.13582]},"properties":{"type":"pakketpunt","locatieNaam":"InPost Point","straatNaam":"Via Martiri della Libertà","straatNr":"1","vervoerder":"InPost","puntType":"servicepunt","bezettingsgraad":50,"latitude":45.13582,"longitude":7.04503,"canPickup":true,"canDropoff":true,"openingstijden":"Lun-Mar: 09:30 - 12:30 - 15:30 - 19:00 Gio-Ven: 09:30 - 12:30 - 15:30 - 19:00 Sab: 10:00 - 12:30 - 15:30 - 18:00"}},{"type":"Feature","geometry":{"type":"Point","coordinates":[7.06592,45.13694]},"properties":{"type":"pakketpunt","locatieNaam":"InPost Locker 24/7","straatNaam":"Regione Priorale","straatNr":"1A","vervoerder":"InPost","puntType":"automaat","bezettingsgraad":50,"latitude":45.13694,"longitude":7.06592,"canPickup":true,"canDropoff":true,"openingstijden":null}},{"type":"Feature","geometry":{"type":"Point","coordinates":[7.060825,45.1359812]},"properties":{"type":"pakketpunt","locatieNaam":"CAFFETTERIA FRANCA EDICOLA","straatNaam":"Caduti Di Tutte Le Guerre","straatNr":"2","vervoerder":"GLS","puntType":"parcel_shop","bezettingsgraad":50,"latitude":45.1359812,"longitude":7.060825,"canPickup":true,"canDropoff":true,"openingstijden":"za: 06:00 - 19:30; zo: 06:00 - 12:00"}},{"type":"Feature","geometry":{"type":"Point","coordinates":[7.0500038,45.1381118]},"properties":{"type":"pakketpunt","locatieNaam":"Picci8 Sicily drink and food di ALVISI Silvia","straatNaam":"Via Roma","straatNr":"76","vervoerder":"GLS","puntType":"parcel_shop","bezettingsgraad":50,"latitude":45.1381118,"longitude":7.0500038,"canPickup":true,"canDropoff":true,"openingstijden":"za: 10:00 - 12:30, 15:30 - 19:00; di: 10:00 - 12:30, 15:30 - 19:00"}},{"type":"Feature","geometry":{"type":"Point","coordinates":[7.04611,45.135519]},"properties":{"type":"pakketpunt","locatieNaam":"TABACCHERIA N. 1","straatNaam":"VIA PALAZZO DI CITTA 26","straatNr":"","vervoerder":"DHL","puntType":"parcelShop","bezettingsgraad":50,"latitude":45.135519,"longitude":7.04611,"canPickup":true,"canDropoff":true,"openingstijden":{"ma":"08:00 - 12:30, 14:30 - 19:30","di":"08:00 - 12:30, 14:30 - 19:30","wo":"08:00 - 12:30, 14:30 - 19:30","do":"08:00 - 12:30, 14:30 - 19:30","vr":"08:00 - 12:30, 14:30 - 19:30","za":"08:00 - 12:30, 14:30 - 19:30","zo":"08:00 - 12:30, 14:30 - 19:30"}}},{"type":"Feature","geometry":{"type":"Point","coordinates":[7.047927,45.137214]},"properties":{"type":"pakketpunt","locatieNaam":"RK COMPUTER & GAME","straatNaam":"Via Mazzini 7","straatNr":"","vervoerder":"DHL","puntType":"parcelShop","bezettingsgraad":50,"latitude":45.137214,"longitude":7.047927,"canPickup":false,"canDropoff":true,"openingstijden":{"ma":"16:00 - 19:00","di":"10:00 - 19:00","wo":"10:00 - 19:00","do":"10:00 - 19:00","vr":"10:00 - 19:00","za":"gesloten","zo":"gesloten"}}},{"type":"Feature","geometry":{"type":"Point","coordinates":[7.048104,45.137057]},"properties":{"type":"pakketpunt","locatieNaam":"TABACCHERIA N. 4","straatNaam":"VIA GIUSEPPE MAZZINI 8","straatNr":"","vervoerder":"DHL","puntType":"parcelShop","bezettingsgraad":50,"latitude":45.137057,"longitude":7.048104,"canPickup":true,"canDropoff":true,"openingstijden":{"ma":"08:00 - 12:30, 14:30 - 19:30","di":"08:00 - 12:30, 14:30 - 19:30","wo":"08:00 - 12:30, 14:30 - 19:30","do":"08:00 - 12:30, 14:30 - 19:30","vr":"08:00 - 12:30, 14:30 - 19:30","za":"08:00 - 12:30, 14:30 - 19:30","zo":"09:30 - 12:30, 14:30 - 18:00"}}},{"type":"Feature","geometry":{"type":"Point","coordinates":[7.048282,45.138144]},"properties":{"type":"pakketpunt","locatieNaam":"Ufficio Postale SUSA","straatNaam":"VIA GIUSEPPE MAZZINI 40","straatNr":"","vervoerder":"DHL","puntType":"postOffice","bezettingsgraad":50,"latitude":45.138144,"longitude":7.048282,"canPickup":true,"canDropoff":true,"openingstijden":{"ma":"08:20 - 19:05","di":"08:20 - 13:35","wo":"08:20 - 19:05","do":"08:20 - 13:35","vr":"08:20 - 19:05","za":"08:20 - 12:35","zo":"gesloten"}}},{"type":"Feature","geometry":{"type":"Point","coordinates":[7.0627297,45.1347952]},"properties":{"type":"pakketpunt","locatieNaam":"Amazon Locker - cocco","straatNaam":"Centro Commerciale Coop Susa","straatNr":"","vervoerder":"Amazon","puntType":"locker","bezettingsgraad":50,"latitude":45.1347952,"longitude":7.0627297,"canPickup":true,"canDropoff":false,"openingstijden":null}},{"type":"Feature","geometry":{"type":"Point","coordinates":[7.05149,45.13507]},"properties":{"type":"pakketpunt","locatieNaam":"Amazon Locker - artimio","straatNaam":"ENI Station pv.726","straatNr":"","vervoerder":"Amazon","puntType":"locker","bezettingsgraad":50,"latitude":45.13507,"longitude":7.05149,"canPickup":true,"canDropoff":false,"openingstijden":null}},{"type":"Feature","geometry":{"type":"Point","coordinates":[7.0474744,45.1343677]},"properties":{"type":"pakketpunt","locatieNaam":"Amazon Counter (fermopoint)","straatNaam":"Ferramenta MD","straatNr":"","vervoerder":"Amazon","puntType":"helix","bezettingsgraad":50,"latitude":45.1343677,"longitude":7.0474744,"canPickup":true,"canDropoff":false,"openingstijden":null}},{"type":"Feature","geometry":{"type":"Point","coordinates":[7.0608861,45.1359777]},"properties":{"type":"pakketpunt","locatieNaam":"Amazon Counter - PRIMAEDICOLA","straatNaam":"GAROFALO FRANCESCHINA","straatNr":"","vervoerder":"Amazon","puntType":"helix","bezettingsgraad":50,"latitude":45.1359777,"longitude":7.0608861,"canPickup":true,"canDropoff":false,"openingstijden":null}},{"type":"Feature","geometry":{"type":"Point","coordinates":[7.0481,45.137]},"properties":{"type":"pakketpunt","locatieNaam":"PuntoPoste TABACCHERIA N. 4","straatNaam":"VIA GIUSEPPE MAZZINI 8","straatNr":"","vervoerder":"Amazon","puntType":"3p","bezettingsgraad":50,"latitude":45.137,"longitude":7.0481,"canPickup":true,"canDropoff":false,"openingstijden":null}},{"type":"Feature","geometry":{"type":"Point","coordinates":[7.0461,45.1355]},"properties":{"type":"pakketpunt","locatieNaam":"PuntoPoste TABACCHERIA N. 1","straatNaam":"VIA PALAZZO DI CITTA' 26","straatNr":"","vervoerder":"Amazon","puntType":"3p","bezettingsgraad":50,"latitude":45.1355,"longitude":7.0461,"canPickup":true,"canDropoff":false,"openingstijden":null}},{"type":"Feature","geometry":{"type":"Point","coordinates":[7.051757,45.138314]},"properties":{"type":"pakketpunt","locatieNaam":"Amazon Counter (fermopoint)","straatNaam":"La Stazione","straatNr":"","vervoerder":"Amazon","puntType":"helix","bezettingsgraad":50,"latitude":45.138314,"longitude":7.051757,"canPickup":true,"canDropoff":false,"openingstijden":null}},{"type":"Feature","geometry":{"type":"Point","coordinates":[7.04828,45.1381]},"properties":{"type":"pakketpunt","locatieNaam":"Ufficio Postale SUSA","straatNaam":"VIA GIUSEPPE MAZZINI 40","straatNr":"","vervoerder":"Amazon","puntType":"3p","bezettingsgraad":50,"latitude":45.1381,"longitude":7.04828,"canPickup":true,"canDropoff":false,"openingstijden":null}},{"type":"Feature","geometry":{"type":"Polygon","coordinates":[[[7.031235,45.1362784],[7.0318606,45.1356771],[7.0324462,45.1349536],[7.0325461,45.1340506],[7.0322138,45.1338649],[7.0319412,45.1334956],[7.0320666,45.1330747],[7.0327252,45.1325279],[7.0343264,45.1320874],[7.0346849,45.1321206],[7.0348655,45.1322452],[7.035147,45.132205],[7.035545,45.1323154],[7.0358882,45.1321818],[7.0359762,45.1322328],[7.0359404,45.1323492],[7.036244,45.1324445],[7.0365519,45.1330259],[7.0372912,45.1328946],[7.0380581,45.1330383],[7.0381023,45.133138],[7.0383721,45.1331292],[7.0384859,45.1330546],[7.0389302,45.1322791],[7.0391799,45.1320899],[7.0391531,45.1313288],[7.0393996,45.1310719],[7.0398256,45.1309892],[7.040219,45.1310725],[7.0403946,45.1312015],[7.0404823,45.1314146],[7.0401302,45.1324347],[7.0401991,45.1325799],[7.0412449,45.1327734],[7.0415984,45.13264],[7.0419406,45.1323713],[7.0416743,45.1322677],[7.0417362,45.1321652],[7.0414559,45.1320074],[7.041417,45.1319122],[7.0415435,45.1317704],[7.0418352,45.1317349],[7.0413471,45.1307048],[7.0409815,45.130577],[7.0397053,45.1304876],[7.0389834,45.1302636],[7.0389225,45.1301861],[7.0389677,45.1301059],[7.0396985,45.1297583],[7.0397226,45.1293582],[7.0403064,45.1291476],[7.0406809,45.1293161],[7.0409417,45.1292666],[7.0410445,45.1292008],[7.0413271,45.1286656],[7.0416552,45.1286577],[7.0419532,45.1284513],[7.0422484,45.1284743],[7.0422617,45.128389],[7.0426014,45.1283544],[7.0430252,45.1286407],[7.0429793,45.1287389],[7.0431804,45.1287379],[7.0439309,45.1282781],[7.0443836,45.1283354],[7.0446239,45.1279524],[7.0444031,45.1277641],[7.044254,45.127487],[7.0440718,45.1273984],[7.0442409,45.1272528],[7.0445896,45.1272587],[7.045131,45.1270339],[7.0454133,45.1271333],[7.0455747,45.1270506],[7.0454766,45.1268283],[7.0461187,45.1267583],[7.0461169,45.1271138],[7.0459204,45.127295],[7.0455325,45.1281345],[7.0457637,45.128323],[7.0459088,45.1288791],[7.0466228,45.1287068],[7.046989,45.1291316],[7.0478612,45.1296011],[7.0482586,45.1292614],[7.0485758,45.1291093],[7.0487418,45.1287385],[7.048997,45.1287024],[7.048992,45.1283827],[7.0495484,45.1284958],[7.0495471,45.1289998],[7.0497827,45.1290714],[7.0500192,45.1288009],[7.0501557,45.1283666],[7.0507517,45.1284038],[7.0515933,45.1286837],[7.0525123,45.1283978],[7.052885,45.1280126],[7.0540586,45.1280686],[7.0547187,45.1279134],[7.0555101,45.1275443],[7.0554332,45.1273989],[7.0554541,45.1271923],[7.0557345,45.1270935],[7.0557559,45.1266033],[7.056928,45.1262902],[7.0576808,45.12624],[7.0589089,45.1259278],[7.0598351,45.1259526],[7.060006,45.126023],[7.0599966,45.1264639],[7.0603256,45.1271446],[7.0602227,45.1272014],[7.0608607,45.1280403],[7.0609333,45.1279741],[7.0625022,45.1278297],[7.0642996,45.1269735],[7.0645886,45.127343],[7.0661223,45.1262573],[7.0666339,45.1257933],[7.0678904,45.1261792],[7.0684964,45.1265315],[7.0692431,45.1265441],[7.0703053,45.1272597],[7.0713877,45.127179],[7.0715279,45.1272534],[7.0720492,45.1272892],[7.0730116,45.1269499],[7.0734675,45.1269215],[7.0737196,45.1270923],[7.0736563,45.1273568],[7.0738811,45.1277387],[7.0746699,45.1285171],[7.0748185,45.1285421],[7.0750858,45.1282631],[7.075646,45.1283716],[7.0764402,45.1285785],[7.0787999,45.1294869],[7.0796934,45.1289618],[7.080407,45.1287533],[7.081243,45.1293344],[7.0822327,45.128973],[7.0827817,45.1294773],[7.0832325,45.1294714],[7.085828,45.130253],[7.0866591,45.1303075],[7.0871599,45.1304239],[7.087633,45.1303103],[7.0888172,45.1302041],[7.0884827,45.1298204],[7.0891796,45.129193],[7.0904959,45.1287739],[7.0900644,45.1281996],[7.0901917,45.1279812],[7.0897155,45.1273251],[7.0903729,45.1275521],[7.0907327,45.1273691],[7.0898121,45.1266156],[7.0893139,45.1265532],[7.0892847,45.1266203],[7.088943,45.126439],[7.0876238,45.1263764],[7.0866671,45.1259328],[7.0865409,45.1255616],[7.086601,45.1253061],[7.0870064,45.1251148],[7.0871963,45.1246274],[7.0881113,45.1241207],[7.0915442,45.1241151],[7.0955825,45.1245921],[7.0967315,45.1245843],[7.1007299,45.1258616],[7.1015011,45.126248],[7.1029825,45.1268082],[7.1043018,45.1269651],[7.1079254,45.1277364],[7.1092083,45.1277666],[7.1102653,45.1280902],[7.1108471,45.1276677],[7.1110638,45.1276533],[7.1129188,45.127954],[7.1151724,45.1280588],[7.1158704,45.1278002],[7.1168204,45.1272623],[7.1170783,45.1272261],[7.1209485,45.1274969],[7.1219648,45.1278197],[7.122229,45.128013],[7.1224488,45.1283137],[7.1229928,45.1286197],[7.1249166,45.1293084],[7.1252983,45.1300303],[7.12542,45.1304374],[7.1255121,45.1305154],[7.1260782,45.1305697],[7.1262211,45.1307431],[7.1268982,45.1331127],[7.126241,45.1332054],[7.1254837,45.133139],[7.1231401,45.1325603],[7.1217878,45.1326776],[7.120908,45.1325551],[7.1202138,45.1325752],[7.1184454,45.1330097],[7.1174269,45.1329209],[7.1158231,45.1330024],[7.1128898,45.1337101],[7.1115567,45.1338231],[7.1106179,45.1337176],[7.1108178,45.1352691],[7.1109405,45.1356718],[7.1118142,45.137437],[7.1110226,45.1379505],[7.1105881,45.1381099],[7.1105931,45.138272],[7.1109029,45.1393483],[7.1116385,45.139266],[7.1118289,45.1398452],[7.1120583,45.1401911],[7.1120739,45.1406684],[7.1102373,45.1408001],[7.1098889,45.1415279],[7.1094167,45.1418757],[7.109205,45.1419442],[7.1088785,45.1419973],[7.1064734,45.1419124],[7.1038279,45.1421251],[7.1027435,45.1426291],[7.1019245,45.1426965],[7.1019195,45.1434796],[7.1017688,45.1436031],[7.1003543,45.1439442],[7.0987754,45.1441969],[7.094939,45.1436559],[7.0912788,45.1436578],[7.0899204,45.1434955],[7.0879243,45.1438267],[7.0850661,45.1441073],[7.0821768,45.1442118],[7.0778371,45.1437113],[7.0766975,45.1426119],[7.0768724,45.1417732],[7.0758571,45.1416121],[7.0754484,45.1420643],[7.0739685,45.1420528],[7.0731194,45.141962],[7.0727141,45.1417571],[7.0714909,45.1408093],[7.0709312,45.1407413],[7.0706003,45.1408302],[7.0701833,45.1407016],[7.0701615,45.1413449],[7.0685676,45.1416645],[7.0683003,45.1412594],[7.0683173,45.1410392],[7.0681466,45.1408202],[7.0679192,45.1406228],[7.067591,45.1405003],[7.067019,45.1403736],[7.0660355,45.1403659],[7.0654231,45.1404815],[7.0652257,45.1407708],[7.0646612,45.1399735],[7.0647082,45.1396188],[7.0637842,45.1397076],[7.0622178,45.1401796],[7.0624886,45.1404228],[7.0629234,45.1404932],[7.063193,45.1406553],[7.0624843,45.1411698],[7.0621808,45.1416013],[7.0616917,45.1426327],[7.0612308,45.1425618],[7.0608159,45.1426538],[7.0598983,45.1426382],[7.0596208,45.1428135],[7.0582703,45.1431371],[7.0575741,45.1434943],[7.0569043,45.143636],[7.0566913,45.1438439],[7.0564921,45.143917],[7.0548616,45.1442088],[7.054866,45.1443484],[7.0550786,45.144442],[7.0549842,45.1447285],[7.0545991,45.1447624],[7.0542698,45.1442527],[7.0536769,45.1429644],[7.0537035,45.1427083],[7.0512794,45.143216],[7.0495504,45.1439247],[7.049185,45.1439274],[7.0470616,45.1443817],[7.0467638,45.1446062],[7.045929,45.1446414],[7.0446133,45.1450374],[7.0446388,45.1451189],[7.0436026,45.1452902],[7.0432844,45.1452712],[7.04289,45.1450304],[7.0424225,45.1450089],[7.0416779,45.1451401],[7.0411935,45.1453299],[7.0400574,45.1451348],[7.0390177,45.1451305],[7.0381711,45.145233],[7.0376248,45.1450525],[7.0372405,45.1450594],[7.0372381,45.1448523],[7.0351643,45.1452352],[7.0344055,45.1438719],[7.0355736,45.143667],[7.0364949,45.1437144],[7.0374739,45.1433801],[7.03818,45.1429917],[7.0380971,45.1426167],[7.0376184,45.1421449],[7.0377732,45.1419675],[7.0377374,45.1418994],[7.0374716,45.1417688],[7.0371808,45.1414037],[7.0381197,45.1403577],[7.0385367,45.1400678],[7.0375477,45.1399203],[7.0360497,45.1395029],[7.0351261,45.1391405],[7.034731,45.1391067],[7.0335913,45.1385694],[7.033291,45.1380782],[7.0331706,45.137581],[7.0329678,45.13733],[7.031235,45.1362784]]]},"properties":{"type":"boundary","gemeente":"Susa"}}]}