{"type":"FeatureCollection","metadata":{"gemeente":"Sustinente","slug":"sustinente","generated_at":"2026-09-26T14:28:06.142310Z","total_points":7,"providers":["PosteItaliane","DPD","GLS","DHL","Amazon","FedEx"],"bounds":[11.01505349,45.06884894,11.02316,45.070473]},"features":[{"type":"Feature","geometry":{"type":"Point","coordinates":[11.01505349,45.06980888]},"properties":{"type":"pakketpunt","locatieNaam":"Sustinente","straatNaam":"Via Guglielmo Marconi","straatNr":"496/c","vervoerder":"PosteItaliane","puntType":"postkantoor","bezettingsgraad":50,"latitude":45.06980888,"longitude":11.01505349,"canPickup":true,"canDropoff":true,"openingstijden":{"za":"gesloten","zo":"gesloten","ma":"08:20 - 13:45","di":"gesloten","wo":"08:20 - 13:45","do":"gesloten","vr":"08:20 - 13:45"}}},{"type":"Feature","geometry":{"type":"Point","coordinates":[11.02081453,45.06884894]},"properties":{"type":"pakketpunt","locatieNaam":"Tabaccheria N. 1","straatNaam":"Via Guglielmo Marconi","straatNr":"43","vervoerder":"PosteItaliane","puntType":"servicepunt","bezettingsgraad":50,"latitude":45.06884894,"longitude":11.02081453,"canPickup":true,"canDropoff":true,"openingstijden":{"za":"06:00 - 20:30","zo":"06:00 - 20:30","ma":"06:00 - 20:30","di":"06:00 - 20:30","wo":"06:00 - 20:30","do":"06:00 - 20:30","vr":"06:00 - 20:30"}}},{"type":"Feature","geometry":{"type":"Point","coordinates":[11.0224829,45.0704729]},"properties":{"type":"pakketpunt","locatieNaam":"Mc Market di Zuliani Cinzia","straatNaam":"VIA BREDA","straatNr":"265","vervoerder":"DPD","puntType":"pickup_point","bezettingsgraad":50,"latitude":45.0704729,"longitude":11.0224829,"canPickup":true,"canDropoff":true,"openingstijden":{"ma":"07:30 - 13:00","di":"07:30 - 13:00, 16:00 - 19:00","wo":"07:30 - 13:00, 16:00 - 19:00","do":"07:30 - 13:00, 16:00 - 19:00","vr":"07:30 - 13:00, 16:00 - 19:00","za":"07:30 - 13:00, 16:00 - 19:00","zo":"gesloten"}}},{"type":"Feature","geometry":{"type":"Point","coordinates":[11.0224829,45.0704729]},"properties":{"type":"pakketpunt","locatieNaam":"Mc Market di Zuliani Cinzia","straatNaam":"Via Breda","straatNr":"265","vervoerder":"GLS","puntType":"parcel_shop","bezettingsgraad":50,"latitude":45.0704729,"longitude":11.0224829,"canPickup":true,"canDropoff":true,"openingstijden":"za: 07:30 - 13:00, 16:00 - 19:00; ma: 07:30 - 13:00"}},{"type":"Feature","geometry":{"type":"Point","coordinates":[11.020815,45.068849]},"properties":{"type":"pakketpunt","locatieNaam":"TABACCHERIA N. 1","straatNaam":"VIA GUGLIELMO MARCONI 43","straatNr":"","vervoerder":"DHL","puntType":"parcelShop","bezettingsgraad":50,"latitude":45.068849,"longitude":11.020815,"canPickup":true,"canDropoff":true,"openingstijden":{"ma":"06:00 - 20:30","di":"06:00 - 20:30","wo":"06:00 - 20:30","do":"06:00 - 20:30","vr":"06:00 - 20:30","za":"06:00 - 20:30","zo":"06:00 - 20:30"}}},{"type":"Feature","geometry":{"type":"Point","coordinates":[11.02316,45.069832]},"properties":{"type":"pakketpunt","locatieNaam":"Amazon Counter (fermopoint)","straatNaam":"Mc Market di Zuliani Cinzia","straatNr":"","vervoerder":"Amazon","puntType":"helix","bezettingsgraad":50,"latitude":45.069832,"longitude":11.02316,"canPickup":true,"canDropoff":false,"openingstijden":null}},{"type":"Feature","geometry":{"type":"Point","coordinates":[11.022483,45.070473]},"properties":{"type":"pakketpunt","locatieNaam":"FedEx OnSite","straatNaam":"VIA BREDA, 265","straatNr":"","vervoerder":"FedEx","puntType":"servicepunt","bezettingsgraad":50,"latitude":45.070473,"longitude":11.022483,"canPickup":true,"canDropoff":true,"openingstijden":{"ma":"07:30 - 13:00","di":"07:30 - 13:00, 16:00 - 19:00","wo":"07:30 - 13:00, 16:00 - 19:00","do":"07:30 - 13:00, 16:00 - 19:00","vr":"07:30 - 13:00, 16:00 - 19:00","za":"07:30 - 13:00, 16:00 - 19:00","zo":"gesloten"}}},{"type":"Feature","geometry":{"type":"Polygon","coordinates":[[[10.981708,45.0718003],[10.9821227,45.0708098],[10.9824446,45.0703097],[10.9826474,45.0690403],[10.9836138,45.0689144],[10.9852377,45.0685371],[10.9885891,45.0681355],[10.9887005,45.0679709],[10.9886534,45.0673859],[10.9890088,45.0670856],[10.9897481,45.0668159],[10.9924565,45.0662286],[10.9929628,45.0661994],[10.9948345,45.0665393],[10.9987793,45.0666962],[11.0006791,45.0666956],[11.001187,45.0665855],[11.0022689,45.0659914],[11.0049581,45.0649232],[11.0060657,45.0642759],[11.0096281,45.0629248],[11.0106614,45.0624138],[11.0137728,45.0598675],[11.0152963,45.0585033],[11.0174206,45.0569269],[11.0203389,45.055684],[11.0227636,45.0548654],[11.0326985,45.0519701],[11.0376123,45.0481651],[11.0436633,45.045512],[11.0478047,45.0443294],[11.0507229,45.0437194],[11.0530128,45.0439076],[11.0555568,45.0444253],[11.0540916,45.0479894],[11.0499104,45.0587548],[11.0480809,45.0616311],[11.0489693,45.0616517],[11.049912,45.0614412],[11.0498831,45.0620538],[11.0491925,45.0650406],[11.0496171,45.0652722],[11.0509113,45.065231],[11.051858,45.065421],[11.0520236,45.0657871],[11.0522563,45.0659156],[11.0497171,45.0663012],[11.0497221,45.0664411],[11.049383,45.0668172],[11.0496811,45.0670624],[11.0521364,45.0710691],[11.0516981,45.0715991],[11.0508697,45.0722351],[11.0497949,45.0727315],[11.0523016,45.0758805],[11.0489128,45.079727],[11.0494359,45.0809002],[11.0499654,45.0835025],[11.051648,45.0907827],[11.0504722,45.0923701],[11.055823,45.0938042],[11.0563678,45.0940206],[11.0560386,45.0955192],[11.0506899,45.0959988],[11.0433738,45.0968002],[11.0563205,45.1041202],[11.0608317,45.1033817],[11.0632493,45.1021867],[11.0691976,45.0997038],[11.0712281,45.0983449],[11.0729425,45.0987486],[11.0711198,45.1000906],[11.0702252,45.1005815],[11.0524254,45.1089924],[11.0507517,45.1093125],[11.0507598,45.1094934],[11.0495001,45.1097169],[11.0461458,45.1101191],[11.0401643,45.1106402],[11.0393071,45.1108445],[11.0388432,45.1110238],[11.0375314,45.1120284],[11.0361142,45.1129268],[11.0358147,45.1130852],[11.0346558,45.1133849],[11.0339385,45.1139468],[11.0330454,45.1142147],[11.0320404,45.1141966],[11.0316615,45.1142664],[11.0306852,45.1146978],[11.0303441,45.1147579],[11.0290732,45.1147715],[11.0287864,45.1149296],[11.0279509,45.1157456],[11.0256528,45.1171538],[11.0264426,45.1157625],[11.0263062,45.1137036],[11.0255796,45.1125733],[11.0244962,45.1121334],[11.0230412,45.1123302],[11.0213075,45.1129189],[11.0209904,45.1125736],[11.0195468,45.1094935],[11.0193751,45.1082273],[11.0190874,45.1072782],[11.0173538,45.1046174],[11.0170433,45.1033806],[11.0160584,45.1017597],[11.0150826,45.1003997],[11.0132862,45.098469],[11.0119096,45.0965489],[11.0114326,45.0952701],[11.0107159,45.0940405],[11.0103579,45.0932546],[11.00725,45.0883403],[11.0057394,45.0883849],[11.0051272,45.0886837],[11.0045163,45.0897476],[11.0031528,45.0903657],[11.001362,45.0907572],[10.9998305,45.0920262],[10.9993235,45.0927913],[10.9982733,45.0932867],[10.995865,45.0931063],[10.9953664,45.0926535],[10.9947176,45.0908104],[10.9946159,45.089714],[10.9943618,45.0893494],[10.9936487,45.0893078],[10.9921933,45.0887481],[10.9897275,45.0872698],[10.9871446,45.0860726],[10.9852575,45.0855203],[10.9831602,45.0851337],[10.9832343,45.0840837],[10.9836018,45.0832086],[10.9832578,45.0831786],[10.9829169,45.0825094],[10.9820401,45.0825066],[10.9812112,45.0794784],[10.9824097,45.0792326],[10.982309,45.077425],[10.9817441,45.0746802],[10.9814575,45.07374],[10.9815177,45.0725417],[10.981708,45.0718003]]]},"properties":{"type":"boundary","gemeente":"Sustinente"}}]}