{"type":"FeatureCollection","metadata":{"gemeente":"Taino","slug":"taino","generated_at":"2026-09-26T13:10:46.774530Z","total_points":10,"providers":["PosteItaliane","DPD","GLS","DHL","Amazon"],"bounds":[8.61385,45.7632,8.6159123,45.764682]},"features":[{"type":"Feature","geometry":{"type":"Point","coordinates":[8.6159123,45.763272]},"properties":{"type":"pakketpunt","locatieNaam":"Taino","straatNaam":"Via Giuseppe Garibaldi","straatNr":"23","vervoerder":"PosteItaliane","puntType":"postkantoor","bezettingsgraad":50,"latitude":45.763272,"longitude":8.6159123,"canPickup":true,"canDropoff":true,"openingstijden":{"za":"08:20 - 12:45","zo":"gesloten","ma":"08:20 - 13:45","di":"08:20 - 13:45","wo":"08:20 - 13:45","do":"08:20 - 13:45","vr":"08:20 - 13:45"}}},{"type":"Feature","geometry":{"type":"Point","coordinates":[8.61552063,45.764682]},"properties":{"type":"pakketpunt","locatieNaam":"Tabaccheria N. 1","straatNaam":"Piazza Piero E Gaspare Pajetta","straatNr":"7","vervoerder":"PosteItaliane","puntType":"servicepunt","bezettingsgraad":50,"latitude":45.764682,"longitude":8.61552063,"canPickup":true,"canDropoff":true,"openingstijden":{"za":"07:00 - 13:00, 15:00 - 19:45","zo":"07:00 - 13:00","ma":"07:00 - 13:00, 15:00 - 19:45","di":"07:00 - 13:00, 15:00 - 19:45","wo":"07:00 - 13:00, 15:00 - 19:45","do":"07:00 - 13:00, 15:00 - 19:45","vr":"07:00 - 13:00, 15:00 - 19:45"}}},{"type":"Feature","geometry":{"type":"Point","coordinates":[8.61404708,45.76409118]},"properties":{"type":"pakketpunt","locatieNaam":"Bar Caffé Fior di Loto","straatNaam":"P.ZZA S. STEFANO","straatNr":"20","vervoerder":"DPD","puntType":"pickup_point","bezettingsgraad":50,"latitude":45.76409118,"longitude":8.61404708,"canPickup":true,"canDropoff":true,"openingstijden":{"ma":"07:00 - 19:30","di":"07:00 - 19:30","wo":"07:00 - 19:30","do":"07:00 - 19:30","vr":"07:00 - 19:30","za":"07:00 - 19:30","zo":"gesloten"}}},{"type":"Feature","geometry":{"type":"Point","coordinates":[8.6140739,45.7641548]},"properties":{"type":"pakketpunt","locatieNaam":"bar caffe' fior di loto","straatNaam":"Piazza S.Stefano","straatNr":"20","vervoerder":"GLS","puntType":"parcel_shop","bezettingsgraad":50,"latitude":45.7641548,"longitude":8.6140739,"canPickup":true,"canDropoff":true,"openingstijden":"za: 06:00 - 19:30; zo: 07:00 - 13:00"}},{"type":"Feature","geometry":{"type":"Point","coordinates":[8.615912,45.763272]},"properties":{"type":"pakketpunt","locatieNaam":"Ufficio Postale TAINO","straatNaam":"VIA GARIBALDI 23","straatNr":"","vervoerder":"DHL","puntType":"postOffice","bezettingsgraad":50,"latitude":45.763272,"longitude":8.615912,"canPickup":true,"canDropoff":true,"openingstijden":{"ma":"08:20 - 13:45","di":"08:20 - 13:45","wo":"08:20 - 13:45","do":"08:20 - 13:45","vr":"08:20 - 13:45","za":"08:20 - 12:45","zo":"gesloten"}}},{"type":"Feature","geometry":{"type":"Point","coordinates":[8.615521,45.764682]},"properties":{"type":"pakketpunt","locatieNaam":"TABACCHERIA N. 1","straatNaam":"PIAZZA PIERO E GASPARE PAJETTA 7","straatNr":"","vervoerder":"DHL","puntType":"parcelShop","bezettingsgraad":50,"latitude":45.764682,"longitude":8.615521,"canPickup":true,"canDropoff":true,"openingstijden":{"ma":"07:00 - 13:00, 15:00 - 19:45","di":"07:00 - 13:00, 15:00 - 19:45","wo":"07:00 - 13:00, 15:00 - 19:45","do":"07:00 - 13:00, 15:00 - 19:45","vr":"07:00 - 13:00, 15:00 - 19:45","za":"07:00 - 13:00, 15:00 - 19:45","zo":"07:00 - 13:00"}}},{"type":"Feature","geometry":{"type":"Point","coordinates":[8.61385,45.76409]},"properties":{"type":"pakketpunt","locatieNaam":"BAR CAFFE' FIOR DI LOTO","straatNaam":"Piazza Santo Stefano 20-22","straatNr":"","vervoerder":"DHL","puntType":"parcelShop","bezettingsgraad":50,"latitude":45.76409,"longitude":8.61385,"canPickup":false,"canDropoff":true,"openingstijden":{"ma":"06:00 - 19:30","di":"06:00 - 19:30","wo":"06:00 - 19:30","do":"06:00 - 19:30","vr":"06:00 - 19:30","za":"06:00 - 19:30","zo":"gesloten"}}},{"type":"Feature","geometry":{"type":"Point","coordinates":[8.6139478,45.7640426]},"properties":{"type":"pakketpunt","locatieNaam":"Amazon Counter","straatNaam":"Bar Caffé Fior di Loto (fermopoint)","straatNr":"","vervoerder":"Amazon","puntType":"helix","bezettingsgraad":50,"latitude":45.7640426,"longitude":8.6139478,"canPickup":true,"canDropoff":false,"openingstijden":null}},{"type":"Feature","geometry":{"type":"Point","coordinates":[8.61591,45.7632]},"properties":{"type":"pakketpunt","locatieNaam":"Ufficio Postale TAINO","straatNaam":"VIA GARIBALDI 23","straatNr":"","vervoerder":"Amazon","puntType":"3p","bezettingsgraad":50,"latitude":45.7632,"longitude":8.61591,"canPickup":true,"canDropoff":false,"openingstijden":null}},{"type":"Feature","geometry":{"type":"Point","coordinates":[8.61552,45.7646]},"properties":{"type":"pakketpunt","locatieNaam":"PuntoPoste TABACCHERIA N. 1","straatNaam":"PIAZZA PIERO E GASPARE PAJETTA 7","straatNr":"","vervoerder":"Amazon","puntType":"3p","bezettingsgraad":50,"latitude":45.7646,"longitude":8.61552,"canPickup":true,"canDropoff":false,"openingstijden":null}},{"type":"Feature","geometry":{"type":"Polygon","coordinates":[[[8.6006382,45.7552872],[8.6006773,45.7551152],[8.6012539,45.7547077],[8.6017044,45.7546463],[8.6024779,45.7539064],[8.6024614,45.7528218],[8.6027203,45.7527323],[8.6037844,45.7528422],[8.605877,45.7523116],[8.6060303,45.7522266],[8.6060328,45.7516371],[8.6082645,45.7514873],[8.6090043,45.7509542],[8.6102985,45.7513412],[8.6108058,45.7504969],[8.6107262,45.7494615],[8.6115737,45.7484428],[8.6175173,45.7485709],[8.6185494,45.7485113],[8.6191586,45.7489589],[8.620113,45.7489846],[8.6207743,45.7495853],[8.621552,45.7500874],[8.6220548,45.7501116],[8.6242091,45.7509467],[8.6245112,45.7507227],[8.6260685,45.7502373],[8.6270436,45.7491798],[8.6284576,45.7478914],[8.6331611,45.7511333],[8.6360694,45.7524522],[8.6368417,45.7538182],[8.6363648,45.7540012],[8.637066,45.7561591],[8.6373747,45.7563941],[8.6381369,45.7565945],[8.6379631,45.7568685],[8.6383303,45.7582558],[8.638267,45.7598442],[8.6390283,45.7606971],[8.6391436,45.7617551],[8.6419552,45.7617234],[8.6420499,45.7617372],[8.6421146,45.7619264],[8.6411659,45.7651358],[8.6383234,45.7648536],[8.6374401,45.765742],[8.6360796,45.7676806],[8.6350535,45.7683873],[8.6344242,45.7682132],[8.6339008,45.7691108],[8.6293331,45.7709645],[8.6281514,45.7713162],[8.6267088,45.7733384],[8.6265529,45.773671],[8.6268057,45.7741569],[8.6258144,45.7753036],[8.6257812,45.7755448],[8.6249794,45.7756701],[8.6245847,45.7760062],[8.6242282,45.7761331],[8.6229284,45.7755402],[8.6217441,45.774768],[8.621593,45.7748033],[8.6212087,45.7746683],[8.6208417,45.774765],[8.6207817,45.7748684],[8.6200966,45.7750024],[8.6198004,45.7753568],[8.6188079,45.7758839],[8.6168013,45.7760819],[8.6169585,45.7763183],[8.6175893,45.7768689],[8.6173316,45.7770834],[8.6175403,45.7772225],[8.6173405,45.7774932],[8.6174134,45.7776101],[8.6179546,45.7779307],[8.6180295,45.7783271],[8.6178386,45.7784296],[8.6179573,45.7786715],[8.6180425,45.7786989],[8.6169952,45.7791798],[8.6163963,45.779365],[8.6159249,45.7790676],[8.6156262,45.7790504],[8.6153412,45.7787251],[8.6151352,45.7787706],[8.6148795,45.7787127],[8.6143696,45.7788441],[8.6143618,45.7789389],[8.6134255,45.7790178],[8.6112239,45.7786893],[8.6111228,45.7787223],[8.6109847,45.7798191],[8.6106864,45.7809271],[8.6080628,45.7804832],[8.6081109,45.7787979],[8.6078426,45.777676],[8.607523,45.7775286],[8.607598,45.7767744],[8.6069812,45.7768483],[8.6066797,45.7759169],[8.6036912,45.7765538],[8.602973,45.776613],[8.6024788,45.7755064],[8.6020259,45.7742714],[8.601569,45.7725098],[8.6016393,45.7722707],[8.6021825,45.7718174],[8.6022464,45.7716274],[8.6021319,45.7714181],[8.6022272,45.7711784],[8.6021924,45.7710442],[8.6026095,45.7707555],[8.602352,45.7705677],[8.6021696,45.7698904],[8.6020768,45.7691042],[8.6023987,45.769015],[8.6026524,45.7691219],[8.6030187,45.7690421],[8.6035095,45.7690625],[8.6036265,45.769041],[8.6036835,45.7688459],[8.6034227,45.7682795],[8.6029674,45.7675718],[8.6019833,45.7679885],[8.6010415,45.7663347],[8.6005078,45.7658163],[8.6002985,45.765857],[8.5990041,45.7642081],[8.6011488,45.7622021],[8.6020949,45.7616183],[8.6025214,45.7614763],[8.6026848,45.7610565],[8.6026064,45.760431],[8.6024806,45.7604333],[8.6022718,45.759802],[8.6022125,45.7594046],[8.6011935,45.756004],[8.6006382,45.7552872]]]},"properties":{"type":"boundary","gemeente":"Taino"}}]}