{"type":"FeatureCollection","metadata":{"gemeente":"Teramo","slug":"teramo","generated_at":"2026-09-26T13:10:47.307078Z","total_points":157,"providers":["PosteItaliane","DPD","InPost","GLS","DHL","Amazon"],"bounds":[13.62143942,42.616,13.79085312,42.696658]},"features":[{"type":"Feature","geometry":{"type":"Point","coordinates":[13.76967636,42.68608174]},"properties":{"type":"pakketpunt","locatieNaam":"Tabaccheria N. 72","straatNaam":"Strada Statale 80 Snc","straatNr":"1","vervoerder":"PosteItaliane","puntType":"servicepunt","bezettingsgraad":50,"latitude":42.68608174,"longitude":13.76967636,"canPickup":true,"canDropoff":true,"openingstijden":{"za":"08:00 - 20:00","zo":"08:00 - 20:00","ma":"08:00 - 20:00","di":"08:00 - 20:00","wo":"08:00 - 20:00","do":"08:00 - 20:00","vr":"08:00 - 20:00"}}},{"type":"Feature","geometry":{"type":"Point","coordinates":[13.71267303,42.6664187]},"properties":{"type":"pakketpunt","locatieNaam":"Tabaccheria N. 77","straatNaam":"Piazza Italia Snc","straatNr":"4","vervoerder":"PosteItaliane","puntType":"servicepunt","bezettingsgraad":50,"latitude":42.6664187,"longitude":13.71267303,"canPickup":true,"canDropoff":true,"openingstijden":{"za":"06:40 - 20:15","zo":"18:00 - 20:00","ma":"06:40 - 20:15","di":"06:40 - 20:15","wo":"06:40 - 20:15","do":"06:40 - 20:15","vr":"06:40 - 20:15"}}},{"type":"Feature","geometry":{"type":"Point","coordinates":[13.75678942,42.68989733]},"properties":{"type":"pakketpunt","locatieNaam":"Poggio San Vittorino","straatNaam":"Via Centrale","straatNr":"10","vervoerder":"PosteItaliane","puntType":"postkantoor","bezettingsgraad":50,"latitude":42.68989733,"longitude":13.75678942,"canPickup":true,"canDropoff":true,"openingstijden":{"za":"gesloten","zo":"gesloten","ma":"08:20 - 13:45","di":"gesloten","wo":"08:20 - 13:45","do":"08:20 - 13:45","vr":"08:20 - 13:45"}}},{"type":"Feature","geometry":{"type":"Point","coordinates":[13.70939819,42.65764208]},"properties":{"type":"pakketpunt","locatieNaam":"Teramo 2","straatNaam":"Via Noe' Lucidi","straatNr":"15","vervoerder":"PosteItaliane","puntType":"postkantoor","bezettingsgraad":50,"latitude":42.65764208,"longitude":13.70939819,"canPickup":true,"canDropoff":true,"openingstijden":{"za":"08:20 - 12:35","zo":"gesloten","ma":"08:20 - 13:35","di":"08:20 - 13:35","wo":"08:20 - 13:35","do":"08:20 - 13:35","vr":"08:20 - 13:35"}}},{"type":"Feature","geometry":{"type":"Point","coordinates":[13.7383228,42.67718392]},"properties":{"type":"pakketpunt","locatieNaam":"Teramo 5","straatNaam":"Piazza Rishon Le Zion","straatNr":"2","vervoerder":"PosteItaliane","puntType":"postkantoor","bezettingsgraad":50,"latitude":42.67718392,"longitude":13.7383228,"canPickup":true,"canDropoff":true,"openingstijden":{"za":"08:20 - 12:35","zo":"gesloten","ma":"08:20 - 13:35","di":"08:20 - 13:35","wo":"08:20 - 13:35","do":"08:20 - 13:35","vr":"08:20 - 13:35"}}},{"type":"Feature","geometry":{"type":"Point","coordinates":[13.6972631,42.66188952]},"properties":{"type":"pakketpunt","locatieNaam":"Teramo 1","straatNaam":"Viale Giovanni Bovio","straatNr":"95","vervoerder":"PosteItaliane","puntType":"postkantoor","bezettingsgraad":50,"latitude":42.66188952,"longitude":13.6972631,"canPickup":true,"canDropoff":true,"openingstijden":{"za":"08:20 - 12:35","zo":"gesloten","ma":"08:20 - 13:35","di":"08:20 - 13:35","wo":"08:20 - 13:35","do":"08:20 - 13:35","vr":"08:20 - 13:35"}}},{"type":"Feature","geometry":{"type":"Point","coordinates":[13.78604299,42.69492543]},"properties":{"type":"pakketpunt","locatieNaam":"San Nicolo' A Tordino","straatNaam":"Via Galileo Galilei","straatNr":"52","vervoerder":"PosteItaliane","puntType":"postkantoor","bezettingsgraad":50,"latitude":42.69492543,"longitude":13.78604299,"canPickup":true,"canDropoff":true,"openingstijden":{"za":"08:20 - 12:35","zo":"gesloten","ma":"08:20 - 13:35","di":"08:20 - 13:35","wo":"08:20 - 13:35","do":"08:20 - 13:35","vr":"08:20 - 13:35"}}},{"type":"Feature","geometry":{"type":"Point","coordinates":[13.70843869,42.61842191]},"properties":{"type":"pakketpunt","locatieNaam":"Miano","straatNaam":"Strada Principale","straatNr":"55","vervoerder":"PosteItaliane","puntType":"postkantoor","bezettingsgraad":50,"latitude":42.61842191,"longitude":13.70843869,"canPickup":true,"canDropoff":true,"openingstijden":{"za":"gesloten","zo":"gesloten","ma":"08:20 - 13:45","di":"gesloten","wo":"gesloten","do":"gesloten","vr":"08:20 - 13:45"}}},{"type":"Feature","geometry":{"type":"Point","coordinates":[13.62143942,42.62177447]},"properties":{"type":"pakketpunt","locatieNaam":"Valle San Giovanni","straatNaam":"Via Nazionale Valle San Giovanni","straatNr":"32","vervoerder":"PosteItaliane","puntType":"postkantoor","bezettingsgraad":50,"latitude":42.62177447,"longitude":13.62143942,"canPickup":true,"canDropoff":true,"openingstijden":{"za":"08:20 - 12:45","zo":"gesloten","ma":"gesloten","di":"08:20 - 13:45","wo":"gesloten","do":"gesloten","vr":"gesloten"}}},{"type":"Feature","geometry":{"type":"Point","coordinates":[13.70100287,42.65851393]},"properties":{"type":"pakketpunt","locatieNaam":"Teramo Centro","straatNaam":"Via Giacomo Paladini","straatNr":"42","vervoerder":"PosteItaliane","puntType":"postkantoor","bezettingsgraad":50,"latitude":42.65851393,"longitude":13.70100287,"canPickup":true,"canDropoff":true,"openingstijden":{"za":"gesloten","zo":"gesloten","ma":"08:20 - 19:05","di":"08:20 - 19:05","wo":"08:20 - 19:05","do":"08:20 - 19:05","vr":"08:20 - 19:05"}}},{"type":"Feature","geometry":{"type":"Point","coordinates":[13.76398394,42.61606239]},"properties":{"type":"pakketpunt","locatieNaam":"Villa Vomano","straatNaam":"Via Nazionale Villa Vomano","straatNr":"18","vervoerder":"PosteItaliane","puntType":"postkantoor","bezettingsgraad":50,"latitude":42.61606239,"longitude":13.76398394,"canPickup":true,"canDropoff":true,"openingstijden":{"za":"08:20 - 12:35","zo":"gesloten","ma":"08:20 - 13:35","di":"08:20 - 13:35","wo":"08:20 - 13:35","do":"08:20 - 13:35","vr":"08:20 - 13:35"}}},{"type":"Feature","geometry":{"type":"Point","coordinates":[13.71434625,42.66221616]},"properties":{"type":"pakketpunt","locatieNaam":"Teramo 3","straatNaam":"Via Giacinto Pannella","straatNr":"43","vervoerder":"PosteItaliane","puntType":"postkantoor","bezettingsgraad":50,"latitude":42.66221616,"longitude":13.71434625,"canPickup":true,"canDropoff":true,"openingstijden":{"za":"08:20 - 12:35","zo":"gesloten","ma":"08:20 - 19:05","di":"08:20 - 19:05","wo":"08:20 - 19:05","do":"08:20 - 19:05","vr":"08:20 - 19:05"}}},{"type":"Feature","geometry":{"type":"Point","coordinates":[13.75803933,42.68755315]},"properties":{"type":"pakketpunt","locatieNaam":"Nepezzano","straatNaam":"Via Camillo Guerrieri Crocetti","straatNr":"11","vervoerder":"PosteItaliane","puntType":"postkantoor","bezettingsgraad":50,"latitude":42.68755315,"longitude":13.75803933,"canPickup":true,"canDropoff":true,"openingstijden":{"za":"08:20 - 12:45","zo":"gesloten","ma":"08:20 - 13:45","di":"08:20 - 13:45","wo":"08:20 - 13:45","do":"08:20 - 13:45","vr":"08:20 - 13:45"}}},{"type":"Feature","geometry":{"type":"Point","coordinates":[13.65693222,42.62852791]},"properties":{"type":"pakketpunt","locatieNaam":"Tordinia","straatNaam":"Via Della Ramiera Snc","straatNr":"2","vervoerder":"PosteItaliane","puntType":"postkantoor","bezettingsgraad":50,"latitude":42.62852791,"longitude":13.65693222,"canPickup":true,"canDropoff":true,"openingstijden":{"za":"08:20 - 12:45","zo":"gesloten","ma":"08:20 - 13:45","di":"08:20 - 13:45","wo":"08:20 - 13:45","do":"08:20 - 13:45","vr":"08:20 - 13:45"}}},{"type":"Feature","geometry":{"type":"Point","coordinates":[13.68489185,42.65560563]},"properties":{"type":"pakketpunt","locatieNaam":"Teramo 4","straatNaam":"Via Cona","straatNr":"102","vervoerder":"PosteItaliane","puntType":"postkantoor","bezettingsgraad":50,"latitude":42.65560563,"longitude":13.68489185,"canPickup":true,"canDropoff":true,"openingstijden":{"za":"08:20 - 12:45","zo":"gesloten","ma":"08:20 - 13:45","di":"08:20 - 13:45","wo":"08:20 - 13:45","do":"08:20 - 13:45","vr":"08:20 - 13:45"}}},{"type":"Feature","geometry":{"type":"Point","coordinates":[13.65907608,42.63126518]},"properties":{"type":"pakketpunt","locatieNaam":"Tabaccheria N. 23","straatNaam":"Villa Tordinia Snc","straatNr":"1","vervoerder":"PosteItaliane","puntType":"servicepunt","bezettingsgraad":50,"latitude":42.63126518,"longitude":13.65907608,"canPickup":true,"canDropoff":true,"openingstijden":{"za":"06:00 - 13:00, 13:30 - 22:00","zo":"gesloten","ma":"06:00 - 13:00, 13:30 - 22:00","di":"06:00 - 13:00, 13:30 - 22:00","wo":"06:00 - 13:00, 13:30 - 22:00","do":"06:00 - 13:00, 13:30 - 22:00","vr":"06:00 - 13:00, 13:30 - 22:00"}}},{"type":"Feature","geometry":{"type":"Point","coordinates":[13.69697642,42.66116028]},"properties":{"type":"pakketpunt","locatieNaam":"Tabaccheria N. 41","straatNaam":"Via Del Castello","straatNr":"6","vervoerder":"PosteItaliane","puntType":"servicepunt","bezettingsgraad":50,"latitude":42.66116028,"longitude":13.69697642,"canPickup":true,"canDropoff":true,"openingstijden":{"za":"07:30 - 13:00, 15:30 - 20:00","zo":"gesloten","ma":"07:30 - 13:00, 15:30 - 20:00","di":"07:30 - 13:00, 15:30 - 20:00","wo":"07:30 - 13:00, 15:30 - 20:00","do":"07:30 - 13:00, 15:30 - 20:00","vr":"07:30 - 13:00, 15:30 - 20:00"}}},{"type":"Feature","geometry":{"type":"Point","coordinates":[13.75940843,42.6819951]},"properties":{"type":"pakketpunt","locatieNaam":"Tabaccheria N. 11","straatNaam":"Localita' Piano D'accio Snc","straatNr":"1","vervoerder":"PosteItaliane","puntType":"servicepunt","bezettingsgraad":50,"latitude":42.6819951,"longitude":13.75940843,"canPickup":true,"canDropoff":true,"openingstijden":{"za":"09:00 - 21:00","zo":"09:00 - 21:00","ma":"09:00 - 21:00","di":"09:00 - 21:00","wo":"09:00 - 21:00","do":"09:00 - 21:00","vr":"09:00 - 21:00"}}},{"type":"Feature","geometry":{"type":"Point","coordinates":[13.6987961,42.65803278]},"properties":{"type":"pakketpunt","locatieNaam":"Tabaccheria N. 33","straatNaam":"Piazza Dante Alighieri","straatNr":"3","vervoerder":"PosteItaliane","puntType":"servicepunt","bezettingsgraad":50,"latitude":42.65803278,"longitude":13.6987961,"canPickup":true,"canDropoff":true,"openingstijden":{"za":"08:00 - 12:50, 16:10 - 19:45","zo":"gesloten","ma":"08:00 - 12:50, 16:10 - 19:45","di":"08:00 - 12:50, 16:10 - 19:45","wo":"08:00 - 12:50, 16:10 - 19:45","do":"08:00 - 12:50, 16:10 - 19:45","vr":"08:00 - 12:50, 16:10 - 19:45"}}},{"type":"Feature","geometry":{"type":"Point","coordinates":[13.73863259,42.67684771]},"properties":{"type":"pakketpunt","locatieNaam":"Tabaccheria N. 68","straatNaam":"Piazza Rishon Le Zion Snc","straatNr":"1","vervoerder":"PosteItaliane","puntType":"servicepunt","bezettingsgraad":50,"latitude":42.67684771,"longitude":13.73863259,"canPickup":true,"canDropoff":true,"openingstijden":{"za":"07:30 - 13:30, 15:30 - 20:00","zo":"gesloten","ma":"07:30 - 13:30, 15:30 - 20:00","di":"07:30 - 13:30, 15:30 - 20:00","wo":"07:30 - 13:30, 15:30 - 20:00","do":"07:30 - 13:30, 15:30 - 20:00","vr":"07:30 - 13:30, 15:30 - 20:00"}}},{"type":"Feature","geometry":{"type":"Point","coordinates":[13.739752,42.679903]},"properties":{"type":"pakketpunt","locatieNaam":"Tabaccheria N. 76","straatNaam":"Via Vincenzo Pilotti Snc","straatNr":"1","vervoerder":"PosteItaliane","puntType":"servicepunt","bezettingsgraad":50,"latitude":42.679903,"longitude":13.739752,"canPickup":true,"canDropoff":true,"openingstijden":{"za":"06:30 - 21:30","zo":"06:30 - 13:00","ma":"06:30 - 21:30","di":"06:30 - 21:30","wo":"06:30 - 21:30","do":"06:30 - 21:30","vr":"06:30 - 21:30"}}},{"type":"Feature","geometry":{"type":"Point","coordinates":[13.70996715,42.65867796]},"properties":{"type":"pakketpunt","locatieNaam":"Tabaccheria N. 34","straatNaam":"Circonvallazione Ragusa","straatNr":"86","vervoerder":"PosteItaliane","puntType":"servicepunt","bezettingsgraad":50,"latitude":42.65867796,"longitude":13.70996715,"canPickup":true,"canDropoff":true,"openingstijden":{"za":"08:00 - 13:00, 16:00 - 20:00","zo":"gesloten","ma":"08:00 - 13:00, 16:00 - 20:00","di":"08:00 - 13:00, 16:00 - 20:00","wo":"08:00 - 13:00, 16:00 - 20:00","do":"08:00 - 13:00, 16:00 - 20:00","vr":"08:00 - 13:00, 16:00 - 20:00"}}},{"type":"Feature","geometry":{"type":"Point","coordinates":[13.70550614,42.65833674]},"properties":{"type":"pakketpunt","locatieNaam":"Tabaccheria N. 4","straatNaam":"Corso Vincenzo Cerulli","straatNr":"57","vervoerder":"PosteItaliane","puntType":"servicepunt","bezettingsgraad":50,"latitude":42.65833674,"longitude":13.70550614,"canPickup":true,"canDropoff":true,"openingstijden":{"za":"07:30 - 13:00, 15:30 - 19:30","zo":"gesloten","ma":"07:30 - 13:00, 15:30 - 19:30","di":"gesloten","wo":"gesloten","do":"07:30 - 13:00, 15:30 - 19:30","vr":"07:30 - 13:00, 15:30 - 19:30"}}},{"type":"Feature","geometry":{"type":"Point","coordinates":[13.78833551,42.69410733]},"properties":{"type":"pakketpunt","locatieNaam":"Lava Piu'","straatNaam":"Via Cristoforo Colombo","straatNr":"98","vervoerder":"PosteItaliane","puntType":"automaat","bezettingsgraad":50,"latitude":42.69410733,"longitude":13.78833551,"canPickup":true,"canDropoff":true,"openingstijden":{"za":"07:00 - 22:00","zo":"07:00 - 22:00","ma":"07:00 - 22:00","di":"07:00 - 22:00","wo":"07:00 - 22:00","do":"07:00 - 22:00","vr":"07:00 - 22:00"}}},{"type":"Feature","geometry":{"type":"Point","coordinates":[13.69921787,42.66183279]},"properties":{"type":"pakketpunt","locatieNaam":"Tabaccheria N. 56","straatNaam":"Piazza Giuseppe Garibaldi","straatNr":"43","vervoerder":"PosteItaliane","puntType":"servicepunt","bezettingsgraad":50,"latitude":42.66183279,"longitude":13.69921787,"canPickup":true,"canDropoff":true,"openingstijden":{"za":"08:00 - 13:00, 16:00 - 20:00","zo":"08:30 - 13:00, 16:00 - 20:00","ma":"08:00 - 13:00, 16:00 - 20:00","di":"08:00 - 13:00, 16:00 - 20:00","wo":"08:00 - 13:00, 16:00 - 20:00","do":"08:00 - 13:00, 16:00 - 20:00","vr":"08:00 - 13:00, 16:00 - 20:00"}}},{"type":"Feature","geometry":{"type":"Point","coordinates":[13.70484364,42.65843734]},"properties":{"type":"pakketpunt","locatieNaam":"Tabaccheria N. 3","straatNaam":"Corso Vincenzo Cerulli","straatNr":"29","vervoerder":"PosteItaliane","puntType":"servicepunt","bezettingsgraad":50,"latitude":42.65843734,"longitude":13.70484364,"canPickup":true,"canDropoff":true,"openingstijden":{"za":"07:30 - 13:00, 15:30 - 20:00","zo":"gesloten","ma":"07:30 - 13:00, 15:30 - 20:00","di":"07:30 - 13:00, 15:30 - 20:00","wo":"07:30 - 13:00, 15:30 - 20:00","do":"07:30 - 13:00, 15:30 - 20:00","vr":"07:30 - 13:00, 15:30 - 20:00"}}},{"type":"Feature","geometry":{"type":"Point","coordinates":[13.69352792,42.6586661]},"properties":{"type":"pakketpunt","locatieNaam":"Lava Piu'","straatNaam":"Viale Francesco Crucioli","straatNr":"121","vervoerder":"PosteItaliane","puntType":"automaat","bezettingsgraad":50,"latitude":42.6586661,"longitude":13.69352792,"canPickup":true,"canDropoff":true,"openingstijden":{"za":"07:00 - 22:00","zo":"07:00 - 22:00","ma":"07:00 - 22:00","di":"07:00 - 22:00","wo":"07:00 - 22:00","do":"07:00 - 22:00","vr":"07:00 - 22:00"}}},{"type":"Feature","geometry":{"type":"Point","coordinates":[13.69827282,42.65681258]},"properties":{"type":"pakketpunt","locatieNaam":"Tabaccheria N. 43","straatNaam":"Corso Porta Romana","straatNr":"3","vervoerder":"PosteItaliane","puntType":"servicepunt","bezettingsgraad":50,"latitude":42.65681258,"longitude":13.69827282,"canPickup":true,"canDropoff":true,"openingstijden":{"za":"08:30 - 13:00, 15:30 - 20:00","zo":"gesloten","ma":"08:30 - 13:00, 15:30 - 20:00","di":"08:30 - 13:00, 15:30 - 20:00","wo":"08:30 - 13:00, 15:30 - 20:00","do":"08:30 - 13:00, 15:30 - 20:00","vr":"08:30 - 13:00, 15:30 - 20:00"}}},{"type":"Feature","geometry":{"type":"Point","coordinates":[13.68753114,42.65733163]},"properties":{"type":"pakketpunt","locatieNaam":"Tabaccheria N. 38","straatNaam":"Via Cona","straatNr":"24","vervoerder":"PosteItaliane","puntType":"servicepunt","bezettingsgraad":50,"latitude":42.65733163,"longitude":13.68753114,"canPickup":true,"canDropoff":true,"openingstijden":{"za":"08:00 - 13:00, 15:30 - 19:30","zo":"gesloten","ma":"08:00 - 13:00, 15:30 - 19:30","di":"08:00 - 13:00, 15:30 - 19:30","wo":"08:00 - 13:00, 15:30 - 19:30","do":"08:00 - 13:00, 15:30 - 19:30","vr":"08:00 - 13:00, 15:30 - 19:30"}}},{"type":"Feature","geometry":{"type":"Point","coordinates":[13.73818711,42.67430721]},"properties":{"type":"pakketpunt","locatieNaam":"Tabaccheria N. 29","straatNaam":"Viale Europa","straatNr":"36","vervoerder":"PosteItaliane","puntType":"servicepunt","bezettingsgraad":50,"latitude":42.67430721,"longitude":13.73818711,"canPickup":true,"canDropoff":true,"openingstijden":{"za":"06:00 - 13:00, 15:00 - 20:00","zo":"06:00 - 13:00","ma":"06:00 - 13:00, 15:00 - 20:00","di":"06:00 - 13:00, 15:00 - 20:00","wo":"06:00 - 13:00, 15:00 - 20:00","do":"06:00 - 13:00, 15:00 - 20:00","vr":"06:00 - 13:00, 15:00 - 20:00"}}},{"type":"Feature","geometry":{"type":"Point","coordinates":[13.78643773,42.69665781]},"properties":{"type":"pakketpunt","locatieNaam":"Tabaccheria N. 39","straatNaam":"Via Galilei Galileo","straatNr":"20/d","vervoerder":"PosteItaliane","puntType":"servicepunt","bezettingsgraad":50,"latitude":42.69665781,"longitude":13.78643773,"canPickup":true,"canDropoff":true,"openingstijden":{"za":"06:00 - 21:00","zo":"06:00 - 21:00","ma":"06:00 - 21:00","di":"06:00 - 21:00","wo":"06:00 - 21:00","do":"06:00 - 21:00","vr":"06:00 - 21:00"}}},{"type":"Feature","geometry":{"type":"Point","coordinates":[13.79085312,42.69554443]},"properties":{"type":"pakketpunt","locatieNaam":"Edicola","straatNaam":"Piazza San Francesco","straatNr":"1","vervoerder":"PosteItaliane","puntType":"servicepunt","bezettingsgraad":50,"latitude":42.69554443,"longitude":13.79085312,"canPickup":true,"canDropoff":true,"openingstijden":{"za":"06:30 - 13:30, 16:00 - 19:00","zo":"gesloten","ma":"06:30 - 13:30, 16:00 - 19:00","di":"06:30 - 13:30, 16:00 - 19:00","wo":"06:30 - 13:30, 16:00 - 19:00","do":"06:30 - 13:00, 16:00 - 19:00","vr":"06:30 - 13:30, 16:00 - 19:00"}}},{"type":"Feature","geometry":{"type":"Point","coordinates":[13.704011,42.65875293]},"properties":{"type":"pakketpunt","locatieNaam":"Tabaccheria N. 9","straatNaam":"Piazza Ercole Vincenzo Orsini","straatNr":"1","vervoerder":"PosteItaliane","puntType":"servicepunt","bezettingsgraad":50,"latitude":42.65875293,"longitude":13.704011,"canPickup":true,"canDropoff":true,"openingstijden":{"za":"08:30 - 13:00, 16:00 - 20:00","zo":"gesloten","ma":"08:30 - 13:00, 16:00 - 20:00","di":"08:30 - 13:00, 16:00 - 20:00","wo":"08:30 - 13:00, 16:00 - 20:00","do":"08:30 - 13:00, 16:00 - 20:00","vr":"08:30 - 13:00, 16:00 - 20:00"}}},{"type":"Feature","geometry":{"type":"Point","coordinates":[13.70252169,42.6593228]},"properties":{"type":"pakketpunt","locatieNaam":"Tabaccheria N. 1","straatNaam":"Corso San Giorgio","straatNr":"123","vervoerder":"PosteItaliane","puntType":"servicepunt","bezettingsgraad":50,"latitude":42.6593228,"longitude":13.70252169,"canPickup":true,"canDropoff":true,"openingstijden":{"za":"08:00 - 14:00, 15:30 - 20:30","zo":"gesloten","ma":"08:00 - 14:00, 15:30 - 20:30","di":"08:00 - 14:00, 15:30 - 20:30","wo":"08:00 - 14:00, 15:30 - 20:30","do":"08:00 - 14:00, 15:30 - 20:30","vr":"08:00 - 14:00, 15:30 - 20:30"}}},{"type":"Feature","geometry":{"type":"Point","coordinates":[13.7166446,42.66250794]},"properties":{"type":"pakketpunt","locatieNaam":"Nonsolosvapo - Teramo","straatNaam":"Via Alberto Pepe","straatNr":"39/c","vervoerder":"PosteItaliane","puntType":"servicepunt","bezettingsgraad":50,"latitude":42.66250794,"longitude":13.7166446,"canPickup":true,"canDropoff":true,"openingstijden":{"za":"09:00 - 19:30","zo":"gesloten","ma":"07:30 - 19:30","di":"07:30 - 19:30","wo":"07:30 - 19:30","do":"07:30 - 13:00","vr":"07:30 - 13:00"}}},{"type":"Feature","geometry":{"type":"Point","coordinates":[13.71417697,42.66242904]},"properties":{"type":"pakketpunt","locatieNaam":"Tabaccheria N. 18","straatNaam":"Via Giacinto Pannella","straatNr":"47/49","vervoerder":"PosteItaliane","puntType":"servicepunt","bezettingsgraad":50,"latitude":42.66242904,"longitude":13.71417697,"canPickup":true,"canDropoff":true,"openingstijden":{"za":"07:30 - 20:00","zo":"gesloten","ma":"07:30 - 20:00","di":"07:30 - 20:00","wo":"07:30 - 20:00","do":"07:30 - 20:00","vr":"07:30 - 20:00"}}},{"type":"Feature","geometry":{"type":"Point","coordinates":[13.78012616,42.69030467]},"properties":{"type":"pakketpunt","locatieNaam":"Tabaccheria N. 19","straatNaam":"Via Cristoforo Colombo","straatNr":"196","vervoerder":"PosteItaliane","puntType":"servicepunt","bezettingsgraad":50,"latitude":42.69030467,"longitude":13.78012616,"canPickup":true,"canDropoff":true,"openingstijden":{"za":"08:00 - 13:00, 16:00 - 19:30","zo":"gesloten","ma":"08:00 - 13:00, 16:00 - 19:30","di":"08:00 - 13:00, 16:00 - 19:30","wo":"08:00 - 13:00, 16:00 - 19:30","do":"08:00 - 13:00, 16:00 - 19:30","vr":"08:00 - 13:00, 16:00 - 19:30"}}},{"type":"Feature","geometry":{"type":"Point","coordinates":[13.71797125,42.66270008]},"properties":{"type":"pakketpunt","locatieNaam":"Tabaccheria N. 62","straatNaam":"Via Roma","straatNr":"12","vervoerder":"PosteItaliane","puntType":"servicepunt","bezettingsgraad":50,"latitude":42.66270008,"longitude":13.71797125,"canPickup":true,"canDropoff":true,"openingstijden":{"za":"06:30 - 13:00, 15:30 - 19:30","zo":"gesloten","ma":"06:30 - 13:00, 15:30 - 19:30","di":"06:30 - 13:00, 15:30 - 19:30","wo":"06:30 - 13:00, 15:30 - 19:30","do":"06:30 - 13:00, 15:30 - 19:30","vr":"06:30 - 13:00, 15:30 - 19:30"}}},{"type":"Feature","geometry":{"type":"Point","coordinates":[13.70261657,42.65882482]},"properties":{"type":"pakketpunt","locatieNaam":"Tabaccheria N. 8","straatNaam":"Piazza Martiri Della Liberta'","straatNr":"15","vervoerder":"PosteItaliane","puntType":"servicepunt","bezettingsgraad":50,"latitude":42.65882482,"longitude":13.70261657,"canPickup":true,"canDropoff":true,"openingstijden":{"za":"08:15 - 12:45, 16:30 - 19:45","zo":"gesloten","ma":"08:15 - 12:45, 16:30 - 19:45","di":"08:15 - 12:45, 16:30 - 19:45","wo":"08:15 - 12:45, 16:30 - 19:45","do":"08:15 - 12:45, 16:30 - 19:45","vr":"08:15 - 12:45, 16:30 - 19:45"}}},{"type":"Feature","geometry":{"type":"Point","coordinates":[13.6818066,42.65197271]},"properties":{"type":"pakketpunt","locatieNaam":"Tabaccheria N. 59","straatNaam":"Via Cona","straatNr":"165","vervoerder":"PosteItaliane","puntType":"servicepunt","bezettingsgraad":50,"latitude":42.65197271,"longitude":13.6818066,"canPickup":true,"canDropoff":true,"openingstijden":{"za":"06:00 - 13:00, 13:01 - 22:00","zo":"06:00 - 13:00, 13:01 - 22:00","ma":"06:00 - 13:00, 13:01 - 22:00","di":"06:00 - 13:00, 13:01 - 22:00","wo":"06:00 - 13:00, 13:01 - 22:00","do":"06:00 - 13:00, 13:01 - 22:00","vr":"06:00 - 13:00, 13:01 - 22:00"}}},{"type":"Feature","geometry":{"type":"Point","coordinates":[13.7088775,42.65705684]},"properties":{"type":"pakketpunt","locatieNaam":"Tabaccheria N. 31","straatNaam":"Via Noe' Lucidi","straatNr":"1","vervoerder":"PosteItaliane","puntType":"servicepunt","bezettingsgraad":50,"latitude":42.65705684,"longitude":13.7088775,"canPickup":true,"canDropoff":true,"openingstijden":{"za":"07:00 - 13:00, 15:00 - 20:00","zo":"gesloten","ma":"07:30 - 13:00, 16:00 - 19:00","di":"07:30 - 13:00, 16:00 - 19:00","wo":"07:30 - 13:00, 16:00 - 19:00","do":"07:30 - 13:00, 16:00 - 19:00","vr":"07:30 - 13:00, 16:00 - 19:00"}}},{"type":"Feature","geometry":{"type":"Point","coordinates":[13.70730103,42.6576915]},"properties":{"type":"pakketpunt","locatieNaam":"Tabaccheria N. 5","straatNaam":"Corso De Michetti","straatNr":"20","vervoerder":"PosteItaliane","puntType":"servicepunt","bezettingsgraad":50,"latitude":42.6576915,"longitude":13.70730103,"canPickup":true,"canDropoff":true,"openingstijden":{"za":"07:30 - 13:00, 15:30 - 20:00","zo":"gesloten","ma":"07:30 - 13:00, 15:30 - 20:00","di":"07:30 - 13:00, 15:30 - 20:00","wo":"07:30 - 13:00, 15:30 - 20:00","do":"07:30 - 13:00, 15:30 - 20:00","vr":"07:30 - 13:00, 15:30 - 20:00"}}},{"type":"Feature","geometry":{"type":"Point","coordinates":[13.70058245,42.66023605]},"properties":{"type":"pakketpunt","locatieNaam":"Tabaccheria N. 2","straatNaam":"Corso San Giorgio","straatNr":"49","vervoerder":"PosteItaliane","puntType":"servicepunt","bezettingsgraad":50,"latitude":42.66023605,"longitude":13.70058245,"canPickup":true,"canDropoff":true,"openingstijden":{"za":"07:15 - 13:15, 15:15 - 20:00","zo":"gesloten","ma":"07:15 - 13:15, 15:15 - 20:00","di":"07:15 - 13:15, 15:15 - 20:00","wo":"07:15 - 13:15, 15:15 - 20:00","do":"07:15 - 13:15, 15:15 - 20:00","vr":"07:15 - 13:15, 15:15 - 20:00"}}},{"type":"Feature","geometry":{"type":"Point","coordinates":[13.71634014,42.66002069]},"properties":{"type":"pakketpunt","locatieNaam":"Tabaccheria N. 60","straatNaam":"Via Potito Randi","straatNr":"9","vervoerder":"PosteItaliane","puntType":"servicepunt","bezettingsgraad":50,"latitude":42.66002069,"longitude":13.71634014,"canPickup":true,"canDropoff":true,"openingstijden":{"za":"07:15 - 13:30, 16:00 - 20:30","zo":"gesloten","ma":"07:15 - 13:30, 16:00 - 20:30","di":"07:15 - 13:30, 16:00 - 20:30","wo":"07:15 - 13:30, 16:00 - 20:30","do":"07:15 - 13:30, 16:00 - 20:30","vr":"07:15 - 13:30, 16:00 - 20:30"}}},{"type":"Feature","geometry":{"type":"Point","coordinates":[13.7142183,42.66921104]},"properties":{"type":"pakketpunt","locatieNaam":"Tabaccheria N. 61","straatNaam":"Viale Della Resistenza","straatNr":"33","vervoerder":"PosteItaliane","puntType":"servicepunt","bezettingsgraad":50,"latitude":42.66921104,"longitude":13.7142183,"canPickup":true,"canDropoff":true,"openingstijden":{"za":"08:00 - 13:30, 15:30 - 20:00","zo":"gesloten","ma":"08:00 - 13:30, 15:30 - 20:00","di":"08:00 - 13:30, 15:30 - 20:00","wo":"08:00 - 13:30, 15:30 - 20:00","do":"08:00 - 13:30, 15:30 - 20:00","vr":"08:00 - 13:30, 15:30 - 20:00"}}},{"type":"Feature","geometry":{"type":"Point","coordinates":[13.6961369117,42.6598861656]},"properties":{"type":"pakketpunt","locatieNaam":"Tabacchi E...","straatNaam":"VIALE F. CRUCIOLI","straatNr":"41","vervoerder":"DPD","puntType":"pickup_point","bezettingsgraad":50,"latitude":42.6598861656,"longitude":13.6961369117,"canPickup":true,"canDropoff":true,"openingstijden":{"ma":"07:30 - 13:30, 15:30 - 20:00","di":"07:30 - 13:30, 15:30 - 20:00","wo":"07:30 - 13:30, 15:30 - 20:00","do":"07:30 - 13:30, 15:30 - 20:00","vr":"07:30 - 13:30, 15:30 - 20:00","za":"07:30 - 13:30, 15:30 - 20:00","zo":"gesloten"}}},{"type":"Feature","geometry":{"type":"Point","coordinates":[13.704031,42.6604036648]},"properties":{"type":"pakketpunt","locatieNaam":"Buffetti","straatNaam":"VIA GUGLIELMO OBERDAN","straatNr":"47","vervoerder":"DPD","puntType":"pickup_point","bezettingsgraad":50,"latitude":42.6604036648,"longitude":13.704031,"canPickup":true,"canDropoff":true,"openingstijden":{"ma":"08:30 - 13:00, 16:00 - 19:30","di":"08:30 - 13:00, 16:00 - 19:30","wo":"08:30 - 13:00, 16:00 - 19:30","do":"08:30 - 13:00, 16:00 - 19:30","vr":"08:30 - 13:00, 16:00 - 19:30","za":"gesloten","zo":"gesloten"}}},{"type":"Feature","geometry":{"type":"Point","coordinates":[13.7148073601,42.6613465206]},"properties":{"type":"pakketpunt","locatieNaam":"Directa - Teramo","straatNaam":"VIA GIACINTO PANNELLA","straatNr":"31","vervoerder":"DPD","puntType":"pickup_point","bezettingsgraad":50,"latitude":42.6613465206,"longitude":13.7148073601,"canPickup":true,"canDropoff":true,"openingstijden":{"ma":"09:00 - 12:30, 16:30 - 18:30","di":"09:00 - 12:30, 16:30 - 18:30","wo":"09:00 - 12:30, 16:30 - 18:30","do":"09:00 - 12:30, 16:30 - 18:30","vr":"09:00 - 12:30, 16:30 - 18:30","za":"gesloten","zo":"gesloten"}}},{"type":"Feature","geometry":{"type":"Point","coordinates":[13.789252,42.6954901]},"properties":{"type":"pakketpunt","locatieNaam":"Cartolibreria S.Francesco","straatNaam":"VIA LEONARDO DA TERAMO","straatNr":"3","vervoerder":"DPD","puntType":"pickup_point","bezettingsgraad":50,"latitude":42.6954901,"longitude":13.789252,"canPickup":true,"canDropoff":true,"openingstijden":{"ma":"13:30 - 19:30","di":"13:30 - 19:30","wo":"13:30 - 19:30","do":"13:30 - 19:30","vr":"13:30 - 19:30","za":"gesloten","zo":"gesloten"}}},{"type":"Feature","geometry":{"type":"Point","coordinates":[13.71315719,42.66907299]},"properties":{"type":"pakketpunt","locatieNaam":"Tabaccheria Edicola - Taraschi","straatNaam":"VIALE DELLA RESISTENZA","straatNr":"37/41","vervoerder":"DPD","puntType":"pickup_point","bezettingsgraad":50,"latitude":42.66907299,"longitude":13.71315719,"canPickup":true,"canDropoff":true,"openingstijden":{"ma":"08:00 - 13:30, 15:45 - 19:45","di":"08:00 - 13:30, 15:45 - 19:45","wo":"08:00 - 13:30, 15:45 - 19:45","do":"08:00 - 13:30, 15:45 - 19:45","vr":"08:00 - 13:30, 15:45 - 19:45","za":"08:00 - 13:30, 15:45 - 19:45","zo":"08:00 - 13:30, 15:45 - 19:45"}}},{"type":"Feature","geometry":{"type":"Point","coordinates":[13.68722748,42.6573315]},"properties":{"type":"pakketpunt","locatieNaam":"Tabaccheria - Teramo","straatNaam":"VIA CONA","straatNr":"24","vervoerder":"DPD","puntType":"pickup_point","bezettingsgraad":50,"latitude":42.6573315,"longitude":13.68722748,"canPickup":true,"canDropoff":true,"openingstijden":{"ma":"08:15 - 13:00, 15:30 - 19:30","di":"08:15 - 13:00, 15:30 - 19:30","wo":"08:15 - 13:00, 15:30 - 19:30","do":"08:15 - 13:00, 15:30 - 19:30","vr":"08:15 - 13:00, 15:30 - 19:30","za":"08:15 - 13:00, 15:30 - 19:30","zo":"gesloten"}}},{"type":"Feature","geometry":{"type":"Point","coordinates":[13.6787476,42.64857]},"properties":{"type":"pakketpunt","locatieNaam":"Passione Auto","straatNaam":"VIA CAV. DI V. VENETO","straatNr":"2","vervoerder":"DPD","puntType":"pickup_point","bezettingsgraad":50,"latitude":42.64857,"longitude":13.6787476,"canPickup":true,"canDropoff":true,"openingstijden":{"ma":"08:30 - 12:30, 15:00 - 19:30","di":"08:30 - 12:30, 15:00 - 19:30","wo":"08:30 - 12:30, 15:00 - 19:30","do":"08:30 - 12:30, 15:00 - 19:30","vr":"08:30 - 12:30, 15:00 - 19:30","za":"08:30 - 12:30","zo":"gesloten"}}},{"type":"Feature","geometry":{"type":"Point","coordinates":[13.693475,42.658653]},"properties":{"type":"pakketpunt","locatieNaam":"BRT LOCKER - Lavapiù Via Crucioli","straatNaam":"VIA CRUCIOLI","straatNr":"","vervoerder":"DPD","puntType":"dpd_box","bezettingsgraad":50,"latitude":42.658653,"longitude":13.693475,"canPickup":true,"canDropoff":true,"openingstijden":{"ma":"07:00 - 22:00","di":"07:00 - 22:00","wo":"07:00 - 22:00","do":"07:00 - 22:00","vr":"07:00 - 22:00","za":"07:00 - 22:00","zo":"07:00 - 22:00"}}},{"type":"Feature","geometry":{"type":"Point","coordinates":[13.70432246,42.66460198]},"properties":{"type":"pakketpunt","locatieNaam":"Benny Bar","straatNaam":"VIA A. DE PAULIS FEDELE","straatNr":"SNC","vervoerder":"DPD","puntType":"pickup_point","bezettingsgraad":50,"latitude":42.66460198,"longitude":13.70432246,"canPickup":true,"canDropoff":true,"openingstijden":{"ma":"08:00 - 20:00","di":"08:00 - 20:00","wo":"08:00 - 20:00","do":"08:00 - 20:00","vr":"08:00 - 20:00","za":"08:00 - 13:00","zo":"gesloten"}}},{"type":"Feature","geometry":{"type":"Point","coordinates":[13.7589983,42.6814084]},"properties":{"type":"pakketpunt","locatieNaam":"BRT LOCKER - C.C. Gran Sasso","straatNaam":"LOCALITA PIANO D'ACCIO","straatNr":"","vervoerder":"DPD","puntType":"dpd_box","bezettingsgraad":50,"latitude":42.6814084,"longitude":13.7589983,"canPickup":true,"canDropoff":true,"openingstijden":{"ma":"09:00 - 21:00","di":"09:00 - 21:00","wo":"09:00 - 21:00","do":"09:00 - 21:00","vr":"09:00 - 21:00","za":"09:00 - 21:00","zo":"09:00 - 21:00"}}},{"type":"Feature","geometry":{"type":"Point","coordinates":[13.6995588,42.6621002]},"properties":{"type":"pakketpunt","locatieNaam":"Tabaccheria di Piazza Garibaldi","straatNaam":"PIAZZA GARIBALDI","straatNr":"43","vervoerder":"DPD","puntType":"pickup_point","bezettingsgraad":50,"latitude":42.6621002,"longitude":13.6995588,"canPickup":true,"canDropoff":true,"openingstijden":{"ma":"07:30 - 13:15, 15:30 - 20:00","di":"07:30 - 13:15, 15:30 - 20:00","wo":"07:30 - 13:15, 15:30 - 20:00","do":"07:30 - 13:15, 15:30 - 20:00","vr":"07:30 - 13:15, 15:30 - 20:00","za":"07:30 - 13:15, 15:30 - 20:00","zo":"07:30 - 13:15"}}},{"type":"Feature","geometry":{"type":"Point","coordinates":[13.6989756,42.6584335]},"properties":{"type":"pakketpunt","locatieNaam":"Tabaccheria San Marco","straatNaam":"PIAZZA DANTE ALIGHIERI","straatNr":"3","vervoerder":"DPD","puntType":"pickup_point","bezettingsgraad":50,"latitude":42.6584335,"longitude":13.6989756,"canPickup":true,"canDropoff":true,"openingstijden":{"ma":"08:15 - 12:45, 16:15 - 19:45","di":"08:15 - 12:45, 16:15 - 19:45","wo":"08:15 - 12:45, 16:15 - 19:45","do":"08:15 - 12:45, 16:15 - 19:45","vr":"08:15 - 12:45, 16:15 - 19:45","za":"08:15 - 12:45, 16:15 - 19:45","zo":"gesloten"}}},{"type":"Feature","geometry":{"type":"Point","coordinates":[13.70656,42.66072]},"properties":{"type":"pakketpunt","locatieNaam":"InPost Point","straatNaam":"Piazza San Francesco","straatNr":"1","vervoerder":"InPost","puntType":"servicepunt","bezettingsgraad":50,"latitude":42.66072,"longitude":13.70656,"canPickup":true,"canDropoff":true,"openingstijden":"Lun-Sab: 06:30 - 13:30 - 16:00 - 19:30"}},{"type":"Feature","geometry":{"type":"Point","coordinates":[13.71438,42.66183]},"properties":{"type":"pakketpunt","locatieNaam":"InPost Point","straatNaam":"Via Giacinto Pannella","straatNr":"31","vervoerder":"InPost","puntType":"servicepunt","bezettingsgraad":50,"latitude":42.66183,"longitude":13.71438,"canPickup":true,"canDropoff":true,"openingstijden":"Lun-Ven: 09:00 - 13:00 - 15:00 - 18:30"}},{"type":"Feature","geometry":{"type":"Point","coordinates":[13.71321,42.66913]},"properties":{"type":"pakketpunt","locatieNaam":"InPost Point","straatNaam":"Viale della Resistenza","straatNr":"37","vervoerder":"InPost","puntType":"servicepunt","bezettingsgraad":50,"latitude":42.66913,"longitude":13.71321,"canPickup":true,"canDropoff":true,"openingstijden":"Lun-Sab: 08:00 - 13:30 - 15:45 - 20:00"}},{"type":"Feature","geometry":{"type":"Point","coordinates":[13.78954,42.69575]},"properties":{"type":"pakketpunt","locatieNaam":"InPost Point","straatNaam":"Piazza Progresso","straatNr":"3","vervoerder":"InPost","puntType":"servicepunt","bezettingsgraad":50,"latitude":42.69575,"longitude":13.78954,"canPickup":true,"canDropoff":true,"openingstijden":"Lun-Sab: 08:00 - 13:00 - 16:00 - 19:30 Dom: 07:00 - 12:00"}},{"type":"Feature","geometry":{"type":"Point","coordinates":[13.70885,42.65711]},"properties":{"type":"pakketpunt","locatieNaam":"InPost Point","straatNaam":"Via Noè Lucidi","straatNr":"1","vervoerder":"InPost","puntType":"servicepunt","bezettingsgraad":50,"latitude":42.65711,"longitude":13.70885,"canPickup":true,"canDropoff":true,"openingstijden":"Lun-Sab: 07:30 - 13:00 - 16:00 - 19:30"}},{"type":"Feature","geometry":{"type":"Point","coordinates":[13.699,42.65881]},"properties":{"type":"pakketpunt","locatieNaam":"InPost Point","straatNaam":"Piazza Dante Alighieri","straatNr":"3","vervoerder":"InPost","puntType":"servicepunt","bezettingsgraad":50,"latitude":42.65881,"longitude":13.699,"canPickup":true,"canDropoff":true,"openingstijden":"Lun-Sab: 08:30 -13:00 -16:00 - 20:00"}},{"type":"Feature","geometry":{"type":"Point","coordinates":[13.71796,42.66274]},"properties":{"type":"pakketpunt","locatieNaam":"InPost Point","straatNaam":"Via Roma, 12/14, Teramo, Italy","straatNr":"12","vervoerder":"InPost","puntType":"servicepunt","bezettingsgraad":50,"latitude":42.66274,"longitude":13.71796,"canPickup":true,"canDropoff":true,"openingstijden":"Lun–Sab 08:00-13:00, 15:30-20:00"}},{"type":"Feature","geometry":{"type":"Point","coordinates":[13.7248,42.6671]},"properties":{"type":"pakketpunt","locatieNaam":"InPost Locker 24/7","straatNaam":"SS 8O","straatNr":"Km 77+842","vervoerder":"InPost","puntType":"automaat","bezettingsgraad":50,"latitude":42.6671,"longitude":13.7248,"canPickup":true,"canDropoff":true,"openingstijden":null}},{"type":"Feature","geometry":{"type":"Point","coordinates":[13.70655,42.66289]},"properties":{"type":"pakketpunt","locatieNaam":"InPost Locker 24/7","straatNaam":"Via Alcide De Gasperi","straatNr":"","vervoerder":"InPost","puntType":"automaat","bezettingsgraad":50,"latitude":42.66289,"longitude":13.70655,"canPickup":true,"canDropoff":true,"openingstijden":null}},{"type":"Feature","geometry":{"type":"Point","coordinates":[13.76963,42.68633]},"properties":{"type":"pakketpunt","locatieNaam":"","straatNaam":"SS 80","straatNr":"snc","vervoerder":"InPost","puntType":"automaat","bezettingsgraad":50,"latitude":42.68633,"longitude":13.76963,"canPickup":true,"canDropoff":true,"openingstijden":null}},{"type":"Feature","geometry":{"type":"Point","coordinates":[13.75933,42.68158]},"properties":{"type":"pakketpunt","locatieNaam":"Si trova piano 0 la dove stanno i parcheggi vicino ai bagni dei uomini","straatNaam":"Località Piano D'Accio","straatNr":"snc","vervoerder":"InPost","puntType":"automaat","bezettingsgraad":50,"latitude":42.68158,"longitude":13.75933,"canPickup":true,"canDropoff":true,"openingstijden":null}},{"type":"Feature","geometry":{"type":"Point","coordinates":[13.6970977075,42.6611712598]},"properties":{"type":"pakketpunt","locatieNaam":"TABACCHERIA n41","straatNaam":"Via Del Castello","straatNr":"6","vervoerder":"GLS","puntType":"parcel_shop","bezettingsgraad":50,"latitude":42.6611712598,"longitude":13.6970977075,"canPickup":true,"canDropoff":true,"openingstijden":"za: 07:30 - 20:00; ma: 07:30 - 20:00"}},{"type":"Feature","geometry":{"type":"Point","coordinates":[13.7179546122,42.6627427619]},"properties":{"type":"pakketpunt","locatieNaam":"La Tabaccheria di Via Roma","straatNaam":"Via Roma","straatNr":"12/14","vervoerder":"GLS","puntType":"parcel_shop","bezettingsgraad":50,"latitude":42.6627427619,"longitude":13.7179546122,"canPickup":true,"canDropoff":true,"openingstijden":"za: 08:00 - 13:00, 16:00 - 20:00; ma: 08:00 - 13:00, 16:00 - 20:00"}},{"type":"Feature","geometry":{"type":"Point","coordinates":[13.7606425311,42.6807833591]},"properties":{"type":"pakketpunt","locatieNaam":"Tabaccheria 11","straatNaam":"Localita' Piano D'Accio","straatNr":"SNC","vervoerder":"GLS","puntType":"parcel_shop","bezettingsgraad":50,"latitude":42.6807833591,"longitude":13.7606425311,"canPickup":true,"canDropoff":true,"openingstijden":"za: 09:00 - 21:00; zo: 09:00 - 21:00"}},{"type":"Feature","geometry":{"type":"Point","coordinates":[13.6787476,42.64857]},"properties":{"type":"pakketpunt","locatieNaam":"Passione Auto Teramo","straatNaam":"Via Cavalieri Di Vittorio Veneto","straatNr":"2","vervoerder":"GLS","puntType":"parcel_shop","bezettingsgraad":50,"latitude":42.64857,"longitude":13.6787476,"canPickup":true,"canDropoff":true,"openingstijden":"za: 08:30 - 12:30; ma: 08:30 - 13:00, 15:30 - 19:30"}},{"type":"Feature","geometry":{"type":"Point","coordinates":[13.6977588,42.6567786]},"properties":{"type":"pakketpunt","locatieNaam":"Tabaccheria n.43","straatNaam":"Corso Porta Romana","straatNr":"3","vervoerder":"GLS","puntType":"parcel_shop","bezettingsgraad":50,"latitude":42.6567786,"longitude":13.6977588,"canPickup":true,"canDropoff":true,"openingstijden":"za: 08:00 - 13:00, 16:00 - 20:00; ma: 08:00 - 13:00, 16:00 - 20:00"}},{"type":"Feature","geometry":{"type":"Point","coordinates":[13.6872248,42.6573532]},"properties":{"type":"pakketpunt","locatieNaam":"Tabaccheria Riv.38","straatNaam":"Via Cona","straatNr":"24","vervoerder":"GLS","puntType":"parcel_shop","bezettingsgraad":50,"latitude":42.6573532,"longitude":13.6872248,"canPickup":true,"canDropoff":true,"openingstijden":"za: 08:30 - 13:00, 15:30 - 19:30; ma: 08:30 - 13:00, 15:30 - 19:30"}},{"type":"Feature","geometry":{"type":"Point","coordinates":[13.7133733,42.6603842]},"properties":{"type":"pakketpunt","locatieNaam":"TERAMOLED","straatNaam":"Ponte San Ferdinando","straatNr":"16","vervoerder":"GLS","puntType":"parcel_shop","bezettingsgraad":50,"latitude":42.6603842,"longitude":13.7133733,"canPickup":true,"canDropoff":true,"openingstijden":"za: 09:00 - 12:30; ma: 09:00 - 12:30, 15:00 - 18:30"}},{"type":"Feature","geometry":{"type":"Point","coordinates":[13.7065777,42.6607316]},"properties":{"type":"pakketpunt","locatieNaam":"EDICOLA","straatNaam":"Piazza San Francesco","straatNr":"1","vervoerder":"GLS","puntType":"parcel_shop","bezettingsgraad":50,"latitude":42.6607316,"longitude":13.7065777,"canPickup":true,"canDropoff":true,"openingstijden":"za: 06:30 - 14:00, 16:30 - 19:00; zo: 14:00 - 16:30"}},{"type":"Feature","geometry":{"type":"Point","coordinates":[13.714506,42.6617098]},"properties":{"type":"pakketpunt","locatieNaam":"DIRECTA","straatNaam":"Via Pannella","straatNr":"31","vervoerder":"GLS","puntType":"parcel_shop","bezettingsgraad":50,"latitude":42.6617098,"longitude":13.714506,"canPickup":true,"canDropoff":true,"openingstijden":"ma: 09:00 - 13:00, 15:30 - 18:30; di: 09:00 - 13:00, 15:30 - 18:30"}},{"type":"Feature","geometry":{"type":"Point","coordinates":[13.6995588,42.6621002]},"properties":{"type":"pakketpunt","locatieNaam":"Tabaccheria di Piazza Garibaldi","straatNaam":"Piazza Garibaldi","straatNr":"43","vervoerder":"GLS","puntType":"parcel_shop","bezettingsgraad":50,"latitude":42.6621002,"longitude":13.6995588,"canPickup":true,"canDropoff":true,"openingstijden":"za: 07:30 - 13:00, 15:30 - 20:00; zo: 08:30 - 13:00, 16:00 - 20:00"}},{"type":"Feature","geometry":{"type":"Point","coordinates":[13.7216577,42.6639369]},"properties":{"type":"pakketpunt","locatieNaam":"Vaping Shark","straatNaam":"Via Interamnia","straatNr":"6","vervoerder":"GLS","puntType":"parcel_shop","bezettingsgraad":50,"latitude":42.6639369,"longitude":13.7216577,"canPickup":true,"canDropoff":true,"openingstijden":"za: 09:00 - 13:30, 16:00 - 20:00; ma: 09:00 - 13:30, 16:00 - 20:00"}},{"type":"Feature","geometry":{"type":"Point","coordinates":[13.7133563,42.6640272]},"properties":{"type":"pakketpunt","locatieNaam":"Cartolibreria Pianeta Ufficio","straatNaam":"Via Don Luigi Sturzo","straatNr":"32/34","vervoerder":"GLS","puntType":"parcel_shop","bezettingsgraad":50,"latitude":42.6640272,"longitude":13.7133563,"canPickup":true,"canDropoff":true,"openingstijden":"za: 09:00 - 13:00; ma: 08:00 - 13:00, 16:00 - 19:00"}},{"type":"Feature","geometry":{"type":"Point","coordinates":[13.7136222,42.66679]},"properties":{"type":"pakketpunt","locatieNaam":"Tabaccheria n. 77 di Falasca Fiorenzo","straatNaam":"Piazza Italia","straatNr":"1","vervoerder":"GLS","puntType":"parcel_shop","bezettingsgraad":50,"latitude":42.66679,"longitude":13.7136222,"canPickup":true,"canDropoff":true,"openingstijden":"za: 06:30 - 20:30; ma: 06:30 - 20:30"}},{"type":"Feature","geometry":{"type":"Point","coordinates":[13.7132457,42.6691075]},"properties":{"type":"pakketpunt","locatieNaam":"TABACCHERIA & EDICOLA","straatNaam":"Viale Della Resistenza","straatNr":"37/41","vervoerder":"GLS","puntType":"parcel_shop","bezettingsgraad":50,"latitude":42.6691075,"longitude":13.7132457,"canPickup":true,"canDropoff":true,"openingstijden":"za: 07:30 - 13:30, 15:30 - 20:00; ma: 07:30 - 13:30, 15:30 - 20:00"}},{"type":"Feature","geometry":{"type":"Point","coordinates":[13.7897274,42.6959006]},"properties":{"type":"pakketpunt","locatieNaam":"CARTOLIBRERIA SAN FRANCESCO","straatNaam":"Via Leonardo Da Teramo","straatNr":"3","vervoerder":"GLS","puntType":"parcel_shop","bezettingsgraad":50,"latitude":42.6959006,"longitude":13.7897274,"canPickup":true,"canDropoff":true,"openingstijden":"ma: 08:00 - 13:00, 16:00 - 19:30; di: 08:00 - 13:00, 16:00 - 19:30"}},{"type":"Feature","geometry":{"type":"Point","coordinates":[13.659076,42.631265]},"properties":{"type":"pakketpunt","locatieNaam":"TABACCHERIA N. 23","straatNaam":"VILLA TORDINIA SNC 1","straatNr":"","vervoerder":"DHL","puntType":"parcelShop","bezettingsgraad":50,"latitude":42.631265,"longitude":13.659076,"canPickup":true,"canDropoff":true,"openingstijden":{"ma":"06:00 - 13:00, 13:30 - 22:00","di":"06:00 - 13:00, 13:30 - 22:00","wo":"06:00 - 13:00, 13:30 - 22:00","do":"06:00 - 13:00, 13:30 - 22:00","vr":"06:00 - 13:00, 13:30 - 22:00","za":"06:00 - 13:00, 13:30 - 22:00","zo":"gesloten"}}},{"type":"Feature","geometry":{"type":"Point","coordinates":[13.656932,42.628528]},"properties":{"type":"pakketpunt","locatieNaam":"Ufficio Postale TORDINIA","straatNaam":"VIA DELLA RAMIERA SNC 2","straatNr":"","vervoerder":"DHL","puntType":"postOffice","bezettingsgraad":50,"latitude":42.628528,"longitude":13.656932,"canPickup":true,"canDropoff":true,"openingstijden":{"ma":"08:20 - 13:45","di":"08:20 - 13:45","wo":"08:20 - 13:45","do":"08:20 - 13:45","vr":"08:20 - 13:45","za":"08:20 - 12:45","zo":"gesloten"}}},{"type":"Feature","geometry":{"type":"Point","coordinates":[13.681807,42.651973]},"properties":{"type":"pakketpunt","locatieNaam":"TABACCHERIA N. 59","straatNaam":"VIA CONA 165","straatNr":"","vervoerder":"DHL","puntType":"parcelShop","bezettingsgraad":50,"latitude":42.651973,"longitude":13.681807,"canPickup":true,"canDropoff":true,"openingstijden":{"ma":"06:00 - 13:00, 13:01 - 22:00","di":"06:00 - 13:00, 13:01 - 22:00","wo":"06:00 - 13:00, 13:01 - 22:00","do":"06:00 - 13:00, 13:01 - 22:00","vr":"06:00 - 13:00, 13:01 - 22:00","za":"06:00 - 13:00, 13:01 - 22:00","zo":"06:00 - 13:00, 13:01 - 22:00"}}},{"type":"Feature","geometry":{"type":"Point","coordinates":[13.684892,42.655606]},"properties":{"type":"pakketpunt","locatieNaam":"Ufficio Postale TERAMO 4","straatNaam":"VIA CONA 102","straatNr":"","vervoerder":"DHL","puntType":"postOffice","bezettingsgraad":50,"latitude":42.655606,"longitude":13.684892,"canPickup":true,"canDropoff":true,"openingstijden":{"ma":"08:20 - 13:45","di":"08:20 - 13:45","wo":"08:20 - 13:45","do":"08:20 - 13:45","vr":"08:20 - 13:45","za":"08:20 - 12:45","zo":"gesloten"}}},{"type":"Feature","geometry":{"type":"Point","coordinates":[13.687531,42.657332]},"properties":{"type":"pakketpunt","locatieNaam":"TABACCHERIA N. 38","straatNaam":"VIA CONA 24","straatNr":"","vervoerder":"DHL","puntType":"parcelShop","bezettingsgraad":50,"latitude":42.657332,"longitude":13.687531,"canPickup":true,"canDropoff":true,"openingstijden":{"ma":"08:00 - 13:00, 15:30 - 19:30","di":"08:00 - 13:00, 15:30 - 19:30","wo":"08:00 - 13:00, 15:30 - 19:30","do":"08:00 - 13:00, 15:30 - 19:30","vr":"08:00 - 13:00, 15:30 - 19:30","za":"08:00 - 13:00, 15:30 - 19:30","zo":"gesloten"}}},{"type":"Feature","geometry":{"type":"Point","coordinates":[13.698273,42.656813]},"properties":{"type":"pakketpunt","locatieNaam":"TABACCHERIA N. 43","straatNaam":"CORSO PORTA ROMANA 3","straatNr":"","vervoerder":"DHL","puntType":"parcelShop","bezettingsgraad":50,"latitude":42.656813,"longitude":13.698273,"canPickup":true,"canDropoff":true,"openingstijden":{"ma":"08:30 - 13:00, 15:30 - 20:00","di":"08:30 - 13:00, 15:30 - 20:00","wo":"08:30 - 13:00, 15:30 - 20:00","do":"08:30 - 13:00, 15:30 - 20:00","vr":"08:30 - 13:00, 15:30 - 20:00","za":"08:30 - 13:00, 15:30 - 20:00","zo":"gesloten"}}},{"type":"Feature","geometry":{"type":"Point","coordinates":[13.693528,42.658666]},"properties":{"type":"pakketpunt","locatieNaam":"LAVA PIU'","straatNaam":"VIALE FRANCESCO CRUCIOLI 121","straatNr":"","vervoerder":"DHL","puntType":"packStation","bezettingsgraad":50,"latitude":42.658666,"longitude":13.693528,"canPickup":true,"canDropoff":true,"openingstijden":{"ma":"07:00 - 22:00","di":"07:00 - 22:00","wo":"07:00 - 22:00","do":"07:00 - 22:00","vr":"07:00 - 22:00","za":"07:00 - 22:00","zo":"07:00 - 22:00"}}},{"type":"Feature","geometry":{"type":"Point","coordinates":[13.698796,42.658033]},"properties":{"type":"pakketpunt","locatieNaam":"TABACCHERIA n. 33","straatNaam":"PIAZZA DANTE ALIGHIERI 3","straatNr":"","vervoerder":"DHL","puntType":"parcelShop","bezettingsgraad":50,"latitude":42.658033,"longitude":13.698796,"canPickup":true,"canDropoff":true,"openingstijden":{"ma":"08:00 - 12:50, 16:10 - 19:45","di":"08:00 - 12:50, 16:10 - 19:45","wo":"08:00 - 12:50, 16:10 - 19:45","do":"08:00 - 12:50, 16:10 - 19:45","vr":"08:00 - 12:50, 16:10 - 19:45","za":"08:00 - 12:50, 16:10 - 19:45","zo":"gesloten"}}},{"type":"Feature","geometry":{"type":"Point","coordinates":[13.6961,42.65988]},"properties":{"type":"pakketpunt","locatieNaam":"TABACCHI E...","straatNaam":"Viale Francesco Crucioli 41","straatNr":"","vervoerder":"DHL","puntType":"parcelShop","bezettingsgraad":50,"latitude":42.65988,"longitude":13.6961,"canPickup":false,"canDropoff":true,"openingstijden":{"ma":"07:30 - 20:00","di":"07:30 - 20:00","wo":"07:30 - 20:00","do":"07:30 - 20:00","vr":"07:30 - 20:00","za":"07:30 - 20:00","zo":"gesloten"}}},{"type":"Feature","geometry":{"type":"Point","coordinates":[13.701003,42.658514]},"properties":{"type":"pakketpunt","locatieNaam":"Ufficio Postale TERAMO CENTRO","straatNaam":"VIA GIACOMO PALADINI 42","straatNr":"","vervoerder":"DHL","puntType":"postOffice","bezettingsgraad":50,"latitude":42.658514,"longitude":13.701003,"canPickup":true,"canDropoff":true,"openingstijden":{"ma":"08:20 - 19:05","di":"08:20 - 19:05","wo":"08:20 - 19:05","do":"08:20 - 19:05","vr":"gesloten","za":"gesloten","zo":"gesloten"}}},{"type":"Feature","geometry":{"type":"Point","coordinates":[13.696976,42.66116]},"properties":{"type":"pakketpunt","locatieNaam":"TABACCHERIA N. 41","straatNaam":"VIA DEL CASTELLO 6","straatNr":"","vervoerder":"DHL","puntType":"parcelShop","bezettingsgraad":50,"latitude":42.66116,"longitude":13.696976,"canPickup":true,"canDropoff":true,"openingstijden":{"ma":"07:30 - 13:00, 15:30 - 20:00","di":"07:30 - 13:00, 15:30 - 20:00","wo":"07:30 - 13:00, 15:30 - 20:00","do":"07:30 - 13:00, 15:30 - 20:00","vr":"07:30 - 13:00, 15:30 - 20:00","za":"07:30 - 13:00, 15:30 - 20:00","zo":"gesloten"}}},{"type":"Feature","geometry":{"type":"Point","coordinates":[13.702617,42.658825]},"properties":{"type":"pakketpunt","locatieNaam":"TABACCHERIA N. 8","straatNaam":"PIAZZA MARTIRI DELLA LIBERTA 15","straatNr":"","vervoerder":"DHL","puntType":"parcelShop","bezettingsgraad":50,"latitude":42.658825,"longitude":13.702617,"canPickup":true,"canDropoff":true,"openingstijden":{"ma":"08:15 - 12:45, 16:30 - 19:45","di":"08:15 - 12:45, 16:30 - 19:45","wo":"08:15 - 12:45, 16:30 - 19:45","do":"08:15 - 12:45, 16:30 - 19:45","vr":"08:15 - 12:45, 16:30 - 19:45","za":"08:15 - 12:45, 16:30 - 19:45","zo":"gesloten"}}},{"type":"Feature","geometry":{"type":"Point","coordinates":[13.702522,42.659323]},"properties":{"type":"pakketpunt","locatieNaam":"TABACCHERIA N. 1","straatNaam":"CORSO SAN GIORGIO 123","straatNr":"","vervoerder":"DHL","puntType":"parcelShop","bezettingsgraad":50,"latitude":42.659323,"longitude":13.702522,"canPickup":true,"canDropoff":true,"openingstijden":{"ma":"08:00 - 14:00, 15:30 - 20:30","di":"08:00 - 14:00, 15:30 - 20:30","wo":"08:00 - 14:00, 15:30 - 20:30","do":"08:00 - 14:00, 15:30 - 20:30","vr":"08:00 - 14:00, 15:30 - 20:30","za":"08:00 - 14:00, 15:30 - 20:30","zo":"gesloten"}}},{"type":"Feature","geometry":{"type":"Point","coordinates":[13.700582,42.660236]},"properties":{"type":"pakketpunt","locatieNaam":"TABACCHERIA N. 2","straatNaam":"CORSO SAN GIORGIO 49","straatNr":"","vervoerder":"DHL","puntType":"parcelShop","bezettingsgraad":50,"latitude":42.660236,"longitude":13.700582,"canPickup":true,"canDropoff":true,"openingstijden":{"ma":"07:15 - 13:15, 15:15 - 20:00","di":"07:15 - 13:15, 15:15 - 20:00","wo":"07:15 - 13:15, 15:15 - 20:00","do":"07:15 - 13:15, 15:15 - 20:00","vr":"07:15 - 13:15, 15:15 - 20:00","za":"07:15 - 13:15, 15:15 - 20:00","zo":"gesloten"}}},{"type":"Feature","geometry":{"type":"Point","coordinates":[13.704011,42.658753]},"properties":{"type":"pakketpunt","locatieNaam":"TABACCHERIA N. 9","straatNaam":"PIAZZA ERCOLE VINCENZO ORSINI 1","straatNr":"","vervoerder":"DHL","puntType":"parcelShop","bezettingsgraad":50,"latitude":42.658753,"longitude":13.704011,"canPickup":true,"canDropoff":true,"openingstijden":{"ma":"08:30 - 13:00, 16:00 - 20:00","di":"08:30 - 13:00, 16:00 - 20:00","wo":"08:30 - 13:00, 16:00 - 20:00","do":"08:30 - 13:00, 16:00 - 20:00","vr":"08:30 - 13:00, 16:00 - 20:00","za":"08:30 - 13:00, 16:00 - 20:00","zo":"gesloten"}}},{"type":"Feature","geometry":{"type":"Point","coordinates":[13.704844,42.658437]},"properties":{"type":"pakketpunt","locatieNaam":"TABACCHERIA N. 3","straatNaam":"CORSO VINCENZO CERULLI 29","straatNr":"","vervoerder":"DHL","puntType":"parcelShop","bezettingsgraad":50,"latitude":42.658437,"longitude":13.704844,"canPickup":true,"canDropoff":true,"openingstijden":{"ma":"07:30 - 13:00, 15:30 - 20:00","di":"07:30 - 13:00, 15:30 - 20:00","wo":"07:30 - 13:00, 15:30 - 20:00","do":"07:30 - 13:00, 15:30 - 20:00","vr":"07:30 - 13:00, 15:30 - 20:00","za":"07:30 - 13:00, 15:30 - 20:00","zo":"gesloten"}}},{"type":"Feature","geometry":{"type":"Point","coordinates":[13.697263,42.66189]},"properties":{"type":"pakketpunt","locatieNaam":"Ufficio Postale TERAMO 1","straatNaam":"VIALE BOVIO GIOVANNI 95","straatNr":"","vervoerder":"DHL","puntType":"postOffice","bezettingsgraad":50,"latitude":42.66189,"longitude":13.697263,"canPickup":true,"canDropoff":true,"openingstijden":{"ma":"08:20 - 13:35","di":"08:20 - 13:35","wo":"08:20 - 13:35","do":"08:20 - 13:35","vr":"08:20 - 13:35","za":"08:20 - 12:35","zo":"gesloten"}}},{"type":"Feature","geometry":{"type":"Point","coordinates":[13.707301,42.657692]},"properties":{"type":"pakketpunt","locatieNaam":"TABACCHERIA N. 5","straatNaam":"CORSO DE MICHETTI 20","straatNr":"","vervoerder":"DHL","puntType":"parcelShop","bezettingsgraad":50,"latitude":42.657692,"longitude":13.707301,"canPickup":true,"canDropoff":true,"openingstijden":{"ma":"07:30 - 13:00, 15:30 - 20:00","di":"07:30 - 13:00, 15:30 - 20:00","wo":"07:30 - 13:00, 15:30 - 20:00","do":"07:30 - 13:00, 15:30 - 20:00","vr":"07:30 - 13:00, 15:30 - 20:00","za":"07:30 - 13:00, 15:30 - 20:00","zo":"gesloten"}}},{"type":"Feature","geometry":{"type":"Point","coordinates":[13.699218,42.661833]},"properties":{"type":"pakketpunt","locatieNaam":"TABACCHERIA N. 56","straatNaam":"PIAZZA GIUSEPPE GARIBALDI 43","straatNr":"","vervoerder":"DHL","puntType":"parcelShop","bezettingsgraad":50,"latitude":42.661833,"longitude":13.699218,"canPickup":true,"canDropoff":true,"openingstijden":{"ma":"08:00 - 13:00, 16:00 - 20:00","di":"08:00 - 13:00, 16:00 - 20:00","wo":"08:00 - 13:00, 16:00 - 20:00","do":"08:00 - 13:00, 16:00 - 20:00","vr":"08:00 - 13:00, 16:00 - 20:00","za":"08:00 - 13:00, 16:00 - 20:00","zo":"08:30 - 13:00, 16:00 - 20:00"}}},{"type":"Feature","geometry":{"type":"Point","coordinates":[13.708878,42.657057]},"properties":{"type":"pakketpunt","locatieNaam":"TABACCHERIA N. 31","straatNaam":"VIA NOE LUCIDI 1","straatNr":"","vervoerder":"DHL","puntType":"parcelShop","bezettingsgraad":50,"latitude":42.657057,"longitude":13.708878,"canPickup":true,"canDropoff":true,"openingstijden":{"ma":"07:30 - 13:00, 16:00 - 19:00","di":"07:30 - 13:00, 16:00 - 19:00","wo":"07:30 - 13:00, 16:00 - 19:00","do":"07:30 - 13:00, 16:00 - 19:00","vr":"07:30 - 13:00, 16:00 - 19:00","za":"07:00 - 13:00, 15:00 - 20:00","zo":"gesloten"}}},{"type":"Feature","geometry":{"type":"Point","coordinates":[13.708929,42.657051]},"properties":{"type":"pakketpunt","locatieNaam":"TABACCHERIA DELLE GRAZIE","straatNaam":"Lucidi Noe', 1 Largo Madonna Grazie","straatNr":"","vervoerder":"DHL","puntType":"parcelShop","bezettingsgraad":50,"latitude":42.657051,"longitude":13.708929,"canPickup":false,"canDropoff":true,"openingstijden":{"ma":"07:30 - 19:30","di":"07:30 - 19:30","wo":"07:30 - 19:30","do":"07:30 - 19:30","vr":"07:30 - 19:30","za":"07:30 - 19:30","zo":"gesloten"}}},{"type":"Feature","geometry":{"type":"Point","coordinates":[13.709398,42.657642]},"properties":{"type":"pakketpunt","locatieNaam":"Ufficio Postale TERAMO 2","straatNaam":"VIA NOE LUCIDI 15","straatNr":"","vervoerder":"DHL","puntType":"postOffice","bezettingsgraad":50,"latitude":42.657642,"longitude":13.709398,"canPickup":true,"canDropoff":true,"openingstijden":{"ma":"08:20 - 13:35","di":"08:20 - 13:35","wo":"08:20 - 13:35","do":"08:20 - 13:35","vr":"08:20 - 13:35","za":"08:20 - 12:35","zo":"gesloten"}}},{"type":"Feature","geometry":{"type":"Point","coordinates":[13.709967,42.658678]},"properties":{"type":"pakketpunt","locatieNaam":"TABACCHERIA N. 34","straatNaam":"CIRCONVALLAZIONE RAGUSA 86","straatNr":"","vervoerder":"DHL","puntType":"parcelShop","bezettingsgraad":50,"latitude":42.658678,"longitude":13.709967,"canPickup":true,"canDropoff":true,"openingstijden":{"ma":"08:00 - 13:00, 16:00 - 20:00","di":"08:00 - 13:00, 16:00 - 20:00","wo":"08:00 - 13:00, 16:00 - 20:00","do":"08:00 - 13:00, 16:00 - 20:00","vr":"08:00 - 13:00, 16:00 - 20:00","za":"08:00 - 13:00, 16:00 - 20:00","zo":"gesloten"}}},{"type":"Feature","geometry":{"type":"Point","coordinates":[13.71634,42.660021]},"properties":{"type":"pakketpunt","locatieNaam":"TABACCHERIA N. 60","straatNaam":"VIA POTITO RANDI 9","straatNr":"","vervoerder":"DHL","puntType":"parcelShop","bezettingsgraad":50,"latitude":42.660021,"longitude":13.71634,"canPickup":true,"canDropoff":true,"openingstijden":{"ma":"07:15 - 13:30, 16:00 - 20:30","di":"07:15 - 13:30, 16:00 - 20:30","wo":"07:15 - 13:30, 16:00 - 20:30","do":"07:15 - 13:30, 16:00 - 20:30","vr":"07:15 - 13:30, 16:00 - 20:30","za":"07:15 - 13:30, 16:00 - 20:30","zo":"gesloten"}}},{"type":"Feature","geometry":{"type":"Point","coordinates":[13.714346,42.662216]},"properties":{"type":"pakketpunt","locatieNaam":"Ufficio Postale TERAMO 3","straatNaam":"VIA PANNELLA GIACINTO 43","straatNr":"","vervoerder":"DHL","puntType":"postOffice","bezettingsgraad":50,"latitude":42.662216,"longitude":13.714346,"canPickup":true,"canDropoff":true,"openingstijden":{"ma":"08:20 - 19:05","di":"08:20 - 19:05","wo":"08:20 - 19:05","do":"08:20 - 19:05","vr":"08:20 - 19:05","za":"08:20 - 12:35","zo":"gesloten"}}},{"type":"Feature","geometry":{"type":"Point","coordinates":[13.714177,42.662429]},"properties":{"type":"pakketpunt","locatieNaam":"TABACCHERIA N. 18","straatNaam":"VIA GIACINTO PANNELLA 47-49","straatNr":"","vervoerder":"DHL","puntType":"parcelShop","bezettingsgraad":50,"latitude":42.662429,"longitude":13.714177,"canPickup":true,"canDropoff":true,"openingstijden":{"ma":"07:30 - 20:00","di":"07:30 - 20:00","wo":"07:30 - 20:00","do":"07:30 - 20:00","vr":"07:30 - 20:00","za":"07:30 - 20:00","zo":"gesloten"}}},{"type":"Feature","geometry":{"type":"Point","coordinates":[13.716645,42.662508]},"properties":{"type":"pakketpunt","locatieNaam":"NONSOLOSVAPO - TERAMO","straatNaam":"VIA ALBERTO PEPE 39-C","straatNr":"","vervoerder":"DHL","puntType":"parcelShop","bezettingsgraad":50,"latitude":42.662508,"longitude":13.716645,"canPickup":true,"canDropoff":true,"openingstijden":{"ma":"07:30 - 19:30","di":"07:30 - 19:30","wo":"07:30 - 19:30","do":"07:30 - 13:00","vr":"07:30 - 13:00","za":"09:00 - 19:30","zo":"gesloten"}}},{"type":"Feature","geometry":{"type":"Point","coordinates":[13.717971,42.6627]},"properties":{"type":"pakketpunt","locatieNaam":"TABACCHERIA N. 62","straatNaam":"VIA ROMA 12","straatNr":"","vervoerder":"DHL","puntType":"parcelShop","bezettingsgraad":50,"latitude":42.6627,"longitude":13.717971,"canPickup":true,"canDropoff":true,"openingstijden":{"ma":"06:30 - 13:00, 15:30 - 19:30","di":"06:30 - 13:00, 15:30 - 19:30","wo":"06:30 - 13:00, 15:30 - 19:30","do":"06:30 - 13:00, 15:30 - 19:30","vr":"06:30 - 13:00, 15:30 - 19:30","za":"06:30 - 13:00, 15:30 - 19:30","zo":"gesloten"}}},{"type":"Feature","geometry":{"type":"Point","coordinates":[13.712673,42.666419]},"properties":{"type":"pakketpunt","locatieNaam":"TABACCHERIA N. 77","straatNaam":"PIAZZA ITALIA SNC 4","straatNr":"","vervoerder":"DHL","puntType":"parcelShop","bezettingsgraad":50,"latitude":42.666419,"longitude":13.712673,"canPickup":true,"canDropoff":true,"openingstijden":{"ma":"06:40 - 20:15","di":"06:40 - 20:15","wo":"06:40 - 20:15","do":"06:40 - 20:15","vr":"06:40 - 20:15","za":"06:40 - 20:15","zo":"18:00 - 20:00"}}},{"type":"Feature","geometry":{"type":"Point","coordinates":[13.714218,42.669211]},"properties":{"type":"pakketpunt","locatieNaam":"TABACCHERIA N. 61","straatNaam":"VIALE DELLA RESISTENZA 33","straatNr":"","vervoerder":"DHL","puntType":"parcelShop","bezettingsgraad":50,"latitude":42.669211,"longitude":13.714218,"canPickup":true,"canDropoff":true,"openingstijden":{"ma":"08:00 - 13:30, 15:30 - 20:00","di":"08:00 - 13:30, 15:30 - 20:00","wo":"08:00 - 13:30, 15:30 - 20:00","do":"08:00 - 13:30, 15:30 - 20:00","vr":"08:00 - 13:30, 15:30 - 20:00","za":"08:00 - 13:30, 15:30 - 20:00","zo":"gesloten"}}},{"type":"Feature","geometry":{"type":"Point","coordinates":[13.763984,42.616062]},"properties":{"type":"pakketpunt","locatieNaam":"Ufficio Postale VILLA VOMANO","straatNaam":"VIA NAZIONALE 18","straatNr":"","vervoerder":"DHL","puntType":"postOffice","bezettingsgraad":50,"latitude":42.616062,"longitude":13.763984,"canPickup":true,"canDropoff":true,"openingstijden":{"ma":"08:20 - 13:35","di":"08:20 - 13:35","wo":"08:20 - 13:35","do":"08:20 - 13:35","vr":"08:20 - 13:35","za":"08:20 - 12:35","zo":"gesloten"}}},{"type":"Feature","geometry":{"type":"Point","coordinates":[13.738187,42.674307]},"properties":{"type":"pakketpunt","locatieNaam":"TABACCHERIA N. 29","straatNaam":"VIALE EUROPA 36","straatNr":"","vervoerder":"DHL","puntType":"parcelShop","bezettingsgraad":50,"latitude":42.674307,"longitude":13.738187,"canPickup":true,"canDropoff":true,"openingstijden":{"ma":"06:00 - 13:00, 15:00 - 20:00","di":"06:00 - 13:00, 15:00 - 20:00","wo":"06:00 - 13:00, 15:00 - 20:00","do":"06:00 - 13:00, 15:00 - 20:00","vr":"06:00 - 13:00, 15:00 - 20:00","za":"06:00 - 13:00, 15:00 - 20:00","zo":"06:00 - 13:00"}}},{"type":"Feature","geometry":{"type":"Point","coordinates":[13.738633,42.676848]},"properties":{"type":"pakketpunt","locatieNaam":"TABACCHERIA N. 68","straatNaam":"PIAZZA RISHON LE ZION SNC 1","straatNr":"","vervoerder":"DHL","puntType":"parcelShop","bezettingsgraad":50,"latitude":42.676848,"longitude":13.738633,"canPickup":true,"canDropoff":true,"openingstijden":{"ma":"07:30 - 13:30, 15:30 - 20:00","di":"07:30 - 13:30, 15:30 - 20:00","wo":"07:30 - 13:30, 15:30 - 20:00","do":"07:30 - 13:30, 15:30 - 20:00","vr":"07:30 - 13:30, 15:30 - 20:00","za":"07:30 - 13:30, 15:30 - 20:00","zo":"gesloten"}}},{"type":"Feature","geometry":{"type":"Point","coordinates":[13.738323,42.677184]},"properties":{"type":"pakketpunt","locatieNaam":"Ufficio Postale TERAMO 5","straatNaam":"PIAZZA RISHON LE ZION 2","straatNr":"","vervoerder":"DHL","puntType":"postOffice","bezettingsgraad":50,"latitude":42.677184,"longitude":13.738323,"canPickup":true,"canDropoff":true,"openingstijden":{"ma":"08:20 - 13:35","di":"08:20 - 13:35","wo":"08:20 - 13:35","do":"08:20 - 13:35","vr":"08:20 - 13:35","za":"08:20 - 12:35","zo":"gesloten"}}},{"type":"Feature","geometry":{"type":"Point","coordinates":[13.739752,42.679903]},"properties":{"type":"pakketpunt","locatieNaam":"TABACCHERIA N. 76","straatNaam":"VIA VINCENZO PILOTTI SNC 1","straatNr":"","vervoerder":"DHL","puntType":"parcelShop","bezettingsgraad":50,"latitude":42.679903,"longitude":13.739752,"canPickup":true,"canDropoff":true,"openingstijden":{"ma":"06:30 - 21:30","di":"06:30 - 21:30","wo":"06:30 - 21:30","do":"06:30 - 21:30","vr":"06:30 - 21:30","za":"06:30 - 21:30","zo":"06:30 - 13:00"}}},{"type":"Feature","geometry":{"type":"Point","coordinates":[13.759408,42.681995]},"properties":{"type":"pakketpunt","locatieNaam":"TABACCHERIA N. 11","straatNaam":"LOCALITA PIANO DACCIO SNC 1","straatNr":"","vervoerder":"DHL","puntType":"parcelShop","bezettingsgraad":50,"latitude":42.681995,"longitude":13.759408,"canPickup":true,"canDropoff":true,"openingstijden":{"ma":"09:00 - 21:00","di":"09:00 - 21:00","wo":"09:00 - 21:00","do":"09:00 - 21:00","vr":"09:00 - 21:00","za":"09:00 - 21:00","zo":"09:00 - 21:00"}}},{"type":"Feature","geometry":{"type":"Point","coordinates":[13.758039,42.687553]},"properties":{"type":"pakketpunt","locatieNaam":"Ufficio Postale NEPEZZANO","straatNaam":"VIA CROCETTI GUERRIERI 11","straatNr":"","vervoerder":"DHL","puntType":"postOffice","bezettingsgraad":50,"latitude":42.687553,"longitude":13.758039,"canPickup":true,"canDropoff":true,"openingstijden":{"ma":"08:20 - 13:45","di":"08:20 - 13:45","wo":"08:20 - 13:45","do":"08:20 - 13:45","vr":"08:20 - 13:45","za":"08:20 - 12:45","zo":"gesloten"}}},{"type":"Feature","geometry":{"type":"Point","coordinates":[13.769676,42.686082]},"properties":{"type":"pakketpunt","locatieNaam":"TABACCHERIA N. 72","straatNaam":"STRADA STATALE 80 SNC 1","straatNr":"","vervoerder":"DHL","puntType":"parcelShop","bezettingsgraad":50,"latitude":42.686082,"longitude":13.769676,"canPickup":true,"canDropoff":true,"openingstijden":{"ma":"08:00 - 20:00","di":"08:00 - 20:00","wo":"08:00 - 20:00","do":"08:00 - 20:00","vr":"08:00 - 20:00","za":"08:00 - 20:00","zo":"08:00 - 20:00"}}},{"type":"Feature","geometry":{"type":"Point","coordinates":[13.780126,42.690305]},"properties":{"type":"pakketpunt","locatieNaam":"TABACCHERIA N. 19","straatNaam":"VIA CRISTOFORO COLOMBO 196","straatNr":"","vervoerder":"DHL","puntType":"parcelShop","bezettingsgraad":50,"latitude":42.690305,"longitude":13.780126,"canPickup":true,"canDropoff":true,"openingstijden":{"ma":"08:00 - 13:00, 16:00 - 19:30","di":"08:00 - 13:00, 16:00 - 19:30","wo":"08:00 - 13:00, 16:00 - 19:30","do":"08:00 - 13:00, 16:00 - 19:30","vr":"08:00 - 13:00, 16:00 - 19:30","za":"08:00 - 13:00, 16:00 - 19:30","zo":"gesloten"}}},{"type":"Feature","geometry":{"type":"Point","coordinates":[13.788336,42.694107]},"properties":{"type":"pakketpunt","locatieNaam":"LAVA PIU'","straatNaam":"VIA CRISTOFORO COLOMBO 98","straatNr":"","vervoerder":"DHL","puntType":"packStation","bezettingsgraad":50,"latitude":42.694107,"longitude":13.788336,"canPickup":true,"canDropoff":true,"openingstijden":{"ma":"07:00 - 22:00","di":"07:00 - 22:00","wo":"07:00 - 22:00","do":"07:00 - 22:00","vr":"07:00 - 22:00","za":"07:00 - 22:00","zo":"07:00 - 22:00"}}},{"type":"Feature","geometry":{"type":"Point","coordinates":[13.790853,42.695544]},"properties":{"type":"pakketpunt","locatieNaam":"EDICOLA","straatNaam":"PIAZZA SAN FRANCESCO 1","straatNr":"","vervoerder":"DHL","puntType":"parcelShop","bezettingsgraad":50,"latitude":42.695544,"longitude":13.790853,"canPickup":true,"canDropoff":true,"openingstijden":{"ma":"06:30 - 13:30, 16:00 - 19:00","di":"06:30 - 13:30, 16:00 - 19:00","wo":"06:30 - 13:30, 16:00 - 19:00","do":"06:30 - 13:00, 16:00 - 19:00","vr":"06:30 - 13:30, 16:00 - 19:00","za":"06:30 - 13:30, 16:00 - 19:00","zo":"gesloten"}}},{"type":"Feature","geometry":{"type":"Point","coordinates":[13.789901,42.69553]},"properties":{"type":"pakketpunt","locatieNaam":"CARTOLIBRERIA DI SANFRANCESCO","straatNaam":"Piazza Progresso, 3","straatNr":"","vervoerder":"DHL","puntType":"parcelShop","bezettingsgraad":50,"latitude":42.69553,"longitude":13.789901,"canPickup":false,"canDropoff":true,"openingstijden":{"ma":"08:00 - 19:30","di":"08:00 - 19:30","wo":"08:00 - 19:30","do":"08:00 - 19:30","vr":"08:00 - 19:30","za":"gesloten","zo":"gesloten"}}},{"type":"Feature","geometry":{"type":"Point","coordinates":[13.786043,42.694925]},"properties":{"type":"pakketpunt","locatieNaam":"Ufficio Postale SAN NICOLO' A TORDI","straatNaam":"VIA GALILEO GALILEI 52","straatNr":"","vervoerder":"DHL","puntType":"postOffice","bezettingsgraad":50,"latitude":42.694925,"longitude":13.786043,"canPickup":true,"canDropoff":true,"openingstijden":{"ma":"08:20 - 13:35","di":"08:20 - 13:35","wo":"08:20 - 13:35","do":"08:20 - 13:35","vr":"08:20 - 13:35","za":"08:20 - 12:35","zo":"gesloten"}}},{"type":"Feature","geometry":{"type":"Point","coordinates":[13.786438,42.696658]},"properties":{"type":"pakketpunt","locatieNaam":"TABACCHERIA N. 39","straatNaam":"VIA GALILEI GALILEO 20-D","straatNr":"","vervoerder":"DHL","puntType":"parcelShop","bezettingsgraad":50,"latitude":42.696658,"longitude":13.786438,"canPickup":true,"canDropoff":true,"openingstijden":{"ma":"06:00 - 21:00","di":"06:00 - 21:00","wo":"06:00 - 21:00","do":"06:00 - 21:00","vr":"06:00 - 21:00","za":"06:00 - 21:00","zo":"06:00 - 21:00"}}},{"type":"Feature","geometry":{"type":"Point","coordinates":[13.7639,42.616]},"properties":{"type":"pakketpunt","locatieNaam":"Ufficio Postale VILLA VOMANO","straatNaam":"VIA NAZIONALE 18","straatNr":"","vervoerder":"Amazon","puntType":"3p","bezettingsgraad":50,"latitude":42.616,"longitude":13.7639,"canPickup":true,"canDropoff":false,"openingstijden":null}},{"type":"Feature","geometry":{"type":"Point","coordinates":[13.7172187,42.6599732]},"properties":{"type":"pakketpunt","locatieNaam":"Amazon Locker - arminio","straatNaam":"Oasi Teramo","straatNr":"","vervoerder":"Amazon","puntType":"locker","bezettingsgraad":50,"latitude":42.6599732,"longitude":13.7172187,"canPickup":true,"canDropoff":false,"openingstijden":null}},{"type":"Feature","geometry":{"type":"Point","coordinates":[13.720331,42.663329]},"properties":{"type":"pakketpunt","locatieNaam":"Amazon Locker - bertina","straatNaam":"Eni Station Pv.7367","straatNr":"","vervoerder":"Amazon","puntType":"locker","bezettingsgraad":50,"latitude":42.663329,"longitude":13.720331,"canPickup":true,"canDropoff":false,"openingstijden":null}},{"type":"Feature","geometry":{"type":"Point","coordinates":[13.7599948,42.6822596]},"properties":{"type":"pakketpunt","locatieNaam":"Amazon Locker - ulrica","straatNaam":"Burger King Franchisee TERAMO","straatNr":"","vervoerder":"Amazon","puntType":"locker","bezettingsgraad":50,"latitude":42.6822596,"longitude":13.7599948,"canPickup":true,"canDropoff":false,"openingstijden":null}},{"type":"Feature","geometry":{"type":"Point","coordinates":[13.7849944,42.6933333]},"properties":{"type":"pakketpunt","locatieNaam":"Amazon Locker - almerindo","straatNaam":"Fermopoint / Happy Hour","straatNr":"","vervoerder":"Amazon","puntType":"locker","bezettingsgraad":50,"latitude":42.6933333,"longitude":13.7849944,"canPickup":true,"canDropoff":false,"openingstijden":null}},{"type":"Feature","geometry":{"type":"Point","coordinates":[13.680307,42.6510563]},"properties":{"type":"pakketpunt","locatieNaam":"Amazon Locker - almerio","straatNaam":"EccoMi Teramo","straatNr":"","vervoerder":"Amazon","puntType":"locker","bezettingsgraad":50,"latitude":42.6510563,"longitude":13.680307,"canPickup":true,"canDropoff":false,"openingstijden":null}},{"type":"Feature","geometry":{"type":"Point","coordinates":[13.683762,42.654675]},"properties":{"type":"pakketpunt","locatieNaam":"Amazon Locker - elmerico","straatNaam":"Conad Teramo","straatNr":"","vervoerder":"Amazon","puntType":"locker","bezettingsgraad":50,"latitude":42.654675,"longitude":13.683762,"canPickup":true,"canDropoff":false,"openingstijden":null}},{"type":"Feature","geometry":{"type":"Point","coordinates":[13.759158,42.6818703]},"properties":{"type":"pakketpunt","locatieNaam":"Giunti al Punto","straatNaam":"Strada Provinciale 18 Snc","straatNr":"","vervoerder":"Amazon","puntType":"helix","bezettingsgraad":50,"latitude":42.6818703,"longitude":13.759158,"canPickup":true,"canDropoff":false,"openingstijden":null}},{"type":"Feature","geometry":{"type":"Point","coordinates":[13.760721,42.680864]},"properties":{"type":"pakketpunt","locatieNaam":"Amazon Counter - TABACCHI","straatNaam":"PIANO D'ACCIO  GRANSASSO 29B","straatNr":"","vervoerder":"Amazon","puntType":"helix","bezettingsgraad":50,"latitude":42.680864,"longitude":13.760721,"canPickup":true,"canDropoff":false,"openingstijden":null}},{"type":"Feature","geometry":{"type":"Point","coordinates":[13.790258,42.695095]},"properties":{"type":"pakketpunt","locatieNaam":"Amazon Counter - PRIMAEDICOLA","straatNaam":"IL CAVALLINO DI GABARRINI D. &","straatNr":"","vervoerder":"Amazon","puntType":"helix","bezettingsgraad":50,"latitude":42.695095,"longitude":13.790258,"canPickup":true,"canDropoff":false,"openingstijden":null}},{"type":"Feature","geometry":{"type":"Point","coordinates":[13.7896813,42.6957917]},"properties":{"type":"pakketpunt","locatieNaam":"Amazon Counter (fermopoint)","straatNaam":"Cartolibreria S.Francesco","straatNr":"","vervoerder":"Amazon","puntType":"helix","bezettingsgraad":50,"latitude":42.6957917,"longitude":13.7896813,"canPickup":true,"canDropoff":false,"openingstijden":null}},{"type":"Feature","geometry":{"type":"Point","coordinates":[13.699419,42.662226]},"properties":{"type":"pakketpunt","locatieNaam":"Amazon Counter","straatNaam":"Tabaccheria di Piazza Garibaldi (fermopoint)","straatNr":"","vervoerder":"Amazon","puntType":"helix","bezettingsgraad":50,"latitude":42.662226,"longitude":13.699419,"canPickup":true,"canDropoff":false,"openingstijden":null}},{"type":"Feature","geometry":{"type":"Point","coordinates":[13.69613,42.659941]},"properties":{"type":"pakketpunt","locatieNaam":"Amazon Counter","straatNaam":"Tabacchi E... (fermopoint)","straatNr":"","vervoerder":"Amazon","puntType":"helix","bezettingsgraad":50,"latitude":42.659941,"longitude":13.69613,"canPickup":true,"canDropoff":false,"openingstijden":null}},{"type":"Feature","geometry":{"type":"Point","coordinates":[13.6982,42.6568]},"properties":{"type":"pakketpunt","locatieNaam":"PuntoPoste TABACCHERIA N. 43","straatNaam":"CORSO PORTA ROMANA 3","straatNr":"","vervoerder":"Amazon","puntType":"3p","bezettingsgraad":50,"latitude":42.6568,"longitude":13.6982,"canPickup":true,"canDropoff":false,"openingstijden":null}},{"type":"Feature","geometry":{"type":"Point","coordinates":[13.697769,42.66109]},"properties":{"type":"pakketpunt","locatieNaam":"Amazon Counter - BAR DEI PINI","straatNaam":"PIAZZA GARIBALDI 12","straatNr":"","vervoerder":"Amazon","puntType":"helix","bezettingsgraad":50,"latitude":42.66109,"longitude":13.697769,"canPickup":true,"canDropoff":false,"openingstijden":null}},{"type":"Feature","geometry":{"type":"Point","coordinates":[13.697239,42.661011]},"properties":{"type":"pakketpunt","locatieNaam":"Amazon Counter - PRIMAEDICOLA","straatNaam":"DE LUCA GABRIELE","straatNr":"","vervoerder":"Amazon","puntType":"helix","bezettingsgraad":50,"latitude":42.661011,"longitude":13.697239,"canPickup":true,"canDropoff":false,"openingstijden":null}},{"type":"Feature","geometry":{"type":"Point","coordinates":[13.704861,42.658455]},"properties":{"type":"pakketpunt","locatieNaam":"Amazon Counter - IMPICCIATORE ILEANA","straatNaam":"CORSO VINCENZO CERULLI 30","straatNr":"","vervoerder":"Amazon","puntType":"helix","bezettingsgraad":50,"latitude":42.658455,"longitude":13.704861,"canPickup":true,"canDropoff":false,"openingstijden":null}},{"type":"Feature","geometry":{"type":"Point","coordinates":[13.6954333,42.6626667]},"properties":{"type":"pakketpunt","locatieNaam":"Amazon Counter - PRIMAEDICOLA","straatNaam":"PLAZA ALVEAR ISLANDY DAYANA","straatNr":"","vervoerder":"Amazon","puntType":"helix","bezettingsgraad":50,"latitude":42.6626667,"longitude":13.6954333,"canPickup":true,"canDropoff":false,"openingstijden":null}},{"type":"Feature","geometry":{"type":"Point","coordinates":[13.6875,42.6573]},"properties":{"type":"pakketpunt","locatieNaam":"PuntoPoste TABACCHERIA N. 38","straatNaam":"VIA CONA 24","straatNr":"","vervoerder":"Amazon","puntType":"3p","bezettingsgraad":50,"latitude":42.6573,"longitude":13.6875,"canPickup":true,"canDropoff":false,"openingstijden":null}},{"type":"Feature","geometry":{"type":"Point","coordinates":[13.70221,42.65951889999999]},"properties":{"type":"pakketpunt","locatieNaam":"Giunti al Punto","straatNaam":"Corso San Giorgio 119","straatNr":"","vervoerder":"Amazon","puntType":"helix","bezettingsgraad":50,"latitude":42.65951889999999,"longitude":13.70221,"canPickup":true,"canDropoff":false,"openingstijden":null}},{"type":"Feature","geometry":{"type":"Point","coordinates":[13.697115,42.661118]},"properties":{"type":"pakketpunt","locatieNaam":"Amazon Counter - TABACCHERIA N 41","straatNaam":"VIA DEL CASTELLO 6","straatNr":"","vervoerder":"Amazon","puntType":"helix","bezettingsgraad":50,"latitude":42.661118,"longitude":13.697115,"canPickup":true,"canDropoff":false,"openingstijden":null}},{"type":"Feature","geometry":{"type":"Point","coordinates":[13.712937,42.660973]},"properties":{"type":"pakketpunt","locatieNaam":"Amazon Counter (fermopoint)","straatNaam":"Teramo Led -Solo Counter","straatNr":"","vervoerder":"Amazon","puntType":"helix","bezettingsgraad":50,"latitude":42.660973,"longitude":13.712937,"canPickup":true,"canDropoff":false,"openingstijden":null}},{"type":"Feature","geometry":{"type":"Point","coordinates":[13.7085065,42.659729]},"properties":{"type":"pakketpunt","locatieNaam":"Amazon Locker - turchese","straatNaam":"Fermopoint/Parcheggio San Francesco","straatNr":"","vervoerder":"Amazon","puntType":"locker","bezettingsgraad":50,"latitude":42.659729,"longitude":13.7085065,"canPickup":true,"canDropoff":false,"openingstijden":null}},{"type":"Feature","geometry":{"type":"Point","coordinates":[13.6848,42.6556]},"properties":{"type":"pakketpunt","locatieNaam":"Ufficio Postale TERAMO 4","straatNaam":"VIA CONA 102","straatNr":"","vervoerder":"Amazon","puntType":"3p","bezettingsgraad":50,"latitude":42.6556,"longitude":13.6848,"canPickup":true,"canDropoff":false,"openingstijden":null}},{"type":"Feature","geometry":{"type":"Point","coordinates":[13.7025,42.6593]},"properties":{"type":"pakketpunt","locatieNaam":"PuntoPoste TABACCHERIA N. 1","straatNaam":"CORSO SAN GIORGIO 123","straatNr":"","vervoerder":"Amazon","puntType":"3p","bezettingsgraad":50,"latitude":42.6593,"longitude":13.7025,"canPickup":true,"canDropoff":false,"openingstijden":null}},{"type":"Feature","geometry":{"type":"Point","coordinates":[13.7026,42.6588]},"properties":{"type":"pakketpunt","locatieNaam":"PuntoPoste TABACCHERIA N. 8","straatNaam":"PIAZZA MARTIRI DELLA LIBERTA' 15","straatNr":"","vervoerder":"Amazon","puntType":"3p","bezettingsgraad":50,"latitude":42.6588,"longitude":13.7026,"canPickup":true,"canDropoff":false,"openingstijden":null}},{"type":"Feature","geometry":{"type":"Point","coordinates":[13.7801,42.6903]},"properties":{"type":"pakketpunt","locatieNaam":"PuntoPoste TABACCHERIA N. 19","straatNaam":"VIA CRISTOFORO COLOMBO 196","straatNr":"","vervoerder":"Amazon","puntType":"3p","bezettingsgraad":50,"latitude":42.6903,"longitude":13.7801,"canPickup":true,"canDropoff":false,"openingstijden":null}},{"type":"Feature","geometry":{"type":"Point","coordinates":[13.758,42.6875]},"properties":{"type":"pakketpunt","locatieNaam":"Ufficio Postale NEPEZZANO","straatNaam":"VIA CROCETTI GUERRIERI 11","straatNr":"","vervoerder":"Amazon","puntType":"3p","bezettingsgraad":50,"latitude":42.6875,"longitude":13.758,"canPickup":true,"canDropoff":false,"openingstijden":null}},{"type":"Feature","geometry":{"type":"Point","coordinates":[13.757804,42.683053]},"properties":{"type":"pakketpunt","locatieNaam":"Amazon Counter - PALUMBO MARIATERESA","straatNaam":"VIALE AMERIGO VESPUCCI 22","straatNr":"","vervoerder":"Amazon","puntType":"helix","bezettingsgraad":50,"latitude":42.683053,"longitude":13.757804,"canPickup":true,"canDropoff":false,"openingstijden":null}},{"type":"Feature","geometry":{"type":"Point","coordinates":[13.7908,42.6955]},"properties":{"type":"pakketpunt","locatieNaam":"PuntoPoste EDICOLA","straatNaam":"PIAZZA SAN FRANCESCO 1","straatNr":"","vervoerder":"Amazon","puntType":"3p","bezettingsgraad":50,"latitude":42.6955,"longitude":13.7908,"canPickup":true,"canDropoff":false,"openingstijden":null}},{"type":"Feature","geometry":{"type":"Polygon","coordinates":[[[13.5822779,42.6084336],[13.5843414,42.6091604],[13.5875891,42.6100206],[13.5966578,42.6112047],[13.5976556,42.6111168],[13.598217,42.6107278],[13.5992919,42.6105875],[13.6060742,42.610434],[13.6180214,42.6115636],[13.6208259,42.6125958],[13.6214869,42.613027],[13.6235006,42.6156988],[13.6252121,42.6170505],[13.6306143,42.6193414],[13.6346739,42.6204792],[13.6354891,42.6205979],[13.6557748,42.6116888],[13.6654971,42.6064182],[13.6893163,42.595265],[13.689903,42.5950969],[13.6949273,42.5955976],[13.7077588,42.5975545],[13.7087015,42.5979253],[13.7116928,42.599445],[13.7119091,42.5996162],[13.7120462,42.6000607],[13.7080805,42.6002133],[13.7075371,42.600521],[13.7074011,42.6012413],[13.7074328,42.6026815],[13.7082571,42.608185],[13.7087222,42.6086855],[13.7167246,42.614962],[13.7174587,42.6154665],[13.7190542,42.6161047],[13.7252219,42.6173802],[13.7318905,42.6186159],[13.7477426,42.6147329],[13.7517402,42.6131246],[13.7534268,42.6123514],[13.7560621,42.6115957],[13.7671188,42.6091668],[13.7679847,42.6091491],[13.771445,42.6092493],[13.7791698,42.6138708],[13.7849078,42.6153637],[13.7913798,42.6160442],[13.795612,42.6172964],[13.8056015,42.6221368],[13.8042484,42.622808],[13.8007224,42.6247647],[13.7922083,42.6337207],[13.7863682,42.6418092],[13.7856295,42.6484376],[13.7857732,42.6560929],[13.7859414,42.6574827],[13.7871446,42.6611979],[13.7876179,42.6622462],[13.7880455,42.6628451],[13.7886204,42.6634182],[13.7898538,42.6639517],[13.791213,42.6643358],[13.792962,42.6654187],[13.7932736,42.6656809],[13.7935933,42.6661986],[13.7944621,42.6683409],[13.7936455,42.6735929],[13.7931764,42.6745257],[13.7920523,42.6751985],[13.7843738,42.6784641],[13.7833171,42.6788151],[13.7789487,42.679399],[13.7769905,42.6795222],[13.7762938,42.6797384],[13.7755764,42.6802275],[13.7752742,42.6807218],[13.7752934,42.6815753],[13.7754569,42.6823667],[13.7763102,42.6838655],[13.7767275,42.6843732],[13.7800099,42.6870248],[13.7830407,42.6885232],[13.7844131,42.688316],[13.7869999,42.6884012],[13.7907489,42.689545],[13.7972402,42.6922178],[13.7980441,42.692718],[13.8047942,42.6935918],[13.8052448,42.6937079],[13.8246454,42.7006249],[13.8268251,42.701621],[13.8280358,42.7024427],[13.8209931,42.7065487],[13.8201866,42.7083808],[13.8195203,42.708866],[13.8107703,42.7124495],[13.7925681,42.7178782],[13.7909735,42.7182396],[13.7839159,42.7171729],[13.7797378,42.7151488],[13.7742912,42.7157232],[13.7720962,42.7193355],[13.7699946,42.7169176],[13.7676118,42.7157573],[13.7643919,42.7143269],[13.7465217,42.7127459],[13.743642,42.7131353],[13.7325186,42.7161938],[13.7258231,42.7133729],[13.7113805,42.7096723],[13.6952202,42.7058693],[13.6786375,42.7030846],[13.6778061,42.7031301],[13.6770564,42.7033646],[13.6765727,42.7037192],[13.6763907,42.7042394],[13.6763641,42.7065718],[13.6715468,42.7075242],[13.6587325,42.7083654],[13.6581727,42.7082778],[13.6548478,42.706753],[13.6520877,42.7046787],[13.6525313,42.7037721],[13.6490228,42.6994713],[13.640047,42.6990311],[13.6300942,42.7001701],[13.6271104,42.7060366],[13.6267571,42.7065546],[13.6224422,42.7056654],[13.6200512,42.7050043],[13.6102883,42.7004306],[13.6070646,42.6988348],[13.6065137,42.6983483],[13.6062219,42.6977522],[13.6066709,42.697316],[13.6103369,42.6955068],[13.6113844,42.6950774],[13.6118118,42.6950704],[13.62364,42.6879111],[13.6299509,42.683932],[13.6459156,42.6699789],[13.6515131,42.6656413],[13.6596341,42.6641983],[13.6598151,42.6648384],[13.6606686,42.6655984],[13.6614095,42.6661628],[13.6639555,42.6674983],[13.6674877,42.6678006],[13.6758396,42.6635209],[13.6766851,42.6529949],[13.6765913,42.6528135],[13.6677338,42.6517427],[13.652472,42.6483448],[13.6510886,42.6479713],[13.6509159,42.6473145],[13.6511544,42.6466823],[13.6513814,42.6463149],[13.6512619,42.6456381],[13.6509562,42.6445448],[13.6503673,42.6435813],[13.6500463,42.6432117],[13.6399944,42.6347075],[13.6392242,42.6343739],[13.6377289,42.6341494],[13.6367158,42.6340993],[13.6082965,42.6366367],[13.5897904,42.636721],[13.5871399,42.6358149],[13.586803,42.6356126],[13.5859754,42.6344788],[13.5847552,42.6318044],[13.5839241,42.630264],[13.5836954,42.6296411],[13.5843574,42.616011],[13.5822779,42.6084336]]]},"properties":{"type":"boundary","gemeente":"Teramo"}}]}