{"type":"FeatureCollection","metadata":{"gemeente":"Trambileno","slug":"trambileno","generated_at":"2026-09-26T14:28:08.903163Z","total_points":1,"providers":["PosteItaliane"],"bounds":[11.07341629,45.86945315,11.07341629,45.86945315]},"features":[{"type":"Feature","geometry":{"type":"Point","coordinates":[11.07341629,45.86945315]},"properties":{"type":"pakketpunt","locatieNaam":"Trambileno","straatNaam":"Frazione Moscheri","straatNr":"7","vervoerder":"PosteItaliane","puntType":"postkantoor","bezettingsgraad":50,"latitude":45.86945315,"longitude":11.07341629,"canPickup":true,"canDropoff":true,"openingstijden":{"za":"gesloten","zo":"gesloten","ma":"08:20 - 13:45","di":"gesloten","wo":"08:20 - 13:45","do":"gesloten","vr":"08:20 - 13:45"}}},{"type":"Feature","geometry":{"type":"Polygon","coordinates":[[[11.059946,45.869635],[11.0574516,45.8707854],[11.05522,45.8721151],[11.0528596,45.8731907],[11.0519527,45.8743602],[11.0494877,45.876047],[11.0483069,45.8778892],[11.0471408,45.8812379],[11.0469839,45.8819133],[11.0470291,45.8820832],[11.0479458,45.8828499],[11.0508245,45.8839552],[11.0511678,45.8851352],[11.0517901,45.8857925],[11.0527931,45.8866365],[11.0549917,45.8862834],[11.0553168,45.8860859],[11.0555843,45.885207],[11.0559831,45.8848797],[11.057506,45.8846903],[11.0580428,45.8847142],[11.0586758,45.8849174],[11.0593538,45.8846524],[11.0606942,45.8834215],[11.0612022,45.8826102],[11.061929,45.8811497],[11.0626184,45.8808987],[11.0633266,45.8802745],[11.0636858,45.8793276],[11.063836,45.8791964],[11.0640739,45.8791265],[11.0651963,45.8791401],[11.0657496,45.8790235],[11.0664081,45.8792163],[11.0672426,45.8792718],[11.0679684,45.8789689],[11.0685703,45.8792114],[11.06888,45.8792191],[11.0695331,45.8789042],[11.0700101,45.878818],[11.0699996,45.8785404],[11.0700784,45.8783474],[11.0720467,45.8773011],[11.0729298,45.8771737],[11.0750879,45.8766],[11.0759244,45.8767428],[11.0767878,45.8771227],[11.0787149,45.8767442],[11.0795449,45.8764233],[11.0799703,45.8761113],[11.0804015,45.8759764],[11.0806764,45.8759938],[11.0809327,45.8762635],[11.0813326,45.8762592],[11.083045,45.875463],[11.0833529,45.8755027],[11.0837512,45.8753498],[11.0838975,45.8748938],[11.0845733,45.8742636],[11.0852534,45.8734069],[11.0855901,45.8731885],[11.0859288,45.8724646],[11.0877773,45.8716869],[11.0886624,45.8710501],[11.090046,45.8703495],[11.0916035,45.8697316],[11.0940651,45.8697989],[11.0957151,45.8700866],[11.0973307,45.8701826],[11.0986929,45.8706222],[11.1003349,45.8709128],[11.1016597,45.8722463],[11.102621,45.8727462],[11.1036351,45.8729049],[11.104145,45.8727046],[11.1045617,45.8727613],[11.1051076,45.8732887],[11.1058337,45.8732837],[11.1068979,45.8738533],[11.1074303,45.8738441],[11.1079014,45.8740109],[11.1080788,45.8740219],[11.1085874,45.8738249],[11.1092877,45.873683],[11.1099181,45.8737229],[11.1112693,45.873234],[11.1122979,45.8730682],[11.1139167,45.8731651],[11.1162861,45.872791],[11.1169584,45.8725333],[11.1417564,45.8563146],[11.1462324,45.8552931],[11.1593811,45.8492098],[11.1839621,45.8358699],[11.1832724,45.8348812],[11.1826204,45.8337055],[11.1789345,45.8263103],[11.1787963,45.8211257],[11.1789526,45.8202761],[11.179103,45.8198944],[11.1808551,45.8186863],[11.1837474,45.8174527],[11.1848399,45.8171051],[11.1853966,45.8171354],[11.1858621,45.8173902],[11.1864128,45.8179669],[11.1867918,45.8189966],[11.1873315,45.8199252],[11.1893367,45.8222471],[11.1904282,45.8229214],[11.1912042,45.8233036],[11.1984762,45.8242204],[11.197854,45.8238086],[11.197767,45.8178322],[11.1890902,45.8130509],[11.1924995,45.8019854],[11.1982253,45.8009049],[11.198155,45.7991188],[11.1971705,45.798416],[11.1958518,45.7969965],[11.1954681,45.7964071],[11.1933937,45.7961252],[11.1931149,45.7957866],[11.1933059,45.7952614],[11.1946623,45.7930969],[11.1955475,45.791901],[11.19671,45.7898614],[11.1977113,45.7883344],[11.1998068,45.7863916],[11.2007576,45.7856709],[11.2024657,45.7846083],[11.2042929,45.7838117],[11.2041295,45.7837116],[11.2036823,45.7837041],[11.2032825,45.7834763],[11.202666,45.7833693],[11.2015801,45.7828773],[11.2014513,45.7827272],[11.2007305,45.7824387],[11.2004581,45.7823923],[11.2002829,45.7824708],[11.2000811,45.7822785],[11.2000351,45.7820711],[11.1997113,45.7819341],[11.1986474,45.7817171],[11.1976359,45.781293],[11.196679,45.7814903],[11.1959568,45.7814845],[11.1955827,45.7816096],[11.1953548,45.7816104],[11.1952521,45.781532],[11.1948464,45.7816538],[11.1945366,45.7818598],[11.1942838,45.7817634],[11.1935887,45.7818578],[11.1932683,45.7817774],[11.192989,45.781582],[11.1925535,45.7817859],[11.1915144,45.7817344],[11.1912277,45.7817895],[11.1910806,45.7817204],[11.1904657,45.7819271],[11.1903363,45.7818822],[11.1899871,45.7820587],[11.1892257,45.7820339],[11.1884704,45.7822803],[11.1878471,45.7827164],[11.1876349,45.783162],[11.1871714,45.7834632],[11.1870804,45.7837287],[11.1869869,45.7837464],[11.1866362,45.7841517],[11.1865125,45.7840926],[11.1855297,45.7841911],[11.1854289,45.784589],[11.1846488,45.7849892],[11.1846052,45.7850856],[11.1847208,45.7852052],[11.1847722,45.7854363],[11.1845863,45.7861287],[11.1846259,45.7864634],[11.1845619,45.7866786],[11.1841412,45.7868657],[11.1837201,45.7875733],[11.1833022,45.7877774],[11.182628,45.787899],[11.1815374,45.7876419],[11.1812134,45.7873865],[11.1809608,45.7874318],[11.1803964,45.7872375],[11.1802273,45.7875342],[11.1800219,45.7876772],[11.1793787,45.7878667],[11.1789907,45.7878953],[11.1784138,45.7881904],[11.178002,45.7882955],[11.1776685,45.7882753],[11.1758041,45.7879548],[11.1755558,45.7877854],[11.1750973,45.7877304],[11.1740096,45.7869629],[11.1754848,45.7899239],[11.1753458,45.790235],[11.1708166,45.7918932],[11.1705916,45.7919157],[11.1666639,45.7920458],[11.1652183,45.7917164],[11.1651708,45.7914112],[11.1649887,45.791236],[11.1633114,45.7913471],[11.1612059,45.7924543],[11.1599388,45.7932422],[11.1550396,45.7963206],[11.1543608,45.7968553],[11.1487919,45.8020816],[11.1483919,45.8024853],[11.1481944,45.8028425],[11.1481221,45.8033184],[11.1486343,45.8051669],[11.1489492,45.8057595],[11.1509063,45.8063125],[11.1524238,45.8080966],[11.1509654,45.8156576],[11.150557,45.8165255],[11.149772,45.8176023],[11.1463099,45.8202466],[11.1458579,45.8204299],[11.1441645,45.8203126],[11.1405991,45.8196414],[11.139552,45.8191146],[11.1393325,45.818787],[11.1383163,45.8178595],[11.1369623,45.8149606],[11.1362971,45.8144072],[11.1353744,45.8143623],[11.1337866,45.8145867],[11.1324879,45.8151406],[11.1309756,45.8146016],[11.1296667,45.8149157],[11.1291088,45.8144969],[11.1285509,45.8142427],[11.1274136,45.8146764],[11.1267055,45.8137192],[11.1253557,45.8151668],[11.1241092,45.8162168],[11.1224475,45.8172527],[11.1210964,45.8188836],[11.1171427,45.8239917],[11.1152686,45.8249201],[11.1128653,45.8253088],[11.1087884,45.826206],[11.1033381,45.8283292],[11.101633,45.8293969],[11.1000551,45.8290319],[11.0982097,45.8284638],[11.0970296,45.8278657],[11.0950126,45.8281498],[11.0924923,45.8280866],[11.0886945,45.8272437],[11.0874702,45.8272106],[11.0855468,45.8267911],[11.0839382,45.825418],[11.0833225,45.8242877],[11.0820154,45.8233923],[11.0812105,45.8238244],[11.0811017,45.8240518],[11.0810474,45.8245141],[11.0808081,45.824787],[11.0805579,45.8249765],[11.0783608,45.8257117],[11.0784804,45.8262195],[11.0784587,45.8264848],[11.0778604,45.8272882],[11.0771969,45.8274246],[11.0768598,45.8275838],[11.0767945,45.8278263],[11.0768489,45.82866],[11.0767401,45.8290314],[11.076577,45.8292209],[11.0760984,45.8293042],[11.0758591,45.8294861],[11.0756524,45.8299106],[11.0756415,45.8301531],[11.0757612,45.8303122],[11.0757394,45.830532],[11.0754349,45.8308428],[11.0744016,45.8310929],[11.0742928,45.8311914],[11.0742928,45.8317522],[11.0737925,45.8321918],[11.0737272,45.8323661],[11.0737925,45.83323],[11.073923,45.8336544],[11.073749,45.8339879],[11.0730746,45.8344122],[11.0728027,45.8347836],[11.0725525,45.8348442],[11.0721936,45.8351549],[11.0720957,45.8354353],[11.0725525,45.8364432],[11.0727157,45.8366251],[11.072683,45.8370873],[11.0724437,45.8374207],[11.0724111,45.8375875],[11.0724764,45.8377542],[11.0731181,45.8383452],[11.0731942,45.8386862],[11.0732813,45.8395652],[11.0729985,45.8400881],[11.0729006,45.8410732],[11.0728136,45.8412853],[11.0718238,45.8420279],[11.071889,45.842528],[11.0718238,45.8427099],[11.0716062,45.8428917],[11.0703499,45.8433502],[11.070301,45.8437525],[11.0705403,45.8440783],[11.070637,45.8443741],[11.0704641,45.8447526],[11.0699784,45.8451079],[11.0698061,45.8454228],[11.0698564,45.8457144],[11.0697259,45.8460251],[11.0690079,45.8464028],[11.0688992,45.8466842],[11.0691059,45.8470706],[11.069134,45.8474025],[11.0684583,45.8479359],[11.0681161,45.8484571],[11.0679307,45.8490795],[11.0679312,45.8497299],[11.0680418,45.8501657],[11.0686207,45.8506736],[11.0696412,45.8510167],[11.0698755,45.8514332],[11.0694518,45.8518933],[11.0693669,45.8521316],[11.0697041,45.8522982],[11.0698673,45.8525482],[11.0695483,45.8532049],[11.0695519,45.8535028],[11.0699543,45.853927],[11.0703292,45.8540282],[11.0707103,45.8544074],[11.0707103,45.8548625],[11.0701659,45.8549871],[11.0701659,45.8556913],[11.0700336,45.8562655],[11.0703681,45.8564822],[11.0706714,45.8568993],[11.0707412,45.8576137],[11.0705034,45.8582642],[11.0699429,45.8585971],[11.070249,45.8593335],[11.0702102,45.8595242],[11.0704621,45.8600092],[11.0692141,45.8627296],[11.0690273,45.8653528],[11.0683192,45.8666378],[11.0676111,45.8674895],[11.0676111,45.8696709],[11.0678471,45.8709558],[11.067139,45.8720165],[11.0665811,45.8734807],[11.0656148,45.8737042],[11.064725,45.8753182],[11.0635304,45.8750369],[11.061882,45.8761167],[11.0621944,45.8765684],[11.0621957,45.8769152],[11.0616323,45.8781579],[11.061329,45.8795608],[11.061348,45.8801153],[11.0593121,45.8795366],[11.0576306,45.8782535],[11.057237,45.8777173],[11.0572585,45.8765222],[11.0575589,45.8739377],[11.0570961,45.8721637],[11.0582241,45.8714726],[11.059946,45.869635]]]},"properties":{"type":"boundary","gemeente":"Trambileno"}}]}