{"type":"FeatureCollection","metadata":{"gemeente":"Tramonti di Sotto / Tramonç Disot - Vildisot","slug":"tramonti-di-sotto-tramonc-disot-vildisot","generated_at":"2026-09-26T14:28:08.943563Z","total_points":1,"providers":["PosteItaliane"],"bounds":[12.79571809,46.28507955,12.79571809,46.28507955]},"features":[{"type":"Feature","geometry":{"type":"Point","coordinates":[12.79571809,46.28507955]},"properties":{"type":"pakketpunt","locatieNaam":"Tramonti Di Sotto","straatNaam":"Via Roma","straatNr":"1","vervoerder":"PosteItaliane","puntType":"postkantoor","bezettingsgraad":50,"latitude":46.28507955,"longitude":12.79571809,"canPickup":true,"canDropoff":true,"openingstijden":{"za":"08:20 - 12:45","zo":"gesloten","ma":"gesloten","di":"08:20 - 13:45","wo":"gesloten","do":"08:20 - 13:45","vr":"gesloten"}}},{"type":"Feature","geometry":{"type":"Polygon","coordinates":[[[12.7322486,46.2385252],[12.7305019,46.2401177],[12.7296615,46.2401154],[12.7291237,46.2399463],[12.7280432,46.2399789],[12.7271121,46.239784],[12.7260406,46.2401011],[12.7251291,46.2400613],[12.7242076,46.2397622],[12.7227809,46.240011],[12.7218576,46.239755],[12.7213273,46.239154],[12.7213105,46.2388081],[12.7211153,46.238635],[12.7205009,46.2385615],[12.7197941,46.2388426],[12.7189135,46.2394335],[12.7186732,46.2403503],[12.718342,46.2408297],[12.7186768,46.2412648],[12.7187497,46.2422598],[12.7185482,46.2424898],[12.7182639,46.243089],[12.7172842,46.2436922],[12.7170465,46.2440439],[12.7167443,46.2450746],[12.7171407,46.2453994],[12.7185919,46.2461915],[12.7194392,46.2467809],[12.7199959,46.2473716],[12.7214191,46.2479651],[12.7222688,46.2486229],[12.7230815,46.2487975],[12.7234265,46.2491343],[12.7243345,46.2496571],[12.725,46.2499367],[12.7258665,46.249996],[12.7269269,46.2505008],[12.7288139,46.2508082],[12.7297503,46.2512579],[12.7305332,46.2515083],[12.7304903,46.2518159],[12.7320688,46.2527445],[12.7322784,46.2531763],[12.732972,46.2532637],[12.7333005,46.2535982],[12.7341326,46.2535059],[12.7349351,46.2536204],[12.7351846,46.2537553],[12.7359037,46.2538591],[12.7369131,46.2542845],[12.7377212,46.2541079],[12.7382344,46.2543487],[12.738767,46.2547468],[12.7394321,46.2547488],[12.739538,46.2546859],[12.7396087,46.2544588],[12.7398157,46.2542927],[12.7398401,46.2538563],[12.7401847,46.2535675],[12.7402311,46.2533875],[12.7406879,46.2532839],[12.7408845,46.2531586],[12.7412812,46.25322],[12.7416283,46.2529886],[12.742205,46.2538568],[12.7432988,46.2545192],[12.7439248,46.2552011],[12.743741,46.2556331],[12.743388,46.256141],[12.744096,46.2567201],[12.7441299,46.2573529],[12.7439019,46.2584155],[12.7442743,46.2583221],[12.7446981,46.2586184],[12.7442876,46.2588839],[12.7441274,46.2591184],[12.7443007,46.2594494],[12.7440801,46.2596394],[12.7447926,46.2599847],[12.7459955,46.2609012],[12.7474615,46.2613513],[12.7479101,46.2621846],[12.7480856,46.2623356],[12.749603,46.2631791],[12.7496682,46.263616],[12.7495655,46.2643484],[12.7522654,46.2663635],[12.7530007,46.2664068],[12.7536505,46.2666391],[12.7551622,46.2667372],[12.7578356,46.2676249],[12.7578314,46.2677292],[12.757448,46.2680925],[12.7574714,46.2682838],[12.7582458,46.2692781],[12.7593521,46.270027],[12.7601693,46.2712491],[12.7602381,46.2715996],[12.7594266,46.2738049],[12.7594129,46.2740135],[12.7587524,46.2750625],[12.7586066,46.2757077],[12.75965,46.2766029],[12.7601724,46.2775456],[12.7603092,46.278009],[12.7608826,46.2784631],[12.7612822,46.2791045],[12.7620797,46.2796673],[12.7622323,46.2798719],[12.762267,46.2805494],[12.7624586,46.2809455],[12.7625979,46.2816035],[12.7629864,46.2823923],[12.7636226,46.2829627],[12.7635507,46.2838361],[12.7632113,46.2845207],[12.7629746,46.2853621],[12.763025,46.2856546],[12.763978,46.2867353],[12.7646811,46.2871954],[12.7654662,46.2875528],[12.7658091,46.2880599],[12.7668364,46.2883392],[12.7673595,46.2886266],[12.7684051,46.2887118],[12.7686932,46.2890342],[12.7690706,46.2892036],[12.7693609,46.2892164],[12.7697599,46.289109],[12.7709754,46.2893559],[12.7712864,46.2894988],[12.7714618,46.289783],[12.7717282,46.2900006],[12.7730841,46.2905022],[12.7735454,46.290522],[12.7758287,46.2903072],[12.7764741,46.2906582],[12.7779921,46.2903601],[12.7795645,46.2910314],[12.7797162,46.2911316],[12.7806694,46.2924749],[12.781061,46.2931953],[12.781098,46.2936928],[12.7809718,46.2941188],[12.7813305,46.2951373],[12.7820565,46.2961954],[12.7848067,46.2966411],[12.7865201,46.2970415],[12.78706,46.2974336],[12.7892052,46.2975579],[12.7895089,46.2982729],[12.7896627,46.2993559],[12.7907811,46.3000867],[12.7915719,46.3008292],[12.7918355,46.3021555],[12.7927243,46.3031735],[12.7956712,46.3031852],[12.796889,46.3056622],[12.7973197,46.3055445],[12.7974885,46.3057385],[12.7981885,46.3055108],[12.7987503,46.3054928],[12.799873,46.3052156],[12.8005259,46.3053866],[12.8033566,46.3056534],[12.8065161,46.3051021],[12.8072496,46.3050765],[12.8076709,46.3051926],[12.8080826,46.3056793],[12.8088906,46.3063896],[12.8092705,46.3071529],[12.8095853,46.3081165],[12.8103863,46.3086142],[12.8111007,46.3089375],[12.8115413,46.3093528],[12.8119073,46.3102058],[12.8124758,46.3106702],[12.8127467,46.3110426],[12.8132111,46.3120343],[12.813994,46.3122041],[12.8143844,46.3121863],[12.8150601,46.3123073],[12.8162679,46.3128991],[12.8173207,46.313074],[12.8186272,46.3137974],[12.8194386,46.3149504],[12.8199477,46.3153453],[12.820792,46.3158006],[12.8212782,46.3159863],[12.8240783,46.3163888],[12.8253612,46.3173168],[12.827321,46.3180777],[12.8289055,46.3191338],[12.8299839,46.3205078],[12.8302407,46.3207143],[12.8323784,46.3218456],[12.8326299,46.3221852],[12.8326326,46.3225128],[12.8327794,46.3227424],[12.8335639,46.3234053],[12.8347188,46.3240284],[12.8355437,46.3243248],[12.8358116,46.3250427],[12.8377772,46.3260626],[12.8389939,46.326442],[12.8399621,46.3269283],[12.8402406,46.3275096],[12.8407973,46.3277577],[12.8411916,46.3281683],[12.8409444,46.3287721],[12.8415825,46.3290649],[12.841467,46.3298871],[12.8415082,46.3301615],[12.8418582,46.3306433],[12.841595,46.3308615],[12.841709,46.3310005],[12.8417046,46.3313784],[12.8412857,46.3318529],[12.8407182,46.3321446],[12.8405968,46.3328515],[12.8405911,46.3335246],[12.8407489,46.3338731],[12.8407261,46.3340563],[12.8404239,46.3347346],[12.8401433,46.3348661],[12.8399566,46.3352514],[12.8396015,46.3356911],[12.8397014,46.3364525],[12.8395326,46.3366474],[12.8394028,46.3371741],[12.839518,46.3378099],[12.8398001,46.3381716],[12.8398332,46.338651],[12.84011,46.3388795],[12.8403752,46.3392733],[12.8403807,46.339529],[12.8400329,46.3397816],[12.840438,46.3403184],[12.8403831,46.340789],[12.8401639,46.3409433],[12.8403231,46.3419183],[12.8404564,46.3420972],[12.8405081,46.3423681],[12.8401076,46.3432966],[12.8404752,46.3433359],[12.8417893,46.3437567],[12.8439681,46.344003],[12.8588961,46.3461627],[12.8600458,46.3460078],[12.8615602,46.3455645],[12.8647803,46.3441703],[12.8662891,46.3437341],[12.8674713,46.3436769],[12.8686261,46.3437921],[12.8708909,46.3436975],[12.8721231,46.3435584],[12.8726185,46.343384],[12.8732951,46.3425578],[12.8741602,46.3422319],[12.8746578,46.3421331],[12.8749122,46.3420083],[12.8751951,46.3416823],[12.8767553,46.3415277],[12.8773844,46.3413882],[12.878242,46.3413897],[12.8788058,46.3417314],[12.8793261,46.3421915],[12.8802324,46.3417882],[12.8741976,46.3324673],[12.8745329,46.3319154],[12.8761444,46.3322391],[12.8779685,46.3317854],[12.8795996,46.3315926],[12.8802199,46.331163],[12.880693,46.3309708],[12.8818864,46.3302444],[12.8827457,46.3299915],[12.8848729,46.3304475],[12.8859895,46.3307413],[12.8866412,46.3309971],[12.8886263,46.3309838],[12.8893129,46.3307733],[12.89022,46.3306725],[12.8923044,46.3307228],[12.8928633,46.3308535],[12.89337,46.3311331],[12.8937474,46.3314602],[12.8941462,46.3315674],[12.8945371,46.3318801],[12.896205,46.3327304],[12.8971158,46.3329733],[12.8983583,46.3328669],[12.8990554,46.3327122],[12.9005532,46.3328015],[12.9013904,46.3330871],[12.9022997,46.3332624],[12.9043691,46.3341493],[12.9062503,46.3346419],[12.9065697,46.3342763],[12.907656,46.3341378],[12.908574,46.333917],[12.908824,46.33363],[12.9097359,46.3335675],[12.9103346,46.3336756],[12.9111115,46.3334738],[12.911433,46.3332205],[12.9132477,46.3330592],[12.914816,46.3330914],[12.9150347,46.3332178],[12.9150859,46.3329631],[12.9156661,46.3327397],[12.9164711,46.3327544],[12.9172784,46.3324343],[12.9180692,46.3315919],[12.9186309,46.3303457],[12.9187488,46.3298403],[12.9190191,46.3295644],[12.9189066,46.3292419],[12.9187234,46.3291414],[12.918972,46.3282027],[12.9189189,46.3278238],[12.9192322,46.3273723],[12.9194094,46.3268103],[12.9198799,46.3264625],[12.9199945,46.3261802],[12.9205239,46.3257866],[12.9211629,46.3251034],[12.9219569,46.3245814],[12.92202,46.3241506],[12.921096,46.3236798],[12.9209063,46.3227719],[12.9210796,46.3216787],[12.9210376,46.3213947],[12.9217263,46.3196618],[12.9212082,46.318889],[12.9206572,46.3184324],[12.9203248,46.3176965],[12.9195975,46.3173232],[12.9180132,46.3170735],[12.9171183,46.3165531],[12.9166252,46.3164001],[12.9159707,46.3155671],[12.9157054,46.31535],[12.9148198,46.3140443],[12.9145228,46.3137376],[12.9133687,46.313101],[12.9135621,46.3126898],[12.9137665,46.3117377],[12.9135438,46.3108329],[12.9138146,46.310718],[12.9137969,46.3101993],[12.9131728,46.3098898],[12.9129191,46.3096725],[12.912269,46.3077155],[12.9131718,46.3065947],[12.9142157,46.3060662],[12.9146098,46.305785],[12.9148151,46.3050565],[12.9147569,46.3047845],[12.913634,46.3041505],[12.9134609,46.3031688],[12.9131143,46.3025728],[12.9142592,46.3013528],[12.9144013,46.300688],[12.914553,46.2982931],[12.9147244,46.2975932],[12.9146562,46.2975433],[12.9137404,46.2977794],[12.912768,46.297538],[12.9057707,46.2974069],[12.9056011,46.2943776],[12.9052321,46.2919182],[12.9049909,46.291256],[12.9050251,46.2909715],[12.9045783,46.2905551],[12.9045046,46.2902816],[12.9037937,46.2900483],[12.9036017,46.2898147],[12.9034082,46.2893737],[12.9034925,46.2887565],[12.9030818,46.2883731],[12.899312,46.2863696],[12.8986333,46.2862761],[12.8974802,46.2856329],[12.895175,46.2850526],[12.8935247,46.2849477],[12.8929463,46.2847977],[12.892248,46.2844835],[12.8909811,46.2841297],[12.8896828,46.2839859],[12.8888977,46.2837413],[12.8882878,46.2834385],[12.8880618,46.2828738],[12.8873246,46.282115],[12.8873309,46.2804918],[12.8869074,46.2797161],[12.8866263,46.2793707],[12.8854545,46.2781276],[12.8832079,46.2765243],[12.881495,46.2751415],[12.8808055,46.2747238],[12.8791899,46.2740912],[12.8783821,46.2735934],[12.8781471,46.273265],[12.8784744,46.2727754],[12.8784653,46.2726489],[12.8780753,46.2721005],[12.8776273,46.2717229],[12.8775456,46.271177],[12.8774093,46.2709542],[12.8761511,46.2703865],[12.8745149,46.2704014],[12.8741554,46.2701808],[12.8740048,46.2699133],[12.8736573,46.2696368],[12.8732728,46.2695108],[12.8725108,46.2694823],[12.8722709,46.269377],[12.8718715,46.2688332],[12.8719355,46.2686544],[12.8714335,46.2684794],[12.8712172,46.2683026],[12.8705174,46.268142],[12.8699811,46.267916],[12.8677968,46.2673533],[12.8667545,46.2671898],[12.8661291,46.2669873],[12.8654825,46.2665289],[12.864749,46.2663028],[12.8644826,46.2660782],[12.8642816,46.2659052],[12.8641327,46.2654633],[12.8635935,46.2650464],[12.8628448,46.2608024],[12.8626281,46.2591675],[12.8628245,46.2558484],[12.8630834,46.255864],[12.8637163,46.2561386],[12.8637587,46.2562474],[12.8643787,46.2566926],[12.864812,46.2563246],[12.8649327,46.2556499],[12.864712,46.2553917],[12.8637774,46.2551884],[12.8634127,46.2549548],[12.8619012,46.2545191],[12.8620107,46.2542804],[12.8622858,46.2540679],[12.8624038,46.2537784],[12.8622882,46.2528041],[12.8611654,46.2525006],[12.8612765,46.252363],[12.8583784,46.2517162],[12.8581981,46.2521363],[12.8567504,46.2516251],[12.85545,46.2515192],[12.8539327,46.2497495],[12.8468829,46.2514919],[12.8404921,46.2493039],[12.8372084,46.248276],[12.8360285,46.2478467],[12.8338701,46.2468454],[12.830335,46.2466],[12.8256896,46.2474347],[12.8243623,46.2479129],[12.8229479,46.247947],[12.8211221,46.2482403],[12.8206822,46.2485218],[12.8195109,46.2486635],[12.8183596,46.2490001],[12.8166707,46.2488877],[12.8153282,46.2489154],[12.8145256,46.24919],[12.8134683,46.2493719],[12.8131851,46.2495801],[12.8127435,46.2501781],[12.8112252,46.2537915],[12.8105585,46.2536911],[12.8094653,46.2538036],[12.8081753,46.2537522],[12.8007456,46.2542007],[12.7999833,46.2541517],[12.7963967,46.2528201],[12.7930391,46.2533237],[12.7907785,46.252521],[12.7856232,46.2509681],[12.7843072,46.2512935],[12.7786114,46.2519687],[12.7719082,46.2515866],[12.7709538,46.2508508],[12.7697802,46.2500995],[12.7695505,46.2497975],[12.7690394,46.2493871],[12.7673499,46.2488849],[12.7650461,46.2478062],[12.7621907,46.2486697],[12.7610447,46.2488646],[12.7604565,46.2488646],[12.7594902,46.2492346],[12.7587347,46.2498339],[12.7584171,46.2493967],[12.7569479,46.2498332],[12.7557078,46.2503124],[12.7538323,46.2515417],[12.7533487,46.2518031],[12.7525624,46.2520775],[12.7521111,46.2523547],[12.7511513,46.2522977],[12.7508833,46.2521284],[12.7506625,46.2517465],[12.7506911,46.2514495],[12.750475,46.2512202],[12.7503058,46.2507859],[12.7492558,46.2507843],[12.7487966,46.2491084],[12.7479389,46.2473638],[12.7472267,46.2456906],[12.7465394,46.2434115],[12.7468331,46.2428184],[12.7474176,46.2422349],[12.7494262,46.2408404],[12.7498453,46.2404023],[12.7512988,46.2398093],[12.7507824,46.2389943],[12.7491918,46.2385053],[12.7485425,46.2381187],[12.7473406,46.2380722],[12.7466213,46.2381877],[12.7460829,46.2384517],[12.7452466,46.238336],[12.7444856,46.2378595],[12.7421443,46.2374471],[12.7419482,46.2371381],[12.7404458,46.2374479],[12.7395853,46.2373889],[12.7388762,46.2375237],[12.737894,46.2373478],[12.736622,46.2372693],[12.7359293,46.2372708],[12.7348486,46.2374859],[12.7329682,46.2374887],[12.7328178,46.2379969],[12.7326246,46.2380967],[12.7322486,46.2385252]]]},"properties":{"type":"boundary","gemeente":"Tramonti di Sotto / Tramonç Disot - Vildisot"}}]}