{"type":"FeatureCollection","metadata":{"gemeente":"Trentinara","slug":"trentinara","generated_at":"2026-09-26T14:28:09.348211Z","total_points":2,"providers":["PosteItaliane","DHL"],"bounds":[15.11418392,40.39978169,15.114184,40.399782]},"features":[{"type":"Feature","geometry":{"type":"Point","coordinates":[15.11418392,40.39978169]},"properties":{"type":"pakketpunt","locatieNaam":"Trentinara","straatNaam":"Via Europa","straatNr":"54","vervoerder":"PosteItaliane","puntType":"postkantoor","bezettingsgraad":50,"latitude":40.39978169,"longitude":15.11418392,"canPickup":true,"canDropoff":true,"openingstijden":{"za":"08:20 - 12:45","zo":"gesloten","ma":"08:20 - 13:45","di":"08:20 - 13:45","wo":"08:20 - 13:45","do":"08:20 - 13:45","vr":"08:20 - 13:45"}}},{"type":"Feature","geometry":{"type":"Point","coordinates":[15.114184,40.399782]},"properties":{"type":"pakketpunt","locatieNaam":"Ufficio Postale TRENTINARA","straatNaam":"VIA EUROPA 54","straatNr":"","vervoerder":"DHL","puntType":"postOffice","bezettingsgraad":50,"latitude":40.399782,"longitude":15.114184,"canPickup":true,"canDropoff":true,"openingstijden":{"ma":"08:20 - 13:45","di":"08:20 - 13:45","wo":"08:20 - 13:45","do":"08:20 - 13:45","vr":"08:20 - 13:45","za":"08:20 - 12:45","zo":"gesloten"}}},{"type":"Feature","geometry":{"type":"Polygon","coordinates":[[[15.0837493,40.4074278],[15.0841028,40.4072021],[15.0891458,40.4056124],[15.0917947,40.4048603],[15.0924306,40.4043091],[15.0931502,40.4039335],[15.0941617,40.4040195],[15.0966613,40.4046748],[15.0980406,40.4046288],[15.0986887,40.4037574],[15.0996646,40.4031252],[15.1023827,40.4005735],[15.1043742,40.4001394],[15.1070597,40.3987235],[15.1083763,40.3977941],[15.1091433,40.3973663],[15.1105566,40.3973319],[15.1114171,40.3972142],[15.1134181,40.3956544],[15.1144507,40.394677],[15.1150756,40.3944278],[15.1159479,40.3942465],[15.1167958,40.3938279],[15.119198,40.3931873],[15.1227434,40.3920763],[15.1234608,40.3917771],[15.1237897,40.3913816],[15.1241523,40.3900932],[15.1247875,40.3895059],[15.125117,40.3890113],[15.1251174,40.3883767],[15.1252465,40.3881539],[15.1257394,40.3880646],[15.1252066,40.3875124],[15.1235829,40.3873917],[15.121839,40.3873719],[15.1208723,40.3871937],[15.1201157,40.3856363],[15.1194795,40.3851435],[15.1184271,40.3844748],[15.1174392,40.3842258],[15.1164845,40.384146],[15.1160136,40.3839189],[15.1157186,40.383003],[15.1153274,40.3823892],[15.1129109,40.3816354],[15.1123445,40.3813279],[15.109713,40.3791768],[15.108274,40.3775204],[15.107599,40.375981],[15.1069501,40.3751198],[15.106016,40.3734322],[15.106439,40.3733369],[15.106737,40.3734254],[15.107123,40.3738001],[15.1079903,40.373721],[15.108964,40.3740634],[15.109646,40.3745763],[15.110143,40.375036],[15.1104159,40.3755391],[15.1105803,40.3763135],[15.1112083,40.3771397],[15.1117845,40.3774654],[15.1133278,40.3774372],[15.1145544,40.3782808],[15.1151455,40.378497],[15.1151084,40.3781356],[15.1152479,40.377623],[15.1164004,40.3773863],[15.1176626,40.377352],[15.1185928,40.3770988],[15.1191926,40.3768014],[15.1194876,40.3764212],[15.1198261,40.3752241],[15.1208619,40.3746831],[15.1212014,40.3743635],[15.1221095,40.3742132],[15.1230765,40.3742276],[15.1241486,40.3739651],[15.124936,40.3736294],[15.1261473,40.373547],[15.1270171,40.3729878],[15.127348,40.3732671],[15.128506,40.3750327],[15.1290383,40.3755805],[15.1299822,40.375995],[15.1358381,40.3775542],[15.136452,40.3778006],[15.1377859,40.377941],[15.1423251,40.3780903],[15.1434851,40.3779715],[15.1480501,40.3765407],[15.1485951,40.376568],[15.1512468,40.3776646],[15.1532622,40.3776779],[15.1553615,40.3782093],[15.156187,40.3782597],[15.1581878,40.3787423],[15.1594146,40.3789333],[15.1599033,40.3807703],[15.1603519,40.3815249],[15.1611786,40.3820387],[15.1630779,40.3829542],[15.1637255,40.3835361],[15.1646827,40.384124],[15.1656161,40.3851586],[15.1655462,40.3865169],[15.166341,40.3876535],[15.1666374,40.3884072],[15.1672991,40.3902349],[15.1675144,40.391164],[15.168664,40.3942437],[15.1692596,40.3961515],[15.1696038,40.3976272],[15.1696773,40.3984288],[15.1693834,40.39853],[15.1661708,40.4005697],[15.1623345,40.4024222],[15.1577191,40.4043837],[15.1557193,40.4055302],[15.1556604,40.4059473],[15.1567811,40.406486],[15.157326,40.4070689],[15.157268,40.4080441],[15.1570685,40.4088558],[15.1571443,40.4101344],[15.157606,40.4115454],[15.1571617,40.4132523],[15.1567384,40.4139995],[15.1559274,40.4146594],[15.15494,40.4151622],[15.1527596,40.4158502],[15.1505101,40.4163304],[15.1466223,40.4173435],[15.1448187,40.4174758],[15.1416713,40.4174501],[15.1375208,40.4167803],[15.1354582,40.4163412],[15.1343722,40.4163045],[15.1331476,40.4163787],[15.1308526,40.417104],[15.1297321,40.4173436],[15.1281997,40.4181677],[15.1273652,40.4184777],[15.1265295,40.4191612],[15.1257272,40.4196944],[15.1234897,40.4205604],[15.1209816,40.4220619],[15.119603,40.4230173],[15.1183998,40.4234771],[15.1166373,40.4246689],[15.1157989,40.4248395],[15.1145752,40.4252735],[15.1132662,40.4254825],[15.1121707,40.4255451],[15.1109207,40.4259175],[15.1093073,40.4271507],[15.108308,40.4274963],[15.106974,40.427495],[15.1029072,40.4280751],[15.1004557,40.428187],[15.1011011,40.4248899],[15.1011555,40.4231769],[15.1009614,40.4204194],[15.1011257,40.4194386],[15.1002628,40.4174231],[15.0992603,40.4170171],[15.0986595,40.4164953],[15.0979145,40.416006],[15.0962186,40.4155174],[15.0954258,40.4151184],[15.0945208,40.4147882],[15.0933164,40.4145819],[15.0922813,40.4142046],[15.0918649,40.4138891],[15.0913451,40.4129355],[15.0904731,40.412311],[15.0880199,40.4113246],[15.0861686,40.4100272],[15.0854487,40.4093902],[15.0841753,40.4080038],[15.0837493,40.4074278]]]},"properties":{"type":"boundary","gemeente":"Trentinara"}}]}