{"type":"FeatureCollection","metadata":{"gemeente":"Vaiano","slug":"vaiano","generated_at":"2026-09-26T14:28:10.855987Z","total_points":26,"providers":["PosteItaliane","DPD","InPost","GLS","DHL","Amazon","FedEx"],"bounds":[11.12457,43.93624872,11.13003614,43.97039]},"features":[{"type":"Feature","geometry":{"type":"Point","coordinates":[11.12794364,43.93739766]},"properties":{"type":"pakketpunt","locatieNaam":"La Briglia","straatNaam":"Via Bruno Fattori","straatNr":"7","vervoerder":"PosteItaliane","puntType":"postkantoor","bezettingsgraad":50,"latitude":43.93739766,"longitude":11.12794364,"canPickup":true,"canDropoff":true,"openingstijden":{"za":"08:20 - 12:45","zo":"gesloten","ma":"08:20 - 13:45","di":"08:20 - 13:45","wo":"08:20 - 13:45","do":"08:20 - 13:45","vr":"08:20 - 13:45"}}},{"type":"Feature","geometry":{"type":"Point","coordinates":[11.12913627,43.96425451]},"properties":{"type":"pakketpunt","locatieNaam":"Vaiano","straatNaam":"Via Fratelli Rosselli","straatNr":"86/a","vervoerder":"PosteItaliane","puntType":"postkantoor","bezettingsgraad":50,"latitude":43.96425451,"longitude":11.12913627,"canPickup":true,"canDropoff":true,"openingstijden":{"za":"08:20 - 12:35","zo":"gesloten","ma":"08:20 - 13:35","di":"08:20 - 13:35","wo":"08:20 - 13:35","do":"08:20 - 13:35","vr":"08:20 - 13:35"}}},{"type":"Feature","geometry":{"type":"Point","coordinates":[11.12676623,43.9702419]},"properties":{"type":"pakketpunt","locatieNaam":"Arcadius Group","straatNaam":"Via Del Subbio","straatNr":"12","vervoerder":"PosteItaliane","puntType":"servicepunt","bezettingsgraad":50,"latitude":43.9702419,"longitude":11.12676623,"canPickup":true,"canDropoff":true,"openingstijden":{"za":"gesloten","zo":"gesloten","ma":"10:00 - 18:00","di":"10:00 - 18:00","wo":"10:00 - 18:00","do":"10:00 - 18:00","vr":"10:00 - 18:00"}}},{"type":"Feature","geometry":{"type":"Point","coordinates":[11.13003614,43.96062734]},"properties":{"type":"pakketpunt","locatieNaam":"Tabaccheria N. 10","straatNaam":"Via Borgonuovo","straatNr":"23","vervoerder":"PosteItaliane","puntType":"servicepunt","bezettingsgraad":50,"latitude":43.96062734,"longitude":11.13003614,"canPickup":true,"canDropoff":true,"openingstijden":{"za":"06:30 - 13:00, 16:00 - 19:30","zo":"gesloten","ma":"06:30 - 13:00, 16:00 - 19:30","di":"06:30 - 13:00, 16:00 - 19:30","wo":"06:30 - 13:00, 16:00 - 19:30","do":"06:30 - 13:00, 16:00 - 19:30","vr":"06:30 - 13:00, 16:00 - 19:30"}}},{"type":"Feature","geometry":{"type":"Point","coordinates":[11.126743,43.970245]},"properties":{"type":"pakketpunt","locatieNaam":"Arcadius Group","straatNaam":"VIA DEL SUBBIO","straatNr":"12","vervoerder":"DPD","puntType":"pickup_point","bezettingsgraad":50,"latitude":43.970245,"longitude":11.126743,"canPickup":true,"canDropoff":true,"openingstijden":{"ma":"09:00 - 18:00","di":"09:00 - 18:00","wo":"09:00 - 18:00","do":"09:00 - 18:00","vr":"09:00 - 18:00","za":"gesloten","zo":"gesloten"}}},{"type":"Feature","geometry":{"type":"Point","coordinates":[11.12595538,43.95899277]},"properties":{"type":"pakketpunt","locatieNaam":"Nkd-Vaiano","straatNaam":"VAL DI BISENZIO","straatNr":"168","vervoerder":"DPD","puntType":"pickup_point","bezettingsgraad":50,"latitude":43.95899277,"longitude":11.12595538,"canPickup":true,"canDropoff":true,"openingstijden":{"ma":"09:00 - 13:00, 15:00 - 19:30","di":"09:00 - 13:00, 15:00 - 19:30","wo":"09:00 - 13:00, 15:00 - 19:30","do":"09:00 - 13:00, 15:00 - 19:30","vr":"09:00 - 13:00, 15:00 - 19:30","za":"09:00 - 13:00, 15:00 - 19:30","zo":"09:00 - 13:00"}}},{"type":"Feature","geometry":{"type":"Point","coordinates":[11.1296502,43.9631475]},"properties":{"type":"pakketpunt","locatieNaam":"Carta Castagna","straatNaam":"VIA G. MAZZINI","straatNr":"2","vervoerder":"DPD","puntType":"pickup_point","bezettingsgraad":50,"latitude":43.9631475,"longitude":11.1296502,"canPickup":true,"canDropoff":true,"openingstijden":{"ma":"16:00 - 19:30","di":"09:00 - 12:30, 16:00 - 19:30","wo":"09:00 - 12:30, 16:00 - 19:30","do":"09:00 - 12:30, 16:00 - 19:30","vr":"09:00 - 12:30, 16:00 - 19:30","za":"09:00 - 12:30, 16:00 - 19:30","zo":"gesloten"}}},{"type":"Feature","geometry":{"type":"Point","coordinates":[11.1264363,43.93624872]},"properties":{"type":"pakketpunt","locatieNaam":"La Bottega di Roberto","straatNaam":"PIAZZA DELLA REPUBBLICA","straatNr":"15","vervoerder":"DPD","puntType":"pickup_point","bezettingsgraad":50,"latitude":43.93624872,"longitude":11.1264363,"canPickup":true,"canDropoff":true,"openingstijden":{"ma":"08:00 - 13:00, 16:30 - 19:30","di":"08:00 - 13:00, 16:30 - 19:30","wo":"08:00 - 13:00, 16:30 - 19:30","do":"08:00 - 13:00, 16:30 - 19:30","vr":"08:00 - 13:00, 16:30 - 19:30","za":"08:00 - 13:00","zo":"gesloten"}}},{"type":"Feature","geometry":{"type":"Point","coordinates":[11.12671,43.97039]},"properties":{"type":"pakketpunt","locatieNaam":"InPost Point","straatNaam":"Via del Subbio","straatNr":"12","vervoerder":"InPost","puntType":"servicepunt","bezettingsgraad":50,"latitude":43.97039,"longitude":11.12671,"canPickup":true,"canDropoff":true,"openingstijden":"Lun-Ven: 9:00 - 13:00 - 15:00 - 18:00"}},{"type":"Feature","geometry":{"type":"Point","coordinates":[11.12457,43.96392]},"properties":{"type":"pakketpunt","locatieNaam":"","straatNaam":"Via Val Bisenzio","straatNr":"205","vervoerder":"InPost","puntType":"automaat","bezettingsgraad":50,"latitude":43.96392,"longitude":11.12457,"canPickup":true,"canDropoff":true,"openingstijden":null}},{"type":"Feature","geometry":{"type":"Point","coordinates":[11.1264363,43.9362748]},"properties":{"type":"pakketpunt","locatieNaam":"ALIMENTARI LA BOTTEGA DI ROBERTO","straatNaam":"Piazza Della Repubblica","straatNr":"15","vervoerder":"GLS","puntType":"parcel_shop","bezettingsgraad":50,"latitude":43.9362748,"longitude":11.1264363,"canPickup":true,"canDropoff":true,"openingstijden":"za: 08:00 - 13:00; ma: 08:00 - 13:00, 16:30 - 19:30"}},{"type":"Feature","geometry":{"type":"Point","coordinates":[11.1267708,43.970313]},"properties":{"type":"pakketpunt","locatieNaam":"ARCADIUS GROUP","straatNaam":"Via Del Subbio","straatNr":"12","vervoerder":"GLS","puntType":"parcel_shop","bezettingsgraad":50,"latitude":43.970313,"longitude":11.1267708,"canPickup":true,"canDropoff":true,"openingstijden":"ma: 10:00 - 18:00; di: 10:00 - 18:00"}},{"type":"Feature","geometry":{"type":"Point","coordinates":[11.127944,43.937398]},"properties":{"type":"pakketpunt","locatieNaam":"Ufficio Postale LA BRIGLIA","straatNaam":"VIA BRUNO FATTORI 7","straatNr":"","vervoerder":"DHL","puntType":"postOffice","bezettingsgraad":50,"latitude":43.937398,"longitude":11.127944,"canPickup":true,"canDropoff":true,"openingstijden":{"ma":"08:20 - 13:45","di":"08:20 - 13:45","wo":"08:20 - 13:45","do":"08:20 - 13:45","vr":"08:20 - 13:45","za":"08:20 - 12:45","zo":"gesloten"}}},{"type":"Feature","geometry":{"type":"Point","coordinates":[11.130036,43.960627]},"properties":{"type":"pakketpunt","locatieNaam":"TABACCHERIA N. 10","straatNaam":"VIA BORGONUOVO 23","straatNr":"","vervoerder":"DHL","puntType":"parcelShop","bezettingsgraad":50,"latitude":43.960627,"longitude":11.130036,"canPickup":true,"canDropoff":true,"openingstijden":{"ma":"06:30 - 13:00, 16:00 - 19:30","di":"06:30 - 13:00, 16:00 - 19:30","wo":"06:30 - 13:00, 16:00 - 19:30","do":"06:30 - 13:00, 16:00 - 19:30","vr":"06:30 - 13:00, 16:00 - 19:30","za":"06:30 - 13:00, 16:00 - 19:30","zo":"gesloten"}}},{"type":"Feature","geometry":{"type":"Point","coordinates":[11.129136,43.964255]},"properties":{"type":"pakketpunt","locatieNaam":"Ufficio Postale VAIANO","straatNaam":"VIA FRATELLI ROSSELLI 86-A","straatNr":"","vervoerder":"DHL","puntType":"postOffice","bezettingsgraad":50,"latitude":43.964255,"longitude":11.129136,"canPickup":true,"canDropoff":true,"openingstijden":{"ma":"08:20 - 13:35","di":"08:20 - 13:35","wo":"08:20 - 13:35","do":"08:20 - 13:35","vr":"08:20 - 13:35","za":"08:20 - 12:35","zo":"gesloten"}}},{"type":"Feature","geometry":{"type":"Point","coordinates":[11.126743,43.970245]},"properties":{"type":"pakketpunt","locatieNaam":"ARCADIOUS GROUP","straatNaam":"Del Subbio 12","straatNr":"","vervoerder":"DHL","puntType":"parcelShop","bezettingsgraad":50,"latitude":43.970245,"longitude":11.126743,"canPickup":false,"canDropoff":true,"openingstijden":{"ma":"08:00 - 18:00","di":"08:00 - 18:00","wo":"08:00 - 18:00","do":"08:00 - 18:00","vr":"08:00 - 18:00","za":"gesloten","zo":"gesloten"}}},{"type":"Feature","geometry":{"type":"Point","coordinates":[11.126766,43.970242]},"properties":{"type":"pakketpunt","locatieNaam":"ARCADIUS GROUP","straatNaam":"VIA DEL SUBBIO 12","straatNr":"","vervoerder":"DHL","puntType":"parcelShop","bezettingsgraad":50,"latitude":43.970242,"longitude":11.126766,"canPickup":true,"canDropoff":true,"openingstijden":{"ma":"10:00 - 18:00","di":"10:00 - 18:00","wo":"10:00 - 18:00","do":"10:00 - 18:00","vr":"10:00 - 18:00","za":"gesloten","zo":"gesloten"}}},{"type":"Feature","geometry":{"type":"Point","coordinates":[11.126743,43.970245]},"properties":{"type":"pakketpunt","locatieNaam":"Amazon Counter (fermopoint)","straatNaam":"Arcadius Group","straatNr":"","vervoerder":"Amazon","puntType":"helix","bezettingsgraad":50,"latitude":43.970245,"longitude":11.126743,"canPickup":true,"canDropoff":false,"openingstijden":null}},{"type":"Feature","geometry":{"type":"Point","coordinates":[11.129941,43.960906]},"properties":{"type":"pakketpunt","locatieNaam":"Amazon Counter - CARTOLOTTO DI MARINI FABIANA","straatNaam":"VIA BORGONUOVO 23","straatNr":"","vervoerder":"Amazon","puntType":"helix","bezettingsgraad":50,"latitude":43.960906,"longitude":11.129941,"canPickup":true,"canDropoff":false,"openingstijden":null}},{"type":"Feature","geometry":{"type":"Point","coordinates":[11.1296502,43.9631475]},"properties":{"type":"pakketpunt","locatieNaam":"Amazon Counter (fermopoint)","straatNaam":"Carta Castagna","straatNr":"","vervoerder":"Amazon","puntType":"helix","bezettingsgraad":50,"latitude":43.9631475,"longitude":11.1296502,"canPickup":true,"canDropoff":false,"openingstijden":null}},{"type":"Feature","geometry":{"type":"Point","coordinates":[11.13,43.9606]},"properties":{"type":"pakketpunt","locatieNaam":"PuntoPoste TABACCHERIA N. 10","straatNaam":"VIA BORGONUOVO 23","straatNr":"","vervoerder":"Amazon","puntType":"3p","bezettingsgraad":50,"latitude":43.9606,"longitude":11.13,"canPickup":true,"canDropoff":false,"openingstijden":null}},{"type":"Feature","geometry":{"type":"Point","coordinates":[11.1267,43.9702]},"properties":{"type":"pakketpunt","locatieNaam":"PuntoPoste ARCADIUS GROUP","straatNaam":"VIA DEL SUBBIO 12","straatNr":"","vervoerder":"Amazon","puntType":"3p","bezettingsgraad":50,"latitude":43.9702,"longitude":11.1267,"canPickup":true,"canDropoff":false,"openingstijden":null}},{"type":"Feature","geometry":{"type":"Point","coordinates":[11.1291,43.9642]},"properties":{"type":"pakketpunt","locatieNaam":"Ufficio Postale VAIANO","straatNaam":"VIA FRATELLI ROSSELLI 86-A","straatNr":"","vervoerder":"Amazon","puntType":"3p","bezettingsgraad":50,"latitude":43.9642,"longitude":11.1291,"canPickup":true,"canDropoff":false,"openingstijden":null}},{"type":"Feature","geometry":{"type":"Point","coordinates":[11.1264576,43.9362693]},"properties":{"type":"pakketpunt","locatieNaam":"Amazon Counter (fermopoint)","straatNaam":"La Bottega di Roberto","straatNr":"","vervoerder":"Amazon","puntType":"helix","bezettingsgraad":50,"latitude":43.9362693,"longitude":11.1264576,"canPickup":true,"canDropoff":false,"openingstijden":null}},{"type":"Feature","geometry":{"type":"Point","coordinates":[11.1279,43.9373]},"properties":{"type":"pakketpunt","locatieNaam":"Ufficio Postale LA BRIGLIA","straatNaam":"VIA BRUNO FATTORI 7","straatNr":"","vervoerder":"Amazon","puntType":"3p","bezettingsgraad":50,"latitude":43.9373,"longitude":11.1279,"canPickup":true,"canDropoff":false,"openingstijden":null}},{"type":"Feature","geometry":{"type":"Point","coordinates":[11.126417,43.970388]},"properties":{"type":"pakketpunt","locatieNaam":"FedEx OnSite","straatNaam":"VIA DEL SUBBIO 12","straatNr":"","vervoerder":"FedEx","puntType":"servicepunt","bezettingsgraad":50,"latitude":43.970388,"longitude":11.126417,"canPickup":true,"canDropoff":true,"openingstijden":{"ma":"09:00 - 18:00","di":"09:00 - 18:00","wo":"09:00 - 18:00","do":"09:00 - 18:00","vr":"09:00 - 18:00","za":"gesloten","zo":"gesloten"}}},{"type":"Feature","geometry":{"type":"Polygon","coordinates":[[[11.0818592,43.9708728],[11.0858716,43.9716461],[11.0871535,43.9721293],[11.0883761,43.9724065],[11.0910917,43.9727939],[11.0933485,43.9735394],[11.0967764,43.9752346],[11.0975367,43.9750141],[11.0983014,43.9749054],[11.0992818,43.9749606],[11.1001949,43.9747458],[11.1005911,43.9747326],[11.101229,43.9748553],[11.1037201,43.9758594],[11.1037855,43.9759919],[11.1042097,43.9761843],[11.1047771,43.9768948],[11.1054734,43.9773274],[11.10632,43.9775171],[11.1076667,43.9775942],[11.1079366,43.9776759],[11.1091635,43.9784114],[11.1091018,43.9780554],[11.110291,43.9770697],[11.1143149,43.9783569],[11.1156466,43.9763754],[11.1174246,43.9740527],[11.1188025,43.9737949],[11.1190514,43.9734926],[11.1205588,43.9735075],[11.1214664,43.9738633],[11.1221821,43.9740248],[11.1222399,43.9746647],[11.1227063,43.9748457],[11.1227267,43.9752224],[11.1231058,43.9755203],[11.1238308,43.9757465],[11.1264408,43.9761789],[11.1271228,43.9766463],[11.1273289,43.9771381],[11.1272338,43.9777002],[11.1265716,43.9782231],[11.1260523,43.9784776],[11.1255247,43.9786261],[11.1253975,43.9787668],[11.1253905,43.9789755],[11.1256587,43.9794035],[11.1262784,43.9799191],[11.1279155,43.980885],[11.128597,43.9813911],[11.1296822,43.9826306],[11.130413,43.9822419],[11.1307254,43.9823041],[11.131652,43.9811405],[11.132649,43.9803954],[11.1381891,43.9799762],[11.142303,43.9795582],[11.1450986,43.977841],[11.1509002,43.977178],[11.1527175,43.9766944],[11.153644,43.976947],[11.1539635,43.976931],[11.1544906,43.977578],[11.1548061,43.9776259],[11.1552054,43.9778695],[11.1556332,43.9774384],[11.1573812,43.9774923],[11.1583485,43.9775917],[11.1585913,43.9777451],[11.1598549,43.9779892],[11.1605296,43.9780076],[11.1611934,43.9781515],[11.1617173,43.9784301],[11.1619934,43.9784556],[11.1624925,43.9786792],[11.1631481,43.978641],[11.1642087,43.9787129],[11.1646764,43.9787644],[11.164912,43.9788955],[11.1665871,43.9790654],[11.1671014,43.9792091],[11.1686863,43.9792502],[11.1701162,43.9795892],[11.1699405,43.9799726],[11.1693958,43.9807244],[11.1696758,43.9808134],[11.171227,43.9807931],[11.17104,43.98055],[11.1712804,43.9801743],[11.1721331,43.9792958],[11.1731463,43.978756],[11.1737724,43.9769965],[11.1738161,43.9765316],[11.1732489,43.9752053],[11.1722905,43.9733869],[11.1727969,43.9716873],[11.1722933,43.970884],[11.1711998,43.9664039],[11.1693934,43.9632161],[11.1702133,43.9611523],[11.1747589,43.9521892],[11.1731165,43.9461059],[11.1714697,43.9416152],[11.1639817,43.9392993],[11.1605827,43.9352022],[11.1623021,43.9302713],[11.1628326,43.9281885],[11.1628754,43.9277742],[11.1624083,43.9275038],[11.1620019,43.927146],[11.1614317,43.9269066],[11.1598455,43.9269115],[11.1587178,43.9264114],[11.1578441,43.9257599],[11.1574697,43.9257569],[11.1563168,43.9254483],[11.1553097,43.925308],[11.1551817,43.9251116],[11.1546531,43.9248431],[11.1545473,43.9246788],[11.1538358,43.9245678],[11.1524939,43.9238795],[11.1520393,43.9238856],[11.1504206,43.9236721],[11.148728,43.9230954],[11.1482251,43.9227601],[11.1480176,43.9225169],[11.1475767,43.9216926],[11.1472631,43.9215056],[11.1470049,43.92119],[11.147033,43.9210427],[11.1469581,43.9209138],[11.1467092,43.9206417],[11.1458999,43.9203127],[11.144658,43.9196119],[11.1436739,43.919002],[11.1430195,43.9183947],[11.142199,43.9181336],[11.1416005,43.9176726],[11.1410395,43.9173623],[11.1407477,43.9173188],[11.1402613,43.916988],[11.1387065,43.9163735],[11.1372226,43.9156699],[11.1359285,43.9153263],[11.135833,43.9152009],[11.13553,43.9150728],[11.1351161,43.9150405],[11.1349399,43.9149157],[11.1338002,43.9148203],[11.1335003,43.9146413],[11.1327479,43.9145155],[11.1316035,43.9145075],[11.1308224,43.9142478],[11.130302,43.9141818],[11.1289519,43.9142575],[11.1282741,43.9141155],[11.1276678,43.9141265],[11.1278104,43.9168293],[11.1276195,43.9169729],[11.1276509,43.9172849],[11.1273741,43.9172877],[11.1274771,43.9178123],[11.1272833,43.9184505],[11.1273147,43.91898],[11.1270506,43.9209978],[11.1252534,43.9210011],[11.1238968,43.9210957],[11.1229122,43.9208737],[11.1227768,43.921044],[11.1230964,43.9214017],[11.1229487,43.9217497],[11.1232773,43.9222823],[11.1239023,43.9225403],[11.1238129,43.9227189],[11.1235267,43.922782],[11.1237582,43.9227702],[11.1238768,43.9226979],[11.1239369,43.9225298],[11.1239096,43.922258],[11.1241922,43.9223355],[11.1245623,43.9233506],[11.1248655,43.9238061],[11.1250637,43.9243041],[11.1252965,43.9251628],[11.1238503,43.9252306],[11.1224637,43.9253994],[11.121552,43.9249449],[11.1210719,43.9245287],[11.1209139,43.9245378],[11.1204473,43.9242131],[11.1205061,43.9249053],[11.1199092,43.9251564],[11.1181538,43.926364],[11.1186854,43.9276563],[11.1176811,43.9279259],[11.1160248,43.9286728],[11.1164918,43.9290855],[11.1166843,43.9295228],[11.1168676,43.9297411],[11.117389,43.9300798],[11.1171272,43.9307456],[11.1167353,43.9314241],[11.1160883,43.9316227],[11.1155657,43.9324886],[11.1150826,43.9328983],[11.1148364,43.9334222],[11.1144822,43.9339017],[11.1150899,43.9345434],[11.1143493,43.9353878],[11.1130638,43.9358769],[11.1128541,43.935865],[11.1128435,43.9362161],[11.112724,43.9363932],[11.1126909,43.9366967],[11.1123296,43.9370442],[11.1124151,43.9373548],[11.1122849,43.9377998],[11.1123013,43.9380905],[11.1126412,43.938578],[11.1127607,43.9389661],[11.112588,43.9395018],[11.1127499,43.9402664],[11.1127533,43.9410291],[11.1121635,43.9413865],[11.1116044,43.9424966],[11.1112804,43.9427414],[11.1106306,43.9430482],[11.1103988,43.9435333],[11.1090901,43.9452745],[11.1089041,43.9454478],[11.1087053,43.9455056],[11.1079341,43.9454045],[11.1073123,43.9460569],[11.1065702,43.9463681],[11.1051778,43.9466343],[11.1045099,43.9466661],[11.1039908,43.946999],[11.1037025,43.9473584],[11.1035479,43.9477415],[11.1028237,43.9480567],[11.1022436,43.9482089],[11.1019188,43.9484106],[11.1014532,43.9485767],[11.1013959,43.9484664],[11.098718,43.9494765],[11.0984021,43.9494679],[11.097516,43.9490465],[11.0966809,43.948763],[11.0942594,43.9483876],[11.0939552,43.9481469],[11.0933827,43.9480509],[11.0931253,43.9478768],[11.092741,43.9477602],[11.09251,43.947803],[11.0930387,43.9484845],[11.0933819,43.9487698],[11.0939109,43.9490237],[11.0953732,43.9505703],[11.0954461,43.9534583],[11.0952324,43.9539238],[11.0954635,43.9542189],[11.0953452,43.9542786],[11.0948433,43.954144],[11.0948084,43.9542317],[11.0949189,43.9544708],[11.094461,43.9543379],[11.0944136,43.9544051],[11.0944738,43.9545875],[11.0943388,43.9546789],[11.0937893,43.9543262],[11.0929694,43.9541001],[11.0928669,43.9541816],[11.0931183,43.9544542],[11.0931186,43.9547556],[11.0929555,43.9547819],[11.0924223,43.9545105],[11.0921459,43.9545099],[11.0919789,43.9546049],[11.0919073,43.9547806],[11.0919714,43.9552376],[11.0917436,43.9555726],[11.091509,43.956367],[11.0908715,43.9568739],[11.0903505,43.9574974],[11.0898218,43.9578928],[11.089516,43.9584489],[11.0892129,43.9586275],[11.0889299,43.9591246],[11.0886496,43.9593515],[11.0886228,43.9595455],[11.0884941,43.9596884],[11.0884662,43.9600797],[11.0885702,43.9602734],[11.0886202,43.9608636],[11.0887676,43.961009],[11.0888431,43.9613288],[11.0883509,43.9616527],[11.0877474,43.9618322],[11.0875757,43.9619973],[11.0874953,43.9623492],[11.0876309,43.9626814],[11.0876371,43.9632136],[11.0874796,43.9634283],[11.0873803,43.9640673],[11.0872892,43.964187],[11.0873508,43.9646194],[11.0870907,43.9652314],[11.085948,43.9664361],[11.0848512,43.9669493],[11.0818366,43.968869],[11.0817294,43.9690079],[11.0816905,43.9693709],[11.0819171,43.9703495],[11.0818592,43.9708728]]]},"properties":{"type":"boundary","gemeente":"Vaiano"}}]}