{"type":"FeatureCollection","metadata":{"gemeente":"Valbondione","slug":"valbondione","generated_at":"2026-09-26T13:10:52.322700Z","total_points":1,"providers":["PosteItaliane"],"bounds":[10.005971,46.034888,10.005971,46.034888]},"features":[{"type":"Feature","geometry":{"type":"Point","coordinates":[10.005971,46.034888]},"properties":{"type":"pakketpunt","locatieNaam":"Valbondione","straatNaam":"Via San Lorenzo","straatNr":"19","vervoerder":"PosteItaliane","puntType":"postkantoor","bezettingsgraad":50,"latitude":46.034888,"longitude":10.005971,"canPickup":true,"canDropoff":true,"openingstijden":{"za":"08:20 - 12:45","zo":"gesloten","ma":"gesloten","di":"08:20 - 13:45","wo":"gesloten","do":"08:20 - 13:45","vr":"gesloten"}}},{"type":"Feature","geometry":{"type":"Polygon","coordinates":[[[9.9081177,46.0458242],[9.9102739,46.04578],[9.9121655,46.045855],[9.9124948,46.0457443],[9.912493,46.0456319],[9.9123623,46.0455429],[9.9118778,46.0453623],[9.9099188,46.0432448],[9.9110584,46.0417102],[9.9111412,46.0411426],[9.9110318,46.0394019],[9.910584,46.0374209],[9.9113673,46.0364292],[9.9122489,46.0357202],[9.9126661,46.0354468],[9.9137231,46.0350919],[9.9150519,46.0348608],[9.9159311,46.0348852],[9.9164839,46.0348088],[9.9185686,46.0340855],[9.9201137,46.0333621],[9.9244392,46.0323732],[9.9257972,46.0321552],[9.9283704,46.0312928],[9.9293331,46.0308125],[9.9296168,46.0305897],[9.9320373,46.030066],[9.9327456,46.0294437],[9.9338506,46.0281161],[9.9356179,46.0262206],[9.9365877,46.0249257],[9.9370396,46.024526],[9.9378379,46.0235024],[9.9383469,46.0230437],[9.9390078,46.0222103],[9.9397467,46.0215922],[9.9399182,46.0213253],[9.9423209,46.0194065],[9.9431278,46.0192783],[9.9439954,46.0190191],[9.9445147,46.0189789],[9.9471142,46.0191418],[9.9485787,46.0191297],[9.9491794,46.0188412],[9.9492369,46.0187147],[9.9495611,46.018595],[9.9500357,46.0182086],[9.9508095,46.0179411],[9.9516017,46.0174305],[9.9520686,46.0172557],[9.9513343,46.0167173],[9.9512216,46.0164527],[9.952325,46.0158225],[9.9525109,46.0158389],[9.9526405,46.0159549],[9.9535065,46.0171132],[9.9537144,46.0170844],[9.9546261,46.0164828],[9.9575804,46.0148516],[9.9611665,46.0133499],[9.9655608,46.0118144],[9.9689039,46.0108411],[9.9695435,46.0105746],[9.9722483,46.0099486],[9.9739705,46.009457],[9.9750711,46.0093351],[9.9804553,46.0080335],[9.9821406,46.0077445],[9.9841145,46.007255],[9.9840812,46.0069223],[9.9838368,46.0062494],[9.9830634,46.004789],[9.9828213,46.0041566],[9.9826367,46.0039422],[9.9819537,46.0034953],[9.9818458,46.0028009],[9.982156,46.0024915],[9.982201,46.0020424],[9.982044,45.9968191],[9.9821702,45.9964715],[9.9826089,45.9958152],[9.9839421,45.9945347],[9.985521,45.993189],[9.9869348,45.9912733],[9.98685,45.9902255],[9.9871396,45.9896335],[9.9871769,45.9891876],[9.9869328,45.9886227],[9.9865181,45.9880818],[9.9841771,45.9855864],[9.9834706,45.984967],[9.9831393,45.9842138],[9.9820804,45.9839304],[9.9818191,45.9837526],[9.9817509,45.9835462],[9.9820576,45.9828106],[9.9835921,45.9829004],[9.9848198,45.9828763],[9.9868764,45.9831826],[9.9874821,45.9831233],[9.9890234,45.983218],[9.9893033,45.9831706],[9.989399,45.9830167],[9.9896606,45.9829335],[9.990772,45.9821858],[9.9923376,45.9820147],[9.9932312,45.982259],[9.9940499,45.9827379],[9.9951224,45.9828815],[9.9993319,45.9839968],[10.0017662,45.9847451],[10.0037602,45.9860416],[10.0048862,45.9869947],[10.0064863,45.9874802],[10.0075715,45.9875111],[10.0079749,45.9875975],[10.0100972,45.9875068],[10.0113134,45.9878201],[10.0123883,45.9882651],[10.0137,45.9884154],[10.0155932,45.9880342],[10.0173088,45.9886804],[10.0178789,45.9890488],[10.0184448,45.9895433],[10.0193255,45.9899539],[10.0212021,45.9911567],[10.021748,45.9932759],[10.0215541,45.9936151],[10.0218371,45.9941706],[10.0219485,45.9946106],[10.0219086,45.9947235],[10.0215725,45.994965],[10.0214502,45.9953351],[10.0211442,45.9958104],[10.0212327,45.9960616],[10.0209095,45.9963885],[10.0208433,45.9965646],[10.0210042,45.9967971],[10.0210292,45.9971029],[10.0205574,45.9979577],[10.0204714,45.998287],[10.0211722,45.9992617],[10.0214322,46.0000559],[10.0214708,46.0042542],[10.0215412,46.0048341],[10.0213945,46.0065094],[10.0214326,46.0070896],[10.021874,46.0093987],[10.0220129,46.009753],[10.0225555,46.0103736],[10.0235346,46.0110219],[10.024399,46.0117521],[10.0244671,46.012116],[10.0243108,46.012672],[10.0242916,46.0131109],[10.0252339,46.0132387],[10.0279453,46.0133448],[10.0289424,46.0131289],[10.0305262,46.0125971],[10.0331429,46.013343],[10.0351672,46.0137477],[10.0363209,46.0137867],[10.0378429,46.0134939],[10.0385731,46.0134288],[10.0393985,46.0135293],[10.0403516,46.0139796],[10.0414257,46.0146853],[10.0422669,46.0155417],[10.0435291,46.0151702],[10.0439884,46.0152065],[10.0455123,46.0160431],[10.047275,46.0172059],[10.0497546,46.0184432],[10.0507559,46.0193835],[10.0514094,46.0203811],[10.0533077,46.0219521],[10.0547543,46.0221008],[10.05584,46.0225498],[10.056831,46.0226846],[10.0589173,46.0225033],[10.0594737,46.0222956],[10.0604788,46.0220748],[10.0619465,46.0229027],[10.0628422,46.0232904],[10.063557,46.0240982],[10.0644968,46.0246835],[10.0653848,46.0255933],[10.0662929,46.0262013],[10.0670457,46.0264643],[10.067966,46.0269507],[10.0685348,46.0273864],[10.0695238,46.0283357],[10.0702783,46.0288461],[10.0720236,46.0290638],[10.0723977,46.0291998],[10.0727614,46.0294618],[10.0731109,46.0299131],[10.0733888,46.0309185],[10.0748527,46.0325248],[10.075592,46.0335843],[10.0759735,46.0343458],[10.0768042,46.0354495],[10.0796045,46.0377361],[10.0818855,46.0391455],[10.083828,46.0405896],[10.0841374,46.0412122],[10.0844701,46.0423611],[10.0843957,46.0430188],[10.0841867,46.0438128],[10.0843926,46.0454174],[10.0838826,46.0467632],[10.0834925,46.048459],[10.0831461,46.0490067],[10.0830898,46.0493493],[10.0832175,46.0496811],[10.0838353,46.0502107],[10.0840885,46.0505998],[10.086018,46.0504465],[10.0878902,46.0510812],[10.0884716,46.0513951],[10.088806,46.0514775],[10.0889769,46.0517053],[10.0892736,46.0518375],[10.0899497,46.0529426],[10.0905511,46.0533643],[10.0933007,46.0544856],[10.0956916,46.0551107],[10.0955774,46.0553818],[10.0955675,46.0561019],[10.0953048,46.0568739],[10.0938166,46.0590032],[10.0932239,46.0596794],[10.0925611,46.0607297],[10.0925183,46.0615897],[10.0927417,46.06251],[10.0930351,46.0631283],[10.0940665,46.0645359],[10.0941497,46.0650661],[10.0940837,46.0655662],[10.0938992,46.066126],[10.0933926,46.0669904],[10.093104,46.0684152],[10.0926628,46.0698954],[10.0924029,46.0703484],[10.092407,46.0704812],[10.0936098,46.0710736],[10.0946347,46.0718521],[10.0950149,46.0723614],[10.0951733,46.0728504],[10.0965561,46.0734626],[10.0968594,46.0737567],[10.0970727,46.0741597],[10.0986409,46.0753956],[10.0991495,46.0760972],[10.1003394,46.0765133],[10.1009481,46.0768854],[10.1012114,46.0773599],[10.1015139,46.078266],[10.102223,46.0796947],[10.1026742,46.0804383],[10.1032923,46.0810299],[10.1032114,46.0816741],[10.1032527,46.0819617],[10.1043248,46.0835129],[10.1044485,46.0843667],[10.1037708,46.0855658],[10.1031845,46.0864084],[10.1032415,46.0868354],[10.1032071,46.0882712],[10.1030357,46.0885969],[10.1006831,46.0894836],[10.0993048,46.0897882],[10.0990986,46.0901379],[10.0979871,46.090513],[10.0969347,46.0910947],[10.0965552,46.0912018],[10.0955228,46.0911622],[10.0945465,46.0909243],[10.0936374,46.0912133],[10.0931434,46.0912136],[10.0927115,46.090998],[10.0923338,46.0909768],[10.0914208,46.090675],[10.0900559,46.090078],[10.089291,46.0904119],[10.0886996,46.0905165],[10.0881967,46.0904313],[10.0866501,46.0898054],[10.0846398,46.0908611],[10.0840274,46.0909615],[10.0834184,46.0909087],[10.0821306,46.0904574],[10.0803806,46.0896865],[10.0793108,46.0887201],[10.0790733,46.0876559],[10.0790212,46.0867204],[10.0779143,46.0863393],[10.0771566,46.0859505],[10.0766864,46.0858019],[10.0757609,46.0858511],[10.0753148,46.0860218],[10.0751436,46.0861989],[10.0749654,46.0867631],[10.0739972,46.0880277],[10.0737917,46.0881871],[10.073194,46.0882962],[10.0710299,46.088348],[10.0685175,46.0896135],[10.0674334,46.0898262],[10.06692,46.089786],[10.0656228,46.0893436],[10.064317,46.0891217],[10.0625581,46.0891381],[10.0608068,46.0890463],[10.0595791,46.088859],[10.0592801,46.088687],[10.0583319,46.0875528],[10.0571774,46.086362],[10.0567992,46.086118],[10.0555921,46.0857149],[10.0546978,46.0852104],[10.0544998,46.0851672],[10.0531043,46.0851957],[10.0516452,46.085459],[10.0481638,46.0851805],[10.0447405,46.0846358],[10.0431953,46.0846589],[10.0389069,46.0860884],[10.0381137,46.0865547],[10.0374498,46.0871052],[10.0367005,46.0875845],[10.0359527,46.0878028],[10.0344473,46.0874474],[10.0337079,46.0875081],[10.0309915,46.0874201],[10.0285837,46.0874868],[10.025507,46.0870599],[10.0227054,46.0868195],[10.0201375,46.0861855],[10.0192029,46.0860948],[10.0179612,46.0861824],[10.0164709,46.0855026],[10.0136908,46.0835158],[10.0132793,46.0832944],[10.0122006,46.0823166],[10.0121396,46.081797],[10.0120404,46.0815864],[10.0112488,46.0806484],[10.0108181,46.0799007],[10.0107466,46.0796178],[10.010761,46.0788122],[10.0117983,46.0778085],[10.0118491,46.077673],[10.0117902,46.0774576],[10.0115273,46.0771359],[10.0104634,46.0762363],[10.010225,46.0757524],[10.0102588,46.0749511],[10.0107557,46.0739207],[10.0108152,46.0727546],[10.0107866,46.0726064],[10.0105737,46.0724553],[10.009915,46.0722316],[10.009292,46.0721966],[10.0089957,46.0722577],[10.0084951,46.0728156],[10.0069349,46.0727079],[10.0064554,46.0727799],[10.0058887,46.0730411],[10.0055858,46.0730978],[10.0050636,46.0730888],[10.004168,46.0727292],[10.0035708,46.072868],[10.0025561,46.0732459],[10.0016386,46.0737309],[10.0004204,46.0742096],[9.9963494,46.0751541],[9.9959361,46.0751847],[9.9953404,46.0750504],[9.9947308,46.0747677],[9.9936879,46.0739443],[9.9928421,46.0730246],[9.9902373,46.0714452],[9.9885001,46.0709292],[9.9872201,46.0707558],[9.9868138,46.0700888],[9.9853068,46.0687833],[9.9849889,46.0680885],[9.9846737,46.0676322],[9.9848485,46.0669197],[9.9847556,46.0665155],[9.9845973,46.0662469],[9.9829676,46.0657614],[9.9822382,46.0657316],[9.9814277,46.0658736],[9.9793375,46.065392],[9.9783261,46.0654997],[9.9772133,46.0650907],[9.9761812,46.0649114],[9.9752914,46.0649364],[9.9737403,46.0652081],[9.9727309,46.0651424],[9.9709246,46.0664498],[9.9701981,46.0665956],[9.9688446,46.0660733],[9.9678374,46.0660403],[9.9666438,46.066172],[9.9656574,46.0670339],[9.9647299,46.0675097],[9.9634812,46.0682898],[9.9630901,46.0683876],[9.9627762,46.0683632],[9.9625155,46.0682439],[9.9609354,46.0670998],[9.9597719,46.066899],[9.9582937,46.0668113],[9.9577423,46.0670063],[9.957148,46.0669811],[9.956972,46.0671212],[9.9559432,46.0668141],[9.9536417,46.0668563],[9.9528948,46.0663355],[9.9508345,46.0660781],[9.950213,46.0661238],[9.9485494,46.0665651],[9.9465632,46.0659156],[9.9451024,46.0658377],[9.9444813,46.0659058],[9.9409922,46.0666861],[9.9400595,46.0667747],[9.9385282,46.0653068],[9.9368091,46.0647674],[9.9363726,46.064186],[9.9355005,46.0634596],[9.9350746,46.0626396],[9.9348235,46.0623176],[9.9345724,46.0621892],[9.9335935,46.0619317],[9.9324477,46.0618375],[9.928354,46.0618348],[9.9257092,46.0613973],[9.9239837,46.0605562],[9.9224546,46.0589846],[9.9218096,46.0585848],[9.9213674,46.0584263],[9.9203147,46.0586778],[9.9188914,46.0588521],[9.9185373,46.0586819],[9.9166929,46.0581714],[9.9132294,46.0580551],[9.9113791,46.0581509],[9.9104273,46.0579605],[9.9097822,46.0574481],[9.9088316,46.0559481],[9.9081991,46.0554131],[9.9071422,46.0548185],[9.9067215,46.0543899],[9.9064584,46.0539105],[9.906529,46.0534869],[9.9071225,46.0526272],[9.907256,46.0522976],[9.9064981,46.0501211],[9.9064603,46.0497884],[9.9066614,46.0487428],[9.9081177,46.0458242]]]},"properties":{"type":"boundary","gemeente":"Valbondione"}}]}