{"type":"FeatureCollection","metadata":{"gemeente":"Valdilana","slug":"valdilana","generated_at":"2026-09-26T13:10:52.478544Z","total_points":35,"providers":["PosteItaliane","DPD","GLS","DHL","Amazon"],"bounds":[8.1354,45.6273,8.19821683,45.669323]},"features":[{"type":"Feature","geometry":{"type":"Point","coordinates":[8.15810651,45.66932264]},"properties":{"type":"pakketpunt","locatieNaam":"Trivero","straatNaam":"Via Roma Trivero","straatNr":"96","vervoerder":"PosteItaliane","puntType":"postkantoor","bezettingsgraad":50,"latitude":45.66932264,"longitude":8.15810651,"canPickup":true,"canDropoff":true,"openingstijden":{"za":"08:20 - 12:35","zo":"gesloten","ma":"08:20 - 13:35","di":"08:20 - 13:35","wo":"08:20 - 13:35","do":"08:20 - 13:35","vr":"08:20 - 13:35"}}},{"type":"Feature","geometry":{"type":"Point","coordinates":[8.13540456,45.64654173]},"properties":{"type":"pakketpunt","locatieNaam":"Mosso","straatNaam":"Via Roma Mosso","straatNr":"45","vervoerder":"PosteItaliane","puntType":"postkantoor","bezettingsgraad":50,"latitude":45.64654173,"longitude":8.13540456,"canPickup":true,"canDropoff":true,"openingstijden":{"za":"08:20 - 12:45","zo":"gesloten","ma":"08:20 - 13:45","di":"08:20 - 13:45","wo":"08:20 - 13:45","do":"08:20 - 13:45","vr":"08:20 - 13:45"}}},{"type":"Feature","geometry":{"type":"Point","coordinates":[8.14114882,45.63482274]},"properties":{"type":"pakketpunt","locatieNaam":"Valle Mosso","straatNaam":"Via Roma Valle Mosso","straatNr":"49","vervoerder":"PosteItaliane","puntType":"postkantoor","bezettingsgraad":50,"latitude":45.63482274,"longitude":8.14114882,"canPickup":true,"canDropoff":true,"openingstijden":{"za":"08:20 - 12:35","zo":"gesloten","ma":"08:20 - 13:35","di":"08:20 - 13:35","wo":"08:20 - 13:35","do":"08:20 - 13:35","vr":"08:20 - 13:35"}}},{"type":"Feature","geometry":{"type":"Point","coordinates":[8.19821683,45.6388595]},"properties":{"type":"pakketpunt","locatieNaam":"Soprana","straatNaam":"Frazione Lanvario","straatNr":"12","vervoerder":"PosteItaliane","puntType":"postkantoor","bezettingsgraad":50,"latitude":45.6388595,"longitude":8.19821683,"canPickup":true,"canDropoff":true,"openingstijden":{"za":"08:20 - 12:45","zo":"gesloten","ma":"gesloten","di":"08:20 - 13:45","wo":"gesloten","do":"08:20 - 13:45","vr":"gesloten"}}},{"type":"Feature","geometry":{"type":"Point","coordinates":[8.18450424,45.65305908]},"properties":{"type":"pakketpunt","locatieNaam":"Ponzone","straatNaam":"Frazione Ponzone","straatNr":"195","vervoerder":"PosteItaliane","puntType":"postkantoor","bezettingsgraad":50,"latitude":45.65305908,"longitude":8.18450424,"canPickup":true,"canDropoff":true,"openingstijden":{"za":"08:20 - 12:35","zo":"gesloten","ma":"08:20 - 13:35","di":"08:20 - 13:35","wo":"08:20 - 13:35","do":"08:20 - 13:35","vr":"08:20 - 13:35"}}},{"type":"Feature","geometry":{"type":"Point","coordinates":[8.14307435,45.63485043]},"properties":{"type":"pakketpunt","locatieNaam":"Tabaccheria N. 17","straatNaam":"Via Roma","straatNr":"6","vervoerder":"PosteItaliane","puntType":"servicepunt","bezettingsgraad":50,"latitude":45.63485043,"longitude":8.14307435,"canPickup":true,"canDropoff":true,"openingstijden":{"za":"05:30 - 12:30, 14:30 - 19:30","zo":"08:00 - 12:00","ma":"05:30 - 12:30, 14:30 - 19:30","di":"05:30 - 12:30, 14:30 - 19:30","wo":"05:30 - 12:30, 14:30 - 19:30","do":"05:30 - 12:30, 14:30 - 19:30","vr":"05:30 - 12:30, 14:30 - 19:30"}}},{"type":"Feature","geometry":{"type":"Point","coordinates":[8.18683704,45.65905897]},"properties":{"type":"pakketpunt","locatieNaam":"Tabaccheria N. 11","straatNaam":"Frazione Pramorisio","straatNr":"32","vervoerder":"PosteItaliane","puntType":"servicepunt","bezettingsgraad":50,"latitude":45.65905897,"longitude":8.18683704,"canPickup":true,"canDropoff":true,"openingstijden":{"za":"06:30 - 20:00","zo":"06:30 - 20:00","ma":"06:30 - 20:00","di":"06:30 - 20:00","wo":"06:30 - 20:00","do":"06:30 - 20:00","vr":"06:30 - 20:00"}}},{"type":"Feature","geometry":{"type":"Point","coordinates":[8.15318738,45.64139328]},"properties":{"type":"pakketpunt","locatieNaam":"Tabaccheria N. 19","straatNaam":"Via Mazzini","straatNr":"21","vervoerder":"PosteItaliane","puntType":"servicepunt","bezettingsgraad":50,"latitude":45.64139328,"longitude":8.15318738,"canPickup":true,"canDropoff":true,"openingstijden":{"za":"06:00 - 14:30, 16:00 - 19:00","zo":"gesloten","ma":"06:00 - 14:30, 16:00 - 19:00","di":"06:00 - 14:30, 16:00 - 19:00","wo":"06:00 - 14:30, 16:00 - 19:00","do":"06:00 - 14:30, 16:00 - 19:00","vr":"06:00 - 14:30, 16:00 - 19:00"}}},{"type":"Feature","geometry":{"type":"Point","coordinates":[8.15045575,45.62731743]},"properties":{"type":"pakketpunt","locatieNaam":"Tabaccheria N. 23","straatNaam":"Via Falcero","straatNr":"29","vervoerder":"PosteItaliane","puntType":"servicepunt","bezettingsgraad":50,"latitude":45.62731743,"longitude":8.15045575,"canPickup":true,"canDropoff":true,"openingstijden":{"za":"06:00 - 20:00","zo":"gesloten","ma":"06:00 - 20:00","di":"06:00 - 20:00","wo":"06:00 - 20:00","do":"06:00 - 20:00","vr":"06:00 - 20:00"}}},{"type":"Feature","geometry":{"type":"Point","coordinates":[8.15062229,45.64979909]},"properties":{"type":"pakketpunt","locatieNaam":"Tabaccheria N. 18","straatNaam":"Frazione Bolche","straatNr":"15","vervoerder":"PosteItaliane","puntType":"servicepunt","bezettingsgraad":50,"latitude":45.64979909,"longitude":8.15062229,"canPickup":true,"canDropoff":true,"openingstijden":{"za":"07:00 - 17:00","zo":"gesloten","ma":"07:00 - 21:00","di":"07:00 - 21:00","wo":"07:00 - 21:00","do":"07:00 - 21:00","vr":"07:00 - 21:00"}}},{"type":"Feature","geometry":{"type":"Point","coordinates":[8.1433171909,45.6359714319]},"properties":{"type":"pakketpunt","locatieNaam":"Tabaccheria SperumAnBen","straatNaam":"VIA ROMA","straatNr":"6-8","vervoerder":"DPD","puntType":"pickup_point","bezettingsgraad":50,"latitude":45.6359714319,"longitude":8.1433171909,"canPickup":true,"canDropoff":true,"openingstijden":{"ma":"05:30 - 12:30, 14:30 - 19:30","di":"05:30 - 12:30, 14:30 - 19:30","wo":"05:30 - 12:30, 14:30 - 19:30","do":"05:30 - 12:30, 14:30 - 19:30","vr":"05:30 - 12:30, 14:30 - 19:30","za":"05:30 - 12:30, 14:30 - 19:30","zo":"08:00 - 12:00"}}},{"type":"Feature","geometry":{"type":"Point","coordinates":[8.18362,45.65237]},"properties":{"type":"pakketpunt","locatieNaam":"Le Meraviglie Di Alice","straatNaam":"FRAZIONE PONZONE","straatNr":"220","vervoerder":"DPD","puntType":"pickup_point","bezettingsgraad":50,"latitude":45.65237,"longitude":8.18362,"canPickup":true,"canDropoff":true,"openingstijden":{"ma":"07:15 - 12:00, 14:30 - 19:00","di":"07:15 - 12:00, 14:30 - 19:00","wo":"07:15 - 12:00, 14:30 - 19:00","do":"07:15 - 12:00, 14:30 - 19:00","vr":"07:15 - 12:00, 14:30 - 19:00","za":"07:15 - 12:00","zo":"gesloten"}}},{"type":"Feature","geometry":{"type":"Point","coordinates":[8.1430353,45.6348708]},"properties":{"type":"pakketpunt","locatieNaam":"Tabaccheria/ricevitoria Sperumanben","straatNaam":"Via Roma","straatNr":"6","vervoerder":"GLS","puntType":"parcel_shop","bezettingsgraad":50,"latitude":45.6348708,"longitude":8.1430353,"canPickup":true,"canDropoff":true,"openingstijden":"za: 07:00 - 12:30, 14:30 - 19:00; zo: 08:00 - 12:00"}},{"type":"Feature","geometry":{"type":"Point","coordinates":[8.1837833,45.6525322]},"properties":{"type":"pakketpunt","locatieNaam":"di tutto di piu'","straatNaam":"Frazione Ponzone","straatNr":"220","vervoerder":"GLS","puntType":"parcel_shop","bezettingsgraad":50,"latitude":45.6525322,"longitude":8.1837833,"canPickup":true,"canDropoff":true,"openingstijden":"za: 08:30 - 12:00, 14:30 - 19:00; ma: 14:30 - 19:00"}},{"type":"Feature","geometry":{"type":"Point","coordinates":[8.1812882,45.6647458]},"properties":{"type":"pakketpunt","locatieNaam":"tabacchi","straatNaam":"Frazione Pratrivero","straatNr":"259","vervoerder":"GLS","puntType":"parcel_shop","bezettingsgraad":50,"latitude":45.6647458,"longitude":8.1812882,"canPickup":true,"canDropoff":true,"openingstijden":"za: 07:30 - 12:00, 15:30 - 19:00; ma: 07:30 - 12:00, 15:00 - 19:00"}},{"type":"Feature","geometry":{"type":"Point","coordinates":[8.135405,45.646542]},"properties":{"type":"pakketpunt","locatieNaam":"Ufficio Postale MOSSO","straatNaam":"VIA ROMA 45","straatNr":"","vervoerder":"DHL","puntType":"postOffice","bezettingsgraad":50,"latitude":45.646542,"longitude":8.135405,"canPickup":true,"canDropoff":true,"openingstijden":{"ma":"08:20 - 13:45","di":"08:20 - 13:45","wo":"08:20 - 13:45","do":"08:20 - 13:45","vr":"08:20 - 13:45","za":"08:20 - 12:45","zo":"gesloten"}}},{"type":"Feature","geometry":{"type":"Point","coordinates":[8.150622,45.649799]},"properties":{"type":"pakketpunt","locatieNaam":"TABACCHERIA N. 18","straatNaam":"FRAZIONE BOLCHE 15","straatNr":"","vervoerder":"DHL","puntType":"parcelShop","bezettingsgraad":50,"latitude":45.649799,"longitude":8.150622,"canPickup":true,"canDropoff":true,"openingstijden":{"ma":"07:00 - 21:00","di":"07:00 - 21:00","wo":"07:00 - 21:00","do":"07:00 - 21:00","vr":"07:00 - 21:00","za":"07:00 - 17:00","zo":"gesloten"}}},{"type":"Feature","geometry":{"type":"Point","coordinates":[8.183665,45.65239]},"properties":{"type":"pakketpunt","locatieNaam":"LE MERAVIGLIE DI ALICE","straatNaam":"Frazione Ponzone 220","straatNr":"","vervoerder":"DHL","puntType":"parcelShop","bezettingsgraad":50,"latitude":45.65239,"longitude":8.183665,"canPickup":false,"canDropoff":true,"openingstijden":{"ma":"14:30 - 19:00","di":"08:30 - 19:00","wo":"08:30 - 19:00","do":"08:30 - 19:00","vr":"08:30 - 19:00","za":"08:30 - 19:00","zo":"gesloten"}}},{"type":"Feature","geometry":{"type":"Point","coordinates":[8.184504,45.653059]},"properties":{"type":"pakketpunt","locatieNaam":"Ufficio Postale PONZONE","straatNaam":"FRAZIONE PONZONE 195","straatNr":"","vervoerder":"DHL","puntType":"postOffice","bezettingsgraad":50,"latitude":45.653059,"longitude":8.184504,"canPickup":true,"canDropoff":true,"openingstijden":{"ma":"08:20 - 13:35","di":"gesloten","wo":"10:00 - 13:35","do":"08:20 - 13:35","vr":"08:20 - 13:35","za":"08:20 - 12:35","zo":"gesloten"}}},{"type":"Feature","geometry":{"type":"Point","coordinates":[8.153187,45.641393]},"properties":{"type":"pakketpunt","locatieNaam":"TABACCHERIA N. 19","straatNaam":"VIA MAZZINI 21","straatNr":"","vervoerder":"DHL","puntType":"parcelShop","bezettingsgraad":50,"latitude":45.641393,"longitude":8.153187,"canPickup":true,"canDropoff":true,"openingstijden":{"ma":"06:00 - 14:30, 16:00 - 19:00","di":"06:00 - 14:30, 16:00 - 19:00","wo":"06:00 - 14:30, 16:00 - 19:00","do":"06:00 - 14:30, 16:00 - 19:00","vr":"06:00 - 14:30, 16:00 - 19:00","za":"06:00 - 14:30, 16:00 - 19:00","zo":"gesloten"}}},{"type":"Feature","geometry":{"type":"Point","coordinates":[8.186837,45.659059]},"properties":{"type":"pakketpunt","locatieNaam":"TABACCHERIA N. 11","straatNaam":"FRAZIONE PRAMORISIO 32","straatNr":"","vervoerder":"DHL","puntType":"parcelShop","bezettingsgraad":50,"latitude":45.659059,"longitude":8.186837,"canPickup":true,"canDropoff":true,"openingstijden":{"ma":"06:30 - 20:00","di":"06:30 - 20:00","wo":"06:30 - 20:00","do":"06:30 - 20:00","vr":"06:30 - 20:00","za":"06:30 - 20:00","zo":"06:30 - 20:00"}}},{"type":"Feature","geometry":{"type":"Point","coordinates":[8.158107,45.669323]},"properties":{"type":"pakketpunt","locatieNaam":"Ufficio Postale TRIVERO","straatNaam":"VIA ROMA 96","straatNr":"","vervoerder":"DHL","puntType":"postOffice","bezettingsgraad":50,"latitude":45.669323,"longitude":8.158107,"canPickup":true,"canDropoff":true,"openingstijden":{"ma":"08:20 - 13:35","di":"08:20 - 13:35","wo":"08:20 - 13:35","do":"08:20 - 13:35","vr":"08:20 - 13:35","za":"08:20 - 12:35","zo":"gesloten"}}},{"type":"Feature","geometry":{"type":"Point","coordinates":[8.143094,45.634874]},"properties":{"type":"pakketpunt","locatieNaam":"TABACCHERIA RICEVITORIA","straatNaam":"Corso Roma, 6","straatNr":"","vervoerder":"DHL","puntType":"parcelShop","bezettingsgraad":50,"latitude":45.634874,"longitude":8.143094,"canPickup":false,"canDropoff":true,"openingstijden":{"ma":"06:00 - 19:30","di":"06:00 - 19:30","wo":"06:00 - 19:30","do":"06:00 - 19:30","vr":"06:00 - 19:30","za":"06:00 - 19:30","zo":"gesloten"}}},{"type":"Feature","geometry":{"type":"Point","coordinates":[8.143074,45.63485]},"properties":{"type":"pakketpunt","locatieNaam":"TABACCHERIA N. 17","straatNaam":"VIA ROMA 6","straatNr":"","vervoerder":"DHL","puntType":"parcelShop","bezettingsgraad":50,"latitude":45.63485,"longitude":8.143074,"canPickup":true,"canDropoff":true,"openingstijden":{"ma":"05:30 - 12:30, 14:30 - 19:30","di":"05:30 - 12:30, 14:30 - 19:30","wo":"05:30 - 12:30, 14:30 - 19:30","do":"05:30 - 12:30, 14:30 - 19:30","vr":"05:30 - 12:30, 14:30 - 19:30","za":"05:30 - 12:30, 14:30 - 19:30","zo":"08:00 - 12:00"}}},{"type":"Feature","geometry":{"type":"Point","coordinates":[8.141149,45.634823]},"properties":{"type":"pakketpunt","locatieNaam":"Ufficio Postale VALLE MOSSO","straatNaam":"VIA ROMA 49","straatNr":"","vervoerder":"DHL","puntType":"postOffice","bezettingsgraad":50,"latitude":45.634823,"longitude":8.141149,"canPickup":true,"canDropoff":true,"openingstijden":{"ma":"08:20 - 13:35","di":"08:20 - 13:35","wo":"08:20 - 13:35","do":"08:20 - 13:35","vr":"08:20 - 13:35","za":"08:20 - 12:35","zo":"gesloten"}}},{"type":"Feature","geometry":{"type":"Point","coordinates":[8.150456,45.627317]},"properties":{"type":"pakketpunt","locatieNaam":"TABACCHERIA N. 23","straatNaam":"VIA FALCERO 29","straatNr":"","vervoerder":"DHL","puntType":"parcelShop","bezettingsgraad":50,"latitude":45.627317,"longitude":8.150456,"canPickup":true,"canDropoff":true,"openingstijden":{"ma":"06:00 - 20:00","di":"06:00 - 20:00","wo":"06:00 - 20:00","do":"06:00 - 20:00","vr":"06:00 - 20:00","za":"06:00 - 20:00","zo":"gesloten"}}},{"type":"Feature","geometry":{"type":"Point","coordinates":[8.15045,45.6273]},"properties":{"type":"pakketpunt","locatieNaam":"PuntoPoste TABACCHERIA N. 23","straatNaam":"VIA FALCERO 29","straatNr":"","vervoerder":"Amazon","puntType":"3p","bezettingsgraad":50,"latitude":45.6273,"longitude":8.15045,"canPickup":true,"canDropoff":false,"openingstijden":null}},{"type":"Feature","geometry":{"type":"Point","coordinates":[8.187008,45.653742]},"properties":{"type":"pakketpunt","locatieNaam":"Amazon Locker - forimma","straatNaam":"COOP Valdilana","straatNr":"","vervoerder":"Amazon","puntType":"locker","bezettingsgraad":50,"latitude":45.653742,"longitude":8.187008,"canPickup":true,"canDropoff":false,"openingstijden":null}},{"type":"Feature","geometry":{"type":"Point","coordinates":[8.15318,45.6413]},"properties":{"type":"pakketpunt","locatieNaam":"PuntoPoste TABACCHERIA N. 19","straatNaam":"VIA MAZZINI 21","straatNr":"","vervoerder":"Amazon","puntType":"3p","bezettingsgraad":50,"latitude":45.6413,"longitude":8.15318,"canPickup":true,"canDropoff":false,"openingstijden":null}},{"type":"Feature","geometry":{"type":"Point","coordinates":[8.1431,45.63487]},"properties":{"type":"pakketpunt","locatieNaam":"Amazon Counter - amos ascari","straatNaam":"CORSO roma 6","straatNr":"","vervoerder":"Amazon","puntType":"helix","bezettingsgraad":50,"latitude":45.63487,"longitude":8.1431,"canPickup":true,"canDropoff":false,"openingstijden":null}},{"type":"Feature","geometry":{"type":"Point","coordinates":[8.15062,45.6497]},"properties":{"type":"pakketpunt","locatieNaam":"PuntoPoste TABACCHERIA N. 18","straatNaam":"FRAZIONE BOLCHE 15","straatNr":"","vervoerder":"Amazon","puntType":"3p","bezettingsgraad":50,"latitude":45.6497,"longitude":8.15062,"canPickup":true,"canDropoff":false,"openingstijden":null}},{"type":"Feature","geometry":{"type":"Point","coordinates":[8.183692,45.65243]},"properties":{"type":"pakketpunt","locatieNaam":"Amazon Counter","straatNaam":"Le Meraviglie Di Alice (fermopoint)","straatNr":"","vervoerder":"Amazon","puntType":"helix","bezettingsgraad":50,"latitude":45.65243,"longitude":8.183692,"canPickup":true,"canDropoff":false,"openingstijden":null}},{"type":"Feature","geometry":{"type":"Point","coordinates":[8.1813611,45.664738]},"properties":{"type":"pakketpunt","locatieNaam":"Amazon Counter - PRIMAEDICOLA","straatNaam":"SIVIERO SIMONA","straatNr":"","vervoerder":"Amazon","puntType":"helix","bezettingsgraad":50,"latitude":45.664738,"longitude":8.1813611,"canPickup":true,"canDropoff":false,"openingstijden":null}},{"type":"Feature","geometry":{"type":"Point","coordinates":[8.1581,45.6693]},"properties":{"type":"pakketpunt","locatieNaam":"Ufficio Postale TRIVERO","straatNaam":"VIA ROMA 96","straatNr":"","vervoerder":"Amazon","puntType":"3p","bezettingsgraad":50,"latitude":45.6693,"longitude":8.1581,"canPickup":true,"canDropoff":false,"openingstijden":null}},{"type":"Feature","geometry":{"type":"Point","coordinates":[8.1354,45.6465]},"properties":{"type":"pakketpunt","locatieNaam":"Ufficio Postale MOSSO","straatNaam":"VIA ROMA 45","straatNr":"","vervoerder":"Amazon","puntType":"3p","bezettingsgraad":50,"latitude":45.6465,"longitude":8.1354,"canPickup":true,"canDropoff":false,"openingstijden":null}},{"type":"Feature","geometry":{"type":"MultiPolygon","coordinates":[[[[8.0071071,45.7012802],[8.0077284,45.7028967],[8.0080755,45.7032688],[8.0079864,45.7035156],[8.0074842,45.7041277],[8.0074037,45.7043926],[8.0093264,45.7034957],[8.0102871,45.7032745],[8.011971,45.7034736],[8.0128844,45.7029909],[8.0139322,45.702757],[8.0172712,45.7028082],[8.019464,45.7027551],[8.0205991,45.7034984],[8.0220154,45.7040956],[8.0285901,45.7041516],[8.0321491,45.7054523],[8.0322525,45.7051233],[8.0326296,45.7048835],[8.0326274,45.7045459],[8.0329367,45.7039275],[8.0328915,45.7036616],[8.0329705,45.7032482],[8.032866,45.7030448],[8.0326972,45.7019408],[8.0322034,45.701059],[8.03219,45.7003929],[8.0321045,45.7002301],[8.031568,45.6997531],[8.0312186,45.698859],[8.0312284,45.698292],[8.031546,45.6978222],[8.0324648,45.6971459],[8.0326988,45.6967024],[8.0332697,45.6964642],[8.0341662,45.6964312],[8.0349434,45.6959113],[8.035372,45.6954244],[8.0358601,45.6951855],[8.0364297,45.6950237],[8.0366515,45.6948231],[8.0366661,45.6946027],[8.0363705,45.6944247],[8.0362123,45.6941488],[8.0362744,45.6939198],[8.0367132,45.693469],[8.0367162,45.6921774],[8.0368017,45.6917101],[8.0366923,45.6914616],[8.0367445,45.6911561],[8.0368638,45.6909906],[8.0374943,45.6906403],[8.0375403,45.6903887],[8.0373073,45.6899322],[8.0374736,45.6896006],[8.0386445,45.6891874],[8.0389795,45.6889877],[8.0389737,45.6888346],[8.0388013,45.6885857],[8.0389476,45.6881053],[8.0388439,45.6875554],[8.0393383,45.6872491],[8.0394628,45.6870791],[8.0397113,45.6861136],[8.0401773,45.6853839],[8.0404322,45.6846975],[8.0404212,45.6845219],[8.0398752,45.6843013],[8.0396785,45.6838316],[8.0397256,45.683544],[8.0400807,45.6831014],[8.040106,45.6829081],[8.0397644,45.6826847],[8.0393546,45.6822403],[8.0397936,45.6814699],[8.0397066,45.6812306],[8.0394554,45.6810395],[8.039536,45.6806936],[8.0393655,45.6801521],[8.0396267,45.6799203],[8.0410023,45.6794683],[8.0419681,45.6786034],[8.0425956,45.6782531],[8.0416629,45.6774892],[8.0405796,45.6763325],[8.0385948,45.6737731],[8.0370186,45.6723107],[8.0350259,45.6702237],[8.0346371,45.6700669],[8.0340062,45.6706111],[8.0313446,45.6720557],[8.0303358,45.6728302],[8.0295626,45.6732737],[8.0292083,45.6735767],[8.0290954,45.6737962],[8.0252567,45.6761398],[8.0247454,45.6762839],[8.0223014,45.67638],[8.0197659,45.6766329],[8.017569,45.6781486],[8.0166816,45.6788475],[8.0169264,45.6792862],[8.0172218,45.6801033],[8.017432,45.6809782],[8.0164034,45.6844931],[8.0168814,45.6857259],[8.018239,45.6880913],[8.0185377,45.6887239],[8.0185143,45.6889622],[8.0165633,45.6913261],[8.0154739,45.6922033],[8.0135056,45.6928884],[8.0123409,45.6936839],[8.0109255,45.6956339],[8.0106075,45.6962747],[8.0099607,45.6981502],[8.0093271,45.6992743],[8.0084226,45.7005311],[8.0071071,45.7012802]]],[[[8.076928,45.7187467],[8.0771582,45.7192976],[8.0776053,45.7196027],[8.0781084,45.7204618],[8.0783721,45.7209545],[8.0785401,45.7215319],[8.0785609,45.7220991],[8.0780884,45.7229684],[8.0779555,45.7235074],[8.0779301,45.7236827],[8.0780587,45.7241877],[8.0779775,45.7249297],[8.0778696,45.7251403],[8.0780255,45.7264287],[8.0784695,45.7275843],[8.0783165,45.7281997],[8.078512,45.7289348],[8.0784228,45.7294966],[8.079259,45.730795],[8.079086,45.7315946],[8.0795326,45.7319853],[8.0804365,45.7335857],[8.0806648,45.7343616],[8.0810321,45.7350846],[8.0823176,45.7365215],[8.0835861,45.7385614],[8.086246,45.7382452],[8.0874052,45.7384209],[8.0877426,45.7385946],[8.0882823,45.7387295],[8.0893703,45.7387606],[8.0903374,45.7384758],[8.0913619,45.7382905],[8.0923425,45.7379652],[8.0926599,45.7379813],[8.0931522,45.7381697],[8.0936591,45.7381962],[8.0940747,45.738078],[8.0943071,45.7378143],[8.0945082,45.7377259],[8.0949403,45.7378328],[8.0958099,45.7377137],[8.0955596,45.7370907],[8.0973319,45.7362676],[8.0977418,45.7357263],[8.0982377,45.7357392],[8.0983555,45.7358032],[8.0984229,45.7360872],[8.0985632,45.7361513],[8.0995892,45.7360199],[8.1000511,45.736046],[8.1012662,45.7357181],[8.1020675,45.7352969],[8.1026798,45.7347571],[8.1032676,45.7344197],[8.1034096,45.7341823],[8.1037531,45.7338745],[8.1042116,45.7330815],[8.1047953,45.731619],[8.1049432,45.7313861],[8.105424,45.7309628],[8.1054274,45.7307338],[8.1052508,45.7304491],[8.1063609,45.7297276],[8.1079823,45.7291957],[8.1089324,45.7287531],[8.1113467,45.7273948],[8.1119566,45.7269765],[8.1122581,45.7268573],[8.1131979,45.7267791],[8.1139555,45.7265402],[8.1113943,45.7255365],[8.1106681,45.7256928],[8.1083599,45.7249998],[8.107597,45.7239363],[8.1070752,45.7241707],[8.1052439,45.7222122],[8.1033387,45.7203926],[8.1023385,45.7191067],[8.1022765,45.7188182],[8.1023162,45.7185665],[8.1032702,45.7171383],[8.103625,45.7163715],[8.1038642,45.7155769],[8.1039217,45.7137906],[8.1038076,45.7128627],[8.1039059,45.7126384],[8.1043827,45.7121516],[8.105722,45.7112485],[8.1067443,45.710388],[8.1080171,45.7090208],[8.1084509,45.7084031],[8.1088003,45.7076363],[8.1090378,45.7067831],[8.1091977,45.7056682],[8.1094136,45.7051659],[8.1099296,45.7046793],[8.1100386,45.7044642],[8.1099884,45.7042883],[8.1102531,45.7035433],[8.1099632,45.7030685],[8.1100807,45.7027949],[8.1105294,45.7027219],[8.1107291,45.7025884],[8.1111431,45.7025556],[8.1112265,45.7024347],[8.1111947,45.702286],[8.1115869,45.7016275],[8.1117409,45.7010526],[8.1129238,45.6998692],[8.1132786,45.6997415],[8.114926,45.6997902],[8.1153625,45.6993526],[8.1159876,45.6990604],[8.1167953,45.6984996],[8.1180594,45.6974698],[8.1193461,45.6968136],[8.1195118,45.6962299],[8.1198693,45.6960121],[8.122306,45.6937356],[8.1227762,45.6934152],[8.1231853,45.6933284],[8.1237234,45.6933865],[8.1241569,45.6933358],[8.1255499,45.6924689],[8.1259304,45.6923413],[8.1272053,45.6921755],[8.1275885,45.6921785],[8.128097,45.6923084],[8.1283175,45.6924271],[8.127782,45.6929765],[8.127726,45.6933766],[8.1277278,45.6935432],[8.1279839,45.6937476],[8.1295203,45.6939889],[8.1320859,45.6939814],[8.1325993,45.6941068],[8.1331101,45.6943762],[8.1340948,45.6951262],[8.1344375,45.6951558],[8.1361629,45.6946153],[8.1376053,45.6946262],[8.1401732,45.6951271],[8.1427724,45.6958442],[8.1438171,45.695591],[8.1460074,45.6945633],[8.1473624,45.6941684],[8.1478124,45.6935552],[8.14848,45.6930967],[8.1491991,45.6928725],[8.1498461,45.6919682],[8.1502142,45.6912779],[8.1504468,45.6904696],[8.1504678,45.6890791],[8.1504519,45.6883274],[8.1502165,45.6874976],[8.1499881,45.6862223],[8.1501037,45.6858541],[8.1502754,45.6854324],[8.1510335,45.6844524],[8.1514525,45.6840505],[8.1531902,45.6819707],[8.1535816,45.6815866],[8.1551645,45.6806352],[8.158014,45.6796706],[8.1591473,45.6789904],[8.1595579,45.6786379],[8.1597539,45.6780363],[8.159997,45.6777456],[8.1600854,45.6773637],[8.1612818,45.6764859],[8.1620331,45.6761494],[8.1633328,45.6761994],[8.164158,45.6760749],[8.1649394,45.6758421],[8.1654006,45.675832],[8.1654072,45.6759265],[8.1659101,45.6756782],[8.1658498,45.6755247],[8.1657554,45.6755016],[8.1674888,45.6742541],[8.1671913,45.6738874],[8.1670621,45.6733464],[8.1671231,45.6729418],[8.1674712,45.6726563],[8.1670622,45.6723923],[8.1686162,45.6718186],[8.1690525,45.6718082],[8.1696614,45.6722492],[8.1698576,45.6722776],[8.1702543,45.6721995],[8.1706392,45.6722743],[8.1710641,45.6721109],[8.1722426,45.6721824],[8.1727434,45.6720375],[8.1733428,45.6720419],[8.1740637,45.6718311],[8.174197,45.6717645],[8.1745527,45.6713171],[8.1756956,45.6709698],[8.1763585,45.6709611],[8.1764556,45.6709033],[8.1765704,45.6706026],[8.1774398,45.6704536],[8.1776964,45.6698186],[8.1783318,45.6696612],[8.1787169,45.6696639],[8.1791819,45.6691407],[8.1804184,45.6690866],[8.1805724,45.6689797],[8.1805912,45.6688718],[8.1803203,45.6684108],[8.1803117,45.6683118],[8.1804184,45.6682585],[8.1810724,45.6682272],[8.1817025,45.6679617],[8.1834386,45.6675376],[8.1838503,45.667284],[8.1843441,45.667121],[8.184614,45.6666864],[8.1848355,45.6666025],[8.185067,45.6666806],[8.1851257,45.6668341],[8.1853906,45.6668983],[8.1868888,45.6668151],[8.1868614,45.6670174],[8.1869805,45.6672433],[8.1875429,45.6677964],[8.1876136,45.6677069],[8.1875731,45.6646598],[8.1879525,45.6642755],[8.1894329,45.6644345],[8.1909244,45.6625099],[8.1911882,45.6623047],[8.191286,45.6619724],[8.1915012,45.6617084],[8.1918643,45.6609774],[8.1921364,45.6607183],[8.1926058,45.6605461],[8.193455,45.6598995],[8.1944072,45.6581421],[8.1956802,45.6579035],[8.1958845,45.657752],[8.1964032,45.6567385],[8.1969724,45.656567],[8.1975113,45.6565528],[8.1977164,45.6570223],[8.1980936,45.6572904],[8.1980505,45.6573545],[8.1986933,45.657485],[8.1988681,45.6576973],[8.1989197,45.6579182],[8.1984301,45.6584179],[8.1978825,45.6587606],[8.1974899,45.6587803],[8.1977994,45.6593001],[8.1980519,45.6595674],[8.1983973,45.6596733],[8.1986381,45.6596975],[8.1991402,45.659395],[8.1996288,45.6589664],[8.1995401,45.6588577],[8.2001418,45.6583402],[8.2011326,45.6585718],[8.2017552,45.6589092],[8.2021825,45.6590382],[8.2038655,45.65905],[8.2060023,45.6592134],[8.2072946,45.6585698],[8.2078226,45.6581639],[8.2085526,45.658196],[8.209148,45.6580696],[8.2094341,45.657743],[8.2102234,45.6572129],[8.2115362,45.6566684],[8.2122472,45.6559398],[8.2122378,45.6558362],[8.2126652,45.6555331],[8.2129095,45.6544997],[8.2135318,45.6540225],[8.2142593,45.654005],[8.2140899,45.6536933],[8.2141009,45.6534503],[8.2147222,45.652964],[8.215363,45.6529144],[8.2156233,45.6528037],[8.2162797,45.6528397],[8.2163504,45.6526602],[8.2160198,45.6523789],[8.2157843,45.6516707],[8.215295,45.6513253],[8.2147703,45.6512137],[8.2146578,45.6511139],[8.214691,45.6503761],[8.2149893,45.6501261],[8.215018,45.6499643],[8.2146744,45.6495569],[8.2148095,45.6492743],[8.2151778,45.6488583],[8.2151707,45.6483218],[8.214871,45.6480596],[8.214998,45.6473449],[8.2142432,45.6459491],[8.2142633,45.6454857],[8.214441,45.6447938],[8.21397,45.6444621],[8.2143562,45.6440282],[8.2146452,45.6434631],[8.2146482,45.6432516],[8.2142635,45.6425964],[8.2143172,45.6424618],[8.2145656,45.6423285],[8.2145513,45.6421798],[8.2145047,45.642067],[8.2140177,45.6417666],[8.2138962,45.6413383],[8.213947,45.6411721],[8.2144789,45.6408472],[8.2146954,45.6405607],[8.2146227,45.6403712],[8.214115,45.6397961],[8.2141933,45.6393331],[8.2144465,45.6390603],[8.2141493,45.6387252],[8.2142292,45.6383118],[8.2138292,45.6376159],[8.2140619,45.637091],[8.2142436,45.6369707],[8.2141381,45.6364525],[8.2136327,45.6354049],[8.2132091,45.6351094],[8.2128739,45.6349946],[8.212912,45.6342208],[8.2130863,45.634114],[8.2130728,45.6333578],[8.2127947,45.6327753],[8.2126086,45.6321485],[8.2126666,45.6319284],[8.2129898,45.6315841],[8.2130189,45.6314493],[8.2130434,45.6308779],[8.21294,45.6302966],[8.2132342,45.6300466],[8.2129769,45.6296398],[8.2129879,45.6293969],[8.2127651,45.6284727],[8.2125629,45.6281968],[8.2125016,45.6279083],[8.2126456,45.6275583],[8.2125561,45.6272562],[8.2131916,45.626932],[8.2133119,45.6267843],[8.2135492,45.6267274],[8.2135594,45.62666],[8.2127413,45.6258488],[8.2123246,45.6257199],[8.2119032,45.625465],[8.2116874,45.62545],[8.2110603,45.6257472],[8.2101126,45.6258847],[8.208453,45.6258237],[8.2072279,45.6253966],[8.2067808,45.625407],[8.2064977,45.6254411],[8.2064043,45.6255844],[8.206203,45.625646],[8.2056352,45.6254846],[8.2050616,45.6257101],[8.204715,45.6257212],[8.2043476,45.6259122],[8.2041653,45.6259019],[8.2037108,45.6254667],[8.2034925,45.6254562],[8.2025138,45.6258715],[8.2012173,45.6265504],[8.2005556,45.6270423],[8.2001046,45.6275207],[8.1998152,45.6284413],[8.1991193,45.6287784],[8.1985151,45.6288687],[8.1982421,45.6290018],[8.1980037,45.6291621],[8.1977512,45.6294934],[8.1977494,45.6296239],[8.1978888,45.6297689],[8.1982512,45.6300009],[8.1980475,45.6306206],[8.1976147,45.6311126],[8.1975757,45.6316254],[8.1982049,45.6321203],[8.1980683,45.6328394],[8.1984026,45.6338859],[8.1983953,45.6343989],[8.1983602,45.6346417],[8.1979099,45.6349535],[8.1971431,45.6351912],[8.1971699,45.6355289],[8.1970348,45.6360635],[8.1966469,45.6362993],[8.1964402,45.6362843],[8.1957587,45.63614],[8.1955655,45.6359946],[8.1947462,45.6357234],[8.1942207,45.6358502],[8.1941982,45.6360255],[8.193594,45.6365523],[8.1934848,45.6367856],[8.1931049,45.6369404],[8.1932916,45.6373107],[8.1933294,45.6378061],[8.1928913,45.6383835],[8.192303,45.6383074],[8.1922584,45.6386491],[8.1921088,45.638954],[8.1916058,45.639135],[8.1912209,45.6388802],[8.1911486,45.6393073],[8.1907691,45.6394036],[8.1903874,45.6396799],[8.1898496,45.6397436],[8.1894937,45.6395881],[8.1892672,45.6396675],[8.1890044,45.6395171],[8.1886309,45.6396945],[8.1884761,45.6399454],[8.1879133,45.6397929],[8.1873627,45.639825],[8.1873073,45.6399956],[8.186675,45.6401576],[8.1859548,45.6404675],[8.1856359,45.6405282],[8.185386,45.6403689],[8.1850721,45.6405287],[8.1850172,45.6406633],[8.1848041,45.6407338],[8.1831734,45.6407267],[8.1825828,45.6407764],[8.1824221,45.6408788],[8.1814009,45.6409255],[8.1812341,45.6409783],[8.1809354,45.6414712],[8.1805618,45.6416306],[8.1804731,45.6417964],[8.1803265,45.6418719],[8.1790894,45.6421465],[8.17821,45.6426127],[8.177787,45.6427177],[8.1759112,45.6429607],[8.1755726,45.6431338],[8.1757104,45.6434453],[8.1753549,45.6435373],[8.1747617,45.643137],[8.1739321,45.6423704],[8.1739198,45.6422533],[8.1746966,45.6410168],[8.1740871,45.6404273],[8.1734838,45.6406255],[8.1727296,45.6405345],[8.1729116,45.6400498],[8.1726036,45.639647],[8.1722034,45.6394821],[8.1719226,45.6396781],[8.1716513,45.6396941],[8.1705482,45.6393441],[8.1703854,45.6395049],[8.1703221,45.6399365],[8.1700502,45.64002],[8.1695942,45.6397557],[8.169774,45.6394195],[8.1694889,45.6391744],[8.1687927,45.6390208],[8.1683757,45.6387747],[8.1679594,45.6387267],[8.1671563,45.6383158],[8.1665175,45.6381041],[8.166522,45.6377981],[8.1659856,45.6359805],[8.1662226,45.6349787],[8.1662067,45.6345105],[8.1665474,45.6343262],[8.1665873,45.6337482],[8.1668719,45.6331292],[8.1668742,45.6328952],[8.1667758,45.6327955],[8.1669401,45.6322499],[8.1667323,45.6321606],[8.166501,45.6322129],[8.1661009,45.631967],[8.1654942,45.631247],[8.1654399,45.6309315],[8.1651562,45.6306009],[8.1644163,45.6300735],[8.1644685,45.6296598],[8.1648706,45.6290417],[8.1652405,45.6287789],[8.165487,45.6281371],[8.1654869,45.6259026],[8.1653246,45.6257912],[8.1652807,45.6255884],[8.1648961,45.6255135],[8.1649431,45.6257547],[8.1645827,45.6258308],[8.1640849,45.6261512],[8.1639453,45.6261592],[8.1634315,45.6259844],[8.1630228,45.6257024],[8.1625558,45.6248439],[8.1621597,45.6244899],[8.1617897,45.6236591],[8.1613925,45.6233862],[8.1611772,45.622822],[8.1607231,45.6223866],[8.1598112,45.6212278],[8.1597674,45.6197064],[8.1598819,45.6189916],[8.1599918,45.6187494],[8.1602671,45.6186164],[8.1601599,45.6183344],[8.1603124,45.6178922],[8.1605976,45.6176378],[8.1607119,45.6174181],[8.1616705,45.6166195],[8.1616371,45.6159037],[8.16085,45.61606],[8.1589453,45.6169348],[8.1586379,45.6173443],[8.1581257,45.6187627],[8.1575266,45.6194918],[8.1573221,45.6193733],[8.15644,45.620018],[8.1556388,45.6204005],[8.1550572,45.6206122],[8.1542876,45.620719],[8.1536132,45.6210201],[8.1533623,45.6212612],[8.152751,45.6221388],[8.1534975,45.6222118],[8.1533609,45.6226024],[8.1531769,45.6229745],[8.1526051,45.6234428],[8.1519304,45.6238204],[8.1515533,45.6241821],[8.1505236,45.6238819],[8.1500871,45.6241712],[8.1498684,45.6243721],[8.1495313,45.6252427],[8.1480296,45.6272297],[8.1478546,45.6277144],[8.1463236,45.6287696],[8.1456284,45.6304071],[8.1448748,45.6301674],[8.1445898,45.6303993],[8.144245,45.6302392],[8.1441049,45.6300176],[8.1438553,45.6302408],[8.1423151,45.6297072],[8.1415646,45.629706],[8.1410555,45.6293917],[8.1398872,45.6294954],[8.1395012,45.629623],[8.1380372,45.6290944],[8.1377755,45.6290879],[8.1373627,45.6292333],[8.1364243,45.6300633],[8.135675,45.6301432],[8.1350197,45.6307008],[8.1344707,45.6308676],[8.1336455,45.6303798],[8.1335637,45.6302487],[8.1336223,45.6299611],[8.1334599,45.6299374],[8.1322521,45.6307293],[8.1328167,45.6311656],[8.1336401,45.6315859],[8.1319041,45.6325763],[8.1314251,45.6329327],[8.1303322,45.6341485],[8.1301715,45.6341698],[8.1286165,45.6339464],[8.1264754,45.6339751],[8.1257628,45.6337491],[8.1256039,45.6334205],[8.1257304,45.6326913],[8.125697,45.632439],[8.1259443,45.6323958],[8.1256262,45.6317319],[8.1253883,45.6317435],[8.1249984,45.6319633],[8.1246796,45.6319406],[8.1237188,45.6315417],[8.1233024,45.631759],[8.123417,45.6318454],[8.1234005,45.6319983],[8.1235802,45.6321482],[8.1233807,45.6323942],[8.1234357,45.6324711],[8.1240313,45.6324802],[8.1243846,45.6326809],[8.1244901,45.6328573],[8.124632,45.6333489],[8.1246068,45.6339878],[8.1248031,45.6346193],[8.125358,45.6353167],[8.1255646,45.6354892],[8.1261224,45.635453],[8.1262881,45.6359898],[8.1266381,45.6365641],[8.1267568,45.6366415],[8.1270915,45.6368016],[8.1276924,45.6366126],[8.127911,45.6368168],[8.1281867,45.6369179],[8.1287126,45.637678],[8.1291516,45.6380459],[8.1282983,45.6383589],[8.1282262,45.6384529],[8.1282686,45.6387232],[8.1285937,45.6389327],[8.1286427,45.6390546],[8.128399,45.6394128],[8.1271157,45.6403796],[8.1265576,45.6410729],[8.1252691,45.6415671],[8.1246518,45.6420169],[8.12368,45.6424685],[8.1223217,45.6432411],[8.1221906,45.6433661],[8.1220968,45.6436264],[8.1218266,45.6438224],[8.1215433,45.6442207],[8.1211141,45.6443075],[8.1204167,45.6446171],[8.1199405,45.6450365],[8.1195873,45.6452363],[8.119207,45.6456294],[8.1176419,45.6463644],[8.117133,45.6467205],[8.1167128,45.6471718],[8.1162593,45.6478838],[8.1156578,45.6482347],[8.114814,45.6485657],[8.1141519,45.6491501],[8.1135951,45.6493618],[8.1127586,45.6494093],[8.1123536,45.6495097],[8.1112237,45.6500455],[8.1105369,45.6501346],[8.1091193,45.6507739],[8.1088786,45.6510668],[8.1087299,45.6514392],[8.1087665,45.65184],[8.109094,45.6523556],[8.1091097,45.6525267],[8.1087452,45.6546256],[8.1080358,45.6558037],[8.1081647,45.6566508],[8.1080446,45.6574689],[8.1077944,45.657917],[8.1074286,45.6582697],[8.1053226,45.6591848],[8.1011369,45.6614921],[8.0998243,45.6626519],[8.0994805,45.6630542],[8.0990165,45.6632936],[8.0977953,45.6646206],[8.0975432,45.6645376],[8.0971327,45.6646424],[8.0965956,45.6644671],[8.0960244,45.6644581],[8.0951291,45.6647255],[8.0946585,45.6646813],[8.0943724,45.6645395],[8.093335,45.6648598],[8.0930578,45.6648126],[8.091336,45.6653075],[8.0905546,45.6653508],[8.0901229,45.6654823],[8.088568,45.6660235],[8.0877285,45.6666063],[8.0877983,45.6663324],[8.0864073,45.6670548],[8.0857551,45.6677922],[8.085196,45.6682467],[8.0841599,45.6695886],[8.083812,45.6702068],[8.0835513,45.6709158],[8.0838252,45.6715661],[8.0848279,45.6722762],[8.0856341,45.6730297],[8.0858252,45.6733192],[8.0858357,45.6738279],[8.0859498,45.6740673],[8.0859515,45.6742833],[8.0857239,45.6748576],[8.0893334,45.6782167],[8.0894927,45.678587],[8.0893902,45.6796618],[8.0889546,45.6810624],[8.0886161,45.6817663],[8.0884838,45.6823278],[8.0885013,45.682562],[8.0887618,45.6830276],[8.0886957,45.6850927],[8.0887553,45.6860968],[8.0889299,45.6865167],[8.0893695,45.6868533],[8.0895149,45.6871379],[8.0892481,45.6880764],[8.0891478,45.6896282],[8.0892065,45.6899977],[8.0893542,45.690467],[8.0900299,45.6917595],[8.09009,45.6920165],[8.0895339,45.6929211],[8.0893162,45.6934729],[8.08929,45.6937517],[8.0899717,45.6956473],[8.0910272,45.6979869],[8.0916137,45.6990492],[8.092079,45.6995614],[8.0929355,45.7009364],[8.0924511,45.701054],[8.0914335,45.7008029],[8.0901514,45.7012742],[8.0905749,45.7015701],[8.0908,45.702049],[8.0907782,45.7025213],[8.0901598,45.703007],[8.0873111,45.7040508],[8.0865394,45.7045982],[8.0863172,45.7052265],[8.086007,45.7053185],[8.0858382,45.7055017],[8.0859022,45.7058127],[8.0858444,45.7063793],[8.08548,45.7068354],[8.0852647,45.7073152],[8.0847338,45.7079366],[8.0848129,45.7083062],[8.0859155,45.7088146],[8.0862582,45.7091414],[8.0863235,45.7095199],[8.0862052,45.7099825],[8.0858364,45.7102676],[8.0853684,45.7104303],[8.084892,45.7108136],[8.0840658,45.7111535],[8.0830902,45.7113482],[8.0827554,45.7115705],[8.0824632,45.7120047],[8.0822793,45.7124937],[8.0818602,45.7130304],[8.0813782,45.7134136],[8.0812135,45.7138578],[8.0810061,45.7141171],[8.0807727,45.7143248],[8.0801224,45.7146051],[8.0797833,45.7151019],[8.0795896,45.7152353],[8.0787456,45.7154806],[8.0787405,45.7156695],[8.0790082,45.7161172],[8.0791059,45.716478],[8.0789649,45.7170665],[8.0787222,45.7176136],[8.078218,45.717848],[8.077525,45.7185265],[8.076928,45.7187467]]]]},"properties":{"type":"boundary","gemeente":"Valdilana"}}]}