{"type":"FeatureCollection","metadata":{"gemeente":"Valvestino","slug":"valvestino","generated_at":"2026-09-26T13:10:53.259641Z","total_points":1,"providers":["PosteItaliane"],"bounds":[10.59393871,45.76220152,10.59393871,45.76220152]},"features":[{"type":"Feature","geometry":{"type":"Point","coordinates":[10.59393871,45.76220152]},"properties":{"type":"pakketpunt","locatieNaam":"Valvestino","straatNaam":"Via Provinciale","straatNr":"1","vervoerder":"PosteItaliane","puntType":"postkantoor","bezettingsgraad":50,"latitude":45.76220152,"longitude":10.59393871,"canPickup":true,"canDropoff":true,"openingstijden":{"za":"gesloten","zo":"gesloten","ma":"08:20 - 13:45","di":"gesloten","wo":"08:20 - 13:45","do":"gesloten","vr":"08:20 - 13:45"}}},{"type":"Feature","geometry":{"type":"Polygon","coordinates":[[[10.5456583,45.7846837],[10.5496118,45.7804918],[10.5515194,45.7778467],[10.5525762,45.7760682],[10.5478437,45.7747105],[10.5474273,45.7745361],[10.5476742,45.7741637],[10.5486727,45.7730611],[10.5508713,45.7702501],[10.5515253,45.7697191],[10.5533071,45.7685788],[10.5552346,45.7680575],[10.557779,45.7670598],[10.5582713,45.766729],[10.5596098,45.7653786],[10.5612978,45.7631954],[10.5663947,45.7573832],[10.5670104,45.7564117],[10.5682468,45.7537305],[10.5693142,45.7519067],[10.5695264,45.7512197],[10.5700142,45.7503355],[10.5703102,45.7489138],[10.5701343,45.7435609],[10.5701408,45.7424177],[10.5702783,45.7418218],[10.5696341,45.7417676],[10.5692082,45.7407924],[10.5679492,45.7389826],[10.5664794,45.7374457],[10.5648673,45.7363337],[10.5636125,45.7351268],[10.5630507,45.7343425],[10.5630203,45.7341719],[10.563408,45.7333295],[10.5629972,45.7324261],[10.5632092,45.7312711],[10.5634916,45.7307992],[10.5639035,45.7303615],[10.5643824,45.7300219],[10.5652548,45.7295059],[10.5658133,45.7292908],[10.5659797,45.7287355],[10.5660951,45.7285819],[10.5665349,45.728303],[10.5668515,45.7279451],[10.5672735,45.7277051],[10.5684465,45.7274137],[10.5708142,45.7265424],[10.5711816,45.7261547],[10.5718889,45.7259315],[10.5721972,45.7259273],[10.5734473,45.7265671],[10.5742338,45.7271143],[10.5756452,45.7274368],[10.5763193,45.7276673],[10.5779241,45.7275853],[10.5792514,45.727711],[10.5809728,45.7285962],[10.5815834,45.7288308],[10.5831548,45.729862],[10.5852039,45.7309677],[10.5884582,45.7315164],[10.589581,45.7321309],[10.5899037,45.7321804],[10.5921753,45.7329677],[10.593818,45.7328818],[10.5951855,45.7326107],[10.5978804,45.732465],[10.6002175,45.7325843],[10.6011053,45.7325244],[10.6023713,45.7329709],[10.6045104,45.7334043],[10.6051795,45.7336525],[10.6051247,45.7342066],[10.6052843,45.7346035],[10.6049235,45.7353936],[10.6049462,45.7356754],[10.605174,45.7357975],[10.6051856,45.7361525],[10.6059606,45.7365833],[10.6060526,45.7369567],[10.6061718,45.7370804],[10.6076231,45.737228],[10.6081969,45.7371395],[10.6090231,45.7368042],[10.609325,45.7367999],[10.6097617,45.7373473],[10.6098299,45.737978],[10.6099215,45.7380735],[10.6102631,45.7380783],[10.6108297,45.7379443],[10.6124941,45.738636],[10.6133849,45.7386327],[10.6138765,45.7390758],[10.614166,45.7391392],[10.6149926,45.7390555],[10.6159681,45.7396717],[10.6167814,45.7398492],[10.6171211,45.7402044],[10.6172138,45.7404101],[10.6180462,45.7412153],[10.6191143,45.7417873],[10.6216223,45.7419452],[10.6223458,45.7418983],[10.6229167,45.7417684],[10.6239874,45.7417618],[10.6241139,45.7418792],[10.6243639,45.7425092],[10.6248376,45.7427725],[10.6250842,45.7432415],[10.6255201,45.7436448],[10.6263918,45.7441139],[10.626553,45.7442962],[10.626679,45.7446499],[10.6269406,45.7448622],[10.6273334,45.7449421],[10.6282693,45.7448522],[10.6287383,45.74512],[10.6287727,45.7454751],[10.6289083,45.7456622],[10.6312644,45.7461145],[10.6318019,45.7463049],[10.632121,45.7469978],[10.6333645,45.7480871],[10.6351319,45.7484083],[10.6359695,45.7492424],[10.6365727,45.7496477],[10.6386452,45.7503921],[10.6410269,45.7513794],[10.6416831,45.7517795],[10.6418754,45.7520332],[10.6420459,45.7524763],[10.6427868,45.7525871],[10.643041,45.752705],[10.6436331,45.75262],[10.6439356,45.7529036],[10.6441235,45.7529549],[10.6452637,45.752979],[10.6452307,45.7531145],[10.6448614,45.7534528],[10.6454227,45.7539038],[10.6455706,45.7542886],[10.6452048,45.7543659],[10.6446001,45.7547887],[10.644281,45.7553063],[10.6441987,45.7555685],[10.644042,45.7576769],[10.6436452,45.7590507],[10.6432234,45.7600108],[10.6430862,45.7614709],[10.6425667,45.7621714],[10.64212,45.7622859],[10.6415117,45.7625916],[10.6408472,45.7627362],[10.6401297,45.7623865],[10.6396256,45.7627358],[10.6392809,45.7628217],[10.6386633,45.7628126],[10.6379768,45.7626424],[10.6370815,45.7628083],[10.6363682,45.7626025],[10.6358802,45.7621865],[10.6350767,45.762414],[10.6340109,45.7624653],[10.63339,45.7627802],[10.6330036,45.7627587],[10.6328346,45.7626981],[10.6325298,45.7623875],[10.6318952,45.7622346],[10.6316581,45.7620399],[10.6315849,45.761735],[10.6316292,45.7614913],[10.6317761,45.7612372],[10.632114,45.7609173],[10.6314075,45.7605044],[10.6310613,45.7600953],[10.6304967,45.7601394],[10.6294461,45.7607125],[10.628676,45.7607595],[10.6280265,45.7605347],[10.6271755,45.7608979],[10.6268297,45.7609478],[10.6266217,45.7608698],[10.6258136,45.7600532],[10.6251011,45.7598744],[10.6245146,45.7596037],[10.623936,45.7596029],[10.6225546,45.7598566],[10.6224525,45.759885],[10.6219368,45.7616115],[10.6196184,45.7637056],[10.6196805,45.7640737],[10.6200967,45.7651209],[10.6200458,45.7664717],[10.6203174,45.7669718],[10.6201877,45.7678197],[10.6204054,45.7682307],[10.6160019,45.7693912],[10.6155765,45.7698022],[10.6151528,45.7698262],[10.6142874,45.7701445],[10.6128757,45.770181],[10.6126515,45.7699471],[10.6122621,45.7698761],[10.6117991,45.7695991],[10.6116474,45.769416],[10.610968,45.7690979],[10.6095685,45.7687351],[10.6090664,45.7687152],[10.6084238,45.7685082],[10.6080261,45.7684868],[10.6077539,45.7683016],[10.6072554,45.7682952],[10.6065939,45.7679466],[10.6061192,45.7678377],[10.6052405,45.7672809],[10.6048383,45.7665291],[10.6040852,45.7664451],[10.6024135,45.7664506],[10.6018551,45.7662605],[10.601763,45.7666398],[10.6009704,45.767704],[10.601242,45.7686542],[10.6008599,45.7692356],[10.6010502,45.769593],[10.6014732,45.7699921],[10.6019285,45.7703412],[10.6030834,45.7709775],[10.6042933,45.7719056],[10.6044404,45.7721015],[10.6045359,45.7731892],[10.6043929,45.7749284],[10.6048731,45.7764247],[10.6049738,45.7772423],[10.6066688,45.7793786],[10.6064917,45.7799301],[10.6063538,45.7800581],[10.6046857,45.7806486],[10.6042174,45.7809162],[10.6037098,45.7816074],[10.6034707,45.7822408],[10.6037233,45.7825252],[10.6060396,45.7838967],[10.6086761,45.7856597],[10.609429,45.7863421],[10.61028,45.7868522],[10.6118542,45.78746],[10.6146,45.7880962],[10.6147081,45.7882747],[10.6148071,45.7890293],[10.6129053,45.7900013],[10.6124907,45.7903492],[10.6125689,45.7912751],[10.6123434,45.7923764],[10.6124546,45.7926628],[10.6129742,45.7928355],[10.614722,45.7927657],[10.6146149,45.7930643],[10.6143732,45.7936077],[10.614196,45.7937092],[10.6126915,45.7937395],[10.6122959,45.7938531],[10.6123767,45.793978],[10.6125455,45.7940296],[10.613604,45.7941496],[10.6137496,45.7942916],[10.6136751,45.7943827],[10.613317,45.7944597],[10.6133335,45.7945855],[10.6144204,45.7947951],[10.6147235,45.7950429],[10.6147418,45.7952316],[10.613869,45.795307],[10.6100289,45.7960003],[10.6094214,45.7963508],[10.6091449,45.7965798],[10.6089129,45.7970151],[10.6087133,45.7981249],[10.6087922,45.7992608],[10.6073593,45.7993681],[10.6043955,45.7999798],[10.6029325,45.7984756],[10.6022265,45.7980722],[10.6015088,45.797841],[10.6012456,45.7979149],[10.5979323,45.7996567],[10.597429,45.7996111],[10.5958482,45.7992495],[10.5943156,45.7988145],[10.5939808,45.7991452],[10.5930477,45.7988648],[10.5923309,45.798624],[10.5910897,45.7978438],[10.5903445,45.7976135],[10.5876465,45.7970441],[10.5868133,45.7967447],[10.5849491,45.7957374],[10.5843382,45.7951841],[10.583992,45.7951889],[10.5831857,45.7945128],[10.5828119,45.7943316],[10.5823835,45.7939089],[10.5819922,45.7933706],[10.5813684,45.7918472],[10.5811695,45.7911528],[10.5811087,45.7905241],[10.5808411,45.7896802],[10.5807026,45.7893485],[10.5804084,45.7890868],[10.5778839,45.7880433],[10.5750946,45.7873343],[10.5741456,45.7869188],[10.5708347,45.785908],[10.5694292,45.7856821],[10.5669838,45.7855671],[10.5660756,45.7853282],[10.5647834,45.7848589],[10.5632939,45.7840799],[10.5622721,45.7838024],[10.5609004,45.7837117],[10.5596373,45.7837803],[10.5571131,45.7842509],[10.5556128,45.7843218],[10.553896,45.7841593],[10.5505194,45.783621],[10.5500992,45.7840912],[10.5497772,45.7843254],[10.54861,45.7848278],[10.5475247,45.7847545],[10.5468379,45.7844362],[10.5456583,45.7846837]]]},"properties":{"type":"boundary","gemeente":"Valvestino"}}]}