{"type":"FeatureCollection","metadata":{"gemeente":"Vedano Olona","slug":"vedano-olona","generated_at":"2026-09-26T13:10:53.613094Z","total_points":11,"providers":["PosteItaliane","DPD","InPost","DHL","Amazon"],"bounds":[8.8792148,45.775217,8.886973,45.777478]},"features":[{"type":"Feature","geometry":{"type":"Point","coordinates":[8.88611176,45.77717699]},"properties":{"type":"pakketpunt","locatieNaam":"Tabaccheria N. 3","straatNaam":"Piazza San Rocco","straatNr":"2","vervoerder":"PosteItaliane","puntType":"servicepunt","bezettingsgraad":50,"latitude":45.77717699,"longitude":8.88611176,"canPickup":true,"canDropoff":true,"openingstijden":{"za":"05:30 - 12:30, 14:00 - 19:30","zo":"05:30 - 12:00","ma":"05:30 - 12:30, 14:00 - 19:30","di":"05:30 - 12:30, 14:00 - 19:30","wo":"05:30 - 12:30, 14:00 - 19:30","do":"05:30 - 12:30, 14:00 - 19:30","vr":"05:30 - 12:30, 14:00 - 19:30"}}},{"type":"Feature","geometry":{"type":"Point","coordinates":[8.8833625,45.77647688]},"properties":{"type":"pakketpunt","locatieNaam":"Vedano Olona","straatNaam":"Via Sirtori","straatNr":"1","vervoerder":"PosteItaliane","puntType":"postkantoor","bezettingsgraad":50,"latitude":45.77647688,"longitude":8.8833625,"canPickup":true,"canDropoff":true,"openingstijden":{"ma":"gesloten","di":"gesloten","wo":"gesloten","do":"gesloten","vr":"gesloten","za":"gesloten","zo":"gesloten"}}},{"type":"Feature","geometry":{"type":"Point","coordinates":[8.88253568,45.77671679]},"properties":{"type":"pakketpunt","locatieNaam":"Tabaccheria N. 1","straatNaam":"Piazza San Maurizio","straatNr":"2","vervoerder":"PosteItaliane","puntType":"servicepunt","bezettingsgraad":50,"latitude":45.77671679,"longitude":8.88253568,"canPickup":true,"canDropoff":true,"openingstijden":{"za":"07:30 - 19:00","zo":"gesloten","ma":"07:30 - 12:30","di":"07:30 - 19:00","wo":"07:30 - 19:00","do":"07:30 - 19:00","vr":"07:30 - 19:00"}}},{"type":"Feature","geometry":{"type":"Point","coordinates":[8.87925903,45.77521748]},"properties":{"type":"pakketpunt","locatieNaam":"O Lava... O L'asciuga","straatNaam":"Via Papa Innocenzo Xi","straatNr":"19","vervoerder":"PosteItaliane","puntType":"automaat","bezettingsgraad":50,"latitude":45.77521748,"longitude":8.87925903,"canPickup":true,"canDropoff":true,"openingstijden":{"za":"07:00 - 22:00","zo":"07:00 - 22:00","ma":"07:00 - 22:00","di":"07:00 - 22:00","wo":"07:00 - 22:00","do":"07:00 - 22:00","vr":"07:00 - 22:00"}}},{"type":"Feature","geometry":{"type":"Point","coordinates":[8.885956,45.775615]},"properties":{"type":"pakketpunt","locatieNaam":"Auxilia.vos","straatNaam":"VIA I MAGGIO","straatNr":"5","vervoerder":"DPD","puntType":"pickup_point","bezettingsgraad":50,"latitude":45.775615,"longitude":8.885956,"canPickup":true,"canDropoff":true,"openingstijden":{"ma":"09:00 - 12:30, 15:30 - 19:00","di":"09:00 - 12:30, 15:30 - 19:00","wo":"09:00 - 12:30, 15:30 - 19:00","do":"09:00 - 12:30, 15:30 - 19:00","vr":"09:00 - 12:30, 15:30 - 19:00","za":"gesloten","zo":"gesloten"}}},{"type":"Feature","geometry":{"type":"Point","coordinates":[8.88676,45.77724]},"properties":{"type":"pakketpunt","locatieNaam":"InPost Point","straatNaam":"Piazza Trento e Trieste","straatNr":"1","vervoerder":"InPost","puntType":"servicepunt","bezettingsgraad":50,"latitude":45.77724,"longitude":8.88676,"canPickup":true,"canDropoff":true,"openingstijden":"Lun-Sab: 07:00 - 20:00 Dom: 08:00 - 13:00 - 15:00 - 20:00"}},{"type":"Feature","geometry":{"type":"Point","coordinates":[8.886112,45.777177]},"properties":{"type":"pakketpunt","locatieNaam":"TABACCHERIA N. 3","straatNaam":"PIAZZA SAN ROCCO 2","straatNr":"","vervoerder":"DHL","puntType":"parcelShop","bezettingsgraad":50,"latitude":45.777177,"longitude":8.886112,"canPickup":true,"canDropoff":true,"openingstijden":{"ma":"05:30 - 12:30, 14:00 - 19:30","di":"05:30 - 12:30, 14:00 - 19:30","wo":"05:30 - 12:30, 14:00 - 19:30","do":"05:30 - 12:30, 14:00 - 19:30","vr":"05:30 - 12:30, 14:00 - 19:30","za":"05:30 - 12:30, 14:00 - 19:30","zo":"05:30 - 12:00"}}},{"type":"Feature","geometry":{"type":"Point","coordinates":[8.882536,45.776717]},"properties":{"type":"pakketpunt","locatieNaam":"TABACCHERIA N. 1","straatNaam":"PIAZZA SAN MAURIZIO 2","straatNr":"","vervoerder":"DHL","puntType":"parcelShop","bezettingsgraad":50,"latitude":45.776717,"longitude":8.882536,"canPickup":true,"canDropoff":true,"openingstijden":{"ma":"07:30 - 12:30","di":"07:30 - 19:00","wo":"07:30 - 19:00","do":"07:30 - 19:00","vr":"07:30 - 19:00","za":"07:30 - 19:00","zo":"gesloten"}}},{"type":"Feature","geometry":{"type":"Point","coordinates":[8.879259,45.775217]},"properties":{"type":"pakketpunt","locatieNaam":"O LAVA... O L'ASCIUGA","straatNaam":"VIA PAPA INNOCENZO XI 19","straatNr":"","vervoerder":"DHL","puntType":"packStation","bezettingsgraad":50,"latitude":45.775217,"longitude":8.879259,"canPickup":true,"canDropoff":true,"openingstijden":{"ma":"07:00 - 22:00","di":"07:00 - 22:00","wo":"07:00 - 22:00","do":"07:00 - 22:00","vr":"07:00 - 22:00","za":"07:00 - 22:00","zo":"07:00 - 22:00"}}},{"type":"Feature","geometry":{"type":"Point","coordinates":[8.886973,45.777478]},"properties":{"type":"pakketpunt","locatieNaam":"Amazon Locker - lavina","straatNaam":"Ferrovienord / Vedano Olona","straatNr":"","vervoerder":"Amazon","puntType":"locker","bezettingsgraad":50,"latitude":45.777478,"longitude":8.886973,"canPickup":true,"canDropoff":false,"openingstijden":null}},{"type":"Feature","geometry":{"type":"Point","coordinates":[8.8792148,45.7753037]},"properties":{"type":"pakketpunt","locatieNaam":"Amazon Locker - otelmo","straatNaam":"O LA VA' O L'ASCIUGA","straatNr":"","vervoerder":"Amazon","puntType":"locker","bezettingsgraad":50,"latitude":45.7753037,"longitude":8.8792148,"canPickup":true,"canDropoff":false,"openingstijden":null}},{"type":"Feature","geometry":{"type":"Polygon","coordinates":[[[8.8673497,45.7838621],[8.8683138,45.7837222],[8.8684023,45.7838427],[8.8684808,45.7838081],[8.8701214,45.7820135],[8.8712969,45.7825571],[8.8713002,45.7830494],[8.8723149,45.7828758],[8.8728404,45.7828705],[8.8766496,45.7833133],[8.8765141,45.7841553],[8.8813587,45.7848595],[8.881629,45.7841674],[8.8863877,45.7855515],[8.8866462,45.7855711],[8.8868974,45.7850459],[8.8885376,45.7855406],[8.8882093,45.7862313],[8.8887976,45.7863752],[8.8890593,45.7861016],[8.8906064,45.7864966],[8.8909758,45.7868052],[8.8918657,45.7864388],[8.8923505,45.7863884],[8.8930261,45.7866581],[8.893793,45.7866392],[8.8942846,45.7867885],[8.8950041,45.7868035],[8.8953712,45.7867355],[8.8955509,45.786618],[8.8960754,45.78666],[8.896618,45.7862386],[8.8970836,45.7863277],[8.8974897,45.786235],[8.8979689,45.7862815],[8.898552,45.7861815],[8.8992236,45.7864127],[8.8994114,45.7861959],[8.8986385,45.7857784],[8.8992738,45.7850485],[8.9000451,45.7855284],[8.9008277,45.7850104],[8.9008713,45.7850517],[8.9015888,45.7847115],[8.9013404,45.7844498],[8.9026548,45.7838682],[8.9020517,45.7830295],[8.9020483,45.7829198],[8.902538,45.7822106],[8.9037742,45.7825634],[8.9041585,45.7819562],[8.9034489,45.7817336],[8.9038066,45.781057],[8.9030139,45.7809004],[8.9035697,45.7797599],[8.9033178,45.779712],[8.9036927,45.7788555],[8.9059829,45.7791536],[8.9076129,45.7764804],[8.9079569,45.7765046],[8.9090485,45.7746153],[8.9080505,45.7743625],[8.9085849,45.7735628],[8.9070775,45.7734159],[8.906166,45.7732027],[8.9064756,45.7717437],[8.9061359,45.7715989],[8.9081075,45.7681785],[8.9064035,45.7681364],[8.9064361,45.7676978],[8.9050918,45.7676425],[8.9050674,45.7677517],[8.9034406,45.7678276],[8.9030099,45.7674457],[8.9041806,45.7667153],[8.9027518,45.7650091],[8.9020191,45.764507],[8.9015693,45.7643372],[8.9009029,45.7651604],[8.8997988,45.7655223],[8.8989004,45.7656399],[8.898271,45.7647245],[8.8977311,45.7644447],[8.8971307,45.7643138],[8.8962818,45.7642759],[8.8964133,45.7637852],[8.8953361,45.7638063],[8.8952484,45.7632236],[8.8953845,45.7626596],[8.8952439,45.7623669],[8.8950353,45.7621595],[8.8943793,45.7618868],[8.8941595,45.7617086],[8.8896751,45.7612092],[8.8894277,45.7601159],[8.8885808,45.7590657],[8.8873839,45.7578776],[8.8870791,45.7568911],[8.8871155,45.7562961],[8.8870296,45.7559264],[8.8869166,45.7556969],[8.8863333,45.755348],[8.8862723,45.7551591],[8.8846158,45.7552244],[8.882558,45.7551848],[8.8825786,45.7548457],[8.8814075,45.7546194],[8.8812488,45.7551398],[8.8815436,45.7556017],[8.8814874,45.7564174],[8.8811652,45.7574825],[8.8806429,45.7587222],[8.8806088,45.7590591],[8.8806585,45.7597841],[8.8808314,45.7603775],[8.8790358,45.7604865],[8.8790826,45.7608631],[8.8783606,45.760935],[8.8785898,45.7615791],[8.8786307,45.7622527],[8.8788728,45.7630492],[8.8789604,45.7636492],[8.878551,45.7636719],[8.8779619,45.7622581],[8.8771613,45.7629399],[8.8767777,45.7638036],[8.8763894,45.7637544],[8.8752646,45.7638886],[8.8738851,45.763865],[8.8738819,45.7640429],[8.8737221,45.7641718],[8.8730569,45.7642454],[8.8730579,45.7649041],[8.8703559,45.7645381],[8.8693191,45.7643046],[8.8688461,45.7640754],[8.867859,45.7643229],[8.8675686,45.7646182],[8.8678339,45.7650103],[8.8686368,45.7656934],[8.8689487,45.7664017],[8.8689606,45.7666819],[8.868556,45.7664523],[8.8676247,45.7670697],[8.8681489,45.7678744],[8.870008,45.7684673],[8.8706629,45.7689001],[8.8713303,45.7695038],[8.8717018,45.7701433],[8.871855,45.7706205],[8.8718923,45.7711966],[8.871698,45.7718129],[8.8714138,45.7723076],[8.8706276,45.7726163],[8.8705353,45.7734837],[8.8696875,45.7741488],[8.8694199,45.776106],[8.8688797,45.7764294],[8.8695787,45.7768457],[8.8697311,45.7771715],[8.8688845,45.7773543],[8.8696521,45.7777105],[8.8700755,45.778152],[8.8700234,45.778422],[8.8702791,45.778849],[8.869533,45.7791827],[8.8695035,45.7794362],[8.8698233,45.7796233],[8.8706605,45.7796462],[8.8707766,45.7799804],[8.8698656,45.7800918],[8.8696357,45.7802872],[8.8694906,45.7807615],[8.8690621,45.7816237],[8.8682335,45.7819012],[8.8681579,45.7822913],[8.8672184,45.7831746],[8.8678002,45.7835319],[8.8673497,45.7838621]]]},"properties":{"type":"boundary","gemeente":"Vedano Olona"}}]}