{"type":"FeatureCollection","metadata":{"gemeente":"Vendone","slug":"vendone","generated_at":"2026-09-26T14:28:12.463086Z","total_points":1,"providers":["PosteItaliane"],"bounds":[8.07216652,44.07628565,8.07216652,44.07628565]},"features":[{"type":"Feature","geometry":{"type":"Point","coordinates":[8.07216652,44.07628565]},"properties":{"type":"pakketpunt","locatieNaam":"Vendone","straatNaam":"Frazione Leuso","straatNr":"5","vervoerder":"PosteItaliane","puntType":"postkantoor","bezettingsgraad":50,"latitude":44.07628565,"longitude":8.07216652,"canPickup":true,"canDropoff":true,"openingstijden":{"za":"08:20 - 12:45","zo":"gesloten","ma":"gesloten","di":"08:20 - 13:45","wo":"gesloten","do":"08:20 - 13:45","vr":"gesloten"}}},{"type":"Feature","geometry":{"type":"Polygon","coordinates":[[[8.0467877,44.0996197],[8.0462905,44.098601],[8.046304,44.0982604],[8.0466456,44.0971347],[8.0469402,44.0967257],[8.0480379,44.0940962],[8.0476181,44.0941535],[8.0477624,44.0935161],[8.0479955,44.0933686],[8.0482081,44.0929855],[8.0486733,44.0925287],[8.0488037,44.0919028],[8.049319,44.0906878],[8.0500812,44.0898567],[8.0507682,44.089506],[8.0511123,44.0890237],[8.0516368,44.0879178],[8.0521303,44.0874029],[8.0522961,44.0866947],[8.0525125,44.0864363],[8.0526001,44.0861595],[8.0526963,44.0849907],[8.053208,44.0846195],[8.0535206,44.0840128],[8.0547439,44.0823207],[8.055082,44.0816081],[8.0555843,44.0811402],[8.0557798,44.0810522],[8.0558982,44.0808636],[8.0563152,44.0806467],[8.0573566,44.0803316],[8.0586371,44.0792616],[8.0587466,44.078928],[8.059201,44.0784228],[8.0605551,44.0777562],[8.0620739,44.077348],[8.0624075,44.0770124],[8.0627763,44.0768131],[8.06285,44.0766393],[8.0637548,44.0757225],[8.0638752,44.0753243],[8.063703,44.074977],[8.0641992,44.074285],[8.0643906,44.0737421],[8.0648436,44.0732473],[8.0648914,44.0728574],[8.0646756,44.0717313],[8.0647394,44.0714547],[8.065107,44.0710536],[8.0651487,44.0708294],[8.0647979,44.0698371],[8.0649356,44.0689197],[8.0653649,44.0673769],[8.0654068,44.0667792],[8.0656416,44.0663634],[8.0660774,44.0659887],[8.066349,44.0663905],[8.0670409,44.0667242],[8.0678154,44.06689],[8.0683762,44.0671818],[8.068547,44.0673905],[8.0686509,44.0677977],[8.0695231,44.068725],[8.0701482,44.0689237],[8.0706806,44.0692197],[8.0708397,44.0689993],[8.070824,44.0686422],[8.0711808,44.0680962],[8.0726971,44.0674107],[8.0731936,44.0670224],[8.0735032,44.0663243],[8.0744001,44.0657357],[8.0750472,44.0654178],[8.075655,44.065484],[8.0758859,44.0653843],[8.0764111,44.0646865],[8.0766755,44.0640627],[8.0772518,44.0637971],[8.0773206,44.0635972],[8.0775091,44.0634468],[8.0780117,44.063222],[8.0789853,44.0625287],[8.0792906,44.0624471],[8.0801398,44.0625199],[8.0812643,44.06199],[8.0815428,44.0615424],[8.0817802,44.0613832],[8.0823422,44.0613363],[8.0831697,44.0621276],[8.0835836,44.0627405],[8.0841729,44.062939],[8.0847326,44.0632959],[8.0849509,44.0635515],[8.085683,44.0640001],[8.0865446,44.0643097],[8.0866386,44.0646176],[8.0860989,44.0647185],[8.08566,44.0652232],[8.0857581,44.0653659],[8.0861412,44.0658035],[8.0866287,44.0660901],[8.0867323,44.0664681],[8.087015,44.066306],[8.087213,44.0663849],[8.0878221,44.0671027],[8.0883794,44.0671237],[8.0884212,44.0672377],[8.0887219,44.0672765],[8.0890833,44.0678843],[8.0891498,44.0682625],[8.0892865,44.0683059],[8.0894347,44.0685012],[8.089875,44.0682364],[8.08996,44.0682563],[8.0907755,44.0686232],[8.0908297,44.0689478],[8.091423,44.0691889],[8.0917349,44.0690702],[8.0940006,44.0691747],[8.0944026,44.0691663],[8.0948779,44.069043],[8.0953164,44.06922],[8.0958307,44.0692597],[8.0959711,44.0700733],[8.096158,44.0703101],[8.0964234,44.07043],[8.0959702,44.0706497],[8.095962,44.0707684],[8.0962674,44.0708093],[8.0964198,44.0710421],[8.0962037,44.0711257],[8.0962367,44.0711942],[8.0960253,44.071363],[8.096716,44.0719168],[8.0970312,44.0719262],[8.0971192,44.0725593],[8.0973001,44.0727953],[8.0968204,44.0729926],[8.0950142,44.0741056],[8.0944025,44.0744081],[8.0937016,44.0745856],[8.092237,44.0754445],[8.0920046,44.0756797],[8.0913118,44.0758665],[8.0908951,44.0763292],[8.0902449,44.0766798],[8.0898363,44.0772132],[8.0891834,44.0778376],[8.0890289,44.0783881],[8.089037,44.0791566],[8.0894319,44.0801027],[8.08938,44.0806469],[8.0895781,44.0814589],[8.0893888,44.0825405],[8.0883393,44.0835243],[8.087721,44.0846722],[8.0872605,44.0858561],[8.0863082,44.0874369],[8.0859904,44.0877886],[8.0849745,44.0882396],[8.0839641,44.0888996],[8.0829768,44.0918761],[8.0842551,44.0918829],[8.0861405,44.0921644],[8.0869817,44.092374],[8.0887528,44.0921051],[8.089552,44.0919208],[8.0900622,44.0916096],[8.0904302,44.0914833],[8.0910668,44.0914675],[8.0917275,44.0913089],[8.0936004,44.0900454],[8.0957279,44.09131],[8.095296,44.0914579],[8.0938258,44.0922672],[8.0910503,44.0955096],[8.0848468,44.0949644],[8.0841576,44.0948116],[8.0827614,44.0959769],[8.0822381,44.0960879],[8.079591,44.096438],[8.0782594,44.0960364],[8.0784008,44.0970334],[8.0778216,44.097512],[8.0765988,44.0971832],[8.0755842,44.0964006],[8.0739742,44.0977866],[8.0727131,44.0987091],[8.0705855,44.0994923],[8.0692948,44.1005155],[8.0690899,44.1001251],[8.0674023,44.0993883],[8.0667851,44.1003278],[8.0659654,44.1010589],[8.0655179,44.1004061],[8.0644185,44.0993968],[8.0616585,44.0990031],[8.060822,44.0997634],[8.0585698,44.1025916],[8.0577305,44.1032161],[8.0566847,44.1031224],[8.0559682,44.1042003],[8.0550879,44.1038139],[8.0545874,44.102641],[8.0537478,44.1013703],[8.0508071,44.1012773],[8.0493301,44.1000916],[8.0475736,44.0983556],[8.0469324,44.0995654],[8.0467877,44.0996197]]]},"properties":{"type":"boundary","gemeente":"Vendone"}}]}