{"type":"FeatureCollection","metadata":{"gemeente":"Ventimiglia","slug":"ventimiglia","generated_at":"2026-09-26T13:10:53.955287Z","total_points":41,"providers":["PosteItaliane","DPD","InPost","GLS","DHL","Amazon"],"bounds":[7.54329749,43.78661799,7.6293875,43.80281]},"features":[{"type":"Feature","geometry":{"type":"Point","coordinates":[7.60197716,43.79134377]},"properties":{"type":"pakketpunt","locatieNaam":"Ventimiglia Alta 1","straatNaam":"Via Giuseppe Garibaldi","straatNr":"2","vervoerder":"PosteItaliane","puntType":"postkantoor","bezettingsgraad":50,"latitude":43.79134377,"longitude":7.60197716,"canPickup":true,"canDropoff":true,"openingstijden":{"za":"08:20 - 12:45","zo":"gesloten","ma":"08:20 - 13:45","di":"08:20 - 13:45","wo":"08:20 - 13:45","do":"08:20 - 13:45","vr":"08:20 - 13:45"}}},{"type":"Feature","geometry":{"type":"Point","coordinates":[7.60843985,43.79089896]},"properties":{"type":"pakketpunt","locatieNaam":"Ventimiglia Citta'","straatNaam":"Via Della Repubblica","straatNr":"6/a","vervoerder":"PosteItaliane","puntType":"postkantoor","bezettingsgraad":50,"latitude":43.79089896,"longitude":7.60843985,"canPickup":true,"canDropoff":true,"openingstijden":{"za":"08:20 - 12:35","zo":"gesloten","ma":"08:20 - 19:05","di":"08:20 - 19:05","wo":"08:20 - 19:05","do":"08:20 - 19:05","vr":"08:20 - 19:05"}}},{"type":"Feature","geometry":{"type":"Point","coordinates":[7.54329749,43.78661799]},"properties":{"type":"pakketpunt","locatieNaam":"Grimaldi Di Ventimiglia","straatNaam":"Corso Mentone","straatNr":"18","vervoerder":"PosteItaliane","puntType":"postkantoor","bezettingsgraad":50,"latitude":43.78661799,"longitude":7.54329749,"canPickup":true,"canDropoff":true,"openingstijden":{"za":"gesloten","zo":"gesloten","ma":"08:20 - 13:45","di":"gesloten","wo":"08:20 - 13:45","do":"gesloten","vr":"08:20 - 13:45"}}},{"type":"Feature","geometry":{"type":"Point","coordinates":[7.56414645,43.79440736]},"properties":{"type":"pakketpunt","locatieNaam":"Latte","straatNaam":"Corso Nizza","straatNr":"97/e","vervoerder":"PosteItaliane","puntType":"postkantoor","bezettingsgraad":50,"latitude":43.79440736,"longitude":7.56414645,"canPickup":true,"canDropoff":true,"openingstijden":{"za":"08:20 - 12:45","zo":"gesloten","ma":"08:20 - 13:45","di":"08:20 - 13:45","wo":"08:20 - 13:45","do":"08:20 - 13:45","vr":"08:20 - 13:45"}}},{"type":"Feature","geometry":{"type":"Point","coordinates":[7.60151157,43.79161081]},"properties":{"type":"pakketpunt","locatieNaam":"Tabaccheria N. 1","straatNaam":"Via Giuseppe Garibaldi","straatNr":"1/a","vervoerder":"PosteItaliane","puntType":"servicepunt","bezettingsgraad":50,"latitude":43.79161081,"longitude":7.60151157,"canPickup":true,"canDropoff":true,"openingstijden":{"za":"09:00 - 13:00, 16:00 - 20:00","zo":"gesloten","ma":"gesloten","di":"09:00 - 13:00, 16:00 - 19:00","wo":"09:00 - 13:00, 16:00 - 19:00","do":"09:00 - 13:00, 16:00 - 19:00","vr":"09:00 - 13:00, 16:00 - 20:00"}}},{"type":"Feature","geometry":{"type":"Point","coordinates":[7.62251591,43.78880126]},"properties":{"type":"pakketpunt","locatieNaam":"Tabaccheria N. 23","straatNaam":"Corso Genova","straatNr":"92/b","vervoerder":"PosteItaliane","puntType":"servicepunt","bezettingsgraad":50,"latitude":43.78880126,"longitude":7.62251591,"canPickup":true,"canDropoff":true,"openingstijden":{"za":"07:00 - 13:00, 14:00 - 19:15","zo":"gesloten","ma":"07:00 - 13:00, 14:00 - 19:15","di":"07:00 - 13:00, 14:00 - 19:15","wo":"07:00 - 13:00, 14:00 - 19:15","do":"07:00 - 13:00, 14:00 - 19:15","vr":"07:00 - 13:00, 14:00 - 19:15"}}},{"type":"Feature","geometry":{"type":"Point","coordinates":[7.60745303,43.79237209]},"properties":{"type":"pakketpunt","locatieNaam":"Tabaccheria N. 22","straatNaam":"Via Camillo Cavour","straatNr":"8/b","vervoerder":"PosteItaliane","puntType":"servicepunt","bezettingsgraad":50,"latitude":43.79237209,"longitude":7.60745303,"canPickup":true,"canDropoff":true,"openingstijden":{"za":"09:00 - 13:00, 15:00 - 19:00","zo":"gesloten","ma":"15:00 - 19:00","di":"08:00 - 13:00, 15:00 - 19:00","wo":"08:00 - 13:00, 15:00 - 19:00","do":"08:00 - 13:00, 15:00 - 19:00","vr":"08:00 - 13:00, 15:00 - 19:00"}}},{"type":"Feature","geometry":{"type":"Point","coordinates":[7.60389973,43.78921392]},"properties":{"type":"pakketpunt","locatieNaam":"Tabaccheria N. 42","straatNaam":"Passeggiata Guglielmo Marconi","straatNr":"5","vervoerder":"PosteItaliane","puntType":"servicepunt","bezettingsgraad":50,"latitude":43.78921392,"longitude":7.60389973,"canPickup":true,"canDropoff":true,"openingstijden":{"za":"09:30 - 12:30, 16:00 - 19:00","zo":"gesloten","ma":"gesloten","di":"gesloten","wo":"gesloten","do":"gesloten","vr":"gesloten"}}},{"type":"Feature","geometry":{"type":"Point","coordinates":[7.60035175,43.79983663]},"properties":{"type":"pakketpunt","locatieNaam":"Stazione Di Servizio Eni","straatNaam":"Corso Limone Piemonte","straatNr":"1","vervoerder":"PosteItaliane","puntType":"automaat","bezettingsgraad":50,"latitude":43.79983663,"longitude":7.60035175,"canPickup":true,"canDropoff":true,"openingstijden":{"za":"00:01 - 23:59","zo":"00:01 - 23:59","ma":"00:01 - 23:59","di":"00:01 - 23:59","wo":"00:01 - 23:59","do":"00:01 - 23:59","vr":"00:01 - 23:59"}}},{"type":"Feature","geometry":{"type":"Point","coordinates":[7.61300858,43.78855422]},"properties":{"type":"pakketpunt","locatieNaam":"Tabaccheria N. 36","straatNaam":"Via Giovanni Xxiii","straatNr":"2/e","vervoerder":"PosteItaliane","puntType":"servicepunt","bezettingsgraad":50,"latitude":43.78855422,"longitude":7.61300858,"canPickup":true,"canDropoff":true,"openingstijden":{"za":"08:00 - 12:30, 14:30 - 19:00","zo":"gesloten","ma":"08:00 - 12:30, 14:30 - 19:00","di":"08:00 - 12:30, 14:30 - 19:00","wo":"08:00 - 12:30, 14:30 - 19:00","do":"08:00 - 12:30, 14:30 - 19:00","vr":"08:00 - 12:30, 14:30 - 19:00"}}},{"type":"Feature","geometry":{"type":"Point","coordinates":[7.62901753,43.79006252]},"properties":{"type":"pakketpunt","locatieNaam":"Tabaccheria N. 17","straatNaam":"Via Isnardi","straatNr":"5/a","vervoerder":"PosteItaliane","puntType":"servicepunt","bezettingsgraad":50,"latitude":43.79006252,"longitude":7.62901753,"canPickup":true,"canDropoff":true,"openingstijden":{"za":"09:00 - 12:00, 16:00 - 19:00","zo":"gesloten","ma":"09:00 - 12:00, 16:00 - 19:00","di":"09:00 - 12:00, 16:00 - 19:00","wo":"09:00 - 12:00, 16:00 - 19:00","do":"09:00 - 12:00, 16:00 - 19:00","vr":"09:00 - 12:00, 16:00 - 19:00"}}},{"type":"Feature","geometry":{"type":"Point","coordinates":[7.6063017,43.7919295]},"properties":{"type":"pakketpunt","locatieNaam":"Poste 2.0","straatNaam":"VIA ROMA 1/A","straatNr":"1/a","vervoerder":"DPD","puntType":"pickup_point","bezettingsgraad":50,"latitude":43.7919295,"longitude":7.6063017,"canPickup":true,"canDropoff":true,"openingstijden":{"ma":"08:00 - 19:00","di":"08:00 - 19:00","wo":"08:00 - 19:00","do":"08:00 - 19:00","vr":"08:00 - 19:00","za":"gesloten","zo":"gesloten"}}},{"type":"Feature","geometry":{"type":"Point","coordinates":[7.6293875,43.7896198]},"properties":{"type":"pakketpunt","locatieNaam":"Elektroid","straatNaam":"CORSO GENOVA","straatNr":"35","vervoerder":"DPD","puntType":"pickup_point","bezettingsgraad":50,"latitude":43.7896198,"longitude":7.6293875,"canPickup":true,"canDropoff":true,"openingstijden":{"ma":"10:00 - 18:30","di":"10:00 - 18:30","wo":"10:00 - 18:30","do":"10:00 - 18:30","vr":"10:00 - 18:30","za":"13:30 - 18:00","zo":"gesloten"}}},{"type":"Feature","geometry":{"type":"Point","coordinates":[7.60628,43.79201]},"properties":{"type":"pakketpunt","locatieNaam":"InPost Point","straatNaam":"Via Roma","straatNr":"1A","vervoerder":"InPost","puntType":"servicepunt","bezettingsgraad":50,"latitude":43.79201,"longitude":7.60628,"canPickup":true,"canDropoff":true,"openingstijden":"Lun-Ven: 08:00 - 13:00 - 15:00 - 19:00"}},{"type":"Feature","geometry":{"type":"Point","coordinates":[7.61595,43.78699]},"properties":{"type":"pakketpunt","locatieNaam":"InPost Point","straatNaam":"Via Dante Alighieri","straatNr":"34C","vervoerder":"InPost","puntType":"servicepunt","bezettingsgraad":50,"latitude":43.78699,"longitude":7.61595,"canPickup":true,"canDropoff":true,"openingstijden":"Lun-Sab: 09:00 - 12:15 - 15:00 - 19:00"}},{"type":"Feature","geometry":{"type":"Point","coordinates":[7.60725,43.79206]},"properties":{"type":"pakketpunt","locatieNaam":"InPost Point","straatNaam":"Via Aprosio, 21e, 18039, Ventimiglia, IM","straatNr":"21e","vervoerder":"InPost","puntType":"servicepunt","bezettingsgraad":50,"latitude":43.79206,"longitude":7.60725,"canPickup":true,"canDropoff":true,"openingstijden":"Lun 09:00-12:30, 15:00-19:00; Mar 09:00-12:30, 15:00-19:30; Mer-Ven 09:00-12:30, 15:00-19:00; Sab 09:00-12:30"}},{"type":"Feature","geometry":{"type":"Point","coordinates":[7.62133,43.78874]},"properties":{"type":"pakketpunt","locatieNaam":"ENI","straatNaam":"Corso Genova","straatNr":"84C","vervoerder":"InPost","puntType":"automaat","bezettingsgraad":50,"latitude":43.78874,"longitude":7.62133,"canPickup":true,"canDropoff":true,"openingstijden":null}},{"type":"Feature","geometry":{"type":"Point","coordinates":[7.59657,43.80281]},"properties":{"type":"pakketpunt","locatieNaam":"Corsia nord, 200m dopo il cavalcavia con autostrada A10 (E80)","straatNaam":"S.S. 20 - prolung. di via Europa","straatNr":"","vervoerder":"InPost","puntType":"automaat","bezettingsgraad":50,"latitude":43.80281,"longitude":7.59657,"canPickup":true,"canDropoff":true,"openingstijden":null}},{"type":"Feature","geometry":{"type":"Point","coordinates":[7.605759,43.793099]},"properties":{"type":"pakketpunt","locatieNaam":"COMPUTER ART","straatNaam":"Via Cavour ","straatNr":"1/e","vervoerder":"GLS","puntType":"parcel_shop","bezettingsgraad":50,"latitude":43.793099,"longitude":7.605759,"canPickup":true,"canDropoff":true,"openingstijden":"ma: 09:00 - 12:30, 15:00 - 19:00; di: 09:00 - 12:30, 15:00 - 19:00"}},{"type":"Feature","geometry":{"type":"Point","coordinates":[7.6063017,43.7919295]},"properties":{"type":"pakketpunt","locatieNaam":"poste2.0","straatNaam":"Via Roma","straatNr":"1/a","vervoerder":"GLS","puntType":"parcel_shop","bezettingsgraad":50,"latitude":43.7919295,"longitude":7.6063017,"canPickup":true,"canDropoff":true,"openingstijden":"ma: 08:00 - 19:00; di: 08:00 - 19:00"}},{"type":"Feature","geometry":{"type":"Point","coordinates":[7.6086684,43.7919988]},"properties":{"type":"pakketpunt","locatieNaam":"AS Studio ex Foto Gibelli","straatNaam":"Via Cavour","straatNr":"39B","vervoerder":"GLS","puntType":"parcel_shop","bezettingsgraad":50,"latitude":43.7919988,"longitude":7.6086684,"canPickup":true,"canDropoff":true,"openingstijden":"za: 09:30 - 12:30, 15:30 - 18:30; ma: 09:00 - 12:30, 15:30 - 18:30"}},{"type":"Feature","geometry":{"type":"Point","coordinates":[7.629018,43.790063]},"properties":{"type":"pakketpunt","locatieNaam":"TABACCHERIA N. 17","straatNaam":"VIA ISNARDI 5-A","straatNr":"","vervoerder":"DHL","puntType":"parcelShop","bezettingsgraad":50,"latitude":43.790063,"longitude":7.629018,"canPickup":true,"canDropoff":true,"openingstijden":{"ma":"09:00 - 12:00, 16:00 - 19:00","di":"09:00 - 12:00, 16:00 - 19:00","wo":"09:00 - 12:00, 16:00 - 19:00","do":"09:00 - 12:00, 16:00 - 19:00","vr":"09:00 - 12:00, 16:00 - 19:00","za":"09:00 - 12:00, 16:00 - 19:00","zo":"gesloten"}}},{"type":"Feature","geometry":{"type":"Point","coordinates":[7.615993,43.786803]},"properties":{"type":"pakketpunt","locatieNaam":"TENDE DA SOLE - CENTRO SERVIZI","straatNaam":"Via Dante Alighieri 34","straatNr":"","vervoerder":"DHL","puntType":"parcelShop","bezettingsgraad":50,"latitude":43.786803,"longitude":7.615993,"canPickup":false,"canDropoff":true,"openingstijden":{"ma":"08:30 - 19:00","di":"08:30 - 19:00","wo":"08:30 - 19:00","do":"08:30 - 19:00","vr":"08:30 - 19:00","za":"08:30 - 19:00","zo":"gesloten"}}},{"type":"Feature","geometry":{"type":"Point","coordinates":[7.622516,43.788801]},"properties":{"type":"pakketpunt","locatieNaam":"TABACCHERIA N. 23","straatNaam":"CORSO GENOVA 92-B","straatNr":"","vervoerder":"DHL","puntType":"parcelShop","bezettingsgraad":50,"latitude":43.788801,"longitude":7.622516,"canPickup":true,"canDropoff":true,"openingstijden":{"ma":"07:00 - 13:00, 14:00 - 19:15","di":"07:00 - 13:00, 14:00 - 19:15","wo":"07:00 - 13:00, 14:00 - 19:15","do":"07:00 - 13:00, 14:00 - 19:15","vr":"07:00 - 13:00, 14:00 - 19:15","za":"07:00 - 13:00, 14:00 - 19:15","zo":"gesloten"}}},{"type":"Feature","geometry":{"type":"Point","coordinates":[7.564146,43.794407]},"properties":{"type":"pakketpunt","locatieNaam":"Ufficio Postale LATTE","straatNaam":"CORSO NIZZA 97-E","straatNr":"","vervoerder":"DHL","puntType":"postOffice","bezettingsgraad":50,"latitude":43.794407,"longitude":7.564146,"canPickup":true,"canDropoff":true,"openingstijden":{"ma":"08:20 - 13:45","di":"08:20 - 13:45","wo":"08:20 - 13:45","do":"08:20 - 13:45","vr":"08:20 - 13:45","za":"08:20 - 12:45","zo":"gesloten"}}},{"type":"Feature","geometry":{"type":"Point","coordinates":[7.600352,43.799837]},"properties":{"type":"pakketpunt","locatieNaam":"STAZIONE DI SERVIZIO ENI","straatNaam":"CORSO LIMONE PIEMONTE 1","straatNr":"","vervoerder":"DHL","puntType":"packStation","bezettingsgraad":50,"latitude":43.799837,"longitude":7.600352,"canPickup":true,"canDropoff":true,"openingstijden":{"ma":"00:01 - 23:59","di":"00:01 - 23:59","wo":"00:01 - 23:59","do":"00:01 - 23:59","vr":"00:01 - 23:59","za":"00:01 - 23:59","zo":"00:01 - 23:59"}}},{"type":"Feature","geometry":{"type":"Point","coordinates":[7.601512,43.791611]},"properties":{"type":"pakketpunt","locatieNaam":"TABACCHERIA N. 1","straatNaam":"VIA GIUSEPPE GARIBALDI 1-A","straatNr":"","vervoerder":"DHL","puntType":"parcelShop","bezettingsgraad":50,"latitude":43.791611,"longitude":7.601512,"canPickup":true,"canDropoff":true,"openingstijden":{"ma":"gesloten","di":"09:00 - 13:00, 16:00 - 19:00","wo":"09:00 - 13:00, 16:00 - 19:00","do":"09:00 - 13:00, 16:00 - 19:00","vr":"09:00 - 13:00, 16:00 - 20:00","za":"09:00 - 13:00, 16:00 - 20:00","zo":"gesloten"}}},{"type":"Feature","geometry":{"type":"Point","coordinates":[7.601977,43.791344]},"properties":{"type":"pakketpunt","locatieNaam":"Ufficio Postale VENTIMIGLIA ALTA 1","straatNaam":"VIA GIUSEPPE GARIBALDI 2","straatNr":"","vervoerder":"DHL","puntType":"postOffice","bezettingsgraad":50,"latitude":43.791344,"longitude":7.601977,"canPickup":true,"canDropoff":true,"openingstijden":{"ma":"08:20 - 13:45","di":"08:20 - 13:45","wo":"08:20 - 13:45","do":"08:20 - 13:45","vr":"08:20 - 13:45","za":"08:20 - 12:45","zo":"gesloten"}}},{"type":"Feature","geometry":{"type":"Point","coordinates":[7.6058,43.7931]},"properties":{"type":"pakketpunt","locatieNaam":"COMPUTER ART","straatNaam":"Via Cavour 1/e","straatNr":"","vervoerder":"DHL","puntType":"parcelShop","bezettingsgraad":50,"latitude":43.7931,"longitude":7.6058,"canPickup":false,"canDropoff":true,"openingstijden":{"ma":"09:00 - 18:45","di":"09:00 - 18:45","wo":"09:00 - 18:45","do":"09:00 - 18:45","vr":"09:00 - 18:45","za":"09:00 - 12:00","zo":"gesloten"}}},{"type":"Feature","geometry":{"type":"Point","coordinates":[7.607453,43.792372]},"properties":{"type":"pakketpunt","locatieNaam":"TABACCHERIA N. 22","straatNaam":"VIA CAMILLO CAVOUR 8-B","straatNr":"","vervoerder":"DHL","puntType":"parcelShop","bezettingsgraad":50,"latitude":43.792372,"longitude":7.607453,"canPickup":true,"canDropoff":true,"openingstijden":{"ma":"15:00 - 19:00","di":"08:00 - 13:00, 15:00 - 19:00","wo":"08:00 - 13:00, 15:00 - 19:00","do":"08:00 - 13:00, 15:00 - 19:00","vr":"08:00 - 13:00, 15:00 - 19:00","za":"09:00 - 13:00, 15:00 - 19:00","zo":"gesloten"}}},{"type":"Feature","geometry":{"type":"Point","coordinates":[7.60844,43.790899]},"properties":{"type":"pakketpunt","locatieNaam":"Ufficio Postale VENTIMIGLIA CITTA'","straatNaam":"CORSO REPUBBLICA 6-A","straatNr":"","vervoerder":"DHL","puntType":"postOffice","bezettingsgraad":50,"latitude":43.790899,"longitude":7.60844,"canPickup":true,"canDropoff":true,"openingstijden":{"ma":"08:20 - 19:05","di":"08:20 - 19:05","wo":"08:20 - 19:05","do":"08:20 - 19:05","vr":"08:20 - 19:05","za":"08:20 - 12:35","zo":"gesloten"}}},{"type":"Feature","geometry":{"type":"Point","coordinates":[7.613009,43.788554]},"properties":{"type":"pakketpunt","locatieNaam":"TABACCHERIA N. 36","straatNaam":"VIA GIOVANNI XXIII 2-E","straatNr":"","vervoerder":"DHL","puntType":"parcelShop","bezettingsgraad":50,"latitude":43.788554,"longitude":7.613009,"canPickup":true,"canDropoff":true,"openingstijden":{"ma":"08:00 - 12:30, 14:30 - 19:00","di":"08:00 - 12:30, 14:30 - 19:00","wo":"08:00 - 12:30, 14:30 - 19:00","do":"08:00 - 12:30, 14:30 - 19:00","vr":"08:00 - 12:30, 14:30 - 19:00","za":"08:00 - 12:30, 14:30 - 19:00","zo":"gesloten"}}},{"type":"Feature","geometry":{"type":"Point","coordinates":[7.600592,43.789736]},"properties":{"type":"pakketpunt","locatieNaam":"Amazon Locker - giacomina","straatNaam":"Comune Ventimiglia","straatNr":"","vervoerder":"Amazon","puntType":"locker","bezettingsgraad":50,"latitude":43.789736,"longitude":7.600592,"canPickup":true,"canDropoff":false,"openingstijden":null}},{"type":"Feature","geometry":{"type":"Point","coordinates":[7.62119,43.788558]},"properties":{"type":"pakketpunt","locatieNaam":"Amazon Locker - amalfia","straatNaam":"ENI Station pv.1235","straatNr":"","vervoerder":"Amazon","puntType":"locker","bezettingsgraad":50,"latitude":43.788558,"longitude":7.62119,"canPickup":true,"canDropoff":false,"openingstijden":null}},{"type":"Feature","geometry":{"type":"Point","coordinates":[7.56414,43.7944]},"properties":{"type":"pakketpunt","locatieNaam":"Ufficio Postale LATTE","straatNaam":"CORSO NIZZA 97-E","straatNr":"","vervoerder":"Amazon","puntType":"3p","bezettingsgraad":50,"latitude":43.7944,"longitude":7.56414,"canPickup":true,"canDropoff":false,"openingstijden":null}},{"type":"Feature","geometry":{"type":"Point","coordinates":[7.60197,43.7913]},"properties":{"type":"pakketpunt","locatieNaam":"Ufficio Postale VENTIMIGLIA ALTA 1","straatNaam":"VIA GIUSEPPE GARIBALDI 2","straatNr":"","vervoerder":"Amazon","puntType":"3p","bezettingsgraad":50,"latitude":43.7913,"longitude":7.60197,"canPickup":true,"canDropoff":false,"openingstijden":null}},{"type":"Feature","geometry":{"type":"Point","coordinates":[7.613,43.7885]},"properties":{"type":"pakketpunt","locatieNaam":"PuntoPoste TABACCHERIA N. 36","straatNaam":"VIA GIOVANNI XXIII 2/E","straatNr":"","vervoerder":"Amazon","puntType":"3p","bezettingsgraad":50,"latitude":43.7885,"longitude":7.613,"canPickup":true,"canDropoff":false,"openingstijden":null}},{"type":"Feature","geometry":{"type":"Point","coordinates":[7.6061262,43.7920134]},"properties":{"type":"pakketpunt","locatieNaam":"Amazon Counter (fermopoint)","straatNaam":"Poste 2.0-Ventimiglia","straatNr":"","vervoerder":"Amazon","puntType":"helix","bezettingsgraad":50,"latitude":43.7920134,"longitude":7.6061262,"canPickup":true,"canDropoff":false,"openingstijden":null}},{"type":"Feature","geometry":{"type":"Point","coordinates":[7.62901,43.79]},"properties":{"type":"pakketpunt","locatieNaam":"PuntoPoste TABACCHERIA N. 17","straatNaam":"VIA ISNARDI 5/A","straatNr":"","vervoerder":"Amazon","puntType":"3p","bezettingsgraad":50,"latitude":43.79,"longitude":7.62901,"canPickup":true,"canDropoff":false,"openingstijden":null}},{"type":"Feature","geometry":{"type":"Point","coordinates":[7.6003628,43.7996158]},"properties":{"type":"pakketpunt","locatieNaam":"Amazon Counter - Enilive Station (n.51570)","straatNaam":"CORSO LIMONE PIEMONTE  1 1","straatNr":"","vervoerder":"Amazon","puntType":"helix","bezettingsgraad":50,"latitude":43.7996158,"longitude":7.6003628,"canPickup":true,"canDropoff":false,"openingstijden":null}},{"type":"Feature","geometry":{"type":"Point","coordinates":[7.60151,43.7916]},"properties":{"type":"pakketpunt","locatieNaam":"PuntoPoste TABACCHERIA N. 1","straatNaam":"VIA GIUSEPPE GARIBALDI 1/A","straatNr":"","vervoerder":"Amazon","puntType":"3p","bezettingsgraad":50,"latitude":43.7916,"longitude":7.60151,"canPickup":true,"canDropoff":false,"openingstijden":null}},{"type":"Feature","geometry":{"type":"MultiPolygon","coordinates":[[[[7.5020946,43.8447513],[7.5028455,43.8452222],[7.5060842,43.8454143],[7.5092249,43.8463648],[7.5093977,43.8466878],[7.5103803,43.8470816],[7.5130392,43.8471612],[7.5139021,43.8477277],[7.5144625,43.8478876],[7.5151998,43.8482658],[7.5157765,43.8484548],[7.517464,43.848252],[7.5189449,43.8482845],[7.5202688,43.8485432],[7.5213301,43.848521],[7.5223102,43.8489867],[7.5231624,43.8495607],[7.5236198,43.8501142],[7.5247908,43.8507755],[7.5251262,43.8511887],[7.5257715,43.8514018],[7.52593,43.8522625],[7.5258207,43.8525345],[7.5258109,43.8530806],[7.5256883,43.8533249],[7.5259415,43.8537497],[7.5266823,43.854306],[7.5268983,43.8547719],[7.5281322,43.8555614],[7.528457,43.8561617],[7.5285896,43.8566913],[7.5289269,43.8569997],[7.5289595,43.8571806],[7.5292674,43.857532],[7.5292461,43.8578966],[7.5302882,43.8579846],[7.5310382,43.8583492],[7.5312583,43.8586991],[7.5312536,43.8593823],[7.5308461,43.8607194],[7.5309658,43.8609934],[7.5314608,43.8614575],[7.5320423,43.8615415],[7.532801,43.8613048],[7.5340445,43.8603725],[7.5354883,43.860336],[7.5357308,43.8597781],[7.536729,43.8580938],[7.5373131,43.8573161],[7.5376887,43.8569986],[7.5377378,43.8566818],[7.5374976,43.8561151],[7.5373831,43.8554543],[7.537968,43.8548981],[7.5382078,43.8545314],[7.5384726,43.8538164],[7.5386365,43.852737],[7.5385698,43.8522783],[7.5381265,43.8514597],[7.5401454,43.8523725],[7.540639,43.8530894],[7.5408533,43.8536801],[7.5417602,43.8548262],[7.5426153,43.8550839],[7.5433213,43.8554425],[7.5438367,43.8554309],[7.5455692,43.8556413],[7.5457949,43.8553997],[7.5458639,43.8551358],[7.5467009,43.8542112],[7.5481229,43.8536774],[7.549851,43.8531783],[7.5503787,43.8530958],[7.5514639,43.8527071],[7.5518302,43.8530894],[7.5521037,43.8532308],[7.5528975,43.8535383],[7.553152,43.8535016],[7.5533131,43.8535853],[7.5540014,43.8535084],[7.5553099,43.8528608],[7.5556238,43.8528181],[7.5557293,43.8529531],[7.5557349,43.8534644],[7.5555662,43.8539184],[7.5557301,43.8543066],[7.5563974,43.8541773],[7.5570053,43.8542497],[7.5585944,43.8540818],[7.559211,43.8539672],[7.559664,43.8537337],[7.5604237,43.8535284],[7.5606445,43.8532938],[7.5612655,43.8528995],[7.5612222,43.8526536],[7.5622194,43.8523513],[7.5625739,43.852038],[7.5631152,43.8519294],[7.5634854,43.8516674],[7.5634869,43.8509393],[7.5638871,43.8504351],[7.5643339,43.8501124],[7.5647795,43.849142],[7.5649187,43.8483807],[7.5652108,43.84758],[7.5668908,43.8485411],[7.5689275,43.8474606],[7.5722772,43.8464292],[7.5727013,43.8467451],[7.573561,43.8475972],[7.5743787,43.8486857],[7.5754968,43.8499832],[7.5745195,43.8508569],[7.5731905,43.8516911],[7.5732808,43.8522128],[7.5735854,43.85274],[7.5734634,43.8533276],[7.5741287,43.8538656],[7.5748551,43.8540608],[7.5754814,43.8541251],[7.5768656,43.8545204],[7.5784185,43.8543642],[7.5786468,43.8546507],[7.5793552,43.8551639],[7.5803314,43.8561656],[7.5813704,43.8577653],[7.5817893,43.8587385],[7.5820823,43.8598033],[7.5818405,43.8619725],[7.5818737,43.8623778],[7.5823658,43.8643975],[7.5828345,43.8655881],[7.58307,43.8668699],[7.5839406,43.8690518],[7.5839489,43.8692977],[7.5838089,43.8696952],[7.5836219,43.8699334],[7.5834544,43.8705326],[7.5832309,43.8723142],[7.5838492,43.8727521],[7.5840254,43.8727627],[7.5843913,43.8726144],[7.584623,43.8724708],[7.5850571,43.871723],[7.5855079,43.8712994],[7.5866689,43.8706208],[7.5896539,43.8702391],[7.5907077,43.8700305],[7.5920869,43.8699904],[7.5936348,43.8697579],[7.5939297,43.8695635],[7.5940469,43.8693793],[7.5941126,43.8688385],[7.5940135,43.8682121],[7.5957988,43.8670598],[7.5963533,43.86679],[7.5969632,43.8666275],[7.5979958,43.8659767],[7.599487,43.8653256],[7.6002464,43.864259],[7.600518,43.8640144],[7.6021174,43.8636212],[7.6033275,43.8629201],[7.6035844,43.8622625],[7.604734,43.8608476],[7.6063984,43.8593336],[7.6063981,43.8592284],[7.6062117,43.8590689],[7.6060674,43.8587457],[7.6056008,43.8583458],[7.6050238,43.8579248],[7.6043512,43.857653],[7.6044204,43.8569264],[7.6042615,43.8561476],[7.6044987,43.8557726],[7.6046541,43.8552704],[7.6045767,43.8548999],[7.6047155,43.8543783],[7.6044688,43.854199],[7.6043506,43.853964],[7.6044662,43.8538484],[7.6043008,43.8535143],[7.6044661,43.8533303],[7.6044087,43.8530431],[7.6042772,43.8528973],[7.6043757,43.8523533],[7.6042388,43.8519341],[7.6043727,43.8517154],[7.604525,43.8510489],[7.604941,43.8505539],[7.6053118,43.8497606],[7.6056047,43.8494503],[7.6066856,43.8488898],[7.6069084,43.8485201],[7.6069005,43.8482778],[7.6070191,43.8479529],[7.6081353,43.8471716],[7.6083238,43.8465555],[7.6085824,43.8460756],[7.6081641,43.8459116],[7.6067365,43.8456176],[7.6057814,43.8450987],[7.6055952,43.8451087],[7.6045814,43.8444767],[7.604001,43.8443121],[7.6028437,43.8443968],[7.6027637,43.8443057],[7.6025017,43.8443323],[7.6001038,43.843567],[7.5994171,43.8435358],[7.5993625,43.8436377],[7.5984922,43.8437731],[7.5981058,43.8436138],[7.5974943,43.8435253],[7.5971354,43.8432397],[7.5965666,43.8430769],[7.5957493,43.8424498],[7.595539,43.8418381],[7.5956746,43.8411799],[7.5952668,43.840853],[7.5942419,43.8405966],[7.5929525,43.840615],[7.5924072,43.8402625],[7.5923197,43.840105],[7.5920026,43.8403879],[7.5916926,43.8403353],[7.5911785,43.8404544],[7.5910583,43.840345],[7.5906858,43.8398892],[7.5911226,43.8394482],[7.5913379,43.8391141],[7.5911652,43.83862],[7.5905909,43.8381372],[7.5908092,43.8366267],[7.5907221,43.8362325],[7.5904275,43.8363829],[7.5895429,43.8365908],[7.5892689,43.8368804],[7.588712,43.8371955],[7.5885085,43.8371127],[7.5881859,43.8371467],[7.5880531,43.8370637],[7.5879954,43.836864],[7.5880468,43.8367633],[7.587745,43.836289],[7.5879348,43.8353005],[7.5878844,43.8350196],[7.5879414,43.8348116],[7.588558,43.8346922],[7.5891406,43.8347123],[7.5895502,43.8344782],[7.590069,43.8343362],[7.5909474,43.8337479],[7.5912679,43.8336236],[7.5903276,43.8332733],[7.5895757,43.8331109],[7.5889912,43.8327344],[7.5887335,43.8322771],[7.5887447,43.8320235],[7.5889364,43.8319453],[7.589959,43.8318237],[7.5905763,43.8315616],[7.5901063,43.8306813],[7.5896761,43.8303444],[7.5893514,43.8278905],[7.5895626,43.8279288],[7.5895463,43.8275313],[7.5896336,43.8273952],[7.5888013,43.8266048],[7.5884077,43.8260438],[7.5882666,43.8255874],[7.5888856,43.8256428],[7.5895342,43.8253715],[7.5894944,43.8252699],[7.5891069,43.825255],[7.5897069,43.8250055],[7.5899386,43.8247581],[7.5902935,43.824611],[7.5904904,43.824366],[7.5910901,43.8241564],[7.5915869,43.8237677],[7.5915633,43.823575],[7.5908199,43.823104],[7.5912296,43.8221074],[7.5916239,43.8214312],[7.5938683,43.8215102],[7.5945445,43.8209382],[7.5950157,43.8202515],[7.595259,43.8197395],[7.5960602,43.8195001],[7.5965306,43.8191537],[7.5975501,43.8190308],[7.5982232,43.819086],[7.5996035,43.8195583],[7.5997618,43.8196591],[7.5997864,43.8200036],[7.5999261,43.8201161],[7.6002388,43.8200093],[7.6006902,43.8197145],[7.6007253,43.8194475],[7.6000257,43.818918],[7.6004441,43.8184151],[7.6005233,43.8179765],[7.6002632,43.8180062],[7.6001288,43.8174509],[7.6001694,43.8171926],[7.5999801,43.8169427],[7.5998264,43.8163647],[7.5998948,43.8159789],[7.6002641,43.8154067],[7.6003425,43.8151128],[7.6000551,43.8145225],[7.5995976,43.8139978],[7.5983493,43.813873],[7.5992132,43.8132032],[7.5994843,43.8126276],[7.5997369,43.8123973],[7.6002979,43.8113943],[7.6005251,43.8112975],[7.6009031,43.8109394],[7.6010513,43.8107621],[7.6010588,43.8104898],[7.6011442,43.8103502],[7.6015553,43.8100212],[7.6015885,43.8084329],[7.6014306,43.8080994],[7.6020226,43.8073892],[7.6023745,43.8071945],[7.6025946,43.8068423],[7.6025552,43.8065116],[7.602439,43.8063449],[7.6027488,43.8052735],[7.6028939,43.8050583],[7.6028449,43.8049432],[7.6034828,43.8043755],[7.6039433,43.8041061],[7.6041529,43.8037817],[7.6044045,43.803572],[7.6051372,43.8031936],[7.6044894,43.8026185],[7.6046922,43.8023412],[7.6051856,43.8020203],[7.6052317,43.8018331],[7.6054842,43.8016568],[7.605569,43.8014229],[7.6059086,43.8013048],[7.606383,43.8007273],[7.6068218,43.8006191],[7.6073081,43.8002917],[7.607311,43.8000806],[7.6074236,43.8000004],[7.6084269,43.7998663],[7.6084412,43.7996759],[7.6087355,43.7996023],[7.6089383,43.7994347],[7.6094286,43.799375],[7.610099,43.7989881],[7.6115858,43.7980291],[7.6131666,43.7965217],[7.6135342,43.7963556],[7.6140608,43.7959751],[7.6146111,43.7957437],[7.6146786,43.7955993],[7.6156367,43.7956089],[7.6155127,43.7952639],[7.6165888,43.7951289],[7.6167715,43.7948466],[7.6163234,43.7941269],[7.6165612,43.7939793],[7.6171138,43.7938885],[7.6168296,43.7936066],[7.6186556,43.79305],[7.6189041,43.7938734],[7.6194743,43.7947631],[7.6196971,43.7948296],[7.6202268,43.7947954],[7.6211298,43.7942082],[7.6212558,43.7939601],[7.6225025,43.7945917],[7.6228952,43.79439],[7.622987,43.7945317],[7.6229604,43.795288],[7.6230595,43.7952875],[7.6232024,43.795189],[7.6239702,43.7950485],[7.6246922,43.7947488],[7.6249296,43.7945409],[7.6250914,43.7940752],[7.6258885,43.7933172],[7.6264877,43.7930426],[7.6270238,43.7924885],[7.6270822,43.7922236],[7.6275983,43.7918014],[7.6277963,43.7914891],[7.6292903,43.7913266],[7.6299728,43.7913976],[7.6303584,43.7890089],[7.6302766,43.7876159],[7.6301086,43.7869722],[7.6298686,43.7846694],[7.6297631,43.784354],[7.628866,43.7844415],[7.6283823,43.783868],[7.6278458,43.7834698],[7.6276417,43.7835419],[7.6276892,43.783625],[7.6280136,43.7837276],[7.6283863,43.7840849],[7.628354,43.7842019],[7.6281363,43.7844899],[7.6278834,43.7846405],[7.6271463,43.7848342],[7.6265511,43.7848238],[7.6260761,43.7846546],[7.6260358,43.7844113],[7.6263295,43.7838999],[7.626174,43.7837855],[7.625975,43.7838895],[7.6258894,43.7843217],[7.6257286,43.784407],[7.6247572,43.784554],[7.624572,43.7843945],[7.6245475,43.784532],[7.6244044,43.7845753],[7.6223462,43.7849907],[7.621666,43.7849436],[7.6215927,43.7848672],[7.6215364,43.784433],[7.6213714,43.7843536],[7.6212146,43.7844359],[7.6212594,43.7847152],[7.6213874,43.7848386],[7.6212802,43.7849446],[7.6195436,43.7853937],[7.6186768,43.785402],[7.6185443,43.7853001],[7.6184809,43.7848843],[7.6183542,43.7848344],[7.618239,43.7849113],[7.6183744,43.7853375],[7.6170986,43.7857616],[7.6156932,43.7860132],[7.6155838,43.7859779],[7.6155464,43.7855475],[7.6153246,43.7854186],[7.6152037,43.7855163],[7.6154204,43.7859737],[7.6149531,43.786086],[7.6144088,43.785903],[7.6139826,43.7861005],[7.613805,43.7863826],[7.6134721,43.7865419],[7.6132093,43.7865439],[7.6129113,43.7864145],[7.6131561,43.7862752],[7.6127299,43.7863084],[7.6123987,43.7864789],[7.6127846,43.7864685],[7.6128796,43.7865746],[7.612832,43.786745],[7.612447,43.7869221],[7.6118965,43.7869261],[7.6114059,43.7866735],[7.6110114,43.7867255],[7.6106462,43.7866293],[7.6096771,43.7871294],[7.6070466,43.7879007],[7.6058351,43.7881805],[7.6057595,43.7879643],[7.6056496,43.7879159],[7.6056312,43.7879964],[7.6028584,43.7889071],[7.6022366,43.7888568],[7.6015746,43.7885979],[7.6014808,43.7884895],[7.6014421,43.7882367],[7.6019553,43.7879926],[7.6015154,43.7879765],[7.6009634,43.787548],[7.5999493,43.7871804],[7.5991714,43.7870481],[7.5970955,43.7871043],[7.5961131,43.7869842],[7.5954461,43.7871183],[7.5950158,43.7873326],[7.5948624,43.7875443],[7.5949145,43.7876385],[7.59508,43.7876392],[7.5954202,43.7873917],[7.5958264,43.7872331],[7.5962869,43.7871692],[7.5965651,43.7871984],[7.5963653,43.7872951],[7.596349,43.7874156],[7.5965241,43.7875685],[7.5983926,43.7874116],[7.5984414,43.7876319],[7.5985028,43.7876194],[7.5984625,43.787341],[7.5996601,43.7874392],[7.6002955,43.7876744],[7.6008351,43.7881463],[7.6010469,43.7886828],[7.6009614,43.7891474],[7.6007802,43.7894429],[7.6005236,43.7894723],[7.5990067,43.7882433],[7.5987376,43.7884396],[7.5992378,43.7888448],[7.5983865,43.7894054],[7.5984532,43.7894613],[7.5995124,43.7887711],[7.5999585,43.7891375],[7.5991311,43.7896797],[7.599187,43.7897189],[7.6000183,43.7891854],[7.6004788,43.7895663],[7.6001692,43.7897692],[7.599684,43.7899446],[7.599192,43.7900002],[7.598654,43.7899372],[7.5983144,43.7898267],[7.5983331,43.7897758],[7.5978799,43.7895412],[7.5978852,43.7894152],[7.5978342,43.7893995],[7.5977724,43.7896353],[7.5977165,43.7896161],[7.5977125,43.7893779],[7.5975056,43.7894866],[7.5974196,43.7893916],[7.597198,43.7890069],[7.5971226,43.7886158],[7.5971311,43.7884119],[7.5973823,43.7883902],[7.5974545,43.7880982],[7.5969699,43.7880058],[7.5969271,43.7882233],[7.5966583,43.7882461],[7.5965972,43.7883395],[7.5968457,43.7884743],[7.5969119,43.7891157],[7.5971909,43.7893053],[7.5972785,43.7894699],[7.5970646,43.7894523],[7.5966899,43.7896184],[7.596204,43.789143],[7.5957979,43.7892374],[7.594852,43.7897879],[7.5945761,43.7900999],[7.5939448,43.7903711],[7.5934333,43.7910493],[7.5930326,43.7912847],[7.5922337,43.7913915],[7.5919174,43.7915969],[7.5916827,43.7916473],[7.5888772,43.7919687],[7.5880551,43.7920251],[7.5875769,43.7919157],[7.5860543,43.7921333],[7.5825877,43.7924025],[7.5819412,43.7924047],[7.5810745,43.7920851],[7.5810168,43.7921703],[7.5802124,43.7922756],[7.5800932,43.7921476],[7.58,43.792152],[7.5794942,43.7924247],[7.5790182,43.7923648],[7.5782849,43.7926184],[7.5742911,43.7928438],[7.5737607,43.7927942],[7.5735146,43.7926916],[7.5734122,43.7925757],[7.5736078,43.7925277],[7.5735895,43.7924661],[7.5723571,43.7925765],[7.5711085,43.792527],[7.5705355,43.7922967],[7.5695811,43.7921868],[7.5696515,43.7920698],[7.5695478,43.7921665],[7.5692549,43.7920985],[7.5686896,43.7917889],[7.5684673,43.7913041],[7.567979,43.7906258],[7.5676283,43.7904142],[7.5673386,43.7900959],[7.566595,43.7899445],[7.5666449,43.7897752],[7.5664221,43.7899695],[7.5662321,43.7899288],[7.5661497,43.7900247],[7.5656682,43.7900622],[7.5649131,43.7899905],[7.5646972,43.7900736],[7.5633761,43.7898521],[7.5623057,43.7895616],[7.5623092,43.7893039],[7.5621892,43.7894038],[7.5619947,43.7893788],[7.5617238,43.7891581],[7.5613212,43.7891289],[7.5608674,43.788977],[7.5605258,43.7887749],[7.5603839,43.7885745],[7.5599688,43.7885333],[7.5593677,43.7881706],[7.5585848,43.7870678],[7.5586177,43.7866264],[7.5591186,43.7857842],[7.5593672,43.7855173],[7.5595639,43.7854502],[7.5595466,43.7852661],[7.5598207,43.7849013],[7.5596408,43.7848981],[7.5593657,43.7852318],[7.5590429,43.7851776],[7.5586886,43.7848639],[7.5586397,43.7846311],[7.5590264,43.7845064],[7.5593596,43.7846134],[7.5594146,43.7845704],[7.5590631,43.7844677],[7.5586616,43.7845241],[7.5583545,43.7842703],[7.5582056,43.7843],[7.557855,43.7841802],[7.5573603,43.7839072],[7.5571665,43.7836401],[7.5571214,43.7834339],[7.557359,43.7826306],[7.5576336,43.782079],[7.5577511,43.7819582],[7.5578791,43.781966],[7.5578343,43.7818368],[7.5581862,43.7813768],[7.5581641,43.7812846],[7.5576626,43.7813483],[7.5576228,43.7812535],[7.5572254,43.7811873],[7.5572338,43.7811018],[7.5570909,43.7809699],[7.556922,43.7810692],[7.5567598,43.781029],[7.5561282,43.7806576],[7.5559713,43.780402],[7.5559684,43.7801581],[7.5556328,43.7801919],[7.5555102,43.779975],[7.5552983,43.7802431],[7.5549597,43.7803645],[7.5546599,43.7807818],[7.5543369,43.7809677],[7.5538923,43.7814968],[7.5532625,43.7817931],[7.5521265,43.7819182],[7.5514416,43.7816769],[7.5512198,43.7814612],[7.5512635,43.7811134],[7.5513995,43.7809558],[7.5508185,43.7812694],[7.5505648,43.7811563],[7.5502481,43.7812126],[7.5501464,43.7810038],[7.550053,43.7810049],[7.5496674,43.7813129],[7.5494319,43.7813949],[7.5491399,43.781372],[7.5488566,43.7817289],[7.5485889,43.7819152],[7.5482275,43.7819461],[7.5480983,43.7817764],[7.547899,43.7819235],[7.54749,43.7819693],[7.5471558,43.7821494],[7.547004,43.7823917],[7.5467846,43.7824769],[7.5464192,43.782576],[7.5461522,43.782491],[7.5458011,43.783051],[7.5456605,43.7830057],[7.5456363,43.7829171],[7.5454638,43.7831655],[7.5448433,43.7834213],[7.5442783,43.7835389],[7.5435794,43.7841282],[7.5428526,43.7843414],[7.5414715,43.784392],[7.5401196,43.7841532],[7.5397634,43.7840215],[7.5396231,43.7838213],[7.5397618,43.783545],[7.5397605,43.783299],[7.5398754,43.7831485],[7.5399011,43.7826374],[7.5399811,43.7825309],[7.5398965,43.7824673],[7.5397342,43.7826628],[7.5393167,43.7825156],[7.5386087,43.7827784],[7.5385385,43.7829904],[7.538087,43.7834929],[7.5378255,43.7833746],[7.5372833,43.7835131],[7.5371354,43.7836269],[7.5369103,43.7835736],[7.5365806,43.7834056],[7.5367914,43.783055],[7.536752,43.7829676],[7.5365877,43.7829181],[7.536502,43.7830371],[7.5363888,43.7830313],[7.53636,43.7832527],[7.5362653,43.7833013],[7.5362105,43.7831774],[7.5360372,43.7832509],[7.5359428,43.7831613],[7.5355315,43.7831143],[7.5354,43.7831797],[7.5352576,43.7831091],[7.5347581,43.7833128],[7.5343864,43.7835662],[7.5339971,43.7835806],[7.5337714,43.7837786],[7.5334927,43.7838764],[7.5332221,43.7838791],[7.5330677,43.7839705],[7.5319613,43.7842012],[7.5314442,43.7842572],[7.530076,43.7840615],[7.529972,43.7841938],[7.5299227,43.7846449],[7.5295961,43.7853102],[7.5295304,43.7856121],[7.5296536,43.7858723],[7.5298736,43.7860334],[7.5297267,43.7861339],[7.5301933,43.7871787],[7.5301738,43.7875818],[7.5299188,43.7884062],[7.5295082,43.7890026],[7.5290335,43.7902625],[7.5277127,43.7910135],[7.5267196,43.7926818],[7.5266235,43.7930237],[7.5266958,43.793302],[7.5261769,43.7937952],[7.5262508,43.7941702],[7.5260101,43.7944256],[7.5259378,43.794868],[7.5256569,43.7951622],[7.5257726,43.7952695],[7.5251965,43.7959723],[7.5250658,43.79634],[7.5221689,43.7989975],[7.5217255,43.799297],[7.5206136,43.800741],[7.520502,43.8011369],[7.5201707,43.8016194],[7.5193032,43.8020189],[7.5185469,43.8026073],[7.518226,43.8030753],[7.5181485,43.8033722],[7.5186754,43.8039181],[7.5180306,43.8048758],[7.5178437,43.8054492],[7.5177806,43.8058511],[7.5179259,43.8060587],[7.5177759,43.8063808],[7.5178001,43.8070486],[7.5178698,43.8072015],[7.5176982,43.8081264],[7.5173797,43.8088621],[7.5172028,43.8090908],[7.517132,43.8095692],[7.5166763,43.8106852],[7.5164438,43.810785],[7.5158378,43.8125908],[7.5152107,43.8137197],[7.5146782,43.8144422],[7.514584,43.8149766],[7.5142475,43.8154874],[7.514341,43.8157269],[7.514125,43.8165413],[7.5142124,43.8173436],[7.5139772,43.8180757],[7.5143097,43.8182864],[7.5142376,43.818863],[7.5142879,43.8193377],[7.5139207,43.8196215],[7.5138103,43.8199984],[7.5138316,43.8203066],[7.5135134,43.8206565],[7.512873,43.8220948],[7.5130106,43.8223308],[7.5129529,43.8224862],[7.5124481,43.8230315],[7.5115958,43.8236209],[7.511333,43.823988],[7.5113799,43.8242059],[7.5105278,43.8258269],[7.5103298,43.8263652],[7.5102933,43.8267228],[7.5105638,43.8275071],[7.5103519,43.8289445],[7.5104192,43.8293053],[7.5102315,43.8305061],[7.5101092,43.8323351],[7.5094157,43.8334624],[7.5094621,43.8336611],[7.5093576,43.8343877],[7.5081873,43.8347172],[7.508007,43.8353731],[7.5076649,43.8361241],[7.5076581,43.8364016],[7.5072065,43.8369666],[7.5071193,43.8372557],[7.5068668,43.8375245],[7.5069021,43.8377118],[7.5067782,43.8378513],[7.5069063,43.8388655],[7.506789,43.839944],[7.5069331,43.8401997],[7.5072964,43.840463],[7.507301,43.8408765],[7.5073833,43.8409758],[7.5080136,43.8413382],[7.5080858,43.8415023],[7.507251,43.8418419],[7.503051,43.8445731],[7.5020946,43.8447513]]],[[[7.5362568,43.7830369],[7.5361666,43.7830123],[7.5361714,43.783079],[7.5362568,43.7830369]]],[[[7.5470517,43.781972],[7.5468982,43.7821726],[7.5469552,43.7822527],[7.5470585,43.7821733],[7.5470517,43.781972]]],[[[7.5559147,43.7796587],[7.5557653,43.7797478],[7.5557426,43.7798604],[7.5559281,43.7797843],[7.5559147,43.7796587]]],[[[7.5584744,43.7808428],[7.5583708,43.7809657],[7.5583852,43.7809905],[7.5584843,43.7809376],[7.5584744,43.7808428]]]]},"properties":{"type":"boundary","gemeente":"Ventimiglia"}}]}