{"type":"FeatureCollection","metadata":{"gemeente":"Vercelli","slug":"vercelli","generated_at":"2026-09-26T13:10:54.053533Z","total_points":112,"providers":["PosteItaliane","DPD","InPost","GLS","DHL","Amazon"],"bounds":[8.392121,45.29191,8.44541148,45.33831]},"features":[{"type":"Feature","geometry":{"type":"Point","coordinates":[8.3922548,45.31938539]},"properties":{"type":"pakketpunt","locatieNaam":"Tabaccheria N. 52","straatNaam":"Tangenziale Ovest","straatNr":"13","vervoerder":"PosteItaliane","puntType":"servicepunt","bezettingsgraad":50,"latitude":45.31938539,"longitude":8.3922548,"canPickup":true,"canDropoff":true,"openingstijden":{"za":"09:00 - 19:30","zo":"09:00 - 12:30","ma":"09:00 - 19:30","di":"09:00 - 19:30","wo":"09:00 - 19:30","do":"09:00 - 19:30","vr":"09:00 - 19:30"}}},{"type":"Feature","geometry":{"type":"Point","coordinates":[8.42471707,45.31671292]},"properties":{"type":"pakketpunt","locatieNaam":"Tabaccheria N. 32","straatNaam":"Viale Rimembranza","straatNr":"125","vervoerder":"PosteItaliane","puntType":"servicepunt","bezettingsgraad":50,"latitude":45.31671292,"longitude":8.42471707,"canPickup":true,"canDropoff":true,"openingstijden":{"za":"06:30 - 12:30, 14:30 - 19:30","zo":"gesloten","ma":"06:30 - 12:30, 14:30 - 19:30","di":"06:30 - 12:30, 14:30 - 19:30","wo":"06:30 - 12:30, 14:30 - 19:30","do":"06:30 - 12:30, 14:30 - 19:30","vr":"06:30 - 12:30, 14:30 - 19:30"}}},{"type":"Feature","geometry":{"type":"Point","coordinates":[8.42036672,45.32185437]},"properties":{"type":"pakketpunt","locatieNaam":"Carrefour Xx Settembre","straatNaam":"Via Venti Settembre","straatNr":"41","vervoerder":"PosteItaliane","puntType":"servicepunt","bezettingsgraad":50,"latitude":45.32185437,"longitude":8.42036672,"canPickup":true,"canDropoff":true,"openingstijden":{"za":"08:00 - 21:00","zo":"08:00 - 21:00","ma":"08:00 - 21:00","di":"08:00 - 21:00","wo":"08:00 - 21:00","do":"08:00 - 21:00","vr":"08:00 - 21:00"}}},{"type":"Feature","geometry":{"type":"Point","coordinates":[8.41166439,45.32356116]},"properties":{"type":"pakketpunt","locatieNaam":"Vercelli 2","straatNaam":"Corso Marcello Prestinari","straatNr":"95","vervoerder":"PosteItaliane","puntType":"postkantoor","bezettingsgraad":50,"latitude":45.32356116,"longitude":8.41166439,"canPickup":true,"canDropoff":true,"openingstijden":{"za":"08:20 - 12:35","zo":"gesloten","ma":"08:20 - 13:35","di":"08:20 - 13:35","wo":"08:20 - 13:35","do":"08:20 - 13:35","vr":"08:20 - 13:35"}}},{"type":"Feature","geometry":{"type":"Point","coordinates":[8.44541148,45.3045012]},"properties":{"type":"pakketpunt","locatieNaam":"Cappuccini","straatNaam":"Via Thaon De Revel","straatNr":"71","vervoerder":"PosteItaliane","puntType":"postkantoor","bezettingsgraad":50,"latitude":45.3045012,"longitude":8.44541148,"canPickup":true,"canDropoff":true,"openingstijden":{"za":"08:20 - 12:35","zo":"gesloten","ma":"08:20 - 13:35","di":"08:20 - 13:35","wo":"08:20 - 13:35","do":"08:20 - 13:35","vr":"08:20 - 13:35"}}},{"type":"Feature","geometry":{"type":"Point","coordinates":[8.40996093,45.3311305]},"properties":{"type":"pakketpunt","locatieNaam":"Vercelli 3","straatNaam":"Corso Giovanni Randaccio","straatNr":"26","vervoerder":"PosteItaliane","puntType":"postkantoor","bezettingsgraad":50,"latitude":45.3311305,"longitude":8.40996093,"canPickup":true,"canDropoff":true,"openingstijden":{"za":"08:20 - 12:45","zo":"gesloten","ma":"08:20 - 13:45","di":"08:20 - 13:45","wo":"08:20 - 13:45","do":"08:20 - 13:45","vr":"08:20 - 13:45"}}},{"type":"Feature","geometry":{"type":"Point","coordinates":[8.42963195,45.32308143]},"properties":{"type":"pakketpunt","locatieNaam":"Vercelli 1","straatNaam":"Corso Palestro 30 31 Maggio 1859","straatNr":"80","vervoerder":"PosteItaliane","puntType":"postkantoor","bezettingsgraad":50,"latitude":45.32308143,"longitude":8.42963195,"canPickup":true,"canDropoff":true,"openingstijden":{"za":"08:20 - 12:35","zo":"gesloten","ma":"08:20 - 13:35","di":"08:20 - 13:35","wo":"08:20 - 13:35","do":"08:20 - 13:35","vr":"08:20 - 13:35"}}},{"type":"Feature","geometry":{"type":"Point","coordinates":[8.4212222,45.31627551]},"properties":{"type":"pakketpunt","locatieNaam":"Vercelli 4","straatNaam":"Via Alessandro Malinverni","straatNr":"4","vervoerder":"PosteItaliane","puntType":"postkantoor","bezettingsgraad":50,"latitude":45.31627551,"longitude":8.4212222,"canPickup":true,"canDropoff":true,"openingstijden":{"za":"08:20 - 12:35","zo":"gesloten","ma":"08:20 - 13:35","di":"08:20 - 13:35","wo":"08:20 - 13:35","do":"08:20 - 13:35","vr":"08:20 - 13:35"}}},{"type":"Feature","geometry":{"type":"Point","coordinates":[8.42255164,45.3239416]},"properties":{"type":"pakketpunt","locatieNaam":"Vercelli Centro","straatNaam":"Via Palazzo Di Citta'","straatNr":"1","vervoerder":"PosteItaliane","puntType":"postkantoor","bezettingsgraad":50,"latitude":45.3239416,"longitude":8.42255164,"canPickup":true,"canDropoff":true,"openingstijden":{"za":"08:20 - 12:35","zo":"gesloten","ma":"08:20 - 19:05","di":"08:20 - 19:05","wo":"08:20 - 19:05","do":"08:20 - 19:05","vr":"08:20 - 19:05"}}},{"type":"Feature","geometry":{"type":"Point","coordinates":[8.40721128,45.31889681]},"properties":{"type":"pakketpunt","locatieNaam":"Vercelli 6","straatNaam":"Via Antonio Gramsci","straatNr":"10","vervoerder":"PosteItaliane","puntType":"postkantoor","bezettingsgraad":50,"latitude":45.31889681,"longitude":8.40721128,"canPickup":true,"canDropoff":true,"openingstijden":{"za":"08:20 - 12:45","zo":"gesloten","ma":"08:20 - 13:45","di":"08:20 - 13:45","wo":"08:20 - 13:45","do":"08:20 - 13:45","vr":"08:20 - 13:45"}}},{"type":"Feature","geometry":{"type":"Point","coordinates":[8.42957333,45.31867183]},"properties":{"type":"pakketpunt","locatieNaam":"Traco Point","straatNaam":"Corso Amedeo De' Rege","straatNr":"63","vervoerder":"PosteItaliane","puntType":"servicepunt","bezettingsgraad":50,"latitude":45.31867183,"longitude":8.42957333,"canPickup":true,"canDropoff":true,"openingstijden":{"za":"09:00 - 12:00","zo":"gesloten","ma":"09:00 - 12:30, 15:00 - 18:00","di":"09:00 - 12:30, 15:00 - 18:00","wo":"09:00 - 12:30, 15:00 - 18:00","do":"09:00 - 12:30, 15:00 - 18:00","vr":"09:00 - 12:30, 15:00 - 18:00"}}},{"type":"Feature","geometry":{"type":"Point","coordinates":[8.40029281,45.3238989]},"properties":{"type":"pakketpunt","locatieNaam":"Tabaccheria N. 19","straatNaam":"Corso Torino","straatNr":"61","vervoerder":"PosteItaliane","puntType":"servicepunt","bezettingsgraad":50,"latitude":45.3238989,"longitude":8.40029281,"canPickup":true,"canDropoff":true,"openingstijden":{"za":"07:00 - 19:30","zo":"gesloten","ma":"07:00 - 19:30","di":"07:00 - 19:30","wo":"07:00 - 19:30","do":"07:00 - 19:30","vr":"07:00 - 19:30"}}},{"type":"Feature","geometry":{"type":"Point","coordinates":[8.4206985,45.32467396]},"properties":{"type":"pakketpunt","locatieNaam":"Tabaccheria N. 4","straatNaam":"Via Fratelli Bandiera","straatNr":"6","vervoerder":"PosteItaliane","puntType":"servicepunt","bezettingsgraad":50,"latitude":45.32467396,"longitude":8.4206985,"canPickup":true,"canDropoff":true,"openingstijden":{"za":"08:30 - 12:30, 15:00 - 19:30","zo":"gesloten","ma":"08:30 - 12:30, 15:00 - 19:30","di":"08:30 - 12:30, 15:00 - 19:30","wo":"08:30 - 12:30, 15:00 - 19:30","do":"08:30 - 12:30, 15:00 - 19:30","vr":"08:30 - 12:30, 15:00 - 19:30"}}},{"type":"Feature","geometry":{"type":"Point","coordinates":[8.4093179,45.31583842]},"properties":{"type":"pakketpunt","locatieNaam":"Stazione Di Servizio Tamoil","straatNaam":"Via Trino Snc","straatNr":"6","vervoerder":"PosteItaliane","puntType":"automaat","bezettingsgraad":50,"latitude":45.31583842,"longitude":8.4093179,"canPickup":true,"canDropoff":true,"openingstijden":{"za":"00:01 - 23:59","zo":"00:01 - 23:59","ma":"00:01 - 23:59","di":"00:01 - 23:59","wo":"00:01 - 23:59","do":"00:01 - 23:59","vr":"00:01 - 23:59"}}},{"type":"Feature","geometry":{"type":"Point","coordinates":[8.40803662,45.33386688]},"properties":{"type":"pakketpunt","locatieNaam":"Gallerie Bennet Vercelli","straatNaam":"Strada Vicinale Cantarana","straatNr":"1","vervoerder":"PosteItaliane","puntType":"automaat","bezettingsgraad":50,"latitude":45.33386688,"longitude":8.40803662,"canPickup":true,"canDropoff":true,"openingstijden":{"za":"00:01 - 23:59","zo":"00:01 - 23:59","ma":"00:01 - 23:59","di":"00:01 - 23:59","wo":"00:01 - 23:59","do":"00:01 - 23:59","vr":"00:01 - 23:59"}}},{"type":"Feature","geometry":{"type":"Point","coordinates":[8.44298677,45.30752706]},"properties":{"type":"pakketpunt","locatieNaam":"Tabaccheria N. 10","straatNaam":"Via Thaon De Revel","straatNr":"18","vervoerder":"PosteItaliane","puntType":"servicepunt","bezettingsgraad":50,"latitude":45.30752706,"longitude":8.44298677,"canPickup":true,"canDropoff":true,"openingstijden":{"za":"07:30 - 12:30, 14:00 - 20:00","zo":"gesloten","ma":"07:30 - 12:30, 14:00 - 20:00","di":"07:30 - 12:30, 14:00 - 20:00","wo":"07:30 - 12:30, 14:00 - 20:00","do":"07:30 - 12:30, 14:00 - 20:00","vr":"07:30 - 12:30, 14:00 - 20:00"}}},{"type":"Feature","geometry":{"type":"Point","coordinates":[8.43081677,45.33002009]},"properties":{"type":"pakketpunt","locatieNaam":"Supermercato Ipercoop","straatNaam":"Largo Chatillon","straatNr":"1","vervoerder":"PosteItaliane","puntType":"automaat","bezettingsgraad":50,"latitude":45.33002009,"longitude":8.43081677,"canPickup":true,"canDropoff":true,"openingstijden":{"za":"09:00 - 13:00","zo":"gesloten","ma":"09:00 - 13:00","di":"09:00 - 13:00","wo":"09:00 - 13:00","do":"09:00 - 13:00","vr":"09:00 - 13:00"}}},{"type":"Feature","geometry":{"type":"Point","coordinates":[8.42380567,45.32591894]},"properties":{"type":"pakketpunt","locatieNaam":"Tabaccheria N. 5","straatNaam":"Via Vincenzo Gioberti","straatNr":"8","vervoerder":"PosteItaliane","puntType":"servicepunt","bezettingsgraad":50,"latitude":45.32591894,"longitude":8.42380567,"canPickup":true,"canDropoff":true,"openingstijden":{"za":"07:00 - 12:30, 15:00 - 19:30","zo":"gesloten","ma":"07:00 - 12:30, 15:00 - 19:30","di":"07:00 - 12:30, 15:00 - 19:30","wo":"07:00 - 12:30, 15:00 - 19:30","do":"07:00 - 12:30, 15:00 - 19:30","vr":"07:00 - 12:30, 15:00 - 19:30"}}},{"type":"Feature","geometry":{"type":"Point","coordinates":[8.41909003,45.32367299]},"properties":{"type":"pakketpunt","locatieNaam":"Tabaccheria N. 7","straatNaam":"Corso Liberta'","straatNr":"13","vervoerder":"PosteItaliane","puntType":"servicepunt","bezettingsgraad":50,"latitude":45.32367299,"longitude":8.41909003,"canPickup":true,"canDropoff":true,"openingstijden":{"za":"09:00 - 12:30, 16:00 - 19:30","zo":"gesloten","ma":"09:00 - 12:30, 16:00 - 19:30","di":"09:00 - 12:30, 16:00 - 19:30","wo":"09:00 - 12:30, 16:00 - 19:30","do":"09:00 - 12:30, 16:00 - 19:30","vr":"09:00 - 12:30, 16:00 - 19:30"}}},{"type":"Feature","geometry":{"type":"Point","coordinates":[8.42274457,45.32587843]},"properties":{"type":"pakketpunt","locatieNaam":"Tabaccheria N. 1","straatNaam":"Via Giuseppe Verdi","straatNr":"3","vervoerder":"PosteItaliane","puntType":"servicepunt","bezettingsgraad":50,"latitude":45.32587843,"longitude":8.42274457,"canPickup":true,"canDropoff":true,"openingstijden":{"za":"08:30 - 12:30, 15:30 - 19:30","zo":"gesloten","ma":"07:30 - 12:30, 15:30 - 19:30","di":"07:30 - 12:30, 15:30 - 19:30","wo":"07:30 - 12:30, 15:30 - 19:30","do":"07:30 - 12:30, 15:30 - 19:30","vr":"07:30 - 12:30, 15:30 - 19:30"}}},{"type":"Feature","geometry":{"type":"Point","coordinates":[8.41414802,45.31966787]},"properties":{"type":"pakketpunt","locatieNaam":"Edicola Gabriella","straatNaam":"Via Ugo Foscolo","straatNr":"10","vervoerder":"PosteItaliane","puntType":"servicepunt","bezettingsgraad":50,"latitude":45.31966787,"longitude":8.41414802,"canPickup":true,"canDropoff":true,"openingstijden":{"za":"06:00 - 12:00","zo":"gesloten","ma":"06:00 - 12:00, 16:00 - 18:00","di":"06:00 - 12:00, 16:00 - 18:00","wo":"06:00 - 12:00, 16:00 - 18:00","do":"06:00 - 12:00, 16:00 - 18:00","vr":"06:00 - 12:00, 16:00 - 18:00"}}},{"type":"Feature","geometry":{"type":"Point","coordinates":[8.42078655,45.32733896]},"properties":{"type":"pakketpunt","locatieNaam":"Cartoleria Coppo Libri","straatNaam":"Via Galileo Ferraris","straatNr":"70","vervoerder":"PosteItaliane","puntType":"servicepunt","bezettingsgraad":50,"latitude":45.32733896,"longitude":8.42078655,"canPickup":true,"canDropoff":true,"openingstijden":{"za":"08:30 - 12:30, 15:30 - 19:00","zo":"gesloten","ma":"09:30 - 12:30, 15:30 - 19:00","di":"08:30 - 12:30, 15:30 - 19:00","wo":"08:30 - 12:30, 15:30 - 19:00","do":"08:30 - 12:30, 15:30 - 19:00","vr":"08:30 - 12:30, 15:30 - 19:00"}}},{"type":"Feature","geometry":{"type":"Point","coordinates":[8.42100781,45.31921498]},"properties":{"type":"pakketpunt","locatieNaam":"Tabaccheria N. 18","straatNaam":"Via Massaua","straatNr":"32","vervoerder":"PosteItaliane","puntType":"servicepunt","bezettingsgraad":50,"latitude":45.31921498,"longitude":8.42100781,"canPickup":true,"canDropoff":true,"openingstijden":{"za":"06:30 - 12:30, 15:00 - 20:00","zo":"07:00 - 12:30","ma":"06:30 - 12:30, 15:00 - 20:00","di":"06:30 - 12:30, 15:00 - 20:00","wo":"06:30 - 12:30, 15:00 - 20:00","do":"06:30 - 12:30, 15:00 - 20:00","vr":"06:30 - 12:30, 15:00 - 20:00"}}},{"type":"Feature","geometry":{"type":"Point","coordinates":[8.41559658,45.31851366]},"properties":{"type":"pakketpunt","locatieNaam":"Tabaccheria N. 44","straatNaam":"Corso Mario Abbiate","straatNr":"44","vervoerder":"PosteItaliane","puntType":"servicepunt","bezettingsgraad":50,"latitude":45.31851366,"longitude":8.41559658,"canPickup":true,"canDropoff":true,"openingstijden":{"za":"07:30 - 19:30","zo":"gesloten","ma":"07:30 - 19:30","di":"07:30 - 19:30","wo":"07:30 - 19:30","do":"07:30 - 19:30","vr":"07:30 - 19:30"}}},{"type":"Feature","geometry":{"type":"Point","coordinates":[8.43337043,45.32534022]},"properties":{"type":"pakketpunt","locatieNaam":"Tabaccheria N. 20","straatNaam":"Corso Giuseppe Rigola","straatNr":"6","vervoerder":"PosteItaliane","puntType":"servicepunt","bezettingsgraad":50,"latitude":45.32534022,"longitude":8.43337043,"canPickup":true,"canDropoff":true,"openingstijden":{"za":"07:00 - 12:30, 15:00 - 19:30","zo":"gesloten","ma":"07:00 - 12:30, 15:00 - 19:30","di":"07:00 - 12:30, 15:00 - 19:30","wo":"07:00 - 12:30, 15:00 - 19:30","do":"07:00 - 12:30, 15:00 - 19:30","vr":"07:00 - 12:30, 15:00 - 19:30"}}},{"type":"Feature","geometry":{"type":"Point","coordinates":[8.41394304,45.31993116]},"properties":{"type":"pakketpunt","locatieNaam":"Tabaccheria N. 29","straatNaam":"Via Trino","straatNr":"2","vervoerder":"PosteItaliane","puntType":"servicepunt","bezettingsgraad":50,"latitude":45.31993116,"longitude":8.41394304,"canPickup":true,"canDropoff":true,"openingstijden":{"za":"07:30 - 13:00, 15:00 - 20:00","zo":"gesloten","ma":"07:30 - 13:00, 15:00 - 20:00","di":"07:30 - 13:00, 15:00 - 20:00","wo":"07:30 - 13:00, 15:00 - 20:00","do":"07:30 - 13:00, 15:00 - 20:00","vr":"07:30 - 13:00, 15:00 - 20:00"}}},{"type":"Feature","geometry":{"type":"Point","coordinates":[8.42556508,45.32904897]},"properties":{"type":"pakketpunt","locatieNaam":"Tabaccheria N. 26","straatNaam":"Corso Italia","straatNr":"61","vervoerder":"PosteItaliane","puntType":"servicepunt","bezettingsgraad":50,"latitude":45.32904897,"longitude":8.42556508,"canPickup":true,"canDropoff":true,"openingstijden":{"za":"07:00 - 12:30, 14:30 - 19:30","zo":"gesloten","ma":"07:00 - 12:30, 14:30 - 19:30","di":"07:00 - 12:30, 14:30 - 19:30","wo":"07:00 - 12:30, 14:30 - 19:30","do":"07:00 - 12:30, 14:30 - 19:30","vr":"07:00 - 12:30, 14:30 - 19:30"}}},{"type":"Feature","geometry":{"type":"Point","coordinates":[8.40555415,45.33785545]},"properties":{"type":"pakketpunt","locatieNaam":"Tabaccheria N. 49","straatNaam":"Via Leonardo Walter Manzone","straatNr":"98","vervoerder":"PosteItaliane","puntType":"servicepunt","bezettingsgraad":50,"latitude":45.33785545,"longitude":8.40555415,"canPickup":true,"canDropoff":true,"openingstijden":{"za":"07:00 - 12:00, 15:00 - 19:30","zo":"gesloten","ma":"gesloten","di":"gesloten","wo":"gesloten","do":"gesloten","vr":"gesloten"}}},{"type":"Feature","geometry":{"type":"Point","coordinates":[8.41866655,45.32458957]},"properties":{"type":"pakketpunt","locatieNaam":"Tuttochiaro","straatNaam":"Via Dante Alighieri","straatNr":"33","vervoerder":"PosteItaliane","puntType":"servicepunt","bezettingsgraad":50,"latitude":45.32458957,"longitude":8.41866655,"canPickup":true,"canDropoff":true,"openingstijden":{"za":"gesloten","zo":"gesloten","ma":"15:30 - 19:00","di":"09:30 - 12:30, 15:30 - 19:00","wo":"09:30 - 12:30, 15:30 - 19:00","do":"09:30 - 12:30, 15:30 - 19:00","vr":"09:30 - 12:30, 15:30 - 19:00"}}},{"type":"Feature","geometry":{"type":"Point","coordinates":[8.411667,45.31786404]},"properties":{"type":"pakketpunt","locatieNaam":"Tabaccheria N. 47","straatNaam":"Via Trino","straatNr":"46","vervoerder":"PosteItaliane","puntType":"servicepunt","bezettingsgraad":50,"latitude":45.31786404,"longitude":8.411667,"canPickup":true,"canDropoff":true,"openingstijden":{"za":"06:30 - 19:45","zo":"06:30 - 19:45","ma":"06:30 - 14:00","di":"06:30 - 19:45","wo":"06:30 - 19:45","do":"06:30 - 19:45","vr":"06:30 - 19:45"}}},{"type":"Feature","geometry":{"type":"Point","coordinates":[8.40355064,45.32420169]},"properties":{"type":"pakketpunt","locatieNaam":"Stazione Di Servizio Eni","straatNaam":"Corso Torino","straatNr":"6","vervoerder":"PosteItaliane","puntType":"automaat","bezettingsgraad":50,"latitude":45.32420169,"longitude":8.40355064,"canPickup":true,"canDropoff":true,"openingstijden":{"za":"00:01 - 23:59","zo":"00:01 - 23:59","ma":"00:01 - 23:59","di":"00:01 - 23:59","wo":"00:01 - 23:59","do":"00:01 - 23:59","vr":"00:01 - 23:59"}}},{"type":"Feature","geometry":{"type":"Point","coordinates":[8.4207775423,45.3273145992]},"properties":{"type":"pakketpunt","locatieNaam":"Cartoleria - Coppo - Libri","straatNaam":"VIA GALILEO FERRARIS","straatNr":"68/72","vervoerder":"DPD","puntType":"pickup_point","bezettingsgraad":50,"latitude":45.3273145992,"longitude":8.4207775423,"canPickup":true,"canDropoff":true,"openingstijden":{"ma":"09:30 - 12:30, 15:30 - 19:15","di":"09:30 - 12:30, 15:30 - 19:15","wo":"09:30 - 12:30, 15:30 - 19:15","do":"09:30 - 12:30, 15:30 - 19:15","vr":"09:30 - 12:30, 15:30 - 19:15","za":"09:30 - 12:30, 15:30 - 19:15","zo":"gesloten"}}},{"type":"Feature","geometry":{"type":"Point","coordinates":[8.4186489,45.3245978]},"properties":{"type":"pakketpunt","locatieNaam":"Tutto Chiaro Telefonia","straatNaam":"VIA DANTE ALIGHIERI","straatNr":"33","vervoerder":"DPD","puntType":"pickup_point","bezettingsgraad":50,"latitude":45.3245978,"longitude":8.4186489,"canPickup":true,"canDropoff":true,"openingstijden":{"ma":"09:30 - 12:30, 15:30 - 19:00","di":"09:30 - 12:30, 15:30 - 19:00","wo":"09:30 - 12:30, 15:30 - 19:00","do":"09:30 - 12:30, 15:30 - 19:00","vr":"09:30 - 12:30, 15:30 - 19:00","za":"gesloten","zo":"gesloten"}}},{"type":"Feature","geometry":{"type":"Point","coordinates":[8.4296221,45.3187017]},"properties":{"type":"pakketpunt","locatieNaam":"Traco Point","straatNaam":"CORSO DE REGE","straatNr":"63","vervoerder":"DPD","puntType":"pickup_point","bezettingsgraad":50,"latitude":45.3187017,"longitude":8.4296221,"canPickup":true,"canDropoff":true,"openingstijden":{"ma":"09:00 - 12:30, 15:00 - 17:30","di":"09:00 - 12:30, 15:00 - 17:30","wo":"09:00 - 12:30, 15:00 - 17:30","do":"09:00 - 12:30, 15:00 - 17:30","vr":"09:00 - 12:30, 15:00 - 17:30","za":"gesloten","zo":"gesloten"}}},{"type":"Feature","geometry":{"type":"Point","coordinates":[8.41655303,45.32874217]},"properties":{"type":"pakketpunt","locatieNaam":"Nero su Bianco-Copisteria","straatNaam":"CORSO GASTALDI","straatNr":"1","vervoerder":"DPD","puntType":"pickup_point","bezettingsgraad":50,"latitude":45.32874217,"longitude":8.41655303,"canPickup":true,"canDropoff":true,"openingstijden":{"ma":"09:00 - 12:30, 15:30 - 19:00","di":"09:00 - 12:30, 15:30 - 19:00","wo":"09:00 - 12:30, 15:30 - 19:00","do":"09:00 - 12:30, 15:30 - 19:00","vr":"09:00 - 12:30, 15:30 - 19:00","za":"09:00 - 12:00","zo":"gesloten"}}},{"type":"Feature","geometry":{"type":"Point","coordinates":[8.44374539,45.30645551]},"properties":{"type":"pakketpunt","locatieNaam":"Edicola Cappuccini","straatNaam":"VIA THAON DE REVEL","straatNr":"25","vervoerder":"DPD","puntType":"pickup_point","bezettingsgraad":50,"latitude":45.30645551,"longitude":8.44374539,"canPickup":true,"canDropoff":true,"openingstijden":{"ma":"09:00 - 13:00, 16:30 - 19:00","di":"09:15 - 13:00, 16:30 - 19:00","wo":"09:00 - 13:00, 16:30 - 19:00","do":"09:00 - 13:00, 16:30 - 19:00","vr":"09:00 - 13:00, 16:30 - 19:00","za":"09:00 - 12:30","zo":"gesloten"}}},{"type":"Feature","geometry":{"type":"Point","coordinates":[8.41424397,45.31972728]},"properties":{"type":"pakketpunt","locatieNaam":"Edicola Gabriella","straatNaam":"VIA UGO FOSCOLO","straatNr":"10","vervoerder":"DPD","puntType":"pickup_point","bezettingsgraad":50,"latitude":45.31972728,"longitude":8.41424397,"canPickup":true,"canDropoff":true,"openingstijden":{"ma":"06:00 - 12:00, 16:00 - 18:00","di":"06:00 - 12:00, 16:00 - 18:00","wo":"06:00 - 12:00, 16:00 - 18:00","do":"06:00 - 12:00, 16:00 - 18:00","vr":"06:00 - 12:00, 16:00 - 18:00","za":"06:00 - 12:00","zo":"gesloten"}}},{"type":"Feature","geometry":{"type":"Point","coordinates":[8.415647,45.32362]},"properties":{"type":"pakketpunt","locatieNaam":"Confesercenti Servizi","straatNaam":"VIA DURANDI","straatNr":"1","vervoerder":"DPD","puntType":"pickup_point","bezettingsgraad":50,"latitude":45.32362,"longitude":8.415647,"canPickup":true,"canDropoff":true,"openingstijden":{"ma":"09:00 - 14:00","di":"09:00 - 14:00","wo":"09:00 - 14:00","do":"09:00 - 14:00","vr":"09:00 - 13:00","za":"gesloten","zo":"gesloten"}}},{"type":"Feature","geometry":{"type":"Point","coordinates":[8.4306,45.331183]},"properties":{"type":"pakketpunt","locatieNaam":"BRT LOCKER - Physicall via Szego","straatNaam":"VIA SZEGO","straatNr":"1","vervoerder":"DPD","puntType":"dpd_box","bezettingsgraad":50,"latitude":45.331183,"longitude":8.4306,"canPickup":true,"canDropoff":true,"openingstijden":{"ma":"08:00 - 21:30","di":"08:00 - 21:30","wo":"08:00 - 21:30","do":"08:00 - 21:30","vr":"08:00 - 21:30","za":"09:00 - 18:00","zo":"gesloten"}}},{"type":"Feature","geometry":{"type":"Point","coordinates":[8.41866,45.32462]},"properties":{"type":"pakketpunt","locatieNaam":"InPost Point","straatNaam":"Via Dante Alighieri","straatNr":"33","vervoerder":"InPost","puntType":"servicepunt","bezettingsgraad":50,"latitude":45.32462,"longitude":8.41866,"canPickup":true,"canDropoff":true,"openingstijden":"Lun: 15:30-19:30 Mar-Ven: 09:30 - 12:30 - 15:30 - 19:30"}},{"type":"Feature","geometry":{"type":"Point","coordinates":[8.4297,45.31888]},"properties":{"type":"pakketpunt","locatieNaam":"InPost Point","straatNaam":"Corso Amedeo De Rege","straatNr":"63","vervoerder":"InPost","puntType":"servicepunt","bezettingsgraad":50,"latitude":45.31888,"longitude":8.4297,"canPickup":true,"canDropoff":true,"openingstijden":"Lun-Ven: 09:00 - 12:30 - 14:30 - 17:30"}},{"type":"Feature","geometry":{"type":"Point","coordinates":[8.41654,45.32889]},"properties":{"type":"pakketpunt","locatieNaam":"InPost Point","straatNaam":"Corso Giovanni Gastaldi","straatNr":"1","vervoerder":"InPost","puntType":"servicepunt","bezettingsgraad":50,"latitude":45.32889,"longitude":8.41654,"canPickup":true,"canDropoff":true,"openingstijden":"Lun-Ven: 09:00 - 12:30 - 15:30 - 19:00 Sab: 09:00 - 12:00"}},{"type":"Feature","geometry":{"type":"Point","coordinates":[8.39444,45.32552]},"properties":{"type":"pakketpunt","locatieNaam":"InPost Locker 24/7","straatNaam":"Via Torino","straatNr":"snc","vervoerder":"InPost","puntType":"automaat","bezettingsgraad":50,"latitude":45.32552,"longitude":8.39444,"canPickup":true,"canDropoff":true,"openingstijden":null}},{"type":"Feature","geometry":{"type":"Point","coordinates":[8.43112,45.32511]},"properties":{"type":"pakketpunt","locatieNaam":"InPost Locker 24/7","straatNaam":"Piazza Modesto Cugnolio","straatNr":"","vervoerder":"InPost","puntType":"automaat","bezettingsgraad":50,"latitude":45.32511,"longitude":8.43112,"canPickup":true,"canDropoff":true,"openingstijden":null}},{"type":"Feature","geometry":{"type":"Point","coordinates":[8.40931,45.31586]},"properties":{"type":"pakketpunt","locatieNaam":"InPost Locker 24/7","straatNaam":"Via Trino ang  Via Caduti Nei Lager","straatNr":"","vervoerder":"InPost","puntType":"automaat","bezettingsgraad":50,"latitude":45.31586,"longitude":8.40931,"canPickup":true,"canDropoff":true,"openingstijden":null}},{"type":"Feature","geometry":{"type":"Point","coordinates":[8.43877,45.31198]},"properties":{"type":"pakketpunt","locatieNaam":"InPost Locker 24/7","straatNaam":"Corso Papa Giovanni Paolo II","straatNr":"42","vervoerder":"InPost","puntType":"automaat","bezettingsgraad":50,"latitude":45.31198,"longitude":8.43877,"canPickup":true,"canDropoff":true,"openingstijden":null}},{"type":"Feature","geometry":{"type":"Point","coordinates":[8.40712,45.33403]},"properties":{"type":"pakketpunt","locatieNaam":"InPost Locker 24/7","straatNaam":"Strada Vicinale Cantarana","straatNr":"1","vervoerder":"InPost","puntType":"automaat","bezettingsgraad":50,"latitude":45.33403,"longitude":8.40712,"canPickup":true,"canDropoff":true,"openingstijden":null}},{"type":"Feature","geometry":{"type":"Point","coordinates":[8.40318,45.32425]},"properties":{"type":"pakketpunt","locatieNaam":"ENI","straatNaam":"Strada Torino","straatNr":"6","vervoerder":"InPost","puntType":"automaat","bezettingsgraad":50,"latitude":45.32425,"longitude":8.40318,"canPickup":true,"canDropoff":true,"openingstijden":null}},{"type":"Feature","geometry":{"type":"Point","coordinates":[8.42864,45.31932]},"properties":{"type":"pakketpunt","locatieNaam":"InPost Locker 24/7","straatNaam":"C.so Amedeo de Rege","straatNr":"95","vervoerder":"InPost","puntType":"automaat","bezettingsgraad":50,"latitude":45.31932,"longitude":8.42864,"canPickup":true,"canDropoff":true,"openingstijden":"24/7"}},{"type":"Feature","geometry":{"type":"Point","coordinates":[8.40533,45.33831]},"properties":{"type":"pakketpunt","locatieNaam":"InPost Locker 24/7","straatNaam":"Via Manzone","straatNr":"99","vervoerder":"InPost","puntType":"automaat","bezettingsgraad":50,"latitude":45.33831,"longitude":8.40533,"canPickup":true,"canDropoff":true,"openingstijden":"24/7"}},{"type":"Feature","geometry":{"type":"Point","coordinates":[8.4449068,45.3052403]},"properties":{"type":"pakketpunt","locatieNaam":"Edicola Consoli","straatNaam":"Via Thaon De Revel","straatNr":"snc","vervoerder":"GLS","puntType":"parcel_shop","bezettingsgraad":50,"latitude":45.3052403,"longitude":8.4449068,"canPickup":true,"canDropoff":true,"openingstijden":"za: 09:00 - 12:30; ma: 09:00 - 13:00, 16:30 - 19:00"}},{"type":"Feature","geometry":{"type":"Point","coordinates":[8.4296221,45.3187017]},"properties":{"type":"pakketpunt","locatieNaam":"TRACO POINT","straatNaam":"Corso Amedeo De Rege","straatNr":"63","vervoerder":"GLS","puntType":"parcel_shop","bezettingsgraad":50,"latitude":45.3187017,"longitude":8.4296221,"canPickup":true,"canDropoff":true,"openingstijden":"ma: 09:00 - 12:30, 15:00 - 18:00; di: 09:00 - 12:30, 15:00 - 18:00"}},{"type":"Feature","geometry":{"type":"Point","coordinates":[8.4268158,45.3204903]},"properties":{"type":"pakketpunt","locatieNaam":"tabaccheria caffetteria MASTELLONE","straatNaam":"Corso De Rege","straatNr":"26","vervoerder":"GLS","puntType":"parcel_shop","bezettingsgraad":50,"latitude":45.3204903,"longitude":8.4268158,"canPickup":true,"canDropoff":true,"openingstijden":"za: 09:00 - 19:30; ma: 09:00 - 19:30"}},{"type":"Feature","geometry":{"type":"Point","coordinates":[8.415647,45.32362]},"properties":{"type":"pakketpunt","locatieNaam":"CONFESERCENTI","straatNaam":"Via Jacopo Durandi","straatNr":"1","vervoerder":"GLS","puntType":"parcel_shop","bezettingsgraad":50,"latitude":45.32362,"longitude":8.415647,"canPickup":true,"canDropoff":true,"openingstijden":"ma: 09:00 - 14:00; di: 09:00 - 14:00"}},{"type":"Feature","geometry":{"type":"Point","coordinates":[8.4186384,45.3245947]},"properties":{"type":"pakketpunt","locatieNaam":"TUTTOCHIARO","straatNaam":"Via Dante Alighieri","straatNr":"33","vervoerder":"GLS","puntType":"parcel_shop","bezettingsgraad":50,"latitude":45.3245947,"longitude":8.4186384,"canPickup":true,"canDropoff":true,"openingstijden":"ma: 09:30 - 12:30, 15:30 - 19:00; di: 09:30 - 12:30, 15:30 - 19:00"}},{"type":"Feature","geometry":{"type":"Point","coordinates":[8.425064,45.3247616]},"properties":{"type":"pakketpunt","locatieNaam":"BAR DEL CORSO","straatNaam":"Corso Liberta'","straatNr":"209","vervoerder":"GLS","puntType":"parcel_shop","bezettingsgraad":50,"latitude":45.3247616,"longitude":8.425064,"canPickup":true,"canDropoff":true,"openingstijden":"za: 06:00 - 23:00; zo: 06:00 - 20:00"}},{"type":"Feature","geometry":{"type":"Point","coordinates":[8.4227133,45.3258653]},"properties":{"type":"pakketpunt","locatieNaam":"IQOS PREMIUM PARTNER VERCELLI","straatNaam":"Via Giuseppe Verdi","straatNr":"3","vervoerder":"GLS","puntType":"parcel_shop","bezettingsgraad":50,"latitude":45.3258653,"longitude":8.4227133,"canPickup":true,"canDropoff":true,"openingstijden":"za: 08:30 - 12:30, 15:30 - 19:30; ma: 07:30 - 12:30, 15:30 - 19:30"}},{"type":"Feature","geometry":{"type":"Point","coordinates":[8.4182026,45.3268984]},"properties":{"type":"pakketpunt","locatieNaam":"BENINI ESTORE","straatNaam":"Via G.B.Viotti","straatNr":"2/4","vervoerder":"GLS","puntType":"parcel_shop","bezettingsgraad":50,"latitude":45.3268984,"longitude":8.4182026,"canPickup":true,"canDropoff":true,"openingstijden":"za: 09:00 - 12:30, 15:00 - 19:00; ma: 15:00 - 19:30"}},{"type":"Feature","geometry":{"type":"Point","coordinates":[8.4207693,45.3274153]},"properties":{"type":"pakketpunt","locatieNaam":"CARTOLERIA COPPO LIBRI","straatNaam":"Via Galileo Ferraris","straatNr":"70","vervoerder":"GLS","puntType":"parcel_shop","bezettingsgraad":50,"latitude":45.3274153,"longitude":8.4207693,"canPickup":true,"canDropoff":true,"openingstijden":"za: 08:30 - 12:30, 15:30 - 19:00; ma: 09:30 - 12:30, 15:30 - 19:00"}},{"type":"Feature","geometry":{"type":"Point","coordinates":[8.442987,45.307527]},"properties":{"type":"pakketpunt","locatieNaam":"TABACCHERIA N. 10","straatNaam":"VIA THAON DE REVEL 18","straatNr":"","vervoerder":"DHL","puntType":"parcelShop","bezettingsgraad":50,"latitude":45.307527,"longitude":8.442987,"canPickup":true,"canDropoff":true,"openingstijden":{"ma":"07:30 - 12:30, 14:00 - 20:00","di":"07:30 - 12:30, 14:00 - 20:00","wo":"07:30 - 12:30, 14:00 - 20:00","do":"07:30 - 12:30, 14:00 - 20:00","vr":"07:30 - 12:30, 14:00 - 20:00","za":"07:30 - 12:30, 14:00 - 20:00","zo":"gesloten"}}},{"type":"Feature","geometry":{"type":"Point","coordinates":[8.392255,45.319385]},"properties":{"type":"pakketpunt","locatieNaam":"TABACCHERIA N. 52","straatNaam":"TANGENZIALE OVEST 13","straatNr":"","vervoerder":"DHL","puntType":"parcelShop","bezettingsgraad":50,"latitude":45.319385,"longitude":8.392255,"canPickup":true,"canDropoff":true,"openingstijden":{"ma":"09:00 - 19:30","di":"09:00 - 19:30","wo":"09:00 - 19:30","do":"09:00 - 19:30","vr":"09:00 - 19:30","za":"09:00 - 19:30","zo":"09:00 - 12:30"}}},{"type":"Feature","geometry":{"type":"Point","coordinates":[8.400293,45.323899]},"properties":{"type":"pakketpunt","locatieNaam":"TABACCHERIA N. 19","straatNaam":"CORSO TORINO 61","straatNr":"","vervoerder":"DHL","puntType":"parcelShop","bezettingsgraad":50,"latitude":45.323899,"longitude":8.400293,"canPickup":true,"canDropoff":true,"openingstijden":{"ma":"07:00 - 19:30","di":"07:00 - 19:30","wo":"07:00 - 19:30","do":"07:00 - 19:30","vr":"07:00 - 19:30","za":"07:00 - 19:30","zo":"gesloten"}}},{"type":"Feature","geometry":{"type":"Point","coordinates":[8.403551,45.324202]},"properties":{"type":"pakketpunt","locatieNaam":"STAZIONE DI SERVIZIO ENI","straatNaam":"CORSO TORINO 6","straatNr":"","vervoerder":"DHL","puntType":"packStation","bezettingsgraad":50,"latitude":45.324202,"longitude":8.403551,"canPickup":true,"canDropoff":true,"openingstijden":{"ma":"00:01 - 23:59","di":"00:01 - 23:59","wo":"00:01 - 23:59","do":"00:01 - 23:59","vr":"00:01 - 23:59","za":"00:01 - 23:59","zo":"00:01 - 23:59"}}},{"type":"Feature","geometry":{"type":"Point","coordinates":[8.407211,45.318897]},"properties":{"type":"pakketpunt","locatieNaam":"Ufficio Postale VERCELLI 6","straatNaam":"VIA ANTONIO GRAMSCI 10","straatNr":"","vervoerder":"DHL","puntType":"postOffice","bezettingsgraad":50,"latitude":45.318897,"longitude":8.407211,"canPickup":true,"canDropoff":true,"openingstijden":{"ma":"08:20 - 13:45","di":"08:20 - 13:45","wo":"08:20 - 13:45","do":"08:20 - 13:45","vr":"08:20 - 13:45","za":"08:20 - 12:45","zo":"gesloten"}}},{"type":"Feature","geometry":{"type":"Point","coordinates":[8.408037,45.333867]},"properties":{"type":"pakketpunt","locatieNaam":"GALLERIE BENNET VERCELLI","straatNaam":"STRADA VICINALE CANTARANA 1","straatNr":"","vervoerder":"DHL","puntType":"packStation","bezettingsgraad":50,"latitude":45.333867,"longitude":8.408037,"canPickup":true,"canDropoff":true,"openingstijden":{"ma":"00:01 - 23:59","di":"00:01 - 23:59","wo":"00:01 - 23:59","do":"00:01 - 23:59","vr":"00:01 - 23:59","za":"00:01 - 23:59","zo":"00:01 - 23:59"}}},{"type":"Feature","geometry":{"type":"Point","coordinates":[8.409961,45.331131]},"properties":{"type":"pakketpunt","locatieNaam":"Ufficio Postale VERCELLI 3","straatNaam":"CORSO GIOVANNI RANDACCIO 26","straatNr":"","vervoerder":"DHL","puntType":"postOffice","bezettingsgraad":50,"latitude":45.331131,"longitude":8.409961,"canPickup":true,"canDropoff":true,"openingstijden":{"ma":"08:20 - 13:45","di":"08:20 - 13:45","wo":"08:20 - 13:45","do":"08:20 - 13:45","vr":"08:20 - 13:45","za":"08:20 - 12:45","zo":"gesloten"}}},{"type":"Feature","geometry":{"type":"Point","coordinates":[8.409318,45.315838]},"properties":{"type":"pakketpunt","locatieNaam":"STAZIONE DI SERVIZIO TAMOIL","straatNaam":"VIA TRINO SNC 6","straatNr":"","vervoerder":"DHL","puntType":"packStation","bezettingsgraad":50,"latitude":45.315838,"longitude":8.409318,"canPickup":true,"canDropoff":true,"openingstijden":{"ma":"00:01 - 23:59","di":"00:01 - 23:59","wo":"00:01 - 23:59","do":"00:01 - 23:59","vr":"00:01 - 23:59","za":"00:01 - 23:59","zo":"00:01 - 23:59"}}},{"type":"Feature","geometry":{"type":"Point","coordinates":[8.411664,45.323561]},"properties":{"type":"pakketpunt","locatieNaam":"Ufficio Postale VERCELLI 2","straatNaam":"CORSO MARCELLO PRESTINARI 95","straatNr":"","vervoerder":"DHL","puntType":"postOffice","bezettingsgraad":50,"latitude":45.323561,"longitude":8.411664,"canPickup":true,"canDropoff":true,"openingstijden":{"ma":"08:20 - 13:35","di":"08:20 - 13:35","wo":"08:20 - 13:35","do":"08:20 - 13:35","vr":"08:20 - 13:35","za":"08:20 - 12:35","zo":"gesloten"}}},{"type":"Feature","geometry":{"type":"Point","coordinates":[8.411667,45.317864]},"properties":{"type":"pakketpunt","locatieNaam":"TABACCHERIA N. 47","straatNaam":"VIA TRINO 46","straatNr":"","vervoerder":"DHL","puntType":"parcelShop","bezettingsgraad":50,"latitude":45.317864,"longitude":8.411667,"canPickup":true,"canDropoff":true,"openingstijden":{"ma":"06:30 - 14:00","di":"06:30 - 19:45","wo":"06:30 - 19:45","do":"06:30 - 19:45","vr":"06:30 - 19:45","za":"06:30 - 19:45","zo":"06:30 - 19:45"}}},{"type":"Feature","geometry":{"type":"Point","coordinates":[8.413943,45.319931]},"properties":{"type":"pakketpunt","locatieNaam":"TABACCHERIA N. 29","straatNaam":"VIA TRINO 2","straatNr":"","vervoerder":"DHL","puntType":"parcelShop","bezettingsgraad":50,"latitude":45.319931,"longitude":8.413943,"canPickup":true,"canDropoff":true,"openingstijden":{"ma":"07:30 - 13:00, 15:00 - 20:00","di":"07:30 - 13:00, 15:00 - 20:00","wo":"07:30 - 13:00, 15:00 - 20:00","do":"07:30 - 13:00, 15:00 - 20:00","vr":"07:30 - 13:00, 15:00 - 20:00","za":"07:30 - 13:00, 15:00 - 20:00","zo":"gesloten"}}},{"type":"Feature","geometry":{"type":"Point","coordinates":[8.414148,45.319668]},"properties":{"type":"pakketpunt","locatieNaam":"EDICOLA GABRIELLA","straatNaam":"VIA UGO FOSCOLO 10","straatNr":"","vervoerder":"DHL","puntType":"parcelShop","bezettingsgraad":50,"latitude":45.319668,"longitude":8.414148,"canPickup":true,"canDropoff":true,"openingstijden":{"ma":"06:00 - 12:00, 16:00 - 18:00","di":"06:00 - 12:00, 16:00 - 18:00","wo":"06:00 - 12:00, 16:00 - 18:00","do":"06:00 - 12:00, 16:00 - 18:00","vr":"06:00 - 12:00, 16:00 - 18:00","za":"06:00 - 12:00","zo":"gesloten"}}},{"type":"Feature","geometry":{"type":"Point","coordinates":[8.415597,45.318514]},"properties":{"type":"pakketpunt","locatieNaam":"TABACCHERIA N. 44","straatNaam":"CORSO MARIO ABBIATE 44","straatNr":"","vervoerder":"DHL","puntType":"parcelShop","bezettingsgraad":50,"latitude":45.318514,"longitude":8.415597,"canPickup":true,"canDropoff":true,"openingstijden":{"ma":"07:30 - 19:30","di":"07:30 - 19:30","wo":"07:30 - 19:30","do":"07:30 - 19:30","vr":"07:30 - 19:30","za":"07:30 - 19:30","zo":"gesloten"}}},{"type":"Feature","geometry":{"type":"Point","coordinates":[8.416579,45.328798]},"properties":{"type":"pakketpunt","locatieNaam":"Nero su bianco","straatNaam":"Corso Gastaldi, 1","straatNr":"","vervoerder":"DHL","puntType":"parcelShop","bezettingsgraad":50,"latitude":45.328798,"longitude":8.416579,"canPickup":false,"canDropoff":true,"openingstijden":{"ma":"09:00 - 19:00","di":"09:00 - 19:00","wo":"09:00 - 19:00","do":"09:00 - 19:00","vr":"09:00 - 19:00","za":"09:00 - 12:00","zo":"gesloten"}}},{"type":"Feature","geometry":{"type":"Point","coordinates":[8.418667,45.32459]},"properties":{"type":"pakketpunt","locatieNaam":"TUTTOCHIARO","straatNaam":"VIA DANTE ALIGHIERI 33","straatNr":"","vervoerder":"DHL","puntType":"parcelShop","bezettingsgraad":50,"latitude":45.32459,"longitude":8.418667,"canPickup":true,"canDropoff":true,"openingstijden":{"ma":"15:30 - 19:00","di":"09:30 - 12:30, 15:30 - 19:00","wo":"09:30 - 12:30, 15:30 - 19:00","do":"09:30 - 12:30, 15:30 - 19:00","vr":"09:30 - 12:30, 15:30 - 19:00","za":"gesloten","zo":"gesloten"}}},{"type":"Feature","geometry":{"type":"Point","coordinates":[8.418672,45.324622]},"properties":{"type":"pakketpunt","locatieNaam":"TUTTO CHIARO","straatNaam":"Via Dante Alighieri, 33","straatNr":"","vervoerder":"DHL","puntType":"parcelShop","bezettingsgraad":50,"latitude":45.324622,"longitude":8.418672,"canPickup":false,"canDropoff":true,"openingstijden":{"ma":"09:30 - 19:00","di":"09:30 - 19:00","wo":"09:30 - 19:00","do":"09:30 - 19:00","vr":"09:30 - 19:00","za":"gesloten","zo":"gesloten"}}},{"type":"Feature","geometry":{"type":"Point","coordinates":[8.41909,45.323673]},"properties":{"type":"pakketpunt","locatieNaam":"TABACCHERIA N. 7","straatNaam":"CORSO LIBERTA 13","straatNr":"","vervoerder":"DHL","puntType":"parcelShop","bezettingsgraad":50,"latitude":45.323673,"longitude":8.41909,"canPickup":true,"canDropoff":true,"openingstijden":{"ma":"09:00 - 12:30, 16:00 - 19:30","di":"09:00 - 12:30, 16:00 - 19:30","wo":"09:00 - 12:30, 16:00 - 19:30","do":"09:00 - 12:30, 16:00 - 19:30","vr":"09:00 - 12:30, 16:00 - 19:30","za":"09:00 - 12:30, 16:00 - 19:30","zo":"gesloten"}}},{"type":"Feature","geometry":{"type":"Point","coordinates":[8.420367,45.321854]},"properties":{"type":"pakketpunt","locatieNaam":"CARREFOUR XX SETTEMBRE","straatNaam":"VIA VENTI SETTEMBRE 41","straatNr":"","vervoerder":"DHL","puntType":"parcelShop","bezettingsgraad":50,"latitude":45.321854,"longitude":8.420367,"canPickup":true,"canDropoff":true,"openingstijden":{"ma":"08:00 - 21:00","di":"08:00 - 21:00","wo":"08:00 - 21:00","do":"08:00 - 21:00","vr":"08:00 - 21:00","za":"08:00 - 21:00","zo":"08:00 - 21:00"}}},{"type":"Feature","geometry":{"type":"Point","coordinates":[8.420787,45.327339]},"properties":{"type":"pakketpunt","locatieNaam":"CARTOLERIA COPPO LIBRI","straatNaam":"VIA GALILEO FERRARIS 70","straatNr":"","vervoerder":"DHL","puntType":"parcelShop","bezettingsgraad":50,"latitude":45.327339,"longitude":8.420787,"canPickup":true,"canDropoff":true,"openingstijden":{"ma":"09:30 - 12:30, 15:30 - 19:00","di":"08:30 - 12:30, 15:30 - 19:00","wo":"08:30 - 12:30, 15:30 - 19:00","do":"08:30 - 12:30, 15:30 - 19:00","vr":"08:30 - 12:30, 15:30 - 19:00","za":"08:30 - 12:30, 15:30 - 19:00","zo":"gesloten"}}},{"type":"Feature","geometry":{"type":"Point","coordinates":[8.420699,45.324674]},"properties":{"type":"pakketpunt","locatieNaam":"TABACCHERIA N. 4","straatNaam":"VIA FRATELLI BANDIERA 6","straatNr":"","vervoerder":"DHL","puntType":"parcelShop","bezettingsgraad":50,"latitude":45.324674,"longitude":8.420699,"canPickup":true,"canDropoff":true,"openingstijden":{"ma":"08:30 - 12:30, 15:00 - 19:30","di":"08:30 - 12:30, 15:00 - 19:30","wo":"08:30 - 12:30, 15:00 - 19:30","do":"08:30 - 12:30, 15:00 - 19:30","vr":"08:30 - 12:30, 15:00 - 19:30","za":"08:30 - 12:30, 15:00 - 19:30","zo":"gesloten"}}},{"type":"Feature","geometry":{"type":"Point","coordinates":[8.421008,45.319215]},"properties":{"type":"pakketpunt","locatieNaam":"TABACCHERIA N. 18","straatNaam":"VIA MASSAUA 32","straatNr":"","vervoerder":"DHL","puntType":"parcelShop","bezettingsgraad":50,"latitude":45.319215,"longitude":8.421008,"canPickup":true,"canDropoff":true,"openingstijden":{"ma":"06:30 - 12:30, 15:00 - 20:00","di":"06:30 - 12:30, 15:00 - 20:00","wo":"06:30 - 12:30, 15:00 - 20:00","do":"06:30 - 12:30, 15:00 - 20:00","vr":"06:30 - 12:30, 15:00 - 20:00","za":"06:30 - 12:30, 15:00 - 20:00","zo":"07:00 - 12:30"}}},{"type":"Feature","geometry":{"type":"Point","coordinates":[8.421222,45.316276]},"properties":{"type":"pakketpunt","locatieNaam":"Ufficio Postale VERCELLI 4","straatNaam":"VIA ALESSANDRO MALINVERNI 4","straatNr":"","vervoerder":"DHL","puntType":"postOffice","bezettingsgraad":50,"latitude":45.316276,"longitude":8.421222,"canPickup":true,"canDropoff":true,"openingstijden":{"ma":"08:20 - 13:35","di":"08:20 - 13:35","wo":"08:20 - 13:35","do":"08:20 - 13:35","vr":"08:20 - 13:35","za":"08:20 - 12:35","zo":"gesloten"}}},{"type":"Feature","geometry":{"type":"Point","coordinates":[8.422552,45.323942]},"properties":{"type":"pakketpunt","locatieNaam":"Ufficio Postale VERCELLI CENTRO","straatNaam":"VIA PALAZZO DI CITTA 1","straatNr":"","vervoerder":"DHL","puntType":"postOffice","bezettingsgraad":50,"latitude":45.323942,"longitude":8.422552,"canPickup":true,"canDropoff":true,"openingstijden":{"ma":"08:20 - 19:05","di":"08:20 - 19:05","wo":"08:20 - 19:05","do":"08:20 - 19:05","vr":"08:20 - 19:05","za":"08:20 - 12:35","zo":"gesloten"}}},{"type":"Feature","geometry":{"type":"Point","coordinates":[8.422745,45.325878]},"properties":{"type":"pakketpunt","locatieNaam":"TABACCHERIA N. 1","straatNaam":"VIA GIUSEPPE VERDI 3","straatNr":"","vervoerder":"DHL","puntType":"parcelShop","bezettingsgraad":50,"latitude":45.325878,"longitude":8.422745,"canPickup":true,"canDropoff":true,"openingstijden":{"ma":"07:30 - 12:30, 15:30 - 19:30","di":"07:30 - 12:30, 15:30 - 19:30","wo":"07:30 - 12:30, 15:30 - 19:30","do":"07:30 - 12:30, 15:30 - 19:30","vr":"07:30 - 12:30, 15:30 - 19:30","za":"08:30 - 12:30, 15:30 - 19:30","zo":"gesloten"}}},{"type":"Feature","geometry":{"type":"Point","coordinates":[8.423806,45.325919]},"properties":{"type":"pakketpunt","locatieNaam":"TABACCHERIA N. 5","straatNaam":"VIA VINCENZO GIOBERTI 8","straatNr":"","vervoerder":"DHL","puntType":"parcelShop","bezettingsgraad":50,"latitude":45.325919,"longitude":8.423806,"canPickup":true,"canDropoff":true,"openingstijden":{"ma":"07:00 - 12:30, 15:00 - 19:30","di":"07:00 - 12:30, 15:00 - 19:30","wo":"07:00 - 12:30, 15:00 - 19:30","do":"07:00 - 12:30, 15:00 - 19:30","vr":"07:00 - 12:30, 15:00 - 19:30","za":"07:00 - 12:30, 15:00 - 19:30","zo":"gesloten"}}},{"type":"Feature","geometry":{"type":"Point","coordinates":[8.425565,45.329049]},"properties":{"type":"pakketpunt","locatieNaam":"TABACCHERIA n. 26","straatNaam":"CORSO ITALIA 61","straatNr":"","vervoerder":"DHL","puntType":"parcelShop","bezettingsgraad":50,"latitude":45.329049,"longitude":8.425565,"canPickup":true,"canDropoff":true,"openingstijden":{"ma":"07:00 - 12:30, 14:30 - 19:30","di":"07:00 - 12:30, 14:30 - 19:30","wo":"07:00 - 12:30, 14:30 - 19:30","do":"07:00 - 12:30, 14:30 - 19:30","vr":"07:00 - 12:30, 14:30 - 19:30","za":"07:00 - 12:30, 14:30 - 19:30","zo":"gesloten"}}},{"type":"Feature","geometry":{"type":"Point","coordinates":[8.424717,45.316713]},"properties":{"type":"pakketpunt","locatieNaam":"TABACCHERIA N. 32","straatNaam":"VIALE RIMEMBRANZA 125","straatNr":"","vervoerder":"DHL","puntType":"parcelShop","bezettingsgraad":50,"latitude":45.316713,"longitude":8.424717,"canPickup":true,"canDropoff":true,"openingstijden":{"ma":"06:30 - 12:30, 14:30 - 19:30","di":"06:30 - 12:30, 14:30 - 19:30","wo":"06:30 - 12:30, 14:30 - 19:30","do":"06:30 - 12:30, 14:30 - 19:30","vr":"06:30 - 12:30, 14:30 - 19:30","za":"06:30 - 12:30, 14:30 - 19:30","zo":"gesloten"}}},{"type":"Feature","geometry":{"type":"Point","coordinates":[8.429632,45.323081]},"properties":{"type":"pakketpunt","locatieNaam":"Ufficio Postale VERCELLI 1","straatNaam":"CORSO PALESTRO 30 31 MAGGIO 1859 80","straatNr":"","vervoerder":"DHL","puntType":"postOffice","bezettingsgraad":50,"latitude":45.323081,"longitude":8.429632,"canPickup":true,"canDropoff":true,"openingstijden":{"ma":"08:20 - 13:35","di":"08:20 - 13:35","wo":"08:20 - 13:35","do":"08:20 - 13:35","vr":"08:20 - 13:35","za":"08:20 - 12:35","zo":"gesloten"}}},{"type":"Feature","geometry":{"type":"Point","coordinates":[8.429573,45.318672]},"properties":{"type":"pakketpunt","locatieNaam":"TRACO POINT","straatNaam":"CORSO AMEDEO DE REGE 63","straatNr":"","vervoerder":"DHL","puntType":"parcelShop","bezettingsgraad":50,"latitude":45.318672,"longitude":8.429573,"canPickup":true,"canDropoff":true,"openingstijden":{"ma":"09:00 - 12:30, 15:00 - 18:00","di":"09:00 - 12:30, 15:00 - 18:00","wo":"09:00 - 12:30, 15:00 - 18:00","do":"09:00 - 12:30, 15:00 - 18:00","vr":"09:00 - 12:30, 15:00 - 18:00","za":"09:00 - 12:00","zo":"gesloten"}}},{"type":"Feature","geometry":{"type":"Point","coordinates":[8.429687,45.318659]},"properties":{"type":"pakketpunt","locatieNaam":"TRACO POINT","straatNaam":"Corso Amedeo De Rege 63","straatNr":"","vervoerder":"DHL","puntType":"parcelShop","bezettingsgraad":50,"latitude":45.318659,"longitude":8.429687,"canPickup":false,"canDropoff":true,"openingstijden":{"ma":"09:00 - 18:00","di":"09:00 - 18:00","wo":"09:00 - 18:00","do":"09:00 - 18:00","vr":"09:00 - 18:00","za":"gesloten","zo":"gesloten"}}},{"type":"Feature","geometry":{"type":"Point","coordinates":[8.430817,45.33002]},"properties":{"type":"pakketpunt","locatieNaam":"SUPERMERCATO IPERCOOP","straatNaam":"LARGO CHATILLON 1","straatNr":"","vervoerder":"DHL","puntType":"packStation","bezettingsgraad":50,"latitude":45.33002,"longitude":8.430817,"canPickup":true,"canDropoff":true,"openingstijden":{"ma":"09:00 - 13:00, 15:00 - 18:00","di":"09:00 - 13:00, 15:00 - 18:00","wo":"09:00 - 13:00, 15:00 - 18:00","do":"09:00 - 13:00, 15:00 - 18:00","vr":"09:00 - 13:00, 15:00 - 18:00","za":"09:00 - 13:00","zo":"gesloten"}}},{"type":"Feature","geometry":{"type":"Point","coordinates":[8.43337,45.32534]},"properties":{"type":"pakketpunt","locatieNaam":"TABACCHERIA N. 20","straatNaam":"CORSO GIUSEPPE RIGOLA 6","straatNr":"","vervoerder":"DHL","puntType":"parcelShop","bezettingsgraad":50,"latitude":45.32534,"longitude":8.43337,"canPickup":true,"canDropoff":true,"openingstijden":{"ma":"07:00 - 12:30, 15:00 - 19:30","di":"07:00 - 12:30, 15:00 - 19:30","wo":"07:00 - 12:30, 15:00 - 19:30","do":"07:00 - 12:30, 15:00 - 19:30","vr":"07:00 - 12:30, 15:00 - 19:30","za":"07:00 - 12:30, 15:00 - 19:30","zo":"gesloten"}}},{"type":"Feature","geometry":{"type":"Point","coordinates":[8.4035703,45.3243223]},"properties":{"type":"pakketpunt","locatieNaam":"Amazon Locker - aldovino","straatNaam":"Eni Station Pv.180","straatNr":"","vervoerder":"Amazon","puntType":"locker","bezettingsgraad":50,"latitude":45.3243223,"longitude":8.4035703,"canPickup":true,"canDropoff":false,"openingstijden":null}},{"type":"Feature","geometry":{"type":"Point","coordinates":[8.4078181,45.323555]},"properties":{"type":"pakketpunt","locatieNaam":"Amazon Locker - giovanfilippo","straatNaam":"Q8 Stazione di benzina pv.709","straatNr":"","vervoerder":"Amazon","puntType":"locker","bezettingsgraad":50,"latitude":45.323555,"longitude":8.4078181,"canPickup":true,"canDropoff":false,"openingstijden":null}},{"type":"Feature","geometry":{"type":"Point","coordinates":[8.4096292,45.3138512]},"properties":{"type":"pakketpunt","locatieNaam":"Amazon Locker - donizio1","straatNaam":"Tigros Vercelli","straatNr":"","vervoerder":"Amazon","puntType":"locker","bezettingsgraad":50,"latitude":45.3138512,"longitude":8.4096292,"canPickup":true,"canDropoff":false,"openingstijden":null}},{"type":"Feature","geometry":{"type":"Point","coordinates":[8.414504,45.317739]},"properties":{"type":"pakketpunt","locatieNaam":"Amazon Locker - magdalena","straatNaam":"ASL Vercelli - Vercelli","straatNr":"","vervoerder":"Amazon","puntType":"locker","bezettingsgraad":50,"latitude":45.317739,"longitude":8.414504,"canPickup":true,"canDropoff":false,"openingstijden":null}},{"type":"Feature","geometry":{"type":"Point","coordinates":[8.4319933,45.3301095]},"properties":{"type":"pakketpunt","locatieNaam":"Amazon Locker - dania","straatNaam":"Vercelli Supermercato Coop","straatNr":"","vervoerder":"Amazon","puntType":"locker","bezettingsgraad":50,"latitude":45.3301095,"longitude":8.4319933,"canPickup":true,"canDropoff":false,"openingstijden":null}},{"type":"Feature","geometry":{"type":"Point","coordinates":[8.392121,45.295004]},"properties":{"type":"pakketpunt","locatieNaam":"Amazon Locker - ele","straatNaam":"Vercelli Distributore EnerCoop","straatNr":"","vervoerder":"Amazon","puntType":"locker","bezettingsgraad":50,"latitude":45.295004,"longitude":8.392121,"canPickup":true,"canDropoff":false,"openingstijden":null}},{"type":"Feature","geometry":{"type":"Point","coordinates":[8.39225,45.3193]},"properties":{"type":"pakketpunt","locatieNaam":"PuntoPoste TABACCHERIA N. 52","straatNaam":"TANGENZIALE OVEST 13","straatNr":"","vervoerder":"Amazon","puntType":"3p","bezettingsgraad":50,"latitude":45.3193,"longitude":8.39225,"canPickup":true,"canDropoff":false,"openingstijden":null}},{"type":"Feature","geometry":{"type":"Point","coordinates":[8.3970579,45.29191]},"properties":{"type":"pakketpunt","locatieNaam":"Amazon Locker - egeo","straatNaam":"Amazon FC MXP3","straatNr":"","vervoerder":"Amazon","puntType":"locker","bezettingsgraad":50,"latitude":45.29191,"longitude":8.3970579,"canPickup":true,"canDropoff":false,"openingstijden":null}},{"type":"Feature","geometry":{"type":"Point","coordinates":[8.408132,45.33413]},"properties":{"type":"pakketpunt","locatieNaam":"Amazon Counter - scicchitano michele","straatNaam":"VIA WALTER MANZONE 34","straatNr":"","vervoerder":"Amazon","puntType":"helix","bezettingsgraad":50,"latitude":45.33413,"longitude":8.408132,"canPickup":true,"canDropoff":false,"openingstijden":null}},{"type":"Feature","geometry":{"type":"Point","coordinates":[8.40996,45.3311]},"properties":{"type":"pakketpunt","locatieNaam":"Ufficio Postale VERCELLI 3","straatNaam":"CORSO GIOVANNI RANDACCIO 26","straatNr":"","vervoerder":"Amazon","puntType":"3p","bezettingsgraad":50,"latitude":45.3311,"longitude":8.40996,"canPickup":true,"canDropoff":false,"openingstijden":null}},{"type":"Feature","geometry":{"type":"Point","coordinates":[8.405504,45.318036]},"properties":{"type":"pakketpunt","locatieNaam":"Amazon Counter - New Bar Concordia","straatNaam":"Via Martiri del Kiwu 19","straatNr":"","vervoerder":"Amazon","puntType":"helix","bezettingsgraad":50,"latitude":45.318036,"longitude":8.405504,"canPickup":true,"canDropoff":false,"openingstijden":null}},{"type":"Feature","geometry":{"type":"Point","coordinates":[8.40721,45.3188]},"properties":{"type":"pakketpunt","locatieNaam":"Ufficio Postale VERCELLI 6","straatNaam":"VIA ANTONIO GRAMSCI 10","straatNr":"","vervoerder":"Amazon","puntType":"3p","bezettingsgraad":50,"latitude":45.3188,"longitude":8.40721,"canPickup":true,"canDropoff":false,"openingstijden":null}},{"type":"Feature","geometry":{"type":"Point","coordinates":[8.422186,45.324709]},"properties":{"type":"pakketpunt","locatieNaam":"Amazon Counter - NUOVENERGIE","straatNaam":"Corso libertà, 117","straatNr":"","vervoerder":"Amazon","puntType":"helix","bezettingsgraad":50,"latitude":45.324709,"longitude":8.422186,"canPickup":true,"canDropoff":false,"openingstijden":null}},{"type":"Feature","geometry":{"type":"Point","coordinates":[8.42274,45.3258]},"properties":{"type":"pakketpunt","locatieNaam":"PuntoPoste TABACCHERIA N. 1","straatNaam":"VIA GIUSEPPE VERDI 3","straatNr":"","vervoerder":"Amazon","puntType":"3p","bezettingsgraad":50,"latitude":45.3258,"longitude":8.42274,"canPickup":true,"canDropoff":false,"openingstijden":null}},{"type":"Feature","geometry":{"type":"Point","coordinates":[8.41425,45.31973]},"properties":{"type":"pakketpunt","locatieNaam":"Amazon Counter - PRIMAEDICOLA","straatNaam":"GABRIELLA DI UGGERO G.","straatNr":"","vervoerder":"Amazon","puntType":"helix","bezettingsgraad":50,"latitude":45.31973,"longitude":8.41425,"canPickup":true,"canDropoff":false,"openingstijden":null}},{"type":"Feature","geometry":{"type":"Point","coordinates":[8.42077754232787,45.3273145992344]},"properties":{"type":"pakketpunt","locatieNaam":"Amazon Counter","straatNaam":"Cartoleria - Coppo - Libri (fermopoint)","straatNr":"","vervoerder":"Amazon","puntType":"helix","bezettingsgraad":50,"latitude":45.3273145992344,"longitude":8.42077754232787,"canPickup":true,"canDropoff":false,"openingstijden":null}},{"type":"Feature","geometry":{"type":"Point","coordinates":[8.43058,45.33118]},"properties":{"type":"pakketpunt","locatieNaam":"Amazon Locker - asterio","straatNaam":"Fermopoint/Physicall","straatNr":"","vervoerder":"Amazon","puntType":"locker","bezettingsgraad":50,"latitude":45.33118,"longitude":8.43058,"canPickup":true,"canDropoff":false,"openingstijden":null}},{"type":"Feature","geometry":{"type":"Point","coordinates":[8.43337,45.3253]},"properties":{"type":"pakketpunt","locatieNaam":"PuntoPoste TABACCHERIA N. 20","straatNaam":"CORSO GIUSEPPE RIGOLA 6","straatNr":"","vervoerder":"Amazon","puntType":"3p","bezettingsgraad":50,"latitude":45.3253,"longitude":8.43337,"canPickup":true,"canDropoff":false,"openingstijden":null}},{"type":"Feature","geometry":{"type":"Point","coordinates":[8.44298,45.3075]},"properties":{"type":"pakketpunt","locatieNaam":"PuntoPoste TABACCHERIA N. 10","straatNaam":"VIA THAON DE REVEL 18","straatNr":"","vervoerder":"Amazon","puntType":"3p","bezettingsgraad":50,"latitude":45.3075,"longitude":8.44298,"canPickup":true,"canDropoff":false,"openingstijden":null}},{"type":"Feature","geometry":{"type":"Point","coordinates":[8.443666,45.306412]},"properties":{"type":"pakketpunt","locatieNaam":"Amazon Counter - PRIMAEDICOLA","straatNaam":"CONSOLI LEO MASSIMO","straatNr":"","vervoerder":"Amazon","puntType":"helix","bezettingsgraad":50,"latitude":45.306412,"longitude":8.443666,"canPickup":true,"canDropoff":false,"openingstijden":null}},{"type":"Feature","geometry":{"type":"Point","coordinates":[8.442945,45.307564]},"properties":{"type":"pakketpunt","locatieNaam":"Amazon Counter - Tabaccheria","straatNaam":"Via thaon de revel, 18","straatNr":"","vervoerder":"Amazon","puntType":"helix","bezettingsgraad":50,"latitude":45.307564,"longitude":8.442945,"canPickup":true,"canDropoff":false,"openingstijden":null}},{"type":"Feature","geometry":{"type":"Polygon","coordinates":[[[8.3161725,45.3317509],[8.3217518,45.3299434],[8.3212636,45.3288783],[8.320847,45.3276337],[8.3209815,45.3273914],[8.3230603,45.3269942],[8.3230269,45.3246041],[8.3231551,45.3244879],[8.3217059,45.3236017],[8.3212863,45.3234731],[8.319439,45.3232011],[8.3186606,45.3227374],[8.3179942,45.3226479],[8.3179879,45.3220808],[8.3178539,45.3213194],[8.3172957,45.3198533],[8.3171699,45.3198031],[8.3186562,45.3196454],[8.3224876,45.3194702],[8.3243455,45.3192787],[8.3259903,45.3192074],[8.3265397,45.3176624],[8.3271909,45.3174817],[8.3284061,45.3168767],[8.3292389,45.3166791],[8.3308557,45.3168731],[8.3316975,45.316725],[8.3320481,45.3167856],[8.332814,45.316682],[8.3333499,45.3163701],[8.3331486,45.3156893],[8.3364824,45.3148356],[8.3377008,45.3141811],[8.3385316,45.3138483],[8.3389508,45.3134142],[8.3403117,45.3132601],[8.3395949,45.3096239],[8.3395077,45.3086827],[8.3401411,45.3087539],[8.3401939,45.3086732],[8.3402421,45.3083314],[8.3403847,45.3081027],[8.3402157,45.3071071],[8.3410724,45.307103],[8.3422515,45.3072448],[8.344271,45.3072744],[8.3454538,45.3074073],[8.3494904,45.3076058],[8.3506853,45.3077297],[8.3506855,45.3079907],[8.35389,45.3083599],[8.3543795,45.3083627],[8.3559434,45.308142],[8.360215,45.3082695],[8.3608174,45.3083674],[8.3607313,45.3071607],[8.3638889,45.3056571],[8.3643204,45.305178],[8.3645202,45.3050665],[8.3658789,45.3049346],[8.3650317,45.3029811],[8.362912,45.3036534],[8.3627746,45.302937],[8.3636539,45.3028294],[8.364878,45.3022601],[8.3660421,45.3013799],[8.3681313,45.3008649],[8.3717973,45.3002326],[8.3719015,45.2997111],[8.3721242,45.2990642],[8.372211,45.2989971],[8.3714092,45.2956757],[8.3712597,45.2946667],[8.37131,45.29437],[8.3707656,45.2932148],[8.3684474,45.2937466],[8.3659676,45.2878234],[8.3657708,45.2872147],[8.3656257,45.2862148],[8.3656669,45.2860575],[8.3659599,45.2857621],[8.3661994,45.2856554],[8.3731728,45.2835155],[8.3777348,45.280705],[8.3794926,45.2802943],[8.3813212,45.2831324],[8.3819926,45.2839011],[8.3820321,45.2837888],[8.3821415,45.2837624],[8.3850303,45.283733],[8.3855187,45.2838887],[8.3887288,45.2840724],[8.3891757,45.2846419],[8.3929337,45.2847564],[8.3929822,45.2846622],[8.3943388,45.2845253],[8.395827,45.2844972],[8.3958518,45.2856135],[8.3991533,45.2856805],[8.3999438,45.2855361],[8.4011007,45.2855197],[8.4018427,45.2858206],[8.404836,45.2865924],[8.4049268,45.2866423],[8.4047893,45.2867902],[8.4049058,45.2868583],[8.4071582,45.2871805],[8.4111938,45.2875254],[8.4226225,45.285527],[8.4244122,45.2875568],[8.4246736,45.2874816],[8.4245182,45.2868868],[8.4251084,45.2870788],[8.4305856,45.2871197],[8.4305289,45.2853821],[8.4361599,45.2852976],[8.436721,45.2844452],[8.4375442,45.2835176],[8.438261,45.2838857],[8.4417442,45.2834617],[8.4413174,45.2801696],[8.4437011,45.2790876],[8.4437019,45.2790111],[8.4457337,45.2781343],[8.4496843,45.2777348],[8.4495745,45.2781304],[8.4492126,45.2782276],[8.4490703,45.278398],[8.4490247,45.2789919],[8.4492003,45.2793348],[8.4493616,45.2794661],[8.4499915,45.2796716],[8.4508385,45.2798062],[8.4507798,45.2802695],[8.450623,45.2806648],[8.450681,45.2808091],[8.4516894,45.2816376],[8.4520214,45.2825033],[8.4519914,45.2830568],[8.451802,45.2832764],[8.4516748,45.2836583],[8.4530651,45.2844796],[8.4536662,45.2845815],[8.4534928,45.2859129],[8.453199,45.2872572],[8.4530216,45.2875084],[8.4527591,45.2884163],[8.4544731,45.2892751],[8.4545284,45.2896624],[8.4525966,45.2934968],[8.4526552,45.2935826],[8.4533381,45.2936624],[8.453743,45.2954286],[8.4556013,45.2951449],[8.4557583,45.2952357],[8.4570794,45.295413],[8.4583613,45.2960672],[8.4592125,45.2966608],[8.4631498,45.294384],[8.4632203,45.2942223],[8.4632253,45.2936913],[8.4634627,45.2931118],[8.4639433,45.2923894],[8.4643166,45.2920626],[8.4663902,45.2909157],[8.4687274,45.2900624],[8.4703514,45.290016],[8.4704591,45.2890218],[8.4707505,45.2890142],[8.4723316,45.289332],[8.4728354,45.2892803],[8.4736837,45.2888162],[8.4738761,45.2888171],[8.475258,45.2893095],[8.4780585,45.2906815],[8.4780507,45.2920497],[8.477831,45.293966],[8.4777319,45.2940016],[8.4780244,45.2943945],[8.4790041,45.2941244],[8.4809448,45.2940117],[8.4815467,45.2941922],[8.4852086,45.2938105],[8.4855614,45.2937581],[8.4856383,45.2934478],[8.4880282,45.2938592],[8.4882183,45.2935495],[8.4908387,45.2935837],[8.4914145,45.2937753],[8.4914707,45.2940816],[8.4922976,45.2937792],[8.4946913,45.2932362],[8.4983374,45.2922264],[8.4996837,45.2936205],[8.5002382,45.294379],[8.5004564,45.2949628],[8.5005218,45.2954785],[8.5000268,45.2966645],[8.4999201,45.2971951],[8.5004881,45.2978637],[8.5043274,45.3007338],[8.5053909,45.3016386],[8.5056522,45.3023959],[8.5054439,45.302881],[8.5055018,45.3035564],[8.5072058,45.3071013],[8.5077104,45.3077516],[8.5094933,45.3095595],[8.5103647,45.3105804],[8.5124811,45.3121197],[8.5136793,45.3134187],[8.5135,45.3135125],[8.5134527,45.3140524],[8.513308,45.3144703],[8.5130086,45.3147436],[8.5127489,45.3153681],[8.5127947,45.316633],[8.5126936,45.3168846],[8.5122807,45.3172474],[8.5117697,45.3174522],[8.5079297,45.3185744],[8.5076315,45.3187126],[8.5072896,45.3190127],[8.5068613,45.3195284],[8.5061746,45.3188549],[8.5052184,45.3182656],[8.503097,45.3167397],[8.501132,45.3151784],[8.4991093,45.3160718],[8.4978157,45.3145923],[8.4974033,45.3137533],[8.4982807,45.312776],[8.4978023,45.3128235],[8.4975972,45.312701],[8.4963062,45.3126774],[8.4953618,45.3125381],[8.4946514,45.31231],[8.4940794,45.3119384],[8.4929182,45.3120998],[8.4917139,45.312459],[8.4909614,45.3128292],[8.4903209,45.3133034],[8.4898742,45.3142645],[8.4894245,45.3155497],[8.4882183,45.3160979],[8.4880176,45.3164211],[8.4866818,45.3171937],[8.4847527,45.3179141],[8.4836288,45.3187462],[8.4826764,45.3193044],[8.4824471,45.319659],[8.4825142,45.3200328],[8.4831849,45.320909],[8.4827862,45.3212132],[8.4816379,45.3216086],[8.4794842,45.322796],[8.4783296,45.3230877],[8.47762,45.323107],[8.4771919,45.3230353],[8.4767813,45.3224731],[8.4763687,45.3227322],[8.4757888,45.3212263],[8.4751106,45.3212232],[8.4748686,45.3198359],[8.4737463,45.3204788],[8.4723398,45.3210574],[8.4708859,45.3219688],[8.4705624,45.3223229],[8.464861,45.3258248],[8.4628966,45.3272333],[8.4634837,45.3279382],[8.4635881,45.3282897],[8.4634857,45.3288293],[8.4629979,45.3289171],[8.4626768,45.3295592],[8.4626462,45.3297975],[8.4630505,45.330398],[8.4631885,45.3307767],[8.463228,45.3310695],[8.4631204,45.3319916],[8.4632013,45.3324195],[8.4636083,45.332732],[8.4642835,45.3330772],[8.4649848,45.3336836],[8.4655305,45.3343072],[8.4661698,45.3355029],[8.4665001,45.3364226],[8.4665103,45.3368682],[8.4668273,45.3377248],[8.4669756,45.3385041],[8.4672804,45.3391446],[8.4667309,45.3394121],[8.4650058,45.3395886],[8.464841,45.3394303],[8.4644347,45.3393265],[8.4643648,45.3390905],[8.4642419,45.3389684],[8.4637226,45.3387094],[8.463457,45.3386632],[8.4606389,45.3367956],[8.4602005,45.3363435],[8.4588779,45.3357206],[8.4586169,45.3354899],[8.458077,45.3354378],[8.4579968,45.3355634],[8.4578991,45.3355585],[8.4558551,45.3349007],[8.4552499,45.3350778],[8.4542361,45.3349964],[8.4537509,45.3350616],[8.4531837,45.3353605],[8.4523279,45.3361395],[8.4520156,45.3362595],[8.4514142,45.3363376],[8.4510158,45.3366237],[8.4508748,45.3365241],[8.4506311,45.3366534],[8.4510075,45.3376499],[8.4506346,45.3377898],[8.450416,45.3386394],[8.4507531,45.3387153],[8.4517121,45.3412268],[8.4521214,45.3436141],[8.4519315,45.3441532],[8.4513951,45.3448438],[8.4510709,45.3451258],[8.449395,45.3458783],[8.4490586,45.3463493],[8.4485123,45.3461171],[8.4473396,45.3458279],[8.4464324,45.3451349],[8.4459759,45.3446691],[8.4457138,45.3447038],[8.4442408,45.3441251],[8.4416982,45.3441712],[8.4416303,45.3455661],[8.4417332,45.3456881],[8.4417601,45.3463183],[8.4415994,45.3466011],[8.4413323,45.3467438],[8.4412759,45.3470045],[8.4416762,45.3472675],[8.4420225,45.3479533],[8.4433323,45.3486663],[8.4435572,45.34896],[8.4439453,45.3490024],[8.4444596,45.3492884],[8.4453091,45.3504492],[8.4454127,45.3507017],[8.4453022,45.3511558],[8.4448221,45.3519861],[8.4443794,45.3522675],[8.4424468,45.3524741],[8.4417888,45.3527724],[8.4410338,45.3534438],[8.4410423,45.3535474],[8.4411895,45.3535886],[8.4413904,45.3535266],[8.441415,45.3538642],[8.438877,45.3542928],[8.4377423,45.3543368],[8.4376118,45.3544216],[8.4371567,45.3555041],[8.4377767,45.3559842],[8.4367803,45.3588102],[8.4363096,45.3593659],[8.4346347,45.3600778],[8.4333643,45.3605125],[8.4325015,45.3604092],[8.4316405,45.3600899],[8.4303683,45.3602636],[8.4299091,45.3604188],[8.4282567,45.3607076],[8.4266587,45.3608661],[8.4261662,45.3609582],[8.4255005,45.3612069],[8.4252374,45.3613811],[8.4256252,45.3620131],[8.4258309,45.3625452],[8.4254244,45.3632138],[8.4252127,45.3632667],[8.4248033,45.3639397],[8.4243833,45.3642752],[8.4233156,45.3648909],[8.42231,45.3649353],[8.4221338,45.3645654],[8.4216528,45.36486],[8.4211761,45.3649611],[8.4192349,45.3651087],[8.4180193,45.3648865],[8.4170648,45.3645396],[8.4163665,45.3650806],[8.4163281,45.3652019],[8.4162625,45.3654491],[8.4163686,45.3657287],[8.416322,45.3668446],[8.4161991,45.3673886],[8.4156587,45.3682454],[8.4140628,45.3700285],[8.4134435,45.3701064],[8.4127156,45.3705662],[8.4101733,45.3713902],[8.4096351,45.371878],[8.4078419,45.3716572],[8.4073436,45.3716771],[8.4037672,45.3723426],[8.4024235,45.3704498],[8.4021111,45.3663886],[8.4051111,45.3662377],[8.4073062,45.3651015],[8.4070685,45.3638986],[8.4068624,45.3633484],[8.4066926,45.3621819],[8.4072906,45.3602092],[8.4075477,45.360116],[8.4075368,45.3596704],[8.4079359,45.3587453],[8.4079113,45.3585067],[8.4082888,45.3572304],[8.408782,45.357152],[8.4093122,45.3568847],[8.4099097,45.3568248],[8.4102485,45.356669],[8.4109888,45.3566863],[8.4110479,45.3566056],[8.4082628,45.354908],[8.4081849,45.3549481],[8.4047033,45.3529587],[8.4050998,45.3525062],[8.4057149,45.3520188],[8.4039935,45.3520864],[8.4030242,45.3519283],[8.4015074,45.3518528],[8.4018324,45.351562],[8.403922,45.3504297],[8.4028358,45.3495824],[8.4022021,45.3491876],[8.399813,45.3488015],[8.3978879,45.3480397],[8.3979277,45.3478239],[8.3973354,45.3475103],[8.397726,45.3470938],[8.3973605,45.3468803],[8.3970355,45.3468651],[8.3969218,45.346977],[8.3956978,45.3472226],[8.3948794,45.3472452],[8.3920285,45.3469286],[8.3918764,45.3468332],[8.3918622,45.3452579],[8.3904607,45.3457905],[8.3887578,45.3459704],[8.3885154,45.3460727],[8.3875413,45.346216],[8.386565,45.3462692],[8.3855904,45.346543],[8.3850617,45.345298],[8.3840351,45.3448424],[8.3838375,45.3450079],[8.3833643,45.3450548],[8.38344,45.3457573],[8.3833607,45.346558],[8.3806021,45.3469437],[8.3780768,45.3468849],[8.3771495,45.3470194],[8.3740064,45.3466602],[8.3707354,45.3500087],[8.3699289,45.3500718],[8.3696675,45.3502188],[8.3689848,45.3502016],[8.3679382,45.3503623],[8.3678906,45.3505466],[8.3673004,45.3507053],[8.3669577,45.3507124],[8.3668849,45.3509415],[8.3664375,45.3509571],[8.3663602,45.3510241],[8.3663061,45.3514379],[8.3666765,45.351782],[8.366121,45.3521525],[8.3652975,45.3518734],[8.3649507,45.351948],[8.364705,45.3517305],[8.364561,45.3517297],[8.3640126,45.3517942],[8.3638707,45.3518834],[8.3637756,45.3521845],[8.3633845,45.3523713],[8.3628212,45.3523727],[8.3621492,45.3522114],[8.3617444,45.3525602],[8.3613106,45.3524632],[8.36123,45.3525348],[8.3612105,45.3529172],[8.3605364,45.352909],[8.3598975,45.3533105],[8.3592558,45.3546345],[8.358819,45.3547761],[8.3576022,45.3556874],[8.3575033,45.3557904],[8.3576327,45.3559891],[8.3575649,45.3560247],[8.3574092,45.3559969],[8.3572395,45.3560814],[8.3567267,45.355948],[8.3558591,45.3561412],[8.3524035,45.3565672],[8.3522226,45.3566562],[8.3517086,45.3566352],[8.3509163,45.3570133],[8.3504994,45.3570379],[8.3497605,45.3573578],[8.3493501,45.3573374],[8.3491675,45.3575344],[8.3487074,45.3575813],[8.3485889,45.3577517],[8.3479798,45.3577032],[8.3479687,45.3576266],[8.347458,45.3572816],[8.3471243,45.3572257],[8.3469917,45.357585],[8.3467308,45.3578941],[8.3461887,45.358089],[8.3455479,45.3579233],[8.3444401,45.358079],[8.344136,45.3576992],[8.3445753,45.3574992],[8.3437876,45.35668],[8.3435833,45.3565708],[8.3433015,45.3564792],[8.3430605,45.3572744],[8.3425252,45.3568888],[8.3419622,45.3566515],[8.3411957,45.3569306],[8.3408664,45.3564292],[8.3406613,45.3559464],[8.3393153,45.3545614],[8.3393997,45.3545124],[8.3383756,45.3531008],[8.341214,45.3520836],[8.3450467,45.3509084],[8.342618,45.3488332],[8.3425021,45.3487515],[8.3420161,45.3487307],[8.3419122,45.3469838],[8.3429498,45.3468413],[8.3428798,45.3461388],[8.3430525,45.3459327],[8.3430689,45.3457573],[8.3430577,45.3421027],[8.3433568,45.3386614],[8.3427061,45.3366369],[8.345627,45.335893],[8.345619,45.3357535],[8.3458835,45.3355435],[8.3457753,45.3348947],[8.3467965,45.3348106],[8.3471809,45.333359],[8.343266,45.3341242],[8.3347879,45.3346737],[8.3348123,45.3353175],[8.3296612,45.3355394],[8.3294979,45.3349399],[8.3290916,45.334933],[8.3282633,45.3327723],[8.327769,45.3325804],[8.3269947,45.3328683],[8.3251641,45.3333121],[8.3248708,45.3334634],[8.3247415,45.3355509],[8.3248336,45.3362221],[8.3251412,45.3370925],[8.3243618,45.33743],[8.3223919,45.3368647],[8.32127,45.3370246],[8.3209307,45.336982],[8.3176465,45.3341135],[8.317076,45.3333585],[8.3161725,45.3317509]]]},"properties":{"type":"boundary","gemeente":"Vercelli"}}]}