{"type":"FeatureCollection","metadata":{"gemeente":"Verderio","slug":"verderio","generated_at":"2026-09-26T13:10:54.095258Z","total_points":9,"providers":["PosteItaliane","DPD","GLS","DHL","Amazon"],"bounds":[9.4346995,45.6623094,9.4403144,45.668543]},"features":[{"type":"Feature","geometry":{"type":"Point","coordinates":[9.43962061,45.66846393]},"properties":{"type":"pakketpunt","locatieNaam":"Verderio Superiore","straatNaam":"Viale Dei Municipi","straatNr":"1","vervoerder":"PosteItaliane","puntType":"postkantoor","bezettingsgraad":50,"latitude":45.66846393,"longitude":9.43962061,"canPickup":true,"canDropoff":true,"openingstijden":{"za":"08:20 - 12:45","zo":"gesloten","ma":"gesloten","di":"08:20 - 13:45","wo":"gesloten","do":"08:20 - 13:45","vr":"gesloten"}}},{"type":"Feature","geometry":{"type":"Point","coordinates":[9.43591953,45.66255304]},"properties":{"type":"pakketpunt","locatieNaam":"Verderio Inferiore","straatNaam":"Via Dei Tre Re","straatNr":"2","vervoerder":"PosteItaliane","puntType":"postkantoor","bezettingsgraad":50,"latitude":45.66255304,"longitude":9.43591953,"canPickup":true,"canDropoff":true,"openingstijden":{"za":"08:20 - 12:45","zo":"gesloten","ma":"08:20 - 13:45","di":"08:20 - 13:45","wo":"08:20 - 13:45","do":"08:20 - 13:45","vr":"08:20 - 13:45"}}},{"type":"Feature","geometry":{"type":"Point","coordinates":[9.43994371,45.66854271]},"properties":{"type":"pakketpunt","locatieNaam":"Tabaccheria N. 2","straatNaam":"Via Principale","straatNr":"3","vervoerder":"PosteItaliane","puntType":"servicepunt","bezettingsgraad":50,"latitude":45.66854271,"longitude":9.43994371,"canPickup":true,"canDropoff":true,"openingstijden":{"za":"07:00 - 21:00","zo":"07:00 - 21:00","ma":"gesloten","di":"06:00 - 21:00","wo":"06:00 - 21:00","do":"06:00 - 21:00","vr":"06:00 - 21:00"}}},{"type":"Feature","geometry":{"type":"Point","coordinates":[9.4346995,45.6623094]},"properties":{"type":"pakketpunt","locatieNaam":"Soleluna Bar Tabacchi","straatNaam":"VIA ROMA","straatNr":"10","vervoerder":"DPD","puntType":"pickup_point","bezettingsgraad":50,"latitude":45.6623094,"longitude":9.4346995,"canPickup":true,"canDropoff":true,"openingstijden":{"ma":"07:00 - 19:30","di":"07:00 - 19:30","wo":"07:00 - 19:30","do":"07:00 - 19:30","vr":"07:00 - 19:30","za":"07:00 - 19:30","zo":"07:00 - 14:00"}}},{"type":"Feature","geometry":{"type":"Point","coordinates":[9.4403144,45.6683868]},"properties":{"type":"pakketpunt","locatieNaam":"Casalinghi ferramenta Sala","straatNaam":"Via Principale","straatNr":"13","vervoerder":"GLS","puntType":"parcel_shop","bezettingsgraad":50,"latitude":45.6683868,"longitude":9.4403144,"canPickup":true,"canDropoff":true,"openingstijden":"za: 08:30 - 12:30, 15:30 - 19:00; ma: 08:30 - 12:30"}},{"type":"Feature","geometry":{"type":"Point","coordinates":[9.43592,45.662553]},"properties":{"type":"pakketpunt","locatieNaam":"Ufficio Postale VERDERIO INFERIORE","straatNaam":"VIA DEI TRE RE 2","straatNr":"","vervoerder":"DHL","puntType":"postOffice","bezettingsgraad":50,"latitude":45.662553,"longitude":9.43592,"canPickup":true,"canDropoff":true,"openingstijden":{"ma":"08:20 - 13:45","di":"08:20 - 13:45","wo":"08:20 - 13:45","do":"08:20 - 13:45","vr":"08:20 - 13:45","za":"08:20 - 12:45","zo":"gesloten"}}},{"type":"Feature","geometry":{"type":"Point","coordinates":[9.439944,45.668543]},"properties":{"type":"pakketpunt","locatieNaam":"TABACCHERIA N. 2","straatNaam":"VIA PRINCIPALE 3","straatNr":"","vervoerder":"DHL","puntType":"parcelShop","bezettingsgraad":50,"latitude":45.668543,"longitude":9.439944,"canPickup":true,"canDropoff":true,"openingstijden":{"ma":"gesloten","di":"06:00 - 21:00","wo":"06:00 - 21:00","do":"06:00 - 21:00","vr":"06:00 - 21:00","za":"07:00 - 21:00","zo":"07:00 - 21:00"}}},{"type":"Feature","geometry":{"type":"Point","coordinates":[9.43591,45.6625]},"properties":{"type":"pakketpunt","locatieNaam":"Ufficio Postale VERDERIO INFERIORE","straatNaam":"VIA DEI TRE RE 2","straatNr":"","vervoerder":"Amazon","puntType":"3p","bezettingsgraad":50,"latitude":45.6625,"longitude":9.43591,"canPickup":true,"canDropoff":false,"openingstijden":null}},{"type":"Feature","geometry":{"type":"Point","coordinates":[9.4346995,45.6623094]},"properties":{"type":"pakketpunt","locatieNaam":"Amazon Counter (fermopoint)","straatNaam":"Soleluna Bar Tabacchi","straatNr":"","vervoerder":"Amazon","puntType":"helix","bezettingsgraad":50,"latitude":45.6623094,"longitude":9.4346995,"canPickup":true,"canDropoff":false,"openingstijden":null}},{"type":"Feature","geometry":{"type":"Polygon","coordinates":[[[9.419656,45.6651664],[9.4191266,45.6644025],[9.4200617,45.6641244],[9.4188319,45.6623153],[9.4196036,45.6620874],[9.4205398,45.6632631],[9.4213432,45.6629766],[9.4204131,45.6615489],[9.4217569,45.6612289],[9.4218024,45.6611028],[9.4215853,45.660604],[9.4216243,45.6604554],[9.422694,45.6599564],[9.4222681,45.6592289],[9.4236858,45.6587151],[9.4230218,45.6578895],[9.4227588,45.6566349],[9.4225488,45.656378],[9.4235175,45.6560807],[9.4234445,45.6559103],[9.4241826,45.6557654],[9.4240541,45.6555547],[9.424919,45.655389],[9.4264474,45.6554604],[9.4261327,45.6548618],[9.4255846,45.6545445],[9.4261255,45.6543955],[9.4270133,45.6543084],[9.427229,45.6543628],[9.4270086,45.6536788],[9.4272681,45.6536289],[9.427504,45.6542862],[9.4288534,45.654005],[9.4287693,45.6538265],[9.4315982,45.6529701],[9.4319003,45.6532479],[9.4320496,45.6532609],[9.4350845,45.6521693],[9.4376354,45.651561],[9.4374168,45.6498562],[9.4382515,45.6499295],[9.4383076,45.6503343],[9.4395791,45.6502439],[9.4408772,45.6502884],[9.4407575,45.6497533],[9.4407834,45.6493752],[9.441915,45.6494563],[9.441859,45.6500866],[9.4470329,45.6497154],[9.4468334,45.6506523],[9.4477914,45.650887],[9.4486254,45.6512753],[9.4521161,45.6536422],[9.4536656,45.654387],[9.4545713,45.6539205],[9.4550414,45.6545172],[9.4559294,45.6554137],[9.4556866,45.6559412],[9.4551957,45.6575273],[9.4575916,45.6591648],[9.4610734,45.6613335],[9.4646593,45.6637146],[9.4645548,45.6641063],[9.4640685,45.6642883],[9.463328,45.6647864],[9.4620864,45.6652501],[9.4612407,45.6654069],[9.4606781,45.6656882],[9.4599753,45.6660871],[9.4588395,45.6669107],[9.457262,45.6676866],[9.4568341,45.6681428],[9.4543371,45.6689359],[9.4531051,45.6689948],[9.4535725,45.669641],[9.4519877,45.6701288],[9.4510724,45.6700559],[9.450457,45.6701574],[9.4501646,45.6705185],[9.4500785,45.6709959],[9.448491,45.6715512],[9.4474015,45.6717805],[9.4467083,45.6717922],[9.4458466,45.6716066],[9.4451943,45.6719151],[9.4450446,45.6724648],[9.4435169,45.6724797],[9.4428381,45.6726894],[9.44275,45.6729147],[9.4419036,45.673035],[9.4401351,45.6734559],[9.438561,45.6740212],[9.4388273,45.6750047],[9.437816,45.6750583],[9.4378799,45.6754056],[9.4359526,45.6754971],[9.4345816,45.6758713],[9.4347921,45.6765186],[9.4342532,45.6765657],[9.4302583,45.6760979],[9.4301963,45.6749996],[9.4287632,45.6752788],[9.4289783,45.6760825],[9.4284361,45.6760784],[9.4281881,45.6753922],[9.4263909,45.6757146],[9.4262654,45.6751497],[9.4248783,45.6733422],[9.4245847,45.6734641],[9.4229302,45.6714505],[9.4235206,45.6712491],[9.4229038,45.6702703],[9.4226966,45.6703206],[9.4208415,45.6673393],[9.4207927,45.6672494],[9.4211583,45.6672166],[9.4200012,45.6652722],[9.419656,45.6651664]]]},"properties":{"type":"boundary","gemeente":"Verderio"}}]}