{"type":"FeatureCollection","metadata":{"gemeente":"Verdellino","slug":"verdellino","generated_at":"2026-09-26T13:10:54.075338Z","total_points":11,"providers":["PosteItaliane","DPD","InPost","GLS","DHL"],"bounds":[9.5978882,45.59845751,9.61491022,45.603537]},"features":[{"type":"Feature","geometry":{"type":"Point","coordinates":[9.61132615,45.6028397]},"properties":{"type":"pakketpunt","locatieNaam":"Verdellino","straatNaam":"Via Magellano","straatNr":"1","vervoerder":"PosteItaliane","puntType":"postkantoor","bezettingsgraad":50,"latitude":45.6028397,"longitude":9.61132615,"canPickup":true,"canDropoff":true,"openingstijden":{"za":"08:20 - 12:35","zo":"gesloten","ma":"08:20 - 13:35","di":"08:20 - 13:35","wo":"08:20 - 13:35","do":"08:20 - 13:35","vr":"08:20 - 13:35"}}},{"type":"Feature","geometry":{"type":"Point","coordinates":[9.59858042,45.59845751]},"properties":{"type":"pakketpunt","locatieNaam":"Verdellino Zingonia","straatNaam":"Corso Europa","straatNr":"6","vervoerder":"PosteItaliane","puntType":"postkantoor","bezettingsgraad":50,"latitude":45.59845751,"longitude":9.59858042,"canPickup":true,"canDropoff":true,"openingstijden":{"za":"gesloten","zo":"gesloten","ma":"gesloten","di":"08:20 - 13:45","wo":"gesloten","do":"gesloten","vr":"08:20 - 13:45"}}},{"type":"Feature","geometry":{"type":"Point","coordinates":[9.61491022,45.6031273]},"properties":{"type":"pakketpunt","locatieNaam":"Tabaccheria N. 1","straatNaam":"Piazza Della Resistenza","straatNr":"5","vervoerder":"PosteItaliane","puntType":"servicepunt","bezettingsgraad":50,"latitude":45.6031273,"longitude":9.61491022,"canPickup":true,"canDropoff":true,"openingstijden":{"za":"07:30 - 12:30, 15:00 - 19:30","zo":"gesloten","ma":"07:30 - 12:30, 15:00 - 19:30","di":"07:30 - 12:30, 15:00 - 19:30","wo":"07:30 - 12:30, 15:00 - 19:30","do":"07:30 - 12:30, 15:00 - 19:30","vr":"07:30 - 12:30, 15:00 - 19:30"}}},{"type":"Feature","geometry":{"type":"Point","coordinates":[9.5984809,45.600557]},"properties":{"type":"pakketpunt","locatieNaam":"Periplo Viaggi & Accessori Telefoni","straatNaam":"PIAZZA AFFARI","straatNr":"7","vervoerder":"DPD","puntType":"pickup_point","bezettingsgraad":50,"latitude":45.600557,"longitude":9.5984809,"canPickup":true,"canDropoff":true,"openingstijden":{"ma":"10:00 - 13:00, 14:00 - 20:00","di":"10:00 - 13:00, 14:00 - 20:00","wo":"10:00 - 13:00, 14:00 - 20:00","do":"10:00 - 13:00, 14:00 - 20:00","vr":"10:00 - 13:00, 14:00 - 20:00","za":"10:00 - 13:00, 14:00 - 20:00","zo":"10:00 - 13:00, 14:00 - 20:00"}}},{"type":"Feature","geometry":{"type":"Point","coordinates":[9.6146655,45.603537]},"properties":{"type":"pakketpunt","locatieNaam":"Tabacchria Amadeo Livio","straatNaam":"P.ZZA DELLA RESISTENZA","straatNr":"3","vervoerder":"DPD","puntType":"pickup_point","bezettingsgraad":50,"latitude":45.603537,"longitude":9.6146655,"canPickup":true,"canDropoff":true,"openingstijden":{"ma":"07:30 - 12:30, 15:00 - 19:30","di":"07:30 - 12:30, 15:00 - 19:30","wo":"07:30 - 12:30, 15:00 - 19:30","do":"07:30 - 12:30, 15:00 - 19:30","vr":"07:30 - 12:30, 15:00 - 19:30","za":"07:30 - 12:30, 15:00 - 19:30","zo":"gesloten"}}},{"type":"Feature","geometry":{"type":"Point","coordinates":[9.59789,45.60019]},"properties":{"type":"pakketpunt","locatieNaam":"InPost Point","straatNaam":"Piazza Affari, 25, 24040 Verdellino BG","straatNr":"25","vervoerder":"InPost","puntType":"servicepunt","bezettingsgraad":50,"latitude":45.60019,"longitude":9.59789,"canPickup":true,"canDropoff":true,"openingstijden":"Lun-Sab 09:30-20:30; Dom 10:00-20:30"}},{"type":"Feature","geometry":{"type":"Point","coordinates":[9.5978882,45.6001901]},"properties":{"type":"pakketpunt","locatieNaam":"M.J DI MALIK JAMIL","straatNaam":"Piazza Degli Affari","straatNr":"25","vervoerder":"GLS","puntType":"parcel_shop","bezettingsgraad":50,"latitude":45.6001901,"longitude":9.5978882,"canPickup":true,"canDropoff":true,"openingstijden":"za: 10:00 - 20:00; zo: 12:00 - 19:00"}},{"type":"Feature","geometry":{"type":"Point","coordinates":[9.5984809,45.600557]},"properties":{"type":"pakketpunt","locatieNaam":"periplo viaggi bergamo & accessori telefonia","straatNaam":"Piazza Degli Affari","straatNr":"7","vervoerder":"GLS","puntType":"parcel_shop","bezettingsgraad":50,"latitude":45.600557,"longitude":9.5984809,"canPickup":true,"canDropoff":true,"openingstijden":"za: 09:00 - 12:30, 14:00 - 20:00; zo: 15:00 - 20:00"}},{"type":"Feature","geometry":{"type":"Point","coordinates":[9.59862,45.60021]},"properties":{"type":"pakketpunt","locatieNaam":"PERIPLO VIAGGI","straatNaam":"Piazza Affari 7","straatNr":"","vervoerder":"DHL","puntType":"parcelShop","bezettingsgraad":50,"latitude":45.60021,"longitude":9.59862,"canPickup":false,"canDropoff":true,"openingstijden":{"ma":"10:00 - 19:30","di":"10:00 - 19:30","wo":"10:00 - 19:30","do":"10:00 - 19:30","vr":"10:00 - 19:30","za":"10:00 - 19:30","zo":"gesloten"}}},{"type":"Feature","geometry":{"type":"Point","coordinates":[9.611326,45.60284]},"properties":{"type":"pakketpunt","locatieNaam":"Ufficio Postale VERDELLINO","straatNaam":"VIA MAGELLANO 1","straatNr":"","vervoerder":"DHL","puntType":"postOffice","bezettingsgraad":50,"latitude":45.60284,"longitude":9.611326,"canPickup":true,"canDropoff":true,"openingstijden":{"ma":"08:20 - 13:35","di":"08:20 - 13:35","wo":"08:20 - 13:35","do":"08:20 - 13:35","vr":"08:20 - 13:35","za":"08:20 - 12:35","zo":"gesloten"}}},{"type":"Feature","geometry":{"type":"Point","coordinates":[9.61491,45.603127]},"properties":{"type":"pakketpunt","locatieNaam":"TABACCHERIA n. 1","straatNaam":"PIAZZA DELLA RESISTENZA 5","straatNr":"","vervoerder":"DHL","puntType":"parcelShop","bezettingsgraad":50,"latitude":45.603127,"longitude":9.61491,"canPickup":true,"canDropoff":true,"openingstijden":{"ma":"07:30 - 12:30, 15:00 - 19:30","di":"07:30 - 12:30, 15:00 - 19:30","wo":"07:30 - 12:30, 15:00 - 19:30","do":"07:30 - 12:30, 15:00 - 19:30","vr":"07:30 - 12:30, 15:00 - 19:30","za":"07:30 - 12:30, 15:00 - 19:30","zo":"gesloten"}}},{"type":"Feature","geometry":{"type":"Polygon","coordinates":[[[9.5962489,45.6003089],[9.5962741,45.5996475],[9.5965659,45.5990712],[9.5976859,45.5979909],[9.5987411,45.5966049],[9.5993842,45.5961608],[9.6016584,45.5962271],[9.601734,45.5956198],[9.6019449,45.5951683],[9.6033621,45.5951675],[9.603856,45.594284],[9.6049998,45.593974],[9.6056997,45.594174],[9.6056504,45.5936325],[9.6058076,45.5931338],[9.6070154,45.5932071],[9.6071447,45.5925441],[9.612526,45.5930552],[9.6135862,45.5927852],[9.6123128,45.5899682],[9.612746,45.589861],[9.6155165,45.5897881],[9.6163705,45.5895161],[9.6177367,45.5894262],[9.6200532,45.5894639],[9.6207029,45.5902734],[9.6208547,45.5917129],[9.6221432,45.5946387],[9.6211263,45.5949103],[9.6203636,45.5953415],[9.6202337,45.595217],[9.6199342,45.5955198],[9.6198378,45.5957313],[9.6197801,45.5968231],[9.6199784,45.597553],[9.6205931,45.5981092],[9.6208558,45.5982025],[9.6210309,45.5984614],[9.6208342,45.5990056],[9.6205665,45.599283],[9.6200889,45.600537],[9.6209531,45.6007315],[9.6216519,45.6011015],[9.6216918,45.601435],[9.6215565,45.6016717],[9.6212919,45.6027871],[9.6217061,45.6029067],[9.6223696,45.6027618],[9.6230155,45.6027866],[9.6236124,45.602915],[9.6238802,45.6030413],[9.6239499,45.6031913],[9.6234218,45.6039357],[9.6224299,45.604966],[9.6223252,45.6051642],[9.6222655,45.6056706],[9.6220228,45.6059441],[9.6219211,45.606673],[9.6219918,45.6070722],[9.6216721,45.6074887],[9.6216362,45.607702],[9.6217969,45.6080587],[9.6225053,45.6088533],[9.6223732,45.6093355],[9.6222208,45.6095757],[9.6204862,45.6095443],[9.6203855,45.6096601],[9.6202726,45.6102382],[9.6201018,45.6104078],[9.6198695,45.6104843],[9.6196542,45.6123105],[9.6202007,45.6138921],[9.6198953,45.6144639],[9.6199427,45.6149435],[9.6198774,45.6152739],[9.6177915,45.6151607],[9.6177201,45.6162505],[9.6161994,45.6168311],[9.6161243,45.6158578],[9.6142404,45.6158205],[9.6141377,45.6170424],[9.6134694,45.6170337],[9.61321,45.615411],[9.6110417,45.6152788],[9.6109748,45.6143824],[9.609319,45.6143599],[9.6093061,45.6129417],[9.6079697,45.6129156],[9.6074296,45.6126366],[9.6070512,45.6125994],[9.6070754,45.6120435],[9.6063096,45.6120514],[9.6060872,45.6101674],[9.6074774,45.6100355],[9.6076428,45.6077999],[9.6040002,45.6078455],[9.601279,45.6077888],[9.6011246,45.6076591],[9.6015521,45.6073712],[9.6023285,45.6071049],[9.6029497,45.6062717],[9.6013965,45.6060155],[9.6016614,45.6054058],[9.6000716,45.6050628],[9.5996099,45.6048177],[9.5999221,45.6036634],[9.6000248,45.6035652],[9.5979553,45.603319],[9.5983682,45.6007965],[9.5962489,45.6003089]]]},"properties":{"type":"boundary","gemeente":"Verdellino"}}]}