{"type":"FeatureCollection","metadata":{"gemeente":"Vernante","slug":"vernante","generated_at":"2026-09-26T14:28:12.804764Z","total_points":7,"providers":["PosteItaliane","GLS","DHL","Amazon","FedEx"],"bounds":[7.53264141,44.2444,7.53489538,44.24747375]},"features":[{"type":"Feature","geometry":{"type":"Point","coordinates":[7.53264141,44.24747375]},"properties":{"type":"pakketpunt","locatieNaam":"Vernante","straatNaam":"Via Umberto I","straatNr":"15","vervoerder":"PosteItaliane","puntType":"postkantoor","bezettingsgraad":50,"latitude":44.24747375,"longitude":7.53264141,"canPickup":true,"canDropoff":true,"openingstijden":{"za":"08:20 - 12:45","zo":"gesloten","ma":"gesloten","di":"08:20 - 13:45","wo":"gesloten","do":"08:20 - 13:45","vr":"gesloten"}}},{"type":"Feature","geometry":{"type":"Point","coordinates":[7.53489538,44.24441505]},"properties":{"type":"pakketpunt","locatieNaam":"Tabaccheria N. 1","straatNaam":"Via Umberto I","straatNr":"131","vervoerder":"PosteItaliane","puntType":"servicepunt","bezettingsgraad":50,"latitude":44.24441505,"longitude":7.53489538,"canPickup":true,"canDropoff":true,"openingstijden":{"za":"07:30 - 12:30, 15:00 - 20:00","zo":"07:30 - 12:30, 15:00 - 20:00","ma":"07:30 - 12:30, 15:00 - 20:00","di":"07:30 - 12:30, 15:00 - 20:00","wo":"gesloten","do":"07:30 - 12:30, 15:00 - 20:00","vr":"07:30 - 12:30, 15:00 - 20:00"}}},{"type":"Feature","geometry":{"type":"Point","coordinates":[7.5335689,44.2456666]},"properties":{"type":"pakketpunt","locatieNaam":"MINIMARKET ALBY E LUCA","straatNaam":"Via Umberto I","straatNr":"83","vervoerder":"GLS","puntType":"parcel_shop","bezettingsgraad":50,"latitude":44.2456666,"longitude":7.5335689,"canPickup":true,"canDropoff":true,"openingstijden":"za: 08:00 - 13:00, 15:30 - 19:30; zo: 08:00 - 13:00, 15:30 - 19:30"}},{"type":"Feature","geometry":{"type":"Point","coordinates":[7.534895,44.244415]},"properties":{"type":"pakketpunt","locatieNaam":"TABACCHERIA n. 1","straatNaam":"VIA UMBERTO I 131","straatNr":"","vervoerder":"DHL","puntType":"parcelShop","bezettingsgraad":50,"latitude":44.244415,"longitude":7.534895,"canPickup":true,"canDropoff":true,"openingstijden":{"ma":"07:30 - 12:30, 15:00 - 20:00","di":"07:30 - 12:30, 15:00 - 20:00","wo":"gesloten","do":"07:30 - 12:30, 15:00 - 20:00","vr":"07:30 - 12:30, 15:00 - 20:00","za":"07:30 - 12:30, 15:00 - 20:00","zo":"07:30 - 12:30, 15:00 - 20:00"}}},{"type":"Feature","geometry":{"type":"Point","coordinates":[7.53353,44.24566]},"properties":{"type":"pakketpunt","locatieNaam":"Amazon Counter - PRIMAEDICOLA","straatNaam":"L'UNIONE FA LA FORZA","straatNr":"","vervoerder":"Amazon","puntType":"helix","bezettingsgraad":50,"latitude":44.24566,"longitude":7.53353,"canPickup":true,"canDropoff":false,"openingstijden":null}},{"type":"Feature","geometry":{"type":"Point","coordinates":[7.53489,44.2444]},"properties":{"type":"pakketpunt","locatieNaam":"PuntoPoste TABACCHERIA n. 1","straatNaam":"VIA UMBERTO I 131","straatNr":"","vervoerder":"Amazon","puntType":"3p","bezettingsgraad":50,"latitude":44.2444,"longitude":7.53489,"canPickup":true,"canDropoff":false,"openingstijden":null}},{"type":"Feature","geometry":{"type":"Point","coordinates":[7.533569,44.245667]},"properties":{"type":"pakketpunt","locatieNaam":"FedEx OnSite","straatNaam":"Via Umberto I, 83","straatNr":"","vervoerder":"FedEx","puntType":"servicepunt","bezettingsgraad":50,"latitude":44.245667,"longitude":7.533569,"canPickup":true,"canDropoff":true,"openingstijden":{"ma":"08:00 - 13:00, 15:30 - 19:30","di":"08:00 - 13:00, 15:30 - 19:30","wo":"08:00 - 13:00, 15:30 - 19:30","do":"08:00 - 13:00, 15:30 - 19:30","vr":"08:00 - 13:00, 15:30 - 19:30","za":"08:00 - 13:00, 15:30 - 19:30","zo":"08:00 - 13:00, 15:30 - 19:30"}}},{"type":"Feature","geometry":{"type":"Polygon","coordinates":[[[7.4703125,44.2225925],[7.4679387,44.2173142],[7.4681409,44.216102],[7.4693545,44.2110407],[7.4664954,44.2091644],[7.4653593,44.2077252],[7.4679129,44.2037428],[7.4750186,44.1865732],[7.4811346,44.1819056],[7.4878558,44.1746575],[7.4902491,44.1685357],[7.4917688,44.1643335],[7.4918524,44.1627861],[7.4920791,44.1617897],[7.494749,44.1565223],[7.4956736,44.1558457],[7.4988941,44.1549473],[7.5021092,44.1546474],[7.5029163,44.1544239],[7.5039666,44.1544107],[7.50454,44.1544992],[7.507066,44.1555361],[7.5139787,44.1592454],[7.5148694,44.1599277],[7.5136872,44.1647558],[7.5133819,44.1670431],[7.513695,44.1674928],[7.5142543,44.1680238],[7.5152234,44.1687641],[7.5157019,44.1690269],[7.5262743,44.1718421],[7.528326,44.1730705],[7.5320524,44.1830576],[7.532318,44.1880756],[7.5409191,44.1991962],[7.5489802,44.2109846],[7.5543174,44.2206538],[7.5646447,44.2318304],[7.5656176,44.2326934],[7.5678947,44.234365],[7.5692182,44.2351198],[7.5719165,44.2362564],[7.5733728,44.2366032],[7.5760372,44.2368165],[7.5778618,44.2370778],[7.5800154,44.2377708],[7.5822164,44.2386444],[7.5848281,44.2400002],[7.588083,44.2419744],[7.5881632,44.2421097],[7.5881675,44.2424802],[7.5882599,44.2424852],[7.5885291,44.2431966],[7.5885366,44.2439315],[7.5870611,44.2438173],[7.5862561,44.2452901],[7.5830215,44.2444295],[7.5771159,44.2454906],[7.5724752,44.2484441],[7.5708642,44.2495764],[7.568954,44.2509884],[7.5662395,44.2534076],[7.5656254,44.255547],[7.5646599,44.2573399],[7.5636716,44.2586869],[7.5552483,44.2637376],[7.5536555,44.2648216],[7.5509495,44.2644709],[7.5498437,44.2647723],[7.5490616,44.2647323],[7.547764,44.2644688],[7.5405685,44.261868],[7.5398705,44.2614842],[7.5391354,44.261574],[7.5376696,44.2600384],[7.5356389,44.2592399],[7.5333981,44.2592753],[7.5318507,44.259747],[7.5306562,44.2594715],[7.5296332,44.2594999],[7.5224113,44.2621433],[7.5183053,44.2618128],[7.5181846,44.2620984],[7.5169428,44.2614169],[7.5160711,44.2610999],[7.5146137,44.2603641],[7.512073,44.2596524],[7.5101419,44.2604295],[7.5094491,44.2604776],[7.5088206,44.2601917],[7.5081079,44.2596507],[7.507589,44.2595154],[7.5070553,44.2596368],[7.5058255,44.2596621],[7.5051838,44.2598623],[7.5038367,44.2600494],[7.5026324,44.2603325],[7.5024486,44.2599675],[7.502276,44.2598002],[7.5018886,44.259687],[7.5017171,44.2595336],[7.501917,44.2593528],[7.5020637,44.2588915],[7.5017523,44.2589584],[7.5015236,44.258901],[7.5011048,44.2585885],[7.5002557,44.2582383],[7.4992924,44.2580655],[7.4959653,44.2570772],[7.4948914,44.2569372],[7.494569,44.2567147],[7.4930826,44.2566895],[7.4925806,44.2564786],[7.491708,44.2570032],[7.4857557,44.2577062],[7.4861322,44.2573048],[7.4867566,44.2564005],[7.4871549,44.2553823],[7.4880913,44.253497],[7.4884704,44.2524673],[7.488294,44.2513744],[7.4860841,44.2490437],[7.4854855,44.2481585],[7.4883893,44.2454234],[7.4849203,44.237554],[7.4871661,44.2330986],[7.4870207,44.230811],[7.4853131,44.2301509],[7.4839143,44.2292135],[7.4768164,44.2273155],[7.4747146,44.2268565],[7.4739684,44.2265791],[7.4727717,44.2255382],[7.4713285,44.2239035],[7.4703125,44.2225925]]]},"properties":{"type":"boundary","gemeente":"Vernante"}}]}