{"type":"FeatureCollection","metadata":{"gemeente":"Vernasca","slug":"vernasca","generated_at":"2026-09-26T14:28:12.814516Z","total_points":4,"providers":["PosteItaliane","DHL","Amazon"],"bounds":[9.83054,44.7995,9.92102607,44.844022]},"features":[{"type":"Feature","geometry":{"type":"Point","coordinates":[9.83054847,44.79951446]},"properties":{"type":"pakketpunt","locatieNaam":"Vernasca","straatNaam":"Via Marconi","straatNr":"7","vervoerder":"PosteItaliane","puntType":"postkantoor","bezettingsgraad":50,"latitude":44.79951446,"longitude":9.83054847,"canPickup":true,"canDropoff":true,"openingstijden":{"za":"08:20 - 12:35","zo":"gesloten","ma":"08:20 - 13:35","di":"08:20 - 13:35","wo":"08:20 - 13:35","do":"08:20 - 13:35","vr":"08:20 - 13:35"}}},{"type":"Feature","geometry":{"type":"Point","coordinates":[9.92102607,44.844022]},"properties":{"type":"pakketpunt","locatieNaam":"Bacedasco Sotto","straatNaam":"Via Osteria Nuova","straatNr":"25","vervoerder":"PosteItaliane","puntType":"postkantoor","bezettingsgraad":50,"latitude":44.844022,"longitude":9.92102607,"canPickup":true,"canDropoff":true,"openingstijden":{"za":"08:20 - 12:45","zo":"gesloten","ma":"gesloten","di":"08:20 - 13:45","wo":"gesloten","do":"08:20 - 13:45","vr":"gesloten"}}},{"type":"Feature","geometry":{"type":"Point","coordinates":[9.830548,44.799514]},"properties":{"type":"pakketpunt","locatieNaam":"Ufficio Postale VERNASCA","straatNaam":"VIA MARCONI 7","straatNr":"","vervoerder":"DHL","puntType":"postOffice","bezettingsgraad":50,"latitude":44.799514,"longitude":9.830548,"canPickup":true,"canDropoff":true,"openingstijden":{"ma":"08:20 - 13:35","di":"08:20 - 13:35","wo":"08:20 - 13:35","do":"08:20 - 13:35","vr":"08:20 - 13:35","za":"08:20 - 12:35","zo":"gesloten"}}},{"type":"Feature","geometry":{"type":"Point","coordinates":[9.83054,44.7995]},"properties":{"type":"pakketpunt","locatieNaam":"Ufficio Postale VERNASCA","straatNaam":"VIA MARCONI 7","straatNr":"","vervoerder":"Amazon","puntType":"3p","bezettingsgraad":50,"latitude":44.7995,"longitude":9.83054,"canPickup":true,"canDropoff":false,"openingstijden":null}},{"type":"Feature","geometry":{"type":"Polygon","coordinates":[[[9.7687385,44.7101646],[9.7702464,44.7101147],[9.7709429,44.7103299],[9.7728097,44.7105083],[9.7759995,44.7121114],[9.7782942,44.712834],[9.7879987,44.7181507],[9.7885847,44.7185337],[9.792123,44.7233883],[9.8004156,44.7323146],[9.8158527,44.7389569],[9.8162984,44.7392147],[9.8172968,44.7401528],[9.8176841,44.7407532],[9.8193495,44.744198],[9.8209099,44.7500291],[9.8211001,44.7518642],[9.8198813,44.752332],[9.8167006,44.7543263],[9.816051,44.754844],[9.815336,44.7561094],[9.815252,44.7564251],[9.8151778,44.7581544],[9.8155473,44.7585565],[9.8205633,44.7621393],[9.8218402,44.7621932],[9.8302923,44.7612498],[9.8352688,44.7602593],[9.8359476,44.7600203],[9.837501,44.7590997],[9.8420594,44.7615238],[9.8508147,44.7674992],[9.8547876,44.7687028],[9.8559519,44.7688201],[9.8562791,44.7687276],[9.8571642,44.7670556],[9.8587039,44.7652257],[9.859178,44.764817],[9.8620286,44.7636253],[9.8660382,44.7630548],[9.8679391,44.7634275],[9.8695134,44.7639286],[9.8816923,44.7696325],[9.8820197,44.7703861],[9.8805349,44.7749616],[9.8799056,44.7759657],[9.879179,44.7763854],[9.8766171,44.7791327],[9.8743168,44.782481],[9.8735518,44.7837202],[9.873631,44.7847818],[9.8796666,44.7985084],[9.8831986,44.8046115],[9.8835549,44.8047618],[9.8870614,44.8050227],[9.8882349,44.8048605],[9.8897147,44.804885],[9.892871,44.8053915],[9.9000676,44.8079545],[9.9013567,44.8087185],[9.9060468,44.8110579],[9.9268649,44.8278325],[9.9371444,44.8369215],[9.9373009,44.8372083],[9.9379425,44.8377611],[9.9386682,44.8380432],[9.9405227,44.8384961],[9.94265,44.8386045],[9.9495231,44.8386566],[9.9499466,44.8399304],[9.9498848,44.8407951],[9.9485371,44.844245],[9.9452415,44.8516268],[9.9437404,44.8534756],[9.9431181,44.8541109],[9.9422938,44.8547839],[9.9414541,44.8552859],[9.9403982,44.8557267],[9.9378759,44.8562695],[9.9250686,44.8586605],[9.9223243,44.8587907],[9.9206653,44.8586647],[9.9193148,44.8587777],[9.9191375,44.8576957],[9.919436,44.8565457],[9.9193596,44.8557694],[9.9186718,44.8543093],[9.9169337,44.85472],[9.9178772,44.8554714],[9.9137365,44.8567127],[9.9100421,44.8515557],[9.9106059,44.8496687],[9.9174083,44.8437192],[9.9179177,44.8419902],[9.9197226,44.8405566],[9.9174174,44.8398239],[9.9166839,44.8390156],[9.9165766,44.8388102],[9.916582,44.8382339],[9.9163915,44.8379601],[9.9157764,44.8382343],[9.9153752,44.8374817],[9.9147071,44.8368036],[9.9135833,44.8372278],[9.9119203,44.8362178],[9.9102895,44.8355521],[9.9078086,44.8349974],[9.9064302,44.835381],[9.9057194,44.8353013],[9.9042059,44.8349662],[9.9039492,44.8347017],[9.9038892,44.8343363],[9.9014811,44.8358507],[9.8961234,44.8402712],[9.8961085,44.8396909],[9.8957457,44.8391927],[9.895695,44.8387433],[9.8955937,44.838563],[9.8942749,44.8376779],[9.8932845,44.836715],[9.8919369,44.8362216],[9.8903501,44.8357616],[9.8891162,44.8364311],[9.8871314,44.8366669],[9.8836231,44.8340497],[9.8798036,44.8332889],[9.8746109,44.8336921],[9.8638898,44.8282722],[9.8635524,44.8276987],[9.8606231,44.8259006],[9.859848,44.8257294],[9.8580497,44.8251296],[9.8481672,44.8213682],[9.8453757,44.8190848],[9.8411408,44.814003],[9.8279438,44.8091124],[9.8227747,44.8119853],[9.7949861,44.802388],[9.7854536,44.7987362],[9.7851693,44.7982791],[9.7852087,44.7955962],[9.7849057,44.7928257],[9.7843983,44.7899035],[9.784071,44.7890686],[9.7835131,44.7880102],[9.78068,44.7841408],[9.7865337,44.7833174],[9.7894699,44.7845214],[9.7921697,44.7859881],[9.7931202,44.7861705],[9.79437,44.7860538],[9.7949736,44.7858245],[9.7957011,44.7854144],[9.7979452,44.7831572],[9.7988617,44.7817915],[9.7992516,44.7807356],[9.7999927,44.7776517],[9.8002762,44.7762184],[9.8002903,44.7754081],[9.7976403,44.7692693],[9.7965493,44.7680436],[9.7852439,44.7590299],[9.7846321,44.758629],[9.7836968,44.7582574],[9.7832678,44.758198],[9.7792547,44.7560651],[9.7741787,44.752597],[9.7735134,44.7519714],[9.7628642,44.7395122],[9.7605591,44.7361338],[9.7603257,44.7356672],[9.7602837,44.7353524],[9.7603766,44.7347307],[9.7625577,44.7306022],[9.7645665,44.7258807],[9.7652102,44.7239409],[9.7686182,44.7133586],[9.7687385,44.7101646]]]},"properties":{"type":"boundary","gemeente":"Vernasca"}}]}