{"type":"FeatureCollection","metadata":{"gemeente":"Verolengo","slug":"verolengo","generated_at":"2026-09-26T13:10:54.253038Z","total_points":7,"providers":["PosteItaliane","DHL","Amazon"],"bounds":[7.96467,45.1896,8.02556593,45.19063082]},"features":[{"type":"Feature","geometry":{"type":"Point","coordinates":[8.02556593,45.19063082]},"properties":{"type":"pakketpunt","locatieNaam":"Borgo Revel","straatNaam":"Via Borgo Nuovo","straatNr":"8/a","vervoerder":"PosteItaliane","puntType":"postkantoor","bezettingsgraad":50,"latitude":45.19063082,"longitude":8.02556593,"canPickup":true,"canDropoff":true,"openingstijden":{"za":"gesloten","zo":"gesloten","ma":"gesloten","di":"gesloten","wo":"gesloten","do":"08:20 - 13:45","vr":"gesloten"}}},{"type":"Feature","geometry":{"type":"Point","coordinates":[7.96467565,45.18969555]},"properties":{"type":"pakketpunt","locatieNaam":"Verolengo","straatNaam":"Corso Delio Verna","straatNr":"4","vervoerder":"PosteItaliane","puntType":"postkantoor","bezettingsgraad":50,"latitude":45.18969555,"longitude":7.96467565,"canPickup":true,"canDropoff":true,"openingstijden":{"za":"08:20 - 12:35","zo":"gesloten","ma":"08:20 - 13:35","di":"08:20 - 13:35","wo":"08:20 - 13:35","do":"08:20 - 13:35","vr":"08:20 - 13:35"}}},{"type":"Feature","geometry":{"type":"Point","coordinates":[7.96709289,45.18968645]},"properties":{"type":"pakketpunt","locatieNaam":"Tabaccheria N. 1","straatNaam":"Via Paolo Thaon Di Revel","straatNr":"2","vervoerder":"PosteItaliane","puntType":"servicepunt","bezettingsgraad":50,"latitude":45.18968645,"longitude":7.96709289,"canPickup":true,"canDropoff":true,"openingstijden":{"za":"06:30 - 12:30, 16:00 - 19:30","zo":"gesloten","ma":"06:30 - 12:30, 16:00 - 19:30","di":"06:30 - 12:30, 16:00 - 19:30","wo":"06:30 - 12:30, 16:00 - 19:30","do":"06:30 - 12:30, 16:00 - 19:30","vr":"06:30 - 12:30, 16:00 - 19:30"}}},{"type":"Feature","geometry":{"type":"Point","coordinates":[7.967093,45.189686]},"properties":{"type":"pakketpunt","locatieNaam":"TABACCHERIA N. 1","straatNaam":"VIA PAOLO THAON DI REVEL 2","straatNr":"","vervoerder":"DHL","puntType":"parcelShop","bezettingsgraad":50,"latitude":45.189686,"longitude":7.967093,"canPickup":true,"canDropoff":true,"openingstijden":{"ma":"06:30 - 12:30, 16:00 - 19:30","di":"06:30 - 12:30, 16:00 - 19:30","wo":"06:30 - 12:30, 16:00 - 19:30","do":"06:30 - 12:30, 16:00 - 19:30","vr":"06:30 - 12:30, 16:00 - 19:30","za":"06:30 - 12:30, 16:00 - 19:30","zo":"gesloten"}}},{"type":"Feature","geometry":{"type":"Point","coordinates":[7.964676,45.189696]},"properties":{"type":"pakketpunt","locatieNaam":"Ufficio Postale VEROLENGO","straatNaam":"CORSO DELIO VERNA 4","straatNr":"","vervoerder":"DHL","puntType":"postOffice","bezettingsgraad":50,"latitude":45.189696,"longitude":7.964676,"canPickup":true,"canDropoff":true,"openingstijden":{"ma":"08:20 - 13:35","di":"08:20 - 13:35","wo":"08:20 - 13:35","do":"08:20 - 13:35","vr":"08:20 - 13:35","za":"08:20 - 12:35","zo":"gesloten"}}},{"type":"Feature","geometry":{"type":"Point","coordinates":[7.96467,45.1896]},"properties":{"type":"pakketpunt","locatieNaam":"Ufficio Postale VEROLENGO","straatNaam":"CORSO DELIO VERNA 4","straatNr":"","vervoerder":"Amazon","puntType":"3p","bezettingsgraad":50,"latitude":45.1896,"longitude":7.96467,"canPickup":true,"canDropoff":false,"openingstijden":null}},{"type":"Feature","geometry":{"type":"Point","coordinates":[7.96709,45.1896]},"properties":{"type":"pakketpunt","locatieNaam":"PuntoPoste TABACCHERIA N. 1","straatNaam":"VIA PAOLO THAON DI REVEL 2","straatNr":"","vervoerder":"Amazon","puntType":"3p","bezettingsgraad":50,"latitude":45.1896,"longitude":7.96709,"canPickup":true,"canDropoff":false,"openingstijden":null}},{"type":"Feature","geometry":{"type":"Polygon","coordinates":[[[7.9381252,45.2354313],[7.9383909,45.2307845],[7.9385664,45.230165],[7.9384561,45.2292909],[7.9388751,45.2230972],[7.9388449,45.2229101],[7.9386192,45.2229238],[7.9389015,45.2198794],[7.9390527,45.2196693],[7.939408,45.2129529],[7.9394032,45.2128719],[7.9392555,45.2128525],[7.9395008,45.2090134],[7.9394297,45.2088529],[7.9394298,45.2084434],[7.9396032,45.205515],[7.9399613,45.2018097],[7.9398871,45.2013792],[7.9396375,45.2011713],[7.9397793,45.2008313],[7.9400771,45.1992363],[7.9403174,45.1967191],[7.9398669,45.1948956],[7.9395869,45.1943124],[7.9395993,45.1940515],[7.9444178,45.1936055],[7.9456819,45.1932076],[7.9468786,45.1931646],[7.9473713,45.1930477],[7.9475598,45.1927929],[7.9475987,45.1918706],[7.9480505,45.1917217],[7.9488352,45.1916704],[7.9492117,45.1913183],[7.9496803,45.1912326],[7.9500241,45.1909657],[7.9503965,45.1908341],[7.951301,45.1898028],[7.9515192,45.1893997],[7.9522917,45.1891862],[7.9527394,45.1888933],[7.9531226,45.1888878],[7.954377,45.1884492],[7.9549517,45.1876084],[7.9554617,45.1871719],[7.9564016,45.1865684],[7.9572441,45.186216],[7.957096,45.1846979],[7.9561552,45.1846803],[7.9552016,45.1830603],[7.9556206,45.1826591],[7.9544705,45.182536],[7.9542211,45.1826013],[7.9539714,45.1827475],[7.9534312,45.1833142],[7.9526258,45.1837884],[7.9517385,45.1841171],[7.9515112,45.1838997],[7.9511513,45.1838964],[7.9505287,45.1843992],[7.9502362,45.1844956],[7.9498218,45.1844467],[7.9495451,45.1838951],[7.9477956,45.184032],[7.9476153,45.1844264],[7.9473948,45.1844784],[7.9470571,45.1844123],[7.9464353,45.1849331],[7.9453107,45.1842521],[7.9456976,45.1838236],[7.9448919,45.1835146],[7.9451938,45.1831484],[7.9414373,45.1817319],[7.9398761,45.1810513],[7.9457546,45.1793819],[7.9471399,45.1789086],[7.9485717,45.1785617],[7.9493147,45.178258],[7.949813,45.1778935],[7.9505486,45.1779453],[7.9555902,45.1764882],[7.9608786,45.1744684],[7.9609042,45.1745609],[7.9601037,45.1763674],[7.9671219,45.1737216],[7.9677088,45.1731148],[7.9691216,45.17288],[7.9699046,45.1726396],[7.9705964,45.1725828],[7.97308,45.1719615],[7.9729543,45.1713258],[7.9747527,45.1720531],[7.9774736,45.1729641],[7.9778205,45.1732058],[7.9765515,45.1791715],[7.9783159,45.1792143],[7.9814367,45.1794312],[7.9836357,45.1793878],[7.9843158,45.1795018],[7.9857497,45.1794786],[7.9868529,45.1796414],[7.9877688,45.17996],[7.988417,45.1800603],[7.9893107,45.1803315],[7.9913858,45.1798525],[7.9916421,45.1799088],[7.9931387,45.1798275],[7.9954404,45.1799648],[8.0018667,45.1805297],[8.0048802,45.180655],[8.0048355,45.1814873],[8.0066666,45.1814537],[8.0087734,45.1817061],[8.0096643,45.1813672],[8.0140406,45.1814726],[8.0160045,45.1819892],[8.018943,45.1814428],[8.0210256,45.1812312],[8.0285397,45.1809848],[8.0285113,45.1807865],[8.0361535,45.1821835],[8.0393763,45.1826697],[8.040453,45.1826923],[8.0436692,45.1834619],[8.0473504,45.1840418],[8.0488434,45.1845538],[8.0499032,45.1845968],[8.0496641,45.1852177],[8.0489614,45.185923],[8.047888,45.1867017],[8.0462371,45.1875611],[8.0459122,45.1878869],[8.0457683,45.1881468],[8.0457141,45.1886999],[8.0459054,45.1892011],[8.0464453,45.1898852],[8.0482235,45.1909848],[8.0482794,45.1912103],[8.0482089,45.1916958],[8.0481003,45.1920774],[8.0473421,45.1932638],[8.0468541,45.1942319],[8.0470684,45.196052],[8.0462653,45.1966169],[8.045727,45.197184],[8.0454098,45.1976449],[8.0452721,45.1979768],[8.045154,45.1997086],[8.043191,45.2020056],[8.0435362,45.2022515],[8.0428889,45.2029122],[8.0441694,45.2040976],[8.0440119,45.2043574],[8.0434391,45.2047712],[8.0426799,45.2050573],[8.0414539,45.2057897],[8.0397101,45.2048389],[8.0393505,45.2047278],[8.0384953,45.2041896],[8.0374534,45.2033031],[8.0369112,45.2026099],[8.0369057,45.2024839],[8.0377964,45.2016497],[8.0381077,45.2011213],[8.0384836,45.2001343],[8.0377125,45.1998982],[8.0373422,45.2005522],[8.0368412,45.2009576],[8.0297847,45.2042779],[8.0288675,45.2048642],[8.0250124,45.2067802],[8.021081,45.2085109],[8.019479,45.2093163],[8.0178142,45.2103236],[8.0166485,45.2107682],[8.0142891,45.2114319],[8.01419,45.2115481],[8.0122962,45.2118378],[8.0114573,45.2120691],[8.0113615,45.2122213],[8.0112815,45.2127742],[8.0113894,45.2130947],[8.0105134,45.2134381],[8.0102034,45.2138495],[8.0090869,45.2149875],[8.0086627,45.2150064],[8.0066351,45.2149032],[8.0065756,45.2147092],[8.0043831,45.2146001],[8.005583,45.2096417],[7.9992725,45.2083893],[7.9980303,45.2094406],[7.9959418,45.2094718],[7.9956389,45.2063771],[7.9932835,45.2064239],[7.9932795,45.2063158],[7.9924172,45.2063127],[7.9887461,45.205002],[7.9879338,45.2048553],[7.9869621,45.2049232],[7.9868047,45.2055834],[7.9864345,45.2056162],[7.9859685,45.2058641],[7.9855991,45.2080617],[7.9856585,45.2085033],[7.9841855,45.2074235],[7.9852025,45.2038454],[7.9834677,45.2036455],[7.9837004,45.203202],[7.9819525,45.2027273],[7.9806835,45.2046063],[7.9779641,45.2025162],[7.977244,45.2020686],[7.976821,45.2026454],[7.9741218,45.2029498],[7.9728198,45.2034872],[7.97086,45.2039331],[7.9696971,45.2040757],[7.9699922,45.2062004],[7.9695749,45.2065725],[7.9691235,45.207194],[7.9676134,45.207761],[7.9668505,45.2081411],[7.9658264,45.2081274],[7.9646758,45.2082475],[7.9646791,45.208504],[7.9631529,45.2085352],[7.9630865,45.2092547],[7.9604583,45.2084522],[7.9606947,45.2097866],[7.9583255,45.209729],[7.9582265,45.2107047],[7.9585615,45.2107348],[7.9582714,45.2126945],[7.95779,45.2123615],[7.9571493,45.2130578],[7.9565328,45.2134257],[7.9564349,45.2136004],[7.9564033,45.2138071],[7.9568805,45.2137395],[7.9568313,45.2174972],[7.9567616,45.2175415],[7.9574592,45.218025],[7.9581004,45.2182649],[7.9575508,45.2195066],[7.956905,45.2206079],[7.9605566,45.2213613],[7.9604575,45.2216439],[7.9608957,45.2217154],[7.9611206,45.221911],[7.9607035,45.2222133],[7.960127,45.2224826],[7.9598718,45.2227053],[7.9598227,45.2228848],[7.9600501,45.2242102],[7.9604661,45.2252176],[7.9604121,45.2268239],[7.9608949,45.2268688],[7.9606855,45.227416],[7.9604807,45.2283413],[7.9606522,45.2289144],[7.9605399,45.2304031],[7.9615331,45.230518],[7.961519,45.2311817],[7.9613868,45.2316171],[7.9613731,45.2324811],[7.9610146,45.2330809],[7.9610088,45.234143],[7.9608186,45.2357526],[7.9569399,45.2353256],[7.957192,45.2344908],[7.9542601,45.2339374],[7.953614,45.233891],[7.9528551,45.2339155],[7.9509563,45.2343572],[7.9487766,45.2347017],[7.9476985,45.2349168],[7.9476089,45.2350285],[7.9423884,45.2360739],[7.9381252,45.2354313]]]},"properties":{"type":"boundary","gemeente":"Verolengo"}}]}