{"type":"FeatureCollection","metadata":{"gemeente":"Verzegnis","slug":"verzegnis","generated_at":"2026-09-26T14:28:13.057308Z","total_points":1,"providers":["PosteItaliane"],"bounds":[12.9935858,46.38965183,12.9935858,46.38965183]},"features":[{"type":"Feature","geometry":{"type":"Point","coordinates":[12.9935858,46.38965183]},"properties":{"type":"pakketpunt","locatieNaam":"Verzegnis","straatNaam":"Via Udine","straatNr":"2","vervoerder":"PosteItaliane","puntType":"postkantoor","bezettingsgraad":50,"latitude":46.38965183,"longitude":12.9935858,"canPickup":true,"canDropoff":true,"openingstijden":{"za":"gesloten","zo":"gesloten","ma":"08:20 - 13:45","di":"gesloten","wo":"08:20 - 13:45","do":"gesloten","vr":"08:20 - 13:45"}}},{"type":"Feature","geometry":{"type":"Polygon","coordinates":[[[12.9044284,46.3705412],[12.9074391,46.3703922],[12.9109307,46.3703945],[12.9173173,46.3707054],[12.9205382,46.3721701],[12.9216661,46.3729131],[12.9220936,46.3736143],[12.9222169,46.3736943],[12.924903,46.3784118],[12.9258069,46.3802128],[12.9271585,46.3807443],[12.9278758,46.3812108],[12.9365541,46.3869631],[12.9380722,46.3880195],[12.9381469,46.3882678],[12.9382488,46.3883495],[12.9393265,46.3890608],[12.9394515,46.3893481],[12.9393378,46.3898807],[12.9393749,46.3902637],[12.9396635,46.3906568],[12.9385665,46.3903802],[12.9384921,46.3906217],[12.9382087,46.3907273],[12.9377768,46.3912916],[12.9373762,46.3921628],[12.9367905,46.3929678],[12.9371809,46.3932079],[12.9377898,46.3933342],[12.9385935,46.3939089],[12.9388806,46.3946877],[12.9379832,46.3948044],[12.9384215,46.3953877],[12.9382432,46.395884],[12.9389441,46.3960243],[12.9401147,46.3960975],[12.9404799,46.3960346],[12.9404316,46.3958725],[12.9429435,46.3958855],[12.9439987,46.3955243],[12.9442666,46.3952411],[12.9442822,46.3949228],[12.9443704,46.3948927],[12.9449896,46.3947386],[12.9465961,46.3946055],[12.947329,46.3944145],[12.9477921,46.3944293],[12.948303,46.3946393],[12.9482598,46.3951926],[12.9483238,46.3952359],[12.9491079,46.3951786],[12.9501598,46.3954761],[12.9509613,46.3960802],[12.9511296,46.3963391],[12.951132,46.3965239],[12.9510099,46.3970336],[12.9506343,46.3978109],[12.9505301,46.3982173],[12.9505414,46.3985415],[12.9508216,46.3990616],[12.9512132,46.3994866],[12.9511934,46.4002638],[12.9523015,46.401314],[12.952275,46.4013978],[12.9507343,46.4015192],[12.9502354,46.402087],[12.9501743,46.4023418],[12.9504199,46.4025374],[12.9512728,46.4025235],[12.95453,46.4018366],[12.9562785,46.4021692],[12.9567754,46.4021554],[12.9570637,46.402086],[12.9572098,46.4019364],[12.9572194,46.4018037],[12.9570584,46.4015999],[12.9570938,46.4015293],[12.9592046,46.4010749],[12.9611347,46.4012758],[12.9621264,46.4011408],[12.9634966,46.4013004],[12.9658472,46.400847],[12.9670118,46.4010824],[12.9675261,46.4010703],[12.967726,46.4009634],[12.9677911,46.400821],[12.9677652,46.4006623],[12.9675336,46.4004296],[12.9674333,46.4001626],[12.9674017,46.3999834],[12.9675391,46.3999765],[12.9721381,46.404223],[12.9755892,46.4025238],[12.9785979,46.4012913],[12.9799874,46.4008362],[12.9808838,46.4001573],[12.9828118,46.3991703],[12.984696,46.3985703],[12.9947996,46.3961248],[12.9971778,46.3989461],[12.9990629,46.3975947],[13.0077465,46.3920932],[13.0128583,46.3906878],[13.0228575,46.3862301],[13.0190484,46.3821211],[13.018016,46.3821572],[13.0165614,46.3824698],[13.0165307,46.3823061],[13.0164476,46.3822828],[13.0152584,46.3824037],[13.014942,46.3823112],[13.0146766,46.3821142],[13.0139143,46.3821735],[13.0136092,46.3816601],[13.0124843,46.3807451],[13.0121772,46.3804382],[13.0119665,46.3800611],[13.0121328,46.378885],[13.0123178,46.3785008],[13.0124174,46.3778894],[13.0126464,46.3772073],[13.0125033,46.3768485],[13.0122117,46.3766475],[13.0106552,46.3763459],[13.0102138,46.3759541],[13.0085673,46.3761088],[13.0081315,46.3759851],[13.0071876,46.3760648],[13.0067936,46.3759473],[13.0063507,46.3755859],[13.0058313,46.3753083],[13.0054986,46.3752318],[13.0052335,46.3752435],[13.0048701,46.3755056],[13.0045771,46.375564],[13.0040185,46.3754291],[13.0032676,46.3758242],[13.0031061,46.3760136],[13.0029585,46.3759352],[13.0022768,46.3752078],[13.0021479,46.3748186],[13.0021969,46.3746349],[13.0021119,46.3742915],[13.0014246,46.3730503],[13.0014772,46.3728879],[13.0020408,46.3726309],[13.0023727,46.3721305],[13.0025115,46.371464],[13.0024454,46.3712285],[13.0027564,46.3710668],[13.002866,46.3708819],[13.0027741,46.3704146],[13.0028493,46.369589],[13.0031181,46.3693059],[13.003132,46.3691479],[13.0033505,46.3688888],[13.003267,46.3685258],[13.0038907,46.3680777],[13.0038482,46.3677013],[13.0033346,46.3674062],[13.0011031,46.3672899],[12.9955891,46.3680062],[12.99512,46.3679915],[12.9943287,46.3678613],[12.9938461,46.3676528],[12.9932402,46.3676512],[12.9926152,46.3672318],[12.9925616,46.3669326],[12.9923691,46.3666762],[12.9920188,46.3664485],[12.9918226,46.3662028],[12.9910781,46.3657188],[12.9911742,46.3651928],[12.9910232,46.3650314],[12.9906763,46.3650446],[12.9903192,46.364924],[12.9897928,46.3649735],[12.9896873,46.3650914],[12.9894411,46.3651338],[12.9887275,46.3650345],[12.9882087,46.365211],[12.9878032,46.3651718],[12.9862035,46.3653306],[12.9854007,46.3652689],[12.9857894,46.3644233],[12.9856018,46.364233],[12.9855003,46.3638782],[12.9856463,46.3631676],[12.9854903,46.3618071],[12.9859798,46.3612096],[12.9856043,46.3605833],[12.9855162,46.3602521],[12.9855036,46.3600853],[12.9856887,46.3596454],[12.9856763,46.3593112],[12.9855528,46.3589431],[12.9849233,46.3580574],[12.9850448,46.357749],[12.9847812,46.3575137],[12.9843681,46.3568843],[12.98406,46.3560908],[12.9841375,46.3560175],[12.9840084,46.3559647],[12.9826074,46.3508451],[12.9824453,46.3507434],[12.9814194,46.3506161],[12.9791678,46.3506404],[12.9785374,46.3504194],[12.9773941,46.3502245],[12.976527,46.3504705],[12.9762271,46.3502009],[12.9757745,46.3500597],[12.9745203,46.3500505],[12.973743,46.3497997],[12.9737103,46.3496949],[12.9733641,46.349505],[12.9707405,46.3492545],[12.9696537,46.3489649],[12.9691087,46.348549],[12.9684698,46.3483317],[12.9668351,46.3481662],[12.9654155,46.3478298],[12.9638457,46.347767],[12.9623935,46.3476099],[12.9588696,46.347475],[12.9589271,46.3471423],[12.9587243,46.3462964],[12.9586758,46.3456019],[12.9588117,46.345137],[12.9591504,46.3449623],[12.959155,46.3447941],[12.9589079,46.3435563],[12.9593502,46.3429521],[12.9594521,46.3426493],[12.9592768,46.342208],[12.9592246,46.3414379],[12.9588931,46.34082],[12.9588924,46.3405887],[12.9589909,46.3403742],[12.9594046,46.3399176],[12.9599117,46.3394741],[12.9603734,46.3389284],[12.9608168,46.3386105],[12.9606661,46.3383744],[12.9605877,46.3380358],[12.9604583,46.3379545],[12.9604767,46.3378745],[12.961254,46.3369306],[12.9612558,46.3367091],[12.9580049,46.3371383],[12.9576139,46.3370821],[12.9564221,46.3366701],[12.9555983,46.3368307],[12.9536007,46.3369613],[12.9511551,46.336396],[12.9501562,46.3363781],[12.9494193,46.3364683],[12.9491547,46.3364276],[12.9489273,46.3362617],[12.9488385,46.3360307],[12.9469856,46.3354175],[12.9452991,46.335041],[12.9445887,46.3344258],[12.9442948,46.3342991],[12.9417477,46.3338532],[12.9414824,46.3338304],[12.940692,46.3339646],[12.9400289,46.3338177],[12.9390593,46.3338857],[12.9372314,46.3334751],[12.9366806,46.3332763],[12.9344361,46.3346205],[12.933795,46.3352744],[12.9328025,46.3357735],[12.9325679,46.3359716],[12.9320247,46.3371217],[12.9309338,46.3383383],[12.9304162,46.3391518],[12.9301681,46.3393631],[12.9296484,46.3393716],[12.929111,46.3396811],[12.9287508,46.3401062],[12.9284562,46.3408606],[12.9280488,46.3411635],[12.9270573,46.3416311],[12.9253372,46.3421439],[12.9250844,46.3423057],[12.9246617,46.3430084],[12.924142,46.3435339],[12.9235167,46.3437609],[12.922103,46.3438925],[12.921268,46.3446821],[12.9206142,46.344976],[12.9191091,46.3451195],[12.9181044,46.3455913],[12.9177247,46.3456743],[12.9158057,46.3457742],[12.9151669,46.3461851],[12.9150031,46.3463935],[12.9149283,46.3468237],[12.9148169,46.347024],[12.9146892,46.3469678],[12.9138307,46.3449559],[12.9067152,46.3345886],[12.9065697,46.3342763],[12.9064608,46.3343491],[12.9059508,46.3431521],[12.9056228,46.3630678],[12.9053114,46.363669],[12.9047698,46.3644178],[12.9046092,46.3651767],[12.9045706,46.3660744],[12.9045932,46.3666303],[12.9051647,46.3677364],[12.9052176,46.3680404],[12.9054044,46.368289],[12.9054329,46.3689405],[12.9053105,46.3692068],[12.9048735,46.3695079],[12.9046899,46.3701771],[12.9044284,46.3705412]]]},"properties":{"type":"boundary","gemeente":"Verzegnis"}}]}