{"type":"FeatureCollection","metadata":{"gemeente":"Viagrande","slug":"viagrande","generated_at":"2026-09-26T13:10:54.608437Z","total_points":15,"providers":["PosteItaliane","DPD","InPost","GLS","DHL","Amazon"],"bounds":[15.096657,37.6071,15.099259,37.61156]},"features":[{"type":"Feature","geometry":{"type":"Point","coordinates":[15.09925853,37.61032262]},"properties":{"type":"pakketpunt","locatieNaam":"Viagrande","straatNaam":"Via Vincenzo Bellini","straatNr":"16/c","vervoerder":"PosteItaliane","puntType":"postkantoor","bezettingsgraad":50,"latitude":37.61032262,"longitude":15.09925853,"canPickup":true,"canDropoff":true,"openingstijden":{"za":"08:20 - 12:35","zo":"gesloten","ma":"08:20 - 13:35","di":"08:20 - 13:35","wo":"08:20 - 13:35","do":"08:20 - 13:35","vr":"08:20 - 13:35"}}},{"type":"Feature","geometry":{"type":"Point","coordinates":[15.09690994,37.60710394]},"properties":{"type":"pakketpunt","locatieNaam":"Tabaccheria N. 1","straatNaam":"Via Giuseppe Garibaldi","straatNr":"73/a","vervoerder":"PosteItaliane","puntType":"servicepunt","bezettingsgraad":50,"latitude":37.60710394,"longitude":15.09690994,"canPickup":true,"canDropoff":true,"openingstijden":{"za":"07:30 - 13:30, 16:00 - 20:00","zo":"gesloten","ma":"07:30 - 13:30, 16:00 - 20:00","di":"07:30 - 13:30, 16:00 - 20:00","wo":"07:30 - 13:30, 16:00 - 20:00","do":"07:30 - 13:30, 16:00 - 20:00","vr":"07:30 - 13:30, 16:00 - 20:00"}}},{"type":"Feature","geometry":{"type":"Point","coordinates":[15.0989562,37.6114676]},"properties":{"type":"pakketpunt","locatieNaam":"Nova Aci Mail-Viagrande","straatNaam":"VIA GARIBALDI","straatNr":"273","vervoerder":"DPD","puntType":"pickup_point","bezettingsgraad":50,"latitude":37.6114676,"longitude":15.0989562,"canPickup":true,"canDropoff":true,"openingstijden":{"ma":"08:30 - 13:00, 15:30 - 19:00","di":"08:30 - 13:00, 15:30 - 19:00","wo":"08:30 - 13:00, 15:30 - 19:00","do":"08:30 - 13:00, 15:30 - 19:00","vr":"08:30 - 13:00, 15:30 - 19:00","za":"09:00 - 13:00","zo":"gesloten"}}},{"type":"Feature","geometry":{"type":"Point","coordinates":[15.09893,37.61156]},"properties":{"type":"pakketpunt","locatieNaam":"InPost Point","straatNaam":"Via Giuseppe Garibaldi","straatNr":"273","vervoerder":"InPost","puntType":"servicepunt","bezettingsgraad":50,"latitude":37.61156,"longitude":15.09893,"canPickup":true,"canDropoff":true,"openingstijden":"Lun-Ven: 08:30 - 13:00 - 15:30 - 19:00 Sab: 08:30 - 13:00"}},{"type":"Feature","geometry":{"type":"Point","coordinates":[15.09842,37.60977]},"properties":{"type":"pakketpunt","locatieNaam":"InPost Locker ","straatNaam":"Via Giuseppe Garibaldi","straatNr":"151","vervoerder":"InPost","puntType":"automaat","bezettingsgraad":50,"latitude":37.60977,"longitude":15.09842,"canPickup":true,"canDropoff":true,"openingstijden":null}},{"type":"Feature","geometry":{"type":"Point","coordinates":[15.0989562,37.6114676]},"properties":{"type":"pakketpunt","locatieNaam":"NOVA ACI MAIL","straatNaam":"Via Garibaldi","straatNr":"273","vervoerder":"GLS","puntType":"parcel_shop","bezettingsgraad":50,"latitude":37.6114676,"longitude":15.0989562,"canPickup":true,"canDropoff":true,"openingstijden":"za: 09:00 - 13:00; ma: 08:30 - 13:00, 15:30 - 19:00"}},{"type":"Feature","geometry":{"type":"Point","coordinates":[15.099035,37.610537]},"properties":{"type":"pakketpunt","locatieNaam":"SANFILIPPO ANTONINO","straatNaam":"Via Garibaldi 225","straatNr":"","vervoerder":"DHL","puntType":"parcelShop","bezettingsgraad":50,"latitude":37.610537,"longitude":15.099035,"canPickup":false,"canDropoff":true,"openingstijden":{"ma":"07:45 - 20:30","di":"07:45 - 20:30","wo":"07:45 - 20:30","do":"07:45 - 20:30","vr":"07:45 - 20:30","za":"gesloten","zo":"gesloten"}}},{"type":"Feature","geometry":{"type":"Point","coordinates":[15.099259,37.610323]},"properties":{"type":"pakketpunt","locatieNaam":"Ufficio Postale VIAGRANDE","straatNaam":"VIA VINCENZO BELLINI 16-C","straatNr":"","vervoerder":"DHL","puntType":"postOffice","bezettingsgraad":50,"latitude":37.610323,"longitude":15.099259,"canPickup":true,"canDropoff":true,"openingstijden":{"ma":"08:20 - 13:35","di":"08:20 - 13:35","wo":"08:20 - 13:35","do":"08:20 - 13:35","vr":"08:20 - 13:35","za":"08:20 - 12:35","zo":"gesloten"}}},{"type":"Feature","geometry":{"type":"Point","coordinates":[15.09691,37.607104]},"properties":{"type":"pakketpunt","locatieNaam":"TABACCHERIA N. 1","straatNaam":"VIA GIUSEPPE GARIBALDI 73-A","straatNr":"","vervoerder":"DHL","puntType":"parcelShop","bezettingsgraad":50,"latitude":37.607104,"longitude":15.09691,"canPickup":true,"canDropoff":true,"openingstijden":{"ma":"07:30 - 13:30, 16:00 - 20:00","di":"07:30 - 13:30, 16:00 - 20:00","wo":"07:30 - 13:30, 16:00 - 20:00","do":"07:30 - 13:30, 16:00 - 20:00","vr":"07:30 - 13:30, 16:00 - 20:00","za":"07:30 - 13:30, 16:00 - 20:00","zo":"gesloten"}}},{"type":"Feature","geometry":{"type":"Point","coordinates":[15.098895,37.610638]},"properties":{"type":"pakketpunt","locatieNaam":"Amazon Counter - PRIMAEDICOLA","straatNaam":"SANFILIPPO ANTONINO","straatNr":"","vervoerder":"Amazon","puntType":"helix","bezettingsgraad":50,"latitude":37.610638,"longitude":15.098895,"canPickup":true,"canDropoff":false,"openingstijden":null}},{"type":"Feature","geometry":{"type":"Point","coordinates":[15.098423,37.609802]},"properties":{"type":"pakketpunt","locatieNaam":"Amazon Counter (fermopoint)","straatNaam":"La Nuova Posta-Solo Counter","straatNr":"","vervoerder":"Amazon","puntType":"helix","bezettingsgraad":50,"latitude":37.609802,"longitude":15.098423,"canPickup":true,"canDropoff":false,"openingstijden":null}},{"type":"Feature","geometry":{"type":"Point","coordinates":[15.0992,37.6103]},"properties":{"type":"pakketpunt","locatieNaam":"Ufficio Postale VIAGRANDE","straatNaam":"VIA VINCENZO BELLINI 16-C","straatNr":"","vervoerder":"Amazon","puntType":"3p","bezettingsgraad":50,"latitude":37.6103,"longitude":15.0992,"canPickup":true,"canDropoff":false,"openingstijden":null}},{"type":"Feature","geometry":{"type":"Point","coordinates":[15.099034,37.611479]},"properties":{"type":"pakketpunt","locatieNaam":"Amazon Counter","straatNaam":"Nova Aci Mail-Viagrande (fermopoint)","straatNr":"","vervoerder":"Amazon","puntType":"helix","bezettingsgraad":50,"latitude":37.611479,"longitude":15.099034,"canPickup":true,"canDropoff":false,"openingstijden":null}},{"type":"Feature","geometry":{"type":"Point","coordinates":[15.096657,37.609967]},"properties":{"type":"pakketpunt","locatieNaam":"Amazon Counter - MANGIAGLI LAURA AGATA","straatNaam":"PIAZZA SAN MAURO 1","straatNr":"","vervoerder":"Amazon","puntType":"helix","bezettingsgraad":50,"latitude":37.609967,"longitude":15.096657,"canPickup":true,"canDropoff":false,"openingstijden":null}},{"type":"Feature","geometry":{"type":"Point","coordinates":[15.0969,37.6071]},"properties":{"type":"pakketpunt","locatieNaam":"PuntoPoste TABACCHERIA N. 1","straatNaam":"VIA GIUSEPPE GARIBALDI 73/A","straatNr":"","vervoerder":"Amazon","puntType":"3p","bezettingsgraad":50,"latitude":37.6071,"longitude":15.0969,"canPickup":true,"canDropoff":false,"openingstijden":null}},{"type":"Feature","geometry":{"type":"Polygon","coordinates":[[[15.0871609,37.6001105],[15.0883787,37.599745],[15.0890779,37.5996382],[15.0894439,37.5994787],[15.0891005,37.5985229],[15.0899148,37.5976055],[15.0907653,37.5969741],[15.0912563,37.5968687],[15.0918795,37.5970462],[15.0924849,37.5967799],[15.0948339,37.5963712],[15.0956735,37.5959415],[15.0966356,37.5955914],[15.0967892,37.5954686],[15.0966526,37.5944101],[15.0967747,37.5943955],[15.0968724,37.5940293],[15.0980405,37.5927513],[15.0985332,37.5925282],[15.099344,37.5926191],[15.099874,37.5924267],[15.1004967,37.5927871],[15.1016704,37.5924998],[15.1023723,37.591801],[15.1029942,37.5917771],[15.1030845,37.591377],[15.1035672,37.5909612],[15.1042207,37.5908247],[15.1043092,37.591313],[15.105714,37.5925639],[15.1053511,37.5931108],[15.1046518,37.5928248],[15.1032714,37.5926594],[15.1031931,37.5932228],[15.1033154,37.5938191],[15.103329,37.5943924],[15.1031958,37.5946775],[15.1023896,37.5944738],[15.1022664,37.5949411],[15.1016146,37.5950399],[15.1012399,37.5952869],[15.1010678,37.595129],[15.1007894,37.595073],[15.1002181,37.5955965],[15.1002307,37.5958396],[15.0997202,37.596047],[15.0996575,37.5961398],[15.099661,37.5968973],[15.1010867,37.5966046],[15.1015795,37.5967751],[15.1008153,37.5975168],[15.1013524,37.5976729],[15.1013579,37.5981155],[15.1018649,37.5979777],[15.1021422,37.598945],[15.1032813,37.5988324],[15.1031975,37.5989794],[15.1033652,37.5993679],[15.1032952,37.5995359],[15.1035576,37.5996505],[15.1034285,37.6004219],[15.1032883,37.6005642],[15.1033366,37.6009244],[15.1034948,37.6015598],[15.1038535,37.6023108],[15.1038386,37.602719],[15.1041613,37.6030082],[15.1041202,37.6031135],[15.1044137,37.6032581],[15.1049357,37.6038011],[15.1060196,37.604545],[15.1067049,37.605265],[15.1076433,37.6064955],[15.1078453,37.608897],[15.1086228,37.6103682],[15.1086811,37.6112638],[15.1090416,37.6137022],[15.1096091,37.615153],[15.1099516,37.6156313],[15.1098224,37.6163349],[15.1095021,37.6171056],[15.1088031,37.617675],[15.1083665,37.6177492],[15.1084577,37.6182654],[15.1086256,37.6185313],[15.1092965,37.618969],[15.1099413,37.6196681],[15.1100337,37.6207876],[15.1101963,37.6212812],[15.1101445,37.6217503],[15.1106977,37.6226917],[15.1107908,37.6229861],[15.1106825,37.6237648],[15.1108196,37.6242324],[15.1104466,37.62506],[15.109254,37.6262832],[15.1087354,37.6272197],[15.1080645,37.6278473],[15.1074394,37.6281155],[15.1075101,37.6282078],[15.1074422,37.6284598],[15.107194,37.6286734],[15.1068275,37.6292694],[15.1062828,37.6305719],[15.1057624,37.6310648],[15.1040514,37.632015],[15.1038998,37.6322614],[15.1039642,37.6326862],[15.1033725,37.6338395],[15.1028027,37.6340388],[15.1025318,37.6344487],[15.1021621,37.6347917],[15.1017131,37.6358553],[15.1012575,37.6365074],[15.1012792,37.6369073],[15.1010964,37.6373533],[15.1011626,37.6376831],[15.1011022,37.6380442],[15.1010201,37.6381313],[15.1004916,37.6382969],[15.1000321,37.6382967],[15.0990635,37.6387686],[15.0972935,37.6390984],[15.096734,37.6393036],[15.0953131,37.6399094],[15.0943753,37.6406833],[15.0930895,37.6412201],[15.0932921,37.6416902],[15.0932655,37.6421176],[15.0929846,37.6428463],[15.0928736,37.6435792],[15.0920224,37.6446365],[15.0918094,37.6451882],[15.0919208,37.6464594],[15.0918426,37.6471834],[15.0920404,37.6476058],[15.0926022,37.650111],[15.0932184,37.6515614],[15.0936462,37.6520457],[15.0938205,37.6524607],[15.0937552,37.6531188],[15.0932346,37.6536961],[15.0931997,37.6538651],[15.0932215,37.6555399],[15.0933258,37.6565547],[15.0934986,37.6570652],[15.0929162,37.6574191],[15.0919044,37.6575967],[15.0904719,37.6580749],[15.0899099,37.6574867],[15.0888704,37.6577153],[15.0883692,37.6577153],[15.086751,37.6572335],[15.0861166,37.6571218],[15.0843142,37.6574006],[15.0840869,37.6563855],[15.0844333,37.6557344],[15.0847755,37.6554707],[15.0848271,37.6551421],[15.0846471,37.6547895],[15.0845311,37.6541934],[15.0842255,37.6538051],[15.084195,37.6528852],[15.0839013,37.6523618],[15.083873,37.6521536],[15.0840429,37.6510244],[15.0845916,37.6504084],[15.0847706,37.6497946],[15.0844458,37.6490484],[15.0827694,37.6478193],[15.082813,37.6474638],[15.0831556,37.6464697],[15.0831793,37.6461567],[15.0837124,37.6457751],[15.0839243,37.6453564],[15.0841945,37.6450363],[15.0845522,37.6448777],[15.0853803,37.6447469],[15.0858371,37.6445283],[15.0859445,37.6443232],[15.0863127,37.6426784],[15.0869241,37.6424944],[15.0873962,37.6421259],[15.0876451,37.641126],[15.0876172,37.6402461],[15.0879661,37.6394858],[15.0893144,37.6389456],[15.0874782,37.6371823],[15.0857232,37.6349789],[15.0854401,37.6340723],[15.0854047,37.6330475],[15.0852885,37.6327158],[15.084664,37.6319144],[15.0826037,37.629617],[15.0826744,37.6292292],[15.0828835,37.628994],[15.0831667,37.6288402],[15.0838408,37.6277477],[15.0836385,37.627412],[15.0835825,37.6269609],[15.0840343,37.6262506],[15.0843278,37.6256032],[15.0843531,37.6251569],[15.084566,37.6246552],[15.0847448,37.6235433],[15.0854808,37.6214345],[15.0858187,37.6207327],[15.0868383,37.6192562],[15.0873463,37.6183466],[15.0882896,37.6163816],[15.0877107,37.61602],[15.0872241,37.6158687],[15.0873249,37.6149393],[15.087476,37.6143581],[15.0875433,37.6141711],[15.0878741,37.6137897],[15.0875135,37.6127197],[15.0875902,37.6123196],[15.0875129,37.6118451],[15.087623,37.6116059],[15.0872769,37.6109675],[15.0863242,37.6097007],[15.0860876,37.6086784],[15.0852329,37.6081366],[15.0859881,37.6076219],[15.0864776,37.6070038],[15.0866358,37.606726],[15.0865805,37.6062748],[15.0870316,37.6059502],[15.0882228,37.6054307],[15.0881338,37.6053136],[15.0882991,37.6051087],[15.0882834,37.6050122],[15.0880307,37.6047352],[15.0876986,37.6041059],[15.0882723,37.6037443],[15.0876564,37.6028434],[15.0884494,37.6023641],[15.0880883,37.6022189],[15.0883012,37.601917],[15.0877852,37.6015647],[15.0873864,37.6019488],[15.0870571,37.6021157],[15.0868739,37.6020229],[15.0868197,37.6021066],[15.08659,37.6020277],[15.0866129,37.6019215],[15.0863783,37.6018419],[15.0863582,37.6017527],[15.0865527,37.6012915],[15.0869858,37.6006317],[15.0870169,37.6003393],[15.0871609,37.6001105]]]},"properties":{"type":"boundary","gemeente":"Viagrande"}}]}