{"type":"FeatureCollection","metadata":{"gemeente":"Vialfrè","slug":"vialfre","generated_at":"2026-09-26T14:28:13.302297Z","total_points":1,"providers":["PosteItaliane"],"bounds":[7.81840487,45.38090853,7.81840487,45.38090853]},"features":[{"type":"Feature","geometry":{"type":"Point","coordinates":[7.81840487,45.38090853]},"properties":{"type":"pakketpunt","locatieNaam":"Vialfre'","straatNaam":"Via Don Vercellis","straatNr":"1","vervoerder":"PosteItaliane","puntType":"postkantoor","bezettingsgraad":50,"latitude":45.38090853,"longitude":7.81840487,"canPickup":true,"canDropoff":true,"openingstijden":{"za":"gesloten","zo":"gesloten","ma":"08:20 - 13:45","di":"gesloten","wo":"08:20 - 13:45","do":"gesloten","vr":"08:20 - 13:45"}}},{"type":"Feature","geometry":{"type":"Polygon","coordinates":[[[7.79106,45.3862996],[7.7908548,45.3857393],[7.790952,45.3853713],[7.7908671,45.3851634],[7.7891321,45.3844609],[7.7893092,45.3839407],[7.7892772,45.3836433],[7.7897683,45.3833785],[7.7910126,45.3831306],[7.7918621,45.3828246],[7.7925684,45.3820489],[7.792748,45.3814117],[7.7932785,45.3810933],[7.7940102,45.380921],[7.7940042,45.3807904],[7.7943621,45.3807402],[7.7955072,45.3795956],[7.7965667,45.3792107],[7.7971314,45.3788926],[7.7978195,45.3783688],[7.7982426,45.3776891],[7.798566,45.3768914],[7.7989439,45.3765353],[7.8004268,45.3758668],[7.8018125,45.3755663],[7.8026241,45.3752328],[7.8027941,45.3750456],[7.8032893,45.3750148],[7.8034601,45.374769],[7.8040546,45.3742442],[7.804846,45.3740409],[7.8048593,45.3737665],[7.805073,45.3734357],[7.8051308,45.3729097],[7.8054216,45.3723682],[7.8057984,45.3721336],[7.8060375,45.3718301],[7.8065543,45.3716014],[7.8075187,45.371481],[7.8082767,45.3715654],[7.8085468,45.3720093],[7.8088502,45.3723275],[7.8124711,45.3735669],[7.8144928,45.3739929],[7.8157457,45.374159],[7.8180915,45.3747413],[7.8189132,45.3747588],[7.8193191,45.374646],[7.8201614,45.3741552],[7.820147,45.374083],[7.8207578,45.3733242],[7.8222464,45.3701531],[7.8223343,45.3697264],[7.8225571,45.3693327],[7.822931,45.3689135],[7.8239009,45.3669612],[7.8249178,45.365662],[7.8250181,45.3646368],[7.8252462,45.3643511],[7.8253935,45.3639656],[7.8261273,45.3608587],[7.8272197,45.3608249],[7.8279172,45.3609401],[7.8278786,45.3607957],[7.8280689,45.3607031],[7.8287197,45.3607188],[7.829085,45.360151],[7.8292459,45.3594685],[7.8292894,45.3582673],[7.8291959,45.3578883],[7.8292143,45.3573619],[7.8298007,45.3564588],[7.8299924,45.3562177],[7.8302615,45.3560899],[7.8306086,45.356053],[7.8310334,45.3561338],[7.8314637,45.3559492],[7.8316496,45.3559916],[7.8318938,45.3558906],[7.8319301,45.3557695],[7.8321951,45.3560242],[7.8324256,45.3563416],[7.8315346,45.3585918],[7.8313849,45.3592924],[7.8314821,45.3611432],[7.8313213,45.3620326],[7.831641,45.3622024],[7.8316476,45.3626616],[7.8320429,45.3632102],[7.832953,45.3634265],[7.8325682,45.3643227],[7.8326312,45.3651785],[7.8320126,45.3658068],[7.8337525,45.3662881],[7.8328088,45.3666745],[7.8322993,45.3672679],[7.8323356,45.3678128],[7.8324538,45.3679266],[7.8323972,45.3680205],[7.8328156,45.3684749],[7.83311,45.3691439],[7.8330325,45.371416],[7.8328774,45.372166],[7.8320961,45.3735757],[7.8320377,45.3741242],[7.8318293,45.3744776],[7.8315234,45.3757662],[7.8310531,45.3771251],[7.8306524,45.3777646],[7.8293227,45.3790516],[7.8282985,45.3798062],[7.8269582,45.380112],[7.8262955,45.3799072],[7.8259544,45.3798812],[7.8258015,45.3809237],[7.8252985,45.3819087],[7.8251982,45.3823397],[7.8253801,45.3834443],[7.8235337,45.3841319],[7.8224609,45.3843728],[7.8206797,45.3842014],[7.8191826,45.3844425],[7.8183038,45.3851985],[7.8177894,45.3854992],[7.8173327,45.3856565],[7.8171875,45.3860622],[7.8164739,45.3857962],[7.8143829,45.3855899],[7.8124106,45.385646],[7.8110441,45.3859153],[7.8106426,45.3858931],[7.8098582,45.3856284],[7.8096565,45.3854823],[7.8085604,45.3859524],[7.8068446,45.3871902],[7.8065898,45.387066],[7.8064938,45.387209],[7.8059125,45.3875495],[7.804593,45.3875807],[7.804224,45.3874148],[7.8038121,45.3870909],[7.8031812,45.3868323],[7.8017819,45.3869707],[7.7998,45.3875889],[7.7993151,45.3878494],[7.7984794,45.3877641],[7.7981818,45.3878285],[7.7963899,45.3878231],[7.7956935,45.3875502],[7.7952285,45.3865552],[7.794868,45.3864793],[7.794271,45.386509],[7.79106,45.3862996]]]},"properties":{"type":"boundary","gemeente":"Vialfrè"}}]}