{"type":"FeatureCollection","metadata":{"gemeente":"Vigevano","slug":"vigevano","generated_at":"2026-09-26T14:28:13.631896Z","total_points":119,"providers":["PosteItaliane","DPD","InPost","GLS","DHL","Amazon","FedEx"],"bounds":[8.82748,45.2927,8.890979,45.33197]},"features":[{"type":"Feature","geometry":{"type":"Point","coordinates":[8.86012115,45.31993668]},"properties":{"type":"pakketpunt","locatieNaam":"Vigevano Centro","straatNaam":"Via Edmondo De Amicis","straatNr":"2","vervoerder":"PosteItaliane","puntType":"postkantoor","bezettingsgraad":50,"latitude":45.31993668,"longitude":8.86012115,"canPickup":true,"canDropoff":true,"openingstijden":{"za":"08:20 - 12:35","zo":"gesloten","ma":"08:20 - 19:05","di":"08:20 - 19:05","wo":"08:20 - 19:05","do":"08:20 - 19:05","vr":"08:20 - 19:05"}}},{"type":"Feature","geometry":{"type":"Point","coordinates":[8.87548364,45.32298985]},"properties":{"type":"pakketpunt","locatieNaam":"Vigevano 2","straatNaam":"Via San Giovanni","straatNr":"14","vervoerder":"PosteItaliane","puntType":"postkantoor","bezettingsgraad":50,"latitude":45.32298985,"longitude":8.87548364,"canPickup":true,"canDropoff":true,"openingstijden":{"za":"08:20 - 12:35","zo":"gesloten","ma":"08:20 - 13:35","di":"08:20 - 13:35","wo":"08:20 - 13:35","do":"08:20 - 13:35","vr":"08:20 - 13:35"}}},{"type":"Feature","geometry":{"type":"Point","coordinates":[8.86502057,45.31609168]},"properties":{"type":"pakketpunt","locatieNaam":"Vigevano 3","straatNaam":"Via Giacomo Matteotti","straatNr":"6","vervoerder":"PosteItaliane","puntType":"postkantoor","bezettingsgraad":50,"latitude":45.31609168,"longitude":8.86502057,"canPickup":true,"canDropoff":true,"openingstijden":{"za":"08:20 - 12:45","zo":"gesloten","ma":"gesloten","di":"08:20 - 13:45","wo":"gesloten","do":"08:20 - 13:45","vr":"gesloten"}}},{"type":"Feature","geometry":{"type":"Point","coordinates":[8.85494501,45.31473169]},"properties":{"type":"pakketpunt","locatieNaam":"Vigevano 1","straatNaam":"Via San Pio V Snc","straatNr":"1","vervoerder":"PosteItaliane","puntType":"postkantoor","bezettingsgraad":50,"latitude":45.31473169,"longitude":8.85494501,"canPickup":true,"canDropoff":true,"openingstijden":{"za":"08:20 - 12:35","zo":"gesloten","ma":"08:20 - 19:05","di":"08:20 - 19:05","wo":"08:20 - 19:05","do":"08:20 - 19:05","vr":"08:20 - 19:05"}}},{"type":"Feature","geometry":{"type":"Point","coordinates":[8.85852089,45.3160709]},"properties":{"type":"pakketpunt","locatieNaam":"Tabaccheria N. 5","straatNaam":"Via Venti Settembre","straatNr":"31","vervoerder":"PosteItaliane","puntType":"servicepunt","bezettingsgraad":50,"latitude":45.3160709,"longitude":8.85852089,"canPickup":true,"canDropoff":true,"openingstijden":{"za":"08:30 - 12:00, 15:30 - 19:00","zo":"09:30 - 12:00, 15:30 - 19:00","ma":"gesloten","di":"08:30 - 12:00, 15:30 - 19:00","wo":"08:30 - 12:00, 15:30 - 19:00","do":"08:30 - 12:00, 15:30 - 19:00","vr":"08:30 - 12:00, 15:30 - 19:00"}}},{"type":"Feature","geometry":{"type":"Point","coordinates":[8.86571065,45.30887213]},"properties":{"type":"pakketpunt","locatieNaam":"Edicola Cartoleria - Vigevano","straatNaam":"Corso Pavia","straatNr":"51","vervoerder":"PosteItaliane","puntType":"servicepunt","bezettingsgraad":50,"latitude":45.30887213,"longitude":8.86571065,"canPickup":true,"canDropoff":true,"openingstijden":{"za":"06:30 - 12:30, 16:30 - 19:30","zo":"07:30 - 12:30","ma":"06:30 - 12:30, 15:30 - 19:30","di":"06:30 - 12:30, 15:30 - 19:30","wo":"06:30 - 12:30, 15:30 - 19:30","do":"06:30 - 12:30, 15:30 - 19:30","vr":"06:30 - 12:30, 15:30 - 19:30"}}},{"type":"Feature","geometry":{"type":"Point","coordinates":[8.85299522,45.30396595]},"properties":{"type":"pakketpunt","locatieNaam":"Tabaccheria N. 17","straatNaam":"Corso Genova","straatNr":"83","vervoerder":"PosteItaliane","puntType":"servicepunt","bezettingsgraad":50,"latitude":45.30396595,"longitude":8.85299522,"canPickup":true,"canDropoff":true,"openingstijden":{"za":"08:30 - 12:30, 15:00 - 19:00","zo":"gesloten","ma":"07:30 - 12:30, 15:00 - 19:30","di":"07:30 - 12:30, 15:00 - 19:30","wo":"07:30 - 12:30, 15:00 - 19:30","do":"07:30 - 12:30, 15:00 - 19:30","vr":"07:30 - 12:30, 15:00 - 19:30"}}},{"type":"Feature","geometry":{"type":"Point","coordinates":[8.87201518,45.32254645]},"properties":{"type":"pakketpunt","locatieNaam":"Venchi Multicenter","straatNaam":"Corso Milano","straatNr":"63","vervoerder":"PosteItaliane","puntType":"automaat","bezettingsgraad":50,"latitude":45.32254645,"longitude":8.87201518,"canPickup":true,"canDropoff":true,"openingstijden":{"za":"09:30 - 12:30","zo":"gesloten","ma":"09:30 - 12:30","di":"09:30 - 12:30","wo":"09:30 - 12:30","do":"09:30 - 12:30","vr":"09:30 - 12:30"}}},{"type":"Feature","geometry":{"type":"Point","coordinates":[8.88123826,45.31392184]},"properties":{"type":"pakketpunt","locatieNaam":"Centro Commerciale Il Ducale","straatNaam":"Viale Industria","straatNr":"225","vervoerder":"PosteItaliane","puntType":"automaat","bezettingsgraad":50,"latitude":45.31392184,"longitude":8.88123826,"canPickup":true,"canDropoff":true,"openingstijden":{"za":"09:00 - 20:00","zo":"09:00 - 20:00","ma":"09:00 - 20:00","di":"09:00 - 20:00","wo":"09:00 - 20:00","do":"09:00 - 20:00","vr":"09:00 - 20:00"}}},{"type":"Feature","geometry":{"type":"Point","coordinates":[8.85444252,45.31073108]},"properties":{"type":"pakketpunt","locatieNaam":"Urban Gravity Academy","straatNaam":"Via Domenico Pisani","straatNr":"1","vervoerder":"PosteItaliane","puntType":"automaat","bezettingsgraad":50,"latitude":45.31073108,"longitude":8.85444252,"canPickup":true,"canDropoff":true,"openingstijden":{"za":"gesloten","zo":"gesloten","ma":"09:00 - 12:30","di":"09:00 - 13:00","wo":"09:00 - 13:00","do":"09:00 - 13:00","vr":"09:00 - 13:00"}}},{"type":"Feature","geometry":{"type":"Point","coordinates":[8.8604308,45.3134295]},"properties":{"type":"pakketpunt","locatieNaam":"Tabaccheria N. 12","straatNaam":"Via Cairoli","straatNr":"36","vervoerder":"PosteItaliane","puntType":"servicepunt","bezettingsgraad":50,"latitude":45.3134295,"longitude":8.8604308,"canPickup":true,"canDropoff":true,"openingstijden":{"za":"08:30 - 20:30","zo":"09:00 - 18:30","ma":"08:30 - 20:30","di":"08:30 - 20:30","wo":"08:30 - 12:30","do":"08:30 - 20:30","vr":"08:30 - 20:30"}}},{"type":"Feature","geometry":{"type":"Point","coordinates":[8.85965745,45.3201108]},"properties":{"type":"pakketpunt","locatieNaam":"Tabaccheria N. 10","straatNaam":"Corso Vittorio Emanuele Ii","straatNr":"116","vervoerder":"PosteItaliane","puntType":"servicepunt","bezettingsgraad":50,"latitude":45.3201108,"longitude":8.85965745,"canPickup":true,"canDropoff":true,"openingstijden":{"za":"07:00 - 21:00","zo":"gesloten","ma":"07:00 - 21:00","di":"07:00 - 21:00","wo":"07:00 - 21:00","do":"07:00 - 21:00","vr":"07:00 - 21:00"}}},{"type":"Feature","geometry":{"type":"Point","coordinates":[8.8610138,45.31764065]},"properties":{"type":"pakketpunt","locatieNaam":"Tabaccheria N. 22","straatNaam":"Via Pier Candido Decembrio","straatNr":"21","vervoerder":"PosteItaliane","puntType":"servicepunt","bezettingsgraad":50,"latitude":45.31764065,"longitude":8.8610138,"canPickup":true,"canDropoff":true,"openingstijden":{"za":"07:00 - 19:30","zo":"gesloten","ma":"07:00 - 19:30","di":"07:00 - 19:30","wo":"07:00 - 19:30","do":"07:00 - 19:30","vr":"07:00 - 13:30"}}},{"type":"Feature","geometry":{"type":"Point","coordinates":[8.84999778,45.31410446]},"properties":{"type":"pakketpunt","locatieNaam":"Tabaccheria N. 26","straatNaam":"Corso Torino","straatNr":"9","vervoerder":"PosteItaliane","puntType":"servicepunt","bezettingsgraad":50,"latitude":45.31410446,"longitude":8.84999778,"canPickup":true,"canDropoff":true,"openingstijden":{"za":"07:30 - 19:30","zo":"08:30 - 12:30","ma":"07:30 - 19:30","di":"07:30 - 19:30","wo":"07:30 - 19:30","do":"07:30 - 19:30","vr":"07:30 - 19:30"}}},{"type":"Feature","geometry":{"type":"Point","coordinates":[8.85054373,45.32009146]},"properties":{"type":"pakketpunt","locatieNaam":"Cartoleria La Coccinella","straatNaam":"Corso Novara","straatNr":"35","vervoerder":"PosteItaliane","puntType":"servicepunt","bezettingsgraad":50,"latitude":45.32009146,"longitude":8.85054373,"canPickup":true,"canDropoff":true,"openingstijden":{"za":"09:00 - 13:00","zo":"gesloten","ma":"09:00 - 13:00, 15:00 - 19:00","di":"09:00 - 13:00, 15:00 - 19:00","wo":"09:00 - 13:00, 15:00 - 19:00","do":"09:00 - 13:00, 15:00 - 19:00","vr":"09:00 - 13:00, 15:00 - 19:00"}}},{"type":"Feature","geometry":{"type":"Point","coordinates":[8.84513838,45.31308851]},"properties":{"type":"pakketpunt","locatieNaam":"Tabaccheria N. 50","straatNaam":"Via Strada Nuova","straatNr":"1","vervoerder":"PosteItaliane","puntType":"servicepunt","bezettingsgraad":50,"latitude":45.31308851,"longitude":8.84513838,"canPickup":true,"canDropoff":true,"openingstijden":{"za":"07:30 - 12:30, 15:30 - 19:30","zo":"gesloten","ma":"07:30 - 12:30, 15:30 - 19:30","di":"07:30 - 12:30, 15:30 - 19:30","wo":"07:30 - 12:30, 15:30 - 19:30","do":"07:30 - 12:30, 15:30 - 19:30","vr":"07:30 - 12:30, 15:30 - 19:30"}}},{"type":"Feature","geometry":{"type":"Point","coordinates":[8.86163101,45.3110348]},"properties":{"type":"pakketpunt","locatieNaam":"Tabaccheria N. 30","straatNaam":"Corso Pavia","straatNr":"26/a","vervoerder":"PosteItaliane","puntType":"servicepunt","bezettingsgraad":50,"latitude":45.3110348,"longitude":8.86163101,"canPickup":true,"canDropoff":true,"openingstijden":{"za":"07:00 - 19:30","zo":"gesloten","ma":"07:00 - 19:30","di":"07:00 - 19:30","wo":"07:00 - 19:30","do":"07:00 - 19:30","vr":"07:00 - 19:30"}}},{"type":"Feature","geometry":{"type":"Point","coordinates":[8.85149496,45.31820037]},"properties":{"type":"pakketpunt","locatieNaam":"Tabaccheria N. 27","straatNaam":"Via Gian Giacomo Trivulzio","straatNr":"47","vervoerder":"PosteItaliane","puntType":"servicepunt","bezettingsgraad":50,"latitude":45.31820037,"longitude":8.85149496,"canPickup":true,"canDropoff":true,"openingstijden":{"za":"07:30 - 12:30, 15:30 - 19:30","zo":"gesloten","ma":"07:30 - 12:30, 15:30 - 19:30","di":"07:30 - 12:30, 15:30 - 19:30","wo":"07:30 - 12:30, 15:30 - 19:30","do":"07:30 - 12:30, 15:30 - 19:30","vr":"07:30 - 12:30, 15:30 - 19:30"}}},{"type":"Feature","geometry":{"type":"Point","coordinates":[8.85852679,45.31730439]},"properties":{"type":"pakketpunt","locatieNaam":"Tabaccheria N. 3","straatNaam":"Piazza Ducale","straatNr":"48","vervoerder":"PosteItaliane","puntType":"servicepunt","bezettingsgraad":50,"latitude":45.31730439,"longitude":8.85852679,"canPickup":true,"canDropoff":true,"openingstijden":{"za":"08:30 - 12:30, 14:30 - 19:30","zo":"09:00 - 12:30, 16:00 - 19:30","ma":"08:00 - 12:30, 14:30 - 19:30","di":"08:00 - 12:30, 14:30 - 19:30","wo":"08:00 - 12:30, 14:30 - 19:30","do":"08:00 - 12:30, 14:30 - 19:30","vr":"08:00 - 12:30, 14:30 - 19:30"}}},{"type":"Feature","geometry":{"type":"Point","coordinates":[8.8657021,45.308892]},"properties":{"type":"pakketpunt","locatieNaam":"Edicola Arneri snc","straatNaam":"CORSO PAVIA","straatNr":"51","vervoerder":"DPD","puntType":"pickup_point","bezettingsgraad":50,"latitude":45.308892,"longitude":8.8657021,"canPickup":true,"canDropoff":true,"openingstijden":{"ma":"07:30 - 12:30, 15:30 - 19:30","di":"07:30 - 12:30, 15:30 - 19:30","wo":"07:30 - 12:30, 15:30 - 19:30","do":"07:30 - 12:30, 15:30 - 19:30","vr":"07:30 - 12:30, 15:30 - 19:30","za":"07:30 - 12:30, 16:00 - 19:30","zo":"08:00 - 12:30"}}},{"type":"Feature","geometry":{"type":"Point","coordinates":[8.8844221,45.3232728]},"properties":{"type":"pakketpunt","locatieNaam":"Zeus Computer","straatNaam":"VIA SAN GIOVANNI","straatNr":"85","vervoerder":"DPD","puntType":"pickup_point","bezettingsgraad":50,"latitude":45.3232728,"longitude":8.8844221,"canPickup":true,"canDropoff":true,"openingstijden":{"ma":"16:00 - 19:00","di":"09:30 - 12:30, 16:00 - 19:00","wo":"09:30 - 12:30, 16:00 - 19:00","do":"09:30 - 12:30, 16:00 - 19:00","vr":"09:30 - 12:30, 16:00 - 19:00","za":"09:30 - 12:30, 16:00 - 19:00","zo":"gesloten"}}},{"type":"Feature","geometry":{"type":"Point","coordinates":[8.8587523,45.3161447]},"properties":{"type":"pakketpunt","locatieNaam":"Dal Fornaio","straatNaam":"VIA XX SETTEMBRE","straatNr":"38","vervoerder":"DPD","puntType":"pickup_point","bezettingsgraad":50,"latitude":45.3161447,"longitude":8.8587523,"canPickup":true,"canDropoff":true,"openingstijden":{"ma":"07:30 - 19:30","di":"07:30 - 19:30","wo":"07:30 - 19:30","do":"07:30 - 19:30","vr":"07:30 - 19:30","za":"07:30 - 19:30","zo":"gesloten"}}},{"type":"Feature","geometry":{"type":"Point","coordinates":[8.8596450153,45.320140786]},"properties":{"type":"pakketpunt","locatieNaam":"Bar Rivendita 10","straatNaam":"C.SO V.EMANUELE II","straatNr":"116","vervoerder":"DPD","puntType":"pickup_point","bezettingsgraad":50,"latitude":45.320140786,"longitude":8.8596450153,"canPickup":true,"canDropoff":true,"openingstijden":{"ma":"07:30 - 13:30, 16:30 - 19:30","di":"07:30 - 13:30, 16:30 - 19:30","wo":"07:30 - 13:30, 16:30 - 19:30","do":"07:30 - 13:30, 16:30 - 19:30","vr":"07:30 - 13:30, 16:30 - 19:30","za":"07:30 - 13:30, 16:30 - 19:30","zo":"07:30 - 13:30, 17:00 - 19:30"}}},{"type":"Feature","geometry":{"type":"Point","coordinates":[8.8573502331,45.3171953417]},"properties":{"type":"pakketpunt","locatieNaam":"Tabaccheria Bridian","straatNaam":"PIAZZA DUCALE","straatNr":"22","vervoerder":"DPD","puntType":"pickup_point","bezettingsgraad":50,"latitude":45.3171953417,"longitude":8.8573502331,"canPickup":true,"canDropoff":true,"openingstijden":{"ma":"08:30 - 12:30, 15:30 - 19:30","di":"08:30 - 12:30, 15:30 - 19:30","wo":"08:30 - 12:30, 15:30 - 19:30","do":"08:30 - 12:30, 15:30 - 19:30","vr":"08:30 - 12:30, 15:30 - 19:30","za":"10:00 - 12:30, 16:00 - 19:30","zo":"gesloten"}}},{"type":"Feature","geometry":{"type":"Point","coordinates":[8.8636496822,45.3259942564]},"properties":{"type":"pakketpunt","locatieNaam":"Tabaccheria Quattrosette","straatNaam":"VIALE PETRARCA","straatNr":"21","vervoerder":"DPD","puntType":"pickup_point","bezettingsgraad":50,"latitude":45.3259942564,"longitude":8.8636496822,"canPickup":true,"canDropoff":true,"openingstijden":{"ma":"07:00 - 11:45, 15:30 - 19:30","di":"07:00 - 11:45, 15:30 - 19:30","wo":"07:00 - 11:45, 15:30 - 19:30","do":"07:00 - 11:45, 15:30 - 19:30","vr":"07:00 - 11:45, 15:30 - 19:30","za":"08:00 - 11:45, 15:30 - 19:30","zo":"gesloten"}}},{"type":"Feature","geometry":{"type":"Point","coordinates":[8.8771771,45.3232809]},"properties":{"type":"pakketpunt","locatieNaam":"Posta e Multiservizi-Reggia dei Ser","straatNaam":"VIA SAN GIOVANNI","straatNr":"25/B","vervoerder":"DPD","puntType":"pickup_point","bezettingsgraad":50,"latitude":45.3232809,"longitude":8.8771771,"canPickup":true,"canDropoff":true,"openingstijden":null}},{"type":"Feature","geometry":{"type":"Point","coordinates":[8.8507164,45.3201082]},"properties":{"type":"pakketpunt","locatieNaam":"Cartoleria La Coccinella","straatNaam":"CORSO NOVARA","straatNr":"35","vervoerder":"DPD","puntType":"pickup_point","bezettingsgraad":50,"latitude":45.3201082,"longitude":8.8507164,"canPickup":true,"canDropoff":true,"openingstijden":{"ma":"09:00 - 13:00, 15:00 - 19:00","di":"09:00 - 13:00, 15:00 - 19:00","wo":"09:00 - 13:00, 15:00 - 19:00","do":"09:00 - 13:00, 15:00 - 19:00","vr":"09:00 - 13:00, 15:00 - 19:00","za":"09:00 - 13:00","zo":"gesloten"}}},{"type":"Feature","geometry":{"type":"Point","coordinates":[8.848005,45.322481]},"properties":{"type":"pakketpunt","locatieNaam":"QuiPoste-Vigevano","straatNaam":"VIALE MONTEGRAPPA","straatNr":"7","vervoerder":"DPD","puntType":"pickup_point","bezettingsgraad":50,"latitude":45.322481,"longitude":8.848005,"canPickup":true,"canDropoff":true,"openingstijden":{"ma":"09:00 - 13:00","di":"09:00 - 13:00","wo":"09:00 - 13:00","do":"09:00 - 13:00","vr":"09:00 - 13:00","za":"gesloten","zo":"gesloten"}}},{"type":"Feature","geometry":{"type":"Point","coordinates":[8.87347763,45.32359927]},"properties":{"type":"pakketpunt","locatieNaam":"Enel-Vigevano","straatNaam":"C.SO MILANO","straatNr":"67F","vervoerder":"DPD","puntType":"pickup_point","bezettingsgraad":50,"latitude":45.32359927,"longitude":8.87347763,"canPickup":true,"canDropoff":true,"openingstijden":{"ma":"09:00 - 12:30, 14:30 - 18:30","di":"09:00 - 12:30, 14:30 - 18:30","wo":"09:00 - 12:30, 14:30 - 18:30","do":"09:00 - 12:30, 14:30 - 18:30","vr":"09:00 - 12:30, 14:30 - 18:30","za":"09:30 - 12:00","zo":"gesloten"}}},{"type":"Feature","geometry":{"type":"Point","coordinates":[8.853947,45.318829]},"properties":{"type":"pakketpunt","locatieNaam":"Tabaccheria Dante","straatNaam":"VIA D. ALIGHIERI","straatNr":"52","vervoerder":"DPD","puntType":"pickup_point","bezettingsgraad":50,"latitude":45.318829,"longitude":8.853947,"canPickup":true,"canDropoff":true,"openingstijden":{"ma":"07:30 - 12:30, 15:30 - 19:30","di":"07:30 - 12:30, 15:30 - 19:30","wo":"07:30 - 12:30, 15:30 - 19:30","do":"07:30 - 12:30, 15:30 - 19:30","vr":"07:30 - 12:30, 15:30 - 19:30","za":"07:30 - 12:30, 15:30 - 19:30","zo":"gesloten"}}},{"type":"Feature","geometry":{"type":"Point","coordinates":[8.8564298,45.3072121]},"properties":{"type":"pakketpunt","locatieNaam":"Keep in Tech","straatNaam":"VIA UMBERTO GIORDANO","straatNr":"3","vervoerder":"DPD","puntType":"pickup_point","bezettingsgraad":50,"latitude":45.3072121,"longitude":8.8564298,"canPickup":true,"canDropoff":true,"openingstijden":{"ma":"09:00 - 13:00","di":"09:00 - 13:00","wo":"09:00 - 13:00","do":"09:00 - 13:00","vr":"09:00 - 13:00","za":"09:00 - 13:00","zo":"gesloten"}}},{"type":"Feature","geometry":{"type":"Point","coordinates":[8.8658104,45.3033716]},"properties":{"type":"pakketpunt","locatieNaam":"Ammiraglia Srl","straatNaam":"VIA PERUGINO","straatNr":"58","vervoerder":"DPD","puntType":"pickup_point","bezettingsgraad":50,"latitude":45.3033716,"longitude":8.8658104,"canPickup":true,"canDropoff":true,"openingstijden":{"ma":"09:00 - 13:00, 14:00 - 18:00","di":"09:00 - 13:00, 14:00 - 18:00","wo":"09:00 - 13:00, 14:00 - 18:00","do":"09:00 - 13:00, 14:00 - 18:00","vr":"09:00 - 13:00, 14:00 - 18:00","za":"09:00 - 12:00","zo":"gesloten"}}},{"type":"Feature","geometry":{"type":"Point","coordinates":[8.84915,45.31436]},"properties":{"type":"pakketpunt","locatieNaam":"InPost Point","straatNaam":"Via E. Sacchetti","straatNr":"12","vervoerder":"InPost","puntType":"servicepunt","bezettingsgraad":50,"latitude":45.31436,"longitude":8.84915,"canPickup":true,"canDropoff":true,"openingstijden":"Lun-Ven: 8:00 - 18:00 Sab: 8:00 - 12:00"}},{"type":"Feature","geometry":{"type":"Point","coordinates":[8.85749,45.3178]},"properties":{"type":"pakketpunt","locatieNaam":"InPost Point","straatNaam":"Piazza Ducale","straatNr":"22","vervoerder":"InPost","puntType":"servicepunt","bezettingsgraad":50,"latitude":45.3178,"longitude":8.85749,"canPickup":true,"canDropoff":true,"openingstijden":"Lun-Ven: 08:30 - 12:30 - 15:30 - 19:30 Sab: 10:00 - 12:30 - 16:00 - 19:30"}},{"type":"Feature","geometry":{"type":"Point","coordinates":[8.84798,45.32215]},"properties":{"type":"pakketpunt","locatieNaam":"InPost Point","straatNaam":"Viale Montegrappa","straatNr":"7","vervoerder":"InPost","puntType":"servicepunt","bezettingsgraad":50,"latitude":45.32215,"longitude":8.84798,"canPickup":true,"canDropoff":true,"openingstijden":"Lun-Ven: 08:15 - 18:45"}},{"type":"Feature","geometry":{"type":"Point","coordinates":[8.8656,45.3089]},"properties":{"type":"pakketpunt","locatieNaam":"InPost Point","straatNaam":"Corso Pavia","straatNr":"51","vervoerder":"InPost","puntType":"servicepunt","bezettingsgraad":50,"latitude":45.3089,"longitude":8.8656,"canPickup":true,"canDropoff":true,"openingstijden":"Lun-Sab: 07:00 - 12:30 - 15:30 - 19:30 Dom: 07:00 - 12:30"}},{"type":"Feature","geometry":{"type":"Point","coordinates":[8.85281,45.31481]},"properties":{"type":"pakketpunt","locatieNaam":"InPost Point","straatNaam":"Piazza Alessandro Volta","straatNr":"13","vervoerder":"InPost","puntType":"servicepunt","bezettingsgraad":50,"latitude":45.31481,"longitude":8.85281,"canPickup":true,"canDropoff":true,"openingstijden":"Lun: 08:30 - 12:30 - 15:00 - 19:00 Mar-Sab: 08:30 - 12:30 - 15:30 - 19:30"}},{"type":"Feature","geometry":{"type":"Point","coordinates":[8.85289,45.30521]},"properties":{"type":"pakketpunt","locatieNaam":"InPost Locker 24/7","straatNaam":"Corso Genova","straatNr":"69","vervoerder":"InPost","puntType":"automaat","bezettingsgraad":50,"latitude":45.30521,"longitude":8.85289,"canPickup":true,"canDropoff":true,"openingstijden":null}},{"type":"Feature","geometry":{"type":"Point","coordinates":[8.87275,45.32626]},"properties":{"type":"pakketpunt","locatieNaam":"InPost Locker","straatNaam":"Viale Giacomo Leopardi","straatNr":"21","vervoerder":"InPost","puntType":"automaat","bezettingsgraad":50,"latitude":45.32626,"longitude":8.87275,"canPickup":true,"canDropoff":true,"openingstijden":null}},{"type":"Feature","geometry":{"type":"Point","coordinates":[8.85042,45.31491]},"properties":{"type":"pakketpunt","locatieNaam":"InPost Locker","straatNaam":"Corso Torino","straatNr":"3","vervoerder":"InPost","puntType":"automaat","bezettingsgraad":50,"latitude":45.31491,"longitude":8.85042,"canPickup":true,"canDropoff":true,"openingstijden":null}},{"type":"Feature","geometry":{"type":"Point","coordinates":[8.85072,45.32011]},"properties":{"type":"pakketpunt","locatieNaam":"InPost Locker","straatNaam":"Corso Novara","straatNr":"35","vervoerder":"InPost","puntType":"automaat","bezettingsgraad":50,"latitude":45.32011,"longitude":8.85072,"canPickup":true,"canDropoff":true,"openingstijden":null}},{"type":"Feature","geometry":{"type":"Point","coordinates":[8.87152,45.32247]},"properties":{"type":"pakketpunt","locatieNaam":"InPost Locker","straatNaam":"Corso Milano","straatNr":"59A","vervoerder":"InPost","puntType":"automaat","bezettingsgraad":50,"latitude":45.32247,"longitude":8.87152,"canPickup":true,"canDropoff":true,"openingstijden":null}},{"type":"Feature","geometry":{"type":"Point","coordinates":[8.87722,45.32322]},"properties":{"type":"pakketpunt","locatieNaam":"InPost Locker","straatNaam":"Via San Giovanni","straatNr":"25B","vervoerder":"InPost","puntType":"automaat","bezettingsgraad":50,"latitude":45.32322,"longitude":8.87722,"canPickup":true,"canDropoff":true,"openingstijden":null}},{"type":"Feature","geometry":{"type":"Point","coordinates":[8.88209,45.31394]},"properties":{"type":"pakketpunt","locatieNaam":"InPost Locker","straatNaam":"Viale Industria","straatNr":"225","vervoerder":"InPost","puntType":"automaat","bezettingsgraad":50,"latitude":45.31394,"longitude":8.88209,"canPickup":true,"canDropoff":true,"openingstijden":null}},{"type":"Feature","geometry":{"type":"Point","coordinates":[8.8546,45.31081]},"properties":{"type":"pakketpunt","locatieNaam":"interno alla palestra","straatNaam":"Via Domenico Pisani","straatNr":"1","vervoerder":"InPost","puntType":"automaat","bezettingsgraad":50,"latitude":45.31081,"longitude":8.8546,"canPickup":true,"canDropoff":true,"openingstijden":null}},{"type":"Feature","geometry":{"type":"Point","coordinates":[8.83691,45.33197]},"properties":{"type":"pakketpunt","locatieNaam":"InPost Locker 24/7","straatNaam":"Corso Novara","straatNr":"196","vervoerder":"InPost","puntType":"automaat","bezettingsgraad":50,"latitude":45.33197,"longitude":8.83691,"canPickup":true,"canDropoff":true,"openingstijden":null}},{"type":"Feature","geometry":{"type":"Point","coordinates":[8.87488,45.32476]},"properties":{"type":"pakketpunt","locatieNaam":"InPost Locker 24/7","straatNaam":"Corso Milano","straatNr":"73","vervoerder":"InPost","puntType":"automaat","bezettingsgraad":50,"latitude":45.32476,"longitude":8.87488,"canPickup":true,"canDropoff":true,"openingstijden":null}},{"type":"Feature","geometry":{"type":"Point","coordinates":[8.85346,45.2927]},"properties":{"type":"pakketpunt","locatieNaam":"GIAP","straatNaam":"Corso Genova","straatNr":"155","vervoerder":"InPost","puntType":"automaat","bezettingsgraad":50,"latitude":45.2927,"longitude":8.85346,"canPickup":true,"canDropoff":true,"openingstijden":null}},{"type":"Feature","geometry":{"type":"Point","coordinates":[8.8658104,45.3033716]},"properties":{"type":"pakketpunt","locatieNaam":"AMMIRAGLIA","straatNaam":"Via Perugino","straatNr":"58","vervoerder":"GLS","puntType":"parcel_shop","bezettingsgraad":50,"latitude":45.3033716,"longitude":8.8658104,"canPickup":true,"canDropoff":true,"openingstijden":"za: 09:00 - 12:00; ma: 09:00 - 13:00, 14:00 - 18:00"}},{"type":"Feature","geometry":{"type":"Point","coordinates":[8.8655951,45.3088791]},"properties":{"type":"pakketpunt","locatieNaam":"EDICOLA CARTOLIBRERIA","straatNaam":"C.So Pavia","straatNr":"51","vervoerder":"GLS","puntType":"parcel_shop","bezettingsgraad":50,"latitude":45.3088791,"longitude":8.8655951,"canPickup":true,"canDropoff":true,"openingstijden":"za: 06:00 - 12:30, 15:30 - 19:30; zo: 07:00 - 12:00"}},{"type":"Feature","geometry":{"type":"Point","coordinates":[8.8440233,45.3090729]},"properties":{"type":"pakketpunt","locatieNaam":"ITALIANA SERVIZI POSTALI","straatNaam":"Corso Palmiro Togliatti","straatNr":"15","vervoerder":"GLS","puntType":"parcel_shop","bezettingsgraad":50,"latitude":45.3090729,"longitude":8.8440233,"canPickup":true,"canDropoff":true,"openingstijden":"ma: 09:00 - 15:00; di: 09:00 - 15:00"}},{"type":"Feature","geometry":{"type":"Point","coordinates":[8.8562205,45.3108875]},"properties":{"type":"pakketpunt","locatieNaam":"SUPERMONEY","straatNaam":"Via Donizetti","straatNr":"1","vervoerder":"GLS","puntType":"parcel_shop","bezettingsgraad":50,"latitude":45.3108875,"longitude":8.8562205,"canPickup":true,"canDropoff":true,"openingstijden":"za: 09:00 - 13:00, 15:30 - 19:00; ma: 09:00 - 13:00, 15:30 - 19:00"}},{"type":"Feature","geometry":{"type":"Point","coordinates":[8.8602054,45.3133084]},"properties":{"type":"pakketpunt","locatieNaam":"PHONE SERVICE","straatNaam":"Via Cairoli","straatNr":"41","vervoerder":"GLS","puntType":"parcel_shop","bezettingsgraad":50,"latitude":45.3133084,"longitude":8.8602054,"canPickup":true,"canDropoff":true,"openingstijden":"za: 10:00 - 17:30; ma: 10:00 - 18:00"}},{"type":"Feature","geometry":{"type":"Point","coordinates":[8.88218975,45.31335068]},"properties":{"type":"pakketpunt","locatieNaam":"GLS Locker PV002B presso CC Il Ducale (piano -1, ingresso Ipercoop)","straatNaam":"Viale Industria","straatNr":"225","vervoerder":"GLS","puntType":"locker","bezettingsgraad":50,"latitude":45.31335068,"longitude":8.88218975,"canPickup":true,"canDropoff":false,"openingstijden":"za: 08:30 - 20:30; zo: 09:00 - 20:30"}},{"type":"Feature","geometry":{"type":"Point","coordinates":[8.890979,45.3153145]},"properties":{"type":"pakketpunt","locatieNaam":"keep in tech","straatNaam":"Via Umberto Giordano","straatNr":"3","vervoerder":"GLS","puntType":"parcel_shop","bezettingsgraad":50,"latitude":45.3153145,"longitude":8.890979,"canPickup":true,"canDropoff":true,"openingstijden":"za: 09:00 - 13:00, 15:00 - 19:00; ma: 09:00 - 13:00, 15:00 - 19:00"}},{"type":"Feature","geometry":{"type":"Point","coordinates":[8.8569447,45.3174981]},"properties":{"type":"pakketpunt","locatieNaam":"Angel & Devil","straatNaam":"Via Del Popolo","straatNr":"3","vervoerder":"GLS","puntType":"parcel_shop","bezettingsgraad":50,"latitude":45.3174981,"longitude":8.8569447,"canPickup":true,"canDropoff":true,"openingstijden":"za: 08:00 - 19:30; zo: 08:30 - 19:30"}},{"type":"Feature","geometry":{"type":"Point","coordinates":[8.8514632,45.3182464]},"properties":{"type":"pakketpunt","locatieNaam":"Tabacchi Riv. 27","straatNaam":"Via Gian Giacomo Trivulzio","straatNr":"47","vervoerder":"GLS","puntType":"parcel_shop","bezettingsgraad":50,"latitude":45.3182464,"longitude":8.8514632,"canPickup":true,"canDropoff":true,"openingstijden":"za: 07:30 - 12:00, 15:00 - 19:30; ma: 07:30 - 12:00, 15:30 - 19:30"}},{"type":"Feature","geometry":{"type":"Point","coordinates":[8.853947,45.318829]},"properties":{"type":"pakketpunt","locatieNaam":"Tabaccheria Dante","straatNaam":"Via Dante","straatNr":"52","vervoerder":"GLS","puntType":"parcel_shop","bezettingsgraad":50,"latitude":45.318829,"longitude":8.853947,"canPickup":true,"canDropoff":true,"openingstijden":"za: 07:30 - 12:30, 15:00 - 19:00; ma: 07:30 - 12:30, 15:00 - 19:00"}},{"type":"Feature","geometry":{"type":"Point","coordinates":[8.8500943,45.3189149]},"properties":{"type":"pakketpunt","locatieNaam":"Meeting bar","straatNaam":"Via Alfonso D'Avalos","straatNr":"29","vervoerder":"GLS","puntType":"parcel_shop","bezettingsgraad":50,"latitude":45.3189149,"longitude":8.8500943,"canPickup":true,"canDropoff":true,"openingstijden":"za: 07:00 - 12:30; ma: 07:00 - 18:30"}},{"type":"Feature","geometry":{"type":"Point","coordinates":[8.8507164,45.3201082]},"properties":{"type":"pakketpunt","locatieNaam":"Cartoleria La Coccinella","straatNaam":"Corso Novara","straatNr":"35","vervoerder":"GLS","puntType":"parcel_shop","bezettingsgraad":50,"latitude":45.3201082,"longitude":8.8507164,"canPickup":true,"canDropoff":true,"openingstijden":"za: 09:00 - 13:00; ma: 09:00 - 13:00, 15:00 - 19:00"}},{"type":"Feature","geometry":{"type":"Point","coordinates":[8.8479856,45.3221042]},"properties":{"type":"pakketpunt","locatieNaam":"QuiPoste","straatNaam":"Via Monte Grappa","straatNr":"7","vervoerder":"GLS","puntType":"parcel_shop","bezettingsgraad":50,"latitude":45.3221042,"longitude":8.8479856,"canPickup":true,"canDropoff":true,"openingstijden":"ma: 08:00 - 13:00, 15:00 - 19:00; di: 08:00 - 13:00, 15:00 - 19:00"}},{"type":"Feature","geometry":{"type":"Point","coordinates":[8.8453739,45.3232363]},"properties":{"type":"pakketpunt","locatieNaam":"PRO POSTE","straatNaam":"Corso Novara","straatNr":"71","vervoerder":"GLS","puntType":"parcel_shop","bezettingsgraad":50,"latitude":45.3232363,"longitude":8.8453739,"canPickup":true,"canDropoff":true,"openingstijden":"ma: 08:30 - 13:00; di: 08:30 - 13:00"}},{"type":"Feature","geometry":{"type":"Point","coordinates":[8.8771771,45.3232809]},"properties":{"type":"pakketpunt","locatieNaam":"POSTA E MULTISERVIZI","straatNaam":"Via San Giovanni","straatNr":"25/B","vervoerder":"GLS","puntType":"parcel_shop","bezettingsgraad":50,"latitude":45.3232809,"longitude":8.8771771,"canPickup":true,"canDropoff":true,"openingstijden":"ma: 09:00 - 13:00, 15:30 - 19:00; di: 09:00 - 13:00, 15:30 - 19:00"}},{"type":"Feature","geometry":{"type":"Point","coordinates":[8.878409,45.296556]},"properties":{"type":"pakketpunt","locatieNaam":"DECIBEL DI TAMBURINI","straatNaam":"Corso Pavia 21","straatNr":"","vervoerder":"DHL","puntType":"parcelShop","bezettingsgraad":50,"latitude":45.296556,"longitude":8.878409,"canPickup":false,"canDropoff":true,"openingstijden":{"ma":"15:30 - 19:00","di":"09:30 - 19:00","wo":"09:30 - 19:00","do":"09:30 - 19:00","vr":"09:30 - 19:00","za":"gesloten","zo":"gesloten"}}},{"type":"Feature","geometry":{"type":"Point","coordinates":[8.82748,45.308493]},"properties":{"type":"pakketpunt","locatieNaam":"TABACCHI","straatNaam":"Via Strada Nuova 1","straatNr":"","vervoerder":"DHL","puntType":"parcelShop","bezettingsgraad":50,"latitude":45.308493,"longitude":8.82748,"canPickup":false,"canDropoff":true,"openingstijden":{"ma":"07:30 - 19:30","di":"07:30 - 19:30","wo":"07:30 - 19:30","do":"07:30 - 19:30","vr":"07:30 - 19:30","za":"07:30 - 19:30","zo":"gesloten"}}},{"type":"Feature","geometry":{"type":"Point","coordinates":[8.845138,45.313089]},"properties":{"type":"pakketpunt","locatieNaam":"TABACCHERIA N. 50","straatNaam":"VIA STRADA NUOVA 1","straatNr":"","vervoerder":"DHL","puntType":"parcelShop","bezettingsgraad":50,"latitude":45.313089,"longitude":8.845138,"canPickup":true,"canDropoff":true,"openingstijden":{"ma":"07:30 - 12:30, 15:30 - 19:30","di":"07:30 - 12:30, 15:30 - 19:30","wo":"07:30 - 12:30, 15:30 - 19:30","do":"07:30 - 12:30, 15:30 - 19:30","vr":"07:30 - 12:30, 15:30 - 19:30","za":"07:30 - 12:30, 15:30 - 19:30","zo":"gesloten"}}},{"type":"Feature","geometry":{"type":"Point","coordinates":[8.850544,45.320091]},"properties":{"type":"pakketpunt","locatieNaam":"CARTOLERIA LA COCCINELLA","straatNaam":"CORSO NOVARA 35","straatNr":"","vervoerder":"DHL","puntType":"parcelShop","bezettingsgraad":50,"latitude":45.320091,"longitude":8.850544,"canPickup":true,"canDropoff":true,"openingstijden":{"ma":"09:00 - 13:00, 15:00 - 19:00","di":"09:00 - 13:00, 15:00 - 19:00","wo":"09:00 - 13:00, 15:00 - 19:00","do":"09:00 - 13:00, 15:00 - 19:00","vr":"09:00 - 13:00, 15:00 - 19:00","za":"09:00 - 13:00","zo":"gesloten"}}},{"type":"Feature","geometry":{"type":"Point","coordinates":[8.850602,45.320077]},"properties":{"type":"pakketpunt","locatieNaam":"LA COCCINELLA DI PALAZZO C","straatNaam":"Corso Novara 35","straatNr":"","vervoerder":"DHL","puntType":"parcelShop","bezettingsgraad":50,"latitude":45.320077,"longitude":8.850602,"canPickup":false,"canDropoff":true,"openingstijden":{"ma":"09:00 - 19:00","di":"09:00 - 19:00","wo":"09:00 - 19:00","do":"09:00 - 19:00","vr":"09:00 - 19:00","za":"09:00 - 13:00","zo":"gesloten"}}},{"type":"Feature","geometry":{"type":"Point","coordinates":[8.849998,45.314104]},"properties":{"type":"pakketpunt","locatieNaam":"TABACCHERIA N. 26","straatNaam":"CORSO TORINO 9","straatNr":"","vervoerder":"DHL","puntType":"parcelShop","bezettingsgraad":50,"latitude":45.314104,"longitude":8.849998,"canPickup":true,"canDropoff":true,"openingstijden":{"ma":"07:30 - 19:30","di":"07:30 - 19:30","wo":"07:30 - 19:30","do":"07:30 - 19:30","vr":"07:30 - 19:30","za":"07:30 - 19:30","zo":"08:30 - 12:30"}}},{"type":"Feature","geometry":{"type":"Point","coordinates":[8.851495,45.3182]},"properties":{"type":"pakketpunt","locatieNaam":"TABACCHERIA N. 27","straatNaam":"VIA GIAN GIACOMO TRIVULZIO 47","straatNr":"","vervoerder":"DHL","puntType":"parcelShop","bezettingsgraad":50,"latitude":45.3182,"longitude":8.851495,"canPickup":true,"canDropoff":true,"openingstijden":{"ma":"07:30 - 12:30, 15:30 - 19:30","di":"07:30 - 12:30, 15:30 - 19:30","wo":"07:30 - 12:30, 15:30 - 19:30","do":"07:30 - 12:30, 15:30 - 19:30","vr":"07:30 - 12:30, 15:30 - 19:30","za":"07:30 - 12:30, 15:30 - 19:30","zo":"gesloten"}}},{"type":"Feature","geometry":{"type":"Point","coordinates":[8.854945,45.314732]},"properties":{"type":"pakketpunt","locatieNaam":"Ufficio Postale VIGEVANO 1","straatNaam":"VIA SAN PIO V SNC 1","straatNr":"","vervoerder":"DHL","puntType":"postOffice","bezettingsgraad":50,"latitude":45.314732,"longitude":8.854945,"canPickup":true,"canDropoff":true,"openingstijden":{"ma":"08:20 - 19:05","di":"08:20 - 19:05","wo":"08:20 - 19:05","do":"08:20 - 19:05","vr":"08:20 - 19:05","za":"08:20 - 12:35","zo":"gesloten"}}},{"type":"Feature","geometry":{"type":"Point","coordinates":[8.854443,45.310731]},"properties":{"type":"pakketpunt","locatieNaam":"URBAN GRAVITY ACADEMY","straatNaam":"VIA DOMENICO PISANI 1","straatNr":"","vervoerder":"DHL","puntType":"packStation","bezettingsgraad":50,"latitude":45.310731,"longitude":8.854443,"canPickup":true,"canDropoff":true,"openingstijden":{"ma":"09:00 - 12:30, 14:30 - 22:00","di":"09:00 - 13:00, 14:30 - 22:00","wo":"09:00 - 13:00, 14:30 - 22:00","do":"09:00 - 13:00, 14:30 - 22:00","vr":"09:00 - 13:00, 14:30 - 22:00","za":"gesloten","zo":"gesloten"}}},{"type":"Feature","geometry":{"type":"Point","coordinates":[8.8573,45.31723]},"properties":{"type":"pakketpunt","locatieNaam":"CENTRO TIM L.M. SRL VIGEVANO","straatNaam":"Piazza Ducale 25","straatNr":"","vervoerder":"DHL","puntType":"parcelShop","bezettingsgraad":50,"latitude":45.31723,"longitude":8.8573,"canPickup":false,"canDropoff":true,"openingstijden":{"ma":"09:00 - 19:00","di":"09:00 - 19:00","wo":"09:00 - 19:00","do":"09:00 - 19:00","vr":"09:00 - 19:00","za":"09:30 - 19:00","zo":"gesloten"}}},{"type":"Feature","geometry":{"type":"Point","coordinates":[8.858527,45.317304]},"properties":{"type":"pakketpunt","locatieNaam":"TABACCHERIA n. 3","straatNaam":"PIAZZA DUCALE 48","straatNr":"","vervoerder":"DHL","puntType":"parcelShop","bezettingsgraad":50,"latitude":45.317304,"longitude":8.858527,"canPickup":true,"canDropoff":true,"openingstijden":{"ma":"08:00 - 12:30, 14:30 - 19:30","di":"08:00 - 12:30, 14:30 - 19:30","wo":"08:00 - 12:30, 14:30 - 19:30","do":"08:00 - 12:30, 14:30 - 19:30","vr":"08:00 - 12:30, 14:30 - 19:30","za":"08:30 - 12:30, 14:30 - 19:30","zo":"09:00 - 12:30, 16:00 - 19:30"}}},{"type":"Feature","geometry":{"type":"Point","coordinates":[8.852995,45.303966]},"properties":{"type":"pakketpunt","locatieNaam":"TABACCHERIA N. 17","straatNaam":"CORSO GENOVA 83","straatNr":"","vervoerder":"DHL","puntType":"parcelShop","bezettingsgraad":50,"latitude":45.303966,"longitude":8.852995,"canPickup":true,"canDropoff":true,"openingstijden":{"ma":"07:30 - 12:30, 15:00 - 19:30","di":"07:30 - 12:30, 15:00 - 19:30","wo":"07:30 - 12:30, 15:00 - 19:30","do":"07:30 - 12:30, 15:00 - 19:30","vr":"07:30 - 12:30, 15:00 - 19:30","za":"08:30 - 12:30, 15:00 - 19:00","zo":"gesloten"}}},{"type":"Feature","geometry":{"type":"Point","coordinates":[8.858521,45.316071]},"properties":{"type":"pakketpunt","locatieNaam":"TABACCHERIA N. 5","straatNaam":"VIA VENTI SETTEMBRE 31","straatNr":"","vervoerder":"DHL","puntType":"parcelShop","bezettingsgraad":50,"latitude":45.316071,"longitude":8.858521,"canPickup":true,"canDropoff":true,"openingstijden":{"ma":"gesloten","di":"08:30 - 12:00, 15:30 - 19:00","wo":"08:30 - 12:00, 15:30 - 19:00","do":"08:30 - 12:00, 15:30 - 19:00","vr":"08:30 - 12:00, 15:30 - 19:00","za":"08:30 - 12:00, 15:30 - 19:00","zo":"09:30 - 12:00, 15:30 - 19:00"}}},{"type":"Feature","geometry":{"type":"Point","coordinates":[8.859657,45.320111]},"properties":{"type":"pakketpunt","locatieNaam":"TABACCHERIA N. 10","straatNaam":"CORSO VITTORIO EMANUELE II 116","straatNr":"","vervoerder":"DHL","puntType":"parcelShop","bezettingsgraad":50,"latitude":45.320111,"longitude":8.859657,"canPickup":true,"canDropoff":true,"openingstijden":{"ma":"07:00 - 21:00","di":"07:00 - 21:00","wo":"07:00 - 21:00","do":"07:00 - 21:00","vr":"07:00 - 21:00","za":"07:00 - 21:00","zo":"gesloten"}}},{"type":"Feature","geometry":{"type":"Point","coordinates":[8.860121,45.319937]},"properties":{"type":"pakketpunt","locatieNaam":"Ufficio Postale VIGEVANO CENTRO","straatNaam":"VIA EDMONDO DE AMICIS 2","straatNr":"","vervoerder":"DHL","puntType":"postOffice","bezettingsgraad":50,"latitude":45.319937,"longitude":8.860121,"canPickup":true,"canDropoff":true,"openingstijden":{"ma":"08:20 - 19:05","di":"08:20 - 19:05","wo":"08:20 - 19:05","do":"08:20 - 19:05","vr":"08:20 - 19:05","za":"08:20 - 12:35","zo":"gesloten"}}},{"type":"Feature","geometry":{"type":"Point","coordinates":[8.861014,45.317641]},"properties":{"type":"pakketpunt","locatieNaam":"TABACCHERIA N. 22","straatNaam":"VIA PIER CANDIDO DECEMBRIO 21","straatNr":"","vervoerder":"DHL","puntType":"parcelShop","bezettingsgraad":50,"latitude":45.317641,"longitude":8.861014,"canPickup":true,"canDropoff":true,"openingstijden":{"ma":"07:00 - 19:30","di":"07:00 - 19:30","wo":"07:00 - 19:30","do":"07:00 - 19:30","vr":"07:00 - 13:30","za":"07:00 - 19:30","zo":"gesloten"}}},{"type":"Feature","geometry":{"type":"Point","coordinates":[8.860431,45.31343]},"properties":{"type":"pakketpunt","locatieNaam":"TABACCHERIA N. 12","straatNaam":"VIA CAIROLI 36","straatNr":"","vervoerder":"DHL","puntType":"parcelShop","bezettingsgraad":50,"latitude":45.31343,"longitude":8.860431,"canPickup":true,"canDropoff":true,"openingstijden":{"ma":"08:30 - 20:30","di":"08:30 - 20:30","wo":"08:30 - 12:30","do":"08:30 - 20:30","vr":"08:30 - 20:30","za":"08:30 - 20:30","zo":"09:00 - 18:30"}}},{"type":"Feature","geometry":{"type":"Point","coordinates":[8.861631,45.311035]},"properties":{"type":"pakketpunt","locatieNaam":"TABACCHERIA N. 30","straatNaam":"CORSO PAVIA 26-A","straatNr":"","vervoerder":"DHL","puntType":"parcelShop","bezettingsgraad":50,"latitude":45.311035,"longitude":8.861631,"canPickup":true,"canDropoff":true,"openingstijden":{"ma":"07:00 - 19:30","di":"07:00 - 19:30","wo":"07:00 - 19:30","do":"07:00 - 19:30","vr":"07:00 - 19:30","za":"07:00 - 19:30","zo":"gesloten"}}},{"type":"Feature","geometry":{"type":"Point","coordinates":[8.865711,45.308872]},"properties":{"type":"pakketpunt","locatieNaam":"EDICOLA CARTOLERIA - VIGEVANO","straatNaam":"CORSO PAVIA 51","straatNr":"","vervoerder":"DHL","puntType":"parcelShop","bezettingsgraad":50,"latitude":45.308872,"longitude":8.865711,"canPickup":true,"canDropoff":true,"openingstijden":{"ma":"06:30 - 12:30, 15:30 - 19:30","di":"06:30 - 12:30, 15:30 - 19:30","wo":"06:30 - 12:30, 15:30 - 19:30","do":"06:30 - 12:30, 15:30 - 19:30","vr":"06:30 - 12:30, 15:30 - 19:30","za":"06:30 - 12:30, 16:30 - 19:30","zo":"07:30 - 12:30"}}},{"type":"Feature","geometry":{"type":"Point","coordinates":[8.872015,45.322546]},"properties":{"type":"pakketpunt","locatieNaam":"VENCHI MULTICENTER","straatNaam":"CORSO MILANO 63","straatNr":"","vervoerder":"DHL","puntType":"packStation","bezettingsgraad":50,"latitude":45.322546,"longitude":8.872015,"canPickup":true,"canDropoff":true,"openingstijden":{"ma":"09:30 - 12:30, 15:30 - 19:00","di":"09:30 - 12:30, 15:30 - 19:00","wo":"09:30 - 12:30, 15:30 - 19:00","do":"09:30 - 12:30, 15:30 - 19:00","vr":"09:30 - 12:30, 15:30 - 19:00","za":"09:30 - 12:30","zo":"gesloten"}}},{"type":"Feature","geometry":{"type":"Point","coordinates":[8.8735,45.3236]},"properties":{"type":"pakketpunt","locatieNaam":"Pastore Telefonia e Servizi","straatNaam":"Corso Milano 67","straatNr":"","vervoerder":"DHL","puntType":"parcelShop","bezettingsgraad":50,"latitude":45.3236,"longitude":8.8735,"canPickup":false,"canDropoff":true,"openingstijden":{"ma":"09:30 - 19:00","di":"09:30 - 19:00","wo":"09:30 - 19:00","do":"09:30 - 19:00","vr":"09:30 - 19:00","za":"09:30 - 12:30","zo":"gesloten"}}},{"type":"Feature","geometry":{"type":"Point","coordinates":[8.875484,45.32299]},"properties":{"type":"pakketpunt","locatieNaam":"Ufficio Postale VIGEVANO 2","straatNaam":"VIA SAN GIOVANNI 14","straatNr":"","vervoerder":"DHL","puntType":"postOffice","bezettingsgraad":50,"latitude":45.32299,"longitude":8.875484,"canPickup":true,"canDropoff":true,"openingstijden":{"ma":"08:20 - 13:35","di":"08:20 - 13:35","wo":"08:20 - 13:35","do":"08:20 - 13:35","vr":"08:20 - 13:35","za":"08:20 - 12:35","zo":"gesloten"}}},{"type":"Feature","geometry":{"type":"Point","coordinates":[8.881238,45.313922]},"properties":{"type":"pakketpunt","locatieNaam":"CENTRO COMMERCIALE IL DUCAL","straatNaam":"VIALE INDUSTRIA 225","straatNr":"","vervoerder":"DHL","puntType":"packStation","bezettingsgraad":50,"latitude":45.313922,"longitude":8.881238,"canPickup":true,"canDropoff":true,"openingstijden":{"ma":"09:00 - 20:00","di":"09:00 - 20:00","wo":"09:00 - 20:00","do":"09:00 - 20:00","vr":"09:00 - 20:00","za":"09:00 - 20:00","zo":"09:00 - 20:00"}}},{"type":"Feature","geometry":{"type":"Point","coordinates":[8.828766,45.322342]},"properties":{"type":"pakketpunt","locatieNaam":"Amazon Locker - scipione","straatNaam":"Stazione Tamoil - PV 5130","straatNr":"","vervoerder":"Amazon","puntType":"locker","bezettingsgraad":50,"latitude":45.322342,"longitude":8.828766,"canPickup":true,"canDropoff":false,"openingstijden":null}},{"type":"Feature","geometry":{"type":"Point","coordinates":[8.8460969,45.3197003]},"properties":{"type":"pakketpunt","locatieNaam":"Amazon Locker - gioacchino","straatNaam":"PENNY MARKET - Vigevano","straatNr":"","vervoerder":"Amazon","puntType":"locker","bezettingsgraad":50,"latitude":45.3197003,"longitude":8.8460969,"canPickup":true,"canDropoff":false,"openingstijden":null}},{"type":"Feature","geometry":{"type":"Point","coordinates":[8.837082,45.330553]},"properties":{"type":"pakketpunt","locatieNaam":"Amazon Locker - angelarosa","straatNaam":"Tigros Vigevano","straatNr":"","vervoerder":"Amazon","puntType":"locker","bezettingsgraad":50,"latitude":45.330553,"longitude":8.837082,"canPickup":true,"canDropoff":false,"openingstijden":null}},{"type":"Feature","geometry":{"type":"Point","coordinates":[8.85313,45.29811]},"properties":{"type":"pakketpunt","locatieNaam":"Amazon Locker - dorita","straatNaam":"Zio Sem Vigevano","straatNr":"","vervoerder":"Amazon","puntType":"locker","bezettingsgraad":50,"latitude":45.29811,"longitude":8.85313,"canPickup":true,"canDropoff":false,"openingstijden":null}},{"type":"Feature","geometry":{"type":"Point","coordinates":[8.8820849,45.3137535]},"properties":{"type":"pakketpunt","locatieNaam":"Amazon Locker - dimitrio","straatNaam":"Fermopoint / CC il Ducale","straatNr":"","vervoerder":"Amazon","puntType":"locker","bezettingsgraad":50,"latitude":45.3137535,"longitude":8.8820849,"canPickup":true,"canDropoff":false,"openingstijden":null}},{"type":"Feature","geometry":{"type":"Point","coordinates":[8.844212,45.309057]},"properties":{"type":"pakketpunt","locatieNaam":"Amazon Counter - SPEEDY TOP SOCIETA' COOPERATIVA","straatNaam":"VIA PALMIRO TOGLIATTI 15","straatNr":"","vervoerder":"Amazon","puntType":"helix","bezettingsgraad":50,"latitude":45.309057,"longitude":8.844212,"canPickup":true,"canDropoff":false,"openingstijden":null}},{"type":"Feature","geometry":{"type":"Point","coordinates":[8.8506163,45.3200445]},"properties":{"type":"pakketpunt","locatieNaam":"Amazon Counter (fermopoint)","straatNaam":"Cartoleria La Coccinella","straatNr":"","vervoerder":"Amazon","puntType":"helix","bezettingsgraad":50,"latitude":45.3200445,"longitude":8.8506163,"canPickup":true,"canDropoff":false,"openingstijden":null}},{"type":"Feature","geometry":{"type":"Point","coordinates":[8.851687,45.314652]},"properties":{"type":"pakketpunt","locatieNaam":"Amazon Counter - PRIMAEDICOLA","straatNaam":"FERRARI TRECATE DAVIDE","straatNr":"","vervoerder":"Amazon","puntType":"helix","bezettingsgraad":50,"latitude":45.314652,"longitude":8.851687,"canPickup":true,"canDropoff":false,"openingstijden":null}},{"type":"Feature","geometry":{"type":"Point","coordinates":[8.8573502331352,45.317195341704]},"properties":{"type":"pakketpunt","locatieNaam":"Amazon Counter (fermopoint)","straatNaam":"Tabaccheria Bridian","straatNr":"","vervoerder":"Amazon","puntType":"helix","bezettingsgraad":50,"latitude":45.317195341704,"longitude":8.8573502331352,"canPickup":true,"canDropoff":false,"openingstijden":null}},{"type":"Feature","geometry":{"type":"Point","coordinates":[8.8656329,45.3089727]},"properties":{"type":"pakketpunt","locatieNaam":"Amazon Counter","straatNaam":"Edicola Arneri Snc (fermopoint)","straatNr":"","vervoerder":"Amazon","puntType":"helix","bezettingsgraad":50,"latitude":45.3089727,"longitude":8.8656329,"canPickup":true,"canDropoff":false,"openingstijden":null}},{"type":"Feature","geometry":{"type":"Point","coordinates":[8.8606218,45.3264101]},"properties":{"type":"pakketpunt","locatieNaam":"Amazon Counter - PRIMAEDICOLA","straatNaam":"EDI75 DI CARLO MARIA BOCCA","straatNr":"","vervoerder":"Amazon","puntType":"helix","bezettingsgraad":50,"latitude":45.3264101,"longitude":8.8606218,"canPickup":true,"canDropoff":false,"openingstijden":null}},{"type":"Feature","geometry":{"type":"Point","coordinates":[8.8539403,45.3188268]},"properties":{"type":"pakketpunt","locatieNaam":"Amazon Counter - PRIMAEDICOLA","straatNaam":"FILIPPO PARPINELLI","straatNr":"","vervoerder":"Amazon","puntType":"helix","bezettingsgraad":50,"latitude":45.3188268,"longitude":8.8539403,"canPickup":true,"canDropoff":false,"openingstijden":null}},{"type":"Feature","geometry":{"type":"Point","coordinates":[8.861767,45.312749]},"properties":{"type":"pakketpunt","locatieNaam":"Amazon Counter - BUFFET STAZIONE","straatNaam":"PIAZZA IV NOVEMBRE 5","straatNr":"","vervoerder":"Amazon","puntType":"helix","bezettingsgraad":50,"latitude":45.312749,"longitude":8.861767,"canPickup":true,"canDropoff":false,"openingstijden":null}},{"type":"Feature","geometry":{"type":"Point","coordinates":[8.8568699,45.3173408]},"properties":{"type":"pakketpunt","locatieNaam":"Amazon Counter - Bar Angel & Devil","straatNaam":"Via del Popolo 3","straatNr":"","vervoerder":"Amazon","puntType":"helix","bezettingsgraad":50,"latitude":45.3173408,"longitude":8.8568699,"canPickup":true,"canDropoff":false,"openingstijden":null}},{"type":"Feature","geometry":{"type":"Point","coordinates":[8.8565133,45.309985]},"properties":{"type":"pakketpunt","locatieNaam":"Amazon Counter - DS MINI MERCATO","straatNaam":"Via Gaetano Donizetti, 11","straatNr":"","vervoerder":"Amazon","puntType":"helix","bezettingsgraad":50,"latitude":45.309985,"longitude":8.8565133,"canPickup":true,"canDropoff":false,"openingstijden":null}},{"type":"Feature","geometry":{"type":"Point","coordinates":[8.85054,45.32]},"properties":{"type":"pakketpunt","locatieNaam":"PuntoPoste CARTOLERIA LA COCCINELLA","straatNaam":"CORSO NOVARA 35","straatNr":"","vervoerder":"Amazon","puntType":"3p","bezettingsgraad":50,"latitude":45.32,"longitude":8.85054,"canPickup":true,"canDropoff":false,"openingstijden":null}},{"type":"Feature","geometry":{"type":"Point","coordinates":[8.85299,45.3039]},"properties":{"type":"pakketpunt","locatieNaam":"PuntoPoste TABACCHERIA N. 17","straatNaam":"CORSO GENOVA 83","straatNr":"","vervoerder":"Amazon","puntType":"3p","bezettingsgraad":50,"latitude":45.3039,"longitude":8.85299,"canPickup":true,"canDropoff":false,"openingstijden":null}},{"type":"Feature","geometry":{"type":"Point","coordinates":[8.85964501534422,45.3201407859813]},"properties":{"type":"pakketpunt","locatieNaam":"Amazon Counter (fermopoint)","straatNaam":"Bar Rivendita 10","straatNr":"","vervoerder":"Amazon","puntType":"helix","bezettingsgraad":50,"latitude":45.3201407859813,"longitude":8.85964501534422,"canPickup":true,"canDropoff":false,"openingstijden":null}},{"type":"Feature","geometry":{"type":"Point","coordinates":[8.86363,45.32603]},"properties":{"type":"pakketpunt","locatieNaam":"Amazon Counter","straatNaam":"Tabaccheria Quattrosette (fermopoint)","straatNr":"","vervoerder":"Amazon","puntType":"helix","bezettingsgraad":50,"latitude":45.32603,"longitude":8.86363,"canPickup":true,"canDropoff":false,"openingstijden":null}},{"type":"Feature","geometry":{"type":"Point","coordinates":[8.845409019436431,45.32325565824816]},"properties":{"type":"pakketpunt","locatieNaam":"FedEx OnSite","straatNaam":"CORSO NOVARA, 71","straatNr":"","vervoerder":"FedEx","puntType":"servicepunt","bezettingsgraad":50,"latitude":45.32325565824816,"longitude":8.845409019436431,"canPickup":true,"canDropoff":true,"openingstijden":{"ma":"08:30 - 13:00","di":"08:30 - 13:00","wo":"08:30 - 13:00","do":"08:30 - 13:00","vr":"08:30 - 13:00","za":"gesloten","zo":"gesloten"}}},{"type":"Feature","geometry":{"type":"Point","coordinates":[8.84800387270185,45.32210742958006]},"properties":{"type":"pakketpunt","locatieNaam":"FedEx OnSite","straatNaam":"Via Monte Grappa, 7","straatNr":"","vervoerder":"FedEx","puntType":"servicepunt","bezettingsgraad":50,"latitude":45.32210742958006,"longitude":8.84800387270185,"canPickup":true,"canDropoff":true,"openingstijden":{"ma":"08:00 - 13:00, 15:00 - 19:00","di":"08:00 - 13:00, 15:00 - 19:00","wo":"08:00 - 13:00, 15:00 - 19:00","do":"08:00 - 13:00, 15:00 - 19:00","vr":"08:00 - 13:00, 15:00 - 19:00","za":"gesloten","zo":"gesloten"}}},{"type":"Feature","geometry":{"type":"Point","coordinates":[8.850165770362661,45.31895744034897]},"properties":{"type":"pakketpunt","locatieNaam":"FedEx OnSite","straatNaam":"Via Alfonso D'Avalos, 29","straatNr":"","vervoerder":"FedEx","puntType":"servicepunt","bezettingsgraad":50,"latitude":45.31895744034897,"longitude":8.850165770362661,"canPickup":true,"canDropoff":true,"openingstijden":{"ma":"07:00 - 18:30","di":"07:00 - 18:30","wo":"07:00 - 18:30","do":"07:00 - 18:30","vr":"07:00 - 18:30","za":"07:00 - 12:30","zo":"gesloten"}}},{"type":"Feature","geometry":{"type":"Point","coordinates":[8.851430180861364,45.31826082593964]},"properties":{"type":"pakketpunt","locatieNaam":"FedEx OnSite","straatNaam":"Via Gian Giacomo Trivulzio, 47","straatNr":"","vervoerder":"FedEx","puntType":"servicepunt","bezettingsgraad":50,"latitude":45.31826082593964,"longitude":8.851430180861364,"canPickup":true,"canDropoff":true,"openingstijden":{"ma":"07:30 - 12:00, 15:30 - 19:30","di":"07:30 - 12:00, 15:30 - 19:30","wo":"07:30 - 12:00, 15:30 - 19:30","do":"07:30 - 12:00, 15:30 - 19:30","vr":"07:30 - 12:00, 15:30 - 19:30","za":"07:30 - 12:00, 15:00 - 19:30","zo":"gesloten"}}},{"type":"Feature","geometry":{"type":"Point","coordinates":[8.850698546691355,45.32009091640867]},"properties":{"type":"pakketpunt","locatieNaam":"FedEx OnSite","straatNaam":"corso novara, 35","straatNr":"","vervoerder":"FedEx","puntType":"servicepunt","bezettingsgraad":50,"latitude":45.32009091640867,"longitude":8.850698546691355,"canPickup":true,"canDropoff":true,"openingstijden":{"ma":"09:00 - 13:00, 15:00 - 19:00","di":"09:00 - 13:00, 15:00 - 19:00","wo":"09:00 - 13:00, 15:00 - 19:00","do":"09:00 - 13:00, 15:00 - 19:00","vr":"09:00 - 13:00, 15:00 - 19:00","za":"09:00 - 13:00","zo":"gesloten"}}},{"type":"Feature","geometry":{"type":"Point","coordinates":[8.856195300099197,45.31087157793662]},"properties":{"type":"pakketpunt","locatieNaam":"FedEx OnSite","straatNaam":"Via Donizetti , 1","straatNr":"","vervoerder":"FedEx","puntType":"servicepunt","bezettingsgraad":50,"latitude":45.31087157793662,"longitude":8.856195300099197,"canPickup":true,"canDropoff":true,"openingstijden":{"ma":"09:00 - 13:00, 15:30 - 19:00","di":"09:00 - 13:00, 15:30 - 19:00","wo":"09:00 - 13:00, 15:30 - 19:00","do":"09:00 - 13:00, 15:30 - 19:00","vr":"09:00 - 13:00, 15:30 - 19:00","za":"09:00 - 13:00, 15:30 - 19:00","zo":"gesloten"}}},{"type":"Feature","geometry":{"type":"Point","coordinates":[8.853961732594758,45.318828803362436]},"properties":{"type":"pakketpunt","locatieNaam":"FedEx OnSite","straatNaam":"Via Dante, 52","straatNr":"","vervoerder":"FedEx","puntType":"servicepunt","bezettingsgraad":50,"latitude":45.318828803362436,"longitude":8.853961732594758,"canPickup":true,"canDropoff":true,"openingstijden":{"ma":"07:30 - 12:30, 15:00 - 19:00","di":"07:30 - 12:30, 15:00 - 19:00","wo":"07:30 - 12:30, 15:00 - 19:00","do":"07:30 - 12:30, 15:00 - 19:00","vr":"07:30 - 12:30, 15:00 - 19:00","za":"07:30 - 12:30, 15:00 - 19:00","zo":"gesloten"}}},{"type":"Feature","geometry":{"type":"Point","coordinates":[8.856874667447654,45.31737172427387]},"properties":{"type":"pakketpunt","locatieNaam":"FedEx OnSite","straatNaam":"Via del popolo, 3","straatNr":"","vervoerder":"FedEx","puntType":"servicepunt","bezettingsgraad":50,"latitude":45.31737172427387,"longitude":8.856874667447654,"canPickup":true,"canDropoff":true,"openingstijden":{"ma":"gesloten","di":"08:00 - 19:30","wo":"08:00 - 19:30","do":"08:00 - 19:30","vr":"08:00 - 19:30","za":"08:00 - 19:30","zo":"08:30 - 19:30"}}},{"type":"Feature","geometry":{"type":"Point","coordinates":[8.853369267344705,45.32490532440572]},"properties":{"type":"pakketpunt","locatieNaam":"FedEx OnSite","straatNaam":"VIALE MONTE GRAPPA 57","straatNr":"","vervoerder":"FedEx","puntType":"servicepunt","bezettingsgraad":50,"latitude":45.32490532440572,"longitude":8.853369267344705,"canPickup":true,"canDropoff":true,"openingstijden":{"ma":"08:45 - 12:30, 14:15 - 18:30","di":"08:45 - 12:30, 14:15 - 18:30","wo":"08:45 - 12:30, 14:15 - 18:30","do":"08:45 - 12:30, 14:15 - 18:30","vr":"08:45 - 12:30, 14:15 - 18:30","za":"gesloten","zo":"gesloten"}}},{"type":"Feature","geometry":{"type":"Point","coordinates":[8.860182281545987,45.31333799859035]},"properties":{"type":"pakketpunt","locatieNaam":"FedEx OnSite","straatNaam":"Via Cairoli, 41","straatNr":"","vervoerder":"FedEx","puntType":"servicepunt","bezettingsgraad":50,"latitude":45.31333799859035,"longitude":8.860182281545987,"canPickup":true,"canDropoff":true,"openingstijden":{"ma":"10:00 - 18:00","di":"10:00 - 18:00","wo":"10:00 - 18:00","do":"10:00 - 18:00","vr":"10:00 - 18:00","za":"10:00 - 17:30","zo":"gesloten"}}},{"type":"Feature","geometry":{"type":"Point","coordinates":[8.86581,45.303372]},"properties":{"type":"pakketpunt","locatieNaam":"FedEx OnSite","straatNaam":"VIA PERUGINO, 58","straatNr":"","vervoerder":"FedEx","puntType":"servicepunt","bezettingsgraad":50,"latitude":45.303372,"longitude":8.86581,"canPickup":true,"canDropoff":true,"openingstijden":{"ma":"09:00 - 13:00, 14:00 - 18:00","di":"09:00 - 13:00, 14:00 - 18:00","wo":"09:00 - 13:00, 14:00 - 18:00","do":"09:00 - 13:00, 14:00 - 18:00","vr":"09:00 - 13:00, 14:00 - 18:00","za":"09:00 - 12:00","zo":"gesloten"}}},{"type":"Feature","geometry":{"type":"Point","coordinates":[8.865622242302805,45.308896666918876]},"properties":{"type":"pakketpunt","locatieNaam":"FedEx OnSite","straatNaam":"c.so pavia, 51","straatNr":"","vervoerder":"FedEx","puntType":"servicepunt","bezettingsgraad":50,"latitude":45.308896666918876,"longitude":8.865622242302805,"canPickup":true,"canDropoff":true,"openingstijden":{"ma":"06:00 - 12:30, 15:30 - 19:30","di":"06:00 - 12:30, 15:30 - 19:30","wo":"06:00 - 12:30, 15:30 - 19:30","do":"06:00 - 12:30, 15:30 - 19:30","vr":"06:00 - 12:30, 15:30 - 19:30","za":"06:00 - 12:30, 15:30 - 19:30","zo":"07:00 - 12:00"}}},{"type":"Feature","geometry":{"type":"Point","coordinates":[8.877218115875442,45.323230299723065]},"properties":{"type":"pakketpunt","locatieNaam":"FedEx OnSite","straatNaam":"VIA SAN GIOVANNI, 25/B","straatNr":"","vervoerder":"FedEx","puntType":"servicepunt","bezettingsgraad":50,"latitude":45.323230299723065,"longitude":8.877218115875442,"canPickup":true,"canDropoff":true,"openingstijden":{"ma":"09:00 - 13:00, 15:30 - 19:00","di":"09:00 - 13:00, 15:30 - 19:00","wo":"09:00 - 13:00, 15:30 - 19:00","do":"09:00 - 13:00, 15:30 - 19:00","vr":"09:00 - 13:00, 15:30 - 19:00","za":"gesloten","zo":"gesloten"}}},{"type":"Feature","geometry":{"type":"Point","coordinates":[8.890979,45.315315]},"properties":{"type":"pakketpunt","locatieNaam":"FedEx OnSite","straatNaam":"VIA UMBERTO GIORDANO, 3","straatNr":"","vervoerder":"FedEx","puntType":"servicepunt","bezettingsgraad":50,"latitude":45.315315,"longitude":8.890979,"canPickup":true,"canDropoff":true,"openingstijden":{"ma":"09:00 - 13:00, 15:00 - 19:00","di":"09:00 - 13:00, 15:00 - 19:00","wo":"09:00 - 13:00, 15:00 - 19:00","do":"09:00 - 13:00, 15:00 - 19:00","vr":"09:00 - 13:00, 15:00 - 19:00","za":"09:00 - 13:00, 15:00 - 19:00","zo":"gesloten"}}},{"type":"Feature","geometry":{"type":"Polygon","coordinates":[[[8.7876454,45.3101656],[8.7876044,45.310044],[8.7872337,45.3098183],[8.7883423,45.3080066],[8.789161,45.3069369],[8.7900271,45.3064299],[8.7903956,45.3059445],[8.7912741,45.3050775],[8.7917935,45.3047544],[8.7923158,45.3036301],[8.7926788,45.3033247],[8.7928505,45.303037],[8.7935625,45.3014675],[8.794229,45.2987773],[8.7942544,45.2983723],[8.7935611,45.2961162],[8.7935064,45.2953735],[8.7934847,45.2938702],[8.7939733,45.2901175],[8.7940548,45.2900681],[8.7942363,45.290127],[8.7964616,45.2910131],[8.7959831,45.2897475],[8.7957636,45.2887165],[8.7957202,45.2879333],[8.7962812,45.2870656],[8.7971776,45.2859961],[8.7981838,45.2863084],[8.8001076,45.2822251],[8.8001876,45.2821397],[8.8003388,45.282203],[8.8009767,45.2811914],[8.8023956,45.2805908],[8.8031598,45.2803626],[8.8032294,45.2800521],[8.8031861,45.2778287],[8.8084168,45.2786972],[8.8111687,45.2793274],[8.8126444,45.2798519],[8.8128309,45.2793526],[8.8151775,45.2796534],[8.8150209,45.2802518],[8.8175506,45.2806339],[8.8181785,45.2786501],[8.8193965,45.279012],[8.8205325,45.2791308],[8.8247246,45.279961],[8.8265823,45.2801528],[8.8271943,45.2801627],[8.8271135,45.2789429],[8.8283294,45.2790078],[8.8291848,45.2791305],[8.8292957,45.2793738],[8.8301324,45.2799016],[8.8305579,45.2799022],[8.8317893,45.2801246],[8.832188,45.2794725],[8.8334448,45.2797174],[8.8352802,45.2799136],[8.8351741,45.2796614],[8.8351828,45.2794184],[8.8354334,45.278172],[8.8356226,45.2777717],[8.8389207,45.278078],[8.8428557,45.2786055],[8.843743,45.2787688],[8.8440374,45.2789222],[8.8410314,45.2824331],[8.8413977,45.2825416],[8.8426139,45.2825073],[8.8477329,45.2826312],[8.8532948,45.2828815],[8.8532068,45.2817562],[8.8532912,45.2805547],[8.8556179,45.2806251],[8.8592238,45.2809717],[8.8612875,45.2810822],[8.8623024,45.2812094],[8.8627515,45.281354],[8.8656081,45.2797686],[8.866077,45.2789456],[8.8719514,45.280397],[8.8734853,45.2808083],[8.873595,45.2809614],[8.8740281,45.2811194],[8.8767776,45.281775],[8.8786686,45.2821911],[8.8800774,45.2822241],[8.8802479,45.2829939],[8.879866,45.283493],[8.8798813,45.2837676],[8.8800387,45.2839523],[8.8805083,45.2842363],[8.8818586,45.2833376],[8.882661,45.2830144],[8.8841567,45.2826828],[8.8849382,45.2824046],[8.8865097,45.2816185],[8.8880488,45.2810844],[8.8888259,45.2805811],[8.8896961,45.2797538],[8.8927941,45.2756566],[8.8936844,45.2724844],[8.8938796,45.2720661],[8.8945146,45.2716661],[8.8950133,45.2716665],[8.8971929,45.2718846],[8.8972087,45.2719566],[8.9005021,45.272189],[8.900958,45.2721039],[8.904103,45.2725071],[8.9053684,45.2724317],[8.9063816,45.272608],[8.9077672,45.2731042],[8.909388,45.2740417],[8.9119087,45.2752948],[8.9127408,45.2751289],[8.9156967,45.2742085],[8.9179491,45.2737961],[8.9186675,45.2739766],[8.9185616,45.2745166],[8.9182688,45.275322],[8.9179493,45.2758709],[8.9179097,45.276825],[8.9174392,45.2770632],[8.9173987,45.2775132],[8.9161001,45.2773683],[8.9164196,45.2779131],[8.916605,45.2786468],[8.9172669,45.2793809],[8.9175695,45.2795882],[8.9206517,45.2807785],[8.9216826,45.2809728],[8.921645,45.2816569],[8.9218609,45.2822871],[8.9220964,45.2825978],[8.9221662,45.2828274],[8.9218597,45.2832187],[8.9227916,45.2835479],[8.9236246,45.2840211],[8.9241006,45.2843949],[8.9243311,45.2848992],[8.9244865,45.2855339],[8.9262802,45.2850399],[8.9274148,45.2852747],[8.9281878,45.2853427],[8.9301471,45.2849928],[8.9311067,45.2849034],[8.9331334,45.2842295],[8.9330103,45.2831853],[8.934818,45.2828938],[8.9353138,45.282759],[8.9359948,45.2824399],[8.9364481,45.2817875],[8.9364611,45.28163],[8.9360207,45.2806531],[8.9361294,45.2803156],[8.9363672,45.2800277],[8.936884,45.2796184],[8.9391175,45.279066],[8.9395194,45.2787737],[8.9397756,45.2776487],[8.9410224,45.275543],[8.941505,45.274247],[8.9428442,45.2736311],[8.9448653,45.273218],[8.9460568,45.2731053],[8.9461619,45.2726326],[8.9472607,45.2710473],[8.9478353,45.2706961],[8.9486394,45.2705073],[8.9504525,45.2693096],[8.9510652,45.2691387],[8.9520225,45.2687336],[8.9533879,45.2686621],[8.9540105,45.2690132],[8.9549477,45.2699887],[8.9559898,45.2701914],[8.9575793,45.2701],[8.9582308,45.2697691],[8.9585177,45.26953],[8.960003,45.269181],[8.9603681,45.2687396],[8.9603422,45.2685188],[8.9606559,45.2670103],[8.9614642,45.2660539],[8.96222,45.2656862],[8.9628193,45.2655473],[8.9634799,45.2655242],[8.9637747,45.2652331],[8.9639401,45.2648221],[8.9639872,45.2644258],[8.9638743,45.2629728],[8.9641494,45.2625638],[8.9647192,45.2620855],[8.9654082,45.2617672],[8.9662627,45.2618508],[8.9665858,45.2617543],[8.9673873,45.2611807],[8.9678095,45.2607845],[8.9678643,45.2606473],[8.9683994,45.261039],[8.969994,45.2615795],[8.9694993,45.2630556],[8.968506,45.2642615],[8.9683848,45.264473],[8.9683464,45.2647971],[8.9709799,45.2651983],[8.9732698,45.2647623],[8.9740585,45.2646995],[8.9754925,45.2648168],[8.9762206,45.264799],[8.9770923,45.2645336],[8.9779226,45.2639442],[8.9789264,45.2641199],[8.9798043,45.2641695],[8.9806486,45.2645657],[8.9826004,45.2647326],[8.9825683,45.2653447],[8.9824472,45.2654707],[8.9769322,45.2704745],[8.9759534,45.2714059],[8.9737883,45.2738358],[8.972937,45.2746277],[8.97177,45.2755501],[8.9696545,45.2769313],[8.968054,45.277786],[8.9675662,45.2780154],[8.9661396,45.278438],[8.9644864,45.2791621],[8.9602482,45.2822482],[8.9510958,45.2867589],[8.9492026,45.2881308],[8.9488437,45.2883152],[8.9472933,45.2894936],[8.9457183,45.2913112],[8.9454174,45.2925937],[8.9454558,45.2940925],[8.9455527,45.2944571],[8.9460649,45.295632],[8.9465201,45.2964198],[8.9472041,45.2981439],[8.9471378,45.2990755],[8.9468739,45.300016],[8.9461462,45.3007313],[8.9456246,45.3010776],[8.9440574,45.3025981],[8.9419497,45.3040778],[8.9415219,45.3045726],[8.9420968,45.3084975],[8.9438896,45.3111313],[8.943942,45.3114013],[8.9440699,45.3126841],[8.9440383,45.3140163],[8.9434017,45.3159558],[8.9421058,45.3169138],[8.9404959,45.317669],[8.9332055,45.3208065],[8.9327028,45.3211168],[8.9308122,45.3216062],[8.928202,45.3210871],[8.926796,45.3192724],[8.9254639,45.3183804],[8.9251517,45.3180607],[8.9243368,45.3168045],[8.9237549,45.3166826],[8.9232748,45.3167093],[8.9222217,45.3170956],[8.921232,45.3177835],[8.9198824,45.3203075],[8.9195487,45.3206043],[8.9167429,45.321939],[8.9153612,45.32228],[8.9149685,45.3225138],[8.9141916,45.3226437],[8.9125489,45.322548],[8.9111787,45.3226685],[8.9078863,45.32389],[8.9065049,45.3249601],[8.9058893,45.3259182],[8.9059224,45.3261298],[8.906446,45.3268413],[8.906681,45.3275121],[8.9074068,45.3284938],[8.9080889,45.3288634],[8.9087363,45.3289855],[8.909411,45.3289995],[8.9097723,45.3294949],[8.9105995,45.3299816],[8.9108586,45.3305399],[8.9102779,45.3315971],[8.9083319,45.3324732],[8.9071765,45.3327648],[8.9059928,45.3327953],[8.9049028,45.333051],[8.9031756,45.3337606],[8.9027201,45.3342733],[8.9026862,45.3344758],[8.9027624,45.3347189],[8.9026088,45.3349843],[8.9019663,45.3356589],[8.9004613,45.3369493],[8.8992968,45.3378304],[8.8985711,45.3386039],[8.8954118,45.3405949],[8.8950445,45.3407431],[8.8943716,45.3405804],[8.8928877,45.3397959],[8.8922753,45.3396378],[8.8917696,45.3396194],[8.8912493,45.3397224],[8.8905483,45.3400323],[8.888868,45.3410073],[8.8875638,45.3413976],[8.8846781,45.3411382],[8.8812983,45.3414003],[8.8810637,45.3414586],[8.880479,45.341809],[8.8801464,45.3421642],[8.8796342,45.3429378],[8.8788395,45.3437561],[8.8779545,45.3442863],[8.8772297,45.3444655],[8.8748328,45.3446295],[8.8733916,45.3448394],[8.8715076,45.3453639],[8.8698038,45.3459471],[8.8681786,45.3463188],[8.8672155,45.3467362],[8.8667773,45.3471543],[8.8662069,45.3481933],[8.8658295,45.3492145],[8.8656037,45.35092],[8.865728,45.3516673],[8.8670441,45.3539236],[8.8673308,45.3548421],[8.86427,45.354825],[8.8618176,45.3546646],[8.8590192,45.3543507],[8.8566347,45.3538706],[8.8557529,45.353577],[8.8525556,45.3520697],[8.8503913,45.3503927],[8.8497182,45.3496807],[8.8488395,45.3500711],[8.8484893,45.3503497],[8.8479803,45.3509431],[8.8469858,45.3510768],[8.8464251,45.3512966],[8.8457931,45.3519258],[8.8452814,45.3523077],[8.8447321,45.3530451],[8.8445374,45.3530403],[8.8426563,45.3523266],[8.8425403,45.3521645],[8.8436815,45.3509103],[8.8446872,45.349575],[8.8447502,45.3495849],[8.8447782,45.3494974],[8.8446554,45.3494442],[8.8336636,45.3472471],[8.8293818,45.3462341],[8.8279941,45.3459692],[8.8270907,45.3459247],[8.8255317,45.3456553],[8.8247167,45.3454776],[8.8246591,45.3454598],[8.824698,45.3453471],[8.8236043,45.3450709],[8.8232307,45.3456509],[8.8228294,45.3456981],[8.8212257,45.3454825],[8.8199735,45.3454579],[8.8185425,45.3452626],[8.8163967,45.3448347],[8.8151162,45.3444589],[8.8141466,45.3443088],[8.8136947,45.3449157],[8.813303,45.3456262],[8.8111345,45.3451905],[8.8118095,45.3446831],[8.8109355,45.3436015],[8.8108554,45.3432905],[8.8109624,45.3415028],[8.8110751,45.3412239],[8.8116582,45.3405155],[8.8116465,45.3402542],[8.8113756,45.340096],[8.8093711,45.3366988],[8.8085819,45.3357963],[8.806574,45.333786],[8.8058881,45.3344071],[8.8052148,45.3349056],[8.8050152,45.3349547],[8.8036501,45.3347994],[8.8032803,45.3347087],[8.8031517,45.3345375],[8.8028617,45.334447],[8.8017857,45.3342066],[8.8008767,45.334124],[8.7954606,45.3341775],[8.7890552,45.3360112],[8.7889251,45.3358264],[8.7889424,45.3354394],[8.7899241,45.330963],[8.7906016,45.3280343],[8.790821,45.3273596],[8.7910747,45.3269055],[8.7915664,45.3248526],[8.7880456,45.3256307],[8.7887982,45.3248355],[8.7889024,45.3242551],[8.7886929,45.322693],[8.7884874,45.32177],[8.7918879,45.3191163],[8.7929013,45.3180289],[8.7944502,45.3166185],[8.7965828,45.3151686],[8.7961751,45.3150238],[8.7955308,45.3145771],[8.7952998,45.3145182],[8.7934488,45.3134887],[8.7876454,45.3101656]]]},"properties":{"type":"boundary","gemeente":"Vigevano"}}]}