{"type":"FeatureCollection","metadata":{"gemeente":"Villafranca Padovana","slug":"villafranca-padovana","generated_at":"2026-09-26T13:10:55.591684Z","total_points":12,"providers":["PosteItaliane","DPD","InPost","GLS","DHL","Amazon"],"bounds":[11.7928,45.4695842,11.8150328,45.494675]},"features":[{"type":"Feature","geometry":{"type":"Point","coordinates":[11.79822317,45.49467488]},"properties":{"type":"pakketpunt","locatieNaam":"Villafranca Padovana","straatNaam":"Via Roma","straatNr":"38","vervoerder":"PosteItaliane","puntType":"postkantoor","bezettingsgraad":50,"latitude":45.49467488,"longitude":11.79822317,"canPickup":true,"canDropoff":true,"openingstijden":{"za":"08:20 - 12:35","zo":"gesloten","ma":"08:20 - 13:35","di":"08:20 - 13:35","wo":"08:20 - 13:35","do":"08:20 - 13:35","vr":"08:20 - 13:35"}}},{"type":"Feature","geometry":{"type":"Point","coordinates":[11.79286754,45.49444647]},"properties":{"type":"pakketpunt","locatieNaam":"Tabaccheria N. 9","straatNaam":"Via Vittorio Emanuele","straatNr":"38","vervoerder":"PosteItaliane","puntType":"servicepunt","bezettingsgraad":50,"latitude":45.49444647,"longitude":11.79286754,"canPickup":true,"canDropoff":true,"openingstijden":{"za":"06:30 - 12:40, 15:30 - 19:30","zo":"gesloten","ma":"06:30 - 12:40, 15:30 - 19:30","di":"06:30 - 12:40, 15:30 - 19:30","wo":"06:30 - 12:40","do":"06:30 - 12:40, 15:30 - 19:30","vr":"06:30 - 12:40, 15:30 - 19:30"}}},{"type":"Feature","geometry":{"type":"Point","coordinates":[11.7997146,45.4929755]},"properties":{"type":"pakketpunt","locatieNaam":"Tabaccheria Edicola Tessari","straatNaam":"VIA ROMA","straatNr":"47","vervoerder":"DPD","puntType":"pickup_point","bezettingsgraad":50,"latitude":45.4929755,"longitude":11.7997146,"canPickup":true,"canDropoff":true,"openingstijden":{"ma":"08:00 - 12:00, 17:00 - 19:00","di":"08:00 - 12:00, 17:00 - 19:00","wo":"08:00 - 12:00","do":"08:00 - 12:00, 17:00 - 19:00","vr":"08:00 - 12:00, 17:00 - 19:00","za":"08:00 - 12:00, 17:00 - 19:00","zo":"gesloten"}}},{"type":"Feature","geometry":{"type":"Point","coordinates":[11.8150328,45.4695842]},"properties":{"type":"pakketpunt","locatieNaam":"Bar ai Grandi","straatNaam":"VIA FIRENZE","straatNr":"6","vervoerder":"DPD","puntType":"pickup_point","bezettingsgraad":50,"latitude":45.4695842,"longitude":11.8150328,"canPickup":true,"canDropoff":true,"openingstijden":{"ma":"06:30 - 23:00","di":"06:30 - 23:00","wo":"06:30 - 23:00","do":"06:30 - 23:00","vr":"06:30 - 23:00","za":"06:30 - 23:00","zo":"07:00 - 23:00"}}},{"type":"Feature","geometry":{"type":"Point","coordinates":[11.81445,45.47102]},"properties":{"type":"pakketpunt","locatieNaam":"InPost Locker 24/7","straatNaam":"Via Roma","straatNr":"Snc","vervoerder":"InPost","puntType":"automaat","bezettingsgraad":50,"latitude":45.47102,"longitude":11.81445,"canPickup":true,"canDropoff":true,"openingstijden":null}},{"type":"Feature","geometry":{"type":"Point","coordinates":[11.7997146,45.4929755]},"properties":{"type":"pakketpunt","locatieNaam":"TABACCHERIA EDICOLA TESSARI CARLO","straatNaam":"Via Roma N.","straatNr":"47","vervoerder":"GLS","puntType":"parcel_shop","bezettingsgraad":50,"latitude":45.4929755,"longitude":11.7997146,"canPickup":true,"canDropoff":true,"openingstijden":"za: 07:30 - 12:30, 17:00 - 19:00; ma: 07:30 - 12:30, 17:00 - 19:00"}},{"type":"Feature","geometry":{"type":"Point","coordinates":[11.792868,45.494446]},"properties":{"type":"pakketpunt","locatieNaam":"TABACCHERIA N. 9","straatNaam":"VIA VITTORIO EMANUELE 38","straatNr":"","vervoerder":"DHL","puntType":"parcelShop","bezettingsgraad":50,"latitude":45.494446,"longitude":11.792868,"canPickup":true,"canDropoff":true,"openingstijden":{"ma":"06:30 - 12:40, 15:30 - 19:30","di":"06:30 - 12:40, 15:30 - 19:30","wo":"06:30 - 12:40","do":"06:30 - 12:40, 15:30 - 19:30","vr":"06:30 - 12:40, 15:30 - 19:30","za":"06:30 - 12:40, 15:30 - 19:30","zo":"gesloten"}}},{"type":"Feature","geometry":{"type":"Point","coordinates":[11.798223,45.494675]},"properties":{"type":"pakketpunt","locatieNaam":"Ufficio Postale VILLAFRANCA PADOVAN","straatNaam":"VIA ROMA 38","straatNr":"","vervoerder":"DHL","puntType":"postOffice","bezettingsgraad":50,"latitude":45.494675,"longitude":11.798223,"canPickup":true,"canDropoff":true,"openingstijden":{"ma":"08:20 - 13:35","di":"08:20 - 13:35","wo":"08:20 - 13:35","do":"08:20 - 13:35","vr":"08:20 - 13:35","za":"08:20 - 12:35","zo":"gesloten"}}},{"type":"Feature","geometry":{"type":"Point","coordinates":[11.814722,45.470483]},"properties":{"type":"pakketpunt","locatieNaam":"Amazon Locker - steccato","straatNaam":"Stazione IP","straatNr":"","vervoerder":"Amazon","puntType":"locker","bezettingsgraad":50,"latitude":45.470483,"longitude":11.814722,"canPickup":true,"canDropoff":false,"openingstijden":null}},{"type":"Feature","geometry":{"type":"Point","coordinates":[11.7982,45.4946]},"properties":{"type":"pakketpunt","locatieNaam":"Ufficio Postale VILLAFRANCA PADOVANA","straatNaam":"VIA ROMA 38","straatNr":"","vervoerder":"Amazon","puntType":"3p","bezettingsgraad":50,"latitude":45.4946,"longitude":11.7982,"canPickup":true,"canDropoff":false,"openingstijden":null}},{"type":"Feature","geometry":{"type":"Point","coordinates":[11.79953,45.493087]},"properties":{"type":"pakketpunt","locatieNaam":"Amazon Counter - PRIMAEDICOLA","straatNaam":"TESSARI CARLO","straatNr":"","vervoerder":"Amazon","puntType":"helix","bezettingsgraad":50,"latitude":45.493087,"longitude":11.79953,"canPickup":true,"canDropoff":false,"openingstijden":null}},{"type":"Feature","geometry":{"type":"Point","coordinates":[11.7928,45.4944]},"properties":{"type":"pakketpunt","locatieNaam":"PuntoPoste TABACCHERIA N. 9","straatNaam":"VIA VITTORIO EMANUELE 38","straatNr":"","vervoerder":"Amazon","puntType":"3p","bezettingsgraad":50,"latitude":45.4944,"longitude":11.7928,"canPickup":true,"canDropoff":false,"openingstijden":null}},{"type":"Feature","geometry":{"type":"Polygon","coordinates":[[[11.7670417,45.5219921],[11.7676355,45.5164552],[11.7667611,45.5163506],[11.7672308,45.5134189],[11.7673404,45.5130478],[11.7675403,45.5129531],[11.7688688,45.5129388],[11.7688603,45.5119866],[11.7689541,45.5118136],[11.7695955,45.5118609],[11.7699288,45.5048531],[11.7699186,45.5036044],[11.7701051,45.5032405],[11.7687167,45.503328],[11.7692869,45.4995852],[11.7680274,45.499436],[11.7681625,45.4991947],[11.7690602,45.4984978],[11.7696745,45.4978089],[11.7692419,45.497525],[11.7691685,45.4974033],[11.7692977,45.497011],[11.7689323,45.496716],[11.7688719,45.4965845],[11.7691755,45.4964442],[11.7692229,45.4963102],[11.7685129,45.496147],[11.7686115,45.4959547],[11.7692606,45.4954262],[11.7693029,45.4951878],[11.768968,45.4944174],[11.7699882,45.493747],[11.7700891,45.4936022],[11.7696515,45.4934893],[11.7695929,45.4928451],[11.7693845,45.4927611],[11.7696376,45.4923789],[11.7686155,45.4921852],[11.768788,45.4918487],[11.7689039,45.4911813],[11.7688109,45.4909367],[11.768331,45.4905116],[11.7677866,45.4904204],[11.7678062,45.490268],[11.7680804,45.4900809],[11.7690303,45.4901813],[11.769253,45.4900429],[11.7696798,45.4888363],[11.7698787,45.4884896],[11.7700708,45.4882761],[11.771271,45.4874304],[11.7716175,45.4870612],[11.7711446,45.4867783],[11.7686337,45.4856714],[11.7667973,45.4845576],[11.767518,45.4843882],[11.7688043,45.4839203],[11.7689173,45.484022],[11.7697703,45.4838019],[11.7710612,45.4834288],[11.7719617,45.4830747],[11.7717143,45.4829857],[11.7714885,45.4827823],[11.7707879,45.4819827],[11.7728695,45.4814955],[11.7733677,45.4812375],[11.7775324,45.4783733],[11.7778412,45.4766947],[11.7774856,45.4763236],[11.7775474,45.4759328],[11.7777829,45.4755092],[11.7786242,45.4747767],[11.7788812,45.4747894],[11.7805806,45.4728491],[11.7809824,45.4716905],[11.7798966,45.4710143],[11.7797114,45.4727374],[11.7793307,45.4726801],[11.778714,45.4727617],[11.7778634,45.4724785],[11.7767233,45.4723449],[11.7766261,45.4728409],[11.7762163,45.473563],[11.7753425,45.4736317],[11.7729879,45.4732237],[11.7724678,45.4727996],[11.7720554,45.4726483],[11.7728204,45.4717371],[11.7721055,45.4711943],[11.7690348,45.471041],[11.767812,45.4705959],[11.7674346,45.4706051],[11.7679932,45.4696136],[11.7679142,45.4691028],[11.7690756,45.4688467],[11.7692234,45.4680076],[11.7674755,45.4678602],[11.7677856,45.4664759],[11.7679631,45.466519],[11.7685157,45.4654043],[11.7693224,45.4653467],[11.7690911,45.4644788],[11.7692211,45.4643807],[11.7692174,45.4640295],[11.7693871,45.4636361],[11.7692202,45.4635357],[11.7689493,45.4635138],[11.7666387,45.4637217],[11.7663558,45.4634532],[11.7660675,45.4633558],[11.7639067,45.4630379],[11.7620232,45.4628746],[11.7620724,45.46202],[11.7622476,45.4614632],[11.7615108,45.4611279],[11.7615332,45.4605919],[11.7612566,45.4596998],[11.761822,45.4595848],[11.7609987,45.4584748],[11.7624137,45.4578899],[11.761647,45.4566151],[11.7597991,45.4573127],[11.7594881,45.4568214],[11.7590777,45.4564545],[11.7585366,45.4566128],[11.7577755,45.4554575],[11.7582797,45.4546021],[11.7583369,45.4544465],[11.7582849,45.45424],[11.7595395,45.4537215],[11.7600986,45.4533919],[11.7607927,45.4529398],[11.761292,45.4524535],[11.7625452,45.4520785],[11.7649193,45.4502078],[11.7659338,45.4490671],[11.7666323,45.4484718],[11.7664713,45.4477988],[11.7666179,45.44744],[11.7664192,45.4467933],[11.7684116,45.4463827],[11.7678003,45.4449349],[11.7690943,45.4446519],[11.7698112,45.4455299],[11.7696939,45.4456335],[11.7696896,45.4457524],[11.7706585,45.4467096],[11.7715362,45.4480875],[11.7725305,45.4490623],[11.7733619,45.448824],[11.7765511,45.4490129],[11.7768769,45.4494745],[11.7791176,45.4508837],[11.7799312,45.4519571],[11.7805088,45.4523752],[11.7819847,45.4531735],[11.782497,45.453375],[11.7837691,45.4536339],[11.7848981,45.4545071],[11.7854466,45.4546536],[11.7858014,45.4550642],[11.785735,45.4552742],[11.7867303,45.4566038],[11.7863776,45.4567055],[11.7865593,45.4569562],[11.7858619,45.457133],[11.7866859,45.4585746],[11.7869676,45.4583619],[11.7871603,45.4580252],[11.7874257,45.4577906],[11.7876075,45.4577523],[11.7878439,45.4578543],[11.7880693,45.4577855],[11.788073,45.4575177],[11.7881639,45.4574054],[11.7888765,45.4575126],[11.7898801,45.457158],[11.790611,45.4572167],[11.79084,45.4571708],[11.7914036,45.4568061],[11.7916545,45.4567474],[11.7921927,45.456727],[11.7924763,45.4567984],[11.7944434,45.4565867],[11.7950797,45.4562271],[11.7961887,45.4561531],[11.7968032,45.4562552],[11.7972468,45.4566479],[11.7979813,45.4565561],[11.7985003,45.4568398],[11.7994794,45.4558592],[11.8003793,45.4565191],[11.8007482,45.4563283],[11.8001639,45.4550991],[11.8020019,45.4548437],[11.8025337,45.4549266],[11.8045517,45.4548692],[11.8056744,45.4544643],[11.806897,45.4541901],[11.80726,45.4537722],[11.8092674,45.4532791],[11.8096786,45.4529658],[11.8099927,45.4524479],[11.8100383,45.4504422],[11.8106849,45.4502947],[11.8111419,45.4504011],[11.8115111,45.4506147],[11.811722,45.4501919],[11.8117594,45.4496256],[11.811875,45.4493505],[11.8126228,45.4487164],[11.8131627,45.4478845],[11.8140589,45.4468568],[11.8145715,45.4476026],[11.8145206,45.4480261],[11.8148569,45.4481032],[11.8156143,45.4478988],[11.8157794,45.4476696],[11.8172833,45.4468548],[11.81753,45.4465922],[11.8181642,45.4465163],[11.8185645,45.4463424],[11.8203554,45.4459677],[11.8220544,45.4454982],[11.822371,45.44549],[11.8227576,45.4452265],[11.823784,45.4454859],[11.8242352,45.4457552],[11.8247189,45.4458799],[11.8261869,45.4458107],[11.8279769,45.4460536],[11.8281486,45.4463393],[11.8280746,45.4464856],[11.8282621,45.4466936],[11.8285646,45.4465959],[11.8293968,45.4465986],[11.8296444,45.4476995],[11.8302059,45.4490939],[11.8294464,45.4490909],[11.8278885,45.4511184],[11.8225413,45.4591903],[11.8214238,45.4610693],[11.8202794,45.4632813],[11.8201027,45.4632572],[11.8199828,45.4635545],[11.8195666,45.4638686],[11.8184519,45.4655957],[11.8181311,45.4664676],[11.8179345,45.4665864],[11.8168275,45.4681993],[11.8163544,45.4687238],[11.8158684,45.4695333],[11.8154514,45.4698284],[11.815257,45.4702605],[11.8144806,45.4712006],[11.8140447,45.4723154],[11.8136911,45.4724554],[11.8129385,45.4732129],[11.8075025,45.4809617],[11.809198,45.4813856],[11.8094726,45.4812079],[11.8112562,45.4817907],[11.8107391,45.483332],[11.8100101,45.483331],[11.8102517,45.4843885],[11.8133308,45.4852336],[11.8138355,45.4845281],[11.8154008,45.4850591],[11.8149848,45.4856485],[11.8163719,45.486127],[11.8170302,45.4866045],[11.8174027,45.4867662],[11.8179261,45.4867058],[11.818247,45.4867695],[11.8157849,45.4889709],[11.8163017,45.4893189],[11.8167435,45.4895169],[11.8177047,45.4893033],[11.8186379,45.4893372],[11.8206688,45.4899992],[11.8226373,45.4886023],[11.8230239,45.4885072],[11.8232669,45.4882354],[11.8238384,45.4888669],[11.8262139,45.4904791],[11.8253795,45.4910694],[11.8248543,45.4916332],[11.8248103,45.4918336],[11.8235279,45.4931852],[11.822706,45.4942973],[11.8224229,45.4948455],[11.8212167,45.4947519],[11.8211414,45.4951335],[11.8203325,45.4948877],[11.8191701,45.4948595],[11.8177835,45.4969939],[11.8168478,45.4967493],[11.8158294,45.4960908],[11.8152522,45.4958867],[11.8160573,45.4949743],[11.8172934,45.4953995],[11.8179262,45.4942826],[11.8168551,45.4939197],[11.8143792,45.4927274],[11.8131531,45.4938591],[11.8128489,45.4942559],[11.8128115,45.4945891],[11.8127102,45.4947245],[11.8125927,45.4948034],[11.8122154,45.494682],[11.8121231,45.4948624],[11.812196,45.4960569],[11.8120982,45.4962588],[11.8115674,45.4965312],[11.8114105,45.4968168],[11.8113744,45.4977198],[11.8095318,45.4973189],[11.8093126,45.497799],[11.8090857,45.4993949],[11.8063284,45.4991392],[11.8062747,45.4988384],[11.8058456,45.4988083],[11.8056095,45.4993798],[11.8052126,45.4999739],[11.8029595,45.499628],[11.7994405,45.4987632],[11.7985822,45.4986805],[11.796887,45.4982067],[11.7965759,45.4985977],[11.7957317,45.4982436],[11.7928077,45.5024777],[11.7929885,45.5025496],[11.7927669,45.5028807],[11.7923546,45.5034457],[11.7921831,45.5034458],[11.7909113,45.5053053],[11.7903975,45.5059135],[11.7893713,45.507523],[11.7870975,45.5107226],[11.7864139,45.5118771],[11.785568,45.5120022],[11.7854901,45.5120839],[11.7831516,45.5156515],[11.7831609,45.5160656],[11.7826698,45.5168453],[11.7823087,45.5170631],[11.7812652,45.5186807],[11.7809473,45.5187287],[11.7807707,45.5188577],[11.7807214,45.5191363],[11.7805406,45.5192975],[11.7804734,45.5195564],[11.7801525,45.5197773],[11.7801125,45.5200798],[11.779914,45.5202294],[11.7799102,45.5203862],[11.7794691,45.5207186],[11.7793237,45.5210197],[11.7790736,45.5212831],[11.7790068,45.5215098],[11.7787717,45.5217287],[11.7787139,45.5219472],[11.778451,45.5221868],[11.7780462,45.5230248],[11.7775376,45.523572],[11.7774468,45.5238194],[11.7762903,45.5234892],[11.7760159,45.5233338],[11.7766696,45.5224188],[11.7763343,45.5223987],[11.7758247,45.5225388],[11.7754621,45.5225476],[11.7729309,45.5224604],[11.7710921,45.5222611],[11.7687545,45.5222786],[11.7676242,45.5221491],[11.7670417,45.5219921]]]},"properties":{"type":"boundary","gemeente":"Villafranca Padovana"}}]}