{"type":"FeatureCollection","metadata":{"gemeente":"Villa d'Almè","slug":"villa-d-alme","generated_at":"2026-09-26T13:10:55.251992Z","total_points":6,"providers":["PosteItaliane","DPD","DHL","Amazon"],"bounds":[9.6132542,45.7462,9.617707,45.75014]},"features":[{"type":"Feature","geometry":{"type":"Point","coordinates":[9.61770655,45.74629685]},"properties":{"type":"pakketpunt","locatieNaam":"Villa D'alme'","straatNaam":"Via Locatelli Milesi","straatNr":"16","vervoerder":"PosteItaliane","puntType":"postkantoor","bezettingsgraad":50,"latitude":45.74629685,"longitude":9.61770655,"canPickup":true,"canDropoff":true,"openingstijden":{"za":"08:20 - 12:35","zo":"gesloten","ma":"08:20 - 13:35","di":"08:20 - 13:35","wo":"08:20 - 13:35","do":"08:20 - 13:35","vr":"08:20 - 13:35"}}},{"type":"Feature","geometry":{"type":"Point","coordinates":[9.613478,45.75014]},"properties":{"type":"pakketpunt","locatieNaam":"Art-Copy","straatNaam":"VIA MAZZINI","straatNr":"52","vervoerder":"DPD","puntType":"pickup_point","bezettingsgraad":50,"latitude":45.75014,"longitude":9.613478,"canPickup":true,"canDropoff":true,"openingstijden":{"ma":"08:30 - 12:30, 14:30 - 19:00","di":"08:30 - 12:30, 14:30 - 19:00","wo":"08:30 - 12:30, 14:30 - 19:00","do":"08:30 - 12:30, 14:30 - 19:00","vr":"08:30 - 12:30, 14:30 - 19:00","za":"08:30 - 12:00","zo":"gesloten"}}},{"type":"Feature","geometry":{"type":"Point","coordinates":[9.617707,45.746297]},"properties":{"type":"pakketpunt","locatieNaam":"Ufficio Postale VILLA D'ALME'","straatNaam":"VIA LOCATELLI MILESI 16","straatNr":"","vervoerder":"DHL","puntType":"postOffice","bezettingsgraad":50,"latitude":45.746297,"longitude":9.617707,"canPickup":true,"canDropoff":true,"openingstijden":{"ma":"08:20 - 13:35","di":"08:20 - 13:35","wo":"08:20 - 13:35","do":"08:20 - 13:35","vr":"08:20 - 13:35","za":"08:20 - 12:35","zo":"gesloten"}}},{"type":"Feature","geometry":{"type":"Point","coordinates":[9.6132542,45.7483325]},"properties":{"type":"pakketpunt","locatieNaam":"Amazon Locker - orienna","straatNaam":"ENI Station pv.1542_MOVE","straatNr":"","vervoerder":"Amazon","puntType":"locker","bezettingsgraad":50,"latitude":45.7483325,"longitude":9.6132542,"canPickup":true,"canDropoff":false,"openingstijden":null}},{"type":"Feature","geometry":{"type":"Point","coordinates":[9.6137545,45.7500893]},"properties":{"type":"pakketpunt","locatieNaam":"Amazon Counter","straatNaam":"Art-Copy (fermopoint)","straatNr":"","vervoerder":"Amazon","puntType":"helix","bezettingsgraad":50,"latitude":45.7500893,"longitude":9.6137545,"canPickup":true,"canDropoff":false,"openingstijden":null}},{"type":"Feature","geometry":{"type":"Point","coordinates":[9.6177,45.7462]},"properties":{"type":"pakketpunt","locatieNaam":"Ufficio Postale VILLA D'ALME'","straatNaam":"VIA LOCATELLI MILESI 16","straatNr":"","vervoerder":"Amazon","puntType":"3p","bezettingsgraad":50,"latitude":45.7462,"longitude":9.6177,"canPickup":true,"canDropoff":false,"openingstijden":null}},{"type":"Feature","geometry":{"type":"Polygon","coordinates":[[[9.6044784,45.7608063],[9.6055007,45.7596707],[9.6084565,45.7571155],[9.6088753,45.7566077],[9.6092482,45.7558348],[9.6095446,45.7549366],[9.6095441,45.7543512],[9.6092156,45.7536692],[9.6086348,45.7534506],[9.606118,45.7528289],[9.6043955,45.7522279],[9.6035637,45.7517933],[9.6030587,45.7510941],[9.6030468,45.7503623],[9.6032641,45.7496818],[9.6037639,45.748858],[9.6042221,45.7478331],[9.6053308,45.7460202],[9.6056539,45.7432785],[9.6070479,45.7431836],[9.6079583,45.7436474],[9.6087619,45.7433684],[9.6086221,45.743152],[9.6114534,45.7422623],[9.6117286,45.7426038],[9.6114856,45.7427562],[9.6118922,45.7442382],[9.6124653,45.7449028],[9.6131991,45.7450793],[9.6134011,45.7453023],[9.6135327,45.7450957],[9.614567,45.7450006],[9.6152339,45.7450334],[9.6157443,45.7451083],[9.6162204,45.7452999],[9.6177135,45.7456476],[9.6181342,45.7451838],[9.617659,45.7440258],[9.6191103,45.742964],[9.6196582,45.7423795],[9.620383,45.7422663],[9.6206174,45.7421302],[9.6213022,45.7414339],[9.6220468,45.7402228],[9.6264527,45.7391387],[9.6276208,45.7379457],[9.6286114,45.7385004],[9.6305091,45.7392448],[9.6309613,45.7397122],[9.6318135,45.7401987],[9.6334668,45.7419588],[9.6340529,45.7429963],[9.6345542,45.7445842],[9.6323423,45.7456526],[9.6324414,45.7457976],[9.6336374,45.7457095],[9.6338785,45.7462348],[9.6347371,45.7465521],[9.6356679,45.7465501],[9.6365678,45.7468257],[9.637884,45.7473697],[9.6390158,45.7476442],[9.6394592,45.7481664],[9.6396587,45.7486076],[9.6400409,45.7491559],[9.6406966,45.7495676],[9.6408984,45.749979],[9.6413864,45.7502397],[9.6415532,45.7506813],[9.6424672,45.7521855],[9.6422124,45.752624],[9.6422122,45.7528345],[9.6425792,45.753415],[9.64265,45.7538145],[9.6423291,45.754009],[9.6414434,45.7541019],[9.6413055,45.7542938],[9.6410608,45.7553959],[9.6407717,45.7555602],[9.6405795,45.7557918],[9.6399152,45.7572797],[9.6408754,45.7576023],[9.6403213,45.7584067],[9.6399903,45.7585877],[9.6395485,45.7592142],[9.6391834,45.759462],[9.6389754,45.7601516],[9.639012,45.7603913],[9.6388891,45.7608669],[9.6382262,45.7613157],[9.6371004,45.7619063],[9.6362655,45.7621722],[9.6349081,45.7623405],[9.6347734,45.7625345],[9.6341202,45.7629788],[9.6342463,45.7631555],[9.6341235,45.7634181],[9.6341828,45.763543],[9.6347046,45.7637301],[9.634902,45.7641026],[9.6350251,45.7641764],[9.6353685,45.7641875],[9.6357361,45.7643562],[9.6344793,45.7642803],[9.6343794,45.7642176],[9.6345242,45.7639227],[9.634343,45.7637673],[9.6341896,45.7637695],[9.6340847,45.7638694],[9.6340303,45.7642318],[9.6339354,45.7643361],[9.6337882,45.7643314],[9.6335089,45.7641706],[9.633032,45.7640653],[9.6325435,45.7642256],[9.6321647,45.7642286],[9.6319343,45.7640695],[9.6319757,45.7637027],[9.6318718,45.7636127],[9.6286898,45.763292],[9.6282268,45.7634312],[9.6262879,45.7634908],[9.6260028,45.7634628],[9.6258485,45.7633231],[9.6256182,45.7632738],[9.6247531,45.7634028],[9.6232989,45.7638354],[9.6229934,45.7637756],[9.6216949,45.7638398],[9.6212367,45.7644734],[9.6208074,45.764651],[9.6206282,45.7646651],[9.6200266,45.7644755],[9.616934,45.7644396],[9.6157733,45.7648018],[9.6151888,45.7647552],[9.614805,45.7646339],[9.614453,45.7647159],[9.6140411,45.7652352],[9.6137846,45.7653716],[9.6131581,45.765446],[9.6129078,45.7655618],[9.612727,45.7657527],[9.6125488,45.7661424],[9.6117138,45.7665519],[9.6095494,45.7667449],[9.6090166,45.7659176],[9.6086803,45.7656702],[9.6078692,45.7653431],[9.6067677,45.7650566],[9.6062579,45.7645128],[9.6060565,45.7640726],[9.6066072,45.7633902],[9.6064285,45.763206],[9.6056088,45.7627028],[9.604636,45.762244],[9.6042989,45.7616489],[9.6042731,45.7614112],[9.6044784,45.7608063]]]},"properties":{"type":"boundary","gemeente":"Villa d'Almè"}}]}