{"type":"FeatureCollection","metadata":{"gemeente":"Villaverla","slug":"villaverla","generated_at":"2026-09-26T13:10:56.051732Z","total_points":18,"providers":["PosteItaliane","DPD","InPost","GLS","DHL","Amazon"],"bounds":[11.4919,45.640421,11.529297,45.654349]},"features":[{"type":"Feature","geometry":{"type":"Point","coordinates":[11.49310982,45.65434863]},"properties":{"type":"pakketpunt","locatieNaam":"Villaverla","straatNaam":"Via Delle Ciminiere","straatNr":"12","vervoerder":"PosteItaliane","puntType":"postkantoor","bezettingsgraad":50,"latitude":45.65434863,"longitude":11.49310982,"canPickup":true,"canDropoff":true,"openingstijden":{"za":"08:20 - 12:35","zo":"gesloten","ma":"08:20 - 13:35","di":"08:20 - 13:35","wo":"08:20 - 13:35","do":"08:20 - 13:35","vr":"08:20 - 13:35"}}},{"type":"Feature","geometry":{"type":"Point","coordinates":[11.49294621,45.65339059]},"properties":{"type":"pakketpunt","locatieNaam":"Tabaccheria N. 4","straatNaam":"Via Villaggio Verlato","straatNr":"30","vervoerder":"PosteItaliane","puntType":"servicepunt","bezettingsgraad":50,"latitude":45.65339059,"longitude":11.49294621,"canPickup":true,"canDropoff":true,"openingstijden":{"za":"06:45 - 12:30, 15:30 - 19:00","zo":"gesloten","ma":"06:45 - 12:30, 15:30 - 19:00","di":"06:45 - 12:30, 15:30 - 19:00","wo":"06:45 - 12:30","do":"06:45 - 12:30, 15:30 - 19:00","vr":"06:45 - 12:30, 15:30 - 19:00"}}},{"type":"Feature","geometry":{"type":"Point","coordinates":[11.49190484,45.65081073]},"properties":{"type":"pakketpunt","locatieNaam":"Tabaccheria N. 3","straatNaam":"Via Cardinale Elia Dalla Costa","straatNr":"29","vervoerder":"PosteItaliane","puntType":"servicepunt","bezettingsgraad":50,"latitude":45.65081073,"longitude":11.49190484,"canPickup":true,"canDropoff":true,"openingstijden":{"za":"07:30 - 12:30, 15:30 - 19:00","zo":"gesloten","ma":"07:30 - 12:30, 15:30 - 19:00","di":"07:30 - 12:30, 15:30 - 19:00","wo":"07:30 - 12:30, 15:30 - 19:00","do":"07:30 - 12:30, 15:30 - 19:00","vr":"07:30 - 12:30, 15:30 - 19:00"}}},{"type":"Feature","geometry":{"type":"Point","coordinates":[11.49387419,45.65052486]},"properties":{"type":"pakketpunt","locatieNaam":"Tabaccheria N. 1","straatNaam":"Piazza Del Popolo","straatNr":"35","vervoerder":"PosteItaliane","puntType":"servicepunt","bezettingsgraad":50,"latitude":45.65052486,"longitude":11.49387419,"canPickup":true,"canDropoff":true,"openingstijden":{"za":"08:00 - 13:00","zo":"gesloten","ma":"08:00 - 12:30, 15:30 - 19:00","di":"08:00 - 12:30, 15:30 - 19:00","wo":"08:00 - 12:30, 15:30 - 19:00","do":"08:00 - 12:30, 15:30 - 19:00","vr":"08:00 - 12:30, 15:30 - 19:00"}}},{"type":"Feature","geometry":{"type":"Point","coordinates":[11.494051,45.650585]},"properties":{"type":"pakketpunt","locatieNaam":"Azimut Di Perocco Andrea","straatNaam":"PIAZZA DEL POPOLO","straatNr":"35","vervoerder":"DPD","puntType":"pickup_point","bezettingsgraad":50,"latitude":45.650585,"longitude":11.494051,"canPickup":true,"canDropoff":true,"openingstijden":{"ma":"07:30 - 12:30, 15:30 - 19:00","di":"07:30 - 12:30, 15:30 - 19:00","wo":"07:30 - 12:30, 15:30 - 19:00","do":"07:30 - 12:30, 15:30 - 19:00","vr":"07:30 - 12:30, 15:30 - 19:00","za":"08:00 - 13:00","zo":"gesloten"}}},{"type":"Feature","geometry":{"type":"Point","coordinates":[11.49404,45.65074]},"properties":{"type":"pakketpunt","locatieNaam":"InPost Point","straatNaam":"Piazza del Popolo","straatNr":"35","vervoerder":"InPost","puntType":"servicepunt","bezettingsgraad":50,"latitude":45.65074,"longitude":11.49404,"canPickup":true,"canDropoff":true,"openingstijden":"Lun-Ven: 07:30 - 12:30 - 15:30 - 19:00 Sab: 08:00 - 13:00"}},{"type":"Feature","geometry":{"type":"Point","coordinates":[11.494051,45.650585]},"properties":{"type":"pakketpunt","locatieNaam":"TABACCHERIA AZIMUT","straatNaam":"Piazza Del Popolo","straatNr":"35","vervoerder":"GLS","puntType":"parcel_shop","bezettingsgraad":50,"latitude":45.650585,"longitude":11.494051,"canPickup":true,"canDropoff":true,"openingstijden":"za: 08:00 - 13:00; ma: 07:30 - 12:30, 15:30 - 19:00"}},{"type":"Feature","geometry":{"type":"Point","coordinates":[11.491905,45.650811]},"properties":{"type":"pakketpunt","locatieNaam":"TABACCHERIA N. 3","straatNaam":"VIA CARDINALE ELIA DALLA COSTA 29","straatNr":"","vervoerder":"DHL","puntType":"parcelShop","bezettingsgraad":50,"latitude":45.650811,"longitude":11.491905,"canPickup":true,"canDropoff":true,"openingstijden":{"ma":"07:30 - 12:30, 15:30 - 19:00","di":"07:30 - 12:30, 15:30 - 19:00","wo":"07:30 - 12:30, 15:30 - 19:00","do":"07:30 - 12:30, 15:30 - 19:00","vr":"07:30 - 12:30, 15:30 - 19:00","za":"07:30 - 12:30, 15:30 - 19:00","zo":"gesloten"}}},{"type":"Feature","geometry":{"type":"Point","coordinates":[11.49196,45.65081]},"properties":{"type":"pakketpunt","locatieNaam":"TABACCHERIA BRAZZALE NICOLETTA","straatNaam":"Via Cardinale Dalla Costa, 29","straatNr":"","vervoerder":"DHL","puntType":"parcelShop","bezettingsgraad":50,"latitude":45.65081,"longitude":11.49196,"canPickup":false,"canDropoff":true,"openingstijden":{"ma":"07:30 - 19:00","di":"07:30 - 19:00","wo":"07:30 - 19:00","do":"07:30 - 19:00","vr":"07:30 - 19:00","za":"07:30 - 19:00","zo":"gesloten"}}},{"type":"Feature","geometry":{"type":"Point","coordinates":[11.492946,45.653391]},"properties":{"type":"pakketpunt","locatieNaam":"TABACCHERIA N. 4","straatNaam":"VIA VILLAGGIO VERLATO 30","straatNr":"","vervoerder":"DHL","puntType":"parcelShop","bezettingsgraad":50,"latitude":45.653391,"longitude":11.492946,"canPickup":true,"canDropoff":true,"openingstijden":{"ma":"06:45 - 12:30, 15:30 - 19:00","di":"06:45 - 12:30, 15:30 - 19:00","wo":"06:45 - 12:30","do":"06:45 - 12:30, 15:30 - 19:00","vr":"06:45 - 12:30, 15:30 - 19:00","za":"06:45 - 12:30, 15:30 - 19:00","zo":"gesloten"}}},{"type":"Feature","geometry":{"type":"Point","coordinates":[11.49311,45.654349]},"properties":{"type":"pakketpunt","locatieNaam":"Ufficio Postale VILLAVERLA","straatNaam":"VIA DELLE CIMINIERE 12","straatNr":"","vervoerder":"DHL","puntType":"postOffice","bezettingsgraad":50,"latitude":45.654349,"longitude":11.49311,"canPickup":true,"canDropoff":true,"openingstijden":{"ma":"08:20 - 13:35","di":"08:20 - 13:35","wo":"08:20 - 13:35","do":"08:20 - 13:35","vr":"08:20 - 13:35","za":"08:20 - 12:35","zo":"gesloten"}}},{"type":"Feature","geometry":{"type":"Point","coordinates":[11.493874,45.650525]},"properties":{"type":"pakketpunt","locatieNaam":"TABACCHERIA n. 1","straatNaam":"PIAZZA DEL POPOLO 35","straatNr":"","vervoerder":"DHL","puntType":"parcelShop","bezettingsgraad":50,"latitude":45.650525,"longitude":11.493874,"canPickup":true,"canDropoff":true,"openingstijden":{"ma":"08:00 - 12:30, 15:30 - 19:00","di":"08:00 - 12:30, 15:30 - 19:00","wo":"08:00 - 12:30, 15:30 - 19:00","do":"08:00 - 12:30, 15:30 - 19:00","vr":"08:00 - 12:30, 15:30 - 19:00","za":"08:00 - 13:00","zo":"gesloten"}}},{"type":"Feature","geometry":{"type":"Point","coordinates":[11.4939,45.6506]},"properties":{"type":"pakketpunt","locatieNaam":"AZIMUT","straatNaam":"Piazza Del Popolo 35","straatNr":"","vervoerder":"DHL","puntType":"parcelShop","bezettingsgraad":50,"latitude":45.6506,"longitude":11.4939,"canPickup":false,"canDropoff":true,"openingstijden":{"ma":"07:30 - 19:00","di":"07:30 - 19:00","wo":"07:30 - 19:00","do":"07:30 - 19:00","vr":"07:30 - 19:00","za":"gesloten","zo":"gesloten"}}},{"type":"Feature","geometry":{"type":"Point","coordinates":[11.529297,45.640421]},"properties":{"type":"pakketpunt","locatieNaam":"Amazon Locker - cipriana","straatNaam":"Ferlini Carburanti - Villaverla","straatNr":"","vervoerder":"Amazon","puntType":"locker","bezettingsgraad":50,"latitude":45.640421,"longitude":11.529297,"canPickup":true,"canDropoff":false,"openingstijden":null}},{"type":"Feature","geometry":{"type":"Point","coordinates":[11.49406,45.65058]},"properties":{"type":"pakketpunt","locatieNaam":"Amazon Counter - AZIMUT DI PEROCCO ANDREA","straatNaam":"PIAZZA DEL POPOLO 35","straatNr":"","vervoerder":"Amazon","puntType":"helix","bezettingsgraad":50,"latitude":45.65058,"longitude":11.49406,"canPickup":true,"canDropoff":false,"openingstijden":null}},{"type":"Feature","geometry":{"type":"Point","coordinates":[11.49196,45.650816]},"properties":{"type":"pakketpunt","locatieNaam":"Amazon Counter - BRAZZALE NICOLETTA","straatNaam":"VIA CARDINALE ELIA DALLA COSTA 29","straatNr":"","vervoerder":"Amazon","puntType":"helix","bezettingsgraad":50,"latitude":45.650816,"longitude":11.49196,"canPickup":true,"canDropoff":false,"openingstijden":null}},{"type":"Feature","geometry":{"type":"Point","coordinates":[11.4919,45.6508]},"properties":{"type":"pakketpunt","locatieNaam":"PuntoPoste TABACCHERIA N. 3","straatNaam":"VIA CARDINALE ELIA DALLA COSTA 29","straatNr":"","vervoerder":"Amazon","puntType":"3p","bezettingsgraad":50,"latitude":45.6508,"longitude":11.4919,"canPickup":true,"canDropoff":false,"openingstijden":null}},{"type":"Feature","geometry":{"type":"Point","coordinates":[11.4931,45.6543]},"properties":{"type":"pakketpunt","locatieNaam":"Ufficio Postale VILLAVERLA","straatNaam":"VIA DELLE CIMINIERE 12","straatNr":"","vervoerder":"Amazon","puntType":"3p","bezettingsgraad":50,"latitude":45.6543,"longitude":11.4931,"canPickup":true,"canDropoff":false,"openingstijden":null}},{"type":"Feature","geometry":{"type":"Polygon","coordinates":[[[11.4618622,45.6486316],[11.4629876,45.6483775],[11.4677163,45.6461964],[11.471166,45.6437961],[11.4742721,45.641818],[11.4752609,45.6412731],[11.4757561,45.6406566],[11.4766394,45.6401364],[11.4778962,45.639623],[11.4787597,45.6393799],[11.4797095,45.6394041],[11.4825825,45.6400297],[11.4841002,45.6393275],[11.4850758,45.6382458],[11.4861444,45.6366911],[11.4873186,45.6353937],[11.4879509,45.6339117],[11.4894122,45.6331129],[11.4908457,45.6325143],[11.4915769,45.6323281],[11.4916602,45.6323263],[11.4917261,45.6324446],[11.491845,45.6344397],[11.4922381,45.6369228],[11.4924271,45.6375144],[11.4926474,45.6391663],[11.4928218,45.6395636],[11.4930941,45.6406247],[11.4935395,45.640619],[11.4941355,45.6407926],[11.4988287,45.6425466],[11.4990009,45.6427479],[11.5011407,45.6435756],[11.5039144,45.6445565],[11.5046007,45.6446723],[11.5070626,45.6399563],[11.5084859,45.6375615],[11.5087722,45.6361493],[11.5093453,45.6357869],[11.5095345,45.635536],[11.5099138,45.6352904],[11.5100789,45.6350875],[11.5105078,45.6349431],[11.5110398,45.6345906],[11.5118,45.633715],[11.5122929,45.6332865],[11.5129385,45.6322359],[11.5132004,45.6320228],[11.514342,45.6315831],[11.5135704,45.630805],[11.5147218,45.6302883],[11.5152447,45.6299386],[11.5153098,45.6297509],[11.5152739,45.6293926],[11.5161048,45.6284319],[11.5166331,45.6260559],[11.5187118,45.624119],[11.5193211,45.6236884],[11.5198144,45.6231915],[11.5209473,45.6224005],[11.5211122,45.6220908],[11.5216382,45.6219376],[11.5230925,45.6212423],[11.5236004,45.620227],[11.5271122,45.6196532],[11.5281628,45.6192357],[11.529463,45.618543],[11.5298727,45.61821],[11.5309733,45.6176545],[11.5312877,45.6176819],[11.5320576,45.6180403],[11.5328054,45.6179442],[11.5333597,45.6180219],[11.5335099,45.6181553],[11.5335582,45.6182929],[11.5333048,45.6184368],[11.5333906,45.6187134],[11.5331991,45.6191381],[11.5323597,45.6198271],[11.5326098,45.6201725],[11.5321157,45.6202209],[11.53168,45.6207604],[11.5314596,45.620843],[11.5313423,45.6224617],[11.5306091,45.6231302],[11.5304982,45.6236329],[11.5300441,45.6243278],[11.5300464,45.6245343],[11.5303398,45.6250555],[11.5302501,45.6251782],[11.5297694,45.6252159],[11.5296099,45.6256857],[11.5289383,45.6256675],[11.5287385,45.62589],[11.5286198,45.6274387],[11.5288122,45.627625],[11.529482,45.6279942],[11.5290244,45.6283397],[11.528898,45.6286939],[11.5283419,45.6289416],[11.5281844,45.6291871],[11.5283118,45.6301368],[11.5288141,45.6307156],[11.5287338,45.6310918],[11.5288467,45.6315734],[11.5297423,45.6318778],[11.5305465,45.6320487],[11.5307734,45.632229],[11.530917,45.63282],[11.5313772,45.6334505],[11.5315867,45.6336868],[11.5324931,45.6343043],[11.5324482,45.6347245],[11.5326575,45.634828],[11.5326523,45.6351992],[11.5327829,45.63552],[11.5327428,45.6358795],[11.5324145,45.6364644],[11.5315578,45.6393905],[11.5314584,45.6400523],[11.5309415,45.6413377],[11.5293667,45.6462704],[11.5305657,45.6476171],[11.5311466,45.648442],[11.5290217,45.651762],[11.5283624,45.6516446],[11.5278696,45.6525098],[11.5284304,45.6529606],[11.5272383,45.6540834],[11.5269102,45.6546505],[11.526353,45.6551606],[11.5254799,45.6557787],[11.5231893,45.6556062],[11.5225602,45.6554733],[11.5210818,45.6551323],[11.5211038,45.6547908],[11.5175039,45.6547031],[11.5175693,45.6561348],[11.5174387,45.6562346],[11.5167743,45.6564075],[11.5151461,45.6552059],[11.5149674,45.65532],[11.514928,45.6554437],[11.5150041,45.6559505],[11.5146406,45.6558392],[11.5128162,45.6548237],[11.5121422,45.6546531],[11.5118538,45.6566647],[11.5120467,45.6569568],[11.5115785,45.6571011],[11.510499,45.6576349],[11.5101327,45.6577121],[11.5092184,45.6578118],[11.5073899,45.6578587],[11.5066929,45.6580774],[11.5067217,45.6599007],[11.5065492,45.6608713],[11.5066316,45.6616128],[11.5062083,45.6641809],[11.5061,45.6644764],[11.505853,45.6645655],[11.5056186,45.6651311],[11.5054452,45.6659096],[11.5052731,45.6673277],[11.5052147,45.6689362],[11.5046318,45.6688885],[11.5041724,45.6720882],[11.5030625,45.6726874],[11.5027088,45.6725184],[11.5024068,45.6721913],[11.4999903,45.6703343],[11.4966228,45.6670756],[11.4954341,45.6669261],[11.4951148,45.6667833],[11.4913708,45.6636603],[11.4903325,45.6629207],[11.4901275,45.6626029],[11.4894864,45.6619982],[11.4891493,45.6617899],[11.4888428,45.6613557],[11.4883377,45.6609213],[11.4875846,45.6600868],[11.4865736,45.6595378],[11.4854788,45.6604975],[11.4826346,45.6625691],[11.4810806,45.6644743],[11.4807535,45.6650378],[11.4787625,45.6671261],[11.4774902,45.6669327],[11.474891,45.6659979],[11.4733149,45.6652122],[11.472349,45.6649786],[11.4717403,45.6649419],[11.4680328,45.6637272],[11.46575,45.663047],[11.4654805,45.6630287],[11.464825,45.6626925],[11.4596772,45.6607869],[11.4593631,45.6605376],[11.4588192,45.6607038],[11.4584425,45.660596],[11.4549719,45.659224],[11.4528282,45.658474],[11.4555545,45.6555543],[11.4585626,45.6520921],[11.4590751,45.6516503],[11.459653,45.6509067],[11.4609778,45.6494715],[11.4613169,45.6492331],[11.4616961,45.6491178],[11.4618349,45.6489722],[11.4618622,45.6486316]]]},"properties":{"type":"boundary","gemeente":"Villaverla"}}]}