{"type":"FeatureCollection","metadata":{"gemeente":"Villa Cortese","slug":"villa-cortese","generated_at":"2026-09-26T14:28:13.926649Z","total_points":10,"providers":["PosteItaliane","DPD","InPost","GLS","DHL","Amazon","FedEx"],"bounds":[8.878012,45.565357,8.8976137,45.56702]},"features":[{"type":"Feature","geometry":{"type":"Point","coordinates":[8.88908058,45.56558303]},"properties":{"type":"pakketpunt","locatieNaam":"Villa Cortese","straatNaam":"Via Alberto Da Giussano","straatNr":"3/a","vervoerder":"PosteItaliane","puntType":"postkantoor","bezettingsgraad":50,"latitude":45.56558303,"longitude":8.88908058,"canPickup":true,"canDropoff":true,"openingstijden":{"za":"08:20 - 12:35","zo":"gesloten","ma":"08:20 - 13:35","di":"08:20 - 13:35","wo":"08:20 - 13:35","do":"08:20 - 13:35","vr":"08:20 - 13:35"}}},{"type":"Feature","geometry":{"type":"Point","coordinates":[8.88641715,45.56692564]},"properties":{"type":"pakketpunt","locatieNaam":"Orsetto Moda 0-16","straatNaam":"Via Pacinotti","straatNr":"1","vervoerder":"PosteItaliane","puntType":"servicepunt","bezettingsgraad":50,"latitude":45.56692564,"longitude":8.88641715,"canPickup":true,"canDropoff":true,"openingstijden":{"za":"09:30 - 12:30","zo":"gesloten","ma":"16:00 - 19:00","di":"09:30 - 12:00, 15:30 - 19:00","wo":"09:30 - 12:00, 15:30 - 19:00","do":"09:30 - 12:00, 15:30 - 19:00","vr":"09:30 - 12:00, 15:30 - 19:00"}}},{"type":"Feature","geometry":{"type":"Point","coordinates":[8.8864396,45.5668622]},"properties":{"type":"pakketpunt","locatieNaam":"L'Orsetto 0-16","straatNaam":"VIA PACINOTTI","straatNr":"1","vervoerder":"DPD","puntType":"pickup_point","bezettingsgraad":50,"latitude":45.5668622,"longitude":8.8864396,"canPickup":true,"canDropoff":true,"openingstijden":{"ma":"15:45 - 19:15","di":"09:15 - 12:15, 15:45 - 19:15","wo":"09:15 - 12:15, 15:45 - 19:15","do":"09:15 - 12:15, 15:45 - 19:15","vr":"09:15 - 12:15, 15:45 - 19:15","za":"09:15 - 17:00","zo":"gesloten"}}},{"type":"Feature","geometry":{"type":"Point","coordinates":[8.88647,45.56702]},"properties":{"type":"pakketpunt","locatieNaam":"InPost Point","straatNaam":"Via A. Pacinotti","straatNr":"1","vervoerder":"InPost","puntType":"servicepunt","bezettingsgraad":50,"latitude":45.56702,"longitude":8.88647,"canPickup":true,"canDropoff":true,"openingstijden":"Lun: 15:45 - 19:15 Mar-Ven: 09:15 - 12:15 - 15:45 - 19:15 Sab: 09:15 - 17:00"}},{"type":"Feature","geometry":{"type":"Point","coordinates":[8.8864396,45.5668622]},"properties":{"type":"pakketpunt","locatieNaam":"0/16 L'ORSETTO MODA 016","straatNaam":"Via Pacinotti","straatNr":"1","vervoerder":"GLS","puntType":"parcel_shop","bezettingsgraad":50,"latitude":45.5668622,"longitude":8.8864396,"canPickup":true,"canDropoff":true,"openingstijden":"za: 09:00 - 19:30; ma: 16:00 - 19:00"}},{"type":"Feature","geometry":{"type":"Point","coordinates":[8.878012,45.565357]},"properties":{"type":"pakketpunt","locatieNaam":"L orsetto moda 0/16","straatNaam":"Via Pacinotti 1","straatNr":"","vervoerder":"DHL","puntType":"parcelShop","bezettingsgraad":50,"latitude":45.565357,"longitude":8.878012,"canPickup":false,"canDropoff":true,"openingstijden":{"ma":"09:15 - 12:30","di":"09:15 - 19:15","wo":"09:15 - 19:15","do":"09:15 - 19:15","vr":"09:15 - 19:15","za":"09:30 - 17:00","zo":"gesloten"}}},{"type":"Feature","geometry":{"type":"Point","coordinates":[8.889081,45.565583]},"properties":{"type":"pakketpunt","locatieNaam":"Ufficio Postale VILLA CORTESE","straatNaam":"VIA ALBERTO DA GIUSSANO 3-A","straatNr":"","vervoerder":"DHL","puntType":"postOffice","bezettingsgraad":50,"latitude":45.565583,"longitude":8.889081,"canPickup":true,"canDropoff":true,"openingstijden":{"ma":"08:20 - 13:35","di":"08:20 - 13:35","wo":"08:20 - 13:35","do":"08:20 - 13:35","vr":"08:20 - 13:35","za":"08:20 - 12:35","zo":"gesloten"}}},{"type":"Feature","geometry":{"type":"Point","coordinates":[8.886417,45.566926]},"properties":{"type":"pakketpunt","locatieNaam":"ORSETTO MODA 0-16","straatNaam":"VIA PACINOTTI 1","straatNr":"","vervoerder":"DHL","puntType":"parcelShop","bezettingsgraad":50,"latitude":45.566926,"longitude":8.886417,"canPickup":true,"canDropoff":true,"openingstijden":{"ma":"16:00 - 19:00","di":"09:30 - 12:00, 15:30 - 19:00","wo":"09:30 - 12:00, 15:30 - 19:00","do":"09:30 - 12:00, 15:30 - 19:00","vr":"09:30 - 12:00, 15:30 - 19:00","za":"09:30 - 12:30","zo":"gesloten"}}},{"type":"Feature","geometry":{"type":"Point","coordinates":[8.8976137,45.5656625]},"properties":{"type":"pakketpunt","locatieNaam":"Amazon Locker - orzo","straatNaam":"Tigros Villa Cortese","straatNr":"","vervoerder":"Amazon","puntType":"locker","bezettingsgraad":50,"latitude":45.5656625,"longitude":8.8976137,"canPickup":true,"canDropoff":false,"openingstijden":null}},{"type":"Feature","geometry":{"type":"Point","coordinates":[8.88644,45.566862]},"properties":{"type":"pakketpunt","locatieNaam":"FedEx OnSite","straatNaam":"via pacinotti, 1","straatNr":"","vervoerder":"FedEx","puntType":"servicepunt","bezettingsgraad":50,"latitude":45.566862,"longitude":8.88644,"canPickup":true,"canDropoff":true,"openingstijden":{"ma":"16:00 - 19:00","di":"09:00 - 12:00, 16:00 - 19:30","wo":"09:00 - 12:00, 16:00 - 19:30","do":"09:00 - 12:00, 16:00 - 19:30","vr":"09:00 - 12:00, 16:00 - 19:30","za":"09:00 - 19:30","zo":"gesloten"}}},{"type":"Feature","geometry":{"type":"Polygon","coordinates":[[[8.8739891,45.5605521],[8.8764373,45.5586826],[8.8779318,45.5578291],[8.8796833,45.556002],[8.8798124,45.5557803],[8.8799308,45.555115],[8.8827924,45.5564986],[8.8832825,45.555976],[8.8911059,45.5600404],[8.8927457,45.5573763],[8.895693,45.5579815],[8.8972245,45.5584499],[8.8987037,45.5590418],[8.8975377,45.5608095],[8.8984533,45.5611478],[8.8991681,45.5599873],[8.8997315,45.5601633],[8.8982848,45.5621918],[8.8987409,45.5623857],[8.9009343,45.5629457],[8.9024663,45.5634465],[8.9021981,45.5638558],[8.901505,45.5635987],[8.9008191,45.5647187],[8.9002043,45.5645427],[8.899316,45.5659776],[8.8979125,45.5679071],[8.8974388,45.568692],[8.8958187,45.5680042],[8.8951068,45.5692547],[8.8944918,45.5691686],[8.8942333,45.5695014],[8.8938425,45.5702976],[8.8960485,45.5710872],[8.8953271,45.5722522],[8.8935409,45.5739832],[8.8928684,45.5737486],[8.892289,45.5743421],[8.8918856,45.5741572],[8.8906828,45.5756412],[8.8897609,45.5752173],[8.8889255,45.5763911],[8.8886149,45.5762918],[8.888099,45.5771014],[8.8871978,45.5770068],[8.88579,45.5788678],[8.8843232,45.5784658],[8.8827463,45.5778792],[8.8818064,45.5791293],[8.8827302,45.5794858],[8.8822241,45.580894],[8.8812234,45.5805734],[8.8808604,45.5810051],[8.8797018,45.5803288],[8.8799861,45.5800006],[8.8792001,45.5796667],[8.8801079,45.5784795],[8.8810875,45.5774139],[8.8800692,45.5770798],[8.8808943,45.575573],[8.8780332,45.574697],[8.8788314,45.5730596],[8.8792582,45.5723811],[8.8772068,45.5716178],[8.8758216,45.5713958],[8.8745712,45.5710974],[8.8753916,45.5695456],[8.8751643,45.5694778],[8.8757029,45.5685558],[8.8711567,45.5671737],[8.8708848,45.5669979],[8.8709012,45.5664505],[8.8711583,45.565765],[8.8721012,45.5660091],[8.8759189,45.5650457],[8.8769008,45.5628325],[8.8763908,45.5623909],[8.8755095,45.5618274],[8.8739891,45.5605521]]]},"properties":{"type":"boundary","gemeente":"Villa Cortese"}}]}