{"type":"FeatureCollection","metadata":{"gemeente":"Vistrorio","slug":"vistrorio","generated_at":"2026-09-26T13:10:56.673943Z","total_points":2,"providers":["PosteItaliane","DPD"],"bounds":[7.76924453,45.44114232,7.7696811,45.4414018]},"features":[{"type":"Feature","geometry":{"type":"Point","coordinates":[7.76924453,45.44114232]},"properties":{"type":"pakketpunt","locatieNaam":"Vistrorio","straatNaam":"Via Giuseppe Garibaldi","straatNr":"28/2","vervoerder":"PosteItaliane","puntType":"postkantoor","bezettingsgraad":50,"latitude":45.44114232,"longitude":7.76924453,"canPickup":true,"canDropoff":true,"openingstijden":{"za":"gesloten","zo":"gesloten","ma":"08:20 - 13:45","di":"gesloten","wo":"08:20 - 13:45","do":"gesloten","vr":"08:20 - 13:45"}}},{"type":"Feature","geometry":{"type":"Point","coordinates":[7.7696811,45.4414018]},"properties":{"type":"pakketpunt","locatieNaam":"Bar Nazionale","straatNaam":"LARGO MENTANA","straatNr":"3","vervoerder":"DPD","puntType":"pickup_point","bezettingsgraad":50,"latitude":45.4414018,"longitude":7.7696811,"canPickup":true,"canDropoff":true,"openingstijden":{"ma":"gesloten","di":"07:00 - 21:30","wo":"07:00 - 21:30","do":"07:00 - 21:30","vr":"07:00 - 23:00","za":"08:00 - 23:00","zo":"08:00 - 23:00"}}},{"type":"Feature","geometry":{"type":"MultiPolygon","coordinates":[[[[7.6921991,45.4876889],[7.6923535,45.4880147],[7.6926966,45.4901249],[7.693185,45.4915032],[7.6943833,45.4927635],[7.6964899,45.4926211],[7.6973356,45.4924867],[7.6982422,45.4925781],[7.7005392,45.4922757],[7.7028064,45.492468],[7.7029744,45.4921683],[7.7031973,45.4913968],[7.7032786,45.4905741],[7.7040972,45.4897058],[7.7043645,45.4890697],[7.7044939,45.487262],[7.704208,45.4864756],[7.7040487,45.4862398],[7.70287,45.4857089],[7.7027484,45.485586],[7.7030749,45.4849191],[7.7028597,45.4843991],[7.7027895,45.4836242],[7.7026644,45.4831862],[7.7019445,45.4826154],[7.7017011,45.4822121],[7.7013811,45.4816234],[7.701163,45.4807613],[7.7008754,45.480209],[7.7009504,45.4799758],[7.7016276,45.4791779],[7.6993357,45.4798404],[7.6988747,45.4801682],[7.6987052,45.4804948],[7.6987183,45.4809855],[7.6986214,45.4814615],[7.698671,45.4815836],[7.6981741,45.4831576],[7.6972421,45.4840381],[7.6948995,45.485672],[7.6950427,45.4857187],[7.6945307,45.4862124],[7.693671,45.4865356],[7.6929797,45.4869148],[7.6921991,45.4876889]]],[[[7.7382523,45.4540251],[7.7386674,45.4543222],[7.7388235,45.454774],[7.7397887,45.4556578],[7.7400793,45.455814],[7.741146,45.4561588],[7.7424592,45.4557682],[7.7432075,45.4549034],[7.7428027,45.4541248],[7.7429278,45.4531001],[7.7434318,45.4528626],[7.7444249,45.4519464],[7.7426838,45.4512386],[7.7426388,45.4514497],[7.7421961,45.4520344],[7.7413064,45.4523981],[7.7409655,45.4529884],[7.7406411,45.4533449],[7.7386504,45.4534174],[7.7385736,45.4538126],[7.738427,45.453973],[7.7382523,45.4540251]]],[[[7.7440189,45.4362799],[7.7439338,45.4363914],[7.7439707,45.4369229],[7.7445274,45.4374736],[7.7452954,45.4379951],[7.7461008,45.4383595],[7.7467506,45.4381011],[7.746823,45.4377373],[7.7476814,45.4377468],[7.7478991,45.4384557],[7.7483692,45.4390055],[7.7485141,45.4391016],[7.7489296,45.4387056],[7.7493649,45.4387688],[7.7502709,45.4391928],[7.7502247,45.4397144],[7.7503168,45.4397919],[7.7511063,45.4401381],[7.752155,45.4403116],[7.7533269,45.44131],[7.7537233,45.4418724],[7.7551523,45.4419375],[7.7556454,45.4420464],[7.7559982,45.4418477],[7.7567711,45.4418066],[7.7578564,45.4420569],[7.7583109,45.4420529],[7.7586767,45.4422594],[7.7589664,45.442132],[7.7596126,45.442148],[7.7597782,45.4431085],[7.7600151,45.4439301],[7.7606946,45.4447431],[7.7607203,45.4452835],[7.760649,45.4454717],[7.7604687,45.4456408],[7.7596041,45.4461085],[7.7589816,45.4467408],[7.7588495,45.4469554],[7.7587935,45.4472653],[7.7588443,45.4476259],[7.7589839,45.4479875],[7.7592129,45.448278],[7.7595796,45.4485745],[7.7604339,45.4490159],[7.7610118,45.4494182],[7.7611507,45.4496087],[7.7612567,45.4502219],[7.7619266,45.4504362],[7.7620075,45.4502481],[7.762955,45.4496103],[7.7631837,45.4490907],[7.7639204,45.4493237],[7.7645398,45.4490693],[7.7654776,45.4494575],[7.7660226,45.4490944],[7.766848,45.4493643],[7.7673548,45.4489917],[7.7666794,45.4488854],[7.7668654,45.4485634],[7.7667226,45.4474907],[7.7671574,45.4469013],[7.7677563,45.4466873],[7.7679142,45.4465585],[7.7681628,45.4465341],[7.7684112,45.4462848],[7.7691702,45.4460769],[7.7692249,45.4459155],[7.7697136,45.4457858],[7.7701099,45.44579],[7.7704675,45.4458119],[7.7706823,45.4459312],[7.770878,45.4457533],[7.7711091,45.4457108],[7.7721816,45.4457853],[7.7722138,45.4454796],[7.7727517,45.4454404],[7.7735488,45.4452419],[7.7738546,45.4447051],[7.7740583,45.4435642],[7.7733754,45.4432148],[7.772639,45.4429729],[7.7725233,45.4425306],[7.7723176,45.4424653],[7.7724892,45.4422151],[7.7727492,45.4420199],[7.7741731,45.4412161],[7.774382,45.4404262],[7.7749434,45.4398922],[7.7752171,45.439058],[7.7750597,45.4386513],[7.7749077,45.4385866],[7.7744078,45.4385903],[7.7740294,45.4384062],[7.7746744,45.4381431],[7.7745123,45.4379523],[7.7753099,45.4377268],[7.7751883,45.4374375],[7.7762056,45.4365123],[7.7762472,45.4363597],[7.7761224,45.4359398],[7.7759414,45.4357173],[7.7759961,45.4349618],[7.7764284,45.4350745],[7.7764898,45.4351921],[7.7774231,45.4351931],[7.7775261,45.4351582],[7.7773506,45.4349943],[7.7778139,45.4348553],[7.7785736,45.4343278],[7.7792986,45.4341871],[7.7796791,45.4343262],[7.7797822,45.4342912],[7.7798362,45.4341568],[7.7797109,45.4340385],[7.7798656,45.4339771],[7.7793846,45.4337559],[7.7798275,45.4333736],[7.7799679,45.4333841],[7.7811684,45.4328478],[7.7801552,45.432405],[7.7789561,45.4322841],[7.7783736,45.4320259],[7.7778581,45.4316243],[7.7772378,45.4313386],[7.7764609,45.4312043],[7.775585,45.4309159],[7.7751792,45.4307675],[7.7751329,45.430542],[7.7738243,45.4301679],[7.773661,45.4300311],[7.7730251,45.4298803],[7.7726336,45.42966],[7.7712221,45.4287267],[7.7714419,45.4286121],[7.771216,45.4278265],[7.7701013,45.4273555],[7.7699716,45.4274441],[7.7695466,45.4269985],[7.7697147,45.4269103],[7.7692979,45.4266807],[7.7690936,45.4266695],[7.7679016,45.4256395],[7.766979,45.425193],[7.7652923,45.4245402],[7.7641594,45.4237359],[7.7642123,45.4224853],[7.7636205,45.4219095],[7.7626568,45.4217213],[7.7621144,45.4213914],[7.7607932,45.421017],[7.7603377,45.4208051],[7.7597892,45.4207541],[7.7593493,45.4206168],[7.7591182,45.4206973],[7.7586816,45.420553],[7.7583148,45.420378],[7.7577111,45.4199304],[7.7564427,45.4194845],[7.7563132,45.4195948],[7.7562567,45.4198065],[7.7556827,45.4197553],[7.7550181,45.419172],[7.7530588,45.4181785],[7.7528717,45.4179694],[7.7529121,45.4184559],[7.7534522,45.4194699],[7.7532592,45.4201069],[7.7536677,45.4212905],[7.7537124,45.421588],[7.7536366,45.4221273],[7.7537239,45.4228033],[7.7538995,45.4229583],[7.7549005,45.4233562],[7.7552602,45.4238282],[7.7556507,45.4241205],[7.7579758,45.4265132],[7.7597293,45.4281614],[7.7609829,45.4292912],[7.7622802,45.4301784],[7.7624668,45.4304144],[7.762772,45.4310748],[7.7627869,45.4315611],[7.7625443,45.4327196],[7.7623262,45.4333383],[7.7622888,45.433878],[7.7624475,45.4346735],[7.7632129,45.4366423],[7.7631749,45.437209],[7.7629314,45.4378184],[7.7596759,45.436469],[7.7579225,45.4362969],[7.7571455,45.4361309],[7.7548008,45.4361954],[7.7539753,45.4359973],[7.752535,45.4360131],[7.7496807,45.4358784],[7.7489476,45.4359199],[7.7487189,45.4358544],[7.7475408,45.4359405],[7.7466031,45.4361372],[7.7440189,45.4362799]]],[[[7.7497743,45.4511094],[7.7502046,45.4513707],[7.7508585,45.4519989],[7.751692,45.451792],[7.7518297,45.4511814],[7.7514604,45.4510019],[7.7508421,45.4501715],[7.7500452,45.4506083],[7.7497743,45.4511094]]]]},"properties":{"type":"boundary","gemeente":"Vistrorio"}}]}