{"type":"FeatureCollection","metadata":{"gemeente":"Vittoria","slug":"vittoria","generated_at":"2026-09-26T14:28:15.134172Z","total_points":146,"providers":["PosteItaliane","DPD","InPost","GLS","DHL","Amazon","FedEx"],"bounds":[14.430603,36.892,14.55502,37.025773]},"features":[{"type":"Feature","geometry":{"type":"Point","coordinates":[14.50510389,37.025773]},"properties":{"type":"pakketpunt","locatieNaam":"Stazione Di Servizio Giap","straatNaam":"Strada Provinciale 3 Snc","straatNr":"1","vervoerder":"PosteItaliane","puntType":"automaat","bezettingsgraad":50,"latitude":37.025773,"longitude":14.50510389,"canPickup":true,"canDropoff":true,"openingstijden":{"za":"00:01 - 23:59","zo":"00:01 - 23:59","ma":"00:01 - 23:59","di":"00:01 - 23:59","wo":"00:01 - 23:59","do":"00:01 - 23:59","vr":"00:01 - 23:59"}}},{"type":"Feature","geometry":{"type":"Point","coordinates":[14.5251187,36.95014421]},"properties":{"type":"pakketpunt","locatieNaam":"Tabaccheria N. 19","straatNaam":"Via Bologna","straatNr":"155","vervoerder":"PosteItaliane","puntType":"servicepunt","bezettingsgraad":50,"latitude":36.95014421,"longitude":14.5251187,"canPickup":true,"canDropoff":true,"openingstijden":{"za":"05:30 - 13:00, 16:00 - 20:30","zo":"05:30 - 13:00","ma":"05:30 - 13:00, 16:00 - 20:30","di":"05:30 - 13:00, 16:00 - 20:30","wo":"05:30 - 13:00, 16:00 - 20:30","do":"05:30 - 13:00, 16:00 - 20:30","vr":"05:30 - 13:00, 16:00 - 20:30"}}},{"type":"Feature","geometry":{"type":"Point","coordinates":[14.53660884,36.9514432]},"properties":{"type":"pakketpunt","locatieNaam":"Vittoria","straatNaam":"Via Giacomo Matteotti","straatNr":"187","vervoerder":"PosteItaliane","puntType":"postkantoor","bezettingsgraad":50,"latitude":36.9514432,"longitude":14.53660884,"canPickup":true,"canDropoff":true,"openingstijden":{"za":"08:20 - 12:35","zo":"gesloten","ma":"08:20 - 19:05","di":"08:20 - 19:05","wo":"08:20 - 19:05","do":"08:20 - 19:05","vr":"08:20 - 19:05"}}},{"type":"Feature","geometry":{"type":"Point","coordinates":[14.52870415,36.95525904]},"properties":{"type":"pakketpunt","locatieNaam":"Vittoria 1","straatNaam":"Piazza Italia","straatNr":"18/a","vervoerder":"PosteItaliane","puntType":"postkantoor","bezettingsgraad":50,"latitude":36.95525904,"longitude":14.52870415,"canPickup":true,"canDropoff":true,"openingstijden":{"za":"08:20 - 12:35","zo":"gesloten","ma":"08:20 - 19:05","di":"08:20 - 19:05","wo":"08:20 - 19:05","do":"08:20 - 19:05","vr":"08:20 - 19:05"}}},{"type":"Feature","geometry":{"type":"Point","coordinates":[14.5234966,36.95444581]},"properties":{"type":"pakketpunt","locatieNaam":"Vittoria 2","straatNaam":"Via Como","straatNr":"362","vervoerder":"PosteItaliane","puntType":"postkantoor","bezettingsgraad":50,"latitude":36.95444581,"longitude":14.5234966,"canPickup":true,"canDropoff":true,"openingstijden":{"za":"08:20 - 12:35","zo":"gesloten","ma":"08:20 - 13:35","di":"08:20 - 13:35","wo":"08:20 - 13:35","do":"08:20 - 13:35","vr":"08:20 - 13:35"}}},{"type":"Feature","geometry":{"type":"Point","coordinates":[14.43181226,36.89335962]},"properties":{"type":"pakketpunt","locatieNaam":"Scoglitti","straatNaam":"Via Napoli","straatNr":"61","vervoerder":"PosteItaliane","puntType":"postkantoor","bezettingsgraad":50,"latitude":36.89335962,"longitude":14.43181226,"canPickup":true,"canDropoff":true,"openingstijden":{"za":"08:20 - 12:45","zo":"gesloten","ma":"08:20 - 13:45","di":"08:20 - 13:45","wo":"08:20 - 13:45","do":"08:20 - 13:45","vr":"08:20 - 13:45"}}},{"type":"Feature","geometry":{"type":"Point","coordinates":[14.5468122,36.95604762]},"properties":{"type":"pakketpunt","locatieNaam":"Vittoria 3","straatNaam":"Via Rosario Giurato","straatNr":"8","vervoerder":"PosteItaliane","puntType":"postkantoor","bezettingsgraad":50,"latitude":36.95604762,"longitude":14.5468122,"canPickup":true,"canDropoff":true,"openingstijden":{"za":"08:20 - 12:35","zo":"gesloten","ma":"08:20 - 13:35","di":"08:20 - 13:35","wo":"08:20 - 13:35","do":"08:20 - 13:35","vr":"08:20 - 13:35"}}},{"type":"Feature","geometry":{"type":"Point","coordinates":[14.4307111,36.89205912]},"properties":{"type":"pakketpunt","locatieNaam":"Tabaccheria N. 13","straatNaam":"Via Napoli","straatNr":"97","vervoerder":"PosteItaliane","puntType":"servicepunt","bezettingsgraad":50,"latitude":36.89205912,"longitude":14.4307111,"canPickup":true,"canDropoff":true,"openingstijden":{"za":"05:00 - 13:00, 15:00 - 21:00","zo":"05:00 - 13:00, 15:00 - 21:00","ma":"05:00 - 13:00, 15:00 - 21:00","di":"05:00 - 13:00, 15:00 - 21:00","wo":"05:00 - 13:00, 15:00 - 21:00","do":"05:00 - 13:00, 15:00 - 21:00","vr":"05:00 - 13:00, 15:00 - 21:00"}}},{"type":"Feature","geometry":{"type":"Point","coordinates":[14.54598902,36.95525585]},"properties":{"type":"pakketpunt","locatieNaam":"Tabaccheria N. 33","straatNaam":"Via Cavalieri Di Vittorio Veneto","straatNr":"46/a","vervoerder":"PosteItaliane","puntType":"servicepunt","bezettingsgraad":50,"latitude":36.95525585,"longitude":14.54598902,"canPickup":true,"canDropoff":true,"openingstijden":{"za":"05:00 - 21:00","zo":"gesloten","ma":"05:00 - 21:00","di":"05:00 - 21:00","wo":"05:00 - 21:00","do":"05:00 - 21:00","vr":"05:00 - 21:00"}}},{"type":"Feature","geometry":{"type":"Point","coordinates":[14.52894171,36.94406818]},"properties":{"type":"pakketpunt","locatieNaam":"Tabaccheria N. 22","straatNaam":"Via Adua","straatNr":"13/d","vervoerder":"PosteItaliane","puntType":"servicepunt","bezettingsgraad":50,"latitude":36.94406818,"longitude":14.52894171,"canPickup":true,"canDropoff":true,"openingstijden":{"za":"06:00 - 13:00, 16:30 - 20:30","zo":"06:00 - 13:00","ma":"06:00 - 13:00, 16:30 - 20:30","di":"06:00 - 13:00, 16:30 - 20:30","wo":"06:00 - 13:00, 16:30 - 20:30","do":"06:00 - 13:00, 16:30 - 20:30","vr":"06:00 - 13:00, 16:30 - 20:30"}}},{"type":"Feature","geometry":{"type":"Point","coordinates":[14.53962107,36.94877142]},"properties":{"type":"pakketpunt","locatieNaam":"Tabaccheria N. 3","straatNaam":"Via Calatafimi","straatNr":"34","vervoerder":"PosteItaliane","puntType":"servicepunt","bezettingsgraad":50,"latitude":36.94877142,"longitude":14.53962107,"canPickup":true,"canDropoff":true,"openingstijden":{"za":"08:30 - 13:15, 15:30 - 20:45","zo":"gesloten","ma":"08:30 - 13:15, 15:30 - 20:45","di":"08:30 - 13:15, 15:30 - 20:45","wo":"08:30 - 13:15, 15:30 - 20:45","do":"08:30 - 13:15, 15:30 - 20:45","vr":"08:30 - 13:15, 15:30 - 20:45"}}},{"type":"Feature","geometry":{"type":"Point","coordinates":[14.54121813,36.95454757]},"properties":{"type":"pakketpunt","locatieNaam":"Stazione Di Servizio","straatNaam":"Via Giuseppe Garibaldi","straatNr":"2","vervoerder":"PosteItaliane","puntType":"automaat","bezettingsgraad":50,"latitude":36.95454757,"longitude":14.54121813,"canPickup":true,"canDropoff":true,"openingstijden":{"za":"00:01 - 23:59","zo":"00:01 - 23:59","ma":"00:01 - 23:59","di":"00:01 - 23:59","wo":"00:01 - 23:59","do":"00:01 - 23:59","vr":"00:01 - 23:59"}}},{"type":"Feature","geometry":{"type":"Point","coordinates":[14.53660884,36.9514432]},"properties":{"type":"pakketpunt","locatieNaam":"Uffico Postale Vittoria","straatNaam":"Via Giacomo Matteotti","straatNr":"187","vervoerder":"PosteItaliane","puntType":"automaat","bezettingsgraad":50,"latitude":36.9514432,"longitude":14.53660884,"canPickup":true,"canDropoff":true,"openingstijden":{"za":"00:01 - 23:59","zo":"00:01 - 23:59","ma":"00:01 - 23:59","di":"00:01 - 23:59","wo":"00:01 - 23:59","do":"00:01 - 23:59","vr":"00:01 - 23:59"}}},{"type":"Feature","geometry":{"type":"Point","coordinates":[14.51293807,36.96147058]},"properties":{"type":"pakketpunt","locatieNaam":"Stazione Di Servizio","straatNaam":"Strada Per Gela Km","straatNr":"294,814","vervoerder":"PosteItaliane","puntType":"automaat","bezettingsgraad":50,"latitude":36.96147058,"longitude":14.51293807,"canPickup":true,"canDropoff":true,"openingstijden":{"za":"00:01 - 23:59","zo":"00:01 - 23:59","ma":"00:01 - 23:59","di":"00:01 - 23:59","wo":"00:01 - 23:59","do":"00:01 - 23:59","vr":"00:01 - 23:59"}}},{"type":"Feature","geometry":{"type":"Point","coordinates":[14.52641086,36.95655469]},"properties":{"type":"pakketpunt","locatieNaam":"Infinity Games","straatNaam":"Via Generale Cascino","straatNr":"29","vervoerder":"PosteItaliane","puntType":"automaat","bezettingsgraad":50,"latitude":36.95655469,"longitude":14.52641086,"canPickup":true,"canDropoff":true,"openingstijden":{"za":"09:00 - 13:00","zo":"gesloten","ma":"16:00 - 20:00","di":"09:00 - 13:00","wo":"09:00 - 13:00","do":"09:00 - 13:00","vr":"09:00 - 13:00"}}},{"type":"Feature","geometry":{"type":"Point","coordinates":[14.5276057,36.95352166]},"properties":{"type":"pakketpunt","locatieNaam":"Punto Servizi Stampa","straatNaam":"Via Magenta","straatNr":"412","vervoerder":"PosteItaliane","puntType":"servicepunt","bezettingsgraad":50,"latitude":36.95352166,"longitude":14.5276057,"canPickup":true,"canDropoff":true,"openingstijden":{"za":"08:30 - 13:00","zo":"gesloten","ma":"08:30 - 13:00, 16:00 - 20:00","di":"08:30 - 13:00, 16:00 - 20:00","wo":"08:30 - 13:00, 16:00 - 20:00","do":"08:30 - 13:00, 16:00 - 20:00","vr":"08:30 - 13:00, 16:00 - 20:00"}}},{"type":"Feature","geometry":{"type":"Point","coordinates":[14.51896051,36.9379789]},"properties":{"type":"pakketpunt","locatieNaam":"Tabaccheria N. 36","straatNaam":"Strada Provinciale 17 Vittoria Scoglitti","straatNr":"82","vervoerder":"PosteItaliane","puntType":"servicepunt","bezettingsgraad":50,"latitude":36.9379789,"longitude":14.51896051,"canPickup":true,"canDropoff":true,"openingstijden":{"za":"06:00 - 13:30, 16:00 - 20:30","zo":"gesloten","ma":"06:00 - 13:30, 16:00 - 20:30","di":"06:00 - 13:30, 16:00 - 20:30","wo":"06:00 - 13:30, 16:00 - 20:30","do":"06:00 - 13:30, 16:00 - 20:30","vr":"06:00 - 13:30, 16:00 - 20:30"}}},{"type":"Feature","geometry":{"type":"Point","coordinates":[14.5223642,36.95301073]},"properties":{"type":"pakketpunt","locatieNaam":"Bar L'infinito","straatNaam":"Via Orazio Busacca","straatNr":"7","vervoerder":"PosteItaliane","puntType":"servicepunt","bezettingsgraad":50,"latitude":36.95301073,"longitude":14.5223642,"canPickup":true,"canDropoff":true,"openingstijden":{"za":"07:00 - 15:00","zo":"gesloten","ma":"07:00 - 19:30","di":"07:00 - 19:30","wo":"07:00 - 19:30","do":"07:00 - 19:30","vr":"07:00 - 19:30"}}},{"type":"Feature","geometry":{"type":"Point","coordinates":[14.52855899,36.94730165]},"properties":{"type":"pakketpunt","locatieNaam":"Telefonia Mondo Smart","straatNaam":"Via Cacciatori Delle Alpi","straatNr":"300","vervoerder":"PosteItaliane","puntType":"servicepunt","bezettingsgraad":50,"latitude":36.94730165,"longitude":14.52855899,"canPickup":true,"canDropoff":true,"openingstijden":{"za":"gesloten","zo":"gesloten","ma":"09:00 - 13:00, 16:30 - 20:00","di":"09:00 - 13:00, 16:30 - 20:00","wo":"09:00 - 13:00, 16:30 - 20:00","do":"09:00 - 13:00, 16:30 - 20:00","vr":"09:00 - 13:00, 16:30 - 20:00"}}},{"type":"Feature","geometry":{"type":"Point","coordinates":[14.5367686,36.94972622]},"properties":{"type":"pakketpunt","locatieNaam":"Tabaccheria N. 10","straatNaam":"Piazza Del Popolo","straatNr":"29","vervoerder":"PosteItaliane","puntType":"servicepunt","bezettingsgraad":50,"latitude":36.94972622,"longitude":14.5367686,"canPickup":true,"canDropoff":true,"openingstijden":{"za":"05:30 - 13:00, 15:00 - 21:00","zo":"05:30 - 13:00, 15:00 - 21:00","ma":"05:30 - 13:00, 15:00 - 21:00","di":"05:30 - 13:00, 15:00 - 21:00","wo":"05:30 - 13:00, 15:00 - 21:00","do":"05:30 - 13:00, 15:00 - 21:00","vr":"05:30 - 13:00, 15:00 - 21:00"}}},{"type":"Feature","geometry":{"type":"Point","coordinates":[14.53852198,36.95337532]},"properties":{"type":"pakketpunt","locatieNaam":"Multiservizi - Vittoria","straatNaam":"Via Venti Settembre","straatNr":"60/a","vervoerder":"PosteItaliane","puntType":"servicepunt","bezettingsgraad":50,"latitude":36.95337532,"longitude":14.53852198,"canPickup":true,"canDropoff":true,"openingstijden":{"za":"09:00 - 12:30","zo":"gesloten","ma":"09:00 - 13:00, 16:00 - 19:30","di":"09:00 - 13:00, 16:00 - 19:30","wo":"09:00 - 13:00, 16:00 - 19:30","do":"09:00 - 13:00, 16:00 - 19:30","vr":"09:00 - 13:00, 16:00 - 19:30"}}},{"type":"Feature","geometry":{"type":"Point","coordinates":[14.52597007,36.95556826]},"properties":{"type":"pakketpunt","locatieNaam":"Kipoint Via Manzoni","straatNaam":"Via Alessandro Manzoni","straatNr":"3/l","vervoerder":"PosteItaliane","puntType":"servicepunt","bezettingsgraad":50,"latitude":36.95556826,"longitude":14.52597007,"canPickup":true,"canDropoff":true,"openingstijden":{"za":"gesloten","zo":"gesloten","ma":"09:00 - 13:00","di":"09:00 - 13:00","wo":"09:00 - 13:00","do":"09:00 - 13:00","vr":"09:00 - 13:00"}}},{"type":"Feature","geometry":{"type":"Point","coordinates":[14.52893761,36.94944726]},"properties":{"type":"pakketpunt","locatieNaam":"Tabaccheria N. 18","straatNaam":"Via Roma","straatNr":"288","vervoerder":"PosteItaliane","puntType":"servicepunt","bezettingsgraad":50,"latitude":36.94944726,"longitude":14.52893761,"canPickup":true,"canDropoff":true,"openingstijden":{"za":"06:30 - 13:30, 15:30 - 20:30","zo":"gesloten","ma":"06:30 - 13:30, 15:30 - 20:30","di":"06:30 - 13:30, 15:30 - 20:30","wo":"06:30 - 13:30, 15:30 - 20:30","do":"06:30 - 13:30, 15:30 - 20:30","vr":"06:30 - 13:30, 15:30 - 20:30"}}},{"type":"Feature","geometry":{"type":"Point","coordinates":[14.5276057,36.95352166]},"properties":{"type":"pakketpunt","locatieNaam":"Punto Servizi Stampa","straatNaam":"Via Magenta","straatNr":"412","vervoerder":"PosteItaliane","puntType":"automaat","bezettingsgraad":50,"latitude":36.95352166,"longitude":14.5276057,"canPickup":true,"canDropoff":true,"openingstijden":{"za":"08:30 - 13:00","zo":"gesloten","ma":"08:00 - 19:30","di":"08:00 - 19:30","wo":"08:00 - 19:30","do":"08:00 - 19:30","vr":"08:00 - 19:30"}}},{"type":"Feature","geometry":{"type":"Point","coordinates":[14.53089328,36.95345398]},"properties":{"type":"pakketpunt","locatieNaam":"Tabaccheria N. 11","straatNaam":"Via Vicenza","straatNr":"100","vervoerder":"PosteItaliane","puntType":"servicepunt","bezettingsgraad":50,"latitude":36.95345398,"longitude":14.53089328,"canPickup":true,"canDropoff":true,"openingstijden":{"za":"05:00 - 21:30","zo":"05:00 - 21:30","ma":"05:00 - 21:30","di":"05:00 - 21:30","wo":"05:00 - 21:30","do":"05:00 - 21:30","vr":"05:00 - 21:30"}}},{"type":"Feature","geometry":{"type":"Point","coordinates":[14.522403773,36.9554967098]},"properties":{"type":"pakketpunt","locatieNaam":"Cartoleria Sfera","straatNaam":"VIA SAN MARTINO","straatNr":"452","vervoerder":"DPD","puntType":"pickup_point","bezettingsgraad":50,"latitude":36.9554967098,"longitude":14.522403773,"canPickup":true,"canDropoff":true,"openingstijden":{"ma":"08:30 - 13:00, 16:30 - 20:00","di":"08:30 - 13:00, 16:30 - 20:00","wo":"08:30 - 13:00, 16:30 - 20:00","do":"08:30 - 13:00, 16:30 - 20:00","vr":"08:30 - 13:00, 16:30 - 20:00","za":"08:30 - 13:00","zo":"gesloten"}}},{"type":"Feature","geometry":{"type":"Point","coordinates":[14.532131643,36.9539730746]},"properties":{"type":"pakketpunt","locatieNaam":"Post&Mail","straatNaam":"P.ZZA G. MATTEOTTI","straatNr":"15","vervoerder":"DPD","puntType":"pickup_point","bezettingsgraad":50,"latitude":36.9539730746,"longitude":14.532131643,"canPickup":true,"canDropoff":true,"openingstijden":{"ma":"08:30 - 13:00, 16:00 - 19:30","di":"08:30 - 13:00, 16:00 - 19:30","wo":"08:30 - 13:00, 16:00 - 19:30","do":"08:30 - 13:00, 16:00 - 19:30","vr":"08:30 - 13:00, 16:00 - 19:30","za":"gesloten","zo":"gesloten"}}},{"type":"Feature","geometry":{"type":"Point","coordinates":[14.531748,36.95553349]},"properties":{"type":"pakketpunt","locatieNaam":"Le Muse di Giunta Biagio","straatNaam":"VIA GAETA","straatNr":"283","vervoerder":"DPD","puntType":"pickup_point","bezettingsgraad":50,"latitude":36.95553349,"longitude":14.531748,"canPickup":true,"canDropoff":true,"openingstijden":{"ma":"08:30 - 13:00, 16:30 - 20:00","di":"08:30 - 13:00, 16:30 - 20:00","wo":"08:30 - 13:00, 16:30 - 20:00","do":"08:30 - 13:00, 16:30 - 20:00","vr":"08:30 - 13:00, 16:30 - 20:00","za":"08:30 - 13:00, 16:30 - 20:00","zo":"gesloten"}}},{"type":"Feature","geometry":{"type":"Point","coordinates":[14.5214353,36.9454278]},"properties":{"type":"pakketpunt","locatieNaam":"Posta Privata Vittoria","straatNaam":"VIA MILANO","straatNr":"403","vervoerder":"DPD","puntType":"pickup_point","bezettingsgraad":50,"latitude":36.9454278,"longitude":14.5214353,"canPickup":true,"canDropoff":true,"openingstijden":{"ma":"08:30 - 12:45, 16:30 - 19:00","di":"08:30 - 12:45, 16:30 - 19:00","wo":"08:30 - 12:45, 16:30 - 19:00","do":"08:30 - 12:45, 16:30 - 19:00","vr":"08:30 - 12:45, 16:30 - 19:00","za":"gesloten","zo":"gesloten"}}},{"type":"Feature","geometry":{"type":"Point","coordinates":[14.5411524,36.9546783]},"properties":{"type":"pakketpunt","locatieNaam":"Non Solo Posta-Vittoria","straatNaam":"VIA G.GARIBALDI","straatNr":"1F","vervoerder":"DPD","puntType":"pickup_point","bezettingsgraad":50,"latitude":36.9546783,"longitude":14.5411524,"canPickup":true,"canDropoff":true,"openingstijden":{"ma":"09:00 - 13:00, 16:30 - 19:00","di":"09:00 - 13:00, 16:30 - 19:00","wo":"09:00 - 13:00, 16:30 - 19:00","do":"09:00 - 13:00, 16:30 - 19:00","vr":"09:00 - 13:00, 16:30 - 19:00","za":"gesloten","zo":"gesloten"}}},{"type":"Feature","geometry":{"type":"Point","coordinates":[14.5291009,36.9527695]},"properties":{"type":"pakketpunt","locatieNaam":"Cellulopoli-Vittoria","straatNaam":"VIA MAGENTA","straatNr":"373 A","vervoerder":"DPD","puntType":"pickup_point","bezettingsgraad":50,"latitude":36.9527695,"longitude":14.5291009,"canPickup":true,"canDropoff":true,"openingstijden":{"ma":"09:00 - 13:00, 16:00 - 20:00","di":"09:00 - 13:00, 16:00 - 20:00","wo":"09:00 - 13:00, 16:00 - 20:00","do":"09:00 - 13:00, 16:00 - 20:00","vr":"09:00 - 13:00, 16:00 - 20:00","za":"09:00 - 13:00, 16:00 - 20:00","zo":"gesloten"}}},{"type":"Feature","geometry":{"type":"Point","coordinates":[14.5269826,36.9453916]},"properties":{"type":"pakketpunt","locatieNaam":"Posta Express - Vittoria","straatNaam":"VIA ADUA","straatNr":"144","vervoerder":"DPD","puntType":"pickup_point","bezettingsgraad":50,"latitude":36.9453916,"longitude":14.5269826,"canPickup":true,"canDropoff":true,"openingstijden":{"ma":"09:00 - 13:00, 16:30 - 20:30","di":"09:00 - 13:00, 16:30 - 20:30","wo":"09:00 - 13:00, 16:30 - 20:30","do":"09:00 - 13:00, 16:30 - 20:30","vr":"09:00 - 13:00, 16:30 - 20:30","za":"09:00 - 13:30","zo":"gesloten"}}},{"type":"Feature","geometry":{"type":"Point","coordinates":[14.52247244,36.9529821]},"properties":{"type":"pakketpunt","locatieNaam":"Bar L'Infinito","straatNaam":"VIA O. BUSACCA","straatNr":"7","vervoerder":"DPD","puntType":"pickup_point","bezettingsgraad":50,"latitude":36.9529821,"longitude":14.52247244,"canPickup":true,"canDropoff":true,"openingstijden":{"ma":"06:00 - 22:00","di":"06:00 - 22:00","wo":"06:00 - 22:00","do":"06:00 - 22:00","vr":"06:00 - 22:00","za":"06:00 - 22:00","zo":"gesloten"}}},{"type":"Feature","geometry":{"type":"Point","coordinates":[14.4306034,36.8920517]},"properties":{"type":"pakketpunt","locatieNaam":"Ferrigno Tabacco Store","straatNaam":"VIA NAPOLI","straatNr":"97","vervoerder":"DPD","puntType":"pickup_point","bezettingsgraad":50,"latitude":36.8920517,"longitude":14.4306034,"canPickup":true,"canDropoff":true,"openingstijden":{"ma":"06:00 - 13:00, 15:30 - 20:00","di":"06:00 - 13:00, 15:30 - 20:00","wo":"06:00 - 13:00, 15:30 - 20:00","do":"06:00 - 13:00, 15:30 - 20:00","vr":"06:00 - 13:00, 15:30 - 20:00","za":"06:00 - 13:00, 15:30 - 20:00","zo":"07:30 - 13:00"}}},{"type":"Feature","geometry":{"type":"Point","coordinates":[14.5382891,36.9569256]},"properties":{"type":"pakketpunt","locatieNaam":"Multiservizi & Cartoleria","straatNaam":"STRADALE FORCONE","straatNr":"42b","vervoerder":"DPD","puntType":"pickup_point","bezettingsgraad":50,"latitude":36.9569256,"longitude":14.5382891,"canPickup":true,"canDropoff":true,"openingstijden":{"ma":"09:00 - 13:00","di":"09:00 - 13:00, 16:00 - 20:00","wo":"09:00 - 13:00","do":"09:00 - 13:00, 16:00 - 20:00","vr":"09:00 - 13:00, 16:00 - 20:00","za":"09:00 - 13:00","zo":"gesloten"}}},{"type":"Feature","geometry":{"type":"Point","coordinates":[14.52405,36.94908]},"properties":{"type":"pakketpunt","locatieNaam":"InPost Point","straatNaam":"Via Bologna","straatNr":"203","vervoerder":"InPost","puntType":"servicepunt","bezettingsgraad":50,"latitude":36.94908,"longitude":14.52405,"canPickup":true,"canDropoff":true,"openingstijden":"Lun-Ven: 09:00 - 13:00 - 16:30 - 19:00"}},{"type":"Feature","geometry":{"type":"Point","coordinates":[14.54591,36.95511]},"properties":{"type":"pakketpunt","locatieNaam":"InPost Locker 24/7","straatNaam":"Via Cavalieri di Vittorio Veneto","straatNr":"snc","vervoerder":"InPost","puntType":"automaat","bezettingsgraad":50,"latitude":36.95511,"longitude":14.54591,"canPickup":true,"canDropoff":true,"openingstijden":null}},{"type":"Feature","geometry":{"type":"Point","coordinates":[14.52364,36.95795]},"properties":{"type":"pakketpunt","locatieNaam":"InPost Locker 24/7","straatNaam":"Via Generale Cascino","straatNr":"","vervoerder":"InPost","puntType":"automaat","bezettingsgraad":50,"latitude":36.95795,"longitude":14.52364,"canPickup":true,"canDropoff":true,"openingstijden":null}},{"type":"Feature","geometry":{"type":"Point","coordinates":[14.52044,36.96003]},"properties":{"type":"pakketpunt","locatieNaam":"InPost Locker 24/7","straatNaam":"Via Generale Cascino","straatNr":"47","vervoerder":"InPost","puntType":"automaat","bezettingsgraad":50,"latitude":36.96003,"longitude":14.52044,"canPickup":true,"canDropoff":true,"openingstijden":null}},{"type":"Feature","geometry":{"type":"Point","coordinates":[14.52144,36.94543]},"properties":{"type":"pakketpunt","locatieNaam":"InPost Locker","straatNaam":"Via Milano","straatNr":"403","vervoerder":"InPost","puntType":"automaat","bezettingsgraad":50,"latitude":36.94543,"longitude":14.52144,"canPickup":true,"canDropoff":true,"openingstijden":null}},{"type":"Feature","geometry":{"type":"Point","coordinates":[14.52698,36.94539]},"properties":{"type":"pakketpunt","locatieNaam":"InPost Locker","straatNaam":"Via Adua","straatNr":"144","vervoerder":"InPost","puntType":"automaat","bezettingsgraad":50,"latitude":36.94539,"longitude":14.52698,"canPickup":true,"canDropoff":true,"openingstijden":null}},{"type":"Feature","geometry":{"type":"Point","coordinates":[14.50502,37.02576]},"properties":{"type":"pakketpunt","locatieNaam":"InPost Locker 24/7","straatNaam":"Strada Provinciale 3","straatNr":"","vervoerder":"InPost","puntType":"automaat","bezettingsgraad":50,"latitude":37.02576,"longitude":14.50502,"canPickup":true,"canDropoff":true,"openingstijden":null}},{"type":"Feature","geometry":{"type":"Point","coordinates":[14.5412,36.95446]},"properties":{"type":"pakketpunt","locatieNaam":"InPost Locker 24/7","straatNaam":"Via Giuseppe Garibaldi","straatNr":"2","vervoerder":"InPost","puntType":"automaat","bezettingsgraad":50,"latitude":36.95446,"longitude":14.5412,"canPickup":true,"canDropoff":true,"openingstijden":null}},{"type":"Feature","geometry":{"type":"Point","coordinates":[14.4306034,36.8920517]},"properties":{"type":"pakketpunt","locatieNaam":"FERRIGNO TABACCO STORE","straatNaam":"Via Napoli","straatNr":"97","vervoerder":"GLS","puntType":"parcel_shop","bezettingsgraad":50,"latitude":36.8920517,"longitude":14.4306034,"canPickup":true,"canDropoff":true,"openingstijden":"za: 06:00 - 13:00, 15:30 - 20:00; zo: 07:30 - 13:00"}},{"type":"Feature","geometry":{"type":"Point","coordinates":[14.4313721,36.8928427]},"properties":{"type":"pakketpunt","locatieNaam":"TABACCHI","straatNaam":"Via Napoli","straatNr":"snc","vervoerder":"GLS","puntType":"parcel_shop","bezettingsgraad":50,"latitude":36.8928427,"longitude":14.4313721,"canPickup":true,"canDropoff":true,"openingstijden":"za: 05:00 - 18:00; zo: 06:00 - 12:00"}},{"type":"Feature","geometry":{"type":"Point","coordinates":[14.5309608,36.9481402724]},"properties":{"type":"pakketpunt","locatieNaam":"Parcel Shop Vittoria","straatNaam":"Via Nino Bixio","straatNr":"170","vervoerder":"GLS","puntType":"parcel_shop","bezettingsgraad":50,"latitude":36.9481402724,"longitude":14.5309608,"canPickup":true,"canDropoff":true,"openingstijden":"za: 09:00 - 12:00; ma: 09:00 - 13:00, 15:30 - 18:30"}},{"type":"Feature","geometry":{"type":"Point","coordinates":[14.5242492,36.9438743]},"properties":{"type":"pakketpunt","locatieNaam":"IGIENE & SAPONE","straatNaam":"Via Della Resistenza","straatNr":"86","vervoerder":"GLS","puntType":"parcel_shop","bezettingsgraad":50,"latitude":36.9438743,"longitude":14.5242492,"canPickup":true,"canDropoff":true,"openingstijden":"za: 08:30 - 13:00, 16:00 - 20:30; ma: 08:30 - 13:00, 16:00 - 20:30"}},{"type":"Feature","geometry":{"type":"Point","coordinates":[14.5258949,36.9443965]},"properties":{"type":"pakketpunt","locatieNaam":"FREEDOM SERVIZI ASSICURATIVI","straatNaam":"Via Cacciatori Delle Alpi","straatNr":"412b","vervoerder":"GLS","puntType":"parcel_shop","bezettingsgraad":50,"latitude":36.9443965,"longitude":14.5258949,"canPickup":true,"canDropoff":true,"openingstijden":"ma: 09:00 - 13:00, 16:00 - 19:00; di: 09:00 - 13:00, 16:00 - 19:00"}},{"type":"Feature","geometry":{"type":"Point","coordinates":[14.5269826,36.9453916]},"properties":{"type":"pakketpunt","locatieNaam":"POSTA EXPRESS","straatNaam":"Via Adua","straatNr":"144","vervoerder":"GLS","puntType":"parcel_shop","bezettingsgraad":50,"latitude":36.9453916,"longitude":14.5269826,"canPickup":true,"canDropoff":true,"openingstijden":"za: 09:00 - 13:00; ma: 09:00 - 13:00, 16:30 - 20:30"}},{"type":"Feature","geometry":{"type":"Point","coordinates":[14.5214353,36.9454278]},"properties":{"type":"pakketpunt","locatieNaam":"Posta privata Vittoria","straatNaam":"Via Milano","straatNr":"403","vervoerder":"GLS","puntType":"parcel_shop","bezettingsgraad":50,"latitude":36.9454278,"longitude":14.5214353,"canPickup":true,"canDropoff":true,"openingstijden":"ma: 08:30 - 12:30, 16:30 - 19:00; di: 08:30 - 12:30, 16:30 - 19:00"}},{"type":"Feature","geometry":{"type":"Point","coordinates":[14.5349364,36.9478291]},"properties":{"type":"pakketpunt","locatieNaam":"Tabaccheria Marangio","straatNaam":"Via Garibaldi","straatNr":"230","vervoerder":"GLS","puntType":"parcel_shop","bezettingsgraad":50,"latitude":36.9478291,"longitude":14.5349364,"canPickup":true,"canDropoff":true,"openingstijden":"za: 07:30 - 13:30, 16:00 - 20:30; ma: 07:30 - 13:30, 16:00 - 20:30"}},{"type":"Feature","geometry":{"type":"Point","coordinates":[14.5332096,36.9486132]},"properties":{"type":"pakketpunt","locatieNaam":"next generation informatica","straatNaam":"Via Como","straatNr":"65","vervoerder":"GLS","puntType":"parcel_shop","bezettingsgraad":50,"latitude":36.9486132,"longitude":14.5332096,"canPickup":true,"canDropoff":true,"openingstijden":"ma: 09:00 - 13:00, 16:30 - 19:00; di: 09:00 - 13:00, 16:30 - 19:00"}},{"type":"Feature","geometry":{"type":"Point","coordinates":[14.525633,36.948744]},"properties":{"type":"pakketpunt","locatieNaam":"officina Puglisi","straatNaam":"Via Brescia","straatNr":"113","vervoerder":"GLS","puntType":"parcel_shop","bezettingsgraad":50,"latitude":36.948744,"longitude":14.525633,"canPickup":true,"canDropoff":true,"openingstijden":"ma: 09:00 - 13:00; di: 09:00 - 13:00"}},{"type":"Feature","geometry":{"type":"Point","coordinates":[14.5240633,36.949031]},"properties":{"type":"pakketpunt","locatieNaam":"Iacono.Store17","straatNaam":"Via Bologna","straatNr":"203","vervoerder":"GLS","puntType":"parcel_shop","bezettingsgraad":50,"latitude":36.949031,"longitude":14.5240633,"canPickup":true,"canDropoff":true,"openingstijden":"ma: 09:00 - 13:00, 17:00 - 19:00; di: 09:00 - 13:00, 17:00 - 19:00"}},{"type":"Feature","geometry":{"type":"Point","coordinates":[14.528808,36.9496344]},"properties":{"type":"pakketpunt","locatieNaam":"TABACCHERIA PICCITTO","straatNaam":"Via Roma","straatNr":"288-290","vervoerder":"GLS","puntType":"parcel_shop","bezettingsgraad":50,"latitude":36.9496344,"longitude":14.528808,"canPickup":true,"canDropoff":true,"openingstijden":"za: 07:30 - 13:30, 16:00 - 21:00; zo: 07:30 - 13:30, 16:00 - 21:00"}},{"type":"Feature","geometry":{"type":"Point","coordinates":[14.5367471,36.9497276]},"properties":{"type":"pakketpunt","locatieNaam":"Tabacchino Toto'","straatNaam":"Piazza Del Popolo","straatNr":"29","vervoerder":"GLS","puntType":"parcel_shop","bezettingsgraad":50,"latitude":36.9497276,"longitude":14.5367471,"canPickup":true,"canDropoff":true,"openingstijden":"za: 05:30 - 13:00, 15:30 - 21:00; zo: 16:00 - 21:00"}},{"type":"Feature","geometry":{"type":"Point","coordinates":[14.5302871,36.950745]},"properties":{"type":"pakketpunt","locatieNaam":"sportello mondo","straatNaam":"Via Roma","straatNr":"234","vervoerder":"GLS","puntType":"parcel_shop","bezettingsgraad":50,"latitude":36.950745,"longitude":14.5302871,"canPickup":true,"canDropoff":true,"openingstijden":"za: 09:00 - 13:30, 16:00 - 20:30; ma: 09:00 - 13:30, 16:00 - 20:30"}},{"type":"Feature","geometry":{"type":"Point","coordinates":[14.5321075,36.9525735]},"properties":{"type":"pakketpunt","locatieNaam":"BOLLETTA EXSPERT","straatNaam":"Via N. Bixio","straatNr":"280","vervoerder":"GLS","puntType":"parcel_shop","bezettingsgraad":50,"latitude":36.9525735,"longitude":14.5321075,"canPickup":true,"canDropoff":true,"openingstijden":"za: 09:00 - 13:00, 16:00 - 20:00; ma: 09:00 - 13:00, 16:00 - 20:00"}},{"type":"Feature","geometry":{"type":"Point","coordinates":[14.5291009,36.9527695]},"properties":{"type":"pakketpunt","locatieNaam":"CELLULOPOLI","straatNaam":"Via Magenta","straatNr":"373/A","vervoerder":"GLS","puntType":"parcel_shop","bezettingsgraad":50,"latitude":36.9527695,"longitude":14.5291009,"canPickup":true,"canDropoff":true,"openingstijden":"za: 09:00 - 13:00, 16:00 - 20:30; ma: 09:00 - 13:00, 16:00 - 20:30"}},{"type":"Feature","geometry":{"type":"Point","coordinates":[14.5224027,36.9530314]},"properties":{"type":"pakketpunt","locatieNaam":"Bar L’infinito","straatNaam":"Via Orazio Busacca","straatNr":"7","vervoerder":"GLS","puntType":"parcel_shop","bezettingsgraad":50,"latitude":36.9530314,"longitude":14.5224027,"canPickup":true,"canDropoff":true,"openingstijden":"za: 06:00 - 23:00; ma: 06:00 - 22:00"}},{"type":"Feature","geometry":{"type":"Point","coordinates":[14.5325641,36.9531934]},"properties":{"type":"pakketpunt","locatieNaam":"DPR MULTISERVICE","straatNaam":"Via Conte Di Cavour","straatNr":"373","vervoerder":"GLS","puntType":"parcel_shop","bezettingsgraad":50,"latitude":36.9531934,"longitude":14.5325641,"canPickup":true,"canDropoff":true,"openingstijden":"za: 09:00 - 13:00, 16:00 - 20:30; ma: 09:00 - 13:00, 16:00 - 20:30"}},{"type":"Feature","geometry":{"type":"Point","coordinates":[14.5308712,36.953342]},"properties":{"type":"pakketpunt","locatieNaam":"GATE Passaggio Quotidiano","straatNaam":"Via Vicenza","straatNr":"100","vervoerder":"GLS","puntType":"parcel_shop","bezettingsgraad":50,"latitude":36.953342,"longitude":14.5308712,"canPickup":true,"canDropoff":true,"openingstijden":"za: 05:00 - 21:00; zo: 05:00 - 21:00"}},{"type":"Feature","geometry":{"type":"Point","coordinates":[14.5385052,36.9533573]},"properties":{"type":"pakketpunt","locatieNaam":"MULTISERVIZI DI ERIKA STELLA","straatNaam":"Via Xx Settembre","straatNr":"60/A","vervoerder":"GLS","puntType":"parcel_shop","bezettingsgraad":50,"latitude":36.9533573,"longitude":14.5385052,"canPickup":true,"canDropoff":true,"openingstijden":"za: 09:00 - 13:00; ma: 09:00 - 13:00, 15:30 - 19:30"}},{"type":"Feature","geometry":{"type":"Point","coordinates":[14.531833,36.9534187]},"properties":{"type":"pakketpunt","locatieNaam":"GAMICS","straatNaam":"Via Camillo Benso Conte Di Cavour","straatNr":"356","vervoerder":"GLS","puntType":"parcel_shop","bezettingsgraad":50,"latitude":36.9534187,"longitude":14.531833,"canPickup":true,"canDropoff":true,"openingstijden":"za: 09:30 - 13:00, 16:30 - 20:00; ma: 16:30 - 20:00"}},{"type":"Feature","geometry":{"type":"Point","coordinates":[14.5347326,36.9537312]},"properties":{"type":"pakketpunt","locatieNaam":"GROUPAMA assicurazioni","straatNaam":"Via Gaeta","straatNr":"179","vervoerder":"GLS","puntType":"parcel_shop","bezettingsgraad":50,"latitude":36.9537312,"longitude":14.5347326,"canPickup":true,"canDropoff":true,"openingstijden":"ma: 08:30 - 12:30, 14:30 - 18:00; di: 08:30 - 12:30, 14:30 - 18:00"}},{"type":"Feature","geometry":{"type":"Point","coordinates":[14.532141,36.9539853]},"properties":{"type":"pakketpunt","locatieNaam":"Post&Mail","straatNaam":"Piazza Giacomo Matteotti","straatNr":"15","vervoerder":"GLS","puntType":"parcel_shop","bezettingsgraad":50,"latitude":36.9539853,"longitude":14.532141,"canPickup":true,"canDropoff":true,"openingstijden":"ma: 08:30 - 13:00, 16:00 - 19:30; di: 08:30 - 13:00, 16:00 - 19:30"}},{"type":"Feature","geometry":{"type":"Point","coordinates":[14.530805,36.9542632]},"properties":{"type":"pakketpunt","locatieNaam":"tim","straatNaam":"Via Conte Di Cavour","straatNr":"384","vervoerder":"GLS","puntType":"parcel_shop","bezettingsgraad":50,"latitude":36.9542632,"longitude":14.530805,"canPickup":true,"canDropoff":true,"openingstijden":"za: 10:00 - 13:00, 16:30 - 20:30; ma: 10:00 - 13:00, 16:30 - 20:30"}},{"type":"Feature","geometry":{"type":"Point","coordinates":[14.5400309,36.9544525]},"properties":{"type":"pakketpunt","locatieNaam":"IGIENE & SAPONE","straatNaam":"Via Cappellini","straatNr":"1","vervoerder":"GLS","puntType":"parcel_shop","bezettingsgraad":50,"latitude":36.9544525,"longitude":14.5400309,"canPickup":true,"canDropoff":true,"openingstijden":"za: 08:30 - 13:00, 16:00 - 20:30; ma: 08:30 - 13:00, 16:00 - 20:30"}},{"type":"Feature","geometry":{"type":"Point","coordinates":[14.5411524,36.9546783]},"properties":{"type":"pakketpunt","locatieNaam":"Non solo Posta","straatNaam":"Via G.Garibaldi","straatNr":"1F","vervoerder":"GLS","puntType":"parcel_shop","bezettingsgraad":50,"latitude":36.9546783,"longitude":14.5411524,"canPickup":true,"canDropoff":true,"openingstijden":"ma: 09:00 - 13:00, 16:00 - 19:00; di: 09:00 - 13:00, 16:00 - 19:00"}},{"type":"Feature","geometry":{"type":"Point","coordinates":[14.530451,36.954918]},"properties":{"type":"pakketpunt","locatieNaam":"Better Point","straatNaam":"Via Milano","straatNr":"19C","vervoerder":"GLS","puntType":"parcel_shop","bezettingsgraad":50,"latitude":36.954918,"longitude":14.530451,"canPickup":true,"canDropoff":true,"openingstijden":"za: 09:00 - 23:30; zo: 09:00 - 23:30"}},{"type":"Feature","geometry":{"type":"Point","coordinates":[14.5318105,36.9555809]},"properties":{"type":"pakketpunt","locatieNaam":"LE MUSE DI GIUNTA BIAGIO","straatNaam":"Via Gaeta","straatNr":"283","vervoerder":"GLS","puntType":"parcel_shop","bezettingsgraad":50,"latitude":36.9555809,"longitude":14.5318105,"canPickup":true,"canDropoff":true,"openingstijden":"za: 09:00 - 12:30; ma: 09:00 - 12:30"}},{"type":"Feature","geometry":{"type":"Point","coordinates":[14.5265111,36.9563211]},"properties":{"type":"pakketpunt","locatieNaam":"GAV MULTISERVIZI DI ANTONIO DE MARCO","straatNaam":"Via Generale Cascino","straatNr":"34/D","vervoerder":"GLS","puntType":"parcel_shop","bezettingsgraad":50,"latitude":36.9563211,"longitude":14.5265111,"canPickup":true,"canDropoff":true,"openingstijden":"ma: 08:00 - 12:30, 16:00 - 19:30; di: 08:00 - 12:30, 16:00 - 19:30"}},{"type":"Feature","geometry":{"type":"Point","coordinates":[14.5382891,36.9569256]},"properties":{"type":"pakketpunt","locatieNaam":"multiservizi & cartoleria di alessia leone","straatNaam":"Strada Forcone","straatNr":"42/b","vervoerder":"GLS","puntType":"parcel_shop","bezettingsgraad":50,"latitude":36.9569256,"longitude":14.5382891,"canPickup":true,"canDropoff":true,"openingstijden":"ma: 09:00 - 13:00, 16:00 - 19:30; di: 09:00 - 13:00, 16:00 - 19:30"}},{"type":"Feature","geometry":{"type":"Point","coordinates":[14.5306774,36.9583472]},"properties":{"type":"pakketpunt","locatieNaam":"IGIENE & SAPONE","straatNaam":"Via Xx Settembre","straatNr":"279","vervoerder":"GLS","puntType":"parcel_shop","bezettingsgraad":50,"latitude":36.9583472,"longitude":14.5306774,"canPickup":true,"canDropoff":true,"openingstijden":"za: 08:30 - 13:00, 16:00 - 20:30; ma: 08:30 - 13:00, 16:00 - 20:30"}},{"type":"Feature","geometry":{"type":"Point","coordinates":[14.430711,36.892059]},"properties":{"type":"pakketpunt","locatieNaam":"TABACCHERIA N. 13","straatNaam":"VIA NAPOLI 97","straatNr":"","vervoerder":"DHL","puntType":"parcelShop","bezettingsgraad":50,"latitude":36.892059,"longitude":14.430711,"canPickup":true,"canDropoff":true,"openingstijden":{"ma":"05:00 - 13:00, 15:00 - 21:00","di":"05:00 - 13:00, 15:00 - 21:00","wo":"05:00 - 13:00, 15:00 - 21:00","do":"05:00 - 13:00, 15:00 - 21:00","vr":"05:00 - 13:00, 15:00 - 21:00","za":"05:00 - 13:00, 15:00 - 21:00","zo":"05:00 - 13:00, 15:00 - 21:00"}}},{"type":"Feature","geometry":{"type":"Point","coordinates":[14.431812,36.89336]},"properties":{"type":"pakketpunt","locatieNaam":"Ufficio Postale SCOGLITTI","straatNaam":"VIA NAPOLI 61","straatNr":"","vervoerder":"DHL","puntType":"postOffice","bezettingsgraad":50,"latitude":36.89336,"longitude":14.431812,"canPickup":true,"canDropoff":true,"openingstijden":{"ma":"08:20 - 13:45","di":"08:20 - 13:45","wo":"08:20 - 13:45","do":"08:20 - 13:45","vr":"08:20 - 13:45","za":"08:20 - 12:45","zo":"gesloten"}}},{"type":"Feature","geometry":{"type":"Point","coordinates":[14.528942,36.944068]},"properties":{"type":"pakketpunt","locatieNaam":"TABACCHERIA N. 22","straatNaam":"VIA ADUA 13-D","straatNr":"","vervoerder":"DHL","puntType":"parcelShop","bezettingsgraad":50,"latitude":36.944068,"longitude":14.528942,"canPickup":true,"canDropoff":true,"openingstijden":{"ma":"06:00 - 13:00, 16:30 - 20:30","di":"06:00 - 13:00, 16:30 - 20:30","wo":"06:00 - 13:00, 16:30 - 20:30","do":"06:00 - 13:00, 16:30 - 20:30","vr":"06:00 - 13:00, 16:30 - 20:30","za":"06:00 - 13:00, 16:30 - 20:30","zo":"06:00 - 13:00"}}},{"type":"Feature","geometry":{"type":"Point","coordinates":[14.52404,36.94899]},"properties":{"type":"pakketpunt","locatieNaam":"IACONO.STORE17","straatNaam":"Via Bologna 203","straatNr":"","vervoerder":"DHL","puntType":"parcelShop","bezettingsgraad":50,"latitude":36.94899,"longitude":14.52404,"canPickup":false,"canDropoff":true,"openingstijden":{"ma":"09:00 - 19:00","di":"09:00 - 19:00","wo":"09:00 - 19:00","do":"09:00 - 19:00","vr":"09:00 - 19:00","za":"gesloten","zo":"gesloten"}}},{"type":"Feature","geometry":{"type":"Point","coordinates":[14.528559,36.947302]},"properties":{"type":"pakketpunt","locatieNaam":"TELEFONIA MONDO SMART","straatNaam":"VIA CACCIATORI DELLE ALPI 300","straatNr":"","vervoerder":"DHL","puntType":"parcelShop","bezettingsgraad":50,"latitude":36.947302,"longitude":14.528559,"canPickup":true,"canDropoff":true,"openingstijden":{"ma":"09:00 - 13:00, 16:30 - 20:00","di":"09:00 - 13:00, 16:30 - 20:00","wo":"09:00 - 13:00, 16:30 - 20:00","do":"09:00 - 13:00, 16:30 - 20:00","vr":"09:00 - 13:00, 16:30 - 20:00","za":"gesloten","zo":"gesloten"}}},{"type":"Feature","geometry":{"type":"Point","coordinates":[14.525119,36.950144]},"properties":{"type":"pakketpunt","locatieNaam":"TABACCHERIA N. 19","straatNaam":"VIA BOLOGNA 155","straatNr":"","vervoerder":"DHL","puntType":"parcelShop","bezettingsgraad":50,"latitude":36.950144,"longitude":14.525119,"canPickup":true,"canDropoff":true,"openingstijden":{"ma":"05:30 - 13:00, 16:00 - 20:30","di":"05:30 - 13:00, 16:00 - 20:30","wo":"05:30 - 13:00, 16:00 - 20:30","do":"05:30 - 13:00, 16:00 - 20:30","vr":"05:30 - 13:00, 16:00 - 20:30","za":"05:30 - 13:00, 16:00 - 20:30","zo":"05:30 - 13:00"}}},{"type":"Feature","geometry":{"type":"Point","coordinates":[14.522364,36.953011]},"properties":{"type":"pakketpunt","locatieNaam":"BAR L'INFINITO","straatNaam":"VIA ORAZIO BUSACCA 7","straatNr":"","vervoerder":"DHL","puntType":"parcelShop","bezettingsgraad":50,"latitude":36.953011,"longitude":14.522364,"canPickup":true,"canDropoff":true,"openingstijden":{"ma":"07:00 - 19:30","di":"07:00 - 19:30","wo":"07:00 - 19:30","do":"07:00 - 19:30","vr":"07:00 - 19:30","za":"07:00 - 15:00","zo":"gesloten"}}},{"type":"Feature","geometry":{"type":"Point","coordinates":[14.528938,36.949447]},"properties":{"type":"pakketpunt","locatieNaam":"TABACCHERIA N. 18","straatNaam":"VIA ROMA 288","straatNr":"","vervoerder":"DHL","puntType":"parcelShop","bezettingsgraad":50,"latitude":36.949447,"longitude":14.528938,"canPickup":true,"canDropoff":true,"openingstijden":{"ma":"06:30 - 13:30, 15:30 - 20:30","di":"06:30 - 13:30, 15:30 - 20:30","wo":"06:30 - 13:30, 15:30 - 20:30","do":"06:30 - 13:30, 15:30 - 20:30","vr":"06:30 - 13:30, 15:30 - 20:30","za":"06:30 - 13:30, 15:30 - 20:30","zo":"gesloten"}}},{"type":"Feature","geometry":{"type":"Point","coordinates":[14.523497,36.954446]},"properties":{"type":"pakketpunt","locatieNaam":"Ufficio Postale VITTORIA 2","straatNaam":"VIA COMO 362","straatNr":"","vervoerder":"DHL","puntType":"postOffice","bezettingsgraad":50,"latitude":36.954446,"longitude":14.523497,"canPickup":true,"canDropoff":true,"openingstijden":{"ma":"08:20 - 13:35","di":"08:20 - 13:35","wo":"08:20 - 13:35","do":"08:20 - 13:35","vr":"08:20 - 13:35","za":"08:20 - 12:35","zo":"gesloten"}}},{"type":"Feature","geometry":{"type":"Point","coordinates":[14.512938,36.961471]},"properties":{"type":"pakketpunt","locatieNaam":"STAZIONE DI SERVIZIO","straatNaam":"STRADA PER GELA Km 294,814","straatNr":"","vervoerder":"DHL","puntType":"packStation","bezettingsgraad":50,"latitude":36.961471,"longitude":14.512938,"canPickup":true,"canDropoff":true,"openingstijden":{"ma":"00:01 - 23:59","di":"00:01 - 23:59","wo":"00:01 - 23:59","do":"00:01 - 23:59","vr":"00:01 - 23:59","za":"00:01 - 23:59","zo":"00:01 - 23:59"}}},{"type":"Feature","geometry":{"type":"Point","coordinates":[14.527606,36.953522]},"properties":{"type":"pakketpunt","locatieNaam":"PUNTO SERVIZI STAMPA","straatNaam":"VIA MAGENTA 412","straatNr":"","vervoerder":"DHL","puntType":"packStation","bezettingsgraad":50,"latitude":36.953522,"longitude":14.527606,"canPickup":true,"canDropoff":true,"openingstijden":{"ma":"08:00 - 19:30","di":"08:00 - 19:30","wo":"08:00 - 19:30","do":"08:00 - 19:30","vr":"08:00 - 19:30","za":"08:30 - 13:00","zo":"gesloten"}}},{"type":"Feature","geometry":{"type":"Point","coordinates":[14.527606,36.953522]},"properties":{"type":"pakketpunt","locatieNaam":"PUNTO SERVIZI STAMPA","straatNaam":"VIA MAGENTA 412","straatNr":"","vervoerder":"DHL","puntType":"parcelShop","bezettingsgraad":50,"latitude":36.953522,"longitude":14.527606,"canPickup":true,"canDropoff":true,"openingstijden":{"ma":"08:30 - 13:00, 16:00 - 20:00","di":"08:30 - 13:00, 16:00 - 20:00","wo":"08:30 - 13:00, 16:00 - 20:00","do":"08:30 - 13:00, 16:00 - 20:00","vr":"08:30 - 13:00, 16:00 - 20:00","za":"08:30 - 13:00","zo":"gesloten"}}},{"type":"Feature","geometry":{"type":"Point","coordinates":[14.52597,36.955568]},"properties":{"type":"pakketpunt","locatieNaam":"KIPOINT VIA MANZONI","straatNaam":"VIA ALESSANDRO MANZONI 3-L","straatNr":"","vervoerder":"DHL","puntType":"parcelShop","bezettingsgraad":50,"latitude":36.955568,"longitude":14.52597,"canPickup":true,"canDropoff":true,"openingstijden":{"ma":"09:00 - 13:00","di":"09:00 - 13:00","wo":"09:00 - 13:00","do":"09:00 - 13:00","vr":"09:00 - 13:00","za":"gesloten","zo":"gesloten"}}},{"type":"Feature","geometry":{"type":"Point","coordinates":[14.526411,36.956555]},"properties":{"type":"pakketpunt","locatieNaam":"INFINITY GAMES","straatNaam":"VIA GENERALE CASCINO 29","straatNr":"","vervoerder":"DHL","puntType":"packStation","bezettingsgraad":50,"latitude":36.956555,"longitude":14.526411,"canPickup":true,"canDropoff":true,"openingstijden":{"ma":"16:00 - 20:00","di":"09:00 - 13:00, 16:00 - 20:00","wo":"09:00 - 13:00, 16:00 - 20:00","do":"09:00 - 13:00, 16:00 - 20:00","vr":"09:00 - 13:00, 16:00 - 20:00","za":"09:00 - 13:00, 16:00 - 20:00","zo":"gesloten"}}},{"type":"Feature","geometry":{"type":"Point","coordinates":[14.530893,36.953454]},"properties":{"type":"pakketpunt","locatieNaam":"TABACCHERIA N. 11","straatNaam":"VIA VICENZA 100","straatNr":"","vervoerder":"DHL","puntType":"parcelShop","bezettingsgraad":50,"latitude":36.953454,"longitude":14.530893,"canPickup":true,"canDropoff":true,"openingstijden":{"ma":"05:00 - 21:30","di":"05:00 - 21:30","wo":"05:00 - 21:30","do":"05:00 - 21:30","vr":"05:00 - 21:30","za":"05:00 - 21:30","zo":"05:00 - 21:30"}}},{"type":"Feature","geometry":{"type":"Point","coordinates":[14.528704,36.955259]},"properties":{"type":"pakketpunt","locatieNaam":"Ufficio Postale VITTORIA 1","straatNaam":"PIAZZA ITALIA 18-A","straatNr":"","vervoerder":"DHL","puntType":"postOffice","bezettingsgraad":50,"latitude":36.955259,"longitude":14.528704,"canPickup":true,"canDropoff":true,"openingstijden":{"ma":"08:20 - 19:05","di":"08:20 - 19:05","wo":"08:20 - 19:05","do":"08:20 - 19:05","vr":"08:20 - 19:05","za":"08:20 - 12:35","zo":"gesloten"}}},{"type":"Feature","geometry":{"type":"Point","coordinates":[14.536769,36.949726]},"properties":{"type":"pakketpunt","locatieNaam":"TABACCHERIA N. 10","straatNaam":"PIAZZA DEL POPOLO 29","straatNr":"","vervoerder":"DHL","puntType":"parcelShop","bezettingsgraad":50,"latitude":36.949726,"longitude":14.536769,"canPickup":true,"canDropoff":true,"openingstijden":{"ma":"05:30 - 13:00, 15:00 - 21:00","di":"05:30 - 13:00, 15:00 - 21:00","wo":"05:30 - 13:00, 15:00 - 21:00","do":"05:30 - 13:00, 15:00 - 21:00","vr":"05:30 - 13:00, 15:00 - 21:00","za":"05:30 - 13:00, 15:00 - 21:00","zo":"05:30 - 13:00, 15:00 - 21:00"}}},{"type":"Feature","geometry":{"type":"Point","coordinates":[14.528281,36.957021]},"properties":{"type":"pakketpunt","locatieNaam":"KALEYDOS","straatNaam":"Generale Diaz, 32","straatNr":"","vervoerder":"DHL","puntType":"parcelShop","bezettingsgraad":50,"latitude":36.957021,"longitude":14.528281,"canPickup":false,"canDropoff":true,"openingstijden":{"ma":"08:00 - 20:30","di":"08:00 - 20:30","wo":"08:00 - 20:30","do":"08:00 - 20:30","vr":"08:00 - 20:30","za":"08:00 - 20:30","zo":"gesloten"}}},{"type":"Feature","geometry":{"type":"Point","coordinates":[14.536609,36.951443]},"properties":{"type":"pakketpunt","locatieNaam":"Ufficio Postale VITTORIA","straatNaam":"VIA GIACOMO MATTEOTTI 187","straatNr":"","vervoerder":"DHL","puntType":"postOffice","bezettingsgraad":50,"latitude":36.951443,"longitude":14.536609,"canPickup":true,"canDropoff":true,"openingstijden":{"ma":"08:20 - 19:05","di":"08:20 - 19:05","wo":"08:20 - 19:05","do":"08:20 - 19:05","vr":"08:20 - 19:05","za":"08:20 - 12:35","zo":"gesloten"}}},{"type":"Feature","geometry":{"type":"Point","coordinates":[14.536609,36.951443]},"properties":{"type":"pakketpunt","locatieNaam":"UFFICO POSTALE VITTORIA","straatNaam":"VIA GIACOMO MATTEOTTI 187","straatNr":"","vervoerder":"DHL","puntType":"packStation","bezettingsgraad":50,"latitude":36.951443,"longitude":14.536609,"canPickup":true,"canDropoff":true,"openingstijden":{"ma":"00:01 - 23:59","di":"00:01 - 23:59","wo":"00:01 - 23:59","do":"00:01 - 23:59","vr":"00:01 - 23:59","za":"00:01 - 23:59","zo":"00:01 - 23:59"}}},{"type":"Feature","geometry":{"type":"Point","coordinates":[14.539621,36.948771]},"properties":{"type":"pakketpunt","locatieNaam":"TABACCHERIA N. 3","straatNaam":"VIA CALATAFIMI 34","straatNr":"","vervoerder":"DHL","puntType":"parcelShop","bezettingsgraad":50,"latitude":36.948771,"longitude":14.539621,"canPickup":true,"canDropoff":true,"openingstijden":{"ma":"08:30 - 13:15, 15:30 - 20:45","di":"08:30 - 13:15, 15:30 - 20:45","wo":"08:30 - 13:15, 15:30 - 20:45","do":"08:30 - 13:15, 15:30 - 20:45","vr":"08:30 - 13:15, 15:30 - 20:45","za":"08:30 - 13:15, 15:30 - 20:45","zo":"gesloten"}}},{"type":"Feature","geometry":{"type":"Point","coordinates":[14.538522,36.953375]},"properties":{"type":"pakketpunt","locatieNaam":"MULTISERVIZI - VITTORIA","straatNaam":"VIA VENTI SETTEMBRE 60-A","straatNr":"","vervoerder":"DHL","puntType":"parcelShop","bezettingsgraad":50,"latitude":36.953375,"longitude":14.538522,"canPickup":true,"canDropoff":true,"openingstijden":{"ma":"09:00 - 13:00, 16:00 - 19:30","di":"09:00 - 13:00, 16:00 - 19:30","wo":"09:00 - 13:00, 16:00 - 19:30","do":"09:00 - 13:00, 16:00 - 19:30","vr":"09:00 - 13:00, 16:00 - 19:30","za":"09:00 - 12:30","zo":"gesloten"}}},{"type":"Feature","geometry":{"type":"Point","coordinates":[14.541218,36.954548]},"properties":{"type":"pakketpunt","locatieNaam":"STAZIONE DI SERVIZIO","straatNaam":"VIA GIUSEPPE GARIBALDI 2","straatNr":"","vervoerder":"DHL","puntType":"packStation","bezettingsgraad":50,"latitude":36.954548,"longitude":14.541218,"canPickup":true,"canDropoff":true,"openingstijden":{"ma":"00:01 - 23:59","di":"00:01 - 23:59","wo":"00:01 - 23:59","do":"00:01 - 23:59","vr":"00:01 - 23:59","za":"00:01 - 23:59","zo":"00:01 - 23:59"}}},{"type":"Feature","geometry":{"type":"Point","coordinates":[14.546812,36.956048]},"properties":{"type":"pakketpunt","locatieNaam":"Ufficio Postale VITTORIA 3","straatNaam":"VIA ROSARIO GIURATO 8","straatNr":"","vervoerder":"DHL","puntType":"postOffice","bezettingsgraad":50,"latitude":36.956048,"longitude":14.546812,"canPickup":true,"canDropoff":true,"openingstijden":{"ma":"08:20 - 13:35","di":"08:20 - 13:35","wo":"08:20 - 13:35","do":"08:20 - 13:35","vr":"08:20 - 13:35","za":"08:20 - 12:35","zo":"gesloten"}}},{"type":"Feature","geometry":{"type":"Point","coordinates":[14.537471,36.962462]},"properties":{"type":"pakketpunt","locatieNaam":"MULTISERVIZI E CARTOLERIA DI ALESSI","straatNaam":"Via Iannizzotto, 42 B","straatNr":"","vervoerder":"DHL","puntType":"parcelShop","bezettingsgraad":50,"latitude":36.962462,"longitude":14.537471,"canPickup":false,"canDropoff":true,"openingstijden":{"ma":"09:00 - 20:00","di":"09:00 - 20:00","wo":"09:00 - 20:00","do":"09:00 - 20:00","vr":"09:00 - 20:00","za":"gesloten","zo":"gesloten"}}},{"type":"Feature","geometry":{"type":"Point","coordinates":[14.505104,37.025773]},"properties":{"type":"pakketpunt","locatieNaam":"STAZIONE DI SERVIZIO GIAP","straatNaam":"STRADA PROVINCIALE 3 SNC 1","straatNr":"","vervoerder":"DHL","puntType":"packStation","bezettingsgraad":50,"latitude":37.025773,"longitude":14.505104,"canPickup":true,"canDropoff":true,"openingstijden":{"ma":"00:01 - 23:59","di":"00:01 - 23:59","wo":"00:01 - 23:59","do":"00:01 - 23:59","vr":"00:01 - 23:59","za":"00:01 - 23:59","zo":"00:01 - 23:59"}}},{"type":"Feature","geometry":{"type":"Point","coordinates":[14.430647,36.892033]},"properties":{"type":"pakketpunt","locatieNaam":"Amazon Counter","straatNaam":"Ferrigno Tabacco Store (fermopoint)","straatNr":"","vervoerder":"Amazon","puntType":"helix","bezettingsgraad":50,"latitude":36.892033,"longitude":14.430647,"canPickup":true,"canDropoff":false,"openingstijden":null}},{"type":"Feature","geometry":{"type":"Point","coordinates":[14.4310719,36.8924436]},"properties":{"type":"pakketpunt","locatieNaam":"Amazon Counter - SWEET HOME","straatNaam":"VIA NAPOLI 100","straatNr":"","vervoerder":"Amazon","puntType":"helix","bezettingsgraad":50,"latitude":36.8924436,"longitude":14.4310719,"canPickup":true,"canDropoff":false,"openingstijden":null}},{"type":"Feature","geometry":{"type":"Point","coordinates":[14.4318,36.8933]},"properties":{"type":"pakketpunt","locatieNaam":"Ufficio Postale SCOGLITTI","straatNaam":"VIA NAPOLI 61","straatNr":"","vervoerder":"Amazon","puntType":"3p","bezettingsgraad":50,"latitude":36.8933,"longitude":14.4318,"canPickup":true,"canDropoff":false,"openingstijden":null}},{"type":"Feature","geometry":{"type":"Point","coordinates":[14.4307,36.892]},"properties":{"type":"pakketpunt","locatieNaam":"PuntoPoste TABACCHERIA N. 13","straatNaam":"VIA NAPOLI 97","straatNr":"","vervoerder":"Amazon","puntType":"3p","bezettingsgraad":50,"latitude":36.892,"longitude":14.4307,"canPickup":true,"canDropoff":false,"openingstijden":null}},{"type":"Feature","geometry":{"type":"Point","coordinates":[14.5237308,36.9580178]},"properties":{"type":"pakketpunt","locatieNaam":"Amazon Locker - quintillia","straatNaam":"ENI Station pv.9926","straatNr":"","vervoerder":"Amazon","puntType":"locker","bezettingsgraad":50,"latitude":36.9580178,"longitude":14.5237308,"canPickup":true,"canDropoff":false,"openingstijden":null}},{"type":"Feature","geometry":{"type":"Point","coordinates":[14.52299,36.938748]},"properties":{"type":"pakketpunt","locatieNaam":"Amazon Locker - uta","straatNaam":"COOP Vittoria Scoglitti","straatNr":"","vervoerder":"Amazon","puntType":"locker","bezettingsgraad":50,"latitude":36.938748,"longitude":14.52299,"canPickup":true,"canDropoff":false,"openingstijden":null}},{"type":"Feature","geometry":{"type":"Point","coordinates":[14.5177309,36.9615254]},"properties":{"type":"pakketpunt","locatieNaam":"Amazon Counter - Dr Motori","straatNaam":"Via Marangio","straatNr":"","vervoerder":"Amazon","puntType":"helix","bezettingsgraad":50,"latitude":36.9615254,"longitude":14.5177309,"canPickup":true,"canDropoff":false,"openingstijden":null}},{"type":"Feature","geometry":{"type":"Point","coordinates":[14.52806,36.95709]},"properties":{"type":"pakketpunt","locatieNaam":"Amazon Counter - KALEYDOS di Morreale Gianluca","straatNaam":"Via Generale Armando Diaz, 32","straatNr":"","vervoerder":"Amazon","puntType":"helix","bezettingsgraad":50,"latitude":36.95709,"longitude":14.52806,"canPickup":true,"canDropoff":false,"openingstijden":null}},{"type":"Feature","geometry":{"type":"Point","coordinates":[14.52687,36.945404]},"properties":{"type":"pakketpunt","locatieNaam":"Amazon Counter (fermopoint)","straatNaam":"Posta Express - Vittoria","straatNr":"","vervoerder":"Amazon","puntType":"helix","bezettingsgraad":50,"latitude":36.945404,"longitude":14.52687,"canPickup":true,"canDropoff":false,"openingstijden":null}},{"type":"Feature","geometry":{"type":"Point","coordinates":[14.52259,36.955614]},"properties":{"type":"pakketpunt","locatieNaam":"Amazon Counter","straatNaam":"Cartoleria Sfera (fermopoint)","straatNr":"","vervoerder":"Amazon","puntType":"helix","bezettingsgraad":50,"latitude":36.955614,"longitude":14.52259,"canPickup":true,"canDropoff":false,"openingstijden":null}},{"type":"Feature","geometry":{"type":"Point","coordinates":[14.5382897,36.9570436]},"properties":{"type":"pakketpunt","locatieNaam":"Amazon Counter (fermopoint)","straatNaam":"Multiservizi & Cartoleria","straatNr":"","vervoerder":"Amazon","puntType":"helix","bezettingsgraad":50,"latitude":36.9570436,"longitude":14.5382897,"canPickup":true,"canDropoff":false,"openingstijden":null}},{"type":"Feature","geometry":{"type":"Point","coordinates":[14.520724,36.93834]},"properties":{"type":"pakketpunt","locatieNaam":"Amazon Counter - Enilive Station (n.29884)","straatNaam":"S.P. VITTORIA SCOGLITTI KM 1,300 74","straatNr":"","vervoerder":"Amazon","puntType":"helix","bezettingsgraad":50,"latitude":36.93834,"longitude":14.520724,"canPickup":true,"canDropoff":false,"openingstijden":null}},{"type":"Feature","geometry":{"type":"Point","coordinates":[14.5189,36.9379]},"properties":{"type":"pakketpunt","locatieNaam":"PuntoPoste TABACCHERIA N. 36","straatNaam":"STRADA PROVINCIALE 17 VITTORIA SCOGLITTI 82","straatNr":"","vervoerder":"Amazon","puntType":"3p","bezettingsgraad":50,"latitude":36.9379,"longitude":14.5189,"canPickup":true,"canDropoff":false,"openingstijden":null}},{"type":"Feature","geometry":{"type":"Point","coordinates":[14.5214212,36.9453638]},"properties":{"type":"pakketpunt","locatieNaam":"Amazon Counter - Santoro Gianni","straatNaam":"VIA MILANO 405","straatNr":"","vervoerder":"Amazon","puntType":"helix","bezettingsgraad":50,"latitude":36.9453638,"longitude":14.5214212,"canPickup":true,"canDropoff":false,"openingstijden":null}},{"type":"Feature","geometry":{"type":"Point","coordinates":[14.530182,36.950807]},"properties":{"type":"pakketpunt","locatieNaam":"Amazon Counter - sportello mondo","straatNaam":"via roma , 234","straatNr":"","vervoerder":"Amazon","puntType":"helix","bezettingsgraad":50,"latitude":36.950807,"longitude":14.530182,"canPickup":true,"canDropoff":false,"openingstijden":null}},{"type":"Feature","geometry":{"type":"Point","coordinates":[14.55502,36.959756]},"properties":{"type":"pakketpunt","locatieNaam":"Amazon Locker - quartiero","straatNaam":"ENI Station pv.29890","straatNr":"","vervoerder":"Amazon","puntType":"locker","bezettingsgraad":50,"latitude":36.959756,"longitude":14.55502,"canPickup":true,"canDropoff":false,"openingstijden":null}},{"type":"Feature","geometry":{"type":"Point","coordinates":[14.430603,36.892052]},"properties":{"type":"pakketpunt","locatieNaam":"FedEx OnSite","straatNaam":"Via Napoli, 97","straatNr":"","vervoerder":"FedEx","puntType":"servicepunt","bezettingsgraad":50,"latitude":36.892052,"longitude":14.430603,"canPickup":true,"canDropoff":true,"openingstijden":{"ma":"06:00 - 13:00, 15:30 - 20:00","di":"06:00 - 13:00, 15:30 - 20:00","wo":"06:00 - 13:00, 15:30 - 20:00","do":"06:00 - 13:00, 15:30 - 20:00","vr":"06:00 - 13:00, 15:30 - 20:00","za":"06:00 - 13:00, 15:30 - 20:00","zo":"07:30 - 13:00"}}},{"type":"Feature","geometry":{"type":"Point","coordinates":[14.431372,36.892843]},"properties":{"type":"pakketpunt","locatieNaam":"FedEx OnSite","straatNaam":"Via napoli, snc","straatNr":"","vervoerder":"FedEx","puntType":"servicepunt","bezettingsgraad":50,"latitude":36.892843,"longitude":14.431372,"canPickup":true,"canDropoff":true,"openingstijden":{"ma":"08:30 - 16:30","di":"08:30 - 16:30","wo":"08:30 - 16:30","do":"08:30 - 16:30","vr":"08:30 - 16:30","za":"gesloten","zo":"gesloten"}}},{"type":"Feature","geometry":{"type":"Point","coordinates":[14.524249,36.943874]},"properties":{"type":"pakketpunt","locatieNaam":"FedEx OnSite","straatNaam":"VIA DELLA RESISTENZA, 86","straatNr":"","vervoerder":"FedEx","puntType":"servicepunt","bezettingsgraad":50,"latitude":36.943874,"longitude":14.524249,"canPickup":true,"canDropoff":true,"openingstijden":{"ma":"08:30 - 13:00, 16:00 - 20:30","di":"08:30 - 13:00, 16:00 - 20:30","wo":"08:30 - 13:00, 16:00 - 20:30","do":"08:30 - 13:00, 16:00 - 20:30","vr":"08:30 - 13:00, 16:00 - 20:30","za":"08:30 - 13:00, 16:00 - 20:30","zo":"gesloten"}}},{"type":"Feature","geometry":{"type":"Point","coordinates":[14.525895,36.944397]},"properties":{"type":"pakketpunt","locatieNaam":"FedEx OnSite","straatNaam":"Via cacciatori delle alpi, 412b","straatNr":"","vervoerder":"FedEx","puntType":"servicepunt","bezettingsgraad":50,"latitude":36.944397,"longitude":14.525895,"canPickup":true,"canDropoff":true,"openingstijden":{"ma":"09:00 - 13:00, 16:00 - 19:00","di":"09:00 - 13:00, 16:00 - 19:00","wo":"09:00 - 13:00, 16:00 - 19:00","do":"09:00 - 13:00, 16:00 - 19:00","vr":"09:00 - 14:00","za":"gesloten","zo":"gesloten"}}},{"type":"Feature","geometry":{"type":"Point","coordinates":[14.524056356962483,36.94903635660422]},"properties":{"type":"pakketpunt","locatieNaam":"FedEx OnSite","straatNaam":"via bologna, 203","straatNr":"","vervoerder":"FedEx","puntType":"servicepunt","bezettingsgraad":50,"latitude":36.94903635660422,"longitude":14.524056356962483,"canPickup":true,"canDropoff":true,"openingstijden":{"ma":"09:00 - 13:00, 17:00 - 19:00","di":"09:00 - 13:00, 17:00 - 19:00","wo":"09:00 - 13:00, 17:00 - 19:00","do":"09:00 - 13:00, 17:00 - 19:00","vr":"08:30 - 13:00, 17:00 - 19:00","za":"gesloten","zo":"gesloten"}}},{"type":"Feature","geometry":{"type":"Point","coordinates":[14.525633,36.948744]},"properties":{"type":"pakketpunt","locatieNaam":"FedEx OnSite","straatNaam":"via brescia, 113","straatNr":"","vervoerder":"FedEx","puntType":"servicepunt","bezettingsgraad":50,"latitude":36.948744,"longitude":14.525633,"canPickup":true,"canDropoff":true,"openingstijden":{"ma":"09:00 - 13:00","di":"09:00 - 13:00","wo":"09:00 - 13:00","do":"09:00 - 13:00","vr":"09:00 - 13:00","za":"gesloten","zo":"gesloten"}}},{"type":"Feature","geometry":{"type":"Point","coordinates":[14.522525114241063,36.95206895492814]},"properties":{"type":"pakketpunt","locatieNaam":"FedEx OnSite","straatNaam":"VIA ALESSANDRO MANZONI 107","straatNr":"","vervoerder":"FedEx","puntType":"servicepunt","bezettingsgraad":50,"latitude":36.95206895492814,"longitude":14.522525114241063,"canPickup":true,"canDropoff":true,"openingstijden":{"ma":"09:00 - 13:00, 16:30 - 20:00","di":"09:00 - 13:00, 16:30 - 20:00","wo":"09:00 - 13:00, 16:30 - 20:00","do":"09:00 - 13:00, 16:30 - 20:00","vr":"09:00 - 13:00, 16:30 - 20:00","za":"09:00 - 13:00","zo":"gesloten"}}},{"type":"Feature","geometry":{"type":"Point","coordinates":[14.522450422970174,36.95300706411444]},"properties":{"type":"pakketpunt","locatieNaam":"FedEx OnSite","straatNaam":"via Orazio Busacca, 7","straatNr":"","vervoerder":"FedEx","puntType":"servicepunt","bezettingsgraad":50,"latitude":36.95300706411444,"longitude":14.522450422970174,"canPickup":true,"canDropoff":true,"openingstijden":{"ma":"06:00 - 22:00","di":"06:00 - 22:00","wo":"06:00 - 22:00","do":"06:00 - 22:00","vr":"06:00 - 22:00","za":"06:00 - 23:00","zo":"gesloten"}}},{"type":"Feature","geometry":{"type":"Point","coordinates":[14.529057262663988,36.94942364642003]},"properties":{"type":"pakketpunt","locatieNaam":"FedEx OnSite","straatNaam":"VIA ROMA, 288-290","straatNr":"","vervoerder":"FedEx","puntType":"servicepunt","bezettingsgraad":50,"latitude":36.94942364642003,"longitude":14.529057262663988,"canPickup":true,"canDropoff":true,"openingstijden":{"ma":"07:30 - 13:30, 16:00 - 21:00","di":"07:30 - 13:30, 16:00 - 21:00","wo":"07:30 - 13:30, 16:00 - 21:00","do":"07:30 - 13:30, 16:00 - 21:00","vr":"07:30 - 13:30, 16:00 - 21:00","za":"07:30 - 13:30, 16:00 - 21:00","zo":"07:30 - 13:30, 16:00 - 21:00"}}},{"type":"Feature","geometry":{"type":"Point","coordinates":[14.530287,36.950745]},"properties":{"type":"pakketpunt","locatieNaam":"FedEx OnSite","straatNaam":"via roma, 234","straatNr":"","vervoerder":"FedEx","puntType":"servicepunt","bezettingsgraad":50,"latitude":36.950745,"longitude":14.530287,"canPickup":true,"canDropoff":true,"openingstijden":{"ma":"09:00 - 13:30, 16:00 - 20:30","di":"09:00 - 13:30, 16:00 - 20:30","wo":"09:00 - 13:30, 16:00 - 20:30","do":"09:00 - 13:30, 16:00 - 20:30","vr":"09:00 - 13:30, 16:00 - 20:30","za":"09:00 - 13:30, 16:00 - 20:30","zo":"gesloten"}}},{"type":"Feature","geometry":{"type":"Point","coordinates":[14.534959605256107,36.947832553816525]},"properties":{"type":"pakketpunt","locatieNaam":"FedEx OnSite","straatNaam":"via garibaldi , 230","straatNr":"","vervoerder":"FedEx","puntType":"servicepunt","bezettingsgraad":50,"latitude":36.947832553816525,"longitude":14.534959605256107,"canPickup":true,"canDropoff":true,"openingstijden":{"ma":"07:30 - 13:30, 16:00 - 20:30","di":"07:30 - 13:30, 16:00 - 20:30","wo":"07:30 - 13:30, 16:00 - 20:30","do":"07:30 - 13:30, 16:00 - 20:30","vr":"07:30 - 13:30, 16:00 - 20:30","za":"07:30 - 13:30, 16:00 - 20:30","zo":"gesloten"}}},{"type":"Feature","geometry":{"type":"Point","coordinates":[14.529102291104525,36.952768234360995]},"properties":{"type":"pakketpunt","locatieNaam":"FedEx OnSite","straatNaam":"VIA MAGENTA, 373/A","straatNr":"","vervoerder":"FedEx","puntType":"servicepunt","bezettingsgraad":50,"latitude":36.952768234360995,"longitude":14.529102291104525,"canPickup":true,"canDropoff":true,"openingstijden":{"ma":"09:00 - 13:00, 16:00 - 20:30","di":"09:00 - 13:00, 16:00 - 20:30","wo":"09:00 - 13:00, 16:00 - 20:30","do":"09:00 - 13:00, 16:00 - 20:30","vr":"09:00 - 13:00, 16:00 - 20:30","za":"09:00 - 13:00, 16:00 - 20:30","zo":"gesloten"}}},{"type":"Feature","geometry":{"type":"Point","coordinates":[14.526487792939559,36.95625928430663]},"properties":{"type":"pakketpunt","locatieNaam":"FedEx OnSite","straatNaam":"VIA GENERALE CASCINO, 34/D","straatNr":"","vervoerder":"FedEx","puntType":"servicepunt","bezettingsgraad":50,"latitude":36.95625928430663,"longitude":14.526487792939559,"canPickup":true,"canDropoff":true,"openingstijden":{"ma":"08:00 - 12:30, 16:00 - 19:30","di":"08:00 - 12:30, 16:00 - 19:30","wo":"08:00 - 12:30, 16:00 - 19:30","do":"08:00 - 12:30, 16:00 - 19:30","vr":"08:00 - 12:30, 16:00 - 19:30","za":"gesloten","zo":"gesloten"}}},{"type":"Feature","geometry":{"type":"Point","coordinates":[14.530856096485687,36.95331101991798]},"properties":{"type":"pakketpunt","locatieNaam":"FedEx OnSite","straatNaam":"via vicenza, 100","straatNr":"","vervoerder":"FedEx","puntType":"servicepunt","bezettingsgraad":50,"latitude":36.95331101991798,"longitude":14.530856096485687,"canPickup":true,"canDropoff":true,"openingstijden":{"ma":"05:00 - 21:00","di":"05:00 - 21:00","wo":"05:00 - 21:00","do":"05:00 - 21:00","vr":"05:00 - 21:00","za":"05:00 - 21:00","zo":"05:00 - 21:00"}}},{"type":"Feature","geometry":{"type":"Point","coordinates":[14.532108,36.952574]},"properties":{"type":"pakketpunt","locatieNaam":"FedEx OnSite","straatNaam":"VIA N. BIXIO, 280","straatNr":"","vervoerder":"FedEx","puntType":"servicepunt","bezettingsgraad":50,"latitude":36.952574,"longitude":14.532108,"canPickup":true,"canDropoff":true,"openingstijden":{"ma":"09:00 - 13:00, 16:00 - 20:00","di":"09:00 - 13:00, 16:00 - 20:00","wo":"09:00 - 13:00, 16:00 - 20:00","do":"09:00 - 13:00, 16:00 - 20:00","vr":"09:00 - 13:00, 16:00 - 20:00","za":"09:00 - 13:00, 16:00 - 20:00","zo":"gesloten"}}},{"type":"Feature","geometry":{"type":"Point","coordinates":[14.536747,36.949728]},"properties":{"type":"pakketpunt","locatieNaam":"FedEx OnSite","straatNaam":"Piazza del popolo, 29","straatNr":"","vervoerder":"FedEx","puntType":"servicepunt","bezettingsgraad":50,"latitude":36.949728,"longitude":14.536747,"canPickup":true,"canDropoff":true,"openingstijden":{"ma":"05:30 - 13:00, 15:30 - 21:00","di":"05:30 - 13:00, 15:30 - 21:00","wo":"05:30 - 13:00, 15:30 - 21:00","do":"05:30 - 13:00, 15:30 - 21:00","vr":"05:30 - 13:00, 15:30 - 21:00","za":"05:30 - 13:00, 15:30 - 21:00","zo":"16:00 - 21:00"}}},{"type":"Feature","geometry":{"type":"Point","coordinates":[14.531833,36.953419]},"properties":{"type":"pakketpunt","locatieNaam":"FedEx OnSite","straatNaam":"Via Camillo Benso Conte Di Cavour, 356","straatNr":"","vervoerder":"FedEx","puntType":"servicepunt","bezettingsgraad":50,"latitude":36.953419,"longitude":14.531833,"canPickup":true,"canDropoff":true,"openingstijden":{"ma":"16:30 - 20:00","di":"09:30 - 13:00, 16:30 - 20:00","wo":"09:30 - 13:00, 16:30 - 20:00","do":"09:30 - 13:00, 16:30 - 20:00","vr":"09:30 - 13:00, 16:30 - 20:00","za":"09:30 - 13:00, 16:30 - 20:00","zo":"gesloten"}}},{"type":"Feature","geometry":{"type":"Point","coordinates":[14.530817728711808,36.95427837058384]},"properties":{"type":"pakketpunt","locatieNaam":"FedEx OnSite","straatNaam":"via conte di cavour, 384","straatNr":"","vervoerder":"FedEx","puntType":"servicepunt","bezettingsgraad":50,"latitude":36.95427837058384,"longitude":14.530817728711808,"canPickup":true,"canDropoff":true,"openingstijden":{"ma":"10:00 - 13:00, 16:30 - 20:30","di":"09:00 - 13:00, 16:30 - 20:30","wo":"09:00 - 13:00, 16:30 - 20:30","do":"09:00 - 13:00, 16:30 - 20:30","vr":"09:00 - 13:00, 16:30 - 20:30","za":"10:00 - 13:00, 16:30 - 20:30","zo":"gesloten"}}},{"type":"Feature","geometry":{"type":"Point","coordinates":[14.53187,36.95356]},"properties":{"type":"pakketpunt","locatieNaam":"FedEx OnSite","straatNaam":"Via Cavour 356","straatNr":"","vervoerder":"FedEx","puntType":"servicepunt","bezettingsgraad":50,"latitude":36.95356,"longitude":14.53187,"canPickup":true,"canDropoff":true,"openingstijden":{"ma":"gesloten","di":"gesloten","wo":"gesloten","do":"gesloten","vr":"gesloten","za":"gesloten","zo":"gesloten"}}},{"type":"Feature","geometry":{"type":"Point","coordinates":[14.53267058240668,36.95320630555156]},"properties":{"type":"pakketpunt","locatieNaam":"FedEx OnSite","straatNaam":"via conte di cavour, 373","straatNr":"","vervoerder":"FedEx","puntType":"servicepunt","bezettingsgraad":50,"latitude":36.95320630555156,"longitude":14.53267058240668,"canPickup":true,"canDropoff":true,"openingstijden":{"ma":"09:00 - 13:00, 16:00 - 20:30","di":"09:00 - 13:00, 16:00 - 20:30","wo":"09:00 - 13:00, 16:00 - 20:30","do":"09:00 - 13:00, 16:00 - 20:30","vr":"09:00 - 13:00, 16:00 - 20:30","za":"09:00 - 13:00, 16:00 - 20:30","zo":"gesloten"}}},{"type":"Feature","geometry":{"type":"Point","coordinates":[14.532162997845258,36.953934773062414]},"properties":{"type":"pakketpunt","locatieNaam":"FedEx OnSite","straatNaam":"Piazza Giacomo Matteotti, 15","straatNr":"","vervoerder":"FedEx","puntType":"servicepunt","bezettingsgraad":50,"latitude":36.953934773062414,"longitude":14.532162997845258,"canPickup":true,"canDropoff":true,"openingstijden":{"ma":"08:30 - 13:00, 16:00 - 19:30","di":"08:30 - 13:00, 16:00 - 19:30","wo":"08:30 - 13:00, 16:00 - 19:30","do":"08:30 - 13:00, 16:00 - 19:30","vr":"08:30 - 13:00, 16:00 - 19:30","za":"gesloten","zo":"gesloten"}}},{"type":"Feature","geometry":{"type":"Point","coordinates":[14.530688816325563,36.95527631948497]},"properties":{"type":"pakketpunt","locatieNaam":"FedEx OnSite","straatNaam":"Via Milano, 19C","straatNr":"","vervoerder":"FedEx","puntType":"servicepunt","bezettingsgraad":50,"latitude":36.95527631948497,"longitude":14.530688816325563,"canPickup":true,"canDropoff":true,"openingstijden":{"ma":"15:00 - 23:30","di":"09:00 - 23:30","wo":"09:00 - 23:30","do":"09:00 - 23:30","vr":"09:00 - 23:30","za":"09:00 - 23:30","zo":"09:00 - 23:30"}}},{"type":"Feature","geometry":{"type":"Point","coordinates":[14.531811,36.955581]},"properties":{"type":"pakketpunt","locatieNaam":"FedEx OnSite","straatNaam":"via gaeta, 283","straatNr":"","vervoerder":"FedEx","puntType":"servicepunt","bezettingsgraad":50,"latitude":36.955581,"longitude":14.531811,"canPickup":true,"canDropoff":true,"openingstijden":{"ma":"09:00 - 12:30","di":"09:00 - 12:30","wo":"09:00 - 12:30","do":"09:00 - 12:30","vr":"09:00 - 12:30","za":"09:00 - 12:30","zo":"gesloten"}}},{"type":"Feature","geometry":{"type":"Point","coordinates":[14.534756459796654,36.95378827345407]},"properties":{"type":"pakketpunt","locatieNaam":"FedEx OnSite","straatNaam":"VIA GAETA, 179","straatNr":"","vervoerder":"FedEx","puntType":"servicepunt","bezettingsgraad":50,"latitude":36.95378827345407,"longitude":14.534756459796654,"canPickup":true,"canDropoff":true,"openingstijden":{"ma":"08:30 - 12:30, 14:30 - 18:00","di":"08:30 - 12:30, 14:30 - 18:00","wo":"08:30 - 12:30, 14:30 - 18:00","do":"08:30 - 12:30, 14:30 - 18:00","vr":"08:30 - 12:30, 14:30 - 18:00","za":"gesloten","zo":"gesloten"}}},{"type":"Feature","geometry":{"type":"Point","coordinates":[14.530677,36.958347]},"properties":{"type":"pakketpunt","locatieNaam":"FedEx OnSite","straatNaam":"VIA XX SETTEMBRE, 279","straatNr":"","vervoerder":"FedEx","puntType":"servicepunt","bezettingsgraad":50,"latitude":36.958347,"longitude":14.530677,"canPickup":true,"canDropoff":true,"openingstijden":{"ma":"08:30 - 13:00, 16:00 - 20:30","di":"08:30 - 13:00, 16:00 - 20:30","wo":"08:30 - 13:00, 16:00 - 20:30","do":"08:30 - 13:00, 16:00 - 20:30","vr":"08:30 - 13:00, 16:00 - 20:30","za":"08:30 - 13:00, 16:00 - 20:30","zo":"gesloten"}}},{"type":"Feature","geometry":{"type":"Point","coordinates":[14.538507186164823,36.95336834341874]},"properties":{"type":"pakketpunt","locatieNaam":"FedEx OnSite","straatNaam":"VIA XX SETTEMBRE, 60/A","straatNr":"","vervoerder":"FedEx","puntType":"servicepunt","bezettingsgraad":50,"latitude":36.95336834341874,"longitude":14.538507186164823,"canPickup":true,"canDropoff":true,"openingstijden":{"ma":"09:00 - 13:00, 15:30 - 19:30","di":"09:00 - 13:00, 15:30 - 19:30","wo":"09:00 - 13:00, 15:30 - 19:30","do":"09:00 - 13:00, 15:30 - 19:30","vr":"09:00 - 13:00, 15:30 - 19:30","za":"09:00 - 13:00","zo":"gesloten"}}},{"type":"Feature","geometry":{"type":"Point","coordinates":[14.540031,36.954453]},"properties":{"type":"pakketpunt","locatieNaam":"FedEx OnSite","straatNaam":"VIA CAPPELLINI, 1","straatNr":"","vervoerder":"FedEx","puntType":"servicepunt","bezettingsgraad":50,"latitude":36.954453,"longitude":14.540031,"canPickup":true,"canDropoff":true,"openingstijden":{"ma":"08:30 - 13:00, 16:00 - 20:30","di":"08:30 - 13:00, 16:00 - 20:30","wo":"08:30 - 13:00, 16:00 - 20:30","do":"08:30 - 13:00, 16:00 - 20:30","vr":"08:30 - 13:00, 16:00 - 20:30","za":"08:30 - 13:00, 16:00 - 20:30","zo":"gesloten"}}},{"type":"Feature","geometry":{"type":"Point","coordinates":[14.53881,36.95622]},"properties":{"type":"pakketpunt","locatieNaam":"FedEx OnSite","straatNaam":"Viale Iannizzotto 42/B","straatNr":"","vervoerder":"FedEx","puntType":"servicepunt","bezettingsgraad":50,"latitude":36.95622,"longitude":14.53881,"canPickup":true,"canDropoff":true,"openingstijden":{"ma":"09:00 - 19:00","di":"09:00 - 19:00","wo":"09:00 - 19:00","do":"09:00 - 19:00","vr":"09:00 - 19:00","za":"09:00 - 19:00","zo":"09:00 - 19:00"}}},{"type":"Feature","geometry":{"type":"Point","coordinates":[14.541130046237475,36.954669018804715]},"properties":{"type":"pakketpunt","locatieNaam":"FedEx OnSite","straatNaam":"Via G.Garibaldi, 1F","straatNr":"","vervoerder":"FedEx","puntType":"servicepunt","bezettingsgraad":50,"latitude":36.954669018804715,"longitude":14.541130046237475,"canPickup":true,"canDropoff":true,"openingstijden":{"ma":"09:00 - 13:00, 16:00 - 19:00","di":"09:00 - 13:00, 16:00 - 19:00","wo":"09:00 - 13:00, 16:00 - 19:00","do":"09:00 - 13:00, 16:00 - 19:00","vr":"09:00 - 13:00, 16:00 - 19:00","za":"gesloten","zo":"gesloten"}}},{"type":"Feature","geometry":{"type":"Point","coordinates":[14.538289,36.956926]},"properties":{"type":"pakketpunt","locatieNaam":"FedEx OnSite","straatNaam":"Strada Forcone, 42/b","straatNr":"","vervoerder":"FedEx","puntType":"servicepunt","bezettingsgraad":50,"latitude":36.956926,"longitude":14.538289,"canPickup":true,"canDropoff":true,"openingstijden":{"ma":"09:00 - 13:00, 16:00 - 19:30","di":"09:00 - 13:00, 16:00 - 19:30","wo":"09:00 - 13:00, 16:00 - 19:30","do":"09:00 - 13:00, 16:00 - 19:30","vr":"09:00 - 13:00, 16:00 - 19:30","za":"gesloten","zo":"gesloten"}}},{"type":"Feature","geometry":{"type":"Polygon","coordinates":[[[14.3876051,36.9501241],[14.3886436,36.9485543],[14.3949947,36.9401142],[14.3963951,36.9381305],[14.3971109,36.9372959],[14.3993842,36.9340119],[14.401511,36.9303839],[14.4017875,36.9296403],[14.4022511,36.9291061],[14.4023969,36.9285706],[14.4026451,36.9282895],[14.4027697,36.9279098],[14.4047337,36.9250999],[14.4057616,36.9233051],[14.4058565,36.9228136],[14.4063456,36.9223925],[14.406584,36.9221104],[14.406727,36.9217005],[14.4071578,36.9213115],[14.4071925,36.9209442],[14.4068913,36.9206821],[14.4070889,36.9206934],[14.4070495,36.9205175],[14.4074212,36.9205843],[14.4079657,36.9201842],[14.4080849,36.9199109],[14.4079916,36.9197478],[14.4080426,36.9195697],[14.4082436,36.919494],[14.4083768,36.9192084],[14.4082464,36.9190724],[14.4082152,36.9186984],[14.408805,36.9187075],[14.409097,36.9185738],[14.4092784,36.9183403],[14.4096725,36.9182972],[14.4105596,36.9184637],[14.4110269,36.9182121],[14.4120109,36.9174311],[14.4128948,36.9160705],[14.4131263,36.9155537],[14.4131742,36.915228],[14.4135827,36.9149984],[14.413845,36.9147018],[14.4141195,36.9142497],[14.4141103,36.9140109],[14.4142229,36.9138268],[14.4144353,36.9136678],[14.414677,36.9136395],[14.4155519,36.9130785],[14.4170517,36.9112303],[14.4171032,36.9110226],[14.4176502,36.9104713],[14.417794,36.9104356],[14.4179843,36.9098709],[14.4195213,36.907559],[14.4198284,36.9072901],[14.4207925,36.9059888],[14.4214101,36.9047119],[14.4220432,36.9038238],[14.422596,36.901885],[14.4240006,36.898741],[14.4245606,36.8967947],[14.4248206,36.8962551],[14.4251284,36.8947525],[14.4251619,36.8942414],[14.4246808,36.8926594],[14.4221424,36.8928834],[14.4214372,36.8926826],[14.4209487,36.8923495],[14.4206425,36.8916311],[14.4206277,36.8911343],[14.4214761,36.8888599],[14.4216116,36.8887586],[14.421838,36.8887456],[14.4220227,36.888872],[14.4220533,36.8890059],[14.4220131,36.889157],[14.4218289,36.8892802],[14.421093,36.8912578],[14.4210714,36.8916236],[14.4211694,36.891956],[14.4213936,36.8922361],[14.4218688,36.8925272],[14.4223562,36.8926083],[14.4263569,36.892351],[14.4264392,36.8920253],[14.4262375,36.8919019],[14.4260084,36.8909535],[14.4260794,36.8908806],[14.4262113,36.890942],[14.4261733,36.891046],[14.426366,36.8917954],[14.4264484,36.8918759],[14.4274392,36.8920882],[14.4275131,36.8919725],[14.427795,36.8920461],[14.4278022,36.8918272],[14.4278988,36.8918227],[14.427897,36.8918887],[14.4281349,36.8917361],[14.4283093,36.8912708],[14.427998,36.8907439],[14.426979,36.8911123],[14.4268919,36.8909537],[14.4278904,36.8905987],[14.4274891,36.8904366],[14.4248703,36.8903725],[14.4232036,36.8918195],[14.4229839,36.8917411],[14.4229208,36.8915898],[14.4229722,36.8914557],[14.4240538,36.8904409],[14.4246954,36.8900722],[14.4267828,36.8901316],[14.4276572,36.8902849],[14.42819,36.8905489],[14.428386,36.890359],[14.4285175,36.8900106],[14.4284371,36.8904274],[14.4288259,36.8903844],[14.4290151,36.8902496],[14.428925,36.8900484],[14.4291326,36.8898762],[14.4293463,36.8899664],[14.4295605,36.8899318],[14.4296827,36.8897576],[14.4295722,36.8895735],[14.4299145,36.8893058],[14.4300914,36.889365],[14.4303039,36.8892932],[14.4303617,36.8890638],[14.4301929,36.888877],[14.4305708,36.8883568],[14.4309237,36.888372],[14.4311041,36.8881797],[14.4310884,36.8879525],[14.430943,36.8878843],[14.4311345,36.8875457],[14.4314655,36.887646],[14.4318549,36.8875842],[14.4320349,36.8875016],[14.4319668,36.8870753],[14.4320685,36.8868811],[14.4327249,36.8869851],[14.4326925,36.8868785],[14.433063,36.8867664],[14.4334711,36.8863951],[14.4334502,36.8863094],[14.4335612,36.8863499],[14.4338586,36.8861837],[14.4342333,36.8862429],[14.4346653,36.8861037],[14.4356282,36.8851338],[14.4361061,36.8845417],[14.4368456,36.8833368],[14.4374512,36.8820859],[14.4389156,36.8784755],[14.4390781,36.8777367],[14.43916,36.8760823],[14.4401396,36.8759263],[14.440943,36.8759074],[14.443143,36.876224],[14.4435279,36.8762139],[14.4485222,36.8751297],[14.4487262,36.8750712],[14.4495981,36.8744601],[14.4510671,36.8739266],[14.4524926,36.8737695],[14.4538503,36.8742755],[14.4540572,36.8744043],[14.454521,36.8749393],[14.4551267,36.8752351],[14.4572015,36.8759751],[14.4620368,36.8774937],[14.4650995,36.8787564],[14.4669403,36.8791298],[14.467643,36.8794318],[14.4692111,36.8805015],[14.4728979,36.8820662],[14.4749799,36.8819529],[14.4752142,36.8819999],[14.4762631,36.8823755],[14.4797329,36.8830679],[14.4827713,36.8839116],[14.4834979,36.884239],[14.4845803,36.8843454],[14.4855105,36.8842189],[14.4860579,36.8842469],[14.4870604,36.8845304],[14.4882219,36.8843811],[14.4892365,36.8846771],[14.4901006,36.884377],[14.4912228,36.8842008],[14.4914568,36.8840967],[14.4917579,36.8837916],[14.4920079,36.8832511],[14.4921571,36.8831257],[14.4932036,36.8829552],[14.4936094,36.8832844],[14.4937073,36.8836881],[14.4936641,36.8840121],[14.4938905,36.8842827],[14.4948632,36.8846236],[14.4952789,36.8846708],[14.4957716,36.8849899],[14.4981256,36.8852614],[14.4993837,36.8857302],[14.4999443,36.8856358],[14.5004439,36.8853355],[14.5008238,36.8852938],[14.5014583,36.8856752],[14.5018786,36.8858059],[14.5025444,36.8857108],[14.5023596,36.8852598],[14.5025149,36.8850185],[14.5030492,36.8847956],[14.5034528,36.8848453],[14.5038484,36.8846143],[14.5040033,36.8844648],[14.5041819,36.8839175],[14.5043004,36.8838184],[14.504501,36.8837836],[14.5049413,36.8838895],[14.5051698,36.8842715],[14.5051398,36.8845113],[14.5048161,36.8850206],[14.5048147,36.8854673],[14.5048944,36.8855992],[14.5058103,36.8860455],[14.5071318,36.886942],[14.5070528,36.8870528],[14.5065034,36.8872876],[14.5056129,36.8878352],[14.5044635,36.8880515],[14.50375,36.8880893],[14.5032401,36.8882501],[14.5026391,36.8887844],[14.502233,36.8889752],[14.501622,36.8890041],[14.5009452,36.8888763],[14.5006139,36.8889337],[14.4996601,36.890312],[14.4992524,36.8907573],[14.4985248,36.8919393],[14.4982396,36.8921272],[14.4979066,36.8925278],[14.4976894,36.8926329],[14.4973293,36.8931488],[14.4968511,36.8933467],[14.4959215,36.8935269],[14.495078,36.8940566],[14.4946262,36.8940624],[14.4940444,36.8946852],[14.4930662,36.8951913],[14.4915502,36.8956994],[14.4903925,36.8962481],[14.4907932,36.8971303],[14.4911645,36.8975086],[14.4928428,36.8976216],[14.4934278,36.8977643],[14.4938325,36.8980942],[14.4941131,36.8985484],[14.4946566,36.9001449],[14.4953408,36.9027083],[14.4958342,36.902963],[14.496538,36.9025993],[14.4967758,36.9023896],[14.4970951,36.90157],[14.4975623,36.9010497],[14.4979178,36.9004224],[14.4980216,36.8997152],[14.4985048,36.8994009],[14.4986458,36.8992087],[14.4986798,36.8989321],[14.4990839,36.8985387],[14.4996606,36.8983537],[14.5003059,36.898258],[14.5009173,36.8985771],[14.5015927,36.8992049],[14.5027985,36.8988454],[14.5047241,36.8986106],[14.5055229,36.8974367],[14.509258,36.8948163],[14.5112848,36.892843],[14.5126921,36.8912386],[14.5137093,36.8906255],[14.5150718,36.8900057],[14.5158394,36.8906877],[14.517837,36.8916294],[14.5194337,36.8927988],[14.5198608,36.8932245],[14.5208253,36.8929601],[14.5217311,36.8934433],[14.5223736,36.8939646],[14.5226182,36.8949079],[14.523047,36.8955731],[14.5239818,36.8958671],[14.5242826,36.8960996],[14.5259649,36.8964467],[14.5267955,36.8968629],[14.5277144,36.8976077],[14.5288469,36.8988271],[14.5290715,36.8989126],[14.529366,36.8998914],[14.5288405,36.9011211],[14.5287306,36.9024218],[14.5287619,36.9028953],[14.528924,36.9035253],[14.5296252,36.9042517],[14.5311242,36.9052533],[14.5321091,36.9056705],[14.533741,36.905783],[14.5355065,36.9053118],[14.536332,36.9051714],[14.5365821,36.9052342],[14.5367329,36.9059652],[14.5371414,36.9064466],[14.5374216,36.9069309],[14.5375749,36.90741],[14.5379613,36.9079815],[14.5383623,36.9083087],[14.538456,36.9085395],[14.5388222,36.9089703],[14.5408473,36.9108537],[14.5420269,36.9125353],[14.5432886,36.9153022],[14.5437566,36.9167339],[14.5457645,36.9208758],[14.5463247,36.9218672],[14.5460809,36.9218987],[14.5451474,36.9216864],[14.5442529,36.9216643],[14.5438087,36.9214565],[14.5433704,36.9210582],[14.542932,36.9208458],[14.5418645,36.9205503],[14.5414439,36.9205193],[14.5407135,36.9207639],[14.5407701,36.9209145],[14.5406225,36.9213541],[14.5396658,36.9215407],[14.5388451,36.9217996],[14.5381134,36.9221498],[14.5375203,36.9221909],[14.5373373,36.9222876],[14.5362581,36.9231486],[14.534837,36.9238632],[14.5336471,36.9247248],[14.5332835,36.924695],[14.5322215,36.9242756],[14.5302938,36.9250227],[14.5299512,36.9249917],[14.5294681,36.9247753],[14.5300515,36.9251642],[14.5301489,36.9255226],[14.5306087,36.9258811],[14.5307762,36.9262629],[14.531871,36.9273461],[14.5324087,36.9280941],[14.5326542,36.9286357],[14.5326425,36.9290175],[14.5327633,36.9293097],[14.5329675,36.9306115],[14.532717,36.931616],[14.5319885,36.9324973],[14.5312673,36.9336495],[14.5308931,36.9340904],[14.5307178,36.9345034],[14.5306632,36.9349203],[14.5310356,36.9354151],[14.5312118,36.9363323],[14.5310223,36.9379148],[14.531142,36.9381656],[14.5314369,36.9383705],[14.5324318,36.9386273],[14.5333302,36.9385881],[14.5340624,36.9386526],[14.5344229,36.9387728],[14.535134,36.9392899],[14.5352704,36.939466],[14.5352773,36.9396359],[14.5352035,36.9398728],[14.5345858,36.9406139],[14.5343269,36.9415528],[14.5343769,36.9417447],[14.5347297,36.9419476],[14.5360508,36.9422706],[14.5366551,36.9422377],[14.5374101,36.9423487],[14.5381621,36.9427415],[14.5389062,36.9427894],[14.5401345,36.9430487],[14.5407335,36.9430513],[14.5410783,36.9431574],[14.5411473,36.9433348],[14.5408827,36.944047],[14.541022,36.9444641],[14.5413671,36.9446922],[14.5426015,36.9452231],[14.5433504,36.9453853],[14.5432893,36.9456362],[14.5429977,36.9459571],[14.5429311,36.9461845],[14.5431352,36.946749],[14.5435183,36.9470142],[14.5445349,36.9473277],[14.5452086,36.9474363],[14.5459831,36.9486944],[14.5464132,36.9496108],[14.5466141,36.949753],[14.5471374,36.9497349],[14.5478289,36.9499477],[14.5480947,36.9498635],[14.5483591,36.9495444],[14.5483617,36.9492664],[14.5478596,36.9485198],[14.547936,36.9483045],[14.5484859,36.9480284],[14.548991,36.9480162],[14.5495666,36.9481772],[14.5499331,36.9484967],[14.5503698,36.9491064],[14.5509246,36.9494425],[14.552399,36.9496625],[14.5540007,36.9495107],[14.5554547,36.9495644],[14.5558032,36.9496512],[14.555914,36.9498502],[14.5561906,36.9499311],[14.5564273,36.9501216],[14.5563825,36.9503137],[14.5562282,36.9504817],[14.5563724,36.9505431],[14.5568038,36.950442],[14.556849,36.9501818],[14.5573276,36.9499878],[14.5606987,36.9500977],[14.561088,36.9502028],[14.561424,36.9511145],[14.5617144,36.9515717],[14.5619369,36.9517509],[14.5631727,36.9521587],[14.564099,36.9523528],[14.5646332,36.9527253],[14.565047,36.9528196],[14.5653135,36.9527212],[14.5657173,36.9532324],[14.5660311,36.9534692],[14.5661768,36.9534901],[14.5660877,36.9529547],[14.5663271,36.9525471],[14.5667875,36.9523618],[14.5669887,36.9519551],[14.5671964,36.9517814],[14.5674156,36.9517371],[14.5679832,36.9519252],[14.5680152,36.9527268],[14.568905,36.9528246],[14.5700141,36.9526557],[14.5703528,36.9527422],[14.5707999,36.9529841],[14.5713164,36.9530884],[14.5716219,36.9530862],[14.5726438,36.9527955],[14.5730547,36.9527666],[14.5745756,36.9528847],[14.576026,36.9533014],[14.5769818,36.9536852],[14.5774392,36.9542362],[14.5793143,36.9553738],[14.5807621,36.9560089],[14.5831382,36.9572295],[14.5846357,36.9578323],[14.5873679,36.9597642],[14.588282,36.9601463],[14.5895278,36.960915],[14.59011,36.9611619],[14.591582,36.9615778],[14.5925181,36.9620663],[14.5936743,36.963009],[14.5944522,36.9640279],[14.5968667,36.96608],[14.5973991,36.9667111],[14.5958033,36.9691263],[14.592646,36.9731602],[14.5912991,36.9844809],[14.5915117,36.9864291],[14.5915274,36.988009],[14.5912726,36.9891175],[14.5908212,36.9902033],[14.5901517,36.9911589],[14.5876606,36.9935388],[14.5871434,36.9942145],[14.5862989,36.9955706],[14.5829557,36.999798],[14.5819513,37.0007158],[14.5793525,37.0026073],[14.5785386,37.0033679],[14.5776375,37.0046069],[14.5773302,37.0052078],[14.5752675,37.0104793],[14.5734405,37.0138787],[14.5728346,37.0162138],[14.5711157,37.0194575],[14.5698047,37.0214401],[14.5693616,37.021966],[14.5681548,37.0252886],[14.5675212,37.0266846],[14.5667331,37.027786],[14.5652404,37.0293063],[14.5633559,37.0319814],[14.5630163,37.0335523],[14.5621957,37.0339097],[14.561118,37.0342193],[14.5595283,37.0351247],[14.558819,37.0350848],[14.5567695,37.0356056],[14.5560957,37.0355162],[14.5554784,37.0421774],[14.5552987,37.0449745],[14.5531263,37.0447306],[14.5509752,37.044908],[14.5499096,37.0451189],[14.547278,37.0453616],[14.5465119,37.0456689],[14.5450104,37.0460422],[14.5443875,37.0463123],[14.5441995,37.0474766],[14.5445097,37.0498062],[14.5433624,37.0519529],[14.5432306,37.0523678],[14.5433807,37.0526103],[14.5432964,37.0528457],[14.5432046,37.0529404],[14.5428544,37.0529088],[14.5423228,37.0532051],[14.5421791,37.0532134],[14.5420579,37.0531707],[14.5419282,37.0528992],[14.5413741,37.0527015],[14.5398624,37.0534457],[14.5396242,37.0533021],[14.5395561,37.0531391],[14.5389288,37.0524794],[14.5386225,37.0523165],[14.538181,37.0522839],[14.5369805,37.0529178],[14.5360649,37.0523242],[14.5359774,37.0521845],[14.5359654,37.0518491],[14.5358412,37.0517344],[14.5358072,37.050834],[14.5358558,37.0507137],[14.536872,37.0502675],[14.5371054,37.0497669],[14.5371249,37.0495262],[14.5367797,37.0492546],[14.5364247,37.0491304],[14.5361232,37.0491265],[14.5340567,37.0484474],[14.5337358,37.0481913],[14.5336774,37.0480283],[14.5337081,37.0474063],[14.5329461,37.0472559],[14.5322528,37.0472948],[14.5316401,37.0474849],[14.5316255,37.0477289],[14.5314185,37.0481623],[14.5311644,37.0483101],[14.5309156,37.0482844],[14.5307308,37.0479817],[14.5304002,37.0478924],[14.5300452,37.0482389],[14.5297523,37.0482752],[14.5292859,37.0479971],[14.5288372,37.048018],[14.5282668,37.0478056],[14.5281851,37.0474579],[14.5283514,37.0464474],[14.5279384,37.0462034],[14.5276111,37.0467386],[14.5276206,37.0476358],[14.5273495,37.0475587],[14.5264799,37.0476076],[14.5261014,37.047217],[14.5258586,37.0466983],[14.5259134,37.0463858],[14.5257424,37.0454068],[14.5253394,37.0447054],[14.5250733,37.0445538],[14.5245408,37.0445526],[14.5238879,37.0449468],[14.5223522,37.0450408],[14.5222348,37.045587],[14.5217601,37.0461679],[14.5211824,37.0465956],[14.5208665,37.04665],[14.520664,37.0465398],[14.5205717,37.0463724],[14.5206398,37.0460285],[14.5203151,37.0455337],[14.5201624,37.0453829],[14.519877,37.0452709],[14.5193145,37.0454054],[14.5178652,37.045169],[14.5176707,37.0452973],[14.5174995,37.0456331],[14.5172048,37.0457838],[14.5167467,37.0453091],[14.5155786,37.0446762],[14.5143526,37.0450771],[14.5138349,37.0451515],[14.5135978,37.0448468],[14.5135496,37.0446512],[14.5135777,37.0445261],[14.5139635,37.0441797],[14.513867,37.0437488],[14.5137186,37.0436961],[14.5134225,37.0437526],[14.5133459,37.0434859],[14.5134957,37.0429366],[14.5141861,37.0425197],[14.5143492,37.0421846],[14.5143171,37.0420403],[14.5141202,37.0418992],[14.5139755,37.0419024],[14.5130002,37.0423989],[14.5125208,37.0416682],[14.5125422,37.0413731],[14.5127418,37.0412191],[14.512786,37.0410812],[14.5127097,37.0408952],[14.512591,37.0407899],[14.5123266,37.0408877],[14.5113984,37.0407284],[14.511468,37.0404365],[14.511701,37.0401703],[14.5117332,37.0400131],[14.5115775,37.0396971],[14.510833,37.0399201],[14.5105196,37.0401703],[14.5104345,37.0404066],[14.5101859,37.0406493],[14.5096301,37.0403209],[14.509527,37.0401895],[14.5095137,37.0399686],[14.5091816,37.0394516],[14.5092945,37.0385105],[14.5094509,37.0383365],[14.5100475,37.0383502],[14.5102823,37.0382717],[14.5104281,37.0379626],[14.5103075,37.037368],[14.5099488,37.0369889],[14.5097231,37.0365323],[14.5093878,37.0362158],[14.5082783,37.0360133],[14.5075611,37.0366097],[14.5068947,37.036411],[14.5065624,37.0362305],[14.506178,37.0363659],[14.5049726,37.0370333],[14.5046793,37.0371015],[14.5045044,37.0370522],[14.5037469,37.0373081],[14.5035098,37.0372835],[14.503337,37.0370686],[14.5033611,37.0360356],[14.5031173,37.0360143],[14.5027959,37.0361287],[14.5026097,37.0362955],[14.5024329,37.0366356],[14.5018272,37.0370708],[14.5012913,37.0385752],[14.5012836,37.0397086],[14.5013536,37.0402766],[14.5014925,37.0406612],[14.5014845,37.0408408],[14.5014001,37.0409307],[14.5005241,37.040751],[14.4992542,37.0401833],[14.4988805,37.0399459],[14.4985259,37.0395496],[14.4982978,37.0389868],[14.498405,37.0385773],[14.4982278,37.0381767],[14.4982692,37.0374903],[14.4981705,37.0373156],[14.498299,37.0367328],[14.4991403,37.0359398],[14.4997582,37.034752],[14.5002348,37.0342361],[14.501082,37.0340224],[14.5023134,37.0334365],[14.502099,37.032793],[14.5013184,37.0319585],[14.5010584,37.0314109],[14.5010423,37.0302503],[14.5006927,37.0295848],[14.500639,37.0288268],[14.500263,37.0271159],[14.5002134,37.0266],[14.5002944,37.0257925],[14.5004392,37.0257395],[14.5008093,37.0235174],[14.5007458,37.0209971],[14.5005072,37.0199098],[14.5006531,37.0197393],[14.4996763,37.0161473],[14.499584,37.0138016],[14.500011,37.0127094],[14.5008189,37.0110447],[14.5015729,37.0099042],[14.5017822,37.0092286],[14.5018824,37.0081452],[14.5020706,37.0072901],[14.5023824,37.006493],[14.5030682,37.0055377],[14.5031611,37.0040659],[14.503117,37.00371],[14.5026217,37.0019627],[14.5015531,37.0004976],[14.501154,36.9996691],[14.5013127,36.9988316],[14.500594,36.9966274],[14.5003562,36.9952438],[14.4996259,36.9935681],[14.4996331,36.9919228],[14.4994409,36.9914237],[14.4988916,36.9908329],[14.4977061,36.9899064],[14.4963704,36.9887233],[14.4955593,36.9877489],[14.4935954,36.9865253],[14.4933687,36.9863159],[14.4931557,36.9860247],[14.4933053,36.9848599],[14.4932006,36.9845975],[14.492972,36.984386],[14.4926259,36.9841757],[14.4912402,36.9837397],[14.4908186,36.9835476],[14.4902985,36.9831774],[14.4883019,36.9806194],[14.4881126,36.9801226],[14.488132,36.9792729],[14.4872804,36.9784746],[14.4867321,36.9776087],[14.4848892,36.9761467],[14.4814533,36.9747929],[14.4797698,36.9742831],[14.4758316,36.9713132],[14.4752433,36.9710706],[14.4746211,36.9719431],[14.4748627,36.9719314],[14.4747058,36.9721698],[14.4745126,36.9720907],[14.4740387,36.9726795],[14.4733339,36.973192],[14.4579204,36.9814982],[14.4568128,36.982386],[14.4539375,36.9854574],[14.4532662,36.9859578],[14.4524345,36.986366],[14.4521732,36.9864553],[14.4486524,36.9862908],[14.4480114,36.9866521],[14.444605,36.9863582],[14.4446388,36.9861535],[14.4396019,36.9854662],[14.4403316,36.9817189],[14.4404517,36.981494],[14.4395456,36.9813631],[14.4401404,36.9798897],[14.4403468,36.9789991],[14.4407045,36.9782173],[14.438301,36.9779093],[14.4363298,36.9778418],[14.4351916,36.9779517],[14.4305618,36.9775955],[14.4303175,36.9781187],[14.43001,36.978316],[14.4282124,36.9782903],[14.4281469,36.9781419],[14.428021,36.9781348],[14.4255436,36.9781839],[14.425834,36.9776128],[14.416993,36.9739672],[14.4172213,36.9729429],[14.4171465,36.9705448],[14.4153271,36.9709509],[14.4137769,36.9714218],[14.4120039,36.9726241],[14.4110785,36.9734451],[14.4092372,36.9742771],[14.4072344,36.974806],[14.4075503,36.9736491],[14.4090573,36.9691981],[14.4037976,36.9680917],[14.4049874,36.9645541],[14.4040064,36.9644552],[14.4019624,36.9640795],[14.4032309,36.9610392],[14.4016196,36.9605657],[14.4029021,36.9573425],[14.402261,36.9572566],[14.4016936,36.9569227],[14.400709,36.9568553],[14.3999616,36.9566755],[14.3979125,36.9555836],[14.3965276,36.9545574],[14.3936636,36.9533929],[14.3876051,36.9501241]]]},"properties":{"type":"boundary","gemeente":"Vittoria"}}]}