{"type":"FeatureCollection","metadata":{"gemeente":"Zagarise","slug":"zagarise","generated_at":"2026-09-26T13:10:57.378103Z","total_points":6,"providers":["PosteItaliane","GLS","DHL","Amazon"],"bounds":[16.66048,38.99928,16.6608942,38.9996384]},"features":[{"type":"Feature","geometry":{"type":"Point","coordinates":[16.66084164,38.99963796]},"properties":{"type":"pakketpunt","locatieNaam":"Zagarise","straatNaam":"Via Guglielmo Marconi","straatNr":"8","vervoerder":"PosteItaliane","puntType":"postkantoor","bezettingsgraad":50,"latitude":38.99963796,"longitude":16.66084164,"canPickup":true,"canDropoff":true,"openingstijden":{"ma":"gesloten","di":"gesloten","wo":"gesloten","do":"gesloten","vr":"gesloten","za":"gesloten","zo":"gesloten"}}},{"type":"Feature","geometry":{"type":"Point","coordinates":[16.6605852,38.99941922]},"properties":{"type":"pakketpunt","locatieNaam":"Tabaccheria N. 1","straatNaam":"Via Guglielmo Marconi","straatNr":"1","vervoerder":"PosteItaliane","puntType":"servicepunt","bezettingsgraad":50,"latitude":38.99941922,"longitude":16.6605852,"canPickup":true,"canDropoff":true,"openingstijden":{"za":"08:00 - 13:00, 16:00 - 20:00","zo":"gesloten","ma":"08:00 - 13:00, 16:00 - 20:00","di":"08:00 - 13:00, 16:00 - 20:00","wo":"08:00 - 13:00, 16:00 - 20:00","do":"08:00 - 13:00, 16:00 - 20:00","vr":"08:00 - 13:00, 16:00 - 20:00"}}},{"type":"Feature","geometry":{"type":"Point","coordinates":[16.6608942,38.9996384]},"properties":{"type":"pakketpunt","locatieNaam":"WiNet Store","straatNaam":"Localita' Brunara","straatNr":"3","vervoerder":"GLS","puntType":"parcel_shop","bezettingsgraad":50,"latitude":38.9996384,"longitude":16.6608942,"canPickup":true,"canDropoff":true,"openingstijden":"za: 09:30 - 13:00, 16:00 - 19:00; ma: 09:30 - 13:00, 16:30 - 19:00"}},{"type":"Feature","geometry":{"type":"Point","coordinates":[16.660585,38.999419]},"properties":{"type":"pakketpunt","locatieNaam":"TABACCHERIA N. 1","straatNaam":"VIA GUGLIELMO MARCONI 1","straatNr":"","vervoerder":"DHL","puntType":"parcelShop","bezettingsgraad":50,"latitude":38.999419,"longitude":16.660585,"canPickup":true,"canDropoff":true,"openingstijden":{"ma":"08:00 - 13:00, 16:00 - 20:00","di":"08:00 - 13:00, 16:00 - 20:00","wo":"08:00 - 13:00, 16:00 - 20:00","do":"08:00 - 13:00, 16:00 - 20:00","vr":"08:00 - 13:00, 16:00 - 20:00","za":"08:00 - 13:00, 16:00 - 20:00","zo":"gesloten"}}},{"type":"Feature","geometry":{"type":"Point","coordinates":[16.66048,38.99928]},"properties":{"type":"pakketpunt","locatieNaam":"Amazon Counter - TABACCHI RUSSO","straatNaam":"VIA MARCONI 1","straatNr":"","vervoerder":"Amazon","puntType":"helix","bezettingsgraad":50,"latitude":38.99928,"longitude":16.66048,"canPickup":true,"canDropoff":false,"openingstijden":null}},{"type":"Feature","geometry":{"type":"Point","coordinates":[16.6605,38.9994]},"properties":{"type":"pakketpunt","locatieNaam":"PuntoPoste TABACCHERIA N. 1","straatNaam":"VIA GUGLIELMO MARCONI 1","straatNr":"","vervoerder":"Amazon","puntType":"3p","bezettingsgraad":50,"latitude":38.9994,"longitude":16.6605,"canPickup":true,"canDropoff":false,"openingstijden":null}},{"type":"Feature","geometry":{"type":"MultiPolygon","coordinates":[[[[16.6365049,39.0761179],[16.6319903,39.0812071],[16.6291872,39.0834289],[16.6261466,39.0856033],[16.6268789,39.0912443],[16.6293285,39.0926797],[16.6317618,39.0946966],[16.6276099,39.0988013],[16.6233267,39.102672],[16.6208241,39.1052527],[16.6204209,39.1060922],[16.6200658,39.1082698],[16.6197287,39.1122195],[16.6198976,39.1124994],[16.6211379,39.1136502],[16.6252617,39.1230258],[16.6223539,39.1252949],[16.6218102,39.1253262],[16.6208095,39.1255494],[16.6170638,39.1271224],[16.6151977,39.1280591],[16.6150926,39.1284897],[16.6152304,39.130469],[16.6165219,39.1404119],[16.6166102,39.1407344],[16.6178196,39.143007],[16.6182217,39.1434258],[16.6186425,39.1435646],[16.6220352,39.1442004],[16.6229248,39.143047],[16.6230573,39.141844],[16.6242275,39.1389065],[16.6284271,39.1353561],[16.6303439,39.134209],[16.6383,39.1320618],[16.6382457,39.131728],[16.6383995,39.1308184],[16.6387502,39.1305119],[16.6400093,39.1299567],[16.6413188,39.129533],[16.6421053,39.1289999],[16.6424747,39.1289845],[16.6433595,39.129223],[16.6442981,39.1293185],[16.6447252,39.1292498],[16.6451622,39.1291266],[16.6468395,39.1281299],[16.647526,39.1278057],[16.6479834,39.1276181],[16.6488027,39.1275326],[16.649275,39.1274024],[16.6501083,39.1268752],[16.6505224,39.1268074],[16.6509506,39.1268556],[16.6526329,39.1265421],[16.6531074,39.1265917],[16.6534298,39.1259992],[16.6534392,39.1254499],[16.6533627,39.1251447],[16.6520482,39.1248312],[16.6517764,39.1245883],[16.651407,39.124073],[16.650744,39.1234782],[16.6487191,39.1229504],[16.6453865,39.1179435],[16.6467128,39.1157701],[16.6468077,39.1154309],[16.6464758,39.1071375],[16.6462044,39.1043625],[16.6459203,39.1035807],[16.645088,39.1028231],[16.63923,39.1048314],[16.6387726,39.104061],[16.6384871,39.1032253],[16.6384862,39.1026857],[16.6387215,39.101357],[16.6401589,39.0979702],[16.6440046,39.0923288],[16.650147,39.0765742],[16.6527982,39.0732825],[16.6467834,39.0696544],[16.6365049,39.0761179]]],[[[16.6461093,38.9880326],[16.6449711,38.9900819],[16.6449831,38.9904724],[16.6457253,38.9932163],[16.6460268,38.9936191],[16.6475675,38.9938773],[16.6525218,38.996042],[16.6568525,39.0039997],[16.6574684,39.0084428],[16.657443,39.0149565],[16.6567495,39.0193106],[16.6568015,39.019631],[16.6601771,39.027638],[16.6620464,39.0290031],[16.6636777,39.0295564],[16.6765637,39.0385439],[16.6781921,39.0365382],[16.6802914,39.0350725],[16.6847227,39.0332993],[16.6859387,39.0329758],[16.6868559,39.0321595],[16.6874148,39.0313489],[16.6889711,39.028462],[16.6908133,39.0236762],[16.6903224,39.0210509],[16.6896126,39.01947],[16.6883944,39.0181702],[16.6915636,39.0034386],[16.6936504,38.9944767],[16.7018638,38.9859806],[16.7107626,38.98109],[16.7189315,38.9813696],[16.7207047,38.9831898],[16.7215777,38.9839682],[16.7222672,38.984372],[16.7230236,38.984479],[16.7235069,38.9844199],[16.7237448,38.9842241],[16.7255852,38.9749185],[16.7244439,38.9697599],[16.7225291,38.9661143],[16.7209729,38.9642077],[16.72604,38.9570078],[16.7312843,38.9430728],[16.7297266,38.9364175],[16.7319216,38.9341621],[16.7310849,38.9330127],[16.7256204,38.9269279],[16.7215335,38.9277261],[16.7208389,38.9281141],[16.7145431,38.9363533],[16.7119979,38.9399313],[16.7106651,38.9420076],[16.7065111,38.9491777],[16.7066061,38.9498775],[16.7065355,38.9502734],[16.7022747,38.9529668],[16.6889533,38.961046],[16.686399,38.962479],[16.6845762,38.962946],[16.6828736,38.9636839],[16.6778303,38.966136],[16.6742317,38.9681415],[16.6609815,38.9740902],[16.6607695,38.9747788],[16.6603167,38.9757306],[16.65724,38.980449],[16.6570506,38.9806414],[16.6564511,38.9808384],[16.6560945,38.9808709],[16.6555519,38.9808617],[16.6549123,38.9806881],[16.6542185,38.9806529],[16.6521271,38.981452],[16.6517964,38.9816447],[16.6480526,38.9855704],[16.647022,38.9867762],[16.6461093,38.9880326]]]]},"properties":{"type":"boundary","gemeente":"Zagarise"}}]}