{"type":"FeatureCollection","metadata":{"gemeente":"Zanè","slug":"zane","generated_at":"2026-09-26T13:10:57.428362Z","total_points":13,"providers":["PosteItaliane","DPD","InPost","GLS","DHL","Amazon"],"bounds":[11.44504,45.7128,11.46250135,45.719962]},"features":[{"type":"Feature","geometry":{"type":"Point","coordinates":[11.46250135,45.71284121]},"properties":{"type":"pakketpunt","locatieNaam":"Tabaccheria N. 4","straatNaam":"Via Alessandro Manzoni","straatNr":"124","vervoerder":"PosteItaliane","puntType":"servicepunt","bezettingsgraad":50,"latitude":45.71284121,"longitude":11.46250135,"canPickup":true,"canDropoff":true,"openingstijden":{"za":"09:00 - 20:00","zo":"09:30 - 19:30","ma":"09:00 - 20:00","di":"09:00 - 20:00","wo":"09:00 - 20:00","do":"09:00 - 20:00","vr":"09:00 - 20:00"}}},{"type":"Feature","geometry":{"type":"Point","coordinates":[11.45458684,45.7196726]},"properties":{"type":"pakketpunt","locatieNaam":"Zane'","straatNaam":"Via San Rocco","straatNr":"35","vervoerder":"PosteItaliane","puntType":"postkantoor","bezettingsgraad":50,"latitude":45.7196726,"longitude":11.45458684,"canPickup":true,"canDropoff":true,"openingstijden":{"ma":"gesloten","di":"gesloten","wo":"gesloten","do":"gesloten","vr":"gesloten","za":"gesloten","zo":"gesloten"}}},{"type":"Feature","geometry":{"type":"Point","coordinates":[11.44532959,45.71986548]},"properties":{"type":"pakketpunt","locatieNaam":"Stazione Di Servizio","straatNaam":"Via Monte Pasubio","straatNr":"75","vervoerder":"PosteItaliane","puntType":"automaat","bezettingsgraad":50,"latitude":45.71986548,"longitude":11.44532959,"canPickup":true,"canDropoff":true,"openingstijden":{"za":"00:01 - 23:59","zo":"00:01 - 23:59","ma":"00:01 - 23:59","di":"00:01 - 23:59","wo":"00:01 - 23:59","do":"00:01 - 23:59","vr":"00:01 - 23:59"}}},{"type":"Feature","geometry":{"type":"Point","coordinates":[11.460386,45.719962]},"properties":{"type":"pakketpunt","locatieNaam":"Edicola Stella","straatNaam":"VIA ROMA","straatNr":"11 B","vervoerder":"DPD","puntType":"pickup_point","bezettingsgraad":50,"latitude":45.719962,"longitude":11.460386,"canPickup":true,"canDropoff":true,"openingstijden":{"ma":"06:30 - 12:30, 16:00 - 19:00","di":"06:30 - 12:30, 16:00 - 19:00","wo":"06:30 - 12:30","do":"06:30 - 12:30, 16:00 - 19:00","vr":"06:30 - 12:30, 16:00 - 19:00","za":"06:30 - 12:30","zo":"06:30 - 12:00"}}},{"type":"Feature","geometry":{"type":"Point","coordinates":[11.4588521,45.7156101]},"properties":{"type":"pakketpunt","locatieNaam":"So.Ma. Caffè","straatNaam":"VIA A. MANZONI","straatNr":"72","vervoerder":"DPD","puntType":"pickup_point","bezettingsgraad":50,"latitude":45.7156101,"longitude":11.4588521,"canPickup":true,"canDropoff":true,"openingstijden":{"ma":"05:00 - 21:00","di":"05:00 - 21:00","wo":"05:00 - 21:00","do":"05:00 - 21:00","vr":"05:00 - 21:00","za":"05:00 - 13:00","zo":"06:00 - 12:30"}}},{"type":"Feature","geometry":{"type":"Point","coordinates":[11.44504,45.71988]},"properties":{"type":"pakketpunt","locatieNaam":"InPost Locker 24/7","straatNaam":"Via Monte Pasubio","straatNr":"25","vervoerder":"InPost","puntType":"automaat","bezettingsgraad":50,"latitude":45.71988,"longitude":11.44504,"canPickup":true,"canDropoff":true,"openingstijden":null}},{"type":"Feature","geometry":{"type":"Point","coordinates":[11.4588521,45.7156101]},"properties":{"type":"pakketpunt","locatieNaam":"So.Ma cafe","straatNaam":"Via Alessandro Manzoni","straatNr":"72","vervoerder":"GLS","puntType":"parcel_shop","bezettingsgraad":50,"latitude":45.7156101,"longitude":11.4588521,"canPickup":true,"canDropoff":true,"openingstijden":"za: 05:00 - 21:00; zo: 06:00 - 13:00"}},{"type":"Feature","geometry":{"type":"Point","coordinates":[11.460386,45.719962]},"properties":{"type":"pakketpunt","locatieNaam":"Edicola Stella","straatNaam":"Via Roma","straatNr":"11/B","vervoerder":"GLS","puntType":"parcel_shop","bezettingsgraad":50,"latitude":45.719962,"longitude":11.460386,"canPickup":true,"canDropoff":true,"openingstijden":"za: 06:30 - 12:30; zo: 06:30 - 12:00"}},{"type":"Feature","geometry":{"type":"Point","coordinates":[11.462501,45.712841]},"properties":{"type":"pakketpunt","locatieNaam":"TABACCHERIA N. 4","straatNaam":"VIA ALESSANDRO MANZONI 124","straatNr":"","vervoerder":"DHL","puntType":"parcelShop","bezettingsgraad":50,"latitude":45.712841,"longitude":11.462501,"canPickup":true,"canDropoff":true,"openingstijden":{"ma":"09:00 - 20:00","di":"09:00 - 20:00","wo":"09:00 - 20:00","do":"09:00 - 20:00","vr":"09:00 - 20:00","za":"09:00 - 20:00","zo":"09:30 - 19:30"}}},{"type":"Feature","geometry":{"type":"Point","coordinates":[11.44533,45.719865]},"properties":{"type":"pakketpunt","locatieNaam":"STAZIONE DI SERVIZIO","straatNaam":"VIA MONTE PASUBIO 75","straatNr":"","vervoerder":"DHL","puntType":"packStation","bezettingsgraad":50,"latitude":45.719865,"longitude":11.44533,"canPickup":true,"canDropoff":true,"openingstijden":{"ma":"00:01 - 23:59","di":"00:01 - 23:59","wo":"00:01 - 23:59","do":"00:01 - 23:59","vr":"00:01 - 23:59","za":"00:01 - 23:59","zo":"00:01 - 23:59"}}},{"type":"Feature","geometry":{"type":"Point","coordinates":[11.460386,45.719962]},"properties":{"type":"pakketpunt","locatieNaam":"Amazon Counter (fermopoint)","straatNaam":"Edicola Stella","straatNr":"","vervoerder":"Amazon","puntType":"helix","bezettingsgraad":50,"latitude":45.719962,"longitude":11.460386,"canPickup":true,"canDropoff":false,"openingstijden":null}},{"type":"Feature","geometry":{"type":"Point","coordinates":[11.4625,45.7128]},"properties":{"type":"pakketpunt","locatieNaam":"PuntoPoste TABACCHERIA N. 4","straatNaam":"VIA ALESSANDRO MANZONI 124","straatNr":"","vervoerder":"Amazon","puntType":"3p","bezettingsgraad":50,"latitude":45.7128,"longitude":11.4625,"canPickup":true,"canDropoff":false,"openingstijden":null}},{"type":"Feature","geometry":{"type":"Point","coordinates":[11.458766,45.715732]},"properties":{"type":"pakketpunt","locatieNaam":"Amazon Counter","straatNaam":"So.Ma. Caffè (fermopoint)","straatNr":"","vervoerder":"Amazon","puntType":"helix","bezettingsgraad":50,"latitude":45.715732,"longitude":11.458766,"canPickup":true,"canDropoff":false,"openingstijden":null}},{"type":"Feature","geometry":{"type":"Polygon","coordinates":[[[11.4253701,45.719929],[11.4264656,45.719903],[11.4269824,45.7197013],[11.4288046,45.7177199],[11.429831,45.7179547],[11.4304727,45.7182068],[11.430732,45.7180457],[11.4324168,45.7163616],[11.4324031,45.7159803],[11.4347096,45.7135099],[11.435378,45.7136244],[11.4356848,45.713428],[11.4361454,45.7127725],[11.4389061,45.7130175],[11.440245,45.7130495],[11.4402704,45.7128967],[11.4386483,45.7118302],[11.4405873,45.7101784],[11.4424092,45.7090833],[11.4427138,45.7093352],[11.4446417,45.7079382],[11.4441467,45.7073838],[11.445096,45.7067169],[11.4447249,45.7063642],[11.4458225,45.7054333],[11.44725,45.7046111],[11.4479448,45.7051517],[11.448789,45.7061535],[11.4505255,45.7070963],[11.4512793,45.7080011],[11.4516431,45.7083019],[11.4521933,45.7092509],[11.452519,45.7096039],[11.4532712,45.7092195],[11.4545216,45.7089145],[11.4548242,45.7090128],[11.4551272,45.7092541],[11.4554142,45.7093277],[11.4561419,45.709104],[11.457284,45.7089683],[11.4576323,45.7088191],[11.4597698,45.7085001],[11.460034,45.7087804],[11.4605627,45.7097903],[11.4608872,45.7102304],[11.4616353,45.7106571],[11.4620282,45.7111213],[11.4655828,45.7142073],[11.4663158,45.7145111],[11.4689871,45.7164332],[11.469807,45.7158917],[11.4712267,45.716985],[11.4705911,45.7182995],[11.4701159,45.7187596],[11.4699169,45.7191466],[11.4698518,45.7197726],[11.4690792,45.7210849],[11.4685945,45.7227522],[11.4678278,45.7241221],[11.4673722,45.7247016],[11.4674745,45.725242],[11.4673549,45.7253843],[11.4679417,45.7257739],[11.4679721,45.7258659],[11.4679729,45.7272539],[11.4681708,45.7281014],[11.4685742,45.7292317],[11.4668311,45.7295693],[11.4668099,45.7293662],[11.4659693,45.7293792],[11.4659653,45.7300102],[11.4657256,45.7303439],[11.4641379,45.7306573],[11.4583819,45.7316503],[11.4562173,45.7316253],[11.4533159,45.732369],[11.4520976,45.732455],[11.4499503,45.7329867],[11.4491871,45.733053],[11.4480745,45.733014],[11.4475276,45.7338435],[11.4474441,45.734503],[11.446576,45.7341527],[11.445451,45.733827],[11.4451524,45.7339391],[11.4445984,45.7339499],[11.4435075,45.7341575],[11.4403921,45.7377172],[11.4398893,45.7374731],[11.4398291,45.7375127],[11.4392221,45.7373325],[11.4375597,45.7364645],[11.4369547,45.7362275],[11.4344743,45.7342897],[11.4366372,45.7340499],[11.4361002,45.7321894],[11.4356145,45.7322815],[11.4350892,45.7305841],[11.4347399,45.729919],[11.4345895,45.7293543],[11.4327397,45.729564],[11.4311403,45.7294991],[11.4295424,45.7296856],[11.4293717,45.7291432],[11.4268362,45.729489],[11.4261163,45.7267452],[11.4260989,45.726174],[11.4258108,45.724659],[11.4259019,45.7241216],[11.4258347,45.7233757],[11.4254836,45.7222647],[11.4256165,45.7212494],[11.4253701,45.719929]]]},"properties":{"type":"boundary","gemeente":"Zanè"}}]}