{"type":"FeatureCollection","metadata":{"gemeente":"Zungri","slug":"zungri","generated_at":"2026-09-26T13:10:57.909564Z","total_points":2,"providers":["PosteItaliane","DHL"],"bounds":[15.981118,38.65559079,15.98111816,38.655591]},"features":[{"type":"Feature","geometry":{"type":"Point","coordinates":[15.98111816,38.65559079]},"properties":{"type":"pakketpunt","locatieNaam":"Zungri","straatNaam":"Via Giuseppe Garibaldi","straatNr":"22","vervoerder":"PosteItaliane","puntType":"postkantoor","bezettingsgraad":50,"latitude":38.65559079,"longitude":15.98111816,"canPickup":true,"canDropoff":true,"openingstijden":{"za":"08:20 - 12:45","zo":"gesloten","ma":"08:20 - 13:45","di":"08:20 - 13:45","wo":"08:20 - 13:45","do":"08:20 - 13:45","vr":"08:20 - 13:45"}}},{"type":"Feature","geometry":{"type":"Point","coordinates":[15.981118,38.655591]},"properties":{"type":"pakketpunt","locatieNaam":"Ufficio Postale ZUNGRI","straatNaam":"VIA GIUSEPPE GARIBALDI 22","straatNr":"","vervoerder":"DHL","puntType":"postOffice","bezettingsgraad":50,"latitude":38.655591,"longitude":15.981118,"canPickup":true,"canDropoff":true,"openingstijden":{"ma":"08:20 - 13:45","di":"08:20 - 13:45","wo":"08:20 - 13:45","do":"08:20 - 13:45","vr":"08:20 - 13:45","za":"08:20 - 12:45","zo":"gesloten"}}},{"type":"Feature","geometry":{"type":"Polygon","coordinates":[[[15.9401092,38.6244442],[15.9402885,38.6242085],[15.9413071,38.6239633],[15.9427971,38.6227993],[15.94356,38.6214402],[15.9434393,38.621038],[15.9435392,38.6207667],[15.9439588,38.6202738],[15.9441688,38.6196899],[15.9441977,38.6192923],[15.9444477,38.619003],[15.9448467,38.6188442],[15.9450492,38.6185083],[15.9451102,38.6179243],[15.9457357,38.6174416],[15.9461755,38.6168171],[15.9467741,38.6168848],[15.9471742,38.616753],[15.9471454,38.6163228],[15.9474036,38.6158666],[15.9476766,38.6157108],[15.9487191,38.6154327],[15.949144,38.6154388],[15.9499555,38.6158429],[15.9500517,38.6161977],[15.9507588,38.6167325],[15.9511235,38.6173001],[15.9514679,38.6181612],[15.9517949,38.6195363],[15.9518267,38.6201597],[15.9516146,38.6206627],[15.9510724,38.6213249],[15.9509962,38.6216257],[15.9512057,38.6218651],[15.9522405,38.62184],[15.9526773,38.6219533],[15.9533424,38.6219226],[15.9546805,38.6214604],[15.9557283,38.6215417],[15.9561762,38.6216448],[15.9565131,38.6218434],[15.9566317,38.6221355],[15.9568674,38.623426],[15.9569699,38.6242161],[15.9569205,38.6249029],[15.9572835,38.6262488],[15.9571149,38.6266682],[15.9567486,38.6266766],[15.9562223,38.626852],[15.956054,38.6270825],[15.9560003,38.6274225],[15.9563845,38.6279504],[15.9568385,38.6282368],[15.9583522,38.6287941],[15.9603931,38.6300643],[15.9612517,38.6308791],[15.9616915,38.6319819],[15.9622545,38.632101],[15.9625641,38.6320197],[15.9649856,38.6309706],[15.9666517,38.6300567],[15.9699933,38.6292269],[15.9726322,38.6289699],[15.975654,38.6289643],[15.9765194,38.6293263],[15.9776772,38.6299677],[15.9797101,38.6316138],[15.9800124,38.6318026],[15.9804989,38.6318967],[15.9806277,38.632151],[15.9810187,38.6324917],[15.9827028,38.6328624],[15.9841226,38.6329204],[15.9850327,38.6331926],[15.985534,38.6334479],[15.9871065,38.6337961],[15.9874237,38.6341782],[15.9874368,38.6345862],[15.9873047,38.634704],[15.9875623,38.6356114],[15.987493,38.6357082],[15.987414,38.635633],[15.9874007,38.6357497],[15.987726,38.6361726],[15.9887556,38.6364788],[15.9889655,38.6366169],[15.9907589,38.6368204],[15.9911558,38.6370444],[15.9916685,38.6370459],[15.9924076,38.637302],[15.9928761,38.637336],[15.9933413,38.6376643],[15.993707,38.6377837],[15.99369,38.6378975],[15.9939169,38.637916],[15.9939938,38.6381019],[15.9951424,38.638958],[15.9953072,38.6390557],[15.9957465,38.6391161],[15.9961587,38.639375],[15.9963193,38.6397059],[15.997187,38.6401242],[15.9973994,38.6404401],[15.9986594,38.6396714],[15.9991768,38.6389382],[15.9998671,38.6388914],[16.0002849,38.6384827],[16.0003776,38.638202],[16.0004961,38.6381718],[16.0007796,38.6377205],[16.0007112,38.6376103],[16.0010725,38.6374148],[16.0020931,38.6381407],[16.0036826,38.6386314],[16.0042375,38.6389939],[16.0046023,38.6390491],[16.0048891,38.6393673],[16.0052922,38.6395009],[16.0057424,38.6398119],[16.0059574,38.6403114],[16.0061605,38.6404904],[16.0063927,38.6411502],[16.0068658,38.642044],[16.0069921,38.6420371],[16.0069654,38.6414572],[16.0075177,38.6413679],[16.0076257,38.6411221],[16.0073461,38.6407863],[16.00683,38.6405459],[16.0072964,38.6404194],[16.0071363,38.6401293],[16.0069735,38.6401803],[16.0064774,38.6397677],[16.0066068,38.6394575],[16.0067706,38.6393001],[16.0073087,38.6391867],[16.0083099,38.6385012],[16.0091333,38.6381682],[16.0112968,38.6367738],[16.0116867,38.6365974],[16.0133817,38.6363648],[16.014386,38.6358724],[16.0146466,38.6355913],[16.0146644,38.6344701],[16.0150005,38.6341867],[16.0149145,38.6334234],[16.0152156,38.6309203],[16.0151584,38.6302673],[16.0148242,38.6292901],[16.0144286,38.6285019],[16.0164682,38.6277482],[16.0167225,38.6274904],[16.0169787,38.6269008],[16.0170869,38.6269145],[16.0173448,38.6274967],[16.0176298,38.6279049],[16.0179953,38.6281065],[16.0185898,38.6282396],[16.020456,38.6299322],[16.0205398,38.6301954],[16.0205578,38.6314643],[16.0203737,38.6319082],[16.0207855,38.6317799],[16.0214676,38.6312934],[16.022467,38.6313231],[16.02324,38.6315599],[16.0239673,38.6325866],[16.0245764,38.6342503],[16.0249853,38.634662],[16.0259562,38.6351027],[16.0265494,38.6355662],[16.0272189,38.6366324],[16.0274802,38.6372779],[16.0278339,38.6378729],[16.0288812,38.6386374],[16.0296384,38.6395588],[16.0296442,38.6399543],[16.0294903,38.640373],[16.029319,38.641301],[16.0292794,38.6417442],[16.0293741,38.6427237],[16.0293113,38.6431503],[16.0289229,38.644087],[16.028651,38.645174],[16.0281252,38.6461865],[16.0280724,38.6464955],[16.0283333,38.6471231],[16.0277041,38.6472285],[16.0270169,38.6482777],[16.0278201,38.6489939],[16.0283824,38.6497112],[16.0284578,38.6502015],[16.028289,38.6504546],[16.0278345,38.6506305],[16.0268553,38.6506492],[16.026501,38.6507065],[16.0262726,38.6508778],[16.0258139,38.6516837],[16.0251118,38.6524503],[16.0246691,38.6536242],[16.0242387,38.6539875],[16.0229563,38.6543798],[16.0216892,38.6550456],[16.0213886,38.65568],[16.0210478,38.6568117],[16.0207556,38.6572252],[16.0199321,38.6575583],[16.019602,38.6577761],[16.0192983,38.6582038],[16.0176893,38.6598303],[16.0167085,38.6603888],[16.0145616,38.6613279],[16.0138551,38.6618473],[16.0129617,38.6620541],[16.0125057,38.6622751],[16.0119976,38.6629445],[16.0109913,38.6632885],[16.0105918,38.663515],[16.0102417,38.663851],[16.0096464,38.6641432],[16.0091796,38.6642838],[16.0086395,38.6643343],[16.0082724,38.6644824],[16.0078095,38.6650726],[16.0073505,38.6653926],[16.0066555,38.6655335],[16.0064394,38.6657579],[16.0060858,38.6659411],[16.0050778,38.6661952],[16.004588,38.6665396],[16.0042004,38.6666979],[16.0027756,38.6667387],[16.0014393,38.6665401],[16.0010262,38.6665695],[16.0000209,38.6670123],[15.9996791,38.6673163],[15.998457,38.6677272],[15.9974539,38.6684128],[15.9960567,38.6688387],[15.9957007,38.6688511],[15.994702,38.6685573],[15.9942164,38.6686209],[15.9936614,38.6685193],[15.9931101,38.66853],[15.9918266,38.6679908],[15.9900409,38.6676122],[15.9894648,38.6673094],[15.9881704,38.6670407],[15.9869901,38.6665448],[15.9862171,38.6663258],[15.9851482,38.666309],[15.9835316,38.6657807],[15.9826669,38.6656076],[15.9809561,38.6656428],[15.9794948,38.665411],[15.9787059,38.664986],[15.9764164,38.6631753],[15.9752266,38.6626978],[15.9728429,38.6615091],[15.970193,38.661047],[15.9689717,38.6600539],[15.9685785,38.6598166],[15.968278,38.6597356],[15.9670012,38.6596591],[15.964434,38.6601636],[15.9606576,38.660565],[15.9593127,38.6604969],[15.9581916,38.6600466],[15.9578894,38.6597858],[15.9574183,38.6589232],[15.9573835,38.6579896],[15.957505,38.6550942],[15.9569805,38.653668],[15.9565089,38.6528144],[15.9563885,38.6524167],[15.9561004,38.6497618],[15.9556226,38.647442],[15.9561369,38.6463002],[15.9560278,38.6459153],[15.9558158,38.6456085],[15.9550048,38.6449957],[15.9537106,38.6444568],[15.9528987,38.6439384],[15.9505288,38.6428068],[15.9501584,38.6425637],[15.9485255,38.6420642],[15.9478132,38.6416438],[15.9450545,38.6411534],[15.9443349,38.6408543],[15.9437069,38.6402948],[15.9468318,38.6389146],[15.9458977,38.6377511],[15.9458875,38.6376473],[15.9469961,38.6369592],[15.9475973,38.6363237],[15.945259,38.6341945],[15.9445798,38.6332645],[15.9441361,38.6331157],[15.9436801,38.6326966],[15.9433781,38.6325743],[15.9430031,38.6322725],[15.9429266,38.6318227],[15.9430472,38.631593],[15.9427547,38.6311796],[15.9427337,38.6308467],[15.9421537,38.6307328],[15.9405719,38.6299904],[15.93894,38.6290395],[15.9383476,38.6285485],[15.9385738,38.6282786],[15.9388074,38.6277158],[15.9392527,38.6274868],[15.9393067,38.6272452],[15.9392334,38.6268581],[15.9397695,38.6267364],[15.9404882,38.6272059],[15.9408645,38.6270758],[15.9408519,38.6267976],[15.9402961,38.6247749],[15.9401092,38.6244442]]]},"properties":{"type":"boundary","gemeente":"Zungri"}}]}